{"name":"Singapore","other_names":{"name:af":"Singapoer","name:am":"ሲንጋፖር","name:ar":"سنغافورة","name:az":"Sinqapur","name:ba":"Сингапур","name:be":"Сінгапур","name:bg":"Сингапур","name:bi":"Singapore","name:bn":"সিঙ্গাপুর","name:bo":"སེང་ག་ཕོར།","name:br":"Singapoura","name:ca":"Singapur","name:cs":"Singapur","name:cv":"Сингапур","name:cy":"Singapore","name:da":"Singapore","name:de":"Singapur","name:dv":"ސިންގަޕޫރު","name:el":"Σιγκαπούρη","name:en":"Singapore","name:eo":"Singapuro","name:es":"Singapur","name:et":"Singapur","name:fa":"سنگاپور","name:ff":"Sinngapuur","name:fi":"Singapore","name:fo":"Singapor","name:fr":"Singapour","name:fy":"Singapore","name:ga":"Singeapór","name:gd":"Singeapòr","name:gl":"Singapur","name:gu":"સિંગાપુર","name:gv":"Singapore","name:ha":"Singapore","name:he":"סינגפור","name:hi":"सिंगापुर","name:hr":"Singapur","name:ht":"Sengapou","name:hu":"Szingapúr","name:hy":"Սինգապուրի Հանրապետություն","name:id":"Singapura","name:ie":"Singapor","name:is":"Singapúr","name:it":"Singapore","name:ja":"シンガポール","name:jv":"Singapura","name:ka":"სინგაპური","name:ki":"Singapore","name:kk":"Сингапур","name:kl":"Singapore","name:km":"សិង្ហបុរី","name:kn":"ಸಿಂಗಾಪುರ","name:ko":"싱가포르","name:ku":"Singapûr","name:kv":"Сингапур","name:kw":"Singapour","name:la":"Singapura","name:lb":"Singapur","name:li":"Singapore","name:lt":"Singapūras","name:lv":"Singapūra","name:mg":"Singapaoro","name:mi":"Hingapoa","name:mk":"Сингапур","name:ml":"സിംഗപ്പൂർ","name:mn":"Сингапур","name:mr":"सिंगापूर","name:ms":"Singapura","name:mt":"Singapor","name:my":"စင်ကာပူနိုင်ငံ","name:na":"Tsingapoar","name:ne":"सिंगापुर","name:nl":"Singapore","name:nn":"Singapore","name:no":"Singapore","name:nv":"Sį́ʼgaboo","name:oc":"Singapor","name:or":"ସିଙ୍ଗାପୁର","name:os":"Сингапур","name:pa":"ਸਿੰਗਾਪੁਰ","name:pl":"Singapur","name:ps":"سينګاپور","name:pt":"Singapura","name:ro":"Singapore","name:ru":"Сингапур","name:rw":"Singapore","name:sa":"सिङ्गापुर","name:se":"Singapore","name:sg":"Sïngäpûru","name:sk":"Singapur","name:sl":"Singapur","name:sm":"Sigapoa","name:so":"Singabuur","name:sq":"Singapori","name:sr":"Сингапур","name:ss":"ISingapholo","name:su":"Singapura","name:sv":"Singapore","name:sw":"Singapuri","name:ta":"சிங்கப்பூர்","name:te":"సింగపూరు","name:tg":"Сингапур","name:th":"สิงคโปร์","name:tl":"Singgapur","name:tr":"Singapur","name:tt":"Сингапур","name:ug":"سىنگاپور","name:uk":"Сінгапур","name:ur":"سنگاپور","name:vi":"Tân Gia Ba","name:vo":"Singapurän","name:wo":"Singapoor","name:yi":"סינגאפור","name:yo":"Singapore","name:zh":"新加坡","name:ace":"Singapura","name:arz":"سينجابوره","name:azb":"سنقاپور","name:bcl":"Singapore","name:bjn":"Singapura","name:bpy":"সিঙ্গাপুর","name:bug":"Singapura","name:bxr":"Сингапур","name:cdo":"Sĭng-gă-pŏ̤","name:ceb":"Singgapura","name:ckb":"سینگاپور","name:csb":"Singapùr","name:ext":"Singapul","name:frp":"Singapor","name:gan":"新加坡","name:hak":"Sîn-kâ-po","name:haw":"Sinapoa","name:hif":"Singapore","name:jbo":"singapura","name:lez":"Сингапур","name:lij":"Scingapô","name:mhr":"Сингапур","name:mzn":"سنگاپور","name:nan":"Sin-ka-pho","name:nov":"Singapore","name:pam":"Singapore","name:pms":"Singapor","name:pnb":"سنگاپور","name:rue":"Сінґапур","name:sah":"Сингапур","name:scn":"Singapura","name:sco":"Singapore","name:tzl":"Singapura","name:udm":"Сингапур","name:vec":"Singapore","name:vls":"Singapore","name:war":"Singgapura","name:wuu":"新加坡","name:xal":"Сингапурмудин Орн","name:yue":"星架坡","name:az-Arab":"سنقاپور","name:bat-smg":"Singapūrs","name:kk-Arab":"سىينگاپۋر","name:map-bms":"Singapura","name:roa-rup":"Singapore","name:zh-Hans":"新加坡","name:zh-Hant":"新加坡","name:nan-Hant":"新加坡","name:roa-tara":"Singapore","name:be-tarask":"Сынгапур","name:nan-Latn-tailo":"Sin-ka-pho","name:zh-Latn-pinyin":"Xīnjiāpō","name:nan-Latn-pehoeji":"Sin-ka-pho"},"display_name":"Singapore, 178957, Singapore","address":{"city":"Singapore","postcode":"178957","country":"Singapore","country_code":"sg"},"population":5535002,"osm_type":"node","osm_id":531668011,"type":"city","location":[103.8519072,1.2899175],"bbox":[103.6919072,1.1299175,104.0119072,1.4499175],"border":{"name":"Singapore","other_names":{"name:af":"Singapoer","name:am":"ሲንጋፖር","name:an":"Singapur","name:ar":"سنغافورة","name:az":"Sinqapur","name:ba":"Сингапур","name:be":"Сінгапур","name:bg":"Сингапур","name:bi":"Singapore","name:bn":"সিঙ্গাপুর","name:bo":"སེང་ག་ཕོར།","name:br":"Singapoura","name:bs":"Singapur","name:ca":"Singapur","name:ce":"Сингапур","name:cs":"Singapur","name:cv":"Сингапур","name:cy":"Singapore","name:da":"Singapore","name:de":"Singapur","name:dv":"ސިންގަޕޫރު","name:el":"Σιγκαπούρη","name:en":"Singapore","name:eo":"Singapuro","name:es":"Singapur","name:et":"Singapur","name:eu":"Singapur","name:fa":"سنگاپور","name:ff":"Sinngapuur","name:fi":"Singapore","name:fo":"Singapor","name:fr":"Singapour","name:fy":"Singapoer","name:ga":"Singeapór","name:gd":"Singeapòr","name:gl":"Singapur","name:gn":"Singapur","name:gu":"સિંગાપુર","name:gv":"Singapore","name:ha":"Singapore","name:he":"סינגפור","name:hi":"सिंगापुर","name:hr":"Singapur","name:ht":"Sengapou","name:hu":"Szingapúr","name:hy":"Սինգապուրի Հանրապետություն","name:ia":"Singapur","name:id":"Singapura","name:ie":"Singapor","name:io":"Singapur","name:is":"Singapúr","name:it":"Singapore","name:ja":"シンガポール","name:jv":"Singapura","name:ka":"სინგაპური","name:ki":"Singapore","name:kk":"Сингапур","name:kl":"Singapore","name:km":"សិង្ហបុរី","name:kn":"ಸಿಂಗಾಪುರ್","name:ko":"싱가포르","name:ku":"Singapûr","name:kv":"Сингапур","name:kw":"Singapour","name:ky":"Сингапур","name:la":"Singapura","name:lb":"Singapur","name:li":"Singapore","name:ln":"Singapur","name:lt":"Singapūras","name:lv":"Singapūra","name:mg":"Singapaoro","name:mi":"Hingapoa","name:mk":"Сингапур","name:ml":"സിംഗപ്പൂർ","name:mn":"Сингапур","name:mr":"सिंगापूर","name:ms":"Singapura","name:mt":"Singapor","name:my":"စင်ကာပူနိုင်ငံ","name:na":"Tsingapoar","name:ne":"सिंगापुर","name:nl":"Singapore","name:nn":"Singapore","name:no":"Singapore","name:nv":"Sį́ʼgaboo","name:oc":"Singapor","name:or":"ସିଙ୍ଗାପୁର","name:os":"Сингапур","name:pa":"ਸਿੰਘਾਪੁਰ","name:pl":"Singapur","name:ps":"سينګاپور","name:pt":"Singapura","name:qu":"Singapur","name:ro":"Singapore","name:ru":"Сингапур","name:rw":"Singapore","name:sa":"सिङ्गापुरम्","name:se":"Singapore","name:sg":"Sïngäpûru","name:sh":"Singapur","name:sk":"Singapur","name:sl":"Singapur","name:sm":"Sigapoa","name:so":"Singabuur","name:sq":"Singapori","name:sr":"Сингапур","name:ss":"ISingapholo","name:su":"Singapura","name:sv":"Singapore","name:sw":"Singapuri","name:ta":"சிங்கப்பூர்","name:te":"సింగపూరు","name:tg":"Сингапур","name:th":"ประเทศสิงคโปร์","name:tk":"Singapur","name:tl":"Singapore","name:tr":"Singapur","name:tt":"Сингапур","name:ug":"سىنگاپور","name:uk":"Сінгапур","name:ur":"سنگاپور","name:uz":"Singapur","name:vi":"Tân Gia Ba","name:vo":"Singapurän","name:wo":"Singapoor","name:yi":"סינגאפור","name:yo":"Singapore","name:zh":"新加坡","name:ace":"Singapura","name:als":"Singapur","name:arz":"سينجابوره","name:ast":"Singapur","name:azb":"سنقاپور","name:bar":"Singapur","name:bcl":"Singapore","name:bjn":"Singapura","name:bpy":"সিঙ্গাপুর","name:bug":"Singapura","name:bxr":"Сингапур","name:cdo":"Sĭng-gă-pŏ̤","name:ceb":"Singgapura","name:ckb":"سینگاپور","name:crh":"Singapur","name:csb":"Singapùr","name:diq":"Singapur","name:dsb":"Singapur","name:ext":"Singapul","name:frp":"Singapor","name:gag":"Singapur","name:gan":"新加坡","name:hak":"Sîn-kâ-po","name:haw":"Sinapoa","name:hif":"Singapore","name:ilo":"Singapur","name:jbo":"singapura","name:kab":"Singapur","name:lez":"Сингапур","name:lij":"Scingapô","name:lmo":"Singapur","name:lzh":"新加坡","name:mhr":"Сингапур","name:min":"Singapura","name:mzn":"سنگاپور(شهر)","name:nah":"Singapur","name:nan":"Sin-ka-pho","name:nds":"Singapur","name:nov":"Singapore","name:pam":"Singapur","name:pih":"Singapur","name:pms":"Singapor","name:pnb":"سنگاپور","name:rue":"Сінґапур","name:sah":"Сингапур","name:scn":"Singapura","name:sco":"Singapore","name:smn":"Singapore","name:sms":"Singapore","name:szl":"Singapur","name:tzl":"Singapura","name:udm":"Сингапур","name:vec":"Singapore","name:vep":"Singapur","name:vls":"Singapore","name:vro":"Singapur","name:war":"Singgapura","name:wuu":"新加坡","name:xal":"Сингапурмудин Орн","name:yue":"星架坡","name:simple":"Singapore","name:az-Arab":"سنقاپور","name:bat-smg":"Singapūrs","name:kk-Arab":"سىينگاپۋر","name:map-bms":"Singapura","name:ms-Arab":"سيڠاڤورا","name:roa-rup":"Singapore","name:zh-Hans":"新加坡","name:zh-Hant":"新加坡","name:nan-Hans":"新加坡","name:roa-tara":"Singapore","official_name":"Republic of Singapore","name:be-tarask":"Сынгапур","official_name:ar":"جمهورية سنغافورة","official_name:cs":"Singapurská republika","official_name:de":"Republik Singapur","official_name:en":"Republic of Singapore","official_name:fr":"République de Singapour","official_name:gn":"Tavakuairetã Singapur","official_name:pt":"República de Singapura","official_name:ur":"جمہوریہ سنگاپور","official_name:vls":"Republiek Singapore","name:nan-Latn-tailo":"Sin-ka-pho","name:nan-Hant":"新加坡","name:nan-Latn-pehoeji":"Sin-ka-pho","name:zh-Latn-pinyin":"Xīnjiāpō","alt:fy":"Singapore","alt:kn":"ಸಿಂಗಾಪುರ","alt:pa":"ਸਿੰਗਾਪੁਰ","alt:sa":"सिङ्गापुर","alt:th":"สิงคโปร์","alt:tl":"Singgapur","alt:mzn":"سنگاپور","alt:pam":"Singapore"},"display_name":"Singapore","address":{"city":"Singapore","country":"Singapore","country_code":"sg"},"population":5535002,"osm_type":"relation","osm_id":17140517,"type":"city","location":[103.8519072,1.2899175],"bbox":[103.5666667,1.1285402,104.5716696,1.5143183]}}
