{"name":"Atakpamé","other_names":{"name:ar":"آتكابامي","name:de":"Atakpamé","name:el":"Ατακπαμέ","name:fr":"Atakpamé","name:ko":"아타크파메","name:ru":"Атакпаме","name:uk":"Атакпаме"},"display_name":"Atakpamé, Région des Plateaux, Togo","address":{"city":"Atakpamé","state":"Région des Plateaux","ISO3166-2-lvl4":"TG-P","country":"Togo","country_code":"tg"},"population":87000,"osm_type":"node","osm_id":4409324516,"type":"city","location":[1.1219479,7.5320603],"bbox":[0.9619479,7.3720603,1.2819479,7.6920603]}
{"name":"Dapaong","other_names":{"name:ar":"داباونق","name:fr":"Dapaong","name:ko":"다파옹","name:ru":"Дапаон","name:uk":"Дапаонг","alt_name":"Dapaong"},"display_name":"Dapaong, Préfecture de Kpendjal, Région des Savanes, Togo","address":{"city":"Dapaong","county":"Préfecture de Kpendjal","state":"Région des Savanes","ISO3166-2-lvl4":"TG-S","country":"Togo","country_code":"tg"},"population":33000,"osm_type":"node","osm_id":279670201,"type":"city","location":[0.2043122,10.8595454],"bbox":[0.0443122,10.6995454,0.3643122,11.0195454]}
{"name":"Kara","other_names":{"name:ar":"كارا","name:fr":"Kara","name:ko":"카라","name:ru":"Кара","name:uk":"Кара"},"display_name":"Kara, Kozah, Région de la Kara, Togo","address":{"city":"Kara","county":"Kozah","state":"Région de la Kara","ISO3166-2-lvl4":"TG-K","country":"Togo","country_code":"tg"},"population":110000,"osm_type":"node","osm_id":2516231661,"type":"city","location":[1.1977453,9.5488754],"bbox":[1.0377453,9.3888754,1.3577453,9.7088754]}
{"name":"Kpalimé","other_names":{"name:ar":"كبالمي","name:fr":"Kpalimé","name:ko":"크팔리메","name:ru":"Кпалиме"},"display_name":"Kpalimé, Région des Plateaux, Togo","address":{"city":"Kpalimé","state":"Région des Plateaux","ISO3166-2-lvl4":"TG-P","country":"Togo","country_code":"tg"},"population":75000,"osm_type":"node","osm_id":1947278732,"type":"city","location":[0.6323982,6.9106565],"bbox":[0.4723982,6.7506565,0.7923982,7.0706565]}
{"name":"Lomé","other_names":{"name:am":"ሎሜ","name:ar":"لومي","name:az":"Lome","name:ba":"Ломе","name:be":"Ламэ","name:bg":"Ломе","name:bn":"লোমে","name:bo":"ལཱོ་མེ།","name:br":"Lomé","name:ca":"Lomé","name:ce":"Ломе","name:de":"Lomé","name:el":"Λομέ","name:en":"Lomé","name:eo":"Lomeo","name:es":"Lomé","name:eu":"Lome","name:fa":"لومه","name:fr":"Lomé","name:he":"לומה","name:hi":"लोमे","name:ht":"Lomé","name:hu":"Lomé","name:hy":"Լոմե","name:io":"Lome","name:is":"Lomé","name:it":"Lomé","name:ja":"ロメ","name:ka":"ლომე","name:kg":"Lome","name:kk":"Ломе","name:ko":"로메","name:ky":"Ломе","name:la":"Lome","name:lt":"Lomė","name:lv":"Lome","name:mk":"Ломе","name:ml":"ലോമെ","name:mn":"Ломе","name:mr":"लोमे","name:nl":"Lomé","name:no":"Lomé","name:oc":"Lomé","name:os":"Ломе","name:pa":"ਲੋਮੇ","name:pl":"Lomé","name:ps":"لوم","name:pt":"Lomé","name:qu":"Lumi","name:ru":"Ломе","name:so":"Lome","name:sr":"Ломе","name:sv":"Lomé","name:sw":"Lome","name:ta":"லோமே","name:tg":"Ломе","name:th":"โลเม","name:tr":"Lomé","name:ug":"لومې","name:uk":"Ломе","name:ur":"لومے","name:uz":"Lome","name:yi":"לאמע","name:zh":"洛美","name:arz":"لوميه","name:mrj":"Ломе","name:nov":"Lome","name:pnb":"لوم","name:udm":"Ломе","name:be-tarask":"Ломэ"},"display_name":"Lomé, Région Maritime, Togo","address":{"city":"Lomé","state":"Région Maritime","ISO3166-2-lvl4":"TG-M","country":"Togo","country_code":"tg"},"population":837437,"osm_type":"node","osm_id":2195276463,"type":"city","location":[1.215829,6.130419],"bbox":[1.055829,5.970419,1.375829,6.290419],"border":{"name":"Lomé","other_names":{"name:af":"Lomé","name:am":"ሎሜ","name:an":"Lomé","name:ar":"لومي","name:az":"Lome","name:be":"Ламэ","name:bg":"Ломе","name:bm":"Lomé","name:bn":"লোমে","name:bo":"ལཱོ་མེ།","name:br":"Lomé","name:bs":"Lomé","name:ca":"Lomé","name:ce":"Ломе","name:cs":"Lomé","name:cy":"Lomé","name:da":"Lomé","name:de":"Lomé","name:el":"Λομέ","name:en":"Lomé","name:eo":"Lomeo","name:es":"Lomé","name:et":"Lomé","name:eu":"Lome","name:fa":"لومه","name:fi":"Lomé","name:fr":"Lomé","name:fy":"Lomee","name:ga":"Lomé","name:gd":"Lomé","name:gl":"Lomé","name:ha":"Lomé","name:he":"לומה","name:hi":"लोमे","name:hr":"Lomé","name:ht":"Lomé","name:hu":"Lomé","name:hy":"Լոմե","name:ia":"Lomé","name:id":"Lomé","name:ie":"Lomé","name:io":"Lome","name:is":"Lomé","name:it":"Lomé","name:ja":"ロメ","name:jv":"Lomé","name:ka":"ლომე","name:kg":"Lome","name:ko":"로메","name:ky":"Ломе","name:la":"Lome","name:lb":"Lomé","name:lt":"Lomė","name:lv":"Lome","name:mk":"Ломе","name:ml":"ലോമെ","name:mr":"लोमे","name:ms":"Lomé","name:nl":"Lomé","name:nn":"Lomé","name:no":"Lomé","name:ny":"Lomé","name:oc":"Lomé","name:os":"Ломе","name:pa":"ਲੋਮੇ","name:pl":"Lomé","name:ps":"لوم","name:pt":"Lomé","name:qu":"Lumi","name:ro":"Lomé","name:ru":"Ломе","name:sc":"Lomé","name:sh":"Lomé","name:sk":"Lomé","name:sl":"Lomé","name:sn":"Lomé","name:so":"Lome","name:sq":"Lomé","name:sr":"Ломе","name:sv":"Lomé","name:sw":"Lome","name:ta":"லோமே","name:tg":"Ломе","name:th":"โลเม","name:tl":"Lomé","name:tr":"Lomé","name:ug":"لومې","name:uk":"Ломе","name:ur":"لومے","name:uz":"Lome","name:vi":"Lomé","name:yi":"לאמע","name:yo":"Lomé","name:zh":"洛美","name:arz":"لوميه","name:ast":"Lomé","name:avk":"Lomé","name:azb":"لومه","name:cdo":"Lomé","name:ceb":"Lomé (ulohang dakbayan)","name:ckb":"لۆمێ","name:diq":"Lomé","name:frr":"Lomé","name:hak":"Lomé","name:hif":"Lomé","name:kab":"Lomé","name:lfn":"Lome","name:lij":"Lomé","name:lmo":"Lomé","name:mrj":"Ломе","name:nah":"Lomé","name:nan":"Lomé","name:nds":"Lomé","name:nov":"Lome","name:pap":"Lomé","name:pms":"Lomé","name:pnb":"لوم","name:scn":"Lomé","name:sco":"Lomé","name:smn":"Lomé","name:stq":"Lomé","name:udm":"Ломе","name:vec":"Lomé","name:vep":"Lome","name:war":"Lomé","name:wuu":"洛美","name:xmf":"ლომე","name:yue":"洛美","name:roa-rup":"Lomé","name:ba":"Ломе","name:kk":"Ломе","name:mn":"Ломе","name:be-tarask":"Лямэ","alt:be-tarask":"Ломэ"},"display_name":"Lomé, Région Maritime, Togo","address":{"city":"Lomé","state":"Région Maritime","ISO3166-2-lvl4":"TG-M","country":"Togo","country_code":"tg"},"population":837437,"osm_type":"relation","osm_id":6607308,"type":"administrative","location":[1.215829,6.130419],"bbox":[1.1754424,6.1123604,1.3057378,6.2041066]}}
{"name":"Mango","other_names":{"name:ar":"سانسني مانغو","name:fr":"Mango","alt_name":"Sansanné-Mango","alt_name:ar":"مانغو"},"display_name":"Mango, Préfecture de l'Oti, Région des Savanes, Togo","address":{"city":"Mango","county":"Préfecture de l'Oti","state":"Région des Savanes","ISO3166-2-lvl4":"TG-S","country":"Togo","country_code":"tg"},"population":25000,"osm_type":"node","osm_id":279670448,"type":"city","location":[0.4770206,10.3569681],"bbox":[0.3170206,10.1969681,0.6370206,10.5169681]}
{"name":"Sokodé","other_names":{"name:ar":"سوكودي","name:fr":"Sokodé","name:ko":"소코데","name:ru":"Сокоде","name:uk":"Сокоде"},"display_name":"Sokodé, Tchaoudjo, Région Centrale, Togo","address":{"city":"Sokodé","county":"Tchaoudjo","state":"Région Centrale","ISO3166-2-lvl4":"TG-C","country":"Togo","country_code":"tg"},"population":120000,"osm_type":"node","osm_id":1952227085,"type":"city","location":[1.1437646,8.9834333],"bbox":[0.9837646,8.8234333,1.3037646,9.1434333],"border":{"name":"Sokodé","other_names":{"name:fr":"Sokodé","name:ru":"Сокоде","name:uk":"Сокоде"},"display_name":"Sokodé, Tchaoudjo, Région Centrale, Togo","address":{"city":"Sokodé","county":"Tchaoudjo","state":"Région Centrale","ISO3166-2-lvl4":"TG-C","country":"Togo","country_code":"tg"},"osm_type":"way","osm_id":194354111,"type":"administrative","location":[1.1357851606872318,8.98741755],"bbox":[1.0937321,8.941342,1.1759257,9.0324678]}}
{"name":"Tsévié","other_names":{"name:ar":"سيفييه","name:fr":"Tsévié","name:is":"Tsévié","name:ko":"체비에","name:ru":"Цевие","name:uk":"Цевіє"},"display_name":"Tsévié, Région Maritime, Togo","address":{"city":"Tsévié","state":"Région Maritime","ISO3166-2-lvl4":"TG-M","country":"Togo","country_code":"tg"},"population":55000,"osm_type":"node","osm_id":1919282943,"type":"city","location":[1.2104692,6.423115],"bbox":[1.0504692,6.263115,1.3704692,6.583115]}
