{"name":"Mājro","other_names":{"name:af":"Majuro","name:am":"ማጁሮ","name:ar":"ماجورو","name:az":"Macuro","name:ba":"Маджуро","name:be":"Маджура","name:bg":"Маджуро","name:bn":"মাজুরো","name:bo":"མ་ཇུ་རོ།","name:br":"Majuro","name:bs":"Majuro","name:ca":"Majuro","name:cs":"Majuro","name:cy":"Majuro","name:da":"Majuro","name:de":"Majuro","name:el":"Ματζούρο","name:en":"Majuro","name:eo":"Majuro","name:es":"Majuro","name:et":"Majuro atoll","name:eu":"Majuro","name:fa":"ماجورو","name:fi":"Majuro","name:fr":"Majuro","name:fy":"Majuro","name:gd":"Majuro","name:gl":"Majuro","name:gn":"Majuro","name:he":"מג'ורו","name:hi":"माजुरो","name:hr":"Majuro","name:ht":"Majouro","name:hu":"Majuro","name:hy":"Մաջուրո","name:id":"Majuro","name:ie":"Majuro","name:io":"Majuro","name:is":"Majúró","name:it":"Majuro","name:ja":"マジュロ","name:ka":"მაჯურო","name:kk":"Маджуро","name:ko":"마주로","name:ky":"Мажeро","name:la":"Madzurum","name:lb":"Majuro","name:lt":"Madžūras","name:lv":"Madžuro","name:mh":"Mājro","name:mk":"Маџуро","name:ml":"മാജുറോ","name:mr":"माजुरो","name:ms":"Majuro","name:nl":"Majuro","name:nn":"Majuro","name:no":"Majuro","name:ny":"Majuro","name:oc":"Majuro","name:os":"Маджуро","name:pa":"ਮਾਜੁਰੋ","name:pl":"Majuro","name:ps":"ماجورو","name:pt":"Majuro","name:ro":"Majuro","name:ru":"Маджуро","name:rw":"Majuro","name:sc":"Majuro","name:sh":"Majuro","name:sk":"Dalap-Uliga-Darrit","name:sl":"Majuro","name:sn":"Majuro","name:sq":"Majuro","name:sr":"Маџуро","name:sv":"Majuro","name:sw":"Majuro","name:ta":"மாசூரோ","name:tg":"Маҷуро","name:th":"มาจูโร","name:tl":"Majuro","name:tr":"Majuro","name:ty":"Majuro","name:uk":"Маджуро","name:ur":"ماجورو","name:uz":"Majuro","name:vi":"Majuro","name:zh":"马朱罗","int_name":"Majuro","name:ast":"Mayuru","name:ceb":"Majuro","name:hak":"Majuro","name:hif":"Majuro","name:lij":"Majuro","name:nah":"Majuro","name:nds":"Majuro-Atoll","name:sah":"Мадьуро","name:sat":"ᱢᱟᱡᱩᱨᱚ","name:sco":"Majuro","name:szl":"Majuro","name:vep":"Madžuro","name:war":"Majuro","name:wuu":"马朱罗","name:xmf":"მაჯურო","name:zh-Hans":"马朱罗","name:zh-Hant":"馬朱羅","name:be-tarask":"Маджура"},"display_name":"Mājro, Ratak, Ṃajeḷ","address":{"city":"Mājro","ISO3166-2-lvl8":"MH-MAJ","state":"Ratak","ISO3166-2-lvl4":"MH-T","country":"Ṃajeḷ","country_code":"mh"},"population":26000,"osm_type":"node","osm_id":385761740,"type":"city","location":[171.3816354,7.0909924],"bbox":[171.2216354,6.9309924,171.5416354,7.2509924],"border":{"name":"Mājro","other_names":{"name:en":"Majuro","name:mh":"Mājro","ISO3166-2":"MH-MAJ","name:af":"Majuro","name:am":"ማጁሮ","name:ar":"ماجورو","name:az":"Macuro","name:ba":"Маджуро","name:be":"Маджура","name:bg":"Маджуро","name:bn":"মাজুরো","name:bo":"མ་ཇུ་རོ།","name:br":"Majuro","name:bs":"Majuro","name:ca":"Majuro","name:cs":"Majuro","name:cy":"Majuro","name:da":"Majuro","name:de":"Majuro","name:el":"Ματζούρο","name:eo":"Majuro","name:es":"Majuro","name:et":"Majuro atoll","name:eu":"Majuro","name:fa":"ماجورو","name:fi":"Majuro","name:fr":"Majuro","name:fy":"Majuro","name:gd":"Majuro","name:gl":"Majuro","name:gn":"Majuro","name:he":"מג'ורו","name:hi":"माजुरो","name:hr":"Majuro","name:ht":"Majouro","name:hu":"Majuro","name:hy":"Մաջուրո","name:id":"Majuro","name:ie":"Majuro","name:io":"Majuro","name:is":"Majúró","name:it":"Majuro","name:ja":"マジュロ","name:ka":"მაჯურო","name:kk":"Маджуро","name:ko":"마주로","name:ky":"Мажeро","name:la":"Madzurum","name:lb":"Majuro","name:lt":"Madžūras","name:lv":"Madžuro","name:mk":"Маџуро","name:ml":"മാജുറോ","name:mr":"माजुरो","name:ms":"Majuro","name:nl":"Majuro","name:nn":"Majuro","name:no":"Majuro","name:ny":"Majuro","name:oc":"Majuro","name:os":"Маджуро","name:pa":"ਮਾਜੁਰੋ","name:pl":"Majuro","name:ps":"ماجورو","name:pt":"Majuro","name:ro":"Majuro","name:ru":"Маджуро","name:rw":"Majuro","name:sc":"Majuro","name:sh":"Majuro","name:sk":"Dalap-Uliga-Darrit","name:sl":"Majuro","name:sn":"Majuro","name:sq":"Majuro","name:sr":"Маџуро","name:sv":"Majuro","name:sw":"Majuro","name:ta":"மாசூரோ","name:tg":"Маҷуро","name:th":"มาจูโร","name:tl":"Majuro","name:tr":"Majuro","name:ty":"Majuro","name:uk":"Маджуро","name:ur":"ماجورو","name:uz":"Majuro","name:vi":"Majuro","name:zh":"马朱罗","int_name":"Majuro","name:ast":"Mayuru","name:ceb":"Majuro","name:hak":"Majuro","name:hif":"Majuro","name:lij":"Majuro","name:nah":"Majuro","name:nds":"Majuro-Atoll","name:sah":"Мадьуро","name:sat":"ᱢᱟᱡᱩᱨᱚ","name:sco":"Majuro","name:szl":"Majuro","name:vep":"Madžuro","name:war":"Majuro","name:wuu":"马朱罗","name:xmf":"მაჯურო","name:zh-Hans":"马朱罗","name:zh-Hant":"馬朱羅","name:be-tarask":"Маджура"},"display_name":"Mājro, Ratak, Ṃajeḷ","address":{"city":"Mājro","ISO3166-2-lvl8":"MH-MAJ","state":"Ratak","ISO3166-2-lvl4":"MH-T","country":"Ṃajeḷ","country_code":"mh"},"population":26000,"osm_type":"relation","osm_id":3825987,"type":"administrative","location":[171.3816354,7.0909924],"bbox":[170.8173289,6.5245935,171.5589588,7.7443018]}}
