{"name":"Alaminos","other_names":{"ref":"0105503000","name:en":"Alaminos","name:ja":"アラミノス","name:tl":"Alaminos","old_ref":"015503000","name:ilo":"Alaminos"},"display_name":"Alaminos, Pangasinan, Ilocos Region, Philippines","address":{"city":"Alaminos","state":"Pangasinan","ISO3166-2-lvl4":"PH-PAN","region":"Ilocos Region","ISO3166-2-lvl3":"PH-01","country":"Philippines","country_code":"ph"},"population":99397,"osm_type":"node","osm_id":198530652,"type":"city","location":[119.9792201,16.1553857],"bbox":[119.8192201,15.9953857,120.1392201,16.3153857],"border":{"name":"Alaminos","other_names":{"ref":"0105503000","name:en":"Alaminos","name:ja":"アラミノス","name:tl":"Alaminos","old_ref":"015503000","name:ilo":"Alaminos"},"display_name":"Alaminos, Pangasinan, Ilocos Region, 2404, Philippines","address":{"city":"Alaminos","state":"Pangasinan","ISO3166-2-lvl4":"PH-PAN","region":"Ilocos Region","ISO3166-2-lvl3":"PH-01","postcode":"2404","country":"Philippines","country_code":"ph"},"population":99397,"osm_type":"relation","osm_id":12887740,"type":"administrative","location":[119.9792201,16.1553857],"bbox":[119.9009945,16.0387917,120.1883652,16.3056227]}}
{"name":"Angeles","other_names":{"ref":"0330100000","name:ar":"آنخلس","name:ca":"Ángeles","name:en":"Angeles","name:es":"Ángeles","name:fa":"آنخلس","name:fr":"Ángeles","name:gl":"Ángeles","name:ja":"アンヘレス","name:ks":"آنخلس","name:ru":"Анхелес","name:tl":"Angeles","name:uk":"Анхелес","name:ur":"آنخلس","name:zh":"安赫勒斯","old_ref":"035401000","name:azb":"آنخلس","name:pam":"Ángeles","name:az-Arab":"آنخلس","official_name":"City of Angeles","official_name:ar":"مدينة آنخلس","official_name:en":"City of Angeles","official_name:es":"Ciudad de Ángeles","official_name:tl":"Lungsod ng Angeles","official_name:pam":"Lakanbalen ning Ángeles"},"display_name":"Angeles, Central Luzon, 2009, Philippines","address":{"city":"Angeles","region":"Central Luzon","ISO3166-2-lvl3":"PH-03","postcode":"2009","country":"Philippines","country_code":"ph"},"population":462928,"osm_type":"node","osm_id":27170104,"type":"city","location":[120.5875321,15.1389351],"bbox":[120.4275321,14.9789351,120.7475321,15.2989351],"border":{"name":"Angeles","other_names":{"ref":"0330100000","name:ar":"آنخلس","name:ca":"Ángeles","name:en":"Angeles","name:es":"Ángeles","name:fa":"آنخلس","name:fr":"Ángeles","name:gl":"Ángeles","name:ja":"アンヘレス","name:ks":"آنخلس","name:ru":"Анхелес","name:tl":"Angeles","name:uk":"Анхелес","name:ur":"آنخلس","name:zh":"安赫勒斯","old_ref":"035401000","name:azb":"آنخلس","name:pam":"Ángeles","name:az-Arab":"آنخلس","official_name":"City of Angeles","official_name:ar":"مدينة آنخلس","official_name:en":"City of Angeles","official_name:es":"Ciudad de Ángeles","official_name:tl":"Lungsod ng Angeles","official_name:pam":"Lakanbalen ning Ángeles"},"display_name":"Angeles, Central Luzon, Philippines","address":{"city":"Angeles","region":"Central Luzon","ISO3166-2-lvl3":"PH-03","country":"Philippines","country_code":"ph"},"population":462928,"osm_type":"relation","osm_id":9386775,"type":"administrative","location":[120.5875321,15.1389351],"bbox":[120.4780711,15.1081703,120.6371543,15.1794119]}}
{"name":"Antipolo","other_names":{"ref":"0405802000","name:ja":"アンティポロ","name:ru":"Антиполо","name:zh":"安蒂波洛","old_ref":"045802000"},"display_name":"Antipolo, Rizal, Calabarzon, 1870, Philippines","address":{"city":"Antipolo","state":"Rizal","ISO3166-2-lvl4":"PH-RIZ","region":"Calabarzon","ISO3166-2-lvl3":"PH-40","postcode":"1870","country":"Philippines","country_code":"ph"},"population":887399,"osm_type":"node","osm_id":165952298,"type":"city","location":[121.1759246,14.5871972],"bbox":[121.0159246,14.4271972,121.3359246,14.7471972],"border":{"name":"Antipolo","other_names":{"ref":"0405802000","name:ja":"アンティポロ","name:ru":"Антиполо","name:zh":"安蒂波洛","old_ref":"045802000"},"display_name":"Antipolo, Rizal, Calabarzon, Philippines","address":{"city":"Antipolo","state":"Rizal","ISO3166-2-lvl4":"PH-RIZ","region":"Calabarzon","ISO3166-2-lvl3":"PH-40","country":"Philippines","country_code":"ph"},"population":887399,"osm_type":"relation","osm_id":18458019,"type":"administrative","location":[121.1759246,14.5871972],"bbox":[121.1062226,14.5491501,121.3346647,14.7480932]}}
{"name":"Bacolod","other_names":{"name:de":"Bacolod","name:en":"Bacolod","name:es":"Bacólod","name:id":"Bacolod","name:it":"Bacolod","name:ja":"バコロド","name:ko":"바콜로드","name:lt":"Bakolodas","name:nl":"Bacolod","name:pt":"Bacólod","name:ru":"Баколод","name:sm":"Bacolod","name:sv":"Bacolod","name:tl":"Bacolod","name:uk":"Баколод","name:zh":"巴科洛德","official_name":"City of Bacolod","official_name:sm":"Aai o Bacolod"},"display_name":"Bacolod, Negros Island Region, 6100, Philippines","address":{"city":"Bacolod","region":"Negros Island Region","postcode":"6100","country":"Philippines","country_code":"ph"},"population":561875,"osm_type":"node","osm_id":657059412,"type":"city","location":[122.9513786,10.6762836],"bbox":[122.7913786,10.5162836,123.1113786,10.8362836],"border":{"name":"Bacolod","other_names":{"name:sm":"Bacolod","official_name":"City of Bacolod","name:de":"Bacolod","name:en":"Bacolod","name:es":"Bacólod","name:id":"Bacolod","name:it":"Bacolod","name:ja":"バコロド","name:ko":"바콜로드","name:lt":"Bakolodas","name:nl":"Bacolod","name:pt":"Bacólod","name:ru":"Баколод","name:sv":"Bacolod","name:tl":"Bacolod","name:uk":"Баколод","name:zh":"巴科洛德","official_name:sm":"Aai o Bacolod"},"display_name":"Bacolod, Negros Island Region, 6100, Philippines","address":{"city":"Bacolod","region":"Negros Island Region","postcode":"6100","country":"Philippines","country_code":"ph"},"population":561875,"osm_type":"relation","osm_id":11349321,"type":"administrative","location":[122.9513786,10.6762836],"bbox":[122.8141866,10.5849398,123.1394029,10.7305943]}}
{"name":"Bacoor","other_names":{"ref":"042103000","name:ja":"バコール"},"display_name":"Bacoor, Cavite, Calabarzon, Philippines","address":{"city":"Bacoor","state":"Cavite","ISO3166-2-lvl4":"PH-CAV","region":"Calabarzon","ISO3166-2-lvl3":"PH-40","country":"Philippines","country_code":"ph"},"population":600609,"osm_type":"node","osm_id":198502170,"type":"city","location":[120.959579,14.458816],"bbox":[120.799579,14.298816,121.119579,14.618816],"border":{"name":"Bacoor","other_names":{"ref":"042103000","name:ja":"バコール"},"display_name":"Bacoor, Cavite, Calabarzon, 4102, Philippines","address":{"city":"Bacoor","state":"Cavite","ISO3166-2-lvl4":"PH-CAV","region":"Calabarzon","ISO3166-2-lvl3":"PH-40","postcode":"4102","country":"Philippines","country_code":"ph"},"population":600609,"osm_type":"relation","osm_id":122139,"type":"administrative","location":[120.959579,14.458816],"bbox":[120.9209742,14.3626159,121.0115722,14.4939136]}}
{"name":"Bago","other_names":{"ref":"0604502000","name:ja":"バゴー","name:zh":"巴哥"},"display_name":"Bago, Negros Occidental, Negros Island Region, 6101, Philippines","address":{"city":"Bago","state":"Negros Occidental","ISO3166-2-lvl4":"PH-NEC","region":"Negros Island Region","postcode":"6101","country":"Philippines","country_code":"ph"},"population":191210,"osm_type":"node","osm_id":391179918,"type":"city","location":[122.8352802,10.5376299],"bbox":[122.6752802,10.3776299,122.9952802,10.6976299],"border":{"name":"Bago","other_names":{"ref":"0604502000","name:ja":"バゴー","name:zh":"巴哥"},"display_name":"Bago, Negros Occidental, Negros Island Region, 6101, Philippines","address":{"city":"Bago","state":"Negros Occidental","ISO3166-2-lvl4":"PH-NEC","region":"Negros Island Region","postcode":"6101","country":"Philippines","country_code":"ph"},"population":191210,"osm_type":"relation","osm_id":11366393,"type":"administrative","location":[122.8352802,10.5376299],"bbox":[122.7902123,10.4113894,123.1558602,10.6489398]}}
{"name":"Baguio","other_names":{"ref":"141102000","name:en":"Baguio","name:es":"Baguio","name:id":"Baguio","name:ja":"バギオ","name:pt":"Baguio","name:tl":"Baguio","name:zh":"碧瑶","alt_name":"Baguio City","name:ibl":"Bag·iw","name:ilo":"Bagiw","name:pag":"Baguio","old_name":"Kafagway","official_name":"City of Baguio","official_name:en":"City of Baguio","official_name:es":"Ciudad de Baguio","official_name:id":"Kota Baguio","official_name:pt":"Cidade de Baguio","official_name:tl":"Lungsod ng Baguio","official_name:ibl":"Ciudad ne Bagiw","official_name:ilo":"Ciudad ti Baguio","official_name:pag":"Siyudad na Baguio","name:pronunciation":"ˈbaɡ.jo"},"display_name":"Baguio, Cordillera Administrative Region, 2600, Philippines","address":{"city":"Baguio","region":"Cordillera Administrative Region","ISO3166-2-lvl3":"PH-15","postcode":"2600","country":"Philippines","country_code":"ph"},"population":366358,"osm_type":"node","osm_id":1435307555,"type":"city","location":[120.5933719,16.4119905],"bbox":[120.4333719,16.2519905,120.7533719,16.5719905],"border":{"name":"Baguio","other_names":{"ref":"141102000","name:en":"Baguio","name:es":"Baguio","name:ja":"バギオ","name:tl":"Baguio","name:zh":"碧瑶","alt_name":"Baguio City","name:ibl":"Bag·iw","name:ilo":"Bagiw","name:pag":"Baguio","old_name":"Kafagway","official_name":"City of Baguio","name:id":"Baguio","name:pt":"Baguio","official_name:en":"City of Baguio","official_name:es":"Ciudad de Baguio","official_name:tl":"Lungsod ng Baguio","official_name:ibl":"Ciudad ne Bagiw","official_name:ilo":"Ciudad ti Baguio","official_name:pag":"Siyudad na Baguio","name:pronunciation":"ˈbaɡ.jo","official_name:id":"Kota Baguio","official_name:pt":"Cidade de Baguio"},"display_name":"Baguio, Cordillera Administrative Region, 2600, Philippines","address":{"city":"Baguio","region":"Cordillera Administrative Region","ISO3166-2-lvl3":"PH-15","postcode":"2600","country":"Philippines","country_code":"ph"},"population":366358,"osm_type":"relation","osm_id":13946201,"type":"administrative","location":[120.5933719,16.4119905],"bbox":[120.5448779,16.3606207,120.635488,16.4343156]}}
{"name":"Bais","other_names":{"ref":"074604000"},"display_name":"Bais, Negros Oriental, Negros Island Region, Philippines","address":{"city":"Bais","state":"Negros Oriental","ISO3166-2-lvl4":"PH-NER","region":"Negros Island Region","country":"Philippines","country_code":"ph"},"population":84317,"osm_type":"node","osm_id":2417847196,"type":"city","location":[123.1213875,9.5914852],"bbox":[122.9613875,9.4314852,123.2813875,9.7514852],"border":{"name":"Bais","other_names":{"ref":"074604000"},"display_name":"Bais, Negros Oriental, Negros Island Region, 6206, Philippines","address":{"city":"Bais","state":"Negros Oriental","ISO3166-2-lvl4":"PH-NER","region":"Negros Island Region","postcode":"6206","country":"Philippines","country_code":"ph"},"population":84317,"osm_type":"relation","osm_id":15580660,"type":"administrative","location":[123.1213875,9.5914852],"bbox":[122.8796906,9.5313475,123.2450574,9.6515867]}}
{"name":"Balanga","other_names":{"name:en":"Balanga","name:ja":"バランガ","name:tl":"Balanga","official_name:en":"City of Balanga","official_name:tl":"Lungsod ng Balanga"},"display_name":"Balanga, Bataan, Central Luzon, 2100, Philippines","address":{"city":"Balanga","state":"Bataan","ISO3166-2-lvl4":"PH-BAN","region":"Central Luzon","ISO3166-2-lvl3":"PH-03","postcode":"2100","country":"Philippines","country_code":"ph"},"population":104173,"osm_type":"node","osm_id":198516371,"type":"city","location":[120.5409693,14.6795669],"bbox":[120.3809693,14.5195669,120.7009693,14.8395669],"border":{"name":"Balanga","other_names":{"name:en":"Balanga","name:ja":"バランガ\\","name:tl":"Balanga","official_name:en":"City of Balanga","official_name:tl":"Lungsod ng Balanga","alt:ja":"バランガ"},"display_name":"Balanga, Bataan, Central Luzon, 2100, Philippines","address":{"city":"Balanga","state":"Bataan","ISO3166-2-lvl4":"PH-BAN","region":"Central Luzon","ISO3166-2-lvl3":"PH-03","postcode":"2100","country":"Philippines","country_code":"ph"},"population":104173,"osm_type":"relation","osm_id":14999639,"type":"administrative","location":[120.5409693,14.6795669],"bbox":[120.4404116,14.6187985,120.622449,14.7242782]}}
{"name":"Baliwag","other_names":{"ref":"0301403000","name:th":"บาลีอูก","old_ref":"031403000","alt_name":"Baliuag","old_name":"Baliuag"},"display_name":"Baliwag, Bulacan, Central Luzon, 3006, Philippines","address":{"city":"Baliwag","state":"Bulacan","ISO3166-2-lvl4":"PH-BUL","region":"Central Luzon","ISO3166-2-lvl3":"PH-03","postcode":"3006","country":"Philippines","country_code":"ph"},"population":168470,"osm_type":"node","osm_id":198491817,"type":"city","location":[120.9009172,14.9542259],"bbox":[120.7409172,14.7942259,121.0609172,15.1142259],"border":{"name":"Baliwag","other_names":{"ref":"0301403000","name:th":"บาลีอูก","old_ref":"031403000","alt_name":"Baliuag","old_name":"Baliuag"},"display_name":"Baliwag, Bulacan, Central Luzon, 3006, Philippines","address":{"city":"Baliwag","state":"Bulacan","ISO3166-2-lvl4":"PH-BUL","region":"Central Luzon","ISO3166-2-lvl3":"PH-03","postcode":"3006","country":"Philippines","country_code":"ph"},"population":168470,"osm_type":"relation","osm_id":12743688,"type":"administrative","location":[120.9009172,14.9542259],"bbox":[120.8499294,14.9067539,120.9222323,15.0167684]}}
{"name":"Batac","other_names":{"name:ja":"バタック"},"display_name":"Batac, Ilocos Norte, Ilocos Region, 2906, Philippines","address":{"city":"Batac","state":"Ilocos Norte","ISO3166-2-lvl4":"PH-ILN","region":"Ilocos Region","ISO3166-2-lvl3":"PH-01","postcode":"2906","country":"Philippines","country_code":"ph"},"population":55201,"osm_type":"node","osm_id":198513563,"type":"city","location":[120.5645243,18.0555035],"bbox":[120.4045243,17.8955035,120.7245243,18.2155035]}
{"name":"Batangas City","other_names":{"ref":"041005000","name:ar":"باتانجاس","name:de":"Batangas","name:en":"Batangas City","name:es":"Batangas","name:et":"Batangas","name:ja":"バタンガス","name:ko":"바탕가스","name:ru":"Батангас","name:uk":"Батангас","name:ur":"باتانگاس","name:zh":"八打雁市","name:azb":"باتانقا","name:ceb":"Batangas","alt_name:en":"City of Batangas","alt_name:es":"Ciudad de Batangas","alt_name:ceb":"Dakbayan sa Batangas","name:ja-Latn":"Batangasu","official_name":"Batangas City","official_name:en":"Batangas City","official_name:tl":"Lungsod ng Batangas"},"display_name":"Batangas City, Batangas, Calabarzon, 4200, Philippines","address":{"city":"Batangas City","state":"Batangas","ISO3166-2-lvl4":"PH-BTG","region":"Calabarzon","ISO3166-2-lvl3":"PH-40","postcode":"4200","country":"Philippines","country_code":"ph"},"population":351437,"osm_type":"node","osm_id":944867369,"type":"city","location":[121.0584755,13.7558718],"bbox":[120.8984755,13.5958718,121.2184755,13.9158718],"border":{"name":"Batangas","other_names":{"ref":"041005000","name:ar":"باتانجاس","name:en":"Batangas City","name:et":"Batangas","name:ja":"バタンガス","name:ru":"Батангас","name:tl":"Lungsod ng Batangas","name:uk":"Батангас","name:ur":"باتانگاس","name:zh":"八打雁","alt_name":"City of Batangas","name:azb":"باتانقا","name:ceb":"Dakbayan sa Batangas","alt_name:es":"Ciudad de Batangas","name:de":"Batangas","name:es":"Batangas","name:ko":"바탕가스","alt_name:en":"City of Batangas","alt_name:ceb":"Dakbayan sa Batangas","name:ja-Latn":"Batangasu","official_name":"Batangas City","official_name:en":"Batangas City","official_name:tl":"Lungsod ng Batangas","alt":"Batangas City","alt:zh":"八打雁市","alt:ceb":"Batangas"},"display_name":"Batangas, Calabarzon, 4200, Philippines","address":{"city":"Batangas","state":"Batangas","ISO3166-2-lvl4":"PH-BTG","region":"Calabarzon","ISO3166-2-lvl3":"PH-40","postcode":"4200","country":"Philippines","country_code":"ph"},"population":329874,"osm_type":"relation","osm_id":6185647,"type":"administrative","location":[121.0584755,13.7558718],"bbox":[120.9856656,13.4738466,121.190898,13.8491795]}}
{"name":"Bayawan","other_names":{"ref":"074606000","name:ja":"バヤワン","alt_name":"Tulong","old_name":"Tulong"},"display_name":"Bayawan, Negros Oriental, Negros Island Region, Philippines","address":{"city":"Bayawan","state":"Negros Oriental","ISO3166-2-lvl4":"PH-NER","region":"Negros Island Region","country":"Philippines","country_code":"ph"},"population":122747,"osm_type":"node","osm_id":198532262,"type":"city","location":[122.804837,9.3661533],"bbox":[122.644837,9.2061533,122.964837,9.5261533],"border":{"name":"Bayawan","other_names":{"ref":"074606000","name:ja":"バヤワン","alt_name":"Tulong","old_name":"Tulong","official_name":"City of Bayawan"},"display_name":"Bayawan, Negros Oriental, Negros Island Region, 6221, Philippines","address":{"city":"Bayawan","state":"Negros Oriental","ISO3166-2-lvl4":"PH-NER","region":"Negros Island Region","postcode":"6221","country":"Philippines","country_code":"ph"},"population":122747,"osm_type":"relation","osm_id":3740497,"type":"administrative","location":[122.804837,9.3661533],"bbox":[122.6844556,9.2338309,122.9573731,9.7061397]}}
{"name":"Baybay","other_names":{"ref":"0803708000","name:en":"Baybay","name:ja":"バイバイ","name:tl":"Baybay","old_ref":"083708000","official_name":"City of Baybay"},"display_name":"Baybay, 5th District, Leyte, Eastern Visayas, Philippines","address":{"city":"Baybay","state_district":"5th District","state":"Leyte","ISO3166-2-lvl4":"PH-LEY","region":"Eastern Visayas","ISO3166-2-lvl3":"PH-08","country":"Philippines","country_code":"ph"},"population":111848,"osm_type":"node","osm_id":2526277901,"type":"city","location":[124.7977531,10.6778023],"bbox":[124.6377531,10.5178023,124.9577531,10.8378023],"border":{"name":"Baybay","other_names":{"ref":"0803708000","name:en":"Baybay","name:ja":"バイバイ","name:tl":"Baybay","old_ref":"083708000","official_name":"City of Baybay"},"display_name":"Baybay, 5th District, Leyte, Eastern Visayas, 6521, Philippines","address":{"city":"Baybay","state_district":"5th District","state":"Leyte","ISO3166-2-lvl4":"PH-LEY","region":"Eastern Visayas","ISO3166-2-lvl3":"PH-08","postcode":"6521","country":"Philippines","country_code":"ph"},"population":111848,"osm_type":"relation","osm_id":5426219,"type":"administrative","location":[124.7977531,10.6778023],"bbox":[124.6507139,10.55081,124.93188,10.8692466]}}
{"name":"Bayugan","other_names":{"name:ja":"ベイユーガン"},"display_name":"Bayugan, Agusan del Sur, Caraga, 8502, Philippines","address":{"city":"Bayugan","state":"Agusan del Sur","ISO3166-2-lvl4":"PH-AGS","region":"Caraga","ISO3166-2-lvl3":"PH-13","postcode":"8502","country":"Philippines","country_code":"ph"},"population":103202,"osm_type":"node","osm_id":198501576,"type":"city","location":[125.7481892,8.7145642],"bbox":[125.5881892,8.5545642,125.9081892,8.8745642],"border":{"name":"Bayugan","other_names":{"name:ja":"ベイユーガン"},"display_name":"Bayugan, Agusan del Sur, Caraga, Philippines","address":{"city":"Bayugan","state":"Agusan del Sur","ISO3166-2-lvl4":"PH-AGS","region":"Caraga","ISO3166-2-lvl3":"PH-13","country":"Philippines","country_code":"ph"},"population":103202,"osm_type":"relation","osm_id":3870460,"type":"administrative","location":[125.7481892,8.7145642],"bbox":[125.6586992,8.6121505,125.886062,8.95139]}}
{"name":"Biñan","other_names":{"name:en":"Biñan","name:es":"Biñan","name:ja":"ビナン","name:tl":"Biñan","official_name:en":"City of Biñan","official_name:es":"Ciudad de Biñan","official_name:tl":"Lungsod ng Biñan"},"display_name":"Biñan, Laguna, Calabarzon, 4024, Philippines","address":{"city":"Biñan","state":"Laguna","ISO3166-2-lvl4":"PH-LAG","region":"Calabarzon","ISO3166-2-lvl3":"PH-40","postcode":"4024","country":"Philippines","country_code":"ph"},"population":407037,"osm_type":"node","osm_id":198531889,"type":"city","location":[121.0841826,14.3388259],"bbox":[120.9241826,14.1788259,121.2441826,14.4988259],"border":{"name":"Biñan","other_names":{"name:en":"Biñan","name:es":"Biñan","name:ja":"ビナン","name:tl":"Biñan","official_name:en":"City of Biñan","official_name:es":"Ciudad de Biñan","official_name:tl":"Lungsod ng Biñan"},"display_name":"Biñan, Laguna, Calabarzon, 4024, Philippines","address":{"city":"Biñan","state":"Laguna","ISO3166-2-lvl4":"PH-LAG","region":"Calabarzon","ISO3166-2-lvl3":"PH-40","postcode":"4024","country":"Philippines","country_code":"ph"},"population":407037,"osm_type":"relation","osm_id":1552357,"type":"administrative","location":[121.0841826,14.3388259],"bbox":[121.0349931,14.249073,121.1567114,14.3987691]}}
{"name":"Bislig","other_names":{"name:en":"Bislig","name:ja":"ビスリグ","alt_name":"Bislig City","official_name":"City of Bislig"},"display_name":"Bislig, Surigao del Sur, Caraga, 8311, Philippines","address":{"city":"Bislig","state":"Surigao del Sur","ISO3166-2-lvl4":"PH-SUR","region":"Caraga","ISO3166-2-lvl3":"PH-13","postcode":"8311","country":"Philippines","country_code":"ph"},"population":99290,"osm_type":"node","osm_id":198492704,"type":"city","location":[126.3156173,8.2130815],"bbox":[126.1556173,8.0530815,126.4756173,8.3730815],"border":{"name":"Bislig","other_names":{"name:en":"Bislig","name:ja":"ビスリグ","alt_name":"Bislig City","official_name":"City of Bislig"},"display_name":"Bislig, Surigao del Sur, Caraga, 8311, Philippines","address":{"city":"Bislig","state":"Surigao del Sur","ISO3166-2-lvl4":"PH-SUR","region":"Caraga","ISO3166-2-lvl3":"PH-13","postcode":"8311","country":"Philippines","country_code":"ph"},"population":99290,"osm_type":"relation","osm_id":4656531,"type":"administrative","location":[126.3156173,8.2130815],"bbox":[126.2075797,8.1166807,126.4521844,8.2919586]}}
{"name":"Bogo","other_names":{"ref":"0702211000","name:ja":"ボゴ","old_ref":"0702211000"},"display_name":"Bogo, Cebu, Central Visayas, 6010, Philippines","address":{"city":"Bogo","state":"Cebu","ISO3166-2-lvl4":"PH-CEB","region":"Central Visayas","ISO3166-2-lvl3":"PH-07","postcode":"6010","country":"Philippines","country_code":"ph"},"population":88867,"osm_type":"node","osm_id":2545307356,"type":"city","location":[124.0035064,11.0512735],"bbox":[123.8435064,10.8912735,124.1635064,11.2112735]}
{"name":"Borongan","other_names":{"name:ar":"بورونغان","name:ja":"ボロンガン","name:ka":"ბორონგანი","name:lv":"Borongana","name:th":"โบโรงกัน","name:tl":"Borongan","name:uk":"Боронган","name:ur":"بورونگان","name:war":"Borongan"},"display_name":"Borongan, Eastern Samar, Eastern Visayas, 6800, Philippines","address":{"city":"Borongan","state":"Eastern Samar","ISO3166-2-lvl4":"PH-EAS","region":"Eastern Visayas","ISO3166-2-lvl3":"PH-08","postcode":"6800","country":"Philippines","country_code":"ph"},"population":69297,"osm_type":"node","osm_id":198514971,"type":"city","location":[125.4322433,11.6079854],"bbox":[125.2722433,11.4479854,125.5922433,11.7679854]}
{"name":"Butuan","other_names":{"ref":"1630400000","name:en":"Butuan","name:ja":"ブトゥアン","name:tl":"Butuan","name:uk":"Бутуан","name:zh":"武端","old_ref":"160202000"},"display_name":"Butuan, Caraga, Philippines","address":{"city":"Butuan","region":"Caraga","ISO3166-2-lvl3":"PH-13","country":"Philippines","country_code":"ph"},"population":372910,"osm_type":"node","osm_id":968811882,"type":"city","location":[125.5431973,8.9474561],"bbox":[125.3831973,8.7874561,125.7031973,9.1074561],"border":{"name":"Butuan","other_names":{"ref":"1630400000","name:en":"Butuan","name:ja":"ブトゥアン","name:tl":"Butuan","name:uk":"Бутуан","name:zh":"武端","old_ref":"160202000"},"display_name":"Butuan, Caraga, 8600, Philippines","address":{"city":"Butuan","region":"Caraga","ISO3166-2-lvl3":"PH-13","postcode":"8600","country":"Philippines","country_code":"ph"},"population":372910,"osm_type":"relation","osm_id":14141553,"type":"administrative","location":[125.5431973,8.9474561],"bbox":[125.4423327,8.7438542,125.7356281,9.0559447]}}
{"name":"Cabadbaran","other_names":{"ref":"160203000","name:en":"Cabadbaran","name:ceb":"Cabadbaran","official_name:en":"City of Cabadbaran","official_name:ceb":"Dakbayan sa Cabadbaran"},"display_name":"Cabadbaran, Agusan del Norte, Caraga, 8605, Philippines","address":{"city":"Cabadbaran","state":"Agusan del Norte","ISO3166-2-lvl4":"PH-AGN","region":"Caraga","ISO3166-2-lvl3":"PH-13","postcode":"8605","country":"Philippines","country_code":"ph"},"population":80354,"osm_type":"node","osm_id":5335101492,"type":"city","location":[125.5322317,9.1232854],"bbox":[125.3722317,8.9632854,125.6922317,9.2832854]}
{"name":"Cabanatuan","other_names":{"name:ja":"カバナトゥアン"},"display_name":"Cabanatuan, Nueva Ecija, Central Luzon, Philippines","address":{"city":"Cabanatuan","state":"Nueva Ecija","ISO3166-2-lvl4":"PH-NUE","region":"Central Luzon","ISO3166-2-lvl3":"PH-03","country":"Philippines","country_code":"ph"},"population":302231,"osm_type":"node","osm_id":198496620,"type":"city","location":[120.9684264,15.4905045],"bbox":[120.8084264,15.3305045,121.1284264,15.6505045],"border":{"name":"Cabanatuan","other_names":{"name:ja":"カバナトゥアン"},"display_name":"Cabanatuan, Nueva Ecija, Central Luzon, 3100, Philippines","address":{"city":"Cabanatuan","state":"Nueva Ecija","ISO3166-2-lvl4":"PH-NUE","region":"Central Luzon","ISO3166-2-lvl3":"PH-03","postcode":"3100","country":"Philippines","country_code":"ph"},"population":302231,"osm_type":"relation","osm_id":17796544,"type":"administrative","location":[120.9684264,15.4905045],"bbox":[120.8791374,15.4352193,121.0936584,15.5648241]}}
{"name":"Cabuyao","other_names":{"name:en":"Cabuyao","name:es":"Cabúyao","name:ja":"カバヤオ","name:tl":"Cabuyao","name:zh":"卡布耀","name:ja-Latn":"Kabuyao","name:zh-Latn":"Kǎbùyào","official_name:en":"City of Cabuyao","official_name:es":"Ciudad de Cabúyao","official_name:tl":"Lungsod ng Cabuyao"},"display_name":"Cabuyao, Laguna, Calabarzon, 4025, Philippines","address":{"city":"Cabuyao","state":"Laguna","ISO3166-2-lvl4":"PH-LAG","region":"Calabarzon","ISO3166-2-lvl3":"PH-40","postcode":"4025","country":"Philippines","country_code":"ph"},"population":355330,"osm_type":"node","osm_id":198491286,"type":"city","location":[121.1235712,14.2795538],"bbox":[120.9635712,14.1195538,121.2835712,14.4395538],"border":{"name":"Cabuyao","other_names":{"name:en":"Cabuyao","name:es":"Cabúyao","name:ja":"カバヤオ","name:tl":"Cabuyao","name:zh":"卡布耀","name:ja-Latn":"Kabuyao","name:zh-Latn":"Kǎbùyào","official_name:en":"City of Cabuyao","official_name:es":"Ciudad de Cabúyao","official_name:tl":"Lungsod ng Cabuyao"},"display_name":"Cabuyao, Laguna, Calabarzon, 4025, Philippines","address":{"city":"Cabuyao","state":"Laguna","ISO3166-2-lvl4":"PH-LAG","region":"Calabarzon","ISO3166-2-lvl3":"PH-40","postcode":"4025","country":"Philippines","country_code":"ph"},"population":355330,"osm_type":"relation","osm_id":1552431,"type":"administrative","location":[121.1235712,14.2795538],"bbox":[121.0137055,14.1556988,121.2075232,14.3167834]}}
{"name":"Cadiz","other_names":{"name:ar":"كاديز","name:es":"Cádiz","name:ja":"カディス","name:ur":"کادیز"},"display_name":"Cadiz, Negros Occidental, Negros Island Region, Philippines","address":{"city":"Cadiz","state":"Negros Occidental","ISO3166-2-lvl4":"PH-NEC","region":"Negros Island Region","country":"Philippines","country_code":"ph"},"population":154723,"osm_type":"node","osm_id":1457584568,"type":"city","location":[123.3057034,10.956652],"bbox":[123.1457034,10.796652,123.4657034,11.116652],"border":{"name":"Cadiz","other_names":{"name:ar":"كاديز","name:es":"Cádiz","name:ur":"کادیز","name:ja":"カディス"},"display_name":"Cadiz, Negros Occidental, Negros Island Region, 6121, Philippines","address":{"city":"Cadiz","state":"Negros Occidental","ISO3166-2-lvl4":"PH-NEC","region":"Negros Island Region","postcode":"6121","country":"Philippines","country_code":"ph"},"population":154723,"osm_type":"relation","osm_id":11491049,"type":"administrative","location":[123.3057034,10.956652],"bbox":[123.124286,10.6867349,123.3748101,11.1378412]}}
{"name":"Cagayan de Oro","other_names":{"ref":"104305000","name:en":"Cagayan de Oro","name:es":"Cagayán de Oro","name:fr":"Cagayán de Oro","name:ja":"カガヤン・デ・オロ","name:ru":"Кагаян-де-Оро","name:tl":"Cagayan de Oro","name:zh":"卡加延德奥罗","name:ceb":"Cagayan de Oro","short_name":"CDO","official_name:en":"City of Cagayan de Oro","official_name:es":"Ciudad de Cagayán de Oro","official_name:tl":"Lungsod ng Cagayan de Oro","official_name:ceb":"Dakbayan sa Cagayan de Oro"},"display_name":"Cagayan de Oro, Northern Mindanao, 9000, Philippines","address":{"city":"Cagayan de Oro","region":"Northern Mindanao","ISO3166-2-lvl3":"PH-10","postcode":"9000","country":"Philippines","country_code":"ph"},"population":728402,"osm_type":"node","osm_id":282310507,"type":"city","location":[124.6421532,8.4756417],"bbox":[124.4821532,8.3156417,124.8021532,8.6356417],"border":{"name":"Cagayan de Oro","other_names":{"ref":"104305000","name:en":"Cagayan de Oro","name:es":"Cagayán de Oro","name:fr":"Cagayán de Oro","name:ja":"カガヤン・デ・オロ","name:ru":"Кагаян-де-Оро","name:tl":"Cagayan de Oro","name:zh":"卡加延德奥罗","name:ceb":"Cagayan de Oro","short_name":"CDO","official_name:en":"City of Cagayan de Oro","official_name:es":"Ciudad de Cagayán de Oro","official_name:tl":"Lungsod ng Cagayan de Oro","official_name:ceb":"Dakbayan sa Cagayan de Oro"},"display_name":"Cagayan de Oro, Northern Mindanao, 9000, Philippines","address":{"city":"Cagayan de Oro","region":"Northern Mindanao","ISO3166-2-lvl3":"PH-10","postcode":"9000","country":"Philippines","country_code":"ph"},"population":728402,"osm_type":"relation","osm_id":2387482,"type":"administrative","location":[124.6421532,8.4756417],"bbox":[124.4472134,8.2518174,124.7966682,8.6294178]}}
{"name":"Calaca","other_names":{"ref":"0401007000","name:ar":"كالاكا","name:be":"Калака","name:bg":"Калака","name:en":"Calaca","name:es":"Calacá","name:fa":"كالاكا","name:he":"קלקה","name:hi":"कालाका","name:ja":"カラカ","name:kk":"Калака","name:ko":"카라카","name:ru":"Калака","name:tl":"Calaca","name:uk":"Калака","name:ur":"كالاكا","name:zh":"卡拉卡","old_ref":"041007000","alt_name":"Calaca City","alt_name:en":"Calaca City","alt_name:tl":"Lungsod ng Calaca","alt_name:bcl":"Lungsod nin Calaca","alt_name:ceb":"Dakbayan sa Calaca","alt_name:hil":"Dakbanwa sa Calaca","name:zh-Hans":"卡拉卡","name:zh-Hant":"卡拉卡","name:zh-Latn":"Kǎlākǎ","official_name":"Lungsod ng Calaca","official_name:en":"City of Calaca","official_name:tl":"Lungsod ng Calaca"},"display_name":"Calaca, Batangas, Calabarzon, 4212, Philippines","address":{"city":"Calaca","state":"Batangas","ISO3166-2-lvl4":"PH-BTG","region":"Calabarzon","ISO3166-2-lvl3":"PH-40","postcode":"4212","country":"Philippines","country_code":"ph"},"population":87361,"osm_type":"node","osm_id":198525252,"type":"city","location":[120.8140254,13.9338465],"bbox":[120.6540254,13.7738465,120.9740254,14.0938465],"border":{"name":"Calaca","other_names":{"ref":"0401007000","old_ref":"041007000","official_name":"City of Calaca","name:ar":"كالاكا","name:be":"Калака","name:bg":"Калака","name:en":"Calaca","name:es":"Calacá","name:fa":"كالاكا","name:he":"קלקה","name:hi":"कालाका","name:ja":"カラカ","name:kk":"Калака","name:ko":"카라카","name:ru":"Калака","name:tl":"Calaca","name:uk":"Калака","name:ur":"كالاكا","name:zh":"卡拉卡","alt_name":"Calaca City","alt_name:en":"Calaca City","alt_name:tl":"Lungsod ng Calaca","alt_name:bcl":"Lungsod nin Calaca","alt_name:ceb":"Dakbayan sa Calaca","alt_name:hil":"Dakbanwa sa Calaca","name:zh-Hans":"卡拉卡","name:zh-Hant":"卡拉卡","name:zh-Latn":"Kǎlākǎ","_place_official_name":"Lungsod ng Calaca","official_name:en":"City of Calaca","official_name:tl":"Lungsod ng Calaca"},"display_name":"Calaca, Batangas, Calabarzon, 4212, Philippines","address":{"city":"Calaca","state":"Batangas","ISO3166-2-lvl4":"PH-BTG","region":"Calabarzon","ISO3166-2-lvl3":"PH-40","postcode":"4212","country":"Philippines","country_code":"ph"},"population":87361,"osm_type":"relation","osm_id":14454035,"type":"administrative","location":[120.8140254,13.9338465],"bbox":[120.7689125,13.8637535,120.8663946,14.0630775]}}
{"name":"Calamba","other_names":{"name:en":"Calamba","name:es":"Calambá","name:ja":"カランバ","name:tl":"Calamba","name:zh":"卡蘭巴","name:ja-Latn":"Karanba","name:zh-Hans":"卡兰巴","name:zh-Hant":"卡蘭巴","name:zh-Latn":"Kǎlánbā","official_name:en":"City of Calamba","official_name:es":"Ciudad de Calambá","official_name:tl":"Lungsod ng Calamba"},"display_name":"Calamba, Laguna, Calabarzon, 4027, Philippines","address":{"city":"Calamba","state":"Laguna","ISO3166-2-lvl4":"PH-LAG","region":"Calabarzon","ISO3166-2-lvl3":"PH-40","postcode":"4027","country":"Philippines","country_code":"ph"},"population":539671,"osm_type":"node","osm_id":198520654,"type":"city","location":[121.1556496,14.2060217],"bbox":[120.9956496,14.0460217,121.3156496,14.3660217],"border":{"name":"Calamba","other_names":{"name:en":"Calamba","name:es":"Calambá","name:ja":"カランバ","name:tl":"Calamba","name:zh":"卡蘭巴","name:ja-Latn":"Karanba","name:zh-Hans":"卡兰巴","name:zh-Hant":"卡蘭巴","name:zh-Latn":"Kǎlánbā","official_name:en":"City of Calamba","official_name:es":"Ciudad de Calambá","official_name:tl":"Lungsod ng Calamba"},"display_name":"Calamba, Laguna, Calabarzon, Philippines","address":{"city":"Calamba","state":"Laguna","ISO3166-2-lvl4":"PH-LAG","region":"Calabarzon","ISO3166-2-lvl3":"PH-40","country":"Philippines","country_code":"ph"},"population":539671,"osm_type":"relation","osm_id":1578579,"type":"administrative","location":[121.1556496,14.2060217],"bbox":[121.0218057,14.137703,121.2214277,14.2662133]}}
{"name":"Calapan","other_names":{"ref":"1705205000","name:ar":"كالابان","name:be":"Калапан","name:bg":"Калапан","name:en":"Calapan","name:es":"Calapán","name:fa":"کالاپان","name:hi":"कैलापन","name:ja":"カラパン","name:kk":"Калапан","name:ko":"칼라판","name:ru":"Калапан","name:sr":"Калапан","name:th":"คาลาปัน","name:tl":"Calapan","name:uk":"Калапан","name:ur":"کالاپن","name:zh":"卡拉潘","old_ref":"175205000","alt_name":"Calapan City","alt_name:en":"Calapan City","alt_name:es":"Ciudad de Calapán","alt_name:tl":"Lungsod ng Calapan","alt_name:ceb":"Dakbayan sa Calapan","alt_name:hil":"Dakbanwa sa Calapan","official_name:en":"City of Calapan","official_name:es":"Ciudad de Calapán","official_name:tl":"Lungsod ng Calapan"},"display_name":"Calapan, Oriental Mindoro, Mimaropa, Philippines","address":{"city":"Calapan","state":"Oriental Mindoro","ISO3166-2-lvl4":"PH-MDR","region":"Mimaropa","ISO3166-2-lvl3":"PH-41","country":"Philippines","country_code":"ph"},"population":145786,"osm_type":"node","osm_id":198509485,"type":"city","location":[121.179543,13.4145513],"bbox":[121.019543,13.2545513,121.339543,13.5745513],"border":{"name":"Calapan","other_names":{"ref":"1705205000","name:en":"Calapan","name:es":"Calapán","name:ja":"カラパン","name:tl":"Calapan","old_ref":"175205000","name:ar":"كالابان","name:be":"Калапан","name:bg":"Калапан","name:fa":"کالاپان","name:hi":"कैलापन","name:kk":"Калапан","name:ko":"칼라판","name:ru":"Калапан","name:sr":"Калапан","name:th":"คาลาปัน","name:uk":"Калапан","name:ur":"کالاپن","name:zh":"卡拉潘","alt_name":"Calapan City","official_name:en":"City of Calapan","official_name:es":"Ciudad de Calapán","official_name:tl":"Lungsod ng Calapan","alt_name:en":"Calapan City","alt_name:es":"Ciudad de Calapán","alt_name:tl":"Lungsod ng Calapan","alt_name:ceb":"Dakbayan sa Calapan","alt_name:hil":"Dakbanwa sa Calapan"},"display_name":"Calapan, Oriental Mindoro, Mimaropa, Philippines","address":{"city":"Calapan","state":"Oriental Mindoro","ISO3166-2-lvl4":"PH-MDR","region":"Mimaropa","ISO3166-2-lvl3":"PH-41","country":"Philippines","country_code":"ph"},"population":145786,"osm_type":"relation","osm_id":15077332,"type":"administrative","location":[121.179543,13.4145513],"bbox":[121.0978057,13.299742,121.3829906,13.5627264]}}
{"name":"Calbayog","other_names":{"name:en":"Calbayog","name:ja":"カルバヨグ","name:ru":"Катбалоган","name:tl":"Calbayog","name:zh":"甲描育","name:war":"Calbayog"},"display_name":"Calbayog, Samar, Eastern Visayas, Philippines","address":{"city":"Calbayog","state":"Samar","ISO3166-2-lvl4":"PH-WSA","region":"Eastern Visayas","ISO3166-2-lvl3":"PH-08","country":"Philippines","country_code":"ph"},"population":183851,"osm_type":"node","osm_id":2532391569,"type":"city","location":[124.5946412,12.0669758],"bbox":[124.4346412,11.9069758,124.7546412,12.2269758],"border":{"name":"Calbayog","other_names":{"name:en":"Calbayog","name:ja":"カルバヨグ","name:ru":"Катбалоган","name:tl":"Calbayog","name:zh":"甲描育","name:war":"Calbayog"},"display_name":"Calbayog, Samar, Eastern Visayas, 6710, Philippines","address":{"city":"Calbayog","state":"Samar","ISO3166-2-lvl4":"PH-WSA","region":"Eastern Visayas","ISO3166-2-lvl3":"PH-08","postcode":"6710","country":"Philippines","country_code":"ph"},"population":183851,"osm_type":"relation","osm_id":5153299,"type":"administrative","location":[124.5946412,12.0669758],"bbox":[124.2414611,11.9653253,124.84262,12.339393]}}
{"name":"Caloocan","other_names":{"name:en":"Caloocan","name:ja":"カローカン","name:lt":"Kalukanas","name:pt":"Caloocan","name:ru":"Калоокан","name:tl":"Kalookan","official_name":"City of Caloocan","official_name:tl":"Lungsod ng Kalookan"},"display_name":"Caloocan, Northern Manila District, Metro Manila, Philippines","address":{"city":"Caloocan","state_district":"Northern Manila District","region":"Metro Manila","ISO3166-2-lvl3":"PH-00","country":"Philippines","country_code":"ph"},"population":1661584,"osm_type":"node","osm_id":573387907,"type":"city","location":[120.9724002,14.651348],"bbox":[120.8124002,14.491348,121.1324002,14.811348],"border":{"name":"Caloocan","other_names":{"name:en":"Caloocan","name:ja":"カローカン","name:lt":"Kalukanas","name:pt":"Caloocan","name:ru":"Калоокан","name:tl":"Kalookan","official_name":"City of Caloocan","official_name:tl":"Lungsod ng Kalookan"},"display_name":"Caloocan, Northern Manila District, Metro Manila, Philippines","address":{"city":"Caloocan","state_district":"Northern Manila District","region":"Metro Manila","ISO3166-2-lvl3":"PH-00","country":"Philippines","country_code":"ph"},"population":1661584,"osm_type":"relation","osm_id":273242,"type":"administrative","location":[120.9724002,14.651348],"bbox":[120.960643,14.63556,121.0990606,14.7853355]}}
{"name":"Candon","other_names":{"ref":"0102906000","name:ar":"كاندون","name:en":"Candon","name:es":"Candón","name:ja":"カンドン","name:tl":"Candon","name:ur":"کاندون","old_ref":"012906000","name:ilo":"Candon"},"display_name":"Candon, Ilocos Sur, Ilocos Region, Philippines","address":{"city":"Candon","state":"Ilocos Sur","ISO3166-2-lvl4":"PH-ILS","region":"Ilocos Region","ISO3166-2-lvl3":"PH-01","country":"Philippines","country_code":"ph"},"population":61432,"osm_type":"node","osm_id":198527789,"type":"city","location":[120.4483993,17.1929894],"bbox":[120.2883993,17.0329894,120.6083993,17.3529894],"border":{"name":"Candon","other_names":{"ref":"0102906000","name:ar":"كاندون","name:en":"Candon","name:es":"Candón","name:ja":"カンドン","name:tl":"Candon","name:ur":"کاندون","old_ref":"012906000","name:ilo":"Candon"},"display_name":"Candon, Ilocos Sur, Ilocos Region, 2710, Philippines","address":{"city":"Candon","state":"Ilocos Sur","ISO3166-2-lvl4":"PH-ILS","region":"Ilocos Region","ISO3166-2-lvl3":"PH-01","postcode":"2710","country":"Philippines","country_code":"ph"},"population":61432,"osm_type":"relation","osm_id":3488359,"type":"administrative","location":[120.4483993,17.1929894],"bbox":[120.2630191,17.1329712,120.5428082,17.2692792]}}
{"name":"Canlaon","other_names":{"official_name":"City of Canlaon"},"display_name":"Canlaon, Negros Oriental, Negros Island Region, 6223, Philippines","address":{"city":"Canlaon","state":"Negros Oriental","ISO3166-2-lvl4":"PH-NER","region":"Negros Island Region","postcode":"6223","country":"Philippines","country_code":"ph"},"population":58822,"osm_type":"node","osm_id":1440239974,"type":"city","location":[123.2186238,10.386953],"bbox":[123.0586238,10.226953,123.3786238,10.546953]}
{"name":"Carcar","display_name":"Carcar, Cebu, Central Visayas, 6019, Philippines","address":{"city":"Carcar","state":"Cebu","ISO3166-2-lvl4":"PH-CEB","region":"Central Visayas","ISO3166-2-lvl3":"PH-07","postcode":"6019","country":"Philippines","country_code":"ph"},"population":136453,"osm_type":"node","osm_id":367840239,"type":"city","location":[123.6406685,10.1055552],"bbox":[123.4806685,9.9455552,123.8006685,10.2655552]}
{"name":"Carmona","other_names":{"ref":"0402104000","old_ref":"042104000"},"display_name":"Carmona, Cavite, Calabarzon, 4116, Philippines","address":{"city":"Carmona","state":"Cavite","ISO3166-2-lvl4":"PH-CAV","region":"Calabarzon","ISO3166-2-lvl3":"PH-40","postcode":"4116","country":"Philippines","country_code":"ph"},"population":106256,"osm_type":"node","osm_id":198505154,"type":"city","location":[121.0573969,14.3134763],"bbox":[120.8973969,14.1534763,121.2173969,14.4734763],"border":{"name":"Carmona","other_names":{"ref":"0402104000","old_ref":"042104000","official_name":"City of Carmona"},"display_name":"Carmona, Cavite, Calabarzon, 4116, Philippines","address":{"city":"Carmona","state":"Cavite","ISO3166-2-lvl4":"PH-CAV","region":"Calabarzon","ISO3166-2-lvl3":"PH-40","postcode":"4116","country":"Philippines","country_code":"ph"},"population":106256,"osm_type":"relation","osm_id":2008000,"type":"administrative","location":[121.0573969,14.3134763],"bbox":[121.0025807,14.257145,121.0776824,14.3291295]}}
{"name":"Catbalogan","other_names":{"name:en":"Catbalogan","name:ja":"カトバロガン","name:tl":"Catbalogan","name:war":"Catbalogan"},"display_name":"Catbalogan, Samar, Eastern Visayas, Philippines","address":{"city":"Catbalogan","state":"Samar","ISO3166-2-lvl4":"PH-WSA","region":"Eastern Visayas","ISO3166-2-lvl3":"PH-08","country":"Philippines","country_code":"ph"},"population":103879,"osm_type":"node","osm_id":198491056,"type":"city","location":[124.8829549,11.7753199],"bbox":[124.7229549,11.6153199,125.0429549,11.9353199],"border":{"name":"Catbalogan","other_names":{"name:en":"Catbalogan","name:ja":"カトバロガン","name:tl":"Catbalogan","name:war":"Catbalogan"},"display_name":"Catbalogan, Samar, Eastern Visayas, 6700, Philippines","address":{"city":"Catbalogan","state":"Samar","ISO3166-2-lvl4":"PH-WSA","region":"Eastern Visayas","ISO3166-2-lvl3":"PH-08","postcode":"6700","country":"Philippines","country_code":"ph"},"population":103879,"osm_type":"relation","osm_id":4632713,"type":"administrative","location":[124.8829549,11.7753199],"bbox":[124.550529,11.6700127,124.9690602,11.9191616]}}
{"name":"Cauayan","other_names":{"ref":"023108000","name:en":"Cauayan","name:ja":"カウアヤン"},"display_name":"Cauayan, Isabela, Cagayan Valley, 3305, Philippines","address":{"city":"Cauayan","state":"Isabela","ISO3166-2-lvl4":"PH-ISA","region":"Cagayan Valley","ISO3166-2-lvl3":"PH-02","postcode":"3305","country":"Philippines","country_code":"ph"},"population":129523,"osm_type":"node","osm_id":2509976811,"type":"city","location":[121.7743905,16.9335031],"bbox":[121.6143905,16.7735031,121.9343905,17.0935031]}
{"name":"Cavite City","other_names":{"ref":"0402105000","name:en":"Cavite City","name:es":"Cavite","name:ja":"カヴィテ","name:tl":"Lungsod ng Kabite","old_ref":"042105000","alt_name:tl":"Lungsod ng Cavite"},"display_name":"Cavite City, Cavite, Calabarzon, 4100, Philippines","address":{"city":"Cavite City","state":"Cavite","ISO3166-2-lvl4":"PH-CAV","region":"Calabarzon","ISO3166-2-lvl3":"PH-40","postcode":"4100","country":"Philippines","country_code":"ph"},"population":100674,"osm_type":"node","osm_id":255065816,"type":"city","location":[120.908919,14.4820919],"bbox":[120.748919,14.3220919,121.068919,14.6420919],"border":{"name":"Cavite City","other_names":{"ref":"0402105000","name:en":"Cavite City","name:es":"Cavite","name:ja":"カヴィテ","name:tl":"Lungsod ng Kabite","old_ref":"042105000","alt_name:tl":"Lungsod ng Cavite"},"display_name":"Cavite City, Cavite, Calabarzon, Philippines","address":{"city":"Cavite City","state":"Cavite","ISO3166-2-lvl4":"PH-CAV","region":"Calabarzon","ISO3166-2-lvl3":"PH-40","country":"Philippines","country_code":"ph"},"population":100674,"osm_type":"relation","osm_id":122129,"type":"administrative","location":[120.908919,14.4820919],"bbox":[120.4161392,14.2596201,120.9469778,14.58564]}}
{"name":"Cebu City","other_names":{"ref":"072217000","name:ar":"مدينة سبو","name:de":"Cebu-Stadt","name:en":"Cebu City","name:es":"Cebú","name:et":"Cebu","name:eu":"Cebu Hiria","name:fa":"شهر سبو","name:fr":"Cebu","name:ja":"セブ","name:kn":"ಸೆಬು ನಗರ","name:ko":"세부시","name:ru":"Себу","name:tl":"Cebu","name:uk":"Себу","name:ur":"سیبو شہر","name:zh":"宿霧市","name:ceb":"Sugbo","short_name:ar":"سبو","short_name:fa":"سبو","short_name:ur":"سیبو","official_name:ar":"مدينة سبو","official_name:en":"City of Cebu","official_name:es":"Ciudad de Cebú","official_name:fa":"شهر سبو","official_name:tl":"Lungsod ng Cebu","official_name:ur":"سیبو شہر","official_name:ceb":"Dakbayan sa Sugbo"},"display_name":"Cebu City, Central Visayas, Philippines","address":{"city":"Cebu City","region":"Central Visayas","ISO3166-2-lvl3":"PH-07","country":"Philippines","country_code":"ph"},"population":964169,"osm_type":"node","osm_id":259009337,"type":"city","location":[123.9019209,10.2935639],"bbox":[123.7419209,10.1335639,124.0619209,10.4535639],"border":{"name":"Cebu City","other_names":{"ref":"072217000","name:ar":"مدينة سبو","name:de":"Cebu-Stadt","name:en":"Cebu City","name:es":"Cebú","name:et":"Cebu","name:fa":"شهر سبو","name:fr":"Cebu","name:he":"סבו סיטי","name:ja":"セブ","name:kn":"ಸೆಬು ನಗರ","name:ko":"세부시","name:ru":"Себу","name:tl":"Cebu","name:uk":"Себу","name:ur":"سیبو شہر","name:zh":"宿霧市","name:ceb":"Sugbo","short_name:ar":"سبو","short_name:fa":"سبو","short_name:he":"סבו","short_name:ur":"سیبو","name:eu":"Cebu Hiria","official_name:ar":"مدينة سبو","official_name:en":"City of Cebu","official_name:es":"Ciudad de Cebú","official_name:fa":"شهر سبو","official_name:tl":"Lungsod ng Cebu","official_name:ur":"سیبو شہر","official_name:ceb":"Dakbayan sa Sugbo"},"display_name":"Cebu City, Central Visayas, Philippines","address":{"city":"Cebu City","region":"Central Visayas","ISO3166-2-lvl3":"PH-07","country":"Philippines","country_code":"ph"},"population":964169,"osm_type":"relation","osm_id":12455830,"type":"administrative","location":[123.9019209,10.2935639],"bbox":[123.7533688,10.2463015,123.9302169,10.4957531]}}
{"name":"Cotabato City","other_names":{"ref":"1908703000","name:en":"Cotabato City","name:eu":"Cotabato Hiria","name:ja":"コタバト","name:zh":"哥打巴托","old_ref":"1903804000","alt_name":"Kutawatu","name:ilp":"Kotawato","name:mdh":"Kutawatu","short_name":"Cotabato","alt_name:hil":"Syudad sang Cotabato","alt_name:mdh":"Kuta Wato","official_name":"City of Cotabato","official_name:en":"City of Cotabato","official_name:es":"Ciudad de Cotabato","official_name:tl":"Lungsod ng Cotabato","official_name:ceb":"Dakbayan sa Cotabato","official_name:hil":"Dakbanwa sang Cotabato","official_name:ilp":"Inged a Kotawato","official_name:mdh":"Ingud nu Kutawatu"},"display_name":"Cotabato City, Bangsamoro, 9600, Philippines","address":{"city":"Cotabato City","region":"Bangsamoro","ISO3166-2-lvl3":"PH-14","postcode":"9600","country":"Philippines","country_code":"ph"},"population":325079,"osm_type":"node","osm_id":244475001,"type":"city","location":[124.2467062,7.2237628],"bbox":[124.0867062,7.0637628,124.4067062,7.3837628],"border":{"name":"Cotabato City","other_names":{"ref":"1908703000","name:en":"Cotabato City","name:ja":"コタバト","name:zh":"哥打巴托","old_ref":"1903804000","name:ilp":"Kotawato","name:mdh":"Kutawatu","short_name":"Cotabato","alt_name:mdh":"Kuta Wato","official_name":"City of Cotabato","name:eu":"Cotabato Hiria","alt_name":"Kutawatu","official_name:en":"City of Cotabato","official_name:es":"Ciudad de Cotabato","official_name:tl":"Lungsod ng Cotabato","official_name:ceb":"Dakbayan sa Cotabato","official_name:hil":"Syudad sang Cotabato","official_name:ilp":"Inged a Kotawato","official_name:mdh":"Ingud nu Kutawatu","alt_name:hil":"Syudad sang Cotabato","_place_official_name:hil":"Dakbanwa sang Cotabato"},"display_name":"Cotabato City, Bangsamoro, 9600, Philippines","address":{"city":"Cotabato City","region":"Bangsamoro","ISO3166-2-lvl3":"PH-14","postcode":"9600","country":"Philippines","country_code":"ph"},"population":325079,"osm_type":"relation","osm_id":3821368,"type":"administrative","location":[124.2467062,7.2237628],"bbox":[124.0823292,7.134787,124.3163887,7.2894441]}}
{"name":"Dagupan","other_names":{"ref":"0105518000","name:en":"Dagupan","name:ja":"ダグパン","name:ru":"Дагупан","name:tl":"Dagupan","old_ref":"015518000","name:ilo":"Dagupan","name:pag":"Dagupan"},"display_name":"Dagupan, Pangasinan, Ilocos Region, Philippines","address":{"city":"Dagupan","state":"Pangasinan","ISO3166-2-lvl4":"PH-PAN","region":"Ilocos Region","ISO3166-2-lvl3":"PH-01","country":"Philippines","country_code":"ph"},"population":174302,"osm_type":"node","osm_id":317405147,"type":"city","location":[120.3337627,16.043021],"bbox":[120.1737627,15.883021,120.4937627,16.203021],"border":{"name":"Dagupan","other_names":{"ref":"0105518000","name:en":"Dagupan","name:ja":"ダグパン","name:ru":"Дагупан","name:tl":"Dagupan","old_ref":"015518000","name:ilo":"Dagupan","name:pag":"Dagupan"},"display_name":"Dagupan, Pangasinan, Ilocos Region, 2400, Philippines","address":{"city":"Dagupan","state":"Pangasinan","ISO3166-2-lvl4":"PH-PAN","region":"Ilocos Region","ISO3166-2-lvl3":"PH-01","postcode":"2400","country":"Philippines","country_code":"ph"},"population":174302,"osm_type":"relation","osm_id":13001749,"type":"administrative","location":[120.3337627,16.043021],"bbox":[120.2497022,16.0100424,120.3862619,16.185009]}}
{"name":"Danao","other_names":{"ref":"0702223000"},"display_name":"Danao, Cebu, Central Visayas, 6004, Philippines","address":{"city":"Danao","state":"Cebu","ISO3166-2-lvl4":"PH-CEB","region":"Central Visayas","ISO3166-2-lvl3":"PH-07","postcode":"6004","country":"Philippines","country_code":"ph"},"population":156321,"osm_type":"node","osm_id":367825435,"type":"city","location":[124.0271297,10.5194879],"bbox":[123.8671297,10.3594879,124.1871297,10.6794879]}
{"name":"Dapitan","other_names":{"name:ja":"ダピタン","official_name":"The Shrine City of the Philippines"},"display_name":"Dapitan, Zamboanga del Norte, Zamboanga Peninsula, 7101, Philippines","address":{"city":"Dapitan","state":"Zamboanga del Norte","ISO3166-2-lvl4":"PH-ZAN","region":"Zamboanga Peninsula","ISO3166-2-lvl3":"PH-09","postcode":"7101","country":"Philippines","country_code":"ph"},"population":82418,"osm_type":"node","osm_id":965797302,"type":"city","location":[123.4243754,8.6549449],"bbox":[123.2643754,8.4949449,123.5843754,8.8149449]}
{"name":"Dasmariñas","other_names":{"name:ja":"ダスマリニャス","name:ko":"다스마리냐스","name:ru":"Дасмариньяс","loc_name":"Dasma"},"display_name":"Dasmariñas, Cavite, Calabarzon, Philippines","address":{"city":"Dasmariñas","state":"Cavite","ISO3166-2-lvl4":"PH-CAV","region":"Calabarzon","ISO3166-2-lvl3":"PH-40","country":"Philippines","country_code":"ph"},"population":659019,"osm_type":"node","osm_id":198499913,"type":"city","location":[120.9370871,14.3270819],"bbox":[120.7770871,14.1670819,121.0970871,14.4870819],"border":{"name":"Dasmariñas","other_names":{"ref":"042106000","official_name":"City of Dasmariñas","name:ja":"ダスマリニャス","name:ko":"다스마리냐스","name:ru":"Дасмариньяс","loc_name":"Dasma"},"display_name":"Dasmariñas, Cavite, Calabarzon, Philippines","address":{"city":"Dasmariñas","state":"Cavite","ISO3166-2-lvl4":"PH-CAV","region":"Calabarzon","ISO3166-2-lvl3":"PH-40","country":"Philippines","country_code":"ph"},"population":703141,"osm_type":"relation","osm_id":1488071,"type":"administrative","location":[120.9370871,14.3270819],"bbox":[120.9204892,14.2482008,121.0108972,14.3626996]}}
{"name":"Davao City","other_names":{"ref":"1130700000","name:af":"Davao Stad","name:ar":"مدينة دافاو","name:az":"Davao","name:be":"Даваа","name:bg":"Давао","name:bn":"দাভাও নগরী","name:ca":"Davao","name:ce":"Давао","name:cs":"Davao","name:de":"Davao City","name:en":"Davao City","name:eo":"Dabao Urbo","name:es":"Ciudad de Dávao","name:et":"Davao","name:eu":"Davao Hiria","name:fa":"داوائو سیتی","name:fi":"Davao","name:fr":"Davao","name:he":"דבאו סיטי","name:hi":"डेवाओ शहर","name:hr":"Davao","name:hu":"Davao","name:hy":"Դավաո","name:id":"Kota Davao","name:ie":"Davao","name:is":"Davaó","name:it":"Davao","name:ja":"ダバオ","name:ka":"დავაო","name:kn":"ದಾಬವ್","name:ko":"다바오시","name:ky":"Давао","name:la":"Urbs Davaensis","name:lt":"Davao","name:lv":"Davao","name:mn":"Давао","name:ms":"Bandar Davao","name:my":"ဒါဗောင်းမြို့","name:nb":"Davao","name:nn":"Davao","name:os":"Давао","name:pl":"Davao","name:pt":"Cidade Davao","name:ro":"Davao","name:ru":"Давао","name:sq":"Davao","name:sr":"Давао","name:sv":"Davao","name:ta":"டவாவோ நகரம்","name:th":"ดาเบา","name:tl":"Davao City","name:tt":"Давао-Сити","name:uk":"Давао","name:ur":"داوائو شہر","name:uz":"Davao","name:vi":"Davao (thành phố)","name:zh":"纳卯市","old_ref":"112402000","alt_name":"Dabaw","name:ast":"Ciudá de Dávao","name:ceb":"Davao City","name:nan":"Davao Chhī","name:pam":"Davao Lakanbalen","name:sah":"Давао","name:yue":"達沃","old_name":"Nueva Vergara","short_name":"Davao","name:zh-Hans":"达沃市","name:zh-Hant":"纳卯市/達沃市","official_name":"City of Davao","short_name:ar":"دافاو","short_name:fa":"داوائو","short_name:ur":"داوائو","name:zh-Hant-HK":"達沃市","official_name:en":"City of Davao","official_name:tl":"Lungsod ng Davao","official_name:bcl":"Syudad nin Davao","official_name:ceb":"Dakbayan sa Davao","official_name:hil":"Dakbanwa sang Davao","official_name:ilo":"Siudad ti Davao","official_name:pag":"Siyudad na Davao","official_name:war":"Syudad han Davao"},"display_name":"Davao City, Davao Region, 8000, Philippines","address":{"city":"Davao City","region":"Davao Region","ISO3166-2-lvl3":"PH-11","postcode":"8000","country":"Philippines","country_code":"ph"},"population":1776949,"osm_type":"node","osm_id":325091453,"type":"city","location":[125.6080623,7.0648306],"bbox":[125.4480623,6.9048306,125.7680623,7.2248306],"border":{"name":"Davao City","other_names":{"ref":"112402000","name:af":"Davao Stad","name:ar":"مدينة دافاو","name:bg":"Давао","name:ce":"Давао","name:de":"Davao City","name:en":"Davao City","name:eo":"Dabao Urbo","name:es":"Ciudad de Dávao","name:eu":"Davao Hiria","name:fa":"داوائو سیتی","name:he":"דבאו סיטי","name:hi":"डेवाओ शहर","name:hy":"Դավաո","name:id":"Kota Davao","name:is":"Davaó","name:ja":"ダバオ","name:ka":"დავაო","name:kn":"ದಾಬವ್","name:ko":"다바오시","name:ky":"Давао","name:mn":"Давао","name:ms":"Bandar Davao","name:my":"ဒါဗောင်းမြို့","name:ru":"Давао","name:sr":"Давао","name:ta":"டவாவோ நகரம்","name:th":"ดาเบา","name:tl":"Davao City","name:tt":"Давао-Сити","name:uk":"Давао","name:ur":"داوائو شہر","alt_name":"Dabaw","name:ast":"Ciudá de Dávao","name:ceb":"Davao City","name:nan":"Davao Chhī","name:pam":"Davao Lakanbalen","name:sah":"Давао","name:yue":"達沃","old_name":"Nueva Vergara","_place_ref":"1130700000","short_name":"Davao","name:zh-Hans":"达沃市","name:zh-Hant":"達沃市","official_name":"City of Davao","short_name:ar":"دافاو","short_name:fa":"داوائو","short_name:ur":"داوائو","name:az":"Davao","name:be":"Даваа","name:bn":"দাভাও নগরী","name:ca":"Davao","name:cs":"Davao","name:et":"Davao","name:fi":"Davao","name:fr":"Davao","name:hr":"Davao","name:hu":"Davao","name:ie":"Davao","name:it":"Davao","name:la":"Urbs Davaensis","name:lt":"Davao","name:lv":"Davao","name:nb":"Davao","name:nn":"Davao","name:os":"Давао","name:pl":"Davao","name:pt":"Cidade Davao","name:ro":"Davao","name:sq":"Davao","name:sv":"Davao","name:uz":"Davao","name:vi":"Davao (thành phố)","name:zh":"纳卯市","old_ref":"112402000","name:zh-Hant-HK":"達沃市","alt_name:zh-Hans":"纳卯市","alt_name:zh-Hant":"納卯市","official_name:en":"City of Davao","official_name:tl":"Lungsod ng Davao","official_name:bcl":"Syudad nin Davao","official_name:ceb":"Dakbayan sa Davao","official_name:hil":"Dakbanwa sang Davao","official_name:ilo":"Siudad ti Davao","official_name:pag":"Siyudad na Davao","official_name:war":"Syudad han Davao","alt:zh-Hant":"纳卯市/達沃市"},"display_name":"Davao City, Davao Region, Philippines","address":{"city":"Davao City","region":"Davao Region","ISO3166-2-lvl3":"PH-11","country":"Philippines","country_code":"ph"},"population":1632991,"osm_type":"relation","osm_id":3936841,"type":"administrative","location":[125.6080623,7.0648306],"bbox":[125.2175921,6.9562097,125.6971945,7.605794]}}
{"name":"Digos","other_names":{"ref":"1102403000","name:en":"Digos","name:ja":"ディゴス","name:zh":"狄高斯","old_ref":"112403000","alt_name":"Digos City","official_name":"City of Digos","official_name:tl":"Lungsod ng Digos","official_name:ceb":"Dakbayan sa Digos"},"display_name":"Digos, Davao del Sur, Davao Region, 8002, Philippines","address":{"city":"Digos","state":"Davao del Sur","ISO3166-2-lvl4":"PH-DAS","region":"Davao Region","ISO3166-2-lvl3":"PH-11","postcode":"8002","country":"Philippines","country_code":"ph"},"population":188376,"osm_type":"node","osm_id":686094805,"type":"city","location":[125.3555319,6.7440957],"bbox":[125.1955319,6.5840957,125.5155319,6.9040957],"border":{"name":"Digos","other_names":{"ref":"1102403000","name:en":"Digos","name:ja":"ディゴス","name:zh":"狄高斯","old_ref":"112403000","alt_name":"Digos City","official_name":"City of Digos","official_name:tl":"Lungsod ng Digos","official_name:ceb":"Dakbayan sa Digos"},"display_name":"Digos, Davao del Sur, Davao Region, 8002, Philippines","address":{"city":"Digos","state":"Davao del Sur","ISO3166-2-lvl4":"PH-DAS","region":"Davao Region","ISO3166-2-lvl3":"PH-11","postcode":"8002","country":"Philippines","country_code":"ph"},"population":188376,"osm_type":"relation","osm_id":13177015,"type":"administrative","location":[125.3555319,6.7440957],"bbox":[125.2554354,6.7232825,125.5244491,6.9871872]}}
{"name":"Dipolog","other_names":{"name:ja":"ディポログ","name:ru":"Диполог","name:uk":"Діполог"},"display_name":"Dipolog, Zamboanga del Norte, Zamboanga Peninsula, 7100, Philippines","address":{"city":"Dipolog","state":"Zamboanga del Norte","ISO3166-2-lvl4":"PH-ZAN","region":"Zamboanga Peninsula","ISO3166-2-lvl3":"PH-09","postcode":"7100","country":"Philippines","country_code":"ph"},"population":130759,"osm_type":"node","osm_id":965797300,"type":"city","location":[123.3449371,8.5864062],"bbox":[123.1849371,8.4264062,123.5049371,8.7464062]}
{"name":"Dumaguete","other_names":{"name:en":"Dumaguete","name:ja":"ドゥマゲテ","official_name":"City of Dumaguete"},"display_name":"Dumaguete, Negros Oriental, Negros Island Region, Philippines","address":{"city":"Dumaguete","state":"Negros Oriental","ISO3166-2-lvl4":"PH-NER","region":"Negros Island Region","country":"Philippines","country_code":"ph"},"population":134103,"osm_type":"node","osm_id":611962905,"type":"city","location":[123.3080446,9.3054777],"bbox":[123.1480446,9.1454777,123.4680446,9.4654777],"border":{"name":"Dumaguete","other_names":{"name:ja":"ドゥマゲテ","official_name":"City of Dumaguete","name:en":"Dumaguete"},"display_name":"Dumaguete, Negros Oriental, Negros Island Region, 6200, Philippines","address":{"city":"Dumaguete","state":"Negros Oriental","ISO3166-2-lvl4":"PH-NER","region":"Negros Island Region","postcode":"6200","country":"Philippines","country_code":"ph"},"population":134103,"osm_type":"relation","osm_id":15051886,"type":"administrative","location":[123.3080446,9.3054777],"bbox":[123.2517842,9.270925,123.4217797,9.3351107]}}
{"name":"El Salvador","other_names":{"name:ar":"السلفادور","name:de":"El Salvador","name:es":"El Salvador","name:fa":"السالوادور","name:ja":"エル・サルバドール","name:ur":"ایل سلواڈور","name:azb":"السالوادور","name:az-Arab":"السالوادور"},"display_name":"El Salvador, Misamis Oriental, Northern Mindanao, 9018, Philippines","address":{"city":"El Salvador","state":"Misamis Oriental","ISO3166-2-lvl4":"PH-MSR","region":"Northern Mindanao","ISO3166-2-lvl3":"PH-10","postcode":"9018","country":"Philippines","country_code":"ph"},"population":50204,"osm_type":"node","osm_id":198513339,"type":"city","location":[124.5264381,8.5585108],"bbox":[124.3664381,8.3985108,124.6864381,8.7185108]}
{"name":"Escalante","other_names":{"ref":"1804509000","old_ref":"0604509000;064509000"},"display_name":"Escalante, Negros Occidental, Negros Island Region, Philippines","address":{"city":"Escalante","state":"Negros Occidental","ISO3166-2-lvl4":"PH-NEC","region":"Negros Island Region","country":"Philippines","country_code":"ph"},"population":96159,"osm_type":"node","osm_id":198524342,"type":"city","location":[123.499306,10.8412587],"bbox":[123.339306,10.6812587,123.659306,11.0012587],"border":{"name":"Escalante","other_names":{"ref":"1804509000","old_ref":"0604509000;064509000"},"display_name":"Escalante, Negros Occidental, Negros Island Region, 6124, Philippines","address":{"city":"Escalante","state":"Negros Occidental","ISO3166-2-lvl4":"PH-NEC","region":"Negros Island Region","postcode":"6124","country":"Philippines","country_code":"ph"},"population":96159,"osm_type":"relation","osm_id":11487765,"type":"administrative","location":[123.499306,10.8412587],"bbox":[123.3504939,10.6916418,123.7042422,10.9118682]}}
{"name":"Gapan","other_names":{"name:ja":"ガパン"},"display_name":"Gapan, Nueva Ecija, Central Luzon, 3105, Philippines","address":{"city":"Gapan","state":"Nueva Ecija","ISO3166-2-lvl4":"PH-NUE","region":"Central Luzon","ISO3166-2-lvl3":"PH-03","postcode":"3105","country":"Philippines","country_code":"ph"},"population":110303,"osm_type":"node","osm_id":198498273,"type":"city","location":[120.9479433,15.3122806],"bbox":[120.7879433,15.1522806,121.1079433,15.4722806],"border":{"name":"Gapan","other_names":{"name:ja":"ガパン"},"display_name":"Gapan, Nueva Ecija, Central Luzon, 3105, Philippines","address":{"city":"Gapan","state":"Nueva Ecija","ISO3166-2-lvl4":"PH-NUE","region":"Central Luzon","ISO3166-2-lvl3":"PH-03","postcode":"3105","country":"Philippines","country_code":"ph"},"population":110303,"osm_type":"relation","osm_id":17811850,"type":"administrative","location":[120.9479433,15.3122806],"bbox":[120.905598,15.2114677,121.142738,15.3611455]}}
{"name":"General Santos","other_names":{"name:bg":"Генерал Сантос","name:en":"General Santos","name:ja":"ジェネラル・サントス","name:ko":"제너널산토스","name:ru":"Генерал-Сантос","name:uk":"Генерал-Сантос","name:zh":"三投斯将军市","alt_name":"General Santos City","old_name":"Buayan;Rajah Buayan","short_name":"Gensan;GSC","official_name":"City of General Santos","old_name:etymology":"Sultanate of Buayan","old_name:etymology:wikidata":"Q97206908","old_name:etymology:wikipedia":"en:Sultanate of Buayan"},"display_name":"General Santos, Soccsksargen, 9500, Philippines","address":{"city":"General Santos","region":"Soccsksargen","ISO3166-2-lvl3":"PH-12","postcode":"9500","country":"Philippines","country_code":"ph"},"population":697315,"osm_type":"node","osm_id":3191185968,"type":"city","location":[125.1721893,6.1122217],"bbox":[125.0121893,5.9522217,125.3321893,6.2722217],"border":{"name":"General Santos","other_names":{"name:en":"General Santos","name:ja":"ジェネラル・サントス","name:ko":"제너널산토스","name:ru":"Генерал-Сантос","name:uk":"Генерал-Сантос","name:zh":"三投斯将军市","alt_name":"General Santos City","old_name":"Buayan;Rajah Buayan","short_name":"Gensan;GSC","official_name":"City of General Santos","name:bg":"Генерал Сантос","old_name:etymology":"Sultanate of Buayan","old_name:etymology:wikidata":"Q97206908","old_name:etymology:wikipedia":"en:Sultanate of Buayan"},"display_name":"General Santos, Soccsksargen, 9500, Philippines","address":{"city":"General Santos","region":"Soccsksargen","ISO3166-2-lvl3":"PH-12","postcode":"9500","country":"Philippines","country_code":"ph"},"population":697315,"osm_type":"relation","osm_id":14144757,"type":"administrative","location":[125.1721893,6.1122217],"bbox":[124.990414,5.9241042,125.2700132,6.296738]}}
{"name":"General Trias","other_names":{"ref":"0402108000","name:en":"General Trias","name:ja":"ゼネラル・トリアス","name:tl":"Heneral Trias","old_ref":"042108000","loc_name":"GenTri","old_name":"San Francisco de Malabon","short_name":"Gen. Trias","short_name:en":"Gen. Trias","short_name:tl":"Hen. Trias"},"display_name":"General Trias, Cavite, Calabarzon, 4107, Philippines","address":{"city":"General Trias","state":"Cavite","ISO3166-2-lvl4":"PH-CAV","region":"Calabarzon","ISO3166-2-lvl3":"PH-40","postcode":"4107","country":"Philippines","country_code":"ph"},"population":450583,"osm_type":"node","osm_id":198498476,"type":"city","location":[120.8802855,14.3861207],"bbox":[120.7202855,14.2261207,121.0402855,14.5461207],"border":{"name":"General Trias","other_names":{"ref":"0402108000","name:en":"General Trias","name:ja":"ゼネラル・トリアス","name:tl":"Heneral Trias","old_ref":"042108000","loc_name":"GenTri","old_name":"San Francisco de Malabon","short_name":"Gen. Trias","short_name:en":"Gen. Trias","short_name:tl":"Hen. Trias"},"display_name":"General Trias, Cavite, Calabarzon, 4107, Philippines","address":{"city":"General Trias","state":"Cavite","ISO3166-2-lvl4":"PH-CAV","region":"Calabarzon","ISO3166-2-lvl3":"PH-40","postcode":"4107","country":"Philippines","country_code":"ph"},"population":450583,"osm_type":"relation","osm_id":1489187,"type":"administrative","location":[120.8802855,14.3861207],"bbox":[120.8598417,14.2201869,120.9329583,14.4178563]}}
{"name":"Gingoog","other_names":{"name:en":"Gingoog","name:ja":"ヒンゴオグ","name:ru":"Гингоог","official_name":"City of Gingoog"},"display_name":"Gingoog, Misamis Oriental, Northern Mindanao, 9014, Philippines","address":{"city":"Gingoog","state":"Misamis Oriental","ISO3166-2-lvl4":"PH-MSR","region":"Northern Mindanao","ISO3166-2-lvl3":"PH-10","postcode":"9014","country":"Philippines","country_code":"ph"},"population":136698,"osm_type":"node","osm_id":2823779458,"type":"city","location":[125.1012978,8.8232748],"bbox":[124.9412978,8.6632748,125.2612978,8.9832748],"border":{"name":"Gingoog","other_names":{"old_ref":"104308000","name:en":"Gingoog","name:ja":"ヒンゴオグ","name:ru":"Гингоог","official_name":"City of Gingoog"},"display_name":"Gingoog, Misamis Oriental, Northern Mindanao, 9014, Philippines","address":{"city":"Gingoog","state":"Misamis Oriental","ISO3166-2-lvl4":"PH-MSR","region":"Northern Mindanao","ISO3166-2-lvl3":"PH-10","postcode":"9014","country":"Philippines","country_code":"ph"},"population":136698,"osm_type":"relation","osm_id":13023504,"type":"administrative","location":[125.1012978,8.8232748],"bbox":[124.9631308,8.6739424,125.3060051,8.9364576]}}
{"name":"Guihulngan","display_name":"Guihulngan, Negros Oriental, Negros Island Region, 6214, Philippines","address":{"city":"Guihulngan","state":"Negros Oriental","ISO3166-2-lvl4":"PH-NER","region":"Negros Island Region","postcode":"6214","country":"Philippines","country_code":"ph"},"population":102656,"osm_type":"node","osm_id":198493441,"type":"city","location":[123.273871,10.1195972],"bbox":[123.113871,9.9595972,123.433871,10.2795972]}
{"name":"Himamaylan","other_names":{"ref":"064510000"},"display_name":"Himamaylan, Negros Occidental, Negros Island Region, Philippines","address":{"city":"Himamaylan","state":"Negros Occidental","ISO3166-2-lvl4":"PH-NEC","region":"Negros Island Region","country":"Philippines","country_code":"ph"},"population":106880,"osm_type":"node","osm_id":198531487,"type":"city","location":[122.870539,10.0992841],"bbox":[122.710539,9.9392841,123.030539,10.2592841],"border":{"name":"Himamaylan","other_names":{"ref":"064510000"},"display_name":"Himamaylan, Negros Occidental, Negros Island Region, 6108, Philippines","address":{"city":"Himamaylan","state":"Negros Occidental","ISO3166-2-lvl4":"PH-NEC","region":"Negros Island Region","postcode":"6108","country":"Philippines","country_code":"ph"},"population":106880,"osm_type":"relation","osm_id":11525214,"type":"administrative","location":[122.870539,10.0992841],"bbox":[122.7918605,9.916046,123.0280103,10.2024958]}}
{"name":"Ilagan","other_names":{"ref":"023114000","name:ar":"إيلاغان","name:de":"Ilagan","name:en":"Ilagan","name:es":"Ilagan","name:ja":"イラガン","name:ru":"Илаган","name:uk":"Ілаган","name:ur":"الاگان","name:ilo":"Ilagan","official_name:en":"City of Ilagan","official_name:es":"Ciudad de Ilagan","official_name:ilo":"Siudad ti Ilagan"},"display_name":"Ilagan, Isabela, Cagayan Valley, 3300, Philippines","address":{"city":"Ilagan","state":"Isabela","ISO3166-2-lvl4":"PH-ISA","region":"Cagayan Valley","ISO3166-2-lvl3":"PH-02","postcode":"3300","country":"Philippines","country_code":"ph"},"population":158218,"osm_type":"node","osm_id":198493551,"type":"city","location":[121.8886466,17.1486341],"bbox":[121.7286466,16.9886341,122.0486466,17.3086341]}
{"name":"Iligan","other_names":{"name:zh":"伊利甘"},"display_name":"Iligan, Northern Mindanao, Philippines","address":{"city":"Iligan","region":"Northern Mindanao","ISO3166-2-lvl3":"PH-10","country":"Philippines","country_code":"ph"},"population":342618,"osm_type":"node","osm_id":4070932283,"type":"city","location":[124.2411508,8.2281556],"bbox":[124.0811508,8.0681556,124.4011508,8.3881556],"border":{"name":"Iligan","other_names":{"name:zh":"伊利甘"},"display_name":"Iligan, Northern Mindanao, 9200, Philippines","address":{"city":"Iligan","region":"Northern Mindanao","ISO3166-2-lvl3":"PH-10","postcode":"9200","country":"Philippines","country_code":"ph"},"population":342618,"osm_type":"relation","osm_id":3818838,"type":"administrative","location":[124.2411508,8.2281556],"bbox":[124.1096809,7.978049,124.613615,8.3269563]}}
{"name":"Iloilo City","other_names":{"ref":"063022000","name:en":"Iloilo City","name:es":"Iloílo","name:et":"Iloilo","name:fr":"Iloilo","name:ja":"イロイロ","name:tl":"Iloilo","name:hil":"Iloilo","name:krj":"Iloilo","alt_name:hil":"Syudad sang Iloilo","official_name:en":"City of Iloilo","official_name:es":"Ciudad de Iloílo","official_name:tl":"Lungsod ng Iloilo","official_name:hil":"Dakbanwa sang Iloilo","official_name:krj":"Syudad kang Iloilo"},"display_name":"Iloilo City, Western Visayas, 5000, Philippines","address":{"city":"Iloilo City","region":"Western Visayas","ISO3166-2-lvl3":"PH-06","postcode":"5000","country":"Philippines","country_code":"ph"},"population":457626,"osm_type":"node","osm_id":1700642536,"type":"city","location":[122.5732604,10.6932884],"bbox":[122.4132604,10.5332884,122.7332604,10.8532884],"border":{"name":"Iloilo City","other_names":{"ref":"063022000","name:en":"Iloilo City","name:es":"Iloílo","name:et":"Iloilo","name:fr":"Iloilo","name:ja":"イロイロ","name:tl":"Iloilo","name:hil":"Iloilo","name:krj":"Iloilo","alt_name:hil":"Syudad sang Iloilo","official_name:en":"City of Iloilo","official_name:es":"Ciudad de Iloílo","official_name:tl":"Lungsod ng Iloilo","official_name:hil":"Dakbanwa sang Iloilo","official_name:krj":"Syudad kang Iloilo"},"display_name":"Iloilo City, Western Visayas, 5000, Philippines","address":{"city":"Iloilo City","region":"Western Visayas","ISO3166-2-lvl3":"PH-06","postcode":"5000","country":"Philippines","country_code":"ph"},"population":457626,"osm_type":"relation","osm_id":3499101,"type":"administrative","location":[122.5732604,10.6932884],"bbox":[122.487965,10.639315,122.6171611,10.7811925]}}
{"name":"Imus","other_names":{"ref":"0402109000","name:en":"Imus","name:ja":"イマス","name:tl":"Imus","old_ref":"042109000"},"display_name":"Imus, Cavite, Calabarzon, Philippines","address":{"city":"Imus","state":"Cavite","ISO3166-2-lvl4":"PH-CAV","region":"Calabarzon","ISO3166-2-lvl3":"PH-40","country":"Philippines","country_code":"ph"},"population":496794,"osm_type":"node","osm_id":198492649,"type":"city","location":[120.9365856,14.4290041],"bbox":[120.7765856,14.2690041,121.0965856,14.5890041],"border":{"name":"Imus","other_names":{"ref":"0402109000","name:en":"Imus","name:ja":"イマス","name:tl":"Imus","old_ref":"042109000"},"display_name":"Imus, Cavite, Calabarzon, 4103, Philippines","address":{"city":"Imus","state":"Cavite","ISO3166-2-lvl4":"PH-CAV","region":"Calabarzon","ISO3166-2-lvl3":"PH-40","postcode":"4103","country":"Philippines","country_code":"ph"},"population":496794,"osm_type":"relation","osm_id":1486016,"type":"administrative","location":[120.9365856,14.4290041],"bbox":[120.892088,14.3541065,120.981669,14.4463654]}}
{"name":"Iriga","other_names":{"name:en":"Iriga","name:ja":"イリガ"},"display_name":"Iriga, Camarines Sur, Bicol Region, 4431, Philippines","address":{"city":"Iriga","state":"Camarines Sur","ISO3166-2-lvl4":"PH-CAS","region":"Bicol Region","ISO3166-2-lvl3":"PH-05","postcode":"4431","country":"Philippines","country_code":"ph"},"population":111757,"osm_type":"node","osm_id":2955402659,"type":"city","location":[123.4129406,13.4222626],"bbox":[123.2529406,13.2622626,123.5729406,13.5822626]}
{"name":"Isabela","other_names":{"ref":"0990101000","name:en":"Isabela","name:ja":"イサベラ","name:ru":"Исабела","name:uk":"Ісабела","old_ref":"099701000","alt_name":"Isabela de Basilan;Isabela City","name:cbk":"Isabela","name:tsg":"Isabela","official_name":"City of Isabela","official_name:en":"City of Isabela","official_name:es":"Ciudad de Isabela","official_name:tl":"Lungsod ng Isabela","official_name:cbk":"Ciudad de Isabela","official_name:tsg":"Dāira sin Isabela","official_name:yka":"Suidad Isabelahin"},"display_name":"Isabela, Basilan, Zamboanga Peninsula, 7300, Philippines","address":{"city":"Isabela","state":"Basilan","ISO3166-2-lvl4":"PH-BAS","region":"Zamboanga Peninsula","ISO3166-2-lvl3":"PH-09","postcode":"7300","country":"Philippines","country_code":"ph"},"population":130379,"osm_type":"node","osm_id":198525942,"type":"city","location":[121.9710604,6.7053597],"bbox":[121.8110604,6.5453597,122.1310604,6.8653597],"border":{"name":"Isabela","other_names":{"ref":"0990101000","name:en":"Isabela","name:ja":"イサベラ","name:ru":"Исабела","name:uk":"Ісабела","old_ref":"099701000","alt_name":"Isabela de Basilan;Isabela City","name:cbk":"Isabela","name:tsg":"Isabela","official_name":"City of Isabela","official_name:en":"City of Isabela","official_name:es":"Ciudad de Isabela","official_name:tl":"Lungsod ng Isabela","official_name:cbk":"Ciudad de Isabela","official_name:tsg":"Dāira sin Isabela","official_name:yka":"Suidad Isabelahin"},"display_name":"Isabela, Basilan, Zamboanga Peninsula, 7300, Philippines","address":{"city":"Isabela","state":"Basilan","ISO3166-2-lvl4":"PH-BAS","region":"Zamboanga Peninsula","ISO3166-2-lvl3":"PH-09","postcode":"7300","country":"Philippines","country_code":"ph"},"population":130379,"osm_type":"relation","osm_id":3816063,"type":"administrative","location":[121.9710604,6.7053597],"bbox":[121.822483,6.5619627,122.0599564,6.8489268]}}
{"name":"Kabankalan","other_names":{"ref":"1804515000","name:en":"Kabankalan","name:ja":"カバンカラン","name:zh":"卡班卡兰","old_ref":"064515000"},"display_name":"Kabankalan, Negros Occidental, Negros Island Region, Philippines","address":{"city":"Kabankalan","state":"Negros Occidental","ISO3166-2-lvl4":"PH-NEC","region":"Negros Island Region","country":"Philippines","country_code":"ph"},"population":200198,"osm_type":"node","osm_id":198506059,"type":"city","location":[122.8134802,9.9889153],"bbox":[122.6534802,9.8289153,122.9734802,10.1489153],"border":{"name":"Kabankalan","other_names":{"ref":"1804515000","name:en":"Kabankalan","name:ja":"カバンカラン","name:zh":"卡班卡兰","old_ref":"064515000"},"display_name":"Kabankalan, Negros Occidental, Negros Island Region, 6111, Philippines","address":{"city":"Kabankalan","state":"Negros Occidental","ISO3166-2-lvl4":"PH-NEC","region":"Negros Island Region","postcode":"6111","country":"Philippines","country_code":"ph"},"population":181977,"osm_type":"relation","osm_id":3740502,"type":"administrative","location":[122.8134802,9.9889153],"bbox":[122.7175207,9.5766892,122.9809463,10.1219676]}}
{"name":"Kidapawan","other_names":{"ref":"1204704000","name:en":"Kidapawan","name:ja":"キダパワン","name:tl":"Kidapawan","old_ref":"124704000","alt_name":"Kidapawan City","name:ceb":"Kidapawan","name:hil":"Kidapawan","name:mdh":"Kidapawan","name:obo":"Kidapawan","official_name":"City of Kidapawan","official_name:en":"City of Kidapawan","official_name:ceb":"Dakbayan sa Kidapawan","official_name:hil":"Dakbanwa sang Kidapawan","official_name:mdh":"Kuta nu Kidapawan","official_name:obo":"Ingod to Kidapawan"},"display_name":"Kidapawan, North Cotabato, Soccsksargen, 9400, Philippines","address":{"city":"Kidapawan","state":"North Cotabato","ISO3166-2-lvl4":"PH-NCO","region":"Soccsksargen","ISO3166-2-lvl3":"PH-12","postcode":"9400","country":"Philippines","country_code":"ph"},"population":160791,"osm_type":"node","osm_id":198512957,"type":"city","location":[125.0905037,7.0095784],"bbox":[124.9305037,6.8495784,125.2505037,7.1695784],"border":{"name":"Kidapawan","other_names":{"ref":"124704000","name:ja":"キダパワン","_place_ref":"1204704000","name:en":"Kidapawan","name:tl":"Kidapawan","old_ref":"124704000","alt_name":"Kidapawan City","name:ceb":"Kidapawan","name:hil":"Kidapawan","name:mdh":"Kidapawan","name:obo":"Kidapawan","official_name":"City of Kidapawan","official_name:en":"City of Kidapawan","official_name:ceb":"Dakbayan sa Kidapawan","official_name:hil":"Dakbanwa sang Kidapawan","official_name:mdh":"Kuta nu Kidapawan","official_name:obo":"Ingod to Kidapawan"},"display_name":"Kidapawan, North Cotabato, Soccsksargen, 9400, Philippines","address":{"city":"Kidapawan","state":"North Cotabato","ISO3166-2-lvl4":"PH-NCO","region":"Soccsksargen","ISO3166-2-lvl3":"PH-12","postcode":"9400","country":"Philippines","country_code":"ph"},"population":140195,"osm_type":"relation","osm_id":1513759,"type":"administrative","location":[125.0905037,7.0095784],"bbox":[124.9313039,6.9716335,125.2707835,7.1116672]}}
{"name":"Koronadal","other_names":{"name:en":"Koronadal","name:es":"Koronadal","name:ja":"コロナダル","name:tl":"Koronadal","name:zh":"科罗纳达尔","alt_name":"Marbel","name:ceb":"Koronadal","name:hil":"Koronadal","alt_name:hil":"Syudad sang Koronadal","official_name":"City of Koronadal","official_name:en":"City of Koronadal","official_name:es":"Ciudad de Koronadal","official_name:tl":"Lungsod ng Koronadal","official_name:ceb":"Dakbayan sa Koronadal","official_name:hil":"Dakbanwa sang Koronadal"},"display_name":"Koronadal, South Cotabato, Soccsksargen, Philippines","address":{"city":"Koronadal","state":"South Cotabato","ISO3166-2-lvl4":"PH-SCO","region":"Soccsksargen","ISO3166-2-lvl3":"PH-12","country":"Philippines","country_code":"ph"},"population":174942,"osm_type":"node","osm_id":198505269,"type":"city","location":[124.8435437,6.5004041],"bbox":[124.6835437,6.3404041,125.0035437,6.6604041],"border":{"name":"Koronadal","other_names":{"ref":"126306000","official_name":"City of Koronadal","name:en":"Koronadal","name:es":"Koronadal","name:ja":"コロナダル","name:tl":"Koronadal","name:zh":"科罗纳达尔","alt_name":"Marbel","name:ceb":"Koronadal","name:hil":"Koronadal","alt_name:hil":"Syudad sang Koronadal","official_name:en":"City of Koronadal","official_name:es":"Ciudad de Koronadal","official_name:tl":"Lungsod ng Koronadal","official_name:ceb":"Dakbayan sa Koronadal","official_name:hil":"Dakbanwa sang Koronadal"},"display_name":"Koronadal, South Cotabato, Soccsksargen, 9506, Philippines","address":{"city":"Koronadal","state":"South Cotabato","ISO3166-2-lvl4":"PH-SCO","region":"Soccsksargen","ISO3166-2-lvl3":"PH-12","postcode":"9506","country":"Philippines","country_code":"ph"},"population":174942,"osm_type":"relation","osm_id":10903143,"type":"administrative","location":[124.8435437,6.5004041],"bbox":[124.7888517,6.3517672,125.0004244,6.5697958]}}
{"name":"La Carlota","other_names":{"ref":"1804516000"},"display_name":"La Carlota, Negros Occidental, Negros Island Region, Philippines","address":{"city":"La Carlota","state":"Negros Occidental","ISO3166-2-lvl4":"PH-NEC","region":"Negros Island Region","country":"Philippines","country_code":"ph"},"population":66664,"osm_type":"node","osm_id":710659137,"type":"city","location":[122.9208074,10.4268649],"bbox":[122.7608074,10.2668649,123.0808074,10.5868649],"border":{"name":"La Carlota","other_names":{"ref":"1804516000"},"display_name":"La Carlota, Negros Occidental, Negros Island Region, 6130, Philippines","address":{"city":"La Carlota","state":"Negros Occidental","ISO3166-2-lvl4":"PH-NEC","region":"Negros Island Region","postcode":"6130","country":"Philippines","country_code":"ph"},"population":66664,"osm_type":"relation","osm_id":11984373,"type":"administrative","location":[122.9208074,10.4268649],"bbox":[122.8973026,10.36815,123.1324518,10.4663039]}}
{"name":"Lamitan","other_names":{"ref":"1900702000","old_ref":"150702000","alt_name":"Lamitan City","official_name":"City of Lamitan"},"display_name":"Lamitan, Basilan, Bangsamoro, 7302, Philippines","address":{"city":"Lamitan","state":"Basilan","ISO3166-2-lvl4":"PH-BAS","region":"Bangsamoro","ISO3166-2-lvl3":"PH-14","postcode":"7302","country":"Philippines","country_code":"ph"},"population":100150,"osm_type":"node","osm_id":198529319,"type":"city","location":[122.1449694,6.6575615],"bbox":[121.9849694,6.4975615,122.3049694,6.8175615],"border":{"name":"Lamitan","other_names":{"ref":"1900702000","old_ref":"150702000","alt_name":"Lamitan City","official_name":"City of Lamitan"},"display_name":"Lamitan, Basilan, Bangsamoro, 7302, Philippines","address":{"city":"Lamitan","state":"Basilan","ISO3166-2-lvl4":"PH-BAS","region":"Bangsamoro","ISO3166-2-lvl3":"PH-14","postcode":"7302","country":"Philippines","country_code":"ph"},"population":100150,"osm_type":"relation","osm_id":3816064,"type":"administrative","location":[122.1449694,6.6575615],"bbox":[122.0284117,6.5572335,122.202746,6.8083688]}}
{"name":"Laoag","other_names":{"name:en":"Laoag","name:ja":"ラオアグ","name:ru":"Лаоаг","name:uk":"Лаоаг","name:zh":"拉瓦格"},"display_name":"Laoag, Brgy. 13, Ilocos Norte, Ilocos Region, 2900, Philippines","address":{"city":"Laoag","county":"Brgy. 13","state":"Ilocos Norte","ISO3166-2-lvl4":"PH-ILN","region":"Ilocos Region","ISO3166-2-lvl3":"PH-01","postcode":"2900","country":"Philippines","country_code":"ph"},"population":111125,"osm_type":"node","osm_id":317949136,"type":"city","location":[120.5935433,18.1973235],"bbox":[120.4335433,18.0373235,120.7535433,18.3573235],"border":{"name":"Laoag","display_name":"Laoag, Brgy. 32-A La Paz East, Ilocos Norte, Ilocos Region, Philippines","address":{"administrative":"Laoag","county":"Brgy. 32-A La Paz East","state":"Ilocos Norte","ISO3166-2-lvl4":"PH-ILN","region":"Ilocos Region","ISO3166-2-lvl3":"PH-01","country":"Philippines","country_code":"ph"},"osm_type":"relation","osm_id":16371565,"type":"administrative","location":[120.51036752928215,18.21682255],"bbox":[120.3757016,18.1293383,120.6776925,18.3044079]}}
{"name":"Lapu-Lapu","other_names":{"ref":"0731100000","name:en":"Lapu-Lapu","name:ja":"ラプラプ","name:tl":"Lapu-Lapu","old_ref":"072226000","alt_name":"Opon","old_name":"Opon"},"display_name":"Lapu-Lapu, Central Visayas, Philippines","address":{"city":"Lapu-Lapu","region":"Central Visayas","ISO3166-2-lvl3":"PH-07","country":"Philippines","country_code":"ph"},"population":497604,"osm_type":"node","osm_id":534548619,"type":"city","location":[123.9488177,10.3126722],"bbox":[123.7888177,10.1526722,124.1088177,10.4726722],"border":{"name":"Lapu-Lapu","other_names":{"ref":"0731100000","name:en":"Lapu-Lapu","name:ja":"ラプラプ","name:tl":"Lapu-Lapu","old_ref":"072226000","alt_name":"Opon","old_name":"Opon"},"display_name":"Lapu-Lapu, Central Visayas, Philippines","address":{"city":"Lapu-Lapu","region":"Central Visayas","ISO3166-2-lvl3":"PH-07","country":"Philippines","country_code":"ph"},"population":497604,"osm_type":"relation","osm_id":12163916,"type":"administrative","location":[123.9488177,10.3126722],"bbox":[123.9144945,10.1789047,124.2759019,10.4213776]}}
{"name":"Las Piñas","other_names":{"ref":"1380200000","name:en":"Las Piñas","name:ja":"ラスピニャス","name:ru":"Лас-Пиньяс","name:tl":"Las Piñas","old_ref":"137601000"},"display_name":"Las Piñas, Southern Manila District, Metro Manila, Philippines","address":{"city":"Las Piñas","state_district":"Southern Manila District","region":"Metro Manila","ISO3166-2-lvl3":"PH-00","country":"Philippines","country_code":"ph"},"population":606293,"osm_type":"node","osm_id":198515803,"type":"city","location":[120.9817861,14.4809012],"bbox":[120.8217861,14.3209012,121.1417861,14.6409012],"border":{"name":"Las Piñas","other_names":{"ref":"1380200000","name:en":"Las Piñas","name:ja":"ラスピニャス","name:ru":"Лас-Пиньяс","name:tl":"Las Piñas","old_ref":"137601000"},"display_name":"Las Piñas, Southern Manila District, Metro Manila, Philippines","address":{"city":"Las Piñas","state_district":"Southern Manila District","region":"Metro Manila","ISO3166-2-lvl3":"PH-00","country":"Philippines","country_code":"ph"},"population":606293,"osm_type":"relation","osm_id":2095594,"type":"administrative","location":[120.9817861,14.4809012],"bbox":[120.9433528,14.3491862,121.0242042,14.5011152]}}
{"name":"Legazpi","other_names":{"ref":"0500506000","name:en":"Legazpi","name:ja":"レガスピ","name:ru":"Легаспи","name:tl":"Legazpi","name:uk":"Легаспі","name:zh":"黎牙实比","old_ref":"050506000","alt_name":"Legaspi","name:bcl":"Legazpi","alt_name:en":"Legaspi","alt_name:tl":"Legaspi","alt_name:bcl":"Legaspi","official_name:en":"City of Legazpi","official_name:tl":"Lungsod ng Legazpi","official_name:bcl":"Ciudad kan Legazpi"},"display_name":"Legazpi, Albay, Bicol Region, Philippines","address":{"city":"Legazpi","state":"Albay","ISO3166-2-lvl4":"PH-ALB","region":"Bicol Region","ISO3166-2-lvl3":"PH-05","country":"Philippines","country_code":"ph"},"population":209533,"osm_type":"node","osm_id":25653778,"type":"city","location":[123.7345746,13.1388505],"bbox":[123.5745746,12.9788505,123.8945746,13.2988505],"border":{"name":"Legazpi","other_names":{"ref":"0500506000","name:en":"Legazpi","name:ja":"レガスピ","name:ru":"Легаспи","name:tl":"Legazpi","name:uk":"Легаспі","name:zh":"黎牙实比","old_ref":"050506000","alt_name":"Legaspi","name:bcl":"Legazpi","alt_name:en":"Legaspi","alt_name:tl":"Legaspi","alt_name:bcl":"Legaspi","official_name:en":"City of Legazpi","official_name:tl":"Lungsod ng Legazpi","official_name:bcl":"Ciudad kan Legazpi"},"display_name":"Legazpi, Albay, Bicol Region, 4500, Philippines","address":{"city":"Legazpi","state":"Albay","ISO3166-2-lvl4":"PH-ALB","region":"Bicol Region","ISO3166-2-lvl3":"PH-05","postcode":"4500","country":"Philippines","country_code":"ph"},"population":209533,"osm_type":"relation","osm_id":3488060,"type":"administrative","location":[123.7345746,13.1388505],"bbox":[123.6861783,12.9873985,123.8639699,13.2555075]}}
{"name":"Ligao","other_names":{"name:ja":"リガオ"},"display_name":"Ligao, Albay, Bicol Region, 4504, Philippines","address":{"city":"Ligao","state":"Albay","ISO3166-2-lvl4":"PH-ALB","region":"Bicol Region","ISO3166-2-lvl3":"PH-05","postcode":"4504","country":"Philippines","country_code":"ph"},"population":118096,"osm_type":"node","osm_id":198493666,"type":"city","location":[123.5365227,13.2402789],"bbox":[123.3765227,13.0802789,123.6965227,13.4002789]}
{"name":"Lipa","other_names":{"ref":"041014000","name:ar":"ليبا","name:be":"Ліпа","name:bg":"Липа","name:bn":"লিপা","name:es":"Lipá","name:fa":"لیپا","name:he":"ליפא","name:hi":"लिपा","name:ja":"リパ","name:ko":"리파","name:pa":"ਲਿਪਾ","name:ru":"Липа","name:sr":"Липа","name:ta":"லிபா","name:th":"ลิปา","name:uk":"Ліпа","name:ur":"لیپا","name:zh":"利巴"},"display_name":"Lipa, Batangas, Calabarzon, 4217, Philippines","address":{"city":"Lipa","state":"Batangas","ISO3166-2-lvl4":"PH-BTG","region":"Calabarzon","ISO3166-2-lvl3":"PH-40","postcode":"4217","country":"Philippines","country_code":"ph"},"population":372931,"osm_type":"node","osm_id":273991971,"type":"city","location":[121.1642826,13.941434],"bbox":[121.0042826,13.781434,121.3242826,14.101434],"border":{"name":"Lipa","other_names":{"ref":"041014000","name:ar":"ليبا","name:be":"Ліпа","name:bg":"Липа","name:bn":"লিপা","name:es":"Lipá","name:fa":"لیپا","name:he":"ליפא","name:hi":"लिपा","name:ja":"リパ","name:ko":"리파","name:pa":"ਲਿਪਾ","name:ru":"Липа","name:sr":"Липа","name:ta":"லிபா","name:th":"ลิปา","name:uk":"Ліпа","name:ur":"لیپا","name:zh":"利巴"},"display_name":"Lipa, Batangas, Calabarzon, Philippines","address":{"city":"Lipa","state":"Batangas","ISO3166-2-lvl4":"PH-BTG","region":"Calabarzon","ISO3166-2-lvl3":"PH-40","country":"Philippines","country_code":"ph"},"population":332386,"osm_type":"relation","osm_id":6209763,"type":"administrative","location":[121.1642826,13.941434],"bbox":[121.022644,13.8550121,121.2826268,14.0298672]}}
{"name":"Lucena","other_names":{"ref":"0431200000","name:ar":"لوسينا","name:de":"Lucena","name:en":"Lucena","name:es":"Lucena","name:ja":"ルセナ","name:tl":"Lucena","name:ur":"لوسینا","old_ref":"045624000","official_name:ar":"مدينة لوسينا","official_name:en":"City of Lucena","official_name:es":"Ciudad de Lucena","official_name:tl":"Lungsod ng Lucena"},"display_name":"Lucena, 2nd District, Calabarzon, 4301, Philippines","address":{"city":"Lucena","state_district":"2nd District","region":"Calabarzon","ISO3166-2-lvl3":"PH-40","postcode":"4301","country":"Philippines","country_code":"ph"},"population":278924,"osm_type":"node","osm_id":272327246,"type":"city","location":[121.6128612,13.9357696],"bbox":[121.4528612,13.7757696,121.7728612,14.0957696],"border":{"name":"Lucena","other_names":{"ref":"0431200000","name:ar":"لوسينا","name:de":"Lucena","name:en":"Lucena","name:es":"Lucena","name:ja":"ルセナ","name:tl":"Lucena","name:ur":"لوسینا","old_ref":"045624000","official_name:ar":"مدينة لوسينا","official_name:en":"City of Lucena","official_name:es":"Ciudad de Lucena","official_name:tl":"Lungsod ng Lucena"},"display_name":"Lucena, 2nd District, Calabarzon, 4301, Philippines","address":{"city":"Lucena","state_district":"2nd District","region":"Calabarzon","ISO3166-2-lvl3":"PH-40","postcode":"4301","country":"Philippines","country_code":"ph"},"population":278924,"osm_type":"relation","osm_id":11124741,"type":"administrative","location":[121.6128612,13.9357696],"bbox":[121.5554622,13.7560489,121.6949796,13.9886448]}}
{"name":"Maasin","other_names":{"name:ja":"マアシン","name:tl":"Maasin","name:war":"Maasin","official_name:en":"City of Maasin","official_name:tl":"Lungsod ng Maasin","official_name:war":"Syudad han Maasin"},"display_name":"Maasin, Southern Leyte, Eastern Visayas, Philippines","address":{"city":"Maasin","state":"Southern Leyte","ISO3166-2-lvl4":"PH-SLE","region":"Eastern Visayas","ISO3166-2-lvl3":"PH-08","country":"Philippines","country_code":"ph"},"population":85560,"osm_type":"node","osm_id":198505398,"type":"city","location":[124.8385147,10.1325061],"bbox":[124.6785147,9.9725061,124.9985147,10.2925061]}
{"name":"Mabalacat","other_names":{"ref":"0305409000","name:en":"Mabalacat","name:ja":"マバラカット","name:tl":"Mabalacat","old_ref":"035409000","name:pam":"Mabalacat"},"display_name":"Mabalacat, Pampanga, Central Luzon, 2010, Philippines","address":{"city":"Mabalacat","state":"Pampanga","ISO3166-2-lvl4":"PH-PAM","region":"Central Luzon","ISO3166-2-lvl3":"PH-03","postcode":"2010","country":"Philippines","country_code":"ph"},"population":293244,"osm_type":"node","osm_id":3189500747,"type":"city","location":[120.5733815,15.2250826],"bbox":[120.4133815,15.0650826,120.7333815,15.3850826],"border":{"name":"Mabalacat","other_names":{"ref":"0305409000","name:en":"Mabalacat","name:ja":"マバラカット","name:tl":"Mabalacat","old_ref":"035409000","name:pam":"Mabalacat"},"display_name":"Mabalacat, Pampanga, Central Luzon, Philippines","address":{"city":"Mabalacat","state":"Pampanga","ISO3166-2-lvl4":"PH-PAM","region":"Central Luzon","ISO3166-2-lvl3":"PH-03","country":"Philippines","country_code":"ph"},"population":293244,"osm_type":"relation","osm_id":13407320,"type":"administrative","location":[120.5733815,15.2250826],"bbox":[120.461758,15.1569472,120.6345123,15.2674599]}}
{"name":"Makati","other_names":{"name:ar":"ماكاتي","name:en":"Makati","name:es":"Macati","name:fa":"ماکاتی","name:ja":"マカティ","name:ks":"مکاتی","name:ru":"Макати","name:tl":"Makati","name:ur":"مکاتی","name:azb":"ماکاتی","official_name":"City of Makati"},"display_name":"Makati, Southern Manila District, Metro Manila, Philippines","address":{"city":"Makati","state_district":"Southern Manila District","region":"Metro Manila","ISO3166-2-lvl3":"PH-00","country":"Philippines","country_code":"ph"},"population":582602,"osm_type":"node","osm_id":255066773,"type":"city","location":[121.0211226,14.5567949],"bbox":[120.8611226,14.3967949,121.1811226,14.7167949],"border":{"name":"Makati","other_names":{"ref":"137602000","name:ar":"ماكاتي","name:fa":"ماکاتی","name:ja":"マカティ","name:ks":"مکاتی","name:ru":"Макати","name:tl":"Makati","name:ur":"مکاتی","name:azb":"ماکاتی","name:en":"Makati","name:es":"Macati","official_name":"City of Makati"},"display_name":"Makati, Southern Manila District, Metro Manila, Philippines","address":{"city":"Makati","state_district":"Southern Manila District","region":"Metro Manila","ISO3166-2-lvl3":"PH-00","country":"Philippines","country_code":"ph"},"population":582602,"osm_type":"relation","osm_id":103716,"type":"administrative","location":[121.0211226,14.5567949],"bbox":[120.9987708,14.5296505,121.0500718,14.5794322]}}
{"name":"Malabon","other_names":{"ref":"137502000"},"display_name":"Malabon, Northern Manila District, Metro Manila, Philippines","address":{"city":"Malabon","state_district":"Northern Manila District","region":"Metro Manila","ISO3166-2-lvl3":"PH-00","country":"Philippines","country_code":"ph"},"population":365525,"osm_type":"node","osm_id":198507433,"type":"city","location":[120.9511261,14.6578504],"bbox":[120.7911261,14.4978504,121.1111261,14.8178504],"border":{"name":"Malabon","other_names":{"ref":"137502000"},"display_name":"Malabon, Northern Manila District, Metro Manila, Philippines","address":{"city":"Malabon","state_district":"Northern Manila District","region":"Metro Manila","ISO3166-2-lvl3":"PH-00","country":"Philippines","country_code":"ph"},"population":365525,"osm_type":"relation","osm_id":403176,"type":"administrative","location":[120.9511261,14.6578504],"bbox":[120.9209997,14.6450559,121.0006778,14.7044133]}}
{"name":"Malaybalay","other_names":{"name:en":"Malaybalay","name:ja":"マライバライ","name:ru":"Малайбалай","name:uk":"Малайбалай","name:zh":"马来巴来","alt_name":"Malaybalay City","official_name":"City of Malaybalay"},"display_name":"Malaybalay, Bukidnon, Northern Mindanao, 8700, Philippines","address":{"city":"Malaybalay","state":"Bukidnon","ISO3166-2-lvl4":"PH-BUK","region":"Northern Mindanao","ISO3166-2-lvl3":"PH-10","postcode":"8700","country":"Philippines","country_code":"ph"},"population":190712,"osm_type":"node","osm_id":198503889,"type":"city","location":[125.1305726,8.1550421],"bbox":[124.9705726,7.9950421,125.2905726,8.3150421],"border":{"name":"Malaybalay","other_names":{"name:en":"Malaybalay","name:ja":"マライバライ","name:ru":"Малайбалай","name:uk":"Малайбалай","name:zh":"马来巴来","alt_name":"Malaybalay City","official_name":"City of Malaybalay"},"display_name":"Malaybalay, Bukidnon, Northern Mindanao, 8700, Philippines","address":{"city":"Malaybalay","state":"Bukidnon","ISO3166-2-lvl4":"PH-BUK","region":"Northern Mindanao","ISO3166-2-lvl3":"PH-10","postcode":"8700","country":"Philippines","country_code":"ph"},"population":190712,"osm_type":"relation","osm_id":13434541,"type":"administrative","location":[125.1305726,8.1550421],"bbox":[124.9222279,7.9443801,125.4132356,8.3361357]}}
{"name":"Malolos","other_names":{"ref":"0301410000","name:en":"Malolos","name:ja":"マロロス","name:tl":"Malolos","name:zh":"马洛洛斯","old_ref":"031410000","official_name":"City of Malolos","official_name:en":"City of Malolos","official_name:tl":"Lungsod ng Malolos"},"display_name":"Malolos, Bulacan, Central Luzon, Philippines","address":{"city":"Malolos","state":"Bulacan","ISO3166-2-lvl4":"PH-BUL","region":"Central Luzon","ISO3166-2-lvl3":"PH-03","country":"Philippines","country_code":"ph"},"population":261189,"osm_type":"node","osm_id":894114195,"type":"city","location":[120.8113694,14.843759],"bbox":[120.6513694,14.683759,120.9713694,15.003759],"border":{"name":"Malolos","other_names":{"ref":"0301410000","name:en":"Malolos","name:ja":"マロロス","name:tl":"Malolos","name:zh":"马洛洛斯","old_ref":"031410000","official_name":"City of Malolos","official_name:en":"City of Malolos","official_name:tl":"Lungsod ng Malolos"},"display_name":"Malolos, Bulacan, Central Luzon, 3000, Philippines","address":{"city":"Malolos","state":"Bulacan","ISO3166-2-lvl4":"PH-BUL","region":"Central Luzon","ISO3166-2-lvl3":"PH-03","postcode":"3000","country":"Philippines","country_code":"ph"},"population":261189,"osm_type":"relation","osm_id":16685975,"type":"administrative","location":[120.8113694,14.843759],"bbox":[120.7813431,14.7265754,120.8662967,14.890702]}}
{"name":"Mandaluyong","other_names":{"ref":"1380500000","name:en":"Mandaluyong","name:es":"Mandalúyong","name:ja":"マンダルーヨン","name:tl":"Mandaluyong","old_ref":"137401000","alt_name":"Mandaluyong City"},"display_name":"Mandaluyong, Eastern Manila District, Metro Manila, Philippines","address":{"city":"Mandaluyong","state_district":"Eastern Manila District","region":"Metro Manila","ISO3166-2-lvl3":"PH-00","country":"Philippines","country_code":"ph"},"population":425758,"osm_type":"node","osm_id":198501313,"type":"city","location":[121.0338973,14.5774392],"bbox":[120.8738973,14.4174392,121.1938973,14.7374392],"border":{"name":"Mandaluyong","other_names":{"ref":"1380500000","name:en":"Mandaluyong","name:es":"Mandalúyong","name:ja":"マンダルーヨン","name:tl":"Mandaluyong","old_ref":"137401000","alt_name":"Mandaluyong City"},"display_name":"Mandaluyong, Eastern Manila District, Metro Manila, Philippines","address":{"city":"Mandaluyong","state_district":"Eastern Manila District","region":"Metro Manila","ISO3166-2-lvl3":"PH-00","country":"Philippines","country_code":"ph"},"population":425758,"osm_type":"relation","osm_id":2284209,"type":"administrative","location":[121.0338973,14.5774392],"bbox":[121.0170704,14.5672083,121.0600635,14.6019529]}}
{"name":"Mandaue","other_names":{"ref":"072230000","name:en":"Mandaue","name:ja":"マンダウエ"},"display_name":"Mandaue, Central Visayas, Philippines","address":{"city":"Mandaue","region":"Central Visayas","ISO3166-2-lvl3":"PH-07","country":"Philippines","country_code":"ph"},"population":364116,"osm_type":"node","osm_id":534507777,"type":"city","location":[123.9427295,10.3269049],"bbox":[123.7827295,10.1669049,124.1027295,10.4869049],"border":{"name":"Mandaue","other_names":{"ref":"072230000","name:en":"Mandaue","name:ja":"マンダウエ"},"display_name":"Mandaue, Central Visayas, 6014, Philippines","address":{"city":"Mandaue","region":"Central Visayas","ISO3166-2-lvl3":"PH-07","postcode":"6014","country":"Philippines","country_code":"ph"},"population":364116,"osm_type":"relation","osm_id":12165003,"type":"administrative","location":[123.9427295,10.3269049],"bbox":[123.9128476,10.3058879,123.9827299,10.397547]}}
{"name":"Manila","other_names":{"name:af":"Manila","name:am":"ማኒላ","name:an":"Manila","name:ar":"مانيلا","name:az":"Manila","name:ba":"Манила","name:be":"Маніла","name:bg":"Манила","name:bn":"ম্যানিলা","name:bo":"མ་ནི་ལ།","name:br":"Manila","name:bs":"Manila","name:ca":"Manila","name:ce":"Манила","name:cs":"Manila","name:cv":"Манила","name:cy":"Manila","name:da":"Manila","name:de":"Manila","name:el":"Μανίλα","name:en":"Manila","name:eo":"Manilo","name:es":"Manila","name:et":"Manila","name:eu":"Manila","name:fa":"مانیل","name:fi":"Manila","name:fo":"Manila","name:fr":"Manille","name:fy":"Manilla","name:ga":"Mainile","name:gd":"Manila","name:gl":"Manila","name:ha":"Manila","name:he":"מנילה","name:hi":"मनीला","name:hr":"Manila","name:ht":"Manyl","name:hu":"Manila","name:hy":"Մանիլա","name:ia":"Manila","name:id":"Manila","name:ie":"Manila","name:io":"Manila","name:is":"Maníla","name:it":"Manila","name:ja":"マニラ","name:jv":"Manila","name:ka":"მანილა","name:ki":"Manila","name:kk":"Манила","name:km":"ម៉ានីល","name:kn":"ಮನಿಲ","name:ko":"마닐라","name:ku":"Manîla","name:ky":"Манила","name:la":"Manila","name:lb":"Manila","name:li":"Manilla","name:lo":"ມະນິລາ","name:lt":"Manila","name:lv":"Manila","name:mg":"Manille","name:mi":"Manira","name:mk":"Манила","name:ml":"മനില","name:mn":"Манила","name:mr":"मनिला","name:ms":"Manila","name:my":"မနီလာမြို့","name:na":"Manila","name:ne":"मनिला","name:nl":"Manilla","name:nn":"Manila","name:no":"Manila","name:oc":"Manila","name:or":"ମାନିଲା","name:os":"Манилæ","name:pa":"ਮਨੀਲਾ","name:pl":"Manila","name:ps":"مانیلا","name:pt":"Manila","name:qu":"Manila","name:ro":"Manila","name:ru":"Манила","name:rw":"Manila","name:sc":"Manila","name:sd":"منيلا","name:sh":"Manila","name:si":"මැනිලා","name:sk":"Manila","name:sl":"Manila","name:sn":"Manila","name:sq":"Manila","name:sr":"Манила","name:sv":"Manila","name:sw":"Manila","name:ta":"மணிலா","name:te":"మనీలా","name:tg":"Манила","name:th":"มะนิลา","name:tl":"Maynila","name:tr":"Manila","name:tt":"Манила","name:ug":"مانىلا","name:uk":"Маніла","name:ur":"منیلا","name:uz":"Manila","name:vi":"Manila","name:vo":"Maynila","name:yi":"מאנילא","name:yo":"Manila","name:zh":"马尼拉 / 馬尼拉","name:ace":"Manila","name:als":"Manila","name:ang":"Manila","name:arz":"مانيلا","name:ast":"Manila","name:azb":"مانیل","name:bcl":"Manila","name:bxr":"Манила","name:cdo":"Manila","name:ceb":"Manila","name:ckb":"مانیلا","name:crh":"Manila","name:diq":"Manila","name:dsb":"Manila","name:dty":"मनिला","name:frr":"Manila","name:hak":"Manila","name:hif":"Manila","name:hsb":"Manila","name:hyw":"Մանիլա","name:ilo":"Manila","name:jbo":"manilias.","name:kaa":"Manila","name:lad":"Manila","name:lij":"Manilla","name:lmo":"Manila","name:mai":"मनिला","name:mwl":"Manila","name:nah":"Manillah","name:nan":"Manila","name:new":"मनिला","name:olo":"Manila","name:pag":"Manila","name:pam":"Menila","name:pap":"Manila","name:pcd":"Manille","name:pih":"Manila","name:pms":"Manila","name:pnb":"منیلا","name:sah":"Манила","name:sat":"ᱢᱟᱱᱤᱞᱟ","name:scn":"Manila","name:sco":"Manila","name:szl":"Manila","name:udm":"Манила","name:vec":"Manila","name:vep":"Manil","name:vro":"Manila","name:war":"Manila","name:wuu":"马尼拉","name:xmf":"მანილა","name:yue":"馬尼拉","name:simple":"Manila","name:cbk-zam":"Ciudad de Manila","name:map-bms":"Manila","name:zh-Hans":"马尼拉","name:zh-Hant":"馬尼拉","name:be-tarask":"Маніла","official_name:en":"City of Manila","official_name:es":"Ciudad de Manila","official_name:tl":"Lungsod ng Maynila"},"display_name":"Manila, Capital District, Metro Manila, Philippines","address":{"city":"Manila","state_district":"Capital District","region":"Metro Manila","ISO3166-2-lvl3":"PH-00","country":"Philippines","country_code":"ph"},"population":1780148,"osm_type":"node","osm_id":198493613,"type":"city","location":[120.9803621,14.5904492],"bbox":[120.8203621,14.4304492,121.1403621,14.7504492],"border":{"name":"Manila","other_names":{"name:af":"Manila","name:am":"ማኒላ","name:an":"Manila","name:ar":"مانيلا","name:az":"Manila","name:ba":"Манила","name:be":"Маніла","name:bg":"Манила","name:bn":"ম্যানিলা","name:bo":"མ་ནི་ལ།","name:br":"Manila","name:bs":"Manila","name:ca":"Manila","name:ce":"Манила","name:cs":"Manila","name:cv":"Манила","name:cy":"Manila","name:da":"Manila","name:de":"Manila","name:el":"Μανίλα","name:en":"Manila","name:eo":"Manilo","name:es":"Manila","name:et":"Manila","name:eu":"Manila","name:fa":"مانیل","name:fi":"Manila","name:fo":"Manila","name:fr":"Manille","name:fy":"Manilla","name:ga":"Mainile","name:gd":"Manila","name:gl":"Manila","name:ha":"Manila","name:he":"מנילה","name:hi":"मनीला","name:hr":"Manila","name:ht":"Manyl","name:hu":"Manila","name:hy":"Մանիլա","name:ia":"Manila","name:id":"Manila","name:ie":"Manila","name:io":"Manila","name:is":"Maníla","name:it":"Manila","name:ja":"マニラ","name:jv":"Manila","name:ka":"მანილა","name:ki":"Manila","name:kk":"Манила","name:km":"ម៉ានីល","name:kn":"ಮನಿಲ","name:ko":"마닐라","name:ku":"Manîla","name:ky":"Манила","name:la":"Manila","name:lb":"Manila","name:li":"Manilla","name:lt":"Manila","name:lv":"Manila","name:mg":"Manille","name:mi":"Manira","name:mk":"Манила","name:ml":"മനില","name:mn":"Манила","name:mr":"मनिला","name:ms":"Manila","name:my":"မနီလာမြို့","name:na":"Manila","name:ne":"मनिला","name:nl":"Manilla","name:nn":"Manila","name:no":"Manila","name:oc":"Manila","name:or":"ମାନିଲା","name:os":"Манилæ","name:pa":"ਮਨੀਲਾ","name:pl":"Manila","name:ps":"مانیلا","name:pt":"Manila","name:qu":"Manila","name:ro":"Manila","name:ru":"Манила","name:rw":"Manila","name:sc":"Manila","name:sh":"Manila","name:si":"මැනිලා","name:sk":"Manila","name:sl":"Manila","name:sn":"Manila","name:sq":"Manila","name:sr":"Манила","name:sv":"Manila","name:sw":"Manila","name:ta":"மணிலா","name:te":"మనీలా","name:tg":"Манила","name:th":"มะนิลา","name:tl":"Maynila","name:tr":"Manila","name:tt":"Манила","name:ug":"مانىلا","name:uk":"Маніла","name:ur":"منیلا","name:uz":"Manila","name:vi":"Manila","name:vo":"Maynila","name:yi":"מאנילא","name:yo":"Manila","name:zh":"马尼拉 / 馬尼拉","name:ace":"Manila","name:als":"Manila","name:ang":"Manila","name:arz":"مانيلا","name:ast":"Manila","name:azb":"مانیل","name:bcl":"Manila","name:bxr":"Манила","name:cdo":"Manila","name:ceb":"Manila","name:ckb":"مانیلا","name:crh":"Manila","name:diq":"Manila","name:dsb":"Manila","name:dty":"मनिला","name:frr":"Manila","name:hak":"Manila","name:hif":"Manila","name:hsb":"Manila","name:hyw":"Մանիլա","name:ilo":"Manila","name:jbo":"manilias.","name:kaa":"Manila","name:lad":"Manila","name:lij":"Manilla","name:lmo":"Manila","name:mai":"मनिला","name:mwl":"Manila","name:nah":"Manillah","name:nan":"Manila","name:new":"मनिला","name:olo":"Manila","name:pag":"Manila","name:pam":"Menila","name:pap":"Manila","name:pcd":"Manille","name:pih":"Manila","name:pms":"Manila","name:pnb":"منیلا","name:sah":"Манила","name:sat":"ᱢᱟᱱᱤᱞᱟ","name:scn":"Manila","name:sco":"Manila","name:szl":"Manila","name:udm":"Манила","name:vec":"Manila","name:vep":"Manil","name:vro":"Manila","name:war":"Manila","name:wuu":"马尼拉","name:xmf":"მანილა","name:yue":"馬尼拉","name:simple":"Manila","name:cbk-zam":"Ciudad de Manila","name:map-bms":"Manila","name:zh-Hans":"马尼拉","name:zh-Hant":"馬尼拉","name:lo":"ມະນິລາ","name:sd":"منيلا","name:be-tarask":"Маніла","official_name:en":"City of Manila","official_name:es":"Ciudad de Manila","official_name:tl":"Lungsod ng Maynila"},"display_name":"Manila, Capital District, Metro Manila, Philippines","address":{"city":"Manila","state_district":"Capital District","region":"Metro Manila","ISO3166-2-lvl3":"PH-00","country":"Philippines","country_code":"ph"},"population":1780148,"osm_type":"relation","osm_id":103703,"type":"administrative","location":[120.9803621,14.5904492],"bbox":[120.7917034,14.5508249,121.0261672,14.6395473]}}
{"name":"Marawi","other_names":{"ref":"153617000","name:de":"Marawi","name:es":"Marawi","name:ja":"マラウィ","old_name":"Dansalan","alt_name:es":"Marahui","old_name:es":"Marahui"},"display_name":"Marawi, Lanao del Sur, Bangsamoro, 9700, Philippines","address":{"city":"Marawi","state":"Lanao del Sur","ISO3166-2-lvl4":"PH-LAS","region":"Bangsamoro","ISO3166-2-lvl3":"PH-14","postcode":"9700","country":"Philippines","country_code":"ph"},"population":207010,"osm_type":"node","osm_id":968039424,"type":"city","location":[124.2854351,8.0047262],"bbox":[124.1254351,7.8447262,124.4454351,8.1647262]}
{"name":"Marikina","other_names":{"ref":"1380700000","name:en":"Marikina","name:ja":"マリキナ","name:ru":"Марикина","name:tl":"Marikina","old_ref":"137402000"},"display_name":"Marikina, Eastern Manila District, Metro Manila, Philippines","address":{"city":"Marikina","state_district":"Eastern Manila District","region":"Metro Manila","ISO3166-2-lvl3":"PH-00","country":"Philippines","country_code":"ph"},"population":456059,"osm_type":"node","osm_id":198518477,"type":"city","location":[121.0993541,14.6331084],"bbox":[120.9393541,14.4731084,121.2593541,14.7931084],"border":{"name":"Marikina","other_names":{"ref":"1380700000","name:en":"Marikina","name:ja":"マリキナ","name:ru":"Марикина","name:tl":"Marikina","old_ref":"137402000"},"display_name":"Marikina, Eastern Manila District, Metro Manila, Philippines","address":{"city":"Marikina","state_district":"Eastern Manila District","region":"Metro Manila","ISO3166-2-lvl3":"PH-00","country":"Philippines","country_code":"ph"},"population":456059,"osm_type":"relation","osm_id":146949,"type":"administrative","location":[121.0993541,14.6331084],"bbox":[121.0744066,14.6177381,121.1350232,14.6757895]}}
{"name":"Masbate City","other_names":{"ref":"054111000","name:en":"Masbate City","name:et":"Masbate","name:ja":"マスバテ","name:ru":"Масбате"},"display_name":"Masbate City, Masbate, Bicol Region, 5400, Philippines","address":{"city":"Masbate City","state":"Masbate","ISO3166-2-lvl4":"PH-MAS","region":"Bicol Region","ISO3166-2-lvl3":"PH-05","postcode":"5400","country":"Philippines","country_code":"ph"},"population":95389,"osm_type":"node","osm_id":198515822,"type":"city","location":[123.6239223,12.3710899],"bbox":[123.4639223,12.2110899,123.7839223,12.5310899]}
{"name":"Mati","other_names":{"name:en":"Mati","name:ja":"マティ","old_ref":"112509000","alt_name":"Mati City","official_name":"City of Mati"},"display_name":"Mati, Davao Oriental, Davao Region, 8200, Philippines","address":{"city":"Mati","state":"Davao Oriental","ISO3166-2-lvl4":"PH-DAO","region":"Davao Region","ISO3166-2-lvl3":"PH-11","postcode":"8200","country":"Philippines","country_code":"ph"},"population":147547,"osm_type":"node","osm_id":198507159,"type":"city","location":[126.2166758,6.9521657],"bbox":[126.0566758,6.7921657,126.3766758,7.1121657],"border":{"name":"Mati","other_names":{"ref":"112509000","name:ja":"マティ","alt_name":"Mati City","official_name":"City of Mati","name:en":"Mati","old_ref":"112509000"},"display_name":"Mati, Davao Oriental, Davao Region, 8200, Philippines","address":{"city":"Mati","state":"Davao Oriental","ISO3166-2-lvl4":"PH-DAO","region":"Davao Region","ISO3166-2-lvl3":"PH-11","postcode":"8200","country":"Philippines","country_code":"ph"},"population":147547,"osm_type":"relation","osm_id":1507186,"type":"administrative","location":[126.2166758,6.9521657],"bbox":[126.09071,6.1340999,126.4881425,7.08391]}}
{"name":"Meycauayan","other_names":{"ref":"0301412000","name:en":"Meycauayan","name:ja":"メイカウアヤン","name:tl":"Meycauayan","old_ref":"031412000"},"display_name":"Meycauayan, Bulacan, Central Luzon, 3020, Philippines","address":{"city":"Meycauayan","state":"Bulacan","ISO3166-2-lvl4":"PH-BUL","region":"Central Luzon","ISO3166-2-lvl3":"PH-03","postcode":"3020","country":"Philippines","country_code":"ph"},"population":225673,"osm_type":"node","osm_id":198496059,"type":"city","location":[120.9571635,14.7345008],"bbox":[120.7971635,14.5745008,121.1171635,14.8945008],"border":{"name":"Meycauayan","other_names":{"ref":"0301412000","old_ref":"031412000","name:en":"Meycauayan","name:ja":"メイカウアヤン","name:tl":"Meycauayan"},"display_name":"Meycauayan, Bulacan, Central Luzon, 3020, Philippines","address":{"city":"Meycauayan","state":"Bulacan","ISO3166-2-lvl4":"PH-BUL","region":"Central Luzon","ISO3166-2-lvl3":"PH-03","postcode":"3020","country":"Philippines","country_code":"ph"},"population":225673,"osm_type":"relation","osm_id":11048069,"type":"administrative","location":[120.9571635,14.7345008],"bbox":[120.8979262,14.7198464,121.0271224,14.7845503]}}
{"name":"Muñoz","other_names":{"name:ja":"ムニョス","official_name":"Science City of Muñoz"},"display_name":"Muñoz, Nueva Ecija, Central Luzon, Philippines","address":{"city":"Muñoz","state":"Nueva Ecija","ISO3166-2-lvl4":"PH-NUE","region":"Central Luzon","ISO3166-2-lvl3":"PH-03","country":"Philippines","country_code":"ph"},"population":81483,"osm_type":"node","osm_id":198497745,"type":"city","location":[120.9039451,15.7135413],"bbox":[120.7439451,15.5535413,121.0639451,15.8735413],"border":{"name":"Muñoz","other_names":{"name:ja":"ムニョス","official_name":"Science City of Muñoz"},"display_name":"Muñoz, Nueva Ecija, Central Luzon, 3120, Philippines","address":{"city":"Muñoz","state":"Nueva Ecija","ISO3166-2-lvl4":"PH-NUE","region":"Central Luzon","ISO3166-2-lvl3":"PH-03","postcode":"3120","country":"Philippines","country_code":"ph"},"population":81483,"osm_type":"relation","osm_id":17682128,"type":"administrative","location":[120.9039451,15.7135413],"bbox":[120.8318905,15.6659904,120.9661037,15.8060444]}}
{"name":"Muntinlupa","other_names":{"ref":"1380800000","name:en":"Muntinlupa","name:ja":"モンテンルパ市","name:ru":"Мунтинлупа","name:tl":"Muntinlupa","name:zh":"蒙廷盧帕市","old_ref":"137603000","name:nan":"Bông-têng-lô͘-phà-sī","name:ja-Latn":"Montenrupa-shi","name:zh-Hans":"蒙廷卢帕市","name:zh-Latn-pinyin":"Méngtínglúpà shì"},"display_name":"Muntinlupa, Southern Manila District, Metro Manila, Philippines","address":{"city":"Muntinlupa","state_district":"Southern Manila District","region":"Metro Manila","ISO3166-2-lvl3":"PH-00","country":"Philippines","country_code":"ph"},"population":543445,"osm_type":"node","osm_id":198526387,"type":"city","location":[121.0449101,14.3892634],"bbox":[120.8849101,14.2292634,121.2049101,14.5492634],"border":{"name":"Muntinlupa","other_names":{"ref":"1380800000","name:en":"Muntinlupa","name:ja":"モンテンルパ","name:ru":"Мунтинлупа","name:tl":"Muntinlupa","old_ref":"137603000","name:zh":"蒙廷盧帕市","name:nan":"Bông-têng-lô͘-phà-sī","name:ja-Latn":"Montenrupa-shi","name:zh-Hans":"蒙廷卢帕市","name:zh-Latn-pinyin":"Méngtínglúpà shì","alt:ja":"モンテンルパ市"},"display_name":"Muntinlupa, Southern Manila District, Metro Manila, Philippines","address":{"city":"Muntinlupa","state_district":"Southern Manila District","region":"Metro Manila","ISO3166-2-lvl3":"PH-00","country":"Philippines","country_code":"ph"},"population":543445,"osm_type":"relation","osm_id":1346849,"type":"administrative","location":[121.0449101,14.3892634],"bbox":[121.0079059,14.3478578,121.1343954,14.4679664]}}
{"name":"Naga","display_name":"Naga, Cebu, Central Visayas, 6037, Philippines","address":{"city":"Naga","state":"Cebu","ISO3166-2-lvl4":"PH-CEB","region":"Central Visayas","ISO3166-2-lvl3":"PH-07","postcode":"6037","country":"Philippines","country_code":"ph"},"population":133184,"osm_type":"node","osm_id":198504647,"type":"city","location":[123.7590963,10.2084724],"bbox":[123.5990963,10.0484724,123.9190963,10.3684724]}
{"name":"Naga","other_names":{"name:en":"Naga","name:ja":"ナガ","name:ru":"Нага","name:tl":"Naga","name:uk":"Нага","name:bcl":"Naga","official_name:en":"City of Naga","official_name:tl":"Lungsod ng Naga","official_name:bcl":"Syudad nin Naga"},"display_name":"Naga, Naga City, Bicol Region, Philippines","address":{"city":"Naga","region":"Bicol Region","ISO3166-2-lvl3":"PH-05","country":"Philippines","country_code":"ph"},"population":115750,"osm_type":"node","osm_id":196960203,"type":"city","location":[123.1850318,13.6240122],"bbox":[123.0250318,13.4640122,123.3450318,13.7840122],"border":{"name":"Naga City","other_names":{"name:en":"Naga","name:ja":"ナガ","name:ru":"Нага","name:tl":"Naga","name:uk":"Нага","name:bcl":"Naga","official_name:en":"City of Naga","official_name:tl":"Lungsod ng Naga","official_name:bcl":"Syudad nin Naga","alt":"Naga"},"display_name":"Naga City, Bicol Region, 4400, Philippines","address":{"city":"Naga City","region":"Bicol Region","ISO3166-2-lvl3":"PH-05","postcode":"4400","country":"Philippines","country_code":"ph"},"population":115750,"osm_type":"relation","osm_id":3084673,"type":"administrative","location":[123.1850318,13.6240122],"bbox":[123.1731543,13.602514,123.3625044,13.6812896]}}
{"name":"Navotas","other_names":{"ref":"137503000","name:en":"Navotas","name:es":"Navotas","name:ja":"ナボタス","name:tl":"Navotas","official_name:en":"City of Navotas","official_name:es":"Ciudad de Navotas","official_name:tl":"Lungsod ng Navotas"},"display_name":"Navotas, Northern Manila District, Metro Manila, Philippines","address":{"city":"Navotas","state_district":"Northern Manila District","region":"Metro Manila","ISO3166-2-lvl3":"PH-00","country":"Philippines","country_code":"ph"},"population":247543,"osm_type":"node","osm_id":198522729,"type":"city","location":[120.9479692,14.6571862],"bbox":[120.7879692,14.4971862,121.1079692,14.8171862],"border":{"name":"Navotas","other_names":{"ref":"137503000","name:en":"Navotas","name:es":"Navotas","name:ja":"ナボタス","name:tl":"Navotas","official_name:en":"City of Navotas","official_name:es":"Ciudad de Navotas","official_name:tl":"Lungsod ng Navotas"},"display_name":"Navotas, Northern Manila District, Metro Manila, Philippines","address":{"city":"Navotas","state_district":"Northern Manila District","region":"Metro Manila","ISO3166-2-lvl3":"PH-00","country":"Philippines","country_code":"ph"},"population":247543,"osm_type":"relation","osm_id":379812,"type":"administrative","location":[120.9479692,14.6571862],"bbox":[120.8394927,14.6337981,120.9691005,14.7128483]}}
{"name":"Olongapo","other_names":{"name:am":"ኦሎንጋፖ","name:ar":"أولونجابو","name:bg":"Олонгапо","name:en":"Olongapo","name:es":"Olóngapo","name:he":"אולונגאפו","name:hi":"ओलोंगापो","name:ja":"オロンガポ","name:kk":"Олонгапо","name:kn":"ಒಲೊಂಗಪೋ","name:ko":"올롱가포","name:mk":"Олонгапо","name:ru":"Олонгапо","name:sh":"Олонгапо","name:ta":"ஒலோங்கபோ","name:uk":"Олонгапо","name:ur":"اولونگاپو","name:zh":"奧隆阿波","alt_name:en":"Olongapo City","alt_name:es":"Ciudad de Olongapo","alt_name:ilo":"Siudad ti Olongapo","alt_name:pam":"Lakanbalen ning Olongapo","alt_name:xsb":"Siodad nin Olongapo","name:sh-Cyrl":"Олонгапо","name:sh-Latn":"Olongapo","official_name":"Lungsod ng Olongapo","official_name:en":"City of Olongapo","official_name:tl":"Lungsod ng Olongapo"},"display_name":"Olongapo, Central Luzon, 2200, Philippines","address":{"city":"Olongapo","region":"Central Luzon","ISO3166-2-lvl3":"PH-03","postcode":"2200","country":"Philippines","country_code":"ph"},"population":233040,"osm_type":"node","osm_id":27175814,"type":"city","location":[120.2835205,14.8314675],"bbox":[120.1235205,14.6714675,120.4435205,14.9914675],"border":{"name":"Olongapo","other_names":{"name:en":"Olongapo","name:ja":"オロンガポ","name:ru":"Олонгапо","name:am":"ኦሎንጋፖ","name:ar":"أولونجابو","name:bg":"Олонгапо","name:es":"Olóngapo","name:he":"אולונגאפו","name:hi":"ओलोंगापो","name:kk":"Олонгапо","name:kn":"ಒಲೊಂಗಪೋ","name:ko":"올롱가포","name:mk":"Олонгапо","name:sh":"Олонгапо","name:ta":"ஒலோங்கபோ","name:uk":"Олонгапо","name:ur":"اولونگاپو","name:zh":"奧隆阿波","alt_name:en":"Olongapo City","alt_name:es":"Ciudad de Olongapo","alt_name:ilo":"Siudad ti Olongapo","alt_name:pam":"Lakanbalen ning Olongapo","alt_name:xsb":"Siodad nin Olongapo","name:sh-Cyrl":"Олонгапо","name:sh-Latn":"Olongapo","official_name":"Lungsod ng Olongapo","official_name:en":"City of Olongapo","official_name:tl":"Lungsod ng Olongapo"},"display_name":"Olongapo, Central Luzon, 2200, Philippines","address":{"city":"Olongapo","region":"Central Luzon","ISO3166-2-lvl3":"PH-03","postcode":"2200","country":"Philippines","country_code":"ph"},"population":233040,"osm_type":"relation","osm_id":14128978,"type":"administrative","location":[120.2835205,14.8314675],"bbox":[120.2331911,14.8026857,120.3496018,14.9117926]}}
{"name":"Ormoc","other_names":{"ref":"0803738000","name:en":"Ormoc","name:ja":"オルモック","name:tl":"Ormoc","name:zh":"奥尔莫克","old_ref":"083738000"},"display_name":"Ormoc, Leyte, Eastern Visayas, Philippines","address":{"city":"Ormoc","state":"Leyte","ISO3166-2-lvl4":"PH-LEY","region":"Eastern Visayas","ISO3166-2-lvl3":"PH-08","country":"Philippines","country_code":"ph"},"population":230998,"osm_type":"node","osm_id":279167983,"type":"city","location":[124.6090753,11.0052935],"bbox":[124.4490753,10.8452935,124.7690753,11.1652935],"border":{"name":"Ormoc","other_names":{"ref":"0803738000","name:en":"Ormoc","name:ja":"オルモック","name:tl":"Ormoc","name:zh":"奥尔莫克","old_ref":"083738000"},"display_name":"Ormoc, Leyte, Eastern Visayas, 6541, Philippines","address":{"city":"Ormoc","state":"Leyte","ISO3166-2-lvl4":"PH-LEY","region":"Eastern Visayas","ISO3166-2-lvl3":"PH-08","postcode":"6541","country":"Philippines","country_code":"ph"},"population":230998,"osm_type":"relation","osm_id":5426241,"type":"administrative","location":[124.6090753,11.0052935],"bbox":[124.47717,10.8781395,124.7897305,11.15655]}}
{"name":"Oroquieta","other_names":{"ref":"104209000","name:ja":"オロキエタ"},"display_name":"Oroquieta, Misamis Occidental, Northern Mindanao, 7207, Philippines","address":{"city":"Oroquieta","state":"Misamis Occidental","ISO3166-2-lvl4":"PH-MSC","region":"Northern Mindanao","ISO3166-2-lvl3":"PH-10","postcode":"7207","country":"Philippines","country_code":"ph"},"population":70757,"osm_type":"node","osm_id":968039425,"type":"city","location":[123.8077767,8.4858864],"bbox":[123.6477767,8.3258864,123.9677767,8.6458864]}
{"name":"Ozamiz","other_names":{"ref":"104210000","name:ja":"オザミス","old_name":"Misamis","official_name":"City of Ozamiz"},"display_name":"Ozamiz, Misamis Occidental, Northern Mindanao, 7200, Philippines","address":{"city":"Ozamiz","state":"Misamis Occidental","ISO3166-2-lvl4":"PH-MSC","region":"Northern Mindanao","ISO3166-2-lvl3":"PH-10","postcode":"7200","country":"Philippines","country_code":"ph"},"population":141828,"osm_type":"node","osm_id":965803598,"type":"city","location":[123.8459793,8.1470175],"bbox":[123.6859793,7.9870175,124.0059793,8.3070175],"border":{"name":"Ozamiz","other_names":{"ref":"104210000","name:ja":"オザミス","old_name":"Misamis","official_name":"City of Ozamiz"},"display_name":"Ozamiz, Misamis Occidental, Northern Mindanao, 7200, Philippines","address":{"city":"Ozamiz","state":"Misamis Occidental","ISO3166-2-lvl4":"PH-MSC","region":"Northern Mindanao","ISO3166-2-lvl3":"PH-10","postcode":"7200","country":"Philippines","country_code":"ph"},"population":141828,"osm_type":"relation","osm_id":12969495,"type":"administrative","location":[123.8459793,8.1470175],"bbox":[123.6456174,8.065767,123.9043303,8.2065386]}}
{"name":"Pagadian","other_names":{"name:en":"Pagadian","name:es":"Pagadían","name:ja":"パガディアン","name:ru":"Пагадиан","name:tl":"Pagadian","name:uk":"Паґадіан","name:zh":"帕嘎蒂安","name:ceb":"Pagadian","official_name:en":"City of Pagadian","official_name:es":"Ciudad de Pagadían","official_name:tl":"Lungsod ng Pagadian","official_name:cbk":"Ciudad de Pagadian","official_name:ceb":"Dakbayan sa Pagadian"},"display_name":"Pagadian, Zamboanga del Sur, Zamboanga Peninsula, 7016, Philippines","address":{"city":"Pagadian","state":"Zamboanga del Sur","ISO3166-2-lvl4":"PH-ZAS","region":"Zamboanga Peninsula","ISO3166-2-lvl3":"PH-09","postcode":"7016","country":"Philippines","country_code":"ph"},"population":199060,"osm_type":"node","osm_id":965797331,"type":"city","location":[123.4365816,7.8249717],"bbox":[123.2765816,7.6649717,123.5965816,7.9849717]}
{"name":"Palayan","other_names":{"name:en":"Palayan","name:ja":"パラヤン","name:tl":"Palayan","official_name:en":"City of Palayan","official_name:tl":"Lungsod ng Palayan"},"display_name":"Palayan, Nueva Ecija, Central Luzon, Philippines","address":{"city":"Palayan","state":"Nueva Ecija","ISO3166-2-lvl4":"PH-NUE","region":"Central Luzon","ISO3166-2-lvl3":"PH-03","country":"Philippines","country_code":"ph"},"population":41041,"osm_type":"node","osm_id":958923583,"type":"city","location":[121.0842988,15.5408666],"bbox":[120.9242988,15.3808666,121.2442988,15.7008666],"border":{"name":"Palayan","other_names":{"name:en":"Palayan","name:ja":"パラヤン","name:tl":"Palayan","official_name:en":"City of Palayan","official_name:tl":"Lungsod ng Palayan"},"display_name":"Palayan, Nueva Ecija, Central Luzon, Philippines","address":{"city":"Palayan","state":"Nueva Ecija","ISO3166-2-lvl4":"PH-NUE","region":"Central Luzon","ISO3166-2-lvl3":"PH-03","country":"Philippines","country_code":"ph"},"population":41041,"osm_type":"relation","osm_id":11842279,"type":"administrative","location":[121.0842988,15.5408666],"bbox":[121.0037237,15.3876015,121.182265,15.6082609]}}
{"name":"Panabo","other_names":{"name:am":"ፓናቦ","name:ar":"بانابو","name:be":"Панабо","name:bg":"Панабо","name:fa":"پانابو","name:hi":"पनाबो","name:hy":"Պանաբո","name:ja":"パナボ","name:kk":"Панабо","name:ko":"파나보","name:ru":"Панабо","name:sr":"Панабо","name:ta":"பனாபோ","name:th":"ปานาโบ","name:tl":"Panabo","name:uk":"Панабо","name:ur":"پنابو","name:zh":"帕納博","alt_name":"Panabo City","name:ceb":"Panabo","name:tl-Tglg":"ᜉᜈᜊᜓ","name:zh-Hans":"帕纳博","name:zh-Hant":"帕納博","official_name":"Lungsod ng Panabo","official_name:en":"City of Panabo","official_name:tl":"Lungsod ng Panabo"},"display_name":"Panabo, Davao del Norte, Davao Region, Philippines","address":{"city":"Panabo","state":"Davao del Norte","ISO3166-2-lvl4":"PH-DAV","region":"Davao Region","ISO3166-2-lvl3":"PH-11","country":"Philippines","country_code":"ph"},"population":184599,"osm_type":"node","osm_id":371274468,"type":"city","location":[125.6807086,7.29987],"bbox":[125.5207086,7.13987,125.8407086,7.45987],"border":{"name":"Panabo","other_names":{"name:am":"ፓናቦ","name:ar":"بانابو","name:be":"Панабо","name:bg":"Панабо","name:fa":"پانابو","name:hi":"पनाबो","name:hy":"Պանաբո","name:ja":"パナボ","name:kk":"Панабо","name:ko":"파나보","name:ru":"Панабо","name:sr":"Панабо","name:ta":"பனாபோ","name:th":"ปานาโบ","name:tl":"Panabo","name:uk":"Панабо","name:ur":"پنابو","name:zh":"帕納博","alt_name":"Panabo City","name:ceb":"Panabo","name:tl-Tglg":"ᜉᜈᜊᜓ","name:zh-Hans":"帕纳博","name:zh-Hant":"帕納博","official_name":"Lungsod ng Panabo","official_name:en":"City of Panabo","official_name:tl":"Lungsod ng Panabo"},"display_name":"Panabo, Davao del Norte, Davao Region, 8105, Philippines","address":{"city":"Panabo","state":"Davao del Norte","ISO3166-2-lvl4":"PH-DAV","region":"Davao Region","ISO3166-2-lvl3":"PH-11","postcode":"8105","country":"Philippines","country_code":"ph"},"population":184599,"osm_type":"relation","osm_id":11768007,"type":"administrative","location":[125.6807086,7.29987],"bbox":[125.5464363,7.2211903,125.7390441,7.4508997]}}
{"name":"Parañaque","other_names":{"ref":"1381000000","name:en":"Parañaque","name:ja":"パラニャーケ","name:pt":"Paranhaque","name:ru":"Паранак","name:tl":"Parañaque","old_ref":"137604000"},"display_name":"Parañaque, Southern Manila District, Metro Manila, Philippines","address":{"city":"Parañaque","state_district":"Southern Manila District","region":"Metro Manila","ISO3166-2-lvl3":"PH-00","country":"Philippines","country_code":"ph"},"population":689992,"osm_type":"node","osm_id":198498978,"type":"city","location":[120.9915327,14.5008116],"bbox":[120.8315327,14.3408116,121.1515327,14.6608116],"border":{"name":"Parañaque","other_names":{"ref":"1381000000","name:en":"Parañaque","name:ja":"パラニャーケ","name:pt":"Paranhaque","name:ru":"Паранак","name:tl":"Parañaque","old_ref":"137604000"},"display_name":"Parañaque, Southern Manila District, Metro Manila, Philippines","address":{"city":"Parañaque","state_district":"Southern Manila District","region":"Metro Manila","ISO3166-2-lvl3":"PH-00","country":"Philippines","country_code":"ph"},"population":689992,"osm_type":"relation","osm_id":122940,"type":"administrative","location":[120.9915327,14.5008116],"bbox":[120.940262,14.4342393,121.0481398,14.5332355]}}
{"name":"Pasay","other_names":{"ref":"137605000"},"display_name":"Pasay, Southern Manila District, Metro Manila, 1300, Philippines","address":{"city":"Pasay","state_district":"Southern Manila District","region":"Metro Manila","ISO3166-2-lvl3":"PH-00","postcode":"1300","country":"Philippines","country_code":"ph"},"population":416522,"osm_type":"node","osm_id":255061219,"type":"city","location":[120.9946503,14.5436995],"bbox":[120.8346503,14.3836995,121.1546503,14.7036995],"border":{"name":"Pasay","other_names":{"ref":"1381100000","old_ref":"137605000","_place_ref":"137605000"},"display_name":"Pasay, Southern Manila District, Metro Manila, Philippines","address":{"city":"Pasay","state_district":"Southern Manila District","region":"Metro Manila","ISO3166-2-lvl3":"PH-00","country":"Philippines","country_code":"ph"},"population":416522,"osm_type":"relation","osm_id":113858,"type":"administrative","location":[120.9946503,14.5436995],"bbox":[120.9103199,14.5019841,121.0347428,14.5617554]}}
{"name":"Pasig","other_names":{"ref":"137403000","name:ar":"باسيج","name:be":"Пасіг","name:bg":"Пасиг","name:es":"Pásig","name:fa":"پاسیگ","name:hi":"पासिग","name:ja":"パシッグ","name:ko":"파시그","name:ru":"Пасиг","name:sr":"Пасиг","name:th":"ปาซิก","name:tl":"Pasig","name:uk":"Пасіґ","name:ur":"پاسگ","name:zh":"帕西格","alt_name":"Pasig City","name:nan":"巴石","alt_name:en":"Pasig City","alt_name:tl":"Lungsod ng Pasig","name:ja-Latn":"Pashiggu","name:sr-Cyrl":"Пасиг","name:sr-Latn":"Pasig","name:tl-Tglg":"ᜉᜐᜒᜄ᜔","name:nan-Latn":"Pa-se̍k","official_name":"Lungsod ng Pasig","official_name:en":"City of Pasig","official_name:tl":"Lungsod ng Pasig","name:zh-Latn-pinyin":"Pàxīgé"},"display_name":"Pasig, Eastern Manila District, Metro Manila, Philippines","address":{"city":"Pasig","state_district":"Eastern Manila District","region":"Metro Manila","ISO3166-2-lvl3":"PH-00","country":"Philippines","country_code":"ph"},"population":803159,"osm_type":"node","osm_id":953773702,"type":"city","location":[121.0764343,14.5605166],"bbox":[120.9164343,14.4005166,121.2364343,14.7205166],"border":{"name":"Pasig","other_names":{"ref":"137403000","name:ja":"パシッグ","name:ru":"Пасиг","name:uk":"Пасіґ","name:ar":"باسيج","name:be":"Пасіг","name:bg":"Пасиг","name:es":"Pásig","name:fa":"پاسیگ","name:hi":"पासिग","name:ko":"파시그","name:sr":"Пасиг","name:th":"ปาซิก","name:tl":"Pasig","name:ur":"پاسگ","name:zh":"帕西格","alt_name":"Pasig City","name:nan":"巴石","alt_name:en":"Pasig City","alt_name:tl":"Lungsod ng Pasig","name:ja-Latn":"Pashiggu","name:sr-Cyrl":"Пасиг","name:sr-Latn":"Pasig","name:tl-Tglg":"ᜉᜐᜒᜄ᜔","name:nan-Latn":"Pa-se̍k","official_name":"Lungsod ng Pasig","official_name:en":"City of Pasig","official_name:tl":"Lungsod ng Pasig","name:zh-Latn-pinyin":"Pàxīgé"},"display_name":"Pasig, Eastern Manila District, Metro Manila, Philippines","address":{"city":"Pasig","state_district":"Eastern Manila District","region":"Metro Manila","ISO3166-2-lvl3":"PH-00","country":"Philippines","country_code":"ph"},"population":803159,"osm_type":"relation","osm_id":131703,"type":"administrative","location":[121.0764343,14.5605166],"bbox":[121.0515762,14.5338787,121.1110273,14.6235138]}}
{"name":"Passi","other_names":{"name:en":"Passi","name:ja":"パッシ","name:uk":"Пассі"},"display_name":"Passi, Iloilo, Western Visayas, 5037, Philippines","address":{"city":"Passi","state":"Iloilo","ISO3166-2-lvl4":"PH-ILI","region":"Western Visayas","ISO3166-2-lvl3":"PH-06","postcode":"5037","country":"Philippines","country_code":"ph"},"population":80544,"osm_type":"node","osm_id":198493661,"type":"city","location":[122.6468706,11.1173503],"bbox":[122.4868706,10.9573503,122.8068706,11.2773503]}
{"name":"Puerto Princesa","other_names":{"ref":"1731500000","name:ar":"بورتوبرنسس","name:de":"Puerto Princesa","name:el":"Πουέρτο Πρινσέσα","name:en":"Puerto Princesa","name:es":"Puerto Princesa","name:fa":"پورتوپرنسس","name:ja":"プエルト・プリンセサ","name:ru":"Пуэрто-Принсеса","name:tl":"Puerto Princesa","name:uk":"Пуерто-Принцеса","name:ur":"پویرتو پرنسیسا","name:zh":"普林塞萨港","old_ref":"175316000","name:azb":"پورتوپرنسس","short_name":"Pto. Princesa","name:az-Arab":"پورتوپرنسس"},"display_name":"Puerto Princesa, Mimaropa, 5300, Philippines","address":{"city":"Puerto Princesa","region":"Mimaropa","ISO3166-2-lvl3":"PH-41","postcode":"5300","country":"Philippines","country_code":"ph"},"population":307079,"osm_type":"node","osm_id":278516701,"type":"city","location":[118.7438187,9.7398561],"bbox":[118.5838187,9.5798561,118.9038187,9.8998561],"border":{"name":"Puerto Princesa","other_names":{"ref":"1731500000","name:ar":"بورتوبرنسس","name:de":"Puerto Princesa","name:el":"Πουέρτο Πρινσέσα","name:en":"Puerto Princesa","name:es":"Puerto Princesa","name:fa":"پورتوپرنسس","name:ja":"プエルト・プリンセサ","name:ru":"Пуэрто-Принсеса","name:tl":"Puerto Princesa","name:uk":"Пуерто-Принцеса","name:ur":"پویرتو پرنسیسا","name:zh":"普林塞萨港","old_ref":"175316000","name:azb":"پورتوپرنسس","short_name":"Pto. Princesa","name:az-Arab":"پورتوپرنسس"},"display_name":"Puerto Princesa, Mimaropa, Philippines","address":{"city":"Puerto Princesa","region":"Mimaropa","ISO3166-2-lvl3":"PH-41","country":"Philippines","country_code":"ph"},"population":307079,"osm_type":"relation","osm_id":9481097,"type":"administrative","location":[118.7438187,9.7398561],"bbox":[118.3092406,9.4672656,119.1527826,10.3312909]}}
{"name":"Quezon City","other_names":{"name:af":"Quezon Stad","name:ar":"مدينة كيزون","name:be":"Кесан-Сіці","name:ca":"Ciutat Quezon","name:de":"Quezon City","name:en":"Quezon City","name:eo":"Kesonurbo","name:es":"Ciudad Quezón","name:eu":"Quezon Hiria","name:fa":"کزون سیتی","name:fr":"Quezon City","name:hr":"Quezon City","name:it":"Città Quezon","name:ja":"ケソンシティ","name:kn":"ಕೇಜೊನ್","name:ko":"케손시티","name:pt":"Cidade Quezon","name:ru":"Кесон-Сити","name:sr":"Кезон Сити","name:tl":"Lungsod Quezon","name:uk":"Кесон-Сіті","name:ur":"کیزون سٹی","name:vi":"Thành phố Quezon","name:zh":"计顺市/奎松市","alt_name":"Quezon","name:ceb":"Quezon City","name:ilo":"Siudad Quezon","name:pam":"Lakanbaleng Quezon","short_name":"QC","official_name":"City of Quezon","short_name:ar":"كيزون","short_name:fa":"کزون","short_name:ur":"کیزون","official_name:en":"City of Quezon","official_name:ceb":"Dakbayang Quezon"},"display_name":"Quezon City, Eastern Manila District, Metro Manila, Philippines","address":{"city":"Quezon City","state_district":"Eastern Manila District","region":"Metro Manila","ISO3166-2-lvl3":"PH-00","country":"Philippines","country_code":"ph"},"population":2960048,"osm_type":"node","osm_id":14446670,"type":"city","location":[121.0486254,14.6510546],"bbox":[120.8886254,14.4910546,121.2086254,14.8110546],"border":{"name":"Quezon City","other_names":{"name:ar":"مدينة كيزون","name:fa":"کزون سیتی","name:he":"קואזון סיטי","name:ko":"케손시티","name:ur":"کیزون سٹی","name:zh":"计顺市","short_name:he":"קואזון","name:af":"Quezon Stad","name:be":"Кесан-Сіці","name:ca":"Ciutat Quezon","name:de":"Quezon City","name:en":"Quezon City","name:eo":"Kesonurbo","name:es":"Ciudad Quezón","name:eu":"Quezon Hiria","name:fr":"Quezon City","name:hr":"Quezon City","name:it":"Città Quezon","name:ja":"ケソンシティ","name:kn":"ಕೇಜೊನ್","name:pt":"Cidade Quezon","name:ru":"Кесон-Сити","name:sr":"Кезон Сити","name:tl":"Lungsod Quezon","name:uk":"Кесон-Сіті","name:vi":"Thành phố Quezon","alt_name":"Quezon","name:ceb":"Quezon City","name:ilo":"Siudad Quezon","name:pam":"Lakanbaleng Quezon","short_name":"QC","official_name":"City of Quezon","short_name:ar":"كيزون","short_name:fa":"کزون","short_name:ur":"کیزون","official_name:en":"City of Quezon","official_name:ceb":"Dakbayang Quezon","alt:zh":"计顺市/奎松市"},"display_name":"Quezon City, Eastern Manila District, Metro Manila, Philippines","address":{"city":"Quezon City","state_district":"Eastern Manila District","region":"Metro Manila","ISO3166-2-lvl3":"PH-00","country":"Philippines","country_code":"ph"},"population":2936116,"osm_type":"relation","osm_id":106569,"type":"administrative","location":[121.0486254,14.6510546],"bbox":[120.9896951,14.589369,121.1337681,14.7764137]}}
{"name":"Roxas","other_names":{"name:de":"Roxas","name:en":"Roxas","name:es":"Roxas","name:et":"Roxas","name:ja":"ロハス","name:ru":"Рохас","name:uk":"Рохас","name:ur":"روکاس","name:zh":"罗哈斯市"},"display_name":"Roxas, Capiz, Western Visayas, Philippines","address":{"city":"Roxas","state":"Capiz","ISO3166-2-lvl4":"PH-CAP","region":"Western Visayas","ISO3166-2-lvl3":"PH-06","country":"Philippines","country_code":"ph"},"population":167003,"osm_type":"node","osm_id":967978473,"type":"city","location":[122.7500577,11.5895171],"bbox":[122.5900577,11.4295171,122.9100577,11.7495171],"border":{"name":"Roxas","other_names":{"name:de":"Roxas","name:en":"Roxas","name:es":"Roxas","name:et":"Roxas","name:ja":"ロハス","name:ru":"Рохас","name:uk":"Рохас","name:ur":"روکاس","name:zh":"罗哈斯市"},"display_name":"Roxas, Capiz, Western Visayas, 5800, Philippines","address":{"city":"Roxas","state":"Capiz","ISO3166-2-lvl4":"PH-CAP","region":"Western Visayas","ISO3166-2-lvl3":"PH-06","postcode":"5800","country":"Philippines","country_code":"ph"},"population":167003,"osm_type":"relation","osm_id":3477345,"type":"administrative","location":[122.7500577,11.5895171],"bbox":[122.6109059,11.4783117,122.9367091,11.7809404]}}
{"name":"Sagay","other_names":{"ref":"1804523000","old_ref":"0604523000;064523000"},"display_name":"Sagay, Negros Occidental, Negros Island Region, Philippines","address":{"city":"Sagay","state":"Negros Occidental","ISO3166-2-lvl4":"PH-NEC","region":"Negros Island Region","country":"Philippines","country_code":"ph"},"population":148894,"osm_type":"node","osm_id":198515316,"type":"city","location":[123.4154617,10.8960681],"bbox":[123.2554617,10.7360681,123.5754617,11.0560681],"border":{"name":"Sagay","other_names":{"ref":"1804523000","old_ref":"0604523000;064523000"},"display_name":"Sagay, Negros Occidental, Negros Island Region, 6122, Philippines","address":{"city":"Sagay","state":"Negros Occidental","ISO3166-2-lvl4":"PH-NEC","region":"Negros Island Region","postcode":"6122","country":"Philippines","country_code":"ph"},"population":148894,"osm_type":"relation","osm_id":11491048,"type":"administrative","location":[123.4154617,10.8960681],"bbox":[123.2588101,10.6601822,123.7095837,11.0905757]}}
{"name":"Samal","other_names":{"ref":"1102317000","name:en":"Samal","name:ja":"サマル","old_ref":"112317000","alt_name":"Igacos;Samal City","official_name":"Island Garden City of Samal","official_name:tl":"Pulong Harding Lungsod ng Samal","official_name:ceb":"Pulong Harding Dakbayan sa Samal"},"display_name":"Samal, Davao del Norte, Davao Region, 8119, Philippines","address":{"city":"Samal","state":"Davao del Norte","ISO3166-2-lvl4":"PH-DAV","region":"Davao Region","ISO3166-2-lvl3":"PH-11","postcode":"8119","country":"Philippines","country_code":"ph"},"population":116771,"osm_type":"node","osm_id":198525392,"type":"city","location":[125.7120437,7.0780265],"bbox":[125.5520437,6.9180265,125.8720437,7.2380265],"border":{"name":"Samal","other_names":{"ref":"1102317000","name:en":"Samal","name:ja":"サマル","old_ref":"112317000","alt_name":"Igacos;Samal City","official_name":"Island Garden City of Samal","official_name:tl":"Pulong Harding Lungsod ng Samal","official_name:ceb":"Pulong Harding Dakbayan sa Samal"},"display_name":"Samal, Davao del Norte, Davao Region, 8119, Philippines","address":{"city":"Samal","state":"Davao del Norte","ISO3166-2-lvl4":"PH-DAV","region":"Davao Region","ISO3166-2-lvl3":"PH-11","postcode":"8119","country":"Philippines","country_code":"ph"},"population":116771,"osm_type":"relation","osm_id":1604621,"type":"administrative","location":[125.7120437,7.0780265],"bbox":[125.5764656,6.7576913,125.8843714,7.2560223]}}
{"name":"San Carlos","display_name":"San Carlos, Negros Occidental, Negros Island Region, Philippines","address":{"city":"San Carlos","state":"Negros Occidental","ISO3166-2-lvl4":"PH-NEC","region":"Negros Island Region","country":"Philippines","country_code":"ph"},"population":132536,"osm_type":"node","osm_id":4629021599,"type":"city","location":[123.4190385,10.486048],"bbox":[123.2590385,10.326048,123.5790385,10.646048],"border":{"name":"San Carlos","display_name":"San Carlos, Negros Occidental, Negros Island Region, 6127, Philippines","address":{"city":"San Carlos","state":"Negros Occidental","ISO3166-2-lvl4":"PH-NEC","region":"Negros Island Region","postcode":"6127","country":"Philippines","country_code":"ph"},"population":132536,"osm_type":"relation","osm_id":145727,"type":"administrative","location":[123.4190385,10.486048],"bbox":[123.1324518,10.3167498,123.5577767,10.6025]}}
{"name":"San Carlos","other_names":{"name:ja":"サン・カルロス","name:zh":"圣卡洛斯","name:pag":"Siyudad na San Carlos"},"display_name":"San Carlos, Pangasinan, Ilocos Region, Philippines","address":{"city":"San Carlos","state":"Pangasinan","ISO3166-2-lvl4":"PH-PAN","region":"Ilocos Region","ISO3166-2-lvl3":"PH-01","country":"Philippines","country_code":"ph"},"population":188571,"osm_type":"node","osm_id":961071984,"type":"city","location":[120.3475584,15.926773],"bbox":[120.1875584,15.766773,120.5075584,16.086773],"border":{"name":"San Carlos","other_names":{"name:ja":"サン・カルロス","name:zh":"圣卡洛斯","name:pag":"Siyudad na San Carlos"},"display_name":"San Carlos, Pangasinan, Ilocos Region, 2420, Philippines","address":{"city":"San Carlos","state":"Pangasinan","ISO3166-2-lvl4":"PH-PAN","region":"Ilocos Region","ISO3166-2-lvl3":"PH-01","postcode":"2420","country":"Philippines","country_code":"ph"},"population":188571,"osm_type":"relation","osm_id":3488500,"type":"administrative","location":[120.3475584,15.926773],"bbox":[120.2448171,15.8499817,120.4045838,15.972036]}}
{"name":"San Fernando","other_names":{"name:en":"San Fernando","name:es":"San Fernando","name:ja":"サンフェルナンド","name:tl":"San Fernando","name:uk":"Сан-Фернандо","name:pag":"San Fernando","official_name:en":"City of San Fernando","official_name:es":"Ciudad de San Fernando","official_name:tl":"Lungsod ng San Fernando","official_name:pag":"Siyudad na San Fernando"},"display_name":"San Fernando, La Union, Ilocos Region, Philippines","address":{"city":"San Fernando","state":"La Union","ISO3166-2-lvl4":"PH-LUN","region":"Ilocos Region","ISO3166-2-lvl3":"PH-01","country":"Philippines","country_code":"ph"},"population":121812,"osm_type":"node","osm_id":198529227,"type":"city","location":[120.317104,16.6162676],"bbox":[120.157104,16.4562676,120.477104,16.7762676],"border":{"name":"San Fernando","other_names":{"name:en":"San Fernando","name:es":"San Fernando","name:ja":"サンフェルナンド","name:tl":"San Fernando","name:uk":"Сан-Фернандо","name:pag":"San Fernando","official_name:en":"City of San Fernando","official_name:es":"Ciudad de San Fernando","official_name:tl":"Lungsod ng San Fernando","official_name:pag":"Siyudad na San Fernando"},"display_name":"San Fernando, La Union, Ilocos Region, 2500, Philippines","address":{"city":"San Fernando","state":"La Union","ISO3166-2-lvl4":"PH-LUN","region":"Ilocos Region","ISO3166-2-lvl3":"PH-01","postcode":"2500","country":"Philippines","country_code":"ph"},"population":121812,"osm_type":"relation","osm_id":14873723,"type":"administrative","location":[120.317104,16.6162676],"bbox":[120.1370925,16.536279,120.4362345,16.7318131]}}
{"name":"San Fernando","other_names":{"ref":"035416000","name:bg":"Сан Фернандо","name:de":"San Fernando","name:en":"San Fernando","name:es":"San Fernando","name:fr":"San-Fernando","name:id":"San Fernando","name:it":"San Fernando","name:ja":"サンフェルナンド","name:ko":"산페르난도","name:la":"Urbs Sancti Ferdinandi","name:ms":"San Fernando","name:nl":"San Fernando","name:sv":"San Fernando","name:tl":"San Fernando","name:zh":"圣费尔南多","name:pam":"San Fernando","alt_name:pam":"San Fernando Lakanbalen","official_name:en":"City of San Fernando","official_name:es":"Ciudad de San Fernando","official_name:ms":"Bandar San Fernando","official_name:tl":"Lungsod ng San Fernando","official_name:pam":"Lakanbalen ning San Fernando"},"display_name":"San Fernando, Pampanga, Central Luzon, 2000, Philippines","address":{"city":"San Fernando","state":"Pampanga","ISO3166-2-lvl4":"PH-PAM","region":"Central Luzon","ISO3166-2-lvl3":"PH-03","postcode":"2000","country":"Philippines","country_code":"ph"},"population":354666,"osm_type":"node","osm_id":958923586,"type":"city","location":[120.6938038,15.0283014],"bbox":[120.5338038,14.8683014,120.8538038,15.1883014],"border":{"name":"San Fernando","other_names":{"ref":"035416000","name:bg":"Сан Фернандо","name:de":"San Fernando","name:en":"San Fernando","name:es":"San Fernando","name:fr":"San-Fernando","name:id":"San Fernando","name:it":"San Fernando","name:ja":"サンフェルナンド","name:ko":"산페르난도","name:la":"Urbs Sancti Ferdinandi","name:ms":"San Fernando","name:nl":"San Fernando","name:sv":"San Fernando","name:tl":"San Fernando","name:zh":"圣费尔南多","name:pam":"San Fernando","alt_name:pam":"San Fernando Lakanbalen","official_name:en":"City of San Fernando","official_name:es":"Ciudad de San Fernando","official_name:ms":"Bandar San Fernando","official_name:tl":"Lungsod ng San Fernando","official_name:pam":"Lakanbalen ning San Fernando"},"display_name":"San Fernando, Pampanga, Central Luzon, 2000, Philippines","address":{"city":"San Fernando","state":"Pampanga","ISO3166-2-lvl4":"PH-PAM","region":"Central Luzon","ISO3166-2-lvl3":"PH-03","postcode":"2000","country":"Philippines","country_code":"ph"},"population":354666,"osm_type":"relation","osm_id":13263379,"type":"administrative","location":[120.6938038,15.0283014],"bbox":[120.5942962,15.0051489,120.7278114,15.1342393]}}
{"name":"San Jose del Monte","other_names":{"ref":"0301420000","name:en":"San Jose del Monte","name:es":"San José del Monte","name:ja":"サン・ホセ・デル・モンティ","name:ru":"Сан-Хосе-дель-Монте","name:sv":"San Jose del Monte","name:tl":"San Jose del Monte","old_ref":"031420000","short_name":"SJDM","official_name":"City of San Jose del Monte","official_name:id":"Kota San Jose del Monte","official_name:it":"Città di San Jose del Monte"},"display_name":"San Jose del Monte, Bulacan, Central Luzon, Philippines","address":{"city":"San Jose del Monte","state":"Bulacan","ISO3166-2-lvl4":"PH-BUL","region":"Central Luzon","ISO3166-2-lvl3":"PH-03","country":"Philippines","country_code":"ph"},"population":651813,"osm_type":"node","osm_id":198529093,"type":"city","location":[121.0474088,14.8101978],"bbox":[120.8874088,14.6501978,121.2074088,14.9701978],"border":{"name":"San Jose del Monte","other_names":{"ref":"0301420000","name:en":"San Jose del Monte","name:es":"San José del Monte","name:ja":"サン・ホセ・デル・モンティ","name:ru":"Сан-Хосе-дель-Монте","name:tl":"San Jose del Monte","old_ref":"031420000","short_name":"SJDM","official_name":"City of San Jose del Monte","name:sv":"San Jose del Monte","official_name:id":"Kota San Jose del Monte","official_name:it":"Città di San Jose del Monte"},"display_name":"San Jose del Monte, Bulacan, Central Luzon, Philippines","address":{"city":"San Jose del Monte","state":"Bulacan","ISO3166-2-lvl4":"PH-BUL","region":"Central Luzon","ISO3166-2-lvl3":"PH-03","country":"Philippines","country_code":"ph"},"population":651813,"osm_type":"relation","osm_id":15662634,"type":"administrative","location":[121.0474088,14.8101978],"bbox":[121.0165886,14.7673962,121.1493637,14.8653973]}}
{"name":"San Jose","other_names":{"name:es":"San José","name:ja":"サン・ホセ","old_name":"Cabaritan"},"display_name":"San Jose, Nueva Ecija, Central Luzon, 3121, Philippines","address":{"city":"San Jose","state":"Nueva Ecija","ISO3166-2-lvl4":"PH-NUE","region":"Central Luzon","ISO3166-2-lvl3":"PH-03","postcode":"3121","country":"Philippines","country_code":"ph"},"population":139738,"osm_type":"node","osm_id":429674173,"type":"city","location":[120.989145,15.7917408],"bbox":[120.829145,15.6317408,121.149145,15.9517408],"border":{"name":"San Jose","other_names":{"name:es":"San José","name:ja":"サン・ホセ","old_name":"Cabaritan"},"display_name":"San Jose, Nueva Ecija, Central Luzon, Philippines","address":{"city":"San Jose","state":"Nueva Ecija","ISO3166-2-lvl4":"PH-NUE","region":"Central Luzon","ISO3166-2-lvl3":"PH-03","country":"Philippines","country_code":"ph"},"population":139738,"osm_type":"relation","osm_id":17685368,"type":"administrative","location":[120.989145,15.7917408],"bbox":[120.9106216,15.6794004,121.0872979,15.8726916]}}
{"name":"San Juan","other_names":{"ref":"1381400000","name:en":"San Juan","name:es":"San Juan","name:ja":"サンフアン","name:tl":"San Juan","old_ref":"137405000","old_name":"San Juan del Monte","official_name:en":"City of San Juan","official_name:es":"Ciudad de San Juan","official_name:tl":"Lungsod ng San Juan"},"display_name":"San Juan, 1st District, Eastern Manila District, Metro Manila, 1500, Philippines","address":{"city":"San Juan","municipality":"1st District","state_district":"Eastern Manila District","region":"Metro Manila","ISO3166-2-lvl3":"PH-00","postcode":"1500","country":"Philippines","country_code":"ph"},"population":126347,"osm_type":"node","osm_id":198502895,"type":"city","location":[121.0299469,14.6044363],"bbox":[120.8699469,14.4444363,121.1899469,14.7644363]}
{"name":"San Pablo","other_names":{"ref":"0403424000","name:en":"San Pablo","name:ja":"サン・パブロ","name:ru":"Сан-Пабло","name:tl":"San Pablo","name:zh":"圣巴勃罗","old_ref":"043424000"},"display_name":"San Pablo, Laguna, Calabarzon, 4000, Philippines","address":{"city":"San Pablo","state":"Laguna","ISO3166-2-lvl4":"PH-LAG","region":"Calabarzon","ISO3166-2-lvl3":"PH-40","postcode":"4000","country":"Philippines","country_code":"ph"},"population":285348,"osm_type":"node","osm_id":269470262,"type":"city","location":[121.3255974,14.0700502],"bbox":[121.1655974,13.9100502,121.4855974,14.2300502],"border":{"name":"San Pablo","other_names":{"ref":"0403424000","name:en":"San Pablo","name:ja":"サン・パブロ","name:ru":"Сан-Пабло","name:tl":"San Pablo","name:zh":"圣巴勃罗","old_ref":"043424000"},"display_name":"San Pablo, Laguna, Calabarzon, 4000, Philippines","address":{"city":"San Pablo","state":"Laguna","ISO3166-2-lvl4":"PH-LAG","region":"Calabarzon","ISO3166-2-lvl3":"PH-40","postcode":"4000","country":"Philippines","country_code":"ph"},"population":285348,"osm_type":"relation","osm_id":6490067,"type":"administrative","location":[121.3255974,14.0700502],"bbox":[121.2444995,13.966778,121.4309128,14.1466462]}}
{"name":"San Pedro","other_names":{"name:en":"San Pedro","name:es":"San Pedro","name:ja":"サンペドロ","name:tl":"San Pedro","name:zh":"聖佩德羅","old_name":"San Pedro Tunasan","name:zh-Hans":"圣佩德罗","name:zh-Hant":"聖佩德羅","name:zh-Latn":"Shèng Pèidéluó","official_name:en":"City of San Pedro","official_name:es":"Ciudad de San Pedro","official_name:tl":"Lungsod ng San Pedro"},"display_name":"San Pedro, Laguna, Calabarzon, 4023, Philippines","address":{"city":"San Pedro","state":"Laguna","ISO3166-2-lvl4":"PH-LAG","region":"Calabarzon","ISO3166-2-lvl3":"PH-40","postcode":"4023","country":"Philippines","country_code":"ph"},"population":326001,"osm_type":"node","osm_id":255072060,"type":"city","location":[121.056771,14.3639435],"bbox":[120.896771,14.2039435,121.216771,14.5239435],"border":{"name":"San Pedro","other_names":{"name:en":"San Pedro","name:es":"San Pedro","name:ja":"サンペドロ","name:tl":"San Pedro","name:zh":"聖佩德羅","old_name":"San Pedro Tunasan","name:zh-Hans":"圣佩德罗","name:zh-Hant":"聖佩德羅","name:zh-Latn":"Shèng Pèidéluó","official_name:en":"City of San Pedro","official_name:es":"Ciudad de San Pedro","official_name:tl":"Lungsod ng San Pedro"},"display_name":"San Pedro, Laguna, Calabarzon, 4023, Philippines","address":{"city":"San Pedro","state":"Laguna","ISO3166-2-lvl4":"PH-LAG","region":"Calabarzon","ISO3166-2-lvl3":"PH-40","postcode":"4023","country":"Philippines","country_code":"ph"},"population":326001,"osm_type":"relation","osm_id":1552543,"type":"administrative","location":[121.056771,14.3639435],"bbox":[121.0054142,14.3215296,121.1436651,14.4114052]}}
{"name":"Santa Rosa","other_names":{"name:en":"Santa Rosa","name:es":"Santa Rosa","name:ja":"サンタ・ローサ","name:tl":"Santa Rosa","name:zh":"聖羅莎","short_name":"Sta. Rosa","name:ja-Latn":"Santa Rosa","name:zh-Hans":"圣罗莎","name:zh-Hant":"聖羅莎","name:zh-Latn":"Shèng Luóshā","official_name:en":"City of Santa Rosa","official_name:es":"Ciudad de Santa Rosa","official_name:tl":"Lungsod ng Santa Rosa"},"display_name":"Santa Rosa, Laguna, Calabarzon, 4026, Philippines","address":{"city":"Santa Rosa","state":"Laguna","ISO3166-2-lvl4":"PH-LAG","region":"Calabarzon","ISO3166-2-lvl3":"PH-40","postcode":"4026","country":"Philippines","country_code":"ph"},"population":414812,"osm_type":"node","osm_id":198503203,"type":"city","location":[121.1137004,14.3146042],"bbox":[120.9537004,14.1546042,121.2737004,14.4746042],"border":{"name":"Santa Rosa","other_names":{"name:en":"Santa Rosa","name:es":"Santa Rosa","name:ja":"サンタ・ローサ","name:tl":"Santa Rosa","name:zh":"聖羅莎","short_name":"Sta. Rosa","name:ja-Latn":"Santa Rosa","name:zh-Hans":"圣罗莎","name:zh-Hant":"聖羅莎","name:zh-Latn":"Shèng Luóshā","official_name:en":"City of Santa Rosa","official_name:es":"Ciudad de Santa Rosa","official_name:tl":"Lungsod ng Santa Rosa"},"display_name":"Santa Rosa, Laguna, Calabarzon, Philippines","address":{"city":"Santa Rosa","state":"Laguna","ISO3166-2-lvl4":"PH-LAG","region":"Calabarzon","ISO3166-2-lvl3":"PH-40","country":"Philippines","country_code":"ph"},"population":414812,"osm_type":"relation","osm_id":1335521,"type":"administrative","location":[121.1137004,14.3146042],"bbox":[121.0466175,14.2160688,121.1776541,14.3773194]}}
{"name":"Santiago","other_names":{"ref":"023135000","name:ar":"سانتياغو","name:de":"Santiago","name:es":"Santiago","name:fa":"سانتیاگو","name:ja":"サンティアゴ","name:pa":"ਸਾਂਤੀਆਗੋ","name:ur":"سانتیاگو"},"display_name":"Santiago, Isabela, Cagayan Valley, 3311, Philippines","address":{"city":"Santiago","state":"Isabela","ISO3166-2-lvl4":"PH-ISA","region":"Cagayan Valley","ISO3166-2-lvl3":"PH-02","postcode":"3311","country":"Philippines","country_code":"ph"},"population":134830,"osm_type":"node","osm_id":198523800,"type":"city","location":[121.5478637,16.6915963],"bbox":[121.3878637,16.5315963,121.7078637,16.8515963]}
{"name":"Santo Tomas","other_names":{"name:en":"Santo Tomas","name:es":"Santo Tomás","name:tl":"Santo Tomas","name:abbr":"Sto. Tomas","short_name":"Sto. Tomas","official_name:en":"City of Santo Tomas","official_name:es":"Ciudad de Santo Tomás","official_name:tl":"Lungsod ng Santo Tomas"},"display_name":"Santo Tomas, Batangas, Calabarzon, 4234, Philippines","address":{"city":"Santo Tomas","state":"Batangas","ISO3166-2-lvl4":"PH-BTG","region":"Calabarzon","ISO3166-2-lvl3":"PH-40","postcode":"4234","country":"Philippines","country_code":"ph"},"population":218500,"osm_type":"node","osm_id":198512298,"type":"city","location":[121.1453304,14.1078443],"bbox":[120.9853304,13.9478443,121.3053304,14.2678443],"border":{"name":"Santo Tomas","other_names":{"name:en":"Santo Tomas","name:es":"Santo Tomás","name:tl":"Santo Tomas","name:abbr":"Sto. Tomas","short_name":"Sto. Tomas","official_name:en":"City of Santo Tomas","official_name:es":"Ciudad de Santo Tomás","official_name:tl":"Lungsod ng Santo Tomas"},"display_name":"Santo Tomas, Batangas, Calabarzon, 4234, Philippines","address":{"city":"Santo Tomas","state":"Batangas","ISO3166-2-lvl4":"PH-BTG","region":"Calabarzon","ISO3166-2-lvl3":"PH-40","postcode":"4234","country":"Philippines","country_code":"ph"},"population":218500,"osm_type":"relation","osm_id":6295736,"type":"administrative","location":[121.1453304,14.1078443],"bbox":[121.1250236,13.9796305,121.2319705,14.1473362]}}
{"name":"Silay","other_names":{"name:en":"Silay","name:ja":"シレイ","name:hil":"Silay","alt_name:hil":"Syudad sang Silay","official_name:en":"City of Silay","official_name:hil":"Dakbanwa sang Silay"},"display_name":"Silay, Negros Occidental, Negros Island Region, 6116, Philippines","address":{"city":"Silay","state":"Negros Occidental","ISO3166-2-lvl4":"PH-NEC","region":"Negros Island Region","postcode":"6116","country":"Philippines","country_code":"ph"},"population":130478,"osm_type":"node","osm_id":953358774,"type":"city","location":[122.9756149,10.7994126],"bbox":[122.8156149,10.6394126,123.1356149,10.9594126]}
{"name":"Sipalay","other_names":{"ref":"064527000"},"display_name":"Sipalay, Negros Occidental, Negros Island Region, Philippines","address":{"city":"Sipalay","state":"Negros Occidental","ISO3166-2-lvl4":"PH-NEC","region":"Negros Island Region","country":"Philippines","country_code":"ph"},"population":70070,"osm_type":"node","osm_id":198513842,"type":"city","location":[122.4040602,9.7491266],"bbox":[122.2440602,9.5891266,122.5640602,9.9091266],"border":{"name":"Sipalay","other_names":{"ref":"064527000"},"display_name":"Sipalay, Negros Occidental, Negros Island Region, Philippines","address":{"city":"Sipalay","state":"Negros Occidental","ISO3166-2-lvl4":"PH-NEC","region":"Negros Island Region","country":"Philippines","country_code":"ph"},"population":70070,"osm_type":"relation","osm_id":3740505,"type":"administrative","location":[122.4040602,9.7491266],"bbox":[122.2279116,9.5524081,122.5891734,9.8785322]}}
{"name":"Sorsogon City","other_names":{"name:es":"Sorsogón","name:et":"Sorsogon","name:ja":"ソルソゴン","old_name":"Sorsogón"},"display_name":"Sorsogon City, Sorsogon, Bicol Region, 4700, Philippines","address":{"city":"Sorsogon City","state":"Sorsogon","ISO3166-2-lvl4":"PH-SOR","region":"Bicol Region","ISO3166-2-lvl3":"PH-05","postcode":"4700","country":"Philippines","country_code":"ph"},"population":168110,"osm_type":"node","osm_id":198532506,"type":"city","location":[124.0052543,12.9707848],"bbox":[123.8452543,12.8107848,124.1652543,13.1307848]}
{"name":"Surigao City","other_names":{"ref":"1606724000","name:ar":"سوريجاو","name:en":"Surigao City","name:ja":"スリガオ","name:uk":"Суріґао","name:ur":"سوریگاؤ","old_ref":"166724000","short_name":"Surigao","official_name":"City of Surigao","official_name:en":"City of Surigao","official_name:bcl":"Syudad nin Surigao","official_name:cbk":"Ciudad de Surigao","official_name:ceb":"Dakbayan sa Surigao","official_name:pag":"Siyudad na Surigao","official_name:pam":"Surigao Lakanbalen","official_name:cbk-zam":"Ciudad de Surigao"},"display_name":"Surigao City, Surigao del Norte, Caraga, 8400, Philippines","address":{"city":"Surigao City","state":"Surigao del Norte","ISO3166-2-lvl4":"PH-SUN","region":"Caraga","ISO3166-2-lvl3":"PH-13","postcode":"8400","country":"Philippines","country_code":"ph"},"population":171107,"osm_type":"node","osm_id":319858811,"type":"city","location":[125.4935697,9.7905028],"bbox":[125.3335697,9.6305028,125.6535697,9.9505028]}
{"name":"Tabaco","other_names":{"ref":"0500517000","name:en":"Tabaco","name:tl":"Tabaco","old_ref":"050517000","name:bcl":"Tabaco","alt_name:tl":"Tabako","official_name:en":"City of Tabaco","official_name:tl":"Lungsod ng Tabaco","official_name:bcl":"Ciudad kan Tabaco"},"display_name":"Tabaco, Albay, Bicol Region, 4511, Philippines","address":{"city":"Tabaco","state":"Albay","ISO3166-2-lvl4":"PH-ALB","region":"Bicol Region","ISO3166-2-lvl3":"PH-05","postcode":"4511","country":"Philippines","country_code":"ph"},"population":140961,"osm_type":"node","osm_id":4304589760,"type":"city","location":[123.7302007,13.3593077],"bbox":[123.5702007,13.1993077,123.8902007,13.5193077],"border":{"name":"Tabaco","other_names":{"ref":"0500517000","name:en":"Tabaco","name:tl":"Tabaco","old_ref":"050517000","name:bcl":"Tabaco","alt_name:tl":"Tabako","official_name:en":"City of Tabaco","official_name:tl":"Lungsod ng Tabaco","official_name:bcl":"Ciudad kan Tabaco"},"display_name":"Tabaco, Albay, Bicol Region, 4511, Philippines","address":{"city":"Tabaco","state":"Albay","ISO3166-2-lvl4":"PH-ALB","region":"Bicol Region","ISO3166-2-lvl3":"PH-05","postcode":"4511","country":"Philippines","country_code":"ph"},"population":140961,"osm_type":"relation","osm_id":8401084,"type":"administrative","location":[123.7302007,13.3593077],"bbox":[123.6048405,13.2555075,123.9445318,13.5374484]}}
{"name":"Tabuk","other_names":{"name:ja":"タブク"},"display_name":"Tabuk, Kalinga, Cordillera Administrative Region, Philippines","address":{"city":"Tabuk","state":"Kalinga","ISO3166-2-lvl4":"PH-KAL","region":"Cordillera Administrative Region","ISO3166-2-lvl3":"PH-15","country":"Philippines","country_code":"ph"},"population":110642,"osm_type":"node","osm_id":198531818,"type":"city","location":[121.4440137,17.4136195],"bbox":[121.2840137,17.2536195,121.6040137,17.5736195]}
{"name":"Tacloban","other_names":{"name:af":"Takloban","name:am":"ታክሎባን","name:ar":"تاكلوبان","name:bg":"Таклобан","name:cv":"Таклопан","name:el":"Τακλομπάν","name:en":"Tacloban","name:eo":"Taklobano","name:es":"Tacloban","name:fa":"تاکلوبان","name:gu":"ટેક્લોબેન","name:he":"טקלובן","name:id":"Kota Tacloban","name:ja":"タクロバン","name:ka":"ტაკლობანი","name:ko":"타클로반","name:la":"Taclobana","name:lt":"Taklobanas","name:lv":"Taklobana","name:mk":"Таклобан","name:os":"Таклобан","name:ru":"Таклобан","name:sq":"Taklobani","name:sr":"Таклобан","name:su":"Dayeuh Tacloban","name:th":"ตักโลบัน","name:tl":"Tacloban","name:tt":"Таклобан","name:uk":"Таклобан","name:ur":"تاکلوبان","name:yi":"טאקלאבאן","name:zh":"独鲁万市","name:war":"Tacloban","official_name:en":"City of Tacloban","official_name:es":"Ciudad de Tacloban","official_name:tl":"Lungsod ng Tacloban","official_name:war":"Siyudad han Tacloban"},"display_name":"Tacloban, Eastern Visayas, Philippines","address":{"city":"Tacloban","region":"Eastern Visayas","ISO3166-2-lvl3":"PH-08","country":"Philippines","country_code":"ph"},"population":242089,"osm_type":"node","osm_id":278507994,"type":"city","location":[125.0079543,11.2436208],"bbox":[124.8479543,11.0836208,125.1679543,11.4036208],"border":{"name":"Tacloban","other_names":{"name:af":"Takloban","name:am":"ታክሎባን","name:ar":"تاكلوبان","name:bg":"Таклобан","name:cv":"Таклопан","name:el":"Τακλομπάν","name:en":"Tacloban","name:eo":"Taklobano","name:es":"Tacloban","name:fa":"تاکلوبان","name:gu":"ટેક્લોબેન","name:he":"טקלובן","name:id":"Kota Tacloban","name:ja":"タクロバン","name:ka":"ტაკლობანი","name:ko":"타클로반","name:la":"Taclobana","name:lt":"Taklobanas","name:lv":"Taklobana","name:mk":"Таклобан","name:os":"Таклобан","name:ru":"Таклобан","name:sq":"Taklobani","name:sr":"Таклобан","name:su":"Dayeuh Tacloban","name:th":"ตักโลบัน","name:tl":"Tacloban","name:tt":"Таклобан","name:uk":"Таклобан","name:ur":"تاکلوبان","name:yi":"טאקלאבאן","name:zh":"独鲁万市","name:war":"Tacloban","official_name:en":"City of Tacloban","official_name:es":"Ciudad de Tacloban","official_name:tl":"Lungsod ng Tacloban","official_name:war":"Siyudad han Tacloban"},"display_name":"Tacloban, Eastern Visayas, 6500, Philippines","address":{"city":"Tacloban","region":"Eastern Visayas","ISO3166-2-lvl3":"PH-08","postcode":"6500","country":"Philippines","country_code":"ph"},"population":242089,"osm_type":"relation","osm_id":5154028,"type":"administrative","location":[125.0079543,11.2436208],"bbox":[124.8967579,11.1807134,125.0786439,11.3428785]}}
{"name":"Tacurong","other_names":{"name:en":"Tacurong","name:ja":"タキュロン"},"display_name":"Tacurong, Sultan Kudarat, Soccsksargen, 9800, Philippines","address":{"city":"Tacurong","state":"Sultan Kudarat","ISO3166-2-lvl4":"PH-SUK","region":"Soccsksargen","ISO3166-2-lvl3":"PH-12","postcode":"9800","country":"Philippines","country_code":"ph"},"population":98316,"osm_type":"node","osm_id":198511547,"type":"city","location":[124.6786576,6.6884368],"bbox":[124.5186576,6.5284368,124.8386576,6.8484368]}
{"name":"Tagaytay","other_names":{"ref":"0402119000","name:en":"Tagaytay","name:ja":"タガイタイ","old_ref":"042119000","official_name":"City of Tagaytay"},"display_name":"Tagaytay, Cavite, Calabarzon, 4120, Philippines","address":{"city":"Tagaytay","state":"Cavite","ISO3166-2-lvl4":"PH-CAV","region":"Calabarzon","ISO3166-2-lvl3":"PH-40","postcode":"4120","country":"Philippines","country_code":"ph"},"population":85330,"osm_type":"node","osm_id":283347803,"type":"city","location":[120.9391818,14.0992606],"bbox":[120.7791818,13.9392606,121.0991818,14.2592606],"border":{"name":"Tagaytay","other_names":{"ref":"0402119000","name:en":"Tagaytay","old_ref":"042119000","official_name":"City of Tagaytay","name:ja":"タガイタイ"},"display_name":"Tagaytay, Cavite, Calabarzon, 4120, Philippines","address":{"city":"Tagaytay","state":"Cavite","ISO3166-2-lvl4":"PH-CAV","region":"Calabarzon","ISO3166-2-lvl3":"PH-40","postcode":"4120","country":"Philippines","country_code":"ph"},"population":85330,"osm_type":"relation","osm_id":1491134,"type":"administrative","location":[120.9391818,14.0992606],"bbox":[120.8853104,14.0764655,121.0514021,14.157653]}}
{"name":"Tagbilaran","other_names":{"ref":"071242000","name:en":"Tagbilaran","name:ja":"タグビララン","name:ru":"Тагбиларан"},"display_name":"Tagbilaran, Bohol, Central Visayas, Philippines","address":{"city":"Tagbilaran","state":"Bohol","ISO3166-2-lvl4":"PH-BOH","region":"Central Visayas","ISO3166-2-lvl3":"PH-07","country":"Philippines","country_code":"ph"},"population":104976,"osm_type":"node","osm_id":250652000,"type":"city","location":[123.8559809,9.6402611],"bbox":[123.6959809,9.4802611,124.0159809,9.8002611],"border":{"name":"Tagbilaran","other_names":{"ref":"071242000","name:en":"Tagbilaran","name:ja":"タグビララン","name:ru":"Тагбиларан"},"display_name":"Tagbilaran, Bohol, Central Visayas, Philippines","address":{"city":"Tagbilaran","state":"Bohol","ISO3166-2-lvl4":"PH-BOH","region":"Central Visayas","ISO3166-2-lvl3":"PH-07","country":"Philippines","country_code":"ph"},"population":104976,"osm_type":"relation","osm_id":16062887,"type":"administrative","location":[123.8559809,9.6402611],"bbox":[123.7934016,9.5790916,123.9024585,9.7028146]}}
{"name":"Taguig","other_names":{"ref":"1381500000","name:en":"Taguig","name:ja":"タギッグ","name:ru":"Тагиг","name:sv":"Tatuig","name:tl":"Taguig","old_ref":"137607000","alt_name:tl":"Tagig"},"display_name":"Taguig, Southern Manila District, Metro Manila, Philippines","address":{"city":"Taguig","state_district":"Southern Manila District","region":"Metro Manila","ISO3166-2-lvl3":"PH-00","country":"Philippines","country_code":"ph"},"population":886722,"osm_type":"node","osm_id":198499895,"type":"city","location":[121.0744942,14.5270538],"bbox":[120.9144942,14.3670538,121.2344942,14.6870538],"border":{"name":"Taguig","other_names":{"ref":"1381500000","name:en":"Taguig","name:ja":"タギッグ","name:ru":"Тагиг","name:tl":"Taguig","old_ref":"137607000","alt_name:tl":"Tagig","name:sv":"Tatuig"},"display_name":"Taguig, Southern Manila District, Metro Manila, Philippines","address":{"city":"Taguig","state_district":"Southern Manila District","region":"Metro Manila","ISO3166-2-lvl3":"PH-00","country":"Philippines","country_code":"ph"},"population":886722,"osm_type":"relation","osm_id":184776,"type":"administrative","location":[121.0744942,14.5270538],"bbox":[121.0222175,14.4513116,121.122151,14.5685464]}}
{"name":"Tagum","other_names":{"ref":"1102319000","name:en":"Tagum","name:ja":"タグム","name:ru":"Тагум","name:tl":"Tagum","name:zh":"塔古姆","old_ref":"112319000","alt_name":"Tagum City","old_name":"Magugpo","official_name":"City of Tagum"},"display_name":"Tagum, Davao del Norte, Davao Region, 8100, Philippines","address":{"city":"Tagum","state":"Davao del Norte","ISO3166-2-lvl4":"PH-DAV","region":"Davao Region","ISO3166-2-lvl3":"PH-11","postcode":"8100","country":"Philippines","country_code":"ph"},"population":296202,"osm_type":"node","osm_id":371274506,"type":"city","location":[125.8094853,7.4470784],"bbox":[125.6494853,7.2870784,125.9694853,7.6070784],"border":{"name":"Tagum","other_names":{"ref":"1102319000","name:en":"Tagum","name:ja":"タグム","name:ru":"Тагум","name:tl":"Tagum","name:zh":"塔古姆","old_ref":"112319000","alt_name":"Tagum City","old_name":"Magugpo","official_name":"City of Tagum"},"display_name":"Tagum, Davao del Norte, Davao Region, 8100, Philippines","address":{"city":"Tagum","state":"Davao del Norte","ISO3166-2-lvl4":"PH-DAV","region":"Davao Region","ISO3166-2-lvl3":"PH-11","postcode":"8100","country":"Philippines","country_code":"ph"},"population":296202,"osm_type":"relation","osm_id":15986415,"type":"administrative","location":[125.8094853,7.4470784],"bbox":[125.7338476,7.2464576,125.8873042,7.5105777]}}
{"name":"Talisay","other_names":{"ref":"072250000"},"display_name":"Talisay, Cebu, Central Visayas, 6045, Philippines","address":{"city":"Talisay","state":"Cebu","ISO3166-2-lvl4":"PH-CEB","region":"Central Visayas","ISO3166-2-lvl3":"PH-07","postcode":"6045","country":"Philippines","country_code":"ph"},"population":263048,"osm_type":"node","osm_id":367831567,"type":"city","location":[123.8488245,10.2430205],"bbox":[123.6888245,10.0830205,124.0088245,10.4030205]}
{"name":"Talisay","other_names":{"name:ja":"タリサイ"},"display_name":"Talisay, Negros Occidental, Negros Island Region, 6115, Philippines","address":{"city":"Talisay","state":"Negros Occidental","ISO3166-2-lvl4":"PH-NEC","region":"Negros Island Region","postcode":"6115","country":"Philippines","country_code":"ph"},"population":102214,"osm_type":"node","osm_id":1230095257,"type":"city","location":[122.9673325,10.7372649],"bbox":[122.8073325,10.5772649,123.1273325,10.8972649],"border":{"name":"Talisay","other_names":{"name:ja":"タリサイ"},"display_name":"Talisay, Negros Occidental, Negros Island Region, 6115, Philippines","address":{"city":"Talisay","state":"Negros Occidental","ISO3166-2-lvl4":"PH-NEC","region":"Negros Island Region","postcode":"6115","country":"Philippines","country_code":"ph"},"population":102214,"osm_type":"relation","osm_id":11347735,"type":"administrative","location":[122.9673325,10.7372649],"bbox":[122.837746,10.6371665,123.2588101,10.7838488]}}
{"name":"Tanauan","other_names":{"ref":"0401031000","name:en":"Tanauan","name:es":"Tanauan","name:ja":"タナウアン","name:tl":"Tanauan","old_ref":"041031000","official_name:en":"City of Tanauan","official_name:es":"Ciudad de Tanauan","official_name:tl":"Lungsod ng Tanauan"},"display_name":"Tanauan, Batangas, Calabarzon, 4232, Philippines","address":{"city":"Tanauan","state":"Batangas","ISO3166-2-lvl4":"PH-BTG","region":"Calabarzon","ISO3166-2-lvl3":"PH-40","postcode":"4232","country":"Philippines","country_code":"ph"},"population":193936,"osm_type":"node","osm_id":198523357,"type":"city","location":[121.1527927,14.0852359],"bbox":[120.9927927,13.9252359,121.3127927,14.2452359],"border":{"name":"Tanauan","other_names":{"ref":"0401031000","name:en":"Tanauan","name:es":"Tanauan","name:ja":"タナウアン","name:tl":"Tanauan","old_ref":"041031000","official_name:en":"City of Tanauan","official_name:es":"Ciudad de Tanauan","official_name:tl":"Lungsod ng Tanauan"},"display_name":"Tanauan, Batangas, Calabarzon, 4232, Philippines","address":{"city":"Tanauan","state":"Batangas","ISO3166-2-lvl4":"PH-BTG","region":"Calabarzon","ISO3166-2-lvl3":"PH-40","postcode":"4232","country":"Philippines","country_code":"ph"},"population":193936,"osm_type":"relation","osm_id":5947754,"type":"administrative","location":[121.1527927,14.0852359],"bbox":[121.0427285,14.0220559,121.1660207,14.1569545]}}
{"name":"Tandag","other_names":{"name:ja":"タンダグ","name:uk":"Тандаґ","official_name":"City of Tandag"},"display_name":"Tandag, Surigao del Sur, Caraga, 8300, Philippines","address":{"city":"Tandag","state":"Surigao del Sur","ISO3166-2-lvl4":"PH-SUR","region":"Caraga","ISO3166-2-lvl3":"PH-13","postcode":"8300","country":"Philippines","country_code":"ph"},"population":56364,"osm_type":"node","osm_id":198522530,"type":"city","location":[126.1974606,9.0799833],"bbox":[126.0374606,8.9199833,126.3574606,9.2399833]}
{"name":"Tangub","other_names":{"ref":"104215000","old_name":"Regidor","official_name":"City of Tangub"},"display_name":"Tangub, Misamis Occidental, Northern Mindanao, 7214, Philippines","address":{"city":"Tangub","state":"Misamis Occidental","ISO3166-2-lvl4":"PH-MSC","region":"Northern Mindanao","ISO3166-2-lvl3":"PH-10","postcode":"7214","country":"Philippines","country_code":"ph"},"population":63011,"osm_type":"node","osm_id":4507497112,"type":"city","location":[123.7512585,8.0609053],"bbox":[123.5912585,7.9009053,123.9112585,8.2209053],"border":{"name":"Tangub","other_names":{"ref":"104215000","old_name":"Regidor","official_name":"City of Tangub"},"display_name":"Tangub, Misamis Occidental, Northern Mindanao, 7214, Philippines","address":{"city":"Tangub","state":"Misamis Occidental","ISO3166-2-lvl4":"PH-MSC","region":"Northern Mindanao","ISO3166-2-lvl3":"PH-10","postcode":"7214","country":"Philippines","country_code":"ph"},"population":63011,"osm_type":"relation","osm_id":12969494,"type":"administrative","location":[123.7512585,8.0609053],"bbox":[123.6264836,8.0067122,123.78577,8.1730445]}}
{"name":"Tanjay","other_names":{"ref":"074621000","name:en":"Tanjay","name:ceb":"Tanjay","official_name:en":"City of Tanjay","official_name:ceb":"Dakbayan sa Tanjay"},"display_name":"Tanjay, Negros Oriental, Negros Island Region, 6204, Philippines","address":{"city":"Tanjay","state":"Negros Oriental","ISO3166-2-lvl4":"PH-NER","region":"Negros Island Region","postcode":"6204","country":"Philippines","country_code":"ph"},"population":82642,"osm_type":"node","osm_id":198505248,"type":"city","location":[123.1566353,9.5164507],"bbox":[122.9966353,9.3564507,123.3166353,9.6764507],"border":{"name":"Tanjay","other_names":{"ref":"074621000","name:en":"Tanjay","name:ceb":"Tanjay","official_name:en":"City of Tanjay","official_name:ceb":"Dakbayan sa Tanjay"},"display_name":"Tanjay, Negros Oriental, Negros Island Region, 6204, Philippines","address":{"city":"Tanjay","state":"Negros Oriental","ISO3166-2-lvl4":"PH-NER","region":"Negros Island Region","postcode":"6204","country":"Philippines","country_code":"ph"},"population":82642,"osm_type":"relation","osm_id":15571616,"type":"administrative","location":[123.1566353,9.5164507],"bbox":[122.8878824,9.4205573,123.2551205,9.5719806]}}
{"name":"Tarlac City","other_names":{"name:ar":"تارلاك","name:en":"Tarlac City","name:es":"Ciudad de Tarlac","name:et":"Tarlaci linn","name:eu":"Tarlac Hiria","name:hu":"Tarlak Város","name:id":"Kota Tarlac","name:ja":"タルラック市","name:ru":"Город Тарлак","name:tl":"Lungsod ng Tarlac","name:uk":"Місто Тарлак","name:ur":"ٹارلک شہر","name:zh":"塔拉克城","name:azb":"تارلاک","name:pam":"Tarlac City","name:az-Arab":"تارلاک","name:zh-Hans":"塔拉克城","official_name:ar":"مدينة تارلاك","official_name:de":"Stadt Tarlac","official_name:en":"City of Tarlac","official_name:es":"Ciudad de Tarlac","official_name:tl":"Lungsod ng Tarlac","official_name:ur":"تارلاک شہر","official_name:pam":"Lakanbalen ning Tarlac"},"display_name":"Tarlac City, Tarlac, Central Luzon, Philippines","address":{"city":"Tarlac City","state":"Tarlac","ISO3166-2-lvl4":"PH-TAR","region":"Central Luzon","ISO3166-2-lvl3":"PH-03","country":"Philippines","country_code":"ph"},"population":385398,"osm_type":"node","osm_id":30917648,"type":"city","location":[120.5893473,15.4861218],"bbox":[120.4293473,15.3261218,120.7493473,15.6461218],"border":{"name":"Tarlac City","other_names":{"name:ar":"تارلاك","name:en":"Tarlac City","name:es":"Tarlac","name:et":"Tarlac","name:eu":"Tarlac Hiria","name:hu":"Tarlac","name:id":"Kota Tarlac","name:ja":"タルラック","name:ru":"Тарлак","name:tl":"Tarlac","name:uk":"Тарлак","name:ur":"تارلاک","name:zh":"塔拉克","name:azb":"تارلاک","name:pam":"Tarlac","name:az-Arab":"تارلاک","official_name:ar":"مدينة تارلاك","official_name:de":"Stadt Tarlac","official_name:en":"City of Tarlac","official_name:es":"Ciudad de Tarlac","official_name:tl":"Lungsod ng Tarlac","official_name:ur":"تارلاک شہر","official_name:pam":"Lakanbalen ning Tarlac","name:zh-Hans":"塔拉克城","alt:es":"Ciudad de Tarlac","alt:et":"Tarlaci linn","alt:hu":"Tarlak Város","alt:ja":"タルラック市","alt:ru":"Город Тарлак","alt:tl":"Lungsod ng Tarlac","alt:uk":"Місто Тарлак","alt:ur":"ٹارلک شہر","alt:zh":"塔拉克城","alt:pam":"Tarlac City"},"display_name":"Tarlac City, Tarlac, Central Luzon, Philippines","address":{"city":"Tarlac City","state":"Tarlac","ISO3166-2-lvl4":"PH-TAR","region":"Central Luzon","ISO3166-2-lvl3":"PH-03","country":"Philippines","country_code":"ph"},"population":385398,"osm_type":"relation","osm_id":15585454,"type":"administrative","location":[120.5893473,15.4861218],"bbox":[120.5171404,15.4023414,120.6954224,15.5732822]}}
{"name":"Tayabas","other_names":{"ref":"045647000","name:en":"Tayabas","name:ja":"タヤバス","name:tl":"Tayabas","official_name:en":"City of Tayabas","official_name:tl":"Lungsod ng Tayabas"},"display_name":"Tayabas, Quezon, Calabarzon, 4327, Philippines","address":{"city":"Tayabas","state":"Quezon","ISO3166-2-lvl4":"PH-QUE","region":"Calabarzon","ISO3166-2-lvl3":"PH-40","postcode":"4327","country":"Philippines","country_code":"ph"},"population":112658,"osm_type":"node","osm_id":198498395,"type":"city","location":[121.5918364,14.0263471],"bbox":[121.4318364,13.8663471,121.7518364,14.1863471],"border":{"name":"Tayabas","other_names":{"ref":"045647000","name:ja":"タヤバス","name:tl":"Tayabas","official_name":"City of Tayabas","name:en":"Tayabas","official_name:tl":"Lungsod ng Tayabas","official_name:en":"City of Tayabas"},"display_name":"Tayabas, Quezon, Calabarzon, 4327, Philippines","address":{"city":"Tayabas","state":"Quezon","ISO3166-2-lvl4":"PH-QUE","region":"Calabarzon","ISO3166-2-lvl3":"PH-40","postcode":"4327","country":"Philippines","country_code":"ph"},"population":112658,"osm_type":"relation","osm_id":16862795,"type":"administrative","location":[121.5918364,14.0263471],"bbox":[121.4824302,13.9449254,121.7459211,14.094207]}}
{"name":"Toledo","other_names":{"name:ja":"トレド"},"display_name":"Toledo, Cebu, Central Visayas, 6038, Philippines","address":{"city":"Toledo","state":"Cebu","ISO3166-2-lvl4":"PH-CEB","region":"Central Visayas","ISO3166-2-lvl3":"PH-07","postcode":"6038","country":"Philippines","country_code":"ph"},"population":170335,"osm_type":"node","osm_id":281422794,"type":"city","location":[123.6344069,10.3749385],"bbox":[123.4744069,10.2149385,123.7944069,10.5349385]}
{"name":"Trece Martires","display_name":"Trece Martires, Cavite, Calabarzon, 4109, Philippines","address":{"city":"Trece Martires","state":"Cavite","ISO3166-2-lvl4":"PH-CAV","region":"Calabarzon","ISO3166-2-lvl3":"PH-40","postcode":"4109","country":"Philippines","country_code":"ph"},"population":155713,"osm_type":"node","osm_id":255058930,"type":"city","location":[120.8702367,14.2811668],"bbox":[120.7102367,14.1211668,121.0302367,14.4411668],"border":{"name":"Trece Martires","display_name":"Trece Martires, Cavite, Calabarzon, 4109, Philippines","address":{"city":"Trece Martires","state":"Cavite","ISO3166-2-lvl4":"PH-CAV","region":"Calabarzon","ISO3166-2-lvl3":"PH-40","postcode":"4109","country":"Philippines","country_code":"ph"},"population":155713,"osm_type":"relation","osm_id":1491128,"type":"administrative","location":[120.8702367,14.2811668],"bbox":[120.822933,14.2181694,120.9015449,14.3134968]}}
{"name":"Tuguegarao","other_names":{"ref":"0201529000","name:ar":"توجيجاراو","name:be":"Тугегарао","name:bg":"Тугегарао","name:en":"Tuguegarao","name:es":"Tuguegarao","name:fa":"توگوگارائو","name:ja":"トゥゲガラオ","name:ko":"투게가라오","name:ru":"Тугегарао","name:sr":"Тугегарао","name:tl":"Tuguegarao","name:uk":"Тугегарао","name:ur":"ٹوگیگاراؤ","name:zh":"土格加勞","old_ref":"021529000","alt_name":"Tuguegarao City","name:ceb":"Tuguegarao","name:ibg":"Tuguegarao","name:ilo":"Tuguegarao","alt_name:en":"Tuguegarao City","alt_name:tl":"Lungsod ng Tuguegarao","alt_name:ibg":"Siudad nat Tuguegarao","alt_name:ilo":"Siudad ti Tuguegarao","name:zh-Hans":"土格加劳","name:zh-Hant":"土格加勞","official_name":"Tuguegarao City","official_name:en":"Tuguegarao City","official_name:es":"Ciudad de Tuguegarao","official_name:tl":"Lungsod ng Tuguegarao","official_name:ibg":"Siudad nat Tuguegarao","official_name:ilo":"Siudad ti Tuguegarao"},"display_name":"Tuguegarao, Cagayan, Cagayan Valley, 3500, Philippines","address":{"city":"Tuguegarao","state":"Cagayan","ISO3166-2-lvl4":"PH-CAG","region":"Cagayan Valley","ISO3166-2-lvl3":"PH-02","postcode":"3500","country":"Philippines","country_code":"ph"},"population":166334,"osm_type":"node","osm_id":198491046,"type":"city","location":[121.7300377,17.6118858],"bbox":[121.5700377,17.4518858,121.8900377,17.7718858],"border":{"name":"Tuguegarao","other_names":{"ref":"0201529000","name:en":"Tuguegarao","name:es":"Tuguegarao","name:ja":"トゥゲガラオ","name:ru":"Тугегарао","name:tl":"Tuguegarao","name:uk":"Тугегарао","old_ref":"021529000","name:ceb":"Tuguegarao","name:ibg":"Tuguegarao","name:ilo":"Tuguegarao","name:ar":"توجيجاراو","name:be":"Тугегарао","name:bg":"Тугегарао","name:fa":"توگوگارائو","name:ko":"투게가라오","name:sr":"Тугегарао","name:ur":"ٹوگیگاراؤ","name:zh":"土格加勞","alt_name":"Tuguegarao City","official_name:en":"City of Tuguegarao","official_name:es":"Ciudad de Tuguegarao","official_name:tl":"Lungsod ng Tuguegarao","official_name:ceb":"Dakbayan sa Tuguegarao","official_name:ibg":"Siudad nat Tuguegarao","official_name:ilo":"Ciudad ti Tuguegarao","alt_name:en":"Tuguegarao City","alt_name:tl":"Lungsod ng Tuguegarao","alt_name:ibg":"Siudad nat Tuguegarao","alt_name:ilo":"Siudad ti Tuguegarao","name:zh-Hans":"土格加劳","name:zh-Hant":"土格加勞","official_name":"Tuguegarao City","_place_official_name:en":"Tuguegarao City","_place_official_name:ilo":"Siudad ti Tuguegarao"},"display_name":"Tuguegarao, Cagayan, Cagayan Valley, 3500, Philippines","address":{"city":"Tuguegarao","state":"Cagayan","ISO3166-2-lvl4":"PH-CAG","region":"Cagayan Valley","ISO3166-2-lvl3":"PH-02","postcode":"3500","country":"Philippines","country_code":"ph"},"population":166334,"osm_type":"relation","osm_id":3486423,"type":"administrative","location":[121.7300377,17.6118858],"bbox":[121.6786829,17.5127757,121.8219038,17.6948901]}}
{"name":"Urdaneta","other_names":{"name:ja":"アーダネータ"},"display_name":"Urdaneta, Pangasinan, Ilocos Region, 2428, Philippines","address":{"city":"Urdaneta","state":"Pangasinan","ISO3166-2-lvl4":"PH-PAN","region":"Ilocos Region","ISO3166-2-lvl3":"PH-01","postcode":"2428","country":"Philippines","country_code":"ph"},"population":132940,"osm_type":"node","osm_id":30917625,"type":"city","location":[120.5668992,15.9759995],"bbox":[120.4068992,15.8159995,120.7268992,16.1359995],"border":{"name":"Urdaneta","other_names":{"name:ja":"アーダネータ","alt_name":"Urdaneta City","alt_name:es":"Ciudad de Urdaneta","alt_name:id":"Kota Urdaneta","alt_name:ilo":"Siudad ti Urdaneta","official_name":"City of Urdaneta","official_name:en":"City of Urdaneta","official_name:tl":"Lungsod ng Urdaneta"},"display_name":"Urdaneta, Pangasinan, Ilocos Region, 2428, Philippines","address":{"city":"Urdaneta","state":"Pangasinan","ISO3166-2-lvl4":"PH-PAN","region":"Ilocos Region","ISO3166-2-lvl3":"PH-01","postcode":"2428","country":"Philippines","country_code":"ph"},"population":132940,"osm_type":"relation","osm_id":19056575,"type":"administrative","location":[120.5668992,15.9759995],"bbox":[120.4874774,15.9306671,120.6324202,16.0188047]}}
{"name":"Valencia","other_names":{"name:en":"Valencia","name:ja":"バレンシア","name:zh":"巴伦西亚","alt_name":"Valencia City","official_name":"City of Valencia"},"display_name":"Valencia, Bukidnon, Northern Mindanao, 8709, Philippines","address":{"city":"Valencia","state":"Bukidnon","ISO3166-2-lvl4":"PH-BUK","region":"Northern Mindanao","ISO3166-2-lvl3":"PH-10","postcode":"8709","country":"Philippines","country_code":"ph"},"population":216546,"osm_type":"node","osm_id":319528329,"type":"city","location":[125.0898033,7.9028844],"bbox":[124.9298033,7.7428844,125.2498033,8.0628844],"border":{"name":"Valencia","other_names":{"name:en":"Valencia","name:ja":"バレンシア","name:zh":"巴伦西亚","alt_name":"Valencia City","official_name":"City of Valencia"},"display_name":"Valencia, Bukidnon, Northern Mindanao, 8709, Philippines","address":{"city":"Valencia","state":"Bukidnon","ISO3166-2-lvl4":"PH-BUK","region":"Northern Mindanao","ISO3166-2-lvl3":"PH-10","postcode":"8709","country":"Philippines","country_code":"ph"},"population":216546,"osm_type":"relation","osm_id":13437285,"type":"administrative","location":[125.0898033,7.9028844],"bbox":[124.8026895,7.7916263,125.2733154,8.0358586]}}
{"name":"Valenzuela","other_names":{"ref":"137504000","name:en":"Valenzuela","name:es":"Valenzuela","name:ja":"ヴァレンズエラ","name:ru":"Валенсуэла","name:tl":"Valenzuela","official_name":"City of Valenzula","official_name:en":"City of Valenzuela","official_name:es":"Ciudad de Valenzuela","official_name:tl":"Lungsod ng Valenzuela"},"display_name":"Valenzuela, Northern Manila District, Metro Manila, Philippines","address":{"city":"Valenzuela","state_district":"Northern Manila District","region":"Metro Manila","ISO3166-2-lvl3":"PH-00","country":"Philippines","country_code":"ph"},"population":714978,"osm_type":"node","osm_id":255062020,"type":"city","location":[120.9694534,14.6916903],"bbox":[120.8094534,14.5316903,121.1294534,14.8516903],"border":{"name":"Valenzuela","other_names":{"ref":"137504000","name:en":"Valenzuela","name:es":"Valenzuela","name:ja":"ヴァレンズエラ","name:ru":"Валенсуэла","name:tl":"Valenzuela","official_name":"City of Valenzula","official_name:en":"City of Valenzuela","official_name:es":"Ciudad de Valenzuela","official_name:tl":"Lungsod ng Valenzuela"},"display_name":"Valenzuela, Northern Manila District, Metro Manila, Philippines","address":{"city":"Valenzuela","state_district":"Northern Manila District","region":"Metro Manila","ISO3166-2-lvl3":"PH-00","country":"Philippines","country_code":"ph"},"population":714978,"osm_type":"relation","osm_id":307470,"type":"administrative","location":[120.9694534,14.6916903],"bbox":[120.9257944,14.6687476,121.0245216,14.7583971]}}
{"name":"Victorias","other_names":{"name:en":"Victorias","name:ja":"ビクトリアス","name:hil":"Victorias","alt_name:hil":"Syudad sang Victorias","official_name:en":"City of Victorias","official_name:hil":"Dakbanwa sang Victorias"},"display_name":"Victorias, Negros Occidental, Negros Island Region, 6119, Philippines","address":{"city":"Victorias","state":"Negros Occidental","ISO3166-2-lvl4":"PH-NEC","region":"Negros Island Region","postcode":"6119","country":"Philippines","country_code":"ph"},"population":90101,"osm_type":"node","osm_id":198507953,"type":"city","location":[123.0714943,10.9013412],"bbox":[122.9114943,10.7413412,123.2314943,11.0613412],"border":{"name":"Victorias","other_names":{"name:en":"Victorias","name:ja":"ビクトリアス","name:hil":"Victorias","alt_name:hil":"Syudad sang Victorias","official_name:en":"City of Victorias","official_name:hil":"Dakbanwa sang Victorias"},"display_name":"Victorias, Negros Occidental, Negros Island Region, 6119, Philippines","address":{"city":"Victorias","state":"Negros Occidental","ISO3166-2-lvl4":"PH-NEC","region":"Negros Island Region","postcode":"6119","country":"Philippines","country_code":"ph"},"population":90101,"osm_type":"relation","osm_id":11341728,"type":"administrative","location":[123.0714943,10.9013412],"bbox":[123.0306232,10.729508,123.2222753,11.0047328]}}
{"name":"Vigan","other_names":{"ref":"012934000","name:am":"ቪጋን","name:ar":"فيغان","name:be":"Віган","name:bg":"Виган","name:en":"Vigan","name:fa":"ویگان","name:hi":"विगन","name:ja":"ビガン","name:kk":"Виган","name:ko":"비간시","name:mk":"Виган","name:ru":"Виган","name:sr":"Виган","name:th":"วีกัน","name:uk":"Віган","name:ur":"ویگن","name:zh":"美岸","alt_name":"Vigan City","name:yue":"維甘","alt_name:zh":"維甘","official_name":"City of Vigan","official_name:en":"City of Vigan","official_name:tl":"Lungsod ng Vigan","official_name:ilo":"Siudad ti Vigan"},"display_name":"Vigan, Ilocos Sur, Ilocos Region, Philippines","address":{"city":"Vigan","state":"Ilocos Sur","ISO3166-2-lvl4":"PH-ILS","region":"Ilocos Region","ISO3166-2-lvl3":"PH-01","country":"Philippines","country_code":"ph"},"population":53879,"osm_type":"node","osm_id":198492634,"type":"city","location":[120.3872632,17.5755487],"bbox":[120.2272632,17.4155487,120.5472632,17.7355487],"border":{"name":"Vigan","other_names":{"ref":"012934000","name:am":"ቪጋን","name:ar":"فيغان","name:be":"Віган","name:bg":"Виган","name:en":"Vigan","name:fa":"ویگان","name:hi":"विगन","name:ja":"ビガン","name:kk":"Виган","name:ko":"비간시","name:mk":"Виган","name:ru":"Виган","name:sr":"Виган","name:th":"วีกัน","name:uk":"Віган","name:ur":"ویگن","name:zh":"美岸","alt_name":"Vigan City","name:yue":"維甘","alt_name:zh":"維甘","official_name":"City of Vigan","official_name:en":"City of Vigan","official_name:tl":"Lungsod ng Vigan","official_name:ilo":"Siudad ti Vigan"},"display_name":"Vigan, Ilocos Sur, Ilocos Region, 2700, Philippines","address":{"city":"Vigan","state":"Ilocos Sur","ISO3166-2-lvl4":"PH-ILS","region":"Ilocos Region","ISO3166-2-lvl3":"PH-01","postcode":"2700","country":"Philippines","country_code":"ph"},"population":53879,"osm_type":"relation","osm_id":8186236,"type":"administrative","location":[120.3872632,17.5755487],"bbox":[120.2034644,17.3942203,120.4323144,17.5913377]}}
{"name":"Zamboanga City","other_names":{"ref":"097332000","name:en":"Zamboanga City","name:es":"Ciudad de Zamboanga","name:eu":"Zamboanga Hiria","name:he":"זמבואנגה סיטי","name:ja":"サンボアンガ","name:ko":"잠보앙가","name:ru":"Замбоанга","name:uk":"Замбоанга","name:zh":"三宝颜","name:cbk":"Ciudad de Zamboanga","short_name:he":"זמבואנגה"},"display_name":"Zamboanga City, Zamboanga Peninsula, 7000, Philippines","address":{"city":"Zamboanga City","region":"Zamboanga Peninsula","ISO3166-2-lvl3":"PH-09","postcode":"7000","country":"Philippines","country_code":"ph"},"population":977234,"osm_type":"node","osm_id":965797341,"type":"city","location":[122.0764868,6.9046876],"bbox":[121.9164868,6.7446876,122.2364868,7.0646876],"border":{"name":"Zamboanga City","other_names":{"ref":"097332000","name:en":"Zamboanga City","name:es":"Ciudad de Zamboanga","name:he":"זמבואנגה","name:ja":"サンボアンガ","name:ko":"잠보앙가","name:ru":"Замбоанга","name:uk":"Замбоанга","name:zh":"三宝颜","name:cbk":"Ciudad de Zamboanga","name:eu":"Zamboanga Hiria","short_name:he":"זמבואנגה","alt:he":"זמבואנגה סיטי"},"display_name":"Zamboanga City, Zamboanga Peninsula, 7000, Philippines","address":{"city":"Zamboanga City","region":"Zamboanga Peninsula","ISO3166-2-lvl3":"PH-09","postcode":"7000","country":"Philippines","country_code":"ph"},"population":977234,"osm_type":"relation","osm_id":3617877,"type":"administrative","location":[122.0764868,6.9046876],"bbox":[121.7609759,6.7948348,122.5749021,7.468906]}}
