{"name":"Aïoun El Atrouss العيون","other_names":{"name:ar":"العيون","name:de":"al-'Uyun","name:en":"Ayoun el Atrous","name:fr":"Aïoun El Atrouss","name:pl":"Ujun al-Atrus","name:ru":"Аюн-эль-Атрус","alt_name":"عيون العتروس;Aïoun el Atrouss;Aioun el Atrouss;Aïoun;’Ayoûn el ’Atroûs;'Ayoun el 'Atrous;Ayoûn el Atroûs;Ayoun el Atrous;Aioun","alt_name:ar":"عيون العتروس;لعيون;العيون","alt_name:en":"Al `Uyun"},"display_name":"Aïoun El Atrouss العيون, Hodh El Gharbi الحوض الغربي, Mauritanie موريتانيا","address":{"city":"Aïoun El Atrouss العيون","state":"Hodh El Gharbi الحوض الغربي","ISO3166-2-lvl4":"MR-02","country":"Mauritanie موريتانيا","country_code":"mr"},"osm_type":"node","osm_id":330418520,"type":"city","location":[-9.6178808,16.6597742],"bbox":[-9.7778808,16.4997742,-9.4578808,16.8197742]}
{"name":"Akjoujt أكجوجت","other_names":{"name:ar":"أكجوجت","name:de":"Akdschudscht","name:en":"Akjoujt","name:fr":"Akjoujt","name:pl":"Akdżawadżat","name:ru":"Акжужт","alt_name":"Akjout;Fort Repoux;Akjoujt","old_name":"Fort Repoux","alt_name:en":"Akjujat"},"display_name":"Akjoujt أكجوجت, Inchiri إينشيري, Mauritanie موريتانيا","address":{"city":"Akjoujt أكجوجت","state":"Inchiri إينشيري","ISO3166-2-lvl4":"MR-12","country":"Mauritanie موريتانيا","country_code":"mr"},"population":11235,"osm_type":"node","osm_id":1505634228,"type":"city","location":[-14.3855238,19.7435804],"bbox":[-14.5455238,19.5835804,-14.2255238,19.9035804]}
{"name":"Aleg ألاك","other_names":{"name:ar":"ألاك","name:de":"Alak","name:en":"Aleg","name:es":"Aleg","name:et":"Aleg","name:fr":"Aleg","name:ko":"알레그","name:pl":"Alak","name:ru":"Алег","alt_name":"Alaq;Aleg","int_name":"Alak","name:kab":"Alag","alt_name:en":"Alak"},"display_name":"Aleg ألاك, Brakna البراكنة, Mauritanie موريتانيا","address":{"city":"Aleg ألاك","state":"Brakna البراكنة","ISO3166-2-lvl4":"MR-05","country":"Mauritanie موريتانيا","country_code":"mr"},"osm_type":"node","osm_id":330457384,"type":"city","location":[-13.9152949,17.0527177],"bbox":[-14.0752949,16.8927177,-13.7552949,17.2127177]}
{"name":"Aoujeft اوجفت","other_names":{"name:ar":"اوجفت","name:en":"Aoujeft","name:fr":"Aoujeft","alt_name":"Oujeft"},"display_name":"Aoujeft اوجفت, Adrar أدرار, Mauritanie موريتانيا","address":{"city":"Aoujeft اوجفت","state":"Adrar أدرار","ISO3166-2-lvl4":"MR-07","country":"Mauritanie موريتانيا","country_code":"mr"},"osm_type":"node","osm_id":3794447023,"type":"city","location":[-13.0547635,20.0260444],"bbox":[-13.2147635,19.8660444,-12.8947635,20.1860444]}
{"name":"Atar أطار","other_names":{"name:ar":"أطار","name:de":"Atar","name:en":"Atar","name:es":"Atar","name:et":"Atâr","name:fr":"Atar","name:hu":"Atar","name:ja":"アタール","name:ko":"아타르","name:pl":"Atar","name:ru":"Атар","alt_name":"Atâr;Atar","int_name":"Atar","name:ber":"ⴰⵟⴰⵔ","name:zgh":"ⴰⵟⴰⵔ"},"display_name":"Atar أطار, Adrar أدرار, Mauritanie موريتانيا","address":{"city":"Atar أطار","state":"Adrar أدرار","ISO3166-2-lvl4":"MR-07","country":"Mauritanie موريتانيا","country_code":"mr"},"population":32262,"osm_type":"node","osm_id":330511654,"type":"city","location":[-13.0543928,20.5181943],"bbox":[-13.2143928,20.3581943,-12.8943928,20.6781943]}
{"name":"Bababé بابابى","other_names":{"name:ar":"بابابى","name:en":"Bababé","name:fr":"Bababé","alt_name":"Bababe;Bababé","alt_name:en":"Bababe"},"display_name":"Bababé بابابى, Brakna البراكنة, Mauritanie موريتانيا","address":{"city":"Bababé بابابى","state":"Brakna البراكنة","ISO3166-2-lvl4":"MR-05","country":"Mauritanie موريتانيا","country_code":"mr"},"population":11802,"osm_type":"node","osm_id":3648726686,"type":"city","location":[-13.948088,16.3406075],"bbox":[-14.108088,16.1806075,-13.788088,16.5006075]}
{"name":"Bassikounou باسكنو","other_names":{"name:ar":"باسكنو","name:en":"Bassiknou","name:fr":"Bassikounou","alt_name":"Bacikounou;Bassikounou","alt_name:ar":"بسّكونو","alt_name:en":"Bassikounou"},"display_name":"Bassikounou باسكنو, Hodh Ech Chargui الحوض الشرقي, Mauritanie موريتانيا","address":{"city":"Bassikounou باسكنو","state":"Hodh Ech Chargui الحوض الشرقي","ISO3166-2-lvl4":"MR-01","country":"Mauritanie موريتانيا","country_code":"mr"},"osm_type":"node","osm_id":2118834489,"type":"city","location":[-5.9488454,15.8649341],"bbox":[-6.1088454,15.7049341,-5.7888454,16.0249341]}
{"name":"Boghé بوغي","other_names":{"name:ar":"بوغي","name:en":"Bogué","name:fr":"Boghé","name:ur":"بوغی","alt_name":"بوكى;بوكي;Bogue;Bogué Dow;Bogue Dow;Boghé;Boghe;Bogué","alt_name:ar":"بوكى;بوكي","alt_name:en":"Buqah;Bogue"},"display_name":"Boghé بوغي, Brakna البراكنة, Mauritanie موريتانيا","address":{"city":"Boghé بوغي","state":"Brakna البراكنة","ISO3166-2-lvl4":"MR-05","country":"Mauritanie موريتانيا","country_code":"mr"},"population":49089,"osm_type":"node","osm_id":330463327,"type":"city","location":[-14.2596029,16.595775],"bbox":[-14.4196029,16.435775,-14.0996029,16.755775]}
{"name":"Boûmdeïd بومديد","other_names":{"name:ar":"بومديد","name:de":"Boumdeid","name:en":"Boumdeid","name:es":"Boumdeid","name:fr":"Boûmdeïd","alt_name":"Boumdeït;Boumdeit;Boumeid"},"display_name":"Boûmdeïd بومديد, Assaba العصابة, Mauritanie موريتانيا","address":{"city":"Boûmdeïd بومديد","state":"Assaba العصابة","ISO3166-2-lvl4":"MR-03","country":"Mauritanie موريتانيا","country_code":"mr"},"osm_type":"node","osm_id":7734401381,"type":"city","location":[-11.3405202,17.4636999],"bbox":[-11.5005202,17.3036999,-11.1805202,17.6236999]}
{"name":"Boutilimit بوتلميت","other_names":{"name:ar":"بوتلميت","name:ca":"Boutilimit","name:de":"Boutilimit","name:en":"Boutilimit","name:eo":"Boutilimit","name:es":"Boutilimit","name:fi":"Boutilimit","name:fr":"Boutilimit","name:it":"Boutilimit","name:ja":"ブチリミト","name:lt":"Butilimitas","name:ms":"Boutilimit","name:nl":"Boutilimit","name:pl":"Bu Tilimit","name:ro":"Boutilimit","name:ru":"Бутилимит","name:sv":"Boutilimit","name:tr":"Boutilimit","name:zh":"布提利米特","alt_name":"Boutillmit;Boutilimit","name:kab":"Bu Tilimit","alt_name:ar":"بوتلمت"},"display_name":"Boutilimit بوتلميت, Trarza الترارزة, Mauritanie موريتانيا","address":{"city":"Boutilimit بوتلميت","state":"Trarza الترارزة","ISO3166-2-lvl4":"MR-06","country":"Mauritanie موريتانيا","country_code":"mr"},"population":30000,"osm_type":"node","osm_id":560607680,"type":"city","location":[-14.6964911,17.5488614],"bbox":[-14.8564911,17.3888614,-14.5364911,17.7088614]}
{"name":"Chinguetti شنقيط","other_names":{"name:ar":"شنقيط","name:de":"Chingueti","name:en":"Chinguetti","name:es":"Chingueti","name:fa":"شنقیط","name:fr":"Chinguetti","name:ja":"シンゲッティ","name:ka":"შინგეტი","name:kk":"Шингетти","name:ks":"شنقیط","name:ne":"चिङ्गुएति","name:ru":"Шингетти","name:uk":"Шингетті","name:ur":"شنقیط","name:arz":"شنقيط","name:azb":"شنقیط","name:kab":"Cengiṭ"},"display_name":"Chinguetti شنقيط, Adrar أدرار, Mauritanie موريتانيا","address":{"city":"Chinguetti شنقيط","state":"Adrar أدرار","ISO3166-2-lvl4":"MR-07","country":"Mauritanie موريتانيا","country_code":"mr"},"population":4711,"osm_type":"node","osm_id":330514595,"type":"city","location":[-12.3664837,20.4634336],"bbox":[-12.5264837,20.3034336,-12.2064837,20.6234336]}
{"name":"Djiguenni جيكني","other_names":{"name:ar":"جيكني","name:en":"Djiguenni","name:fr":"Djiguenni","alt_name":"Djigeni;Djiguéni;Djigueni;Djigéni","alt_name:en":"Djigeni"},"display_name":"Djiguenni جيكني, Hodh Ech Chargui الحوض الشرقي, Mauritanie موريتانيا","address":{"city":"Djiguenni جيكني","state":"Hodh Ech Chargui الحوض الشرقي","ISO3166-2-lvl4":"MR-01","country":"Mauritanie موريتانيا","country_code":"mr"},"osm_type":"node","osm_id":4533708588,"type":"city","location":[-8.6657412,15.7334621],"bbox":[-8.8257412,15.5734621,-8.5057412,15.8934621]}
{"name":"Guérou كرو","other_names":{"name:ar":"كرو","name:en":"Guerou","name:fr":"Guérou","alt_name":"Guerou;Guérou"},"display_name":"Guérou كرو, Assaba العصابة, Mauritanie موريتانيا","address":{"city":"Guérou كرو","state":"Assaba العصابة","ISO3166-2-lvl4":"MR-03","country":"Mauritanie موريتانيا","country_code":"mr"},"osm_type":"node","osm_id":4517568586,"type":"city","location":[-11.8387565,16.8300923],"bbox":[-11.9987565,16.6700923,-11.6787565,16.9900923]}
{"name":"Kaédi كيهيدي","other_names":{"name:ar":"كيهيدي","name:de":"Kaihaidi","name:en":"Kaédi","name:fr":"Kaédi","name:pl":"Kajhajdi","name:ru":"Каэди","alt_name":"Kaedi;Kaédi","int_name":"Kaédi","name:kab":"Kahidi","alt_name:ar":"كهيدي","alt_name:en":"Kayhaydi"},"display_name":"Kaédi كيهيدي, Gorgol كوركول, Mauritanie موريتانيا","address":{"city":"Kaédi كيهيدي","state":"Gorgol كوركول","ISO3166-2-lvl4":"MR-04","country":"Mauritanie موريتانيا","country_code":"mr"},"osm_type":"node","osm_id":277741361,"type":"city","location":[-13.5039868,16.1523684],"bbox":[-13.6639868,15.9923684,-13.3439868,16.3123684]}
{"name":"Kankossa كنكوصه","other_names":{"name:ar":"كنكوصه","name:en":"Kankossa","name:es":"Kankossa","name:fr":"Kankossa","alt_name":"Kankossa","alt_name:ar":"كنكوسّ"},"display_name":"Kankossa كنكوصه, Assaba العصابة, Mauritanie موريتانيا","address":{"city":"Kankossa كنكوصه","state":"Assaba العصابة","ISO3166-2-lvl4":"MR-03","country":"Mauritanie موريتانيا","country_code":"mr"},"osm_type":"node","osm_id":2135500602,"type":"city","location":[-11.5238602,15.9297509],"bbox":[-11.6838602,15.7697509,-11.3638602,16.0897509]}
{"name":"Keur Macène كرمسين","other_names":{"name:ar":"كرمسين","name:en":"Keur-Macene","name:fr":"Keur Macène","alt_name":"KeurMassene;KeurMacene;KeurMassène;Keur Massene;Keur Macene;Keur Massène","official_name":"بلدية كرمسين","official_name:ar":"بلدية كرمسين"},"display_name":"Keur Macène كرمسين, Trarza الترارزة, Mauritanie موريتانيا","address":{"city":"Keur Macène كرمسين","state":"Trarza الترارزة","ISO3166-2-lvl4":"MR-06","country":"Mauritanie موريتانيا","country_code":"mr"},"population":39441,"osm_type":"node","osm_id":4462901614,"type":"city","location":[-16.2353267,16.5549676],"bbox":[-16.3953267,16.3949676,-16.0753267,16.7149676]}
{"name":"Kiffa كيفة","other_names":{"name:ar":"كيفة","name:de":"Kiffa","name:en":"Kiffa","name:es":"Kifa","name:et":"Kifa","name:fr":"Kiffa","name:ko":"키파","name:pl":"Kifa","name:ru":"Киффа","alt_name":"Kîfa;Kifa;Kiffa","name:kab":"Kifa","alt_name:en":"Kifah"},"display_name":"Kiffa كيفة, Assaba العصابة, Mauritanie موريتانيا","address":{"city":"Kiffa كيفة","state":"Assaba العصابة","ISO3166-2-lvl4":"MR-03","country":"Mauritanie موريتانيا","country_code":"mr"},"population":60005,"osm_type":"node","osm_id":330423418,"type":"city","location":[-11.4002038,16.6161559],"bbox":[-11.5602038,16.4561559,-11.2402038,16.7761559]}
{"name":"Kobenni كوباني","other_names":{"name:ar":"كوباني","name:en":"Kubanni","name:fr":"Kobenni"},"display_name":"Kobenni كوباني, Hodh El Gharbi الحوض الغربي, Mauritanie موريتانيا","address":{"city":"Kobenni كوباني","state":"Hodh El Gharbi الحوض الغربي","ISO3166-2-lvl4":"MR-02","country":"Mauritanie موريتانيا","country_code":"mr"},"osm_type":"node","osm_id":803713989,"type":"city","location":[-9.4161525,15.822645],"bbox":[-9.5761525,15.662645,-9.2561525,15.982645]}
{"name":"M'Bagne امباني","other_names":{"name:ar":"امباني","name:en":"Mbagne","name:fr":"M'Bagne","alt_name":"Mbagne"},"display_name":"M'Bagne امباني, Brakna البراكنة, Mauritanie موريتانيا","address":{"city":"M'Bagne امباني","state":"Brakna البراكنة","ISO3166-2-lvl4":"MR-05","country":"Mauritanie موريتانيا","country_code":"mr"},"population":10383,"osm_type":"node","osm_id":1990547260,"type":"city","location":[-13.7871497,16.1483748],"bbox":[-13.9471497,15.9883748,-13.6271497,16.3083748]}
{"name":"M'Bout امبوت","other_names":{"name:ar":"امبوت","name:en":"Mbout","name:fr":"M'Bout","alt_name":"Mbout","alt_name:ar":"مبوت"},"display_name":"M'Bout امبوت, Gorgol كوركول, Mauritanie موريتانيا","address":{"city":"M'Bout امبوت","state":"Gorgol كوركول","ISO3166-2-lvl4":"MR-04","country":"Mauritanie موريتانيا","country_code":"mr"},"osm_type":"node","osm_id":2418777548,"type":"city","location":[-12.5797203,16.0224777],"bbox":[-12.7397203,15.8624777,-12.4197203,16.1824777]}
{"name":"Maghama مغامة","other_names":{"name:ar":"مغامة","name:fr":"Maghama","alt_name":"Magama;Maghama","alt_name:ar":"مغم"},"display_name":"Maghama مغامة, Gorgol كوركول, Mauritanie موريتانيا","address":{"city":"Maghama مغامة","state":"Gorgol كوركول","ISO3166-2-lvl4":"MR-04","country":"Mauritanie موريتانيا","country_code":"mr"},"osm_type":"node","osm_id":3138762814,"type":"city","location":[-12.8502902,15.5101724],"bbox":[-13.0102902,15.3501724,-12.6902902,15.6701724]}
{"name":"Magta-Lahjar مقطع الحجار","other_names":{"name:ar":"مقطع الحجار","name:en":"Magta-Lahjar","name:fr":"Magta-Lahjar","alt_name":"Magta` Lahjar;Magta-lahjar;Magṭa‘ Laḥjar","alt_name:en":"Magta` Lahjar"},"display_name":"Magta-Lahjar مقطع الحجار, Brakna البراكنة, Mauritanie موريتانيا","address":{"city":"Magta-Lahjar مقطع الحجار","state":"Brakna البراكنة","ISO3166-2-lvl4":"MR-05","country":"Mauritanie موريتانيا","country_code":"mr"},"population":12117,"osm_type":"node","osm_id":4456725743,"type":"city","location":[-13.0927887,17.5127405],"bbox":[-13.2527887,17.3527405,-12.9327887,17.6727405]}
{"name":"Mederdra المذرذرة","other_names":{"name:ar":"المذرذرة","name:en":"Mederdra","name:es":"Mederdra","name:fr":"Mederdra"},"display_name":"Mederdra المذرذرة, Trarza الترارزة, Mauritanie موريتانيا","address":{"city":"Mederdra المذرذرة","state":"Trarza الترارزة","ISO3166-2-lvl4":"MR-06","country":"Mauritanie موريتانيا","country_code":"mr"},"osm_type":"node","osm_id":2099646206,"type":"city","location":[-15.6601304,16.9199893],"bbox":[-15.8201304,16.7599893,-15.5001304,17.0799893]}
{"name":"Monguel مونكل","other_names":{"name:ar":"مونكل","name:en":"Monguel Toulde","name:fr":"Monguel","alt_name":"Monguel Toulde;Monguel Toundé;Monguel Tounde;Mônguel Touldé"},"display_name":"Monguel مونكل, Gorgol كوركول, Mauritanie موريتانيا","address":{"city":"Monguel مونكل","state":"Gorgol كوركول","ISO3166-2-lvl4":"MR-04","country":"Mauritanie موريتانيا","country_code":"mr"},"osm_type":"node","osm_id":6609862527,"type":"city","location":[-13.1359578,16.4105634],"bbox":[-13.2959578,16.2505634,-12.9759578,16.5705634]}
{"name":"Moudjéria مودجيريا","other_names":{"name:ar":"مودجيريا","name:en":"Moudjeria","name:fr":"Moudjéria","alt_name":"Moudjéria","alt_name:fr":"Moudjeria"},"display_name":"Moudjéria مودجيريا, Tagant تكانت, Mauritanie موريتانيا","address":{"city":"Moudjéria مودجيريا","state":"Tagant تكانت","ISO3166-2-lvl4":"MR-09","country":"Mauritanie موريتانيا","country_code":"mr"},"osm_type":"node","osm_id":424954170,"type":"city","location":[-12.3321238,17.8787994],"bbox":[-12.4921238,17.7187994,-12.1721238,18.0387994]}
{"name":"Néma النعمة","other_names":{"name:ar":"النعمة","name:be":"Нема","name:de":"Néma","name:en":"Néma","name:es":"Néma","name:fa":"النعمه","name:fr":"Néma","name:pl":"An-Nama","name:ru":"Нема","name:uk":"Нема","name:ur":"نعمہ","alt_name":"Nema;En Na‘ma;En Na`ma;Néma;An Na`mah;An-N'ama","name:kab":"Neɛma"},"display_name":"Néma النعمة, Hodh Ech Chargui الحوض الشرقي, Mauritanie موريتانيا","address":{"city":"Néma النعمة","state":"Hodh Ech Chargui الحوض الشرقي","ISO3166-2-lvl4":"MR-01","country":"Mauritanie موريتانيا","country_code":"mr"},"osm_type":"node","osm_id":2134804674,"type":"city","location":[-7.2663798,16.6173344],"bbox":[-7.4263798,16.4573344,-7.1063798,16.7773344]}
{"name":"Nouadhibou نواذيبو","other_names":{"name:af":"Nouadhibou","name:ar":"نواذيبو","name:az":"Nuadibu","name:be":"Нуадзібу","name:br":"Nouadhibou","name:ca":"Nouadhibou","name:cs":"Nuadhibú","name:cy":"Nouadhibou","name:da":"Nouadhibou","name:de":"Nouadhibou","name:el":"Νουαντίμπου","name:en":"Nouadhibou","name:eo":"Nuadibu","name:es":"Nuadibú","name:et":"Nouâdhibou","name:eu":"Nuadhibu","name:fa":"نواذیبو","name:fi":"Nouadhibou","name:fr":"Nouadhibou","name:gn":"Nuandivu","name:he":"נואדיבו","name:hr":"Nouadhibou","name:ia":"Nouadhibou","name:id":"Nouadhibou","name:ie":"Nouadhibou","name:it":"Nouadhibou","name:ja":"ヌアディブ","name:kk":"Нуадибу","name:ko":"누아디부","name:ks":"نواذیبو","name:la":"Nouadhibou","name:lt":"Nuadibu","name:lv":"Nuadibu","name:mk":"Нуадибу","name:ms":"Nouadhibou","name:nb":"Nouâdhibou","name:nl":"Nouadhibou","name:pl":"Nawazibu","name:pt":"Nuadibu","name:ro":"Nouadhibou","name:ru":"Нуадибу","name:sr":"Нуадибу","name:sv":"Nouadhibou","name:sw":"Nouadhibou","name:th":"นาอาดีบู","name:tr":"Nouadhibou","name:uk":"Нуадібу","name:ur":"نواذیبو","name:vi":"Nouadhibou","name:zh":"努瓦迪布","alt_name":"انواذيبو;نواديبو;أنواذيبو","name:azb":"نواذیبو","name:ber":"ⵏⵡⴰⴷⵉⴱⵓ","name:kab":"Nwadibu","name:pnb":"نواذيبو","name:zgh":"ⵏⵡⴰⴷⵉⴱⵓ","old_name":"بور إيتيان","alt_name:ar":"انواذيبو;نواديبو;أنواذيبو","alt_name:en":"Nuwadhibu;Nuadibu","old_name:ar":"بور إيتيان","old_name:fr":"Port-Étienne","name:kk-Arab":"نۋادىيبۋ","name:kab-Arab":"نواذيبو"},"display_name":"Nouadhibou نواذيبو, Dakhlet Nouadhibou ولاية داخلة نواذيبو, Mauritanie موريتانيا","address":{"city":"Nouadhibou نواذيبو","state":"Dakhlet Nouadhibou ولاية داخلة نواذيبو","ISO3166-2-lvl4":"MR-08","country":"Mauritanie موريتانيا","country_code":"mr"},"population":85953,"osm_type":"node","osm_id":249165824,"type":"city","location":[-17.0503094,20.9127045],"bbox":[-17.2103094,20.7527045,-16.8903094,21.0727045],"border":{"name":"Nouadhibou نواذيبو","other_names":{"name:af":"Nouadhibou","name:ar":"نواذيبو","name:az":"Nuadibu","name:be":"Нуадзібу","name:br":"Nouadhibou","name:ca":"Nouadhibou","name:cs":"Nuadhibú","name:cy":"Nouadhibou","name:da":"Nouadhibou","name:de":"Nouadhibou","name:el":"Νουαντίμπου","name:en":"Nouadhibou","name:eo":"Nuadibu","name:es":"Nuadibú","name:eu":"Nuadhibu","name:fa":"نواذیبو","name:fi":"Nouadhibou","name:fr":"Nouadhibou","name:gn":"Nuandivu","name:he":"נואדיבו","name:hr":"Nouadhibou","name:ia":"Nouadhibou","name:id":"Nouadhibou","name:ie":"Nouadhibou","name:it":"Nouadhibou","name:ja":"ヌアディブ","name:kk":"Нуадибу","name:ko":"누아디부","name:ks":"نواذیبو","name:la":"Nouadhibou","name:lt":"Nuadibu","name:lv":"Nuadibu","name:mk":"Нуадибу","name:ms":"Nouadhibou","name:nb":"Nouâdhibou","name:nl":"Nouadhibou","name:pl":"Nawazibu","name:pt":"Nuadibu","name:ro":"Nouadhibou","name:ru":"Нуадибу","name:sr":"Нуадибу","name:sv":"Nouadhibou","name:sw":"Nouadhibou","name:th":"นาอาดีบู","name:tr":"Nouadhibou","name:uk":"Нуадібу","name:ur":"نواذیبو","name:vi":"Nouadhibou","name:zh":"努瓦迪布","name:azb":"نواذیبو","name:ber":"ⵏⵡⴰⴷⵉⴱⵓ","name:kab":"Nwadibu","name:pnb":"نواذيبو","old_name":"Port-Étienne","old_name:ar":"بور إيتيان","old_name:fr":"Port-Étienne","name:kk-Arab":"نۋادىيبۋ","name:kab-Arab":"نواذيبو","name:et":"Nouâdhibou","alt_name":"انواذيبو;نواديبو;أنواذيبو","name:zgh":"ⵏⵡⴰⴷⵉⴱⵓ","_place_old_name":"بور إيتيان","alt_name:ar":"انواذيبو;نواديبو;أنواذيبو","alt_name:en":"Nuwadhibu;Nuadibu"},"display_name":"Nouadhibou نواذيبو, Dakhlet Nouadhibou ولاية داخلة نواذيبو, Mauritanie موريتانيا","address":{"city":"Nouadhibou نواذيبو","state":"Dakhlet Nouadhibou ولاية داخلة نواذيبو","ISO3166-2-lvl4":"MR-08","country":"Mauritanie موريتانيا","country_code":"mr"},"population":85953,"osm_type":"way","osm_id":251320379,"type":"administrative","location":[-17.0503094,20.9127045],"bbox":[-17.0593356,20.9058748,-17.0155598,21.0037799]}}
{"name":"Nouakchott نواكشوط","other_names":{"name:am":"ኑዋክሾት","name:ar":"نواكشوط","name:az":"Nuakşot","name:be":"Нуакшот","name:bg":"Нуакшот","name:bn":"নুওয়াকশুত","name:bo":"ནའུ་ཀ་ཅོ་ཊི།","name:br":"Nouakchott","name:ca":"Nouakchott","name:cs":"Nuakšott","name:da":"Nouakchott","name:de":"Nouakchott","name:el":"Νουακσότ","name:en":"Nouakchott","name:eo":"Nuakŝoto","name:es":"Nuakchot","name:et":"Nouakchott","name:eu":"Nuakchot","name:fa":"نوآکشوت","name:fi":"Nouakchott","name:fr":"Nouakchott","name:he":"נואקשוט","name:hr":"Nouakchott","name:ht":"Nouakchot","name:hu":"Nouakchott","name:hy":"Նուակշոտ","name:is":"Núaksjott","name:it":"Nouakchott","name:ja":"ヌアクショット","name:ka":"ნუაქშოტი","name:kk":"Нуакшот қаласы","name:ko":"누악쇼트","name:ks":"نواکشوط","name:ku":"Nûakşot","name:ky":"Нуакшот","name:lt":"Nuakšotas","name:lv":"Nuakšota","name:mk":"Нуакшот","name:ml":"നൌവാക്ക്ച്ചോട്ട്","name:mr":"नवाकसुत","name:nl":"Nouakchott","name:no":"Nouakchott","name:oc":"Nuakshut","name:pa":"ਨੁਆਕਚੋਤ","name:pl":"Nawakszut","name:ps":"نواکشوت","name:pt":"Nuaquexote","name:ru":"Нуакшот","name:sk":"Nouakchott","name:so":"Nawakshot","name:sr":"Нуакшот","name:sv":"Nouakchott","name:ta":"நவாக்சோட்","name:tg":"Нуакшот","name:th":"นูแอกชอต","name:tr":"Nuakşot","name:uk":"Нуакшот","name:ur":"نواکشوط","name:vi":"Nouakchott","name:vo":"Nävakjut","name:zh":"努瓦克肖特","alt_name":"Nouakchot;Nouakchat","name:arc":"ܢܘܐܟܫܘܛ","name:ast":"Nuakxot","name:azb":"نواكشوط","name:ber":"ⵏⵡⴰⴽⵛⵓⵟ","name:ckb":"نواکشۆت","name:grc":"Ναυαξούτη","name:kab":"Nwaqcuṭ","name:mrj":"Нуакшот","name:nov":"Nouakchot","name:pnb":"نوواکوٹ","name:syc":"ܢܘܐܟܫܘܛ","name:udm":"Нуакшот","name:yue":"或索","alt_name:ar":"انواكشوط;أنواكشوط","alt_name:de":"Nawakschut","alt_name:en":"Nuwakshut","name:az-Arab":"نواكشوط","name:kk-Arab":"نۋاكشوت","name:be-tarask":"Нуакшот"},"display_name":"Nouakchott نواكشوط, Tevragh Zein, Nouakchott Ouest نواكشوط الغربية, Mauritanie موريتانيا","address":{"city":"Nouakchott نواكشوط","county":"Tevragh Zein","state":"Nouakchott Ouest نواكشوط الغربية","ISO3166-2-lvl4":"MR-13","country":"Mauritanie موريتانيا","country_code":"mr"},"population":958399,"osm_type":"node","osm_id":249166495,"type":"city","location":[-15.9780071,18.0792379],"bbox":[-16.1380071,17.9192379,-15.8180071,18.2392379]}
{"name":"Ouad Naga وادي الناقة","other_names":{"name:ar":"وادي الناقة","name:de":"Wadi an-Naqa","name:en":"Wadi an-Naqa","name:fr":"Ouad Naga","alt_name:ar":"واد الناقة"},"display_name":"Ouad Naga وادي الناقة, Trarza الترارزة, Mauritanie موريتانيا","address":{"city":"Ouad Naga وادي الناقة","state":"Trarza الترارزة","ISO3166-2-lvl4":"MR-06","country":"Mauritanie موريتانيا","country_code":"mr"},"population":35735,"osm_type":"node","osm_id":4514383551,"type":"city","location":[-15.5187897,17.9659462],"bbox":[-15.6787897,17.8059462,-15.3587897,18.1259462]}
{"name":"Ouadane وادان","other_names":{"name:ar":"وادان","name:en":"Ouadane","name:fr":"Ouadane","name:hu":"Ouadane","name:pl":"Wadan","alt_name":"Ouadane;Oudane;Ouadâne","int_name":"Ouadane"},"display_name":"Ouadane وادان, Adrar أدرار, Mauritanie موريتانيا","address":{"city":"Ouadane وادان","state":"Adrar أدرار","ISO3166-2-lvl4":"MR-07","country":"Mauritanie موريتانيا","country_code":"mr"},"population":3695,"osm_type":"node","osm_id":330513843,"type":"city","location":[-11.6173738,20.9337256],"bbox":[-11.7773738,20.7737256,-11.4573738,21.0937256]}
{"name":"Oualata ولاتة","other_names":{"name:ar":"ولاتة","name:en":"Walatah","name:fr":"Oualata","alt_name":"ولاته;Oualata;Walata;Ualata;Oualâta","name:kab":"Iwalaten","alt_name:ar":"ولاته;ولت","alt_name:en":"Oualata"},"display_name":"Oualata ولاتة, Hodh Ech Chargui الحوض الشرقي, Mauritanie موريتانيا","address":{"city":"Oualata ولاتة","state":"Hodh Ech Chargui الحوض الشرقي","ISO3166-2-lvl4":"MR-01","country":"Mauritanie موريتانيا","country_code":"mr"},"osm_type":"node","osm_id":2382426683,"type":"city","location":[-7.0258082,17.3004736],"bbox":[-7.1858082,17.1404736,-6.8658082,17.4604736]}
{"name":"R'Kiz اركيز","other_names":{"name:ar":"اركيز","name:en":"R' Kiz","name:fr":"R'Kiz","alt_name":"Rkiz"},"display_name":"R'Kiz اركيز, Trarza الترارزة, Mauritanie موريتانيا","address":{"city":"R'Kiz اركيز","state":"Trarza الترارزة","ISO3166-2-lvl4":"MR-06","country":"Mauritanie موريتانيا","country_code":"mr"},"population":10688,"osm_type":"node","osm_id":2099659530,"type":"city","location":[-15.2355732,16.920138],"bbox":[-15.3955732,16.760138,-15.0755732,17.080138]}
{"name":"Rosso روصو","other_names":{"name:ar":"روصو","name:de":"Russu","name:en":"Rosso","name:fa":"روسو","name:fr":"Rosso","name:it":"Rosso","name:ks":"روصو","name:pl":"Rosso","name:ru":"Росо","name:ur":"روصو","alt_name":"القوارب;Roco;Rosso","name:azb":"روسو","name:kab":"Ruṣu","name:pnb":"روصو","alt_name:ar":"القوارب","alt_name:en":"Rusu"},"display_name":"Rosso روصو, Trarza الترارزة, Mauritanie موريتانيا","address":{"city":"Rosso روصو","state":"Trarza الترارزة","ISO3166-2-lvl4":"MR-06","country":"Mauritanie موريتانيا","country_code":"mr"},"population":75617,"osm_type":"node","osm_id":277741100,"type":"city","location":[-15.8099665,16.5132493],"bbox":[-15.9699665,16.3532493,-15.6499665,16.6732493]}
{"name":"Sélibabi سيليبابي","other_names":{"name:ar":"سيليبابي","name:de":"Silibabi","name:es":"Sélibaby","name:fr":"Sélibabi","name:pl":"Silibabi","name:ru":"Селибаби","alt_name":"Selibaby;Sélibabi;Selibabi;Sélibaby","alt_name:ar":"سيلبابي"},"display_name":"Sélibabi سيليبابي, Guidimaka غيديماغا, Mauritanie موريتانيا","address":{"city":"Sélibabi سيليبابي","state":"Guidimaka غيديماغا","ISO3166-2-lvl4":"MR-10","country":"Mauritanie موريتانيا","country_code":"mr"},"osm_type":"node","osm_id":2651917474,"type":"city","location":[-12.1847821,15.1579884],"bbox":[-12.3447821,14.9979884,-12.0247821,15.3179884]}
{"name":"Tamchekett تامشكط","other_names":{"name:ar":"تامشكط","name:en":"Tamchekett","name:fr":"Tamchekett","alt_name":"Tâmchekket;Tamchekket","alt_name:fr":"Tamchaket;Tamchakett"},"display_name":"Tamchekett تامشكط, Hodh El Gharbi الحوض الغربي, Mauritanie موريتانيا","address":{"city":"Tamchekett تامشكط","state":"Hodh El Gharbi الحوض الغربي","ISO3166-2-lvl4":"MR-02","country":"Mauritanie موريتانيا","country_code":"mr"},"osm_type":"node","osm_id":4518971335,"type":"city","location":[-10.6693431,17.2449381],"bbox":[-10.8293431,17.0849381,-10.5093431,17.4049381]}
{"name":"Tichitt تيشيت","other_names":{"name:ar":"تيشيت","name:ca":"Tichit","name:da":"Tichitt","name:de":"Tichitt","name:en":"Tichit","name:es":"Tichit","name:eu":"Tichit","name:fa":"تیشیت","name:fi":"Tichitt","name:fr":"Tichitt","name:he":"תישית","name:hi":"तिशित","name:it":"Tichitt","name:ja":"ティシット","name:ka":"ტიშიტი","name:lt":"Tišitas","name:ms":"Tichit","name:ne":"तिचित","name:nl":"Tichitt","name:no":"Tichitt","name:pl":"Tiszit","name:ro":"Tichitt","name:ur":"تیشیت","alt_name":"Tichit;Tichitt;Tishit;Tîchît","name:ast":"Tichit","name:avk":"Tichitt","name:kab":"Ticcit","alt_name:ar":"تشت"},"display_name":"Tichitt تيشيت, Tagant تكانت, Mauritanie موريتانيا","address":{"city":"Tichitt تيشيت","state":"Tagant تكانت","ISO3166-2-lvl4":"MR-09","country":"Mauritanie موريتانيا","country_code":"mr"},"osm_type":"node","osm_id":2382418992,"type":"city","location":[-9.493115,18.444062],"bbox":[-9.653115,18.284062,-9.333115,18.604062]}
{"name":"Tidjikja تجكجة","other_names":{"name:ar":"تجكجة","name:fr":"Tidjikja","alt_name":"Fort Cappolani;Tijikja;Tidjikdja;Tidjikja","name:kab":"Tijikja","alt_name:en":"Tijikjah"},"display_name":"Tidjikja تجكجة, Tagant تكانت, Mauritanie موريتانيا","address":{"city":"Tidjikja تجكجة","state":"Tagant تكانت","ISO3166-2-lvl4":"MR-09","country":"Mauritanie موريتانيا","country_code":"mr"},"population":18586,"osm_type":"node","osm_id":2651917475,"type":"city","location":[-11.4325834,18.5545158],"bbox":[-11.5925834,18.3945158,-11.2725834,18.7145158]}
{"name":"Timbedra تمبدغة","other_names":{"name:ar":"تمبدغة","name:en":"Timbedra","name:fr":"Timbedra","alt_name":"Timbedgha;Tembedra","name:kab":"Timbedɣa","alt_name:en":"Timbedgha","alt_name:fr":"Timébédra;Timebedra;Timbédra;Timbedra;Timbedgha"},"display_name":"Timbedra تمبدغة, Hodh Ech Chargui الحوض الشرقي, Mauritanie موريتانيا","address":{"city":"Timbedra تمبدغة","state":"Hodh Ech Chargui الحوض الشرقي","ISO3166-2-lvl4":"MR-01","country":"Mauritanie موريتانيا","country_code":"mr"},"osm_type":"node","osm_id":1994976606,"type":"city","location":[-8.1643866,16.2432075],"bbox":[-8.3243866,16.0832075,-8.0043866,16.4032075]}
{"name":"Tintane طينطان","other_names":{"name:ar":"طينطان","name:en":"Tintane","name:fr":"Tintane","alt_name":"Tintane;Ṭinṭâne"},"display_name":"Tintane طينطان, Hodh El Gharbi الحوض الغربي, Mauritanie موريتانيا","address":{"city":"Tintane طينطان","state":"Hodh El Gharbi الحوض الغربي","ISO3166-2-lvl4":"MR-02","country":"Mauritanie موريتانيا","country_code":"mr"},"osm_type":"node","osm_id":4478959562,"type":"city","location":[-10.1673276,16.3954331],"bbox":[-10.3273276,16.2354331,-10.0073276,16.5554331]}
{"name":"Zouérate الزويرات","other_names":{"name:ar":"الزويرات","name:de":"Zouérat","name:en":"Zouérat","name:es":"Zuérate","name:fr":"Zouérate","name:pl":"Zuwirat","name:ru":"Зуэрат","name:zh":"祖埃拉特","alt_name":"Zouérate;Zouerat;Zouîrât;Zouirat;Zoueïratt;Zoueiratt;Zouerate","name:ber":"ⵣⵡⵉⵔⴰⵜ","name:kab":"Zwerat","name:zgh":"ⵣⵡⵉⵔⴰⵜ","alt_name:ar":"أزويرات;ازويرات","alt_name:en":"الزويرات"},"display_name":"Zouérate الزويرات, Tiris Zemmour تيرس زمور, Mauritanie موريتانيا","address":{"city":"Zouérate الزويرات","state":"Tiris Zemmour تيرس زمور","ISO3166-2-lvl4":"MR-11","country":"Mauritanie موريتانيا","country_code":"mr"},"osm_type":"node","osm_id":354872619,"type":"city","location":[-12.4664916,22.7402065],"bbox":[-12.6264916,22.5802065,-12.3064916,22.9002065]}
