{"name":"Akdepe","other_names":{"name:az":"Ağtəpə","name:en":"Akdepe","name:fa":"آق‌تپه","name:kk":"Ақтөбе","name:ru":"Акдепе","name:tg":"Оқтапа","name:tk":"Akdepe","name:tr":"Aktepe","name:uz":"Oqtepa","alt_name":"Ak-Tepe","name:azb":"آغ تپه","old_name":"Leninsk","alt_name:kk":"Ақтепе","alt_name:tr":"Akdepe","old_name:ru":"Ленинск","name:kk-Arab":"اقتوبە","name:kk-Cyrl":"Ақтөбе","name:kk-Latn":"Aqtöbe","name:tk-Arab":"آق دپه","name:uz-Arab":"آق‌تپه","name:uz-Cyrl":"Оқтепа","name:uz-Latn":"Oqtepa","alt_name:kk-Arab":"اقتەپە","alt_name:kk-Cyrl":"Ақтепе","alt_name:kk-Latn":"Aqtepe"},"display_name":"Akdepe, Akdepe etraby, Daşoguz welaýaty, Türkmenistan","address":{"city":"Akdepe","county":"Akdepe etraby","province":"Daşoguz welaýaty","ISO3166-2-lvl4":"TM-D","country":"Türkmenistan","country_code":"tm"},"osm_type":"node","osm_id":1068535304,"type":"city","location":[59.3793882,42.0547488],"bbox":[59.2193882,41.8947488,59.5393882,42.2147488],"border":{"name":"Akdepe","other_names":{"name:de":"Akdepe","name:ru":"Акдепе","name:tk":"Akdepe","alt_name":"Ak-Tepe","old_name":"Leninsk","old_name:ru":"Ленинск","name:az":"Ağtəpə","name:en":"Akdepe","name:fa":"آق‌تپه","name:kk":"Ақтөбе","name:tg":"Оқтапа","name:tr":"Aktepe","name:uz":"Oqtepa","name:azb":"آغ تپه","alt_name:kk":"Ақтепе","alt_name:tr":"Akdepe","name:kk-Arab":"اقتوبە","name:kk-Cyrl":"Ақтөбе","name:kk-Latn":"Aqtöbe","name:tk-Arab":"آق دپه","name:uz-Arab":"آق‌تپه","name:uz-Cyrl":"Оқтепа","name:uz-Latn":"Oqtepa","alt_name:kk-Arab":"اقتەپە","alt_name:kk-Cyrl":"Ақтепе","alt_name:kk-Latn":"Aqtepe"},"display_name":"Akdepe, Akdepe etraby, Daşoguz welaýaty, Türkmenistan","address":{"city":"Akdepe","county":"Akdepe etraby","province":"Daşoguz welaýaty","ISO3166-2-lvl4":"TM-D","country":"Türkmenistan","country_code":"tm"},"osm_type":"way","osm_id":274779510,"type":"administrative","location":[59.3793882,42.0547488],"bbox":[59.359791,42.032944,59.4173305,42.0679056]}}
{"name":"Altyn Asyr","other_names":{"name:ml":"ആൽതീൻ അസിർ","old_name:ru":"совхоз Теджен","old_name:tk":"sowhoz Tejen"},"display_name":"Altyn Asyr, Tejen etraby, Ahal welaýaty, Türkmenistan","address":{"city":"Altyn Asyr","county":"Tejen etraby","state":"Ahal welaýaty","ISO3166-2-lvl4":"TM-A","country":"Türkmenistan","country_code":"tm"},"osm_type":"node","osm_id":2672986894,"type":"city","location":[60.7047454,37.280453],"bbox":[60.5447454,37.120453,60.8647454,37.440453],"border":{"name":"Altyn Asyr","other_names":{"name:tk":"Altyn Asyr","old_name":"Tejen sowhozy","old_name:ru":"совхоз Теджен","name:ml":"ആൽതീൻ അസിർ","old_name:tk":"sowhoz Tejen"},"display_name":"Altyn Asyr, Tejen etraby, Ahal welaýaty, Türkmenistan","address":{"city":"Altyn Asyr","county":"Tejen etraby","state":"Ahal welaýaty","ISO3166-2-lvl4":"TM-A","country":"Türkmenistan","country_code":"tm"},"osm_type":"way","osm_id":261862786,"type":"administrative","location":[60.7047454,37.280453],"bbox":[60.6846862,37.2691328,60.7201295,37.2977776]}}
{"name":"Andalyp","other_names":{"name:fa":"عندلیب","name:ru":"Андалып","name:tg":"Андалип","name:tk":"Andalyp","name:uk":"Андалип","name:uz":"Andalib","name:tk-Arab":"عاندالیٛپ","name:uz-Arab":"عندلیب","old_name:-~1992":"Ilyaly","old_name:ru:-1992":"Ильялы","old_name:2004-2022":"Gurbansoltan Eje","old_name:~1992-2004":"Ýylanly","old_name:fa:2004-2022":"قربان‌سلطان اجه","old_name:ru:2004-2022":"Гурбансолтан-Эдже","old_name:tg:2004-2022":"Қурбонсултон-Эҷе","old_name:tk:2004-2022":"Gurbansoltan Eje","old_name:uk:2004-2022":"Ґурбансолтан-Едже","old_name:fa:~1992-2004":"ایلان‌لی","old_name:ru:~1992-2004":"Йыланлы","old_name:tg:~1992-2004":"Йиланли","old_name:tk:~1992-2004":"Ýylanly","old_name:tk-Arab:2004-2022":"قوُربان‌سلطان اجه","old_name:tk-Arab:~1992-2004":"ییٛلانلیٛ"},"display_name":"Andalyp, Akdepe etraby, Daşoguz welaýaty, Türkmenistan","address":{"city":"Andalyp","county":"Akdepe etraby","province":"Daşoguz welaýaty","ISO3166-2-lvl4":"TM-D","country":"Türkmenistan","country_code":"tm"},"population":26000,"osm_type":"node","osm_id":1106933213,"type":"city","location":[59.6357379,41.8734512],"bbox":[59.4757379,41.7134512,59.7957379,42.0334512],"border":{"name":"Andalyp","other_names":{"name:en":"Andalyp","name:ru":"Андалып","name:tk":"Andalyp","name:fa":"عندلیب","name:tg":"Андалип","name:uk":"Андалип","name:uz":"Andalib","old_name:-~1992":"Ilyaly","old_name:2004-2022":"Gurbansoltan Eje","old_name:ru:-~1992":"Ильялы","name:tk-Arab":"عاندالیٛپ","name:uz-Arab":"عندلیب","old_name:~1992-2004":"Ýylanly","old_name:ru:2004-2022":"Гурбансолтан-Эдже","old_name:tk:1992-2004":"Ýylanly","old_name:tk:2004-2022":"Gurbansoltan Eje","old_name:uk:2004-2022":"Ґурбансолтан-Едже","old_name:ru:~1992-2004":"Йыланлы","old_name:ru:-1992":"Ильялы","old_name:fa:2004-2022":"قربان‌سلطان اجه","old_name:tg:2004-2022":"Қурбонсултон-Эҷе","old_name:fa:~1992-2004":"ایلان‌لی","old_name:tg:~1992-2004":"Йиланли","old_name:tk:~1992-2004":"Ýylanly","old_name:tk-Arab:2004-2022":"قوُربان‌سلطان اجه","old_name:tk-Arab:~1992-2004":"ییٛلانلیٛ"},"display_name":"Andalyp, Akdepe etraby, Daşoguz welaýaty, Türkmenistan","address":{"city":"Andalyp","county":"Akdepe etraby","province":"Daşoguz welaýaty","ISO3166-2-lvl4":"TM-D","country":"Türkmenistan","country_code":"tm"},"population":26000,"osm_type":"way","osm_id":338294728,"type":"administrative","location":[59.6357379,41.8734512],"bbox":[59.557565,41.8434188,59.6886991,41.9021202]}}
{"name":"Änew","other_names":{"name:en":"Annau","name:fa":"آب‌نو","name:ja":"アナウ","name:ml":"ആനൗ","name:ru":"Аннау","name:tk":"Änew","name:tr":"Anav","name:uk":"Анау","name:uz":"Annau","alt_name:tk":"Annau","name:tk-Arab":"أنو","name:uz-Arab":"آننو","name:uz-Cyrl":"Аннау","name:uz-Latn":"Annau"},"display_name":"Änew, Ak bugdaý etraby, Ahal welaýaty, Türkmenistan","address":{"city":"Änew","county":"Ak bugdaý etraby","state":"Ahal welaýaty","ISO3166-2-lvl4":"TM-A","country":"Türkmenistan","country_code":"tm"},"population":9332,"osm_type":"node","osm_id":1105715588,"type":"city","location":[58.5044999,37.9021725],"bbox":[58.3444999,37.7421725,58.6644999,38.0621725],"border":{"name":"Änew","other_names":{"name:en":"Anau","name:ja":"アナウ","name:ru":"Аннау","name:tk":"Änew","name:tr":"Anav","name:uk":"Анау","alt_name":"Annau","alt_name:tk":"Annau","name:fa":"آب‌نو","name:ml":"ആനൗ","name:uz":"Annau","name:tk-Arab":"أنو","name:uz-Arab":"آننو","name:uz-Cyrl":"Аннау","name:uz-Latn":"Annau","alt:en":"Annau"},"display_name":"Änew, Ak bugdaý etraby, Ahal welaýaty, Türkmenistan","address":{"city":"Änew","county":"Ak bugdaý etraby","state":"Ahal welaýaty","ISO3166-2-lvl4":"TM-A","country":"Türkmenistan","country_code":"tm"},"population":9332,"osm_type":"way","osm_id":435131221,"type":"administrative","location":[58.5044999,37.9021725],"bbox":[58.4808485,37.8742184,58.5275851,37.9190213]}}
{"name":"Arkadag","other_names":{"name:az":"Arxadağ","name:en":"Arkadag","name:fa":"شهر آرقاداغ","name:ml":"ആർക്കാദാഗ്","name:ru":"Аркадаг","name:tg":"Орқатоғ","name:tk":"Arkadag","name:tr":"Arkadağ","name:ug":"ئارقاتاغ","name:uz":"Orqatog'","name:azb":"آرخاداع","name:tk-Arab":"آرقاداغ","name:uz-Arab":"آرقه‌تاغ","name:uz-Cyrl":"Орқатоғ","name:uz-Latn":"Orqatog'"},"display_name":"Arkadag, Arkadag şäheri, Ahal welaýaty, Türkmenistan","address":{"city":"Arkadag","state":"Ahal welaýaty","ISO3166-2-lvl4":"TM-A","country":"Türkmenistan","country_code":"tm"},"osm_type":"node","osm_id":10281667568,"type":"city","location":[58.0677654,38.0696871],"bbox":[57.9077654,37.9096871,58.2277654,38.2296871],"border":[{"name":"Arkadag şäheri","other_names":{"name:az":"Arxadağ Şəhəri","name:en":"Arkadag City","name:fa":"شهر آرقاداغ","name:ru":"город Аркатаг","name:tg":"шаҳри Орқатоғ","name:tk":"Arkadag şäheri","name:tr":"Arkadağ Şehri","name:ug":"ئارقاتاغ شەھىرى","name:uz":"Orqatog' shahri","name:azb":"آرخاداع شهری","name:tk-Arab":"آرقاداغ شأهری","name:uz-Arab":"آرقه‌تاغ شهری","name:uz-Cyrl":"Орқатоғ шаҳри","name:uz-Latn":"Orqatog' shahri","name:ml":"ആർക്കാദാഗ്","alt":"Arkadag","alt:az":"Arxadağ","alt:en":"Arkadag","alt:ru":"Аркадаг","alt:tg":"Орқатоғ","alt:tk":"Arkadag","alt:tr":"Arkadağ","alt:ug":"ئارقاتاغ","alt:uz":"Orqatog'","alt:azb":"آرخاداع","alt:tk-Arab":"آرقاداغ","alt:uz-Arab":"آرقه‌تاغ","alt:uz-Cyrl":"Орқатоғ","alt:uz-Latn":"Orqatog'"},"display_name":"Arkadag şäheri, Ahal welaýaty, 745700, Türkmenistan","address":{"city":"Arkadag şäheri","state":"Ahal welaýaty","ISO3166-2-lvl4":"TM-A","postcode":"745700","country":"Türkmenistan","country_code":"tm"},"osm_type":"relation","osm_id":15654588,"type":"administrative","location":[58.0677654,38.0696871],"bbox":[58.0255204,38.0082003,58.1413734,38.0973131]},{"name":"Arkadag","other_names":{"name:en":"Arkadag","name:ru":"Аркадаг","name:tk":"Arkadag","old_name":"Ahal welaýatynyň dolandyryş merkezi (taslama)","old_name:en":"Ahal Province Administrative Center (project)","old_name:ru":"Административный центр ахалского велаята (проект)","old_name:tk":"Ahal welaýatynyň dolandyryş merkezi (taslama)"},"display_name":"Arkadag, Ahal welaýaty, 745700, Türkmenistan","address":{"city":"Arkadag","state":"Ahal welaýaty","ISO3166-2-lvl4":"TM-A","postcode":"745700","country":"Türkmenistan","country_code":"tm"},"osm_type":"way","osm_id":1157827985,"type":"administrative","location":[58.070432481797134,38.0658982],"bbox":[58.0442157,38.0455092,58.0991387,38.0890567]}]}
{"name":"Aşgabat","other_names":{"name:af":"Asjchabat","name:am":"አሽጋባት","name:ar":"عشق آباد","name:av":"ГӀашкъабад","name:ay":"Ashgabat","name:az":"Aşqabad","name:ba":"Ашхабад","name:be":"Ашхабад","name:bg":"Ашхабад","name:bn":"আশখাবাদ","name:bo":"ཨ་ཧྲི་ཁ་པད​།","name:bs":"Ashgabat","name:ca":"Aşgabat","name:ce":"Ашхабад","name:cs":"Ašchabad","name:cv":"Ашхабад","name:cy":"Ashgabat","name:da":"Asjkhabad","name:de":"Aschgabat","name:el":"Ασγκαμπάτ","name:en":"Ashgabat","name:eo":"Aŝgabato","name:es":"Asjabad","name:eu":"Asgabat","name:fa":"عشق آباد","name:fi":"Ašgabat","name:fr":"Achgabat","name:fy":"Asjchabad","name:ga":"Ashgabat","name:gd":"Ashgabat","name:gl":"Achkhabad - Aşgabat","name:gn":"Achagaváte","name:ha":"Ashgabat","name:he":"אשגאבט","name:hi":"अश्क़ाबाद","name:hr":"Ašgabat","name:ht":"Achgabat","name:hu":"Asgabat","name:hy":"Աշխաբադ","name:ia":"Ashgabat","name:id":"Ashgabat","name:ie":"Ashgabat","name:io":"Ashgabat","name:is":"Asgabat","name:ja":"アシガバート","name:ka":"აშხაბადი","name:kk":"Ашғабад","name:kn":"ಅಶ್ಗಾಬಾತ್","name:ko":"아시가바트","name:ku":"Aşgabad","name:kv":"Ашхабад","name:ky":"Ашхабад","name:lb":"Aschchabad","name:lo":"ອາສກາບັດ","name:lt":"Ašchabadas","name:lv":"Ašgabata","name:mk":"Ашхабад","name:ml":"അഷ്ഗാബാദ്","name:mn":"Ашгабат","name:mr":"अश्गाबाद","name:ms":"Ashgabat","name:my":"အက်ရှ်ဂါဘတ်မြို့","name:nb":"Asjkhabad","name:ne":"अस्गाबत","name:nl":"Asjchabad","name:nn":"Asjkhabad","name:no":"Asjkhabad","name:nv":"Séíbąąh Kin","name:oc":"Ashgabat","name:os":"Ашхабад","name:pa":"ਇਸ਼ਕ਼ਾਬਾਦ","name:pl":"Aszchabad","name:ps":"عشق آباد","name:pt":"Asgabate","name:ro":"Așgabat","name:ru":"Ашхабад","name:sc":"Ashgabat","name:sd":"اشڪ آباد","name:sk":"Ašchabad","name:sl":"Ašhabad","name:sn":"Ashgabat","name:sq":"Aschgabat","name:sr":"Ашхабад","name:sv":"Asjchabad","name:sw":"Ashgabat","name:ta":"அசுகாபாத்","name:tg":"Ишқобод","name:th":"อาชกาบัต","name:tk":"Aşgabat","name:tl":"Ashgabat","name:tr":"Aşkabat","name:tt":"Ашкабад","name:ug":"ئاشخاباد","name:uk":"Ашгабат","name:ur":"اشک آباد","name:uz":"Ashxobod","name:vi":"Ashgabat","name:yi":"אשגאבאט","name:yo":"Ashgabat","name:zh":"阿什哈巴德","name:ace":"Ashgabat","name:arz":"عشق اباد","name:azb":"عاشق‌آباد","name:ckb":"عیشقاباد","name:crh":"Aşğabat","name:dsb":"Ašchabad","name:hif":"Ashgabat","name:hsb":"Ašchabad","name:kab":"Acgabad","name:koi":"Ашхабад","name:mhr":"Ашхабад","name:myv":"Ашхабад ош","name:nan":"Ashgabat","name:nov":"Ashgabat","name:pms":"Ashgabat","name:sah":"Ашгабат","name:sco":"Ashgabat","name:udm":"Ашхабад","name:vep":"Ašhabad","name:war":"Ashgabat","name:wuu":"阿什哈巴德","old_name:ru":"Асхабад;Полторацк;","name:roa-rup":"Ashgabat","name:tk-Arab":"آشغابات","name:uz-Arab":"عشق آباد","name:uz-Cyrl":"Ашхобод","name:uz-Latn":"Ashxobod","name:be-tarask":"Ашгабад"},"display_name":"Aşgabat, Türkmenistan","address":{"city":"Aşgabat","ISO3166-2-lvl4":"TM-S","country":"Türkmenistan","country_code":"tm"},"population":909000,"osm_type":"node","osm_id":1811650017,"type":"city","location":[58.3823487,37.9404648],"bbox":[58.2223487,37.7804648,58.5423487,38.1004648],"border":[{"name":"Aşgabat","other_names":{"name:af":"Asjchabat","name:am":"አሽጋባት","name:ar":"عشق آباد","name:az":"Aşqabad şəhəri","name:be":"Ашхабад","name:bg":"Ашхабад","name:bn":"আশখাবাদ","name:bo":"ཨ་ཧྲི་ཁ་པད​།","name:bs":"Ashgabat","name:cs":"Ašchabad","name:cy":"Ashgabat","name:da":"Asjkhabad","name:de":"Aschgabat","name:el":"Ασγκαμπάτ","name:en":"Ashgabat City","name:eo":"Aŝgabato","name:es":"Asjabad","name:eu":"Ashgabat","name:fa":"شهر عشق‌آباد","name:fi":"Ašgabat","name:fr":"Ville d'Achgabat","name:fy":"Asjchabad","name:gd":"Ashgabat","name:gl":"Achkhabad","name:he":"אשגאבט","name:hi":"अश्क़ाबाद","name:hr":"Ašgabat","name:ht":"Achgabat","name:hy":"Աշխաբադ","name:id":"Ashgabat","name:ie":"Ashgabat","name:io":"Ashgabat","name:is":"Asgabat","name:ja":"アシガバート","name:ka":"აშხაბადი","name:kk":"Ашғабад","name:kn":"ಅಶ್ಗಾಬಾತ್","name:ko":"아시가바트","name:kv":"Ашхабад","name:lb":"Aschchabad","name:lt":"Ašchabadas","name:lv":"Ašgabata","name:mk":"Ашхабад","name:ml":"അഷ്ഗാബാദ്","name:mn":"Ашгабат","name:mr":"अश्गाबाद","name:ms":"Ashgabat","name:nl":"Asjchabad","name:nn":"Asjkhabad","name:no":"Asjkhabad","name:oc":"Ashgabat","name:os":"Ашхабад","name:pl":"Aszchabad","name:pt":"Asgabate","name:ru":"Ашхабад","name:sk":"Ašchabad","name:sl":"Ašhabad","name:sq":"Aschgabat","name:sr":"Ашхабад","name:sv":"Asjchabad","name:sw":"Ashgabat","name:ta":"அசுகாபாத்","name:tg":"Ишқобод","name:th":"อาชกาบัต","name:tk":"Aşgabat shäheri","name:tl":"Ashgabat","name:tr":"Aşkabat şehri","name:tt":"Ашкабад","name:ug":"Ashxabad","name:uk":"Ашґабат","name:ur":"عشق آباد","name:uz":"Ashxobod","name:vi":"Ashgabat","name:yi":"אשגאבאט","name:yo":"Ashgabat","name:zh":"阿什哈巴德","name:ace":"Ashgabat","name:arz":"عشق اباد","name:azb":"عاشق‌آباد شهری","name:ckb":"عیشقاباد","name:crh":"Aşğabat","name:dsb":"Ašchabad","name:hif":"Ashgabat","name:hsb":"Ašchabad","name:koi":"Ашхабад","name:mhr":"Ашхабад","name:myv":"Ашхабад ош","name:nan":"Ashgabat","name:nov":"Ashgabat","name:pms":"Ashgabat","name:sah":"Ашгабат","name:sco":"Ashgabat","name:udm":"Ашхабад","name:vep":"Ašhabad","name:war":"Ashgabat","name:wuu":"阿什哈巴德","ISO3166-2":"TM-S","name:roa-rup":"Ashgabat","name:tk-Arab":"آشغابات شأهری","name:uz-Arab":"عشق آباد شهری","name:uz-Cyrl":"Ашхобод шаҳри","name:uz-Latn":"Ashxobod shahri","name:av":"ГӀашкъабад","name:ay":"Ashgabat","name:ba":"Ашхабад","name:ca":"Aşgabat","name:ce":"Ашхабад","name:cv":"Ашхабад","name:ga":"Ashgabat","name:gn":"Achagaváte","name:ha":"Ashgabat","name:hu":"Asgabat","name:ia":"Ashgabat","name:ku":"Aşgabad","name:ky":"Ашхабад","name:lo":"ອາສກາບັດ","name:my":"အက်ရှ်ဂါဘတ်မြို့","name:nb":"Asjkhabad","name:ne":"अस्गाबत","name:nv":"Séíbąąh Kin","name:pa":"ਇਸ਼ਕ਼ਾਬਾਦ","name:ps":"عشق آباد","name:ro":"Așgabat","name:sc":"Ashgabat","name:sd":"اشڪ آباد","name:sn":"Ashgabat","name:be-tarask":"Ашгабад","name:kab":"Acgabad","old_name:ru":"Асхабад;Полторацк;","alt:az":"Aşqabad","alt:en":"Ashgabat","alt:eu":"Asgabat","alt:fa":"عشق آباد","alt:fr":"Achgabat","alt:gl":"Achkhabad - Aşgabat","alt:tk":"Aşgabat","alt:tr":"Aşkabat","alt:ug":"ئاشخاباد","alt:uk":"Ашгабат","alt:ur":"اشک آباد","alt:azb":"عاشق‌آباد","alt:tk-Arab":"آشغابات","alt:uz-Arab":"عشق آباد","alt:uz-Cyrl":"Ашхобод","alt:uz-Latn":"Ashxobod"},"display_name":"Aşgabat, Türkmenistan","address":{"city":"Aşgabat","ISO3166-2-lvl4":"TM-S","country":"Türkmenistan","country_code":"tm"},"population":909000,"osm_type":"relation","osm_id":7328329,"type":"administrative","location":[58.3823487,37.9404648],"bbox":[57.9922699,37.7686483,58.4786364,38.1053831]},{"name":"Aşgabat","other_names":{"name:af":"Asjchabat","name:am":"አሽጋባት","name:ar":"عشق آباد","name:az":"Aşqabad şəhəri","name:be":"Ашхабад","name:bg":"Ашхабад","name:bn":"আশখাবাদ","name:bo":"ཨ་ཧྲི་ཁ་པད​།","name:bs":"Ashgabat","name:cs":"Ašchabad","name:cy":"Ashgabat","name:da":"Asjkhabad","name:de":"Aschgabat","name:el":"Ασγκαμπάτ","name:en":"Ashgabat City","name:eo":"Aŝgabato","name:es":"Asjabad","name:eu":"Ashgabat","name:fa":"شهر عشق‌آباد","name:fi":"Ašgabat","name:fr":"Ville d'Achgabat","name:fy":"Asjchabad","name:gd":"Ashgabat","name:gl":"Achkhabad","name:he":"אשגאבט","name:hi":"अश्क़ाबाद","name:hr":"Ašgabat","name:ht":"Achgabat","name:hy":"Աշխաբադ","name:id":"Ashgabat","name:ie":"Ashgabat","name:io":"Ashgabat","name:is":"Asgabat","name:ja":"アシガバート","name:ka":"აშხაბადი","name:kk":"Ашғабад","name:kn":"ಅಶ್ಗಾಬಾತ್","name:ko":"아시가바트","name:kv":"Ашхабад","name:lb":"Aschchabad","name:lt":"Ašchabadas","name:lv":"Ašgabata","name:mk":"Ашхабад","name:ml":"അഷ്ഗാബാദ്","name:mn":"Ашгабат","name:mr":"अश्गाबाद","name:ms":"Ashgabat","name:nl":"Asjchabad","name:nn":"Asjkhabad","name:no":"Asjkhabad","name:oc":"Ashgabat","name:os":"Ашхабад","name:pl":"Aszchabad","name:pt":"Asgabate","name:ru":"Ашхабад","name:sk":"Ašchabad","name:sl":"Ašhabad","name:sq":"Aschgabat","name:sr":"Ашхабад","name:sv":"Asjchabad","name:sw":"Ashgabat","name:ta":"அசுகாபாத்","name:tg":"Ишқобод","name:th":"อาชกาบัต","name:tk":"Aşgabat shäheri","name:tl":"Ashgabat","name:tr":"Aşkabat şehri","name:tt":"Ашкабад","name:ug":"Ashxabad","name:uk":"Ашґабат","name:ur":"عشق آباد","name:uz":"Ashxobod","name:vi":"Ashgabat","name:yi":"אשגאבאט","name:yo":"Ashgabat","name:zh":"阿什哈巴德","name:ace":"Ashgabat","name:arz":"عشق اباد","name:azb":"عاشق‌آباد شهری","name:ckb":"عیشقاباد","name:crh":"Aşğabat","name:dsb":"Ašchabad","name:hif":"Ashgabat","name:hsb":"Ašchabad","name:koi":"Ашхабад","name:mhr":"Ашхабад","name:myv":"Ашхабад ош","name:nan":"Ashgabat","name:nov":"Ashgabat","name:pms":"Ashgabat","name:sah":"Ашгабат","name:sco":"Ashgabat","name:udm":"Ашхабад","name:vep":"Ašhabad","name:war":"Ashgabat","name:wuu":"阿什哈巴德","name:roa-rup":"Ashgabat","name:tk-Arab":"آشغابات شأهری","name:uz-Arab":"عشق آباد شهری","name:uz-Cyrl":"Ашхобод шаҳри","name:uz-Latn":"Ashxobod shahri","name:be-tarask":"Ашгабад"},"display_name":"Aşgabat, Büzmeýin etraby, Aşgabat, Türkmenistan","address":{"city_block":"Aşgabat","neighbourhood":"Büzmeýin etraby","city":"Aşgabat","ISO3166-2-lvl4":"TM-S","country":"Türkmenistan","country_code":"tm"},"osm_type":"relation","osm_id":18734896,"type":"administrative","location":[58.235946718194526,37.93783215],"bbox":[57.9922699,37.7686483,58.4786364,38.1053831]}]}
{"name":"Babadaýhan","other_names":{"name:az":"Babadayxan","name:el":"Μπαμπανταϊχάν","name:en":"Babadayhan","name:fa":"بابادهقان","name:kk":"Бабадайхан","name:lt":"Babadaihanas","name:ru":"Бабадайхан","name:tg":"Бобо диҳқон","name:tk":"Babadaýhan","name:tr":"Babadayhan","name:uk":"Бабадайхан","name:uz":"Bobo dihqon","alt_name":"Babadaykhan","name:azb":"بابادایخان","name:pnb":"بابا دہقان","old_name:ru":"Кировск","name:kk-Arab":"بابادايحان","name:kk-Cyrl":"Бабадайхан","name:kk-Latn":"Babadaixan","name:tk-Arab":"بابادایخان","name:uz-Arab":"بابادهقان","name:uz-Cyrl":"Бобо диҳқон","name:uz-Latn":"Bobo dihqon","old_name:tk:1934-1993":"Kirow"},"display_name":"Babadaýhan, Babadaýhan etraby, Ahal welaýaty, Türkmenistan","address":{"city":"Babadaýhan","county":"Babadaýhan etraby","state":"Ahal welaýaty","ISO3166-2-lvl4":"TM-A","country":"Türkmenistan","country_code":"tm"},"osm_type":"node","osm_id":1068534985,"type":"city","location":[60.3941572,37.6899462],"bbox":[60.2341572,37.5299462,60.5541572,37.8499462],"border":{"name":"Babadaýhan","other_names":{"name:en":"Babadayhan","name:ru":"Бабадайхан","name:tk":"Babadaýhan","old_name:ru":"Кировск","name:az":"Babadayxan","name:el":"Μπαμπανταϊχάν","name:fa":"بابادهقان","name:kk":"Бабадайхан","name:lt":"Babadaihanas","name:tg":"Бобо диҳқон","name:tr":"Babadayhan","name:uk":"Бабадайхан","name:uz":"Bobo dihqon","alt_name":"Babadaykhan","name:azb":"بابادایخان","name:pnb":"بابا دہقان","name:kk-Arab":"بابادايحان","name:kk-Cyrl":"Бабадайхан","name:kk-Latn":"Babadaixan","name:tk-Arab":"بابادایخان","name:uz-Arab":"بابادهقان","name:uz-Cyrl":"Бобо диҳқон","name:uz-Latn":"Bobo dihqon","old_name:tk:1934-1993":"Kirow"},"display_name":"Babadaýhan, Babadaýhan etraby, Ahal welaýaty, Türkmenistan","address":{"city":"Babadaýhan","county":"Babadaýhan etraby","state":"Ahal welaýaty","ISO3166-2-lvl4":"TM-A","country":"Türkmenistan","country_code":"tm"},"osm_type":"way","osm_id":590297458,"type":"administrative","location":[60.3941572,37.6899462],"bbox":[60.3729434,37.6588451,60.4180325,37.7064913]}}
{"name":"Bäherden","other_names":{"name:az":"Baherden","name:en":"Baherden","name:fa":"بحردن","name:kk":"Бәһерден","name:ml":"ബഹർദൻ","name:ru":"Бахерден","name:tg":"Баҳарден","name:tk":"Bäherden","name:tr":"Baherden","name:uz":"Bahardan","alt_name":"Baharly","name:azb":"بحردن","old_name":"Baharly","old_name:en":"Baharly","old_name:fa":"بهارلی","old_name:ru":"Бахарлы","old_name:tk":"Baharly","name:kk-Arab":"باحەردەن","name:kk-Cyrl":"Бәһерден","name:kk-Latn":"Bäherden","name:tk-Arab":"بأهردن","name:uz-Arab":"بحردن","name:uz-Cyrl":"Баҳардан","name:uz-Latn":"Bexerden","old_name:tk-Arab":"باهارلیٛ"},"display_name":"Bäherden, Bäherden etraby, Ahal welaýaty, Türkmenistan","address":{"city":"Bäherden","county":"Bäherden etraby","state":"Ahal welaýaty","ISO3166-2-lvl4":"TM-A","country":"Türkmenistan","country_code":"tm"},"population":16800,"osm_type":"node","osm_id":275228399,"type":"city","location":[57.4367727,38.4356565],"bbox":[57.2767727,38.2756565,57.5967727,38.5956565],"border":{"name":"Baherden","other_names":{"name:en":"Baherden","name:ru":"Бахерден","name:tk":"Bäherden","old_name:2001-2018":"Baharly"},"display_name":"Baherden, Bäherden etraby, Ahal welaýaty, Türkmenistan","address":{"city":"Baherden","county":"Bäherden etraby","state":"Ahal welaýaty","ISO3166-2-lvl4":"TM-A","country":"Türkmenistan","country_code":"tm"},"osm_type":"way","osm_id":406449617,"type":"administrative","location":[57.42828213270484,38.42359405],"bbox":[57.3887144,38.3927348,57.4585899,38.4527654]}}
{"name":"Balkanabat","other_names":{"name:ar":"بلخان آباد","name:az":"Balqanabat","name:de":"Balkanabat","name:en":"Balkanabat","name:es":"Balkanabat","name:fa":"بلخان‌آباد","name:fr":"Balkanabat","name:he":"בלקנאבט","name:ja":"バルカナバート","name:kk":"Балқанабат","name:ml":"ബാൽക്കനാബാദ്","name:ru":"Балканабад","name:tg":"Болқонобод","name:tk":"Balkanabat","name:tr":"Balkanabat","name:ug":"بالقانئابات","name:uk":"Балканабад","name:uz":"Bolqonobod","name:zh":"巴尔坎纳巴德","name:azb":"بالقانابات","old_name":"Nebit Dag","alt_name:az":"Balkanabat","name:kk-Arab":"بالقانابات","name:kk-Cyrl":"Балқанабат","name:kk-Latn":"Balqanabat","name:tk-Arab":"بالقانابات شأهری","name:uz-Arab":"بالقان‌آباد","name:uz-Cyrl":"Болқонобод","name:uz-Latn":"Bolqonobod","old_name:1933-1946":"Neftedag"},"display_name":"Balkanabat, Balkanabat şäheri, Balkan welaýaty, Türkmenistan","address":{"city":"Balkanabat","state":"Balkan welaýaty","ISO3166-2-lvl4":"TM-B","country":"Türkmenistan","country_code":"tm"},"population":120149,"osm_type":"node","osm_id":245888957,"type":"city","location":[54.3539921,39.5116273],"bbox":[54.1939921,39.3516273,54.5139921,39.6716273],"border":{"name":"Balkanabat şäheri","other_names":{"name:az":"Balqanabat Şəhəri","name:en":"Balkanabat City","name:fa":"شهر بلخان‌آباد","name:he":"עיר בלקנאבט","name:kk":"Балқанабат қаласы","name:ru":"город Балканабад","name:tg":"шаҳри Болқонобод","name:tk":"Balkanabat şäheri","name:tr":"Balkanabat Şehri","name:ug":"بالقانئابات شەھىرى","name:uz":"Bolqonobod shahri","name:azb":"بالقانابات شهری","alt_name:az":"Balkanabat Şəhəri","name:kk-Arab":"بالقانابات قالاسى","name:kk-Cyrl":"Балқанабат қаласы","name:kk-Latn":"Balqanabat qalasy","name:tk-Arab":"بالقانابات شأهری","name:uz-Arab":"بالقان‌آباد شهری","name:uz-Cyrl":"Болқонобод шаҳри","name:uz-Latn":"Bolqonobod shahri","name:ar":"بلخان آباد","name:de":"Balkanabat","name:es":"Balkanabat","name:fr":"Balkanabat","name:ja":"バルカナバート","name:ml":"ബാൽക്കനാബാദ്","name:uk":"Балканабад","name:zh":"巴尔坎纳巴德","old_name":"Nebit Dag","_place_alt_name:az":"Balkanabat","old_name:1933-1946":"Neftedag","alt":"Balkanabat","alt:az":"Balqanabat","alt:en":"Balkanabat","alt:fa":"بلخان‌آباد","alt:he":"בלקנאבט","alt:kk":"Балқанабат","alt:ru":"Балканабад","alt:tg":"Болқонобод","alt:tk":"Balkanabat","alt:tr":"Balkanabat","alt:ug":"بالقانئابات","alt:uz":"Bolqonobod","alt:azb":"بالقانابات","alt:kk-Arab":"بالقانابات","alt:kk-Cyrl":"Балқанабат","alt:kk-Latn":"Balqanabat","alt:uz-Arab":"بالقان‌آباد","alt:uz-Cyrl":"Болқонобод","alt:uz-Latn":"Bolqonobod"},"display_name":"Balkanabat şäheri, Balkan welaýaty, Türkmenistan","address":{"city":"Balkanabat şäheri","state":"Balkan welaýaty","ISO3166-2-lvl4":"TM-B","country":"Türkmenistan","country_code":"tm"},"population":120149,"osm_type":"relation","osm_id":15705054,"type":"administrative","location":[54.3539921,39.5116273],"bbox":[52.7768145,38.5940812,55.3034221,40.2967624]}}
{"name":"Baýramaly","other_names":{"name:ar":"بايرام علي","name:az":"Bayramalı","name:en":"Bayramaly","name:fa":"بایرامعلی","name:ja":"バイラマリ","name:kk":"Байрамалы","name:ml":"ബൈറാമലി","name:ru":"Байрамали","name:tg":"Байрамалӣ","name:tk":"Baýramaly","name:tr":"Bayramalı","name:ug":"بايرام ئەلى","name:uz":"Bayramali","name:azb":"بایرامعلی","name:kk-Arab":"بايرامالى","name:kk-Cyrl":"Байрамалы","name:kk-Latn":"Bairamaly","name:tk-Arab":"بایرامعلیٛ","name:uz-Arab":"بایرامعلی","name:uz-Cyrl":"Байрамали","name:uz-Latn":"Bayramali"},"display_name":"Baýramaly, Baýramaly şäheri, Mary welaýaty, Türkmenistan","address":{"city":"Baýramaly","province":"Mary welaýaty","ISO3166-2-lvl4":"TM-M","country":"Türkmenistan","country_code":"tm"},"population":110545,"osm_type":"node","osm_id":2978331054,"type":"city","location":[62.17165,37.6124044],"bbox":[62.01165,37.4524044,62.33165,37.7724044],"border":{"name":"Baýramaly şäheri","other_names":{"name:az":"Bayramalı Şəhəri","name:en":"Bayramaly City","name:fa":"شهر بایرامعلی","name:ru":"город Байрамали","name:tg":"шаҳри Байрамалӣ","name:tk":"Baýramaly şäheri","name:tr":"Bayramalı Şehri","name:ug":"بايرام ئەلى شەھىرى","name:uz":"Bayramali shahri","name:azb":"بایرامعلی شهری","name:tk-Arab":"بایرامعلیٛ شأهری","name:uz-Arab":"بایرامعلی شهری","name:uz-Cyrl":"Байрамали шаҳри","name:uz-Latn":"Bayramali shahri","name:ar":"بايرام علي","name:ja":"バイラマリ","name:kk":"Байрамалы","name:ml":"ബൈറാമലി","name:kk-Arab":"بايرامالى","name:kk-Cyrl":"Байрамалы","name:kk-Latn":"Bairamaly","alt":"Baýramaly","alt:az":"Bayramalı","alt:en":"Bayramaly","alt:fa":"بایرامعلی","alt:ru":"Байрамали","alt:tg":"Байрамалӣ","alt:tk":"Baýramaly","alt:tr":"Bayramalı","alt:ug":"بايرام ئەلى","alt:uz":"Bayramali","alt:azb":"بایرامعلی","alt:tk-Arab":"بایرامعلیٛ","alt:uz-Arab":"بایرامعلی","alt:uz-Cyrl":"Байрамали","alt:uz-Latn":"Bayramali"},"display_name":"Baýramaly şäheri, Mary welaýaty, 746000, Türkmenistan","address":{"city":"Baýramaly şäheri","province":"Mary welaýaty","ISO3166-2-lvl4":"TM-M","postcode":"746000","country":"Türkmenistan","country_code":"tm"},"population":110545,"osm_type":"relation","osm_id":8799386,"type":"administrative","location":[62.17165,37.6124044],"bbox":[62.1257714,37.5808441,62.2223488,37.6458116]}}
{"name":"Bereket","other_names":{"name:ar":"بركت","name:az":"Bərəkət","name:en":"Bereket","name:fa":"برکت","name:kk":"Берекет","name:ml":"ബറക്കത്ത്","name:ru":"Берекет","name:tg":"Баракат","name:tk":"Bereket","name:tr":"Bereket","name:uz":"Barakat","name:azb":"برکت","old_name":"Kazandzhik","old_name:az":"Qazancıq","old_name:en":"Gazanjyk","old_name:fa":"قازانجیق","old_name:kk":"Қазаншық","old_name:ru":"Газанджык","old_name:tg":"Қозонҷик","old_name:tk":"Gazanjyk","old_name:tr":"Gazancık","old_name:uz":"Qozonjik","name:kk-Arab":"بەرەكەت","name:kk-Cyrl":"Берекет","name:kk-Latn":"Bereket","name:tk-Arab":"برکت","name:uz-Arab":"برکت","name:uz-Cyrl":"Баракат","name:uz-Latn":"Barakat","old_name:azb":"قازانجیق","old_name:kk-Arab":"قازانشىق","old_name:kk-Cyrl":"Қазаншық","old_name:kk-Latn":"Qazanşyq","old_name:tk-Arab":"قازانجیٛق","old_name:uz-Arab":"قازانجیق","old_name:uz-Cyrl":"Қозонжик","old_name:uz-Latn":"Qozonjik"},"display_name":"Bereket, Bereket etraby, Balkan welaýaty, Türkmenistan","address":{"city":"Bereket","county":"Bereket etraby","state":"Balkan welaýaty","ISO3166-2-lvl4":"TM-B","country":"Türkmenistan","country_code":"tm"},"population":14000,"osm_type":"node","osm_id":275170475,"type":"city","location":[55.5213285,39.2448122],"bbox":[55.3613285,39.0848122,55.6813285,39.4048122],"border":{"name":"Bereket","other_names":{"name:en":"Bereket","name:ru":"Берекет","name:tk":"Bereket","old_name:en":"Kazandzhik","old_name:ru":"Казанджик","old_name:tk":"Kazanjik","name:ar":"بركت","name:az":"Bərəkət","name:fa":"برکت","name:kk":"Берекет","name:ml":"ബറക്കത്ത്","name:tg":"Баракат","name:tr":"Bereket","name:uz":"Barakat","name:azb":"برکت","old_name":"Kazandzhik","old_name:az":"Qazancıq","_place_old_name:en":"Gazanjyk","old_name:fa":"قازانجیق","old_name:kk":"Қазаншық","_place_old_name:ru":"Газанджык","old_name:tg":"Қозонҷик","_place_old_name:tk":"Gazanjyk","old_name:tr":"Gazancık","old_name:uz":"Qozonjik","name:kk-Arab":"بەرەكەت","name:kk-Cyrl":"Берекет","name:kk-Latn":"Bereket","name:tk-Arab":"برکت","name:uz-Arab":"برکت","name:uz-Cyrl":"Баракат","name:uz-Latn":"Barakat","old_name:azb":"قازانجیق","old_name:kk-Arab":"قازانشىق","old_name:kk-Cyrl":"Қазаншық","old_name:kk-Latn":"Qazanşyq","old_name:tk-Arab":"قازانجیٛق","old_name:uz-Arab":"قازانجیق","old_name:uz-Cyrl":"Қозонжик","old_name:uz-Latn":"Qozonjik"},"display_name":"Bereket, Bereket etraby, Balkan welaýaty, Türkmenistan","address":{"city":"Bereket","county":"Bereket etraby","state":"Balkan welaýaty","ISO3166-2-lvl4":"TM-B","country":"Türkmenistan","country_code":"tm"},"population":14000,"osm_type":"way","osm_id":406445090,"type":"administrative","location":[55.5213285,39.2448122],"bbox":[55.4803801,39.2333184,55.5526405,39.2633277]}}
{"name":"Boldumsaz","other_names":{"name:az":"Boldumsaz","name:en":"Boldumsaz","name:fa":"بولدوم‌ساز","name:kk":"Болдымсаз","name:ru":"Болдумсаз","name:tg":"Болдумсоз","name:tk":"Boldumsaz","name:tr":"Boldumsaz","name:uz":"Boldumsoz","name:azb":"بولدوم‌ساز","name:kk-Arab":"بولدىمساز","name:kk-Cyrl":"Болдымсаз","name:kk-Latn":"Boldymsaz","name:tk-Arab":"بولدوُمساز","name:uz-Arab":"بولدوم‌ساز","name:uz-Cyrl":"Болдумсоз","name:uz-Latn":"Boldumsoz"},"display_name":"Boldumsaz, Boldumsaz etraby, Daşoguz welaýaty, Türkmenistan","address":{"city":"Boldumsaz","county":"Boldumsaz etraby","province":"Daşoguz welaýaty","ISO3166-2-lvl4":"TM-D","country":"Türkmenistan","country_code":"tm"},"osm_type":"node","osm_id":1068535143,"type":"city","location":[59.6722993,42.1276285],"bbox":[59.5122993,41.9676285,59.8322993,42.2876285],"border":{"name":"Boldumsaz","other_names":{"name:ru":"Болдумсаз","name:tk":"Boldumsaz","old_name":"Лавак","name:az":"Boldumsaz","name:en":"Boldumsaz","name:fa":"بولدوم‌ساز","name:kk":"Болдымсаз","name:tg":"Болдумсоз","name:tr":"Boldumsaz","name:uz":"Boldumsoz","name:azb":"بولدوم‌ساز","name:kk-Arab":"بولدىمساز","name:kk-Cyrl":"Болдымсаз","name:kk-Latn":"Boldymsaz","name:tk-Arab":"بولدوُمساز","name:uz-Arab":"بولدوم‌ساز","name:uz-Cyrl":"Болдумсоз","name:uz-Latn":"Boldumsoz","old_name:ru:1927-1991":"Калинин;Калининск"},"display_name":"Boldumsaz, Boldumsaz etraby, Daşoguz welaýaty, Türkmenistan","address":{"city":"Boldumsaz","county":"Boldumsaz etraby","province":"Daşoguz welaýaty","ISO3166-2-lvl4":"TM-D","country":"Türkmenistan","country_code":"tm"},"osm_type":"way","osm_id":188468428,"type":"administrative","location":[59.6722993,42.1276285],"bbox":[59.6406558,42.1072336,59.6993815,42.1730009]}}
{"name":"Dänew","other_names":{"name:az":"dehnov","name:en":"Danew","name:fa":"ده‌نو","name:kk":"Дәнеу","name:ru":"Дянев","name:tg":"Деҳнав","name:tk":"Dänew","name:tr":"dehnov","name:uz":"Denov","name:azb":"ده‌نو","old_name":"Galkynyş","alt_name:en":"Deynau","old_name:az":"Qalkınış","old_name:en":"Galkynyş","old_name:fa":"قالقینیش","old_name:kk":"Қалқыныш","old_name:ru":"Галкыныш","old_name:tg":"Қолқиниш","old_name:tk":"Galkynyş","old_name:tr":"Kalkınış","old_name:uz":"Qolqinish","name:kk-Arab":"دانەۋ","name:kk-Cyrl":"Дәнеу","name:kk-Latn":"Däneu","name:tk-Arab":"دأنو","name:uz-Arab":"ده‌نو","name:uz-Cyrl":"Денов","name:uz-Latn":"Denov","old_name:azb":"قالکینیش","old_name:kk-Arab":"قالقىنىش","old_name:kk-Cyrl":"Қалқыныш","old_name:kk-Latn":"Qalqynyş","old_name:tk-Arab":"قالقیٛنیٛش","old_name:uz-Arab":"قالقینیش","old_name:uz-Cyrl":"Қолқиниш","old_name:uz-Latn":"Qolqinish"},"display_name":"Dänew, Dänew etraby, Lebap welaýaty, Türkmenistan","address":{"city":"Dänew","county":"Dänew etraby","province":"Lebap welaýaty","ISO3166-2-lvl4":"TM-L","country":"Türkmenistan","country_code":"tm"},"osm_type":"node","osm_id":2211366355,"type":"city","location":[63.1844122,39.2624755],"bbox":[63.0244122,39.1024755,63.3444122,39.4224755],"border":{"name":"Dänew","other_names":{"name:ru":"Дянев","name:tk":"Дейнау","old_name":"Galkynyş","name:az":"dehnov","name:en":"Danew","name:fa":"ده‌نو","name:kk":"Дәнеу","name:tg":"Деҳнав","name:tr":"dehnov","name:uz":"Denov","name:azb":"ده‌نو","alt_name:en":"Deynau","old_name:az":"Qalkınış","old_name:en":"Galkynyş","old_name:fa":"قالقینیش","old_name:kk":"Қалқыныш","old_name:ru":"Галкыныш","old_name:tg":"Қолқиниш","old_name:tk":"Galkynyş","old_name:tr":"Kalkınış","old_name:uz":"Qolqinish","name:kk-Arab":"دانەۋ","name:kk-Cyrl":"Дәнеу","name:kk-Latn":"Däneu","name:tk-Arab":"دأنو","name:uz-Arab":"ده‌نو","name:uz-Cyrl":"Денов","name:uz-Latn":"Denov","old_name:azb":"قالکینیش","old_name:kk-Arab":"قالقىنىش","old_name:kk-Cyrl":"Қалқыныш","old_name:kk-Latn":"Qalqynyş","old_name:tk-Arab":"قالقیٛنیٛش","old_name:uz-Arab":"قالقینیش","old_name:uz-Cyrl":"Қолқиниш","old_name:uz-Latn":"Qolqinish","alt:tk":"Dänew"},"display_name":"Dänew, Dänew etraby, Lebap welaýaty, Türkmenistan","address":{"city":"Dänew","county":"Dänew etraby","province":"Lebap welaýaty","ISO3166-2-lvl4":"TM-L","country":"Türkmenistan","country_code":"tm"},"osm_type":"way","osm_id":211133926,"type":"administrative","location":[63.1844122,39.2624755],"bbox":[63.1644839,39.2494755,63.2050678,39.2689814]}}
{"name":"Darganata","other_names":{"name:az":"Darğanata","name:en":"Darganata","name:fa":"دارغان‌آتا","name:kk":"Дарғаната","name:ml":"ദാർഗാനാത്ത","name:ru":"Дарганата","name:tg":"Дорғоното","name:tk":"Darganata","name:tr":"Darğanata","name:uz":"Dorg’onota","alt_name":"Dargan-Ata","name:azb":"دارغان‌آتا","old_name:az":"Birata","old_name:en":"Birata","old_name:fa":"بیرآتا","old_name:kk":"Бірата","old_name:ru":"Бирата","old_name:tg":"Ноҳияи Бирото","old_name:tk":"Birata","old_name:tr":"Birata","old_name:uz":"Birota","name:kk-Arab":"دارعان‌اتا","name:kk-Cyrl":"Дарғаната","name:kk-Latn":"Darğanata","name:tk-Arab":"دارغان‌آتا","name:uz-Arab":"دارغان‌‌آته","name:uz-Cyrl":"Дорғонота","name:uz-Latn":"Dorg’onota","old_name:azb":"بیرآتا","old_name:kk-Arab":"ءبىراتا","old_name:kk-Cyrl":"Бірата","old_name:kk-Latn":"Bırata","old_name:tk-Arab":"بیرآتا","old_name:uz-Arab":"بیرآته","old_name:uz-Cyrl":"Бирота","old_name:uz-Latn":"Birota"},"display_name":"Darganata, Darganata etraby, Lebap welaýaty, Türkmenistan","address":{"city":"Darganata","county":"Darganata etraby","province":"Lebap welaýaty","ISO3166-2-lvl4":"TM-L","country":"Türkmenistan","country_code":"tm"},"osm_type":"node","osm_id":558823906,"type":"city","location":[62.1580503,40.4845166],"bbox":[61.9980503,40.3245166,62.3180503,40.6445166],"border":[{"name":"Darganata etraby","other_names":{"name:az":"Darğanata rayonu","name:en":"Darganata District","name:fa":"ناحیه‌ی دارغان‌آتا","name:kk":"Дарғаната атырабы","name:ru":"Дарганатынский этрап","name:tg":"Ноҳияи Дорғоното","name:tk":"Darganata etraby","name:tr":"Darğanata İlçesi","name:uz":"Dorg’onota tumani","name:azb":"دارغان‌آتا بؤلگه‌سی","old_name:az":"Birata rayonu","old_name:en":"Birata District","old_name:fa":"ناحیه‌ی بیرآتا","old_name:kk":"Бірата атырабы","old_name:ru":"Биратинский этрап","old_name:tg":"Ноҳияи Бирото","old_name:tk":"Birata etraby","old_name:tr":"Birata İlçesi","old_name:uz":"Birota tumani","name:kk-Arab":"دارعان‌اتا اتىرابى","name:kk-Cyrl":"Дарғаната атырабы","name:kk-Latn":"Darğanata atyraby","name:tk-Arab":"دارغان‌آتا اترابیٛ","name:uz-Arab":"دارغان‌‌آته تومنی","name:uz-Cyrl":"Дорғонота тумани","name:uz-Latn":"Dorg’onota tumani","old_name:azb":"بیرآتا بؤلگه‌سی","old_name:kk-Arab":"ءبىراتا اتىرابى","old_name:kk-Cyrl":"Бірата атырабы","old_name:kk-Latn":"Bırata atyraby","old_name:tk-Arab":"بیرآتا اترابیٛ","old_name:uz-Arab":"بیرآته تومنی","old_name:uz-Cyrl":"Бирота тумани","old_name:uz-Latn":"Birota tumani"},"display_name":"Darganata etraby, Lebap welaýaty, 746240, Türkmenistan","address":{"county":"Darganata etraby","province":"Lebap welaýaty","ISO3166-2-lvl4":"TM-L","postcode":"746240","country":"Türkmenistan","country_code":"tm"},"osm_type":"relation","osm_id":15678030,"type":"administrative","location":[61.14000778104385,40.649996],"bbox":[60.1855573,39.9978125,62.3931646,41.2908946]},{"name":"Darganata","other_names":{"name:en":"Darganata","name:ru":"Дарганата","name:tk":"Darganata","alt_name":"Dargan-Ata","name:az":"Darğanata","name:fa":"دارغان‌آتا","name:kk":"Дарғаната","name:ml":"ദാർഗാനാത്ത","name:tg":"Дорғоното","name:tr":"Darğanata","name:uz":"Dorg’onota","name:azb":"دارغان‌آتا","old_name:az":"Birata","old_name:en":"Birata","old_name:fa":"بیرآتا","old_name:kk":"Бірата","old_name:ru":"Бирата","old_name:tg":"Ноҳияи Бирото","old_name:tk":"Birata","old_name:tr":"Birata","old_name:uz":"Birota","name:kk-Arab":"دارعان‌اتا","name:kk-Cyrl":"Дарғаната","name:kk-Latn":"Darğanata","name:tk-Arab":"دارغان‌آتا","name:uz-Arab":"دارغان‌‌آته","name:uz-Cyrl":"Дорғонота","name:uz-Latn":"Dorg’onota","old_name:azb":"بیرآتا","old_name:kk-Arab":"ءبىراتا","old_name:kk-Cyrl":"Бірата","old_name:kk-Latn":"Bırata","old_name:tk-Arab":"بیرآتا","old_name:uz-Arab":"بیرآته","old_name:uz-Cyrl":"Бирота","old_name:uz-Latn":"Birota"},"display_name":"Darganata, Darganata etraby, Lebap welaýaty, Türkmenistan","address":{"city":"Darganata","county":"Darganata etraby","province":"Lebap welaýaty","ISO3166-2-lvl4":"TM-L","country":"Türkmenistan","country_code":"tm"},"osm_type":"way","osm_id":329892174,"type":"administrative","location":[62.1580503,40.4845166],"bbox":[62.1412342,40.4726016,62.1700346,40.494466]}]}
{"name":"Daşoguz","other_names":{"name:az":"Daşoğuz","name:de":"Daschogus","name:en":"Dashoguz","name:es":"Daşoguz","name:fa":"داش‌اغوز","name:fr":"Daşoguz","name:he":"דשוגוז","name:ja":"ダショグズ","name:kk":"Дашоғыз","name:ml":"ദാഷോഗുസ്","name:ru":"Дашогуз","name:tg":"Дашоғуз","name:tk":"Daşoguz","name:tr":"Daşoğuz","name:ug":"داشئوغۇز","name:uk":"Дашоґуз","name:uz":"Toshoʻgʻuz","name:azb":"داش‌اوغوز","old_name":"Ташауз","alt_name:en":"Daşoguz","old_name:az":"Daşhovuz","old_name:de":"Taschaus","old_name:en":"Daşhowuz","old_name:fa":"داش‌حوض","old_name:he":"דשחובוז","old_name:kk":"Дашхауыз","old_name:ru":"Дашховуз","old_name:tg":"Дашҳавз","old_name:tk":"Daşhowuz","old_name:tr":"Daşhavuz","old_name:ug":"داشھەۋز","old_name:uz":"Toshhovuz","name:kk-Arab":"داشوعىز","name:kk-Cyrl":"Дашоғыз","name:kk-Latn":"Daşoğyz","name:tk-Arab":"داش اوغوُز","name:uz-Arab":"تاش‌اۉغوز","name:uz-Cyrl":"Тошўғуз","name:uz-Latn":"Toshoʻgʻuz","old_name:azb":"داش‌حوض","old_name:kk-Arab":"داشحاۋىز","old_name:kk-Cyrl":"Дашхауыз","old_name:kk-Latn":"Daşxauyz","old_name:tk-Arab":"داش‌حوض","old_name:uz-Arab":"تاش‌حوض","old_name:uz-Cyrl":"Тошҳовуз","old_name:uz-Latn":"Toshhovuz"},"display_name":"Daşoguz, Daşoguz şäheri, Daşoguz welaýaty, Türkmenistan","address":{"city":"Daşoguz","province":"Daşoguz welaýaty","ISO3166-2-lvl4":"TM-D","country":"Türkmenistan","country_code":"tm"},"population":199500,"osm_type":"node","osm_id":245888165,"type":"city","location":[59.9590079,41.83358],"bbox":[59.7990079,41.67358,60.1190079,41.99358],"border":{"name":"Daşoguz şäheri","other_names":{"name:az":"Daşoğuz Şəhəri","name:de":"Daschogus","name:en":"Dashoguz City","name:fa":"شهر داش‌اغوز","name:he":"עיר דשוגוז","name:kk":"Дашоғыз қаласы","name:ru":"город Дашогуз","name:tg":"шаҳри Дашоғуз","name:tk":"Daşoguz şäheri","name:tr":"Daşoğuz Şehri","name:ug":"داشئوغۇز شەھىرى","name:uz":"Toshoʻgʻuz shahri","name:azb":"داش‌اوغوز شهری","old_name":"Ташауз","alt_name:en":"Daşoguz City","old_name:az":"Daşhovuz Şəhəri","old_name:de":"Taschaus","old_name:en":"Daşhowuz City","old_name:fa":"شهر داش‌حوض","old_name:he":"עיר דשחובוז","old_name:kk":"Дашхауыз қаласы","old_name:ru":"город Дашховуз","old_name:tg":"шаҳри Дашҳавз","old_name:tk":"Daşhowuz şäheri","old_name:tr":"Daşhavuz Şehri","old_name:ug":"داشھەۋز شەھىرى","old_name:uz":"Toshhovuz shahri","name:kk-Arab":"داشوعىز قالاسى","name:kk-Cyrl":"Дашоғыз қаласы","name:kk-Latn":"Daşoğyz qalasy","name:tk-Arab":"داش اوغوُز شأهری","name:uz-Arab":"تاش‌اۉغوز شهری","name:uz-Cyrl":"Тошўғуз шаҳри","name:uz-Latn":"Toshoʻgʻuz shahri","old_name:azb":"داش‌حوض شهری","name:es":"Daşoguz","name:fr":"Daşoguz","name:ja":"ダショグズ","name:ml":"ദാഷോഗുസ്","name:uk":"Дашоґуз","old_name:kk-Arab":"داشحاۋىز قالاسىٛ","old_name:kk-Cyrl":"Дашхауыз қаласы","old_name:kk-Latn":"Daşxauyz qalasy","old_name:tk-Arab":"داش‌حوض شأهری","old_name:uz-Arab":"تاش‌حوض شهری","old_name:uz-Cyrl":"Тошҳовуз шаҳри","old_name:uz-Latn":"Toshhovuz shahri","_place_alt_name:en":"Daşoguz","_place_old_name:az":"Daşhovuz","_place_old_name:en":"Daşhowuz","_place_old_name:fa":"داش‌حوض","_place_old_name:he":"דשחובוז","_place_old_name:kk":"Дашхауыз","_place_old_name:ru":"Дашховуз","_place_old_name:tg":"Дашҳавз","_place_old_name:tk":"Daşhowuz","_place_old_name:tr":"Daşhavuz","_place_old_name:ug":"داشھەۋز","_place_old_name:uz":"Toshhovuz","_place_old_name:azb":"داش‌حوض","_place_old_name:kk-Arab":"داشحاۋىز","_place_old_name:kk-Cyrl":"Дашхауыз","_place_old_name:kk-Latn":"Daşxauyz","_place_old_name:tk-Arab":"داش‌حوض","_place_old_name:uz-Arab":"تاش‌حوض","_place_old_name:uz-Cyrl":"Тошҳовуз","_place_old_name:uz-Latn":"Toshhovuz","alt":"Daşoguz","alt:az":"Daşoğuz","alt:en":"Dashoguz","alt:fa":"داش‌اغوز","alt:he":"דשוגוז","alt:kk":"Дашоғыз","alt:ru":"Дашогуз","alt:tg":"Дашоғуз","alt:tk":"Daşoguz","alt:tr":"Daşoğuz","alt:ug":"داشئوغۇز","alt:uz":"Toshoʻgʻuz","alt:azb":"داش‌اوغوز","alt:kk-Arab":"داشوعىز","alt:kk-Cyrl":"Дашоғыз","alt:kk-Latn":"Daşoğyz","alt:tk-Arab":"داش اوغوُز","alt:uz-Arab":"تاش‌اۉغوز","alt:uz-Cyrl":"Тошўғуз","alt:uz-Latn":"Toshoʻgʻuz"},"display_name":"Daşoguz şäheri, Daşoguz welaýaty, 746300, Türkmenistan","address":{"city":"Daşoguz şäheri","province":"Daşoguz welaýaty","ISO3166-2-lvl4":"TM-D","postcode":"746300","country":"Türkmenistan","country_code":"tm"},"population":199500,"osm_type":"relation","osm_id":15691626,"type":"administrative","location":[59.9590079,41.83358],"bbox":[59.7922409,41.7575987,60.0230653,41.9155277]}}
{"name":"Dostluk","other_names":{"name:fa":"دوستلوق","name:ml":"ദോസ്ത്ലുക്ക്","name:ru":"Достлук","name:tk":"Dostluk","old_name":"Yuzhnyy","alt_name:ru":"Южный","old_name:ru":"Южный","name:tk-Arab":"دوْستلوُق"},"display_name":"Dostluk, Köýtendag etraby, Lebap welaýaty, Türkmenistan","address":{"city":"Dostluk","county":"Köýtendag etraby","province":"Lebap welaýaty","ISO3166-2-lvl4":"TM-L","country":"Türkmenistan","country_code":"tm"},"osm_type":"node","osm_id":1068534891,"type":"city","location":[65.3369155,37.7426989],"bbox":[65.1769155,37.5826989,65.4969155,37.9026989],"border":{"name":"Dostluk","other_names":{"name:en":"Dostluk","name:tk":"Dostluk","name:fa":"دوستلوق","name:ml":"ദോസ്ത്ലുക്ക്","name:ru":"Достлук","old_name":"Yuzhnyy","alt_name:ru":"Южный","old_name:ru":"Южный","name:tk-Arab":"دوْستلوُق"},"display_name":"Dostluk, Köýtendag etraby, Lebap welaýaty, Türkmenistan","address":{"city":"Dostluk","county":"Köýtendag etraby","province":"Lebap welaýaty","ISO3166-2-lvl4":"TM-L","country":"Türkmenistan","country_code":"tm"},"osm_type":"way","osm_id":657067235,"type":"administrative","location":[65.3369155,37.7426989],"bbox":[65.320765,37.733221,65.3564492,37.7701898]}}
{"name":"Esenguly","other_names":{"name:az":"Esenquli","name:en":"Esenguly","name:fa":"اسن‌قلی","name:kk":"Есенқұлы","name:ml":"എസെൻഗുലി","name:ru":"Эсенкулы","name:tg":"Есенқулӣ","name:tk":"Esenguly","name:tr":"Esenkulu","name:uz":"Esenquli","alt_name":"Hasan Kuli","name:azb":"ائسئن‌قولی","old_name":"Hasan-Kuli","old_name:az":"Həsənquli","old_name:en":"Hasanguly","old_name:fa":"حسن‌قلی","old_name:kk":"Хасанқұлы","old_name:ru":"Гасанкулы","old_name:tg":"Ҳасанқулӣ","old_name:tk":"Hasanguly","old_name:tr":"Hasankulu","old_name:uz":"Hasanquli","name:kk-Arab":"ەسەنقۇلى","name:kk-Cyrl":"Есенқұлы","name:kk-Latn":"Esenqūly","name:tk-Arab":"اسن‌قوُلیٛ","name:uz-Arab":"اسن‌قولی","name:uz-Cyrl":"Есенқули","name:uz-Latn":"Esenquli","old_name:azb":"حسن‌قولی","old_name:kk-Arab":"حاسانقۇلى","old_name:kk-Cyrl":"Хасанқұлы","old_name:kk-Latn":"Xasanqūly","old_name:tk-Arab":"حسن‌قوُلیٛ","old_name:uz-Arab":"حسن‌قولی","old_name:uz-Cyrl":"Ҳасанқули","old_name:uz-Latn":"Hasanquli"},"display_name":"Esenguly, Esenguly etraby, Balkan welaýaty, Türkmenistan","address":{"city":"Esenguly","county":"Esenguly etraby","state":"Balkan welaýaty","ISO3166-2-lvl4":"TM-B","country":"Türkmenistan","country_code":"tm"},"osm_type":"node","osm_id":1068534897,"type":"city","location":[53.9740361,37.4780054],"bbox":[53.8140361,37.3180054,54.1340361,37.6380054],"border":{"name":"Esenguly","other_names":{"name:tk":"Esenguly","old_name":"Hasan-Kuli","old_name:ru":"Гасан-Кули","name:az":"Esenquli","name:en":"Esenguly","name:fa":"اسن‌قلی","name:kk":"Есенқұлы","name:ml":"എസെൻഗുലി","name:ru":"Эсенкулы","name:tg":"Есенқулӣ","name:tr":"Esenkulu","name:uz":"Esenquli","alt_name":"Hasan Kuli","name:azb":"ائسئن‌قولی","old_name:az":"Həsənquli","old_name:en":"Hasanguly","old_name:fa":"حسن‌قلی","old_name:kk":"Хасанқұлы","_place_old_name:ru":"Гасанкулы","old_name:tg":"Ҳасанқулӣ","old_name:tk":"Hasanguly","old_name:tr":"Hasankulu","old_name:uz":"Hasanquli","name:kk-Arab":"ەسەنقۇلى","name:kk-Cyrl":"Есенқұлы","name:kk-Latn":"Esenqūly","name:tk-Arab":"اسن‌قوُلیٛ","name:uz-Arab":"اسن‌قولی","name:uz-Cyrl":"Есенқули","name:uz-Latn":"Esenquli","old_name:azb":"حسن‌قولی","old_name:kk-Arab":"حاسانقۇلى","old_name:kk-Cyrl":"Хасанқұлы","old_name:kk-Latn":"Xasanqūly","old_name:tk-Arab":"حسن‌قوُلیٛ","old_name:uz-Arab":"حسن‌قولی","old_name:uz-Cyrl":"Ҳасанқули","old_name:uz-Latn":"Hasanquli"},"display_name":"Esenguly, Esenguly etraby, Balkan welaýaty, Türkmenistan","address":{"city":"Esenguly","county":"Esenguly etraby","state":"Balkan welaýaty","ISO3166-2-lvl4":"TM-B","country":"Türkmenistan","country_code":"tm"},"osm_type":"way","osm_id":538110770,"type":"administrative","location":[53.9740361,37.4780054],"bbox":[53.9606514,37.4530652,53.9929235,37.4824133]}}
{"name":"Etrek","other_names":{"name:az":"Ətrak","name:en":"Etrek","name:fa":"اترک","name:kk":"Етрек","name:ml":"എത്രെക്ക്","name:ru":"Этрек","name:tg":"Атрак","name:tk":"Etrek","name:tr":"Etrak","name:uz":"Atrek","name:azb":"اترک","old_name":"Gyzyletrek","old_name:az":"Qızıl-Ətrak","old_name:en":"Gyzyletrek","old_name:fa":"قزل‌اترک","old_name:kk":"Қызылетрек","old_name:ru":"Гызылэтрек","old_name:tg":"Қизилатрак","old_name:tk":"Gyzyletrek","old_name:tr":"Kızıl-Etrak","old_name:uz":"Qizilatrek","name:kk-Arab":"ەترەك","name:kk-Cyrl":"Етрек","name:kk-Latn":"Etrek","name:tk-Arab":"اترک","name:uz-Arab":"اترک","name:uz-Cyrl":"Атрек","name:uz-Latn":"Atrek","old_name:azb":"قیزیل اترک","old_name:kk-Arab":"قىزىلەترەك","old_name:kk-Cyrl":"Қызылетрек","old_name:kk-Latn":"Qyzyletrek","old_name:tk-Arab":"قیٛزیٛل‌اترک","old_name:uz-Arab":"قیزیل اترک","old_name:uz-Cyrl":"Қизилатрек","old_name:uz-Latn":"Qizilatrek"},"display_name":"Etrek, Etrek etraby, Balkan welaýaty, Türkmenistan","address":{"city":"Etrek","county":"Etrek etraby","state":"Balkan welaýaty","ISO3166-2-lvl4":"TM-B","country":"Türkmenistan","country_code":"tm"},"osm_type":"node","osm_id":558823353,"type":"city","location":[54.7678836,37.6645806],"bbox":[54.6078836,37.5045806,54.9278836,37.8245806],"border":{"name":"Etrek","other_names":{"name:fa":"گیزیلترک","name:ru":"Этрек","name:tk":"Etrek","old_name":"Gyzyletrek","old_name:ru":"Гызылеэтрек","name:az":"Ətrak","name:en":"Etrek","name:kk":"Етрек","name:ml":"എത്രെക്ക്","name:tg":"Атрак","name:tr":"Etrak","name:uz":"Atrek","name:azb":"اترک","old_name:az":"Qızıl-Ətrak","old_name:en":"Gyzyletrek","old_name:fa":"قزل‌اترک","old_name:kk":"Қызылетрек","_place_old_name:ru":"Гызылэтрек","old_name:tg":"Қизилатрак","old_name:tk":"Gyzyletrek","old_name:tr":"Kızıl-Etrak","old_name:uz":"Qizilatrek","name:kk-Arab":"ەترەك","name:kk-Cyrl":"Етрек","name:kk-Latn":"Etrek","name:tk-Arab":"اترک","name:uz-Arab":"اترک","name:uz-Cyrl":"Атрек","name:uz-Latn":"Atrek","old_name:azb":"قیزیل اترک","old_name:kk-Arab":"قىزىلەترەك","old_name:kk-Cyrl":"Қызылетрек","old_name:kk-Latn":"Qyzyletrek","old_name:tk-Arab":"قیٛزیٛل‌اترک","old_name:uz-Arab":"قیزیل اترک","old_name:uz-Cyrl":"Қизилатрек","old_name:uz-Latn":"Qizilatrek","alt:fa":"اترک"},"display_name":"Etrek, Etrek etraby, Balkan welaýaty, Türkmenistan","address":{"city":"Etrek","county":"Etrek etraby","state":"Balkan welaýaty","ISO3166-2-lvl4":"TM-B","country":"Türkmenistan","country_code":"tm"},"osm_type":"way","osm_id":117236894,"type":"administrative","location":[54.7678836,37.6645806],"bbox":[54.7523463,37.6487784,54.7787741,37.6793781]}}
{"name":"Farap","other_names":{"name:ar":"فاراب","name:ml":"ഫാറാബ്","name:ru":"Фарап","name:tk":"Farap","old_name":"Farab","old_name:ru":"Фараб"},"display_name":"Farap, Çärjew etraby, Lebap welaýaty, Türkmenistan","address":{"city":"Farap","county":"Çärjew etraby","province":"Lebap welaýaty","ISO3166-2-lvl4":"TM-L","country":"Türkmenistan","country_code":"tm"},"osm_type":"node","osm_id":247314971,"type":"city","location":[63.6094071,39.1757805],"bbox":[63.4494071,39.0157805,63.7694071,39.3357805],"border":{"name":"Farap","other_names":{"name:ar":"فاراب","name:ru":"Фарап","name:tk":"Farap","name:ml":"ഫാറാബ്","old_name":"Farab","old_name:ru":"Фараб"},"display_name":"Farap, Çärjew etraby, Lebap welaýaty, Türkmenistan","address":{"city":"Farap","county":"Çärjew etraby","province":"Lebap welaýaty","ISO3166-2-lvl4":"TM-L","country":"Türkmenistan","country_code":"tm"},"osm_type":"way","osm_id":406543419,"type":"administrative","location":[63.6094071,39.1757805],"bbox":[63.5907294,39.1534629,63.6278797,39.1813805]}}
{"name":"Garabekewül","other_names":{"name:az":"Qarabəkəvül","name:fa":"قرابکائول","name:kk":"Қарабекауыл","name:ml":"ഗാറാബെക്കാവൂൽ","name:ru":"Гарабекевюл","name:tk":"Garabekewül","name:tr":"Karabekevül","name:azb":"قارابکوول","old_name":"Karabekaul","old_name:ru":"Карабекаул","name:kk-Arab":"قارابەكاۋىل","name:kk-Cyrl":"Қарабекауыл","name:kk-Latn":"Qarabekauyl","name:tk-Arab":"قارابکه‌وۆل"},"display_name":"Garabekewül, Saýat etraby, Lebap welaýaty, Türkmenistan","address":{"city":"Garabekewül","county":"Saýat etraby","province":"Lebap welaýaty","ISO3166-2-lvl4":"TM-L","country":"Türkmenistan","country_code":"tm"},"population":10000,"osm_type":"node","osm_id":558823744,"type":"city","location":[64.1488534,38.4844117],"bbox":[63.9888534,38.3244117,64.3088534,38.6444117],"border":{"name":"Garabekewül","other_names":{"name:ru":"Гарабекевюл","name:tk":"Garabekewül","old_name":"Karabekaul","old_name:ru":"Карабекаул","name:az":"Qarabəkəvül","name:fa":"قرابکائول","name:kk":"Қарабекауыл","name:ml":"ഗാറാബെക്കാവൂൽ","name:tr":"Karabekevül","name:azb":"قارابکوول","name:kk-Arab":"قارابەكاۋىل","name:kk-Cyrl":"Қарабекауыл","name:kk-Latn":"Qarabekauyl","name:tk-Arab":"قارابکه‌وۆل"},"display_name":"Garabekewül, Saýat etraby, Lebap welaýaty, Türkmenistan","address":{"city":"Garabekewül","county":"Saýat etraby","province":"Lebap welaýaty","ISO3166-2-lvl4":"TM-L","country":"Türkmenistan","country_code":"tm"},"population":10000,"osm_type":"way","osm_id":255232402,"type":"administrative","location":[64.1488534,38.4844117],"bbox":[64.1346996,38.4592635,64.1758075,38.4927375]}}
{"name":"Garabogaz","other_names":{"name:az":"Qaraboğaz","name:en":"Garabogaz","name:fa":"قره‌بغاز","name:ml":"ഗരാബോഗാസ്","name:ru":"Карабогаз","name:tk":"Garabogaz","name:tr":"Karaboğaz","name:azb":"قارابوغاز","old_name":"Bekdaş","old_name:ru":"Бекдаш","name:tk-Arab":"قارابوغاز"},"display_name":"Garabogaz, Türkmenbaşy etraby, Balkan welaýaty, Türkmenistan","address":{"city":"Garabogaz","county":"Türkmenbaşy etraby","state":"Balkan welaýaty","ISO3166-2-lvl4":"TM-B","country":"Türkmenistan","country_code":"tm"},"population":7000,"osm_type":"node","osm_id":1068535286,"type":"city","location":[52.5721984,41.5387241],"bbox":[52.4121984,41.3787241,52.7321984,41.6987241],"border":{"name":"Garabogaz","other_names":{"name:tk":"Garabogaz","old_name:en":"Bekdash","old_name:ru":"Бекдаш","old_name:tk":"Bekdaş","name:az":"Qaraboğaz","name:en":"Garabogaz","name:fa":"قره‌بغاز","name:ml":"ഗരാബോഗാസ്","name:ru":"Карабогаз","name:tr":"Karaboğaz","name:azb":"قارابوغاز","old_name":"Bekdaş","name:tk-Arab":"قارابوغاز"},"display_name":"Garabogaz, Türkmenbaşy etraby, Balkan welaýaty, Türkmenistan","address":{"city":"Garabogaz","county":"Türkmenbaşy etraby","state":"Balkan welaýaty","ISO3166-2-lvl4":"TM-B","country":"Türkmenistan","country_code":"tm"},"population":7000,"osm_type":"way","osm_id":651136459,"type":"administrative","location":[52.5721984,41.5387241],"bbox":[52.5588772,41.5306607,52.5875447,41.5479585]}}
{"name":"Gazojak","other_names":{"name:en":"Gazajak","name:fa":"گاز اجاق","name:ml":"ഗാസജാക്ക്","name:ru":"Газаджак","name:tk":"Gazojak","name:uz":"Gazo'choq","name:tk-Arab":"گاز اوْجاق","name:uz-Arab":"گاز اۉچاق","name:uz-Cyrl":"Газўчоқ","name:uz-Latn":"Gazo'choq"},"display_name":"Gazojak, Darganata etraby, Lebap welaýaty, Türkmenistan","address":{"city":"Gazojak","county":"Darganata etraby","province":"Lebap welaýaty","ISO3166-2-lvl4":"TM-L","country":"Türkmenistan","country_code":"tm"},"population":23454,"osm_type":"node","osm_id":6089113482,"type":"city","location":[61.4059698,41.189246],"bbox":[61.2459698,41.029246,61.5659698,41.349246],"border":{"name":"Gazojak","other_names":{"name:en":"Gazojak","name:ru":"Газаджак","name:tk":"Gazoljak","name:fa":"گاز اجاق","name:ml":"ഗാസജാക്ക്","name:uz":"Gazo'choq","name:tk-Arab":"گاز اوْجاق","name:uz-Arab":"گاز اۉچاق","name:uz-Cyrl":"Газўчоқ","name:uz-Latn":"Gazo'choq","alt:en":"Gazajak","alt:tk":"Gazojak"},"display_name":"Gazojak, Darganata etraby, Lebap welaýaty, Türkmenistan","address":{"city":"Gazojak","county":"Darganata etraby","province":"Lebap welaýaty","ISO3166-2-lvl4":"TM-L","country":"Türkmenistan","country_code":"tm"},"population":23454,"osm_type":"way","osm_id":504225937,"type":"administrative","location":[61.4059698,41.189246],"bbox":[61.4011717,41.1807737,61.4144272,41.1971354]}}
{"name":"Gökdepe","other_names":{"name:az":"Göktəpə","name:en":"Gökdepe","name:fa":"گوک‌تپه","name:kk":"Көктепе","name:ml":"ഗൂക്തപ്പെ","name:ru":"Гёкдепе","name:tk":"Gökdepe","name:tr":"Göktepe","name:azb":"گؤک‌تپه","alt_name:ru":"Геок-Тепе","name:kk-Arab":"كوكتەپە","name:kk-Cyrl":"Көктепе","name:kk-Latn":"Köktepe","name:tk-Arab":"گؤک دپه"},"display_name":"Gökdepe, Gökdepe etraby, Ahal welaýaty, Türkmenistan","address":{"city":"Gökdepe","county":"Gökdepe etraby","state":"Ahal welaýaty","ISO3166-2-lvl4":"TM-A","country":"Türkmenistan","country_code":"tm"},"osm_type":"node","osm_id":275237842,"type":"city","location":[57.9619789,38.1553965],"bbox":[57.8019789,37.9953965,58.1219789,38.3153965],"border":{"name":"Gökdepe","other_names":{"name:en":"Gokdepe","name:ru":"Геок-Тепе","name:tk":"Gökdepe","name:az":"Göktəpə","name:fa":"گوک‌تپه","name:kk":"Көктепе","name:ml":"ഗൂക്തപ്പെ","name:tr":"Göktepe","name:azb":"گؤک‌تپه","alt_name:ru":"Геок-Тепе","name:kk-Arab":"كوكتەپە","name:kk-Cyrl":"Көктепе","name:kk-Latn":"Köktepe","name:tk-Arab":"گؤک دپه","alt:en":"Gökdepe","alt:ru":"Гёкдепе"},"display_name":"Gökdepe, Gökdepe etraby, Ahal welaýaty, 745190, Türkmenistan","address":{"city":"Gökdepe","county":"Gökdepe etraby","state":"Ahal welaýaty","ISO3166-2-lvl4":"TM-A","postcode":"745190","country":"Türkmenistan","country_code":"tm"},"osm_type":"way","osm_id":632406548,"type":"administrative","location":[57.9619789,38.1553965],"bbox":[57.9273925,38.1356663,57.9968488,38.1753726]}}
{"name":"Görogly","other_names":{"name:az":"Koroğlu","name:en":"Gorogly","name:fa":"کوراوغلو","name:kk":"Көроғлы","name:ru":"Гёроглы","name:tg":"Гӯрғулӣ","name:tk":"Görogly","name:tr":"Köroğlu","name:uz":"Ko‘ro‘g‘li","name:azb":"کوراوغلو","old_name":"Tagta","alt_name:en":"Görogly","old_name:az":"Taxta","old_name:en":"Tagta","old_name:fa":"تخته","old_name:kk":"Тақта","old_name:ru":"Тагта","old_name:tg":"Тахта","old_name:tk":"Tagta","old_name:tr":"Tahta","old_name:uz":"Taxta","name:kk-Arab":"كوروعلى","name:kk-Cyrl":"Көроғлы","name:kk-Latn":"Köroğly","name:tk-Arab":"گؤروغلیٛ","name:uz-Arab":"کۉرۉغلی","name:uz-Cyrl":"Кўрўғли","name:uz-Latn":"Ko‘ro‘g‘li","old_name:azb":"تاختا","old_name:kk-Arab":"تاقتا","old_name:kk-Cyrl":"Тақта","old_name:kk-Latn":"Taqta","old_name:tk-Arab":"تاغتا","old_name:uz-Arab":"تخته","old_name:uz-Cyrl":"Тахта","old_name:uz-Latn":"Taxta"},"display_name":"Görogly, Görogly etraby, Daşoguz welaýaty, Türkmenistan","address":{"city":"Görogly","county":"Görogly etraby","province":"Daşoguz welaýaty","ISO3166-2-lvl4":"TM-D","country":"Türkmenistan","country_code":"tm"},"population":19000,"osm_type":"node","osm_id":1106932910,"type":"city","location":[59.9134193,41.6527013],"bbox":[59.7534193,41.4927013,60.0734193,41.8127013],"border":{"name":"Görogly","other_names":{"name:en":"Gorogly","name:tk":"Görogly","old_name":"Takhta","old_name:ru":"Тахта","name:az":"Koroğlu","name:fa":"کوراوغلو","name:kk":"Көроғлы","name:ru":"Гёроглы","name:tg":"Гӯрғулӣ","name:tr":"Köroğlu","name:uz":"Ko‘ro‘g‘li","name:azb":"کوراوغلو","_place_old_name":"Tagta","alt_name:en":"Görogly","old_name:az":"Taxta","old_name:en":"Tagta","old_name:fa":"تخته","old_name:kk":"Тақта","_place_old_name:ru":"Тагта","old_name:tg":"Тахта","old_name:tk":"Tagta","old_name:tr":"Tahta","old_name:uz":"Taxta","name:kk-Arab":"كوروعلى","name:kk-Cyrl":"Көроғлы","name:kk-Latn":"Köroğly","name:tk-Arab":"گؤروغلیٛ","name:uz-Arab":"کۉرۉغلی","name:uz-Cyrl":"Кўрўғли","name:uz-Latn":"Ko‘ro‘g‘li","old_name:azb":"تاختا","old_name:kk-Arab":"تاقتا","old_name:kk-Cyrl":"Тақта","old_name:kk-Latn":"Taqta","old_name:tk-Arab":"تاغتا","old_name:uz-Arab":"تخته","old_name:uz-Cyrl":"Тахта","old_name:uz-Latn":"Taxta"},"display_name":"Görogly, Görogly etraby, Daşoguz welaýaty, 746380, Türkmenistan","address":{"city":"Görogly","county":"Görogly etraby","province":"Daşoguz welaýaty","ISO3166-2-lvl4":"TM-D","postcode":"746380","country":"Türkmenistan","country_code":"tm"},"population":19000,"osm_type":"way","osm_id":405683502,"type":"administrative","location":[59.9134193,41.6527013],"bbox":[59.8850695,41.6353477,59.9331236,41.6741841]}}
{"name":"Gubadag","other_names":{"name:fa":"قوباداغ","name:ru":"Губадаг","name:tg":"Қубодоғ","name:tk":"Gubadag","name:uz":"Qubotogʻ","alt_name":"Tel'mansk","alt_name:ru":"Кубадаг","old_name:ru":"Тельманск","name:tk-Arab":"قوُباداغ","name:uz-Arab":"قوباتاغ","name:uz-Cyrl":"Қуботоғ","name:uz-Latn":"Qubotogʻ"},"display_name":"Gubadag, Boldumsaz etraby, Daşoguz welaýaty, Türkmenistan","address":{"city":"Gubadag","county":"Boldumsaz etraby","province":"Daşoguz welaýaty","ISO3166-2-lvl4":"TM-D","country":"Türkmenistan","country_code":"tm"},"osm_type":"node","osm_id":1068534922,"type":"city","location":[59.9481457,42.0735888],"bbox":[59.7881457,41.9135888,60.1081457,42.2335888],"border":{"name":"Gubadag","other_names":{"name:tk":"Gubadag","name:fa":"قوباداغ","name:ru":"Губадаг","name:tg":"Қубодоғ","name:uz":"Qubotogʻ","alt_name":"Tel'mansk","alt_name:ru":"Кубадаг","old_name:ru":"Тельманск","name:tk-Arab":"قوُباداغ","name:uz-Arab":"قوباتاغ","name:uz-Cyrl":"Қуботоғ","name:uz-Latn":"Qubotogʻ"},"display_name":"Gubadag, Boldumsaz etraby, Daşoguz welaýaty, Türkmenistan","address":{"city":"Gubadag","county":"Boldumsaz etraby","province":"Daşoguz welaýaty","ISO3166-2-lvl4":"TM-D","country":"Türkmenistan","country_code":"tm"},"osm_type":"way","osm_id":315570123,"type":"administrative","location":[59.9481457,42.0735888],"bbox":[59.9022912,42.0636801,59.9742036,42.100395]}}
{"name":"Gyzylarbat","other_names":{"name:ar":"قزل أروات","name:az":"Qızılarbat","name:en":"Gyzylarbat","name:fa":"قزل‌رباط","name:kk":"Қызыларбат","name:ml":"കിസിലർബാത്ത്","name:ru":"Гызыларбат","name:tg":"Қизиларбот","name:tk":"Gyzylarbat","name:tr":"Kızılarbat","name:uz":"Qizilarbot","alt_name":"Kyzyl Arbat","name:azb":"قیزیل‌روباط","old_name":"Gyzylarbat","alt_name:fa":"قیزیل‌آربات","alt_name:tk":"Gyzyl Arvat","old_name:az":"Sərdar","old_name:en":"Serdar","old_name:fa":"سردار","old_name:kk":"Сердар","old_name:ru":"Кызыл Арбат","old_name:tg":"Сардор","old_name:tk":"Serdar","old_name:tr":"Serdar","old_name:uz":"Sardor","name:kk-Arab":"قىزىلاربات","name:kk-Cyrl":"Қызыларбат","name:kk-Latn":"Qyzylarbat","name:tk-Arab":"قیٛزیٛل‌آرباط","name:uz-Arab":"قیزیل‌ارباط","name:uz-Cyrl":"Қизиларбот","name:uz-Latn":"Qizilarbot","old_name:azb":"سردار بؤلگه‌سی","old_name:kk-Arab":"سەردار","old_name:kk-Cyrl":"Сердар","old_name:kk-Latn":"Serdar","old_name:tk-Arab":"سردار","old_name:uz-Arab":"سردار","old_name:uz-Cyrl":"Сардор","old_name:uz-Latn":"Sardor","old_name:1999-2022":"Serdar","old_name:en:1999-2022":"Serdar","old_name:ja:1999-2022":"セルダル","old_name:ru:1999-2022":"Сердар","old_name:tk:1999-2022":"Serdar"},"display_name":"Gyzylarbat, Gyzylarbat etraby, Balkan welaýaty, Türkmenistan","address":{"city":"Gyzylarbat","county":"Gyzylarbat etraby","state":"Balkan welaýaty","ISO3166-2-lvl4":"TM-B","country":"Türkmenistan","country_code":"tm"},"osm_type":"node","osm_id":275177113,"type":"city","location":[56.2765852,38.9748448],"bbox":[56.1165852,38.8148448,56.4365852,39.1348448],"border":[{"name":"Gyzylarbat etraby","other_names":{"name:az":"Qızılarbat rayonu","name:en":"Gyzylarbat District","name:fa":"ناحیه‌ی قزل‌رباط","name:kk":"Қызыларбат атырабы","name:ru":"Гызыларватский этрап","name:tg":"Ноҳияи Қизиларбот","name:tk":"Gyzylarbat etraby","name:tr":"Kızılarbat İlçesi","name:uz":"Qizilarbot tumani","name:azb":"قیزیل‌روباط بؤلگه‌سی","alt_name:fa":"ناحیه‌ی قیزیل‌آربات","old_name:az":"Sərdar rayonu","old_name:en":"Serdar District","old_name:fa":"ناحیه‌ی سردار","old_name:kk":"Сердар атырабы","old_name:ru":"Сердарский этрап","old_name:tg":"Ноҳияи Сардор","old_name:tk":"Serdar etraby","old_name:tr":"Serdar İlçesi","old_name:uz":"Sardor tumani","name:kk-Arab":"قىزىلاربات اتىرابى","name:kk-Cyrl":"Қызыларбат атырабы","name:kk-Latn":"Qyzylarbat atyraby","name:tk-Arab":"قیٛزیٛل‌آرباط اطرابیٛ","name:uz-Arab":"قیزیل‌ارباط تومنی","name:uz-Cyrl":"Қизиларбот тумани","name:uz-Latn":"Qizilarbot tumani","old_name:azb":"سردار بؤلگه‌سی","old_name:kk-Arab":"سەردار اتىرابى","old_name:kk-Cyrl":"Сердар атырабы","old_name:kk-Latn":"Serdar atyraby","old_name:tk-Arab":"سردار اترابیٛ","old_name:uz-Arab":"سردار تومنی","old_name:uz-Cyrl":"Сардор тумани","old_name:uz-Latn":"Sardor tumani"},"display_name":"Gyzylarbat etraby, Balkan welaýaty, Türkmenistan","address":{"county":"Gyzylarbat etraby","state":"Balkan welaýaty","ISO3166-2-lvl4":"TM-B","country":"Türkmenistan","country_code":"tm"},"osm_type":"relation","osm_id":15703942,"type":"administrative","location":[56.532177240948556,39.4209225],"bbox":[55.955623,38.5564995,57.1291202,40.1825676]},{"name":"Gyzylarbat","other_names":{"name:ru":"Гызыларбат","name:tk":"Gyzylarbat","old_name:en":"Kyzyl Arvat","old_name:ru":"Кызыл Арват","old_name:tk":"Gyzyl Arwat","name:ar":"قزل أروات","name:az":"Qızılarbat","name:en":"Gyzylarbat","name:fa":"قزل‌رباط","name:kk":"Қызыларбат","name:ml":"കിസിലർബാത്ത്","name:tg":"Қизиларбот","name:tr":"Kızılarbat","name:uz":"Qizilarbot","alt_name":"Kyzyl Arbat","name:azb":"قیزیل‌روباط","old_name":"Gyzylarbat","alt_name:fa":"قیزیل‌آربات","alt_name:tk":"Gyzyl Arvat","old_name:az":"Sərdar","_place_old_name:en":"Serdar","old_name:fa":"سردار","old_name:kk":"Сердар","_place_old_name:ru":"Кызыл Арбат","old_name:tg":"Сардор","_place_old_name:tk":"Serdar","old_name:tr":"Serdar","old_name:uz":"Sardor","old_name:1999-2022":"Serdar","name:kk-Arab":"قىزىلاربات","name:kk-Cyrl":"Қызыларбат","name:kk-Latn":"Qyzylarbat","name:tk-Arab":"قیٛزیٛل‌آرباط","name:uz-Arab":"قیزیل‌ارباط","name:uz-Cyrl":"Қизиларбот","name:uz-Latn":"Qizilarbot","old_name:azb":"سردار بؤلگه‌سی","old_name:tk:1999-2022":"Serdar","old_name:kk-Arab":"سەردار","old_name:kk-Cyrl":"Сердар","old_name:kk-Latn":"Serdar","old_name:tk-Arab":"سردار","old_name:uz-Arab":"سردار","old_name:uz-Cyrl":"Сардор","old_name:uz-Latn":"Sardor","old_name:en:1999-2022":"Serdar","old_name:ja:1999-2022":"セルダル","old_name:ru:1999-2022":"Сердар"},"display_name":"Gyzylarbat, Gyzylarbat etraby, Balkan welaýaty, Türkmenistan","address":{"city":"Gyzylarbat","county":"Gyzylarbat etraby","state":"Balkan welaýaty","ISO3166-2-lvl4":"TM-B","country":"Türkmenistan","country_code":"tm"},"osm_type":"relation","osm_id":18919341,"type":"administrative","location":[56.2765852,38.9748448],"bbox":[56.2468614,38.9400626,56.3129878,39.0200323]}]}
{"name":"Halaç","other_names":{"name:az":"Xələc","name:en":"Halach","name:fa":"خلج","name:kk":"Халаж","name:ml":"ഹലച്ച്","name:ru":"Халач","name:tg":"Халаҷ","name:tk":"Halaç","name:tr":"Halaç","name:uk":"Халач","name:uz":"Xalaj","name:azb":"خلج","alt_name:en":"Halaç","name:kk-Arab":"حالاج","name:kk-Cyrl":"Халаж","name:kk-Latn":"Xalaj","name:tk-Arab":"حالاچ","name:uz-Arab":"خلج","name:uz-Cyrl":"Халаж","name:uz-Latn":"Xalaj"},"display_name":"Halaç, Halaç etraby, Lebap welaýaty, Türkmenistan","address":{"city":"Halaç","county":"Halaç etraby","province":"Lebap welaýaty","ISO3166-2-lvl4":"TM-L","country":"Türkmenistan","country_code":"tm"},"osm_type":"node","osm_id":1068535226,"type":"city","location":[64.884444,38.070833],"bbox":[64.724444,37.910833,65.044444,38.230833],"border":{"name":"Halaç","other_names":{"name:en":"Halach","name:ru":"Халач","name:tk":"Halaç","name:uk":"Халач","name:az":"Xələc","name:fa":"خلج","name:kk":"Халаж","name:ml":"ഹലച്ച്","name:tg":"Халаҷ","name:tr":"Halaç","name:uz":"Xalaj","name:azb":"خلج","alt_name:en":"Halaç","name:kk-Arab":"حالاج","name:kk-Cyrl":"Халаж","name:kk-Latn":"Xalaj","name:tk-Arab":"حالاچ","name:uz-Arab":"خلج","name:uz-Cyrl":"Халаж","name:uz-Latn":"Xalaj"},"display_name":"Halaç, Halaç etraby, Lebap welaýaty, 326402, Türkmenistan","address":{"city":"Halaç","county":"Halaç etraby","province":"Lebap welaýaty","ISO3166-2-lvl4":"TM-L","postcode":"326402","country":"Türkmenistan","country_code":"tm"},"osm_type":"way","osm_id":338751788,"type":"administrative","location":[64.884444,38.070833],"bbox":[64.8529459,38.0547448,64.9016626,38.0891586]}}
{"name":"Hojambaz","other_names":{"name:az":"Xocambaz","name:en":"Hojambaz","name:fa":"خواجه‌جنگباز","name:kk":"Қожамбас","name:ml":"ഹോജാംബാസ്","name:ru":"Ходжамбаз","name:tg":"Хоҷамбоз","name:tk":"Hojambaz","name:tr":"Hocambaz","name:uz":"Xojamboz","name:azb":"خوجامباز","name:kk-Arab":"قوجامباس","name:kk-Cyrl":"Қожамбас","name:kk-Latn":"Qojambas","name:tk-Arab":"حوجامباز","name:uz-Arab":"خواجه‌جنگباز","name:uz-Cyrl":"Хожамбоз","name:uz-Latn":"Xojamboz"},"display_name":"Hojambaz, Hojambaz etraby, Lebap welaýaty, Türkmenistan","address":{"city":"Hojambaz","county":"Hojambaz etraby","province":"Lebap welaýaty","ISO3166-2-lvl4":"TM-L","country":"Türkmenistan","country_code":"tm"},"osm_type":"node","osm_id":1068535290,"type":"city","location":[65.0013056,38.1158304],"bbox":[64.8413056,37.9558304,65.1613056,38.2758304],"border":{"name":"Hojambaz","other_names":{"name:ru":"Ходжамбаз","name:tk":"Hojambaz","name:az":"Xocambaz","name:en":"Hojambaz","name:fa":"خواجه‌جنگباز","name:kk":"Қожамбас","name:ml":"ഹോജാംബാസ്","name:tg":"Хоҷамбоз","name:tr":"Hocambaz","name:uz":"Xojamboz","name:azb":"خوجامباز","name:kk-Arab":"قوجامباس","name:kk-Cyrl":"Қожамбас","name:kk-Latn":"Qojambas","name:tk-Arab":"حوجامباز","name:uz-Arab":"خواجه‌جنگباز","name:uz-Cyrl":"Хожамбоз","name:uz-Latn":"Xojamboz"},"display_name":"Hojambaz, Hojambaz etraby, Lebap welaýaty, Türkmenistan","address":{"city":"Hojambaz","county":"Hojambaz etraby","province":"Lebap welaýaty","ISO3166-2-lvl4":"TM-L","country":"Türkmenistan","country_code":"tm"},"osm_type":"way","osm_id":383993426,"type":"administrative","location":[65.0013056,38.1158304],"bbox":[64.9828343,38.0970212,65.0279046,38.1341578]}}
{"name":"Kaka","other_names":{"name:ml":"കാക്ക","name:ru":"Кака","name:tk":"Kaka","old_name":"Kaahka","old_name:ru":"Каахка"},"display_name":"Kaka, Kaka etraby, Ahal welaýaty, Türkmenistan","address":{"city":"Kaka","county":"Kaka etraby","state":"Ahal welaýaty","ISO3166-2-lvl4":"TM-A","country":"Türkmenistan","country_code":"tm"},"osm_type":"node","osm_id":5654863814,"type":"city","location":[59.6161082,37.3463914],"bbox":[59.4561082,37.1863914,59.7761082,37.5063914],"border":{"name":"Kaka","other_names":{"name:ru":"Кака","name:tk":"Kaka","old_name:en":"Kaakhka","old_name:ru":"Каахка","name:ml":"കാക്ക","old_name":"Kaahka"},"display_name":"Kaka, Kaka etraby, Ahal welaýaty, Türkmenistan","address":{"city":"Kaka","county":"Kaka etraby","state":"Ahal welaýaty","ISO3166-2-lvl4":"TM-A","country":"Türkmenistan","country_code":"tm"},"osm_type":"way","osm_id":577843939,"type":"administrative","location":[59.6161082,37.3463914],"bbox":[59.5843704,37.3112257,59.645229,37.3769591]}}
{"name":"Kerki","other_names":{"name:ar":"كيركي","name:az":"Kərki","name:en":"Kerki","name:fa":"کرکی","name:ja":"アタムラート","name:kk":"Керкі","name:ml":"കെർക്കി","name:ru":"Керки","name:tg":"Керки","name:tk":"Kerki","name:tr":"Kerki","name:uz":"Karki","name:azb":"کرکی","old_name":"Atamyrat","old_name:az":"Atamurad","old_name:en":"Atamyrat","old_name:fa":"آتامراد","old_name:kk":"Атамұрат","old_name:ru":"Атамурат","old_name:tg":"Отамурод","old_name:tk":"Atamyrat","old_name:tr":"Atamurat","old_name:uz":"Otamurot","name:kk-Arab":"كەركى","name:kk-Cyrl":"Керкі","name:kk-Latn":"Kerkı","name:tk-Arab":"کرکی","name:uz-Arab":"کرکی","name:uz-Cyrl":"Карки","name:uz-Latn":"Karki","old_name:azb":"آتاموراد","old_name:kk-Arab":"اتامۇرات","old_name:kk-Cyrl":"Атамұрат","old_name:kk-Latn":"Atamūrat","old_name:tk-Arab":"آتامراد","old_name:uz-Arab":"آته مراد","old_name:uz-Cyrl":"Отамурот","old_name:uz-Latn":"Otamurot"},"display_name":"Kerki, Kerki etraby, Lebap welaýaty, Türkmenistan","address":{"city":"Kerki","county":"Kerki etraby","province":"Lebap welaýaty","ISO3166-2-lvl4":"TM-L","country":"Türkmenistan","country_code":"tm"},"population":38350,"osm_type":"node","osm_id":245569778,"type":"city","location":[65.2063911,37.8407881],"bbox":[65.0463911,37.6807881,65.3663911,38.0007881],"border":{"name":"Kerki","other_names":{"name:fa":"کَرکوه","name:ja":"アタムラート","name:ru":"Керки","name:tk":"Kerki","old_name":"Atamyrat","old_name:ru":"Атамурат","name:ar":"كيركي","name:az":"Kərki","name:en":"Kerki","name:kk":"Керкі","name:ml":"കെർക്കി","name:tg":"Керки","name:tr":"Kerki","name:uz":"Karki","name:azb":"کرکی","old_name:az":"Atamurad","old_name:en":"Atamyrat","old_name:fa":"آتامراد","old_name:kk":"Атамұрат","old_name:tg":"Отамурод","old_name:tk":"Atamyrat","old_name:tr":"Atamurat","old_name:uz":"Otamurot","name:kk-Arab":"كەركى","name:kk-Cyrl":"Керкі","name:kk-Latn":"Kerkı","name:tk-Arab":"کرکی","name:uz-Arab":"کرکی","name:uz-Cyrl":"Карки","name:uz-Latn":"Karki","old_name:azb":"آتاموراد","old_name:kk-Arab":"اتامۇرات","old_name:kk-Cyrl":"Атамұрат","old_name:kk-Latn":"Atamūrat","old_name:tk-Arab":"آتامراد","old_name:uz-Arab":"آته مراد","old_name:uz-Cyrl":"Отамурот","old_name:uz-Latn":"Otamurot","alt:fa":"کرکی"},"display_name":"Kerki, Kerki etraby, Lebap welaýaty, 746620, Türkmenistan","address":{"city":"Kerki","county":"Kerki etraby","province":"Lebap welaýaty","ISO3166-2-lvl4":"TM-L","postcode":"746620","country":"Türkmenistan","country_code":"tm"},"population":38350,"osm_type":"way","osm_id":676317732,"type":"administrative","location":[65.2063911,37.8407881],"bbox":[65.1793524,37.8104818,65.2330641,37.8569467]}}
{"name":"Köneürgenç","other_names":{"name:az":"Köhnə Ürgənc","name:en":"Konye-Urgench","name:es":"Kunya-Urgench","name:fa":"کهنه‌گرگانج","name:fr":"Kounia-Ourguentch","name:ja":"クフナ・ウルゲンチ","name:kk":"Көнеүргеніш","name:ru":"Кёнеургенч","name:tg":"Кӯҳнаурганҷ","name:tk":"Köneürgenç","name:tr":"Köhne Ürgenç","name:uz":"Koʻhna Urganch","name:azb":"کؤهنه اورگنج","name:kaa":"Góne Úrgenish","alt_name:en":"Köneürgenç","alt_name:ru":"Куня-Ургенч","name:kk-Arab":"كونەۇرگەنىش","name:kk-Cyrl":"Көнеүргеніш","name:kk-Latn":"Köneürgenış","name:tk-Arab":"کؤنه‌‌اۆرگنچ","name:uz-Arab":"کۉهنه اورگنچ","name:uz-Cyrl":"Кўҳна Урганч","name:uz-Latn":"Koʻhna Urganch"},"display_name":"Köneürgenç, Köneürgenç etraby, Daşoguz welaýaty, Türkmenistan","address":{"city":"Köneürgenç","county":"Köneürgenç etraby","province":"Daşoguz welaýaty","ISO3166-2-lvl4":"TM-D","country":"Türkmenistan","country_code":"tm"},"population":37000,"osm_type":"node","osm_id":1990934341,"type":"city","location":[59.1530707,42.3261336],"bbox":[58.9930707,42.1661336,59.3130707,42.4861336],"border":{"name":"Köneürgenç","other_names":{"name:en":"Konye-Urgench","name:es":"Kunya-Urgench","name:fr":"Kounia-Ourguentch","name:ja":"クフナ・ウルゲンチ","name:ru":"Кёнеургенч","name:tk":"Köneürgenç","name:kaa":"Góne Úrgenish","alt_name:ru":"Куня-Ургенч","name:az":"Köhnə Ürgənc","name:fa":"کهنه‌گرگانج","name:kk":"Көнеүргеніш","name:tg":"Кӯҳнаурганҷ","name:tr":"Köhne Ürgenç","name:uz":"Koʻhna Urganch","name:azb":"کؤهنه اورگنج","alt_name:en":"Köneürgenç","name:kk-Arab":"كونەۇرگەنىش","name:kk-Cyrl":"Көнеүргеніш","name:kk-Latn":"Köneürgenış","name:tk-Arab":"کؤنه‌‌اۆرگنچ","name:uz-Arab":"کۉهنه اورگنچ","name:uz-Cyrl":"Кўҳна Урганч","name:uz-Latn":"Koʻhna Urganch"},"display_name":"Köneürgenç, Köneürgenç etraby, Daşoguz welaýaty, Türkmenistan","address":{"city":"Köneürgenç","county":"Köneürgenç etraby","province":"Daşoguz welaýaty","ISO3166-2-lvl4":"TM-D","country":"Türkmenistan","country_code":"tm"},"population":37000,"osm_type":"way","osm_id":96119236,"type":"administrative","location":[59.1530707,42.3261336],"bbox":[59.1067457,42.3065839,59.2107436,42.3491057]}}
{"name":"Köýtendag","other_names":{"name:az":"Köytəndaq","name:en":"Koytendag","name:fa":"کویتن‌داغ","name:kk":"Көйтендақ","name:ml":"കൊയ്ത്തൻദാഗ്","name:ru":"Кёйтендаг","name:tg":"Кӯйтантоғ","name:tk":"Köýtendag","name:tr":"Köytendaq","name:uz":"Koʻhitangtogʻ","name:azb":"کؤیتن‌داغ","old_name":"Çarşaňňy","old_name:az":"Çarşangı","old_name:en":"Charshangi","old_name:fa":"چهارشنگه","old_name:kk":"Шаршан","old_name:ru":"Чаршанга","old_name:tg":"Ноҳияи Чоршанги","old_name:tk":"Çarşaňňy","old_name:tr":"Çarşangı","old_name:uz":"Chorshangi tumani","name:kk-Arab":"كويتەنداق","name:kk-Cyrl":"Көйтендақ","name:kk-Latn":"Köitendaq","name:tk-Arab":"کؤیتن‌داغ","name:uz-Arab":"کوه‌تنگ‌تاغ","name:uz-Cyrl":"Кўҳитангтоғ","name:uz-Latn":"Koʻhitangtogʻ","old_name:azb":"چارشانگی","old_name:kk-Arab":"شارشان","old_name:kk-Cyrl":"Шаршан","old_name:kk-Latn":"Şarşan","old_name:tk-Arab":"چارشانگیٛ","old_name:uz-Arab":"چارشنگی تومنی","old_name:uz-Cyrl":"Чоршанги","old_name:uz-Latn":"Chorshangi"},"display_name":"Köýtendag, Köýtendag etraby, Lebap welaýaty, Türkmenistan","address":{"city":"Köýtendag","county":"Köýtendag etraby","province":"Lebap welaýaty","ISO3166-2-lvl4":"TM-L","country":"Türkmenistan","country_code":"tm"},"osm_type":"node","osm_id":1068534920,"type":"city","location":[66.0135856,37.5097203],"bbox":[65.8535856,37.3497203,66.1735856,37.6697203],"border":[{"name":"Köýtendag etraby","other_names":{"name:az":"Köytəndaq rayonu","name:en":"Koytendag District","name:fa":"ناحیه‌ی کویتن‌داغ","name:kk":"Көйтендақ атырабы","name:ru":"Кёйтендагский этрап","name:tg":"Ноҳияи Кӯйтантоғ","name:tk":"Köýtendag etraby","name:tr":"Köytendaq İlçesi","name:uz":"Koʻhitangtogʻ tumani","name:azb":"کؤیتن‌داغ بؤلگه‌سی","old_name:az":"Çarşangı rayonu","old_name:en":"Charshangi District","old_name:fa":"ناحیه‌ی چهارشنگه","old_name:kk":"Шаршан атырабы","old_name:ru":"Чаршангинский этрап","old_name:tg":"Ноҳияи Чоршанги","old_name:tk":"Çarşaňňy etraby","old_name:tr":"Çarşangı İlçesi","old_name:uz":"Chorshangi tumani","name:kk-Arab":"كويتەنداق اتىرابى","name:kk-Cyrl":"Көйтендақ атырабы","name:kk-Latn":"Köitendaq atyraby","name:tk-Arab":"کؤیتن‌داغ اترابیٛ","name:uz-Arab":"کوه‌تنگ‌تاغ تومنی","name:uz-Cyrl":"Кўҳитангтоғ тумани","name:uz-Latn":"Koʻhitangtogʻ tumani","old_name:azb":"چارشانگی بؤلگه‌سی","old_name:kk-Arab":"شارشان اتىرابى","old_name:kk-Cyrl":"Шаршан атырабы","old_name:kk-Latn":"Şarşan atyraby","old_name:tk-Arab":"چارشانگیٛ اترابیٛ","old_name:uz-Arab":"چارشنگی تومنی","old_name:uz-Cyrl":"Чоршанги тумани","old_name:uz-Latn":"Chorshangi tumani"},"display_name":"Köýtendag etraby, Lebap welaýaty, Türkmenistan","address":{"county":"Köýtendag etraby","province":"Lebap welaýaty","ISO3166-2-lvl4":"TM-L","country":"Türkmenistan","country_code":"tm"},"osm_type":"relation","osm_id":15682718,"type":"administrative","location":[65.91665863458786,37.741869449999996],"bbox":[65.1946306,37.3192473,66.6903725,38.1658666]},{"name":"Köýtendag","other_names":{"name:en":"Koytendag","name:ru":"Кёйтендаг","name:tk":"Köýtendag","old_name":"Çarşaňňy","old_name:ru":"Чаршанга","name:az":"Köytəndaq","name:fa":"کویتن‌داغ","name:kk":"Көйтендақ","name:ml":"കൊയ്ത്തൻദാഗ്","name:tg":"Кӯйтантоғ","name:tr":"Köytendaq","name:uz":"Koʻhitangtogʻ","name:azb":"کؤیتن‌داغ","old_name:az":"Çarşangı","old_name:en":"Charshangi","old_name:fa":"چهارشنگه","old_name:kk":"Шаршан","old_name:tg":"Ноҳияи Чоршанги","old_name:tk":"Çarşaňňy","old_name:tr":"Çarşangı","old_name:uz":"Chorshangi tumani","name:kk-Arab":"كويتەنداق","name:kk-Cyrl":"Көйтендақ","name:kk-Latn":"Köitendaq","name:tk-Arab":"کؤیتن‌داغ","name:uz-Arab":"کوه‌تنگ‌تاغ","name:uz-Cyrl":"Кўҳитангтоғ","name:uz-Latn":"Koʻhitangtogʻ","old_name:azb":"چارشانگی","old_name:kk-Arab":"شارشان","old_name:kk-Cyrl":"Шаршан","old_name:kk-Latn":"Şarşan","old_name:tk-Arab":"چارشانگیٛ","old_name:uz-Arab":"چارشنگی تومنی","old_name:uz-Cyrl":"Чоршанги","old_name:uz-Latn":"Chorshangi"},"display_name":"Köýtendag, Köýtendag etraby, Lebap welaýaty, 746670, Türkmenistan","address":{"city":"Köýtendag","county":"Köýtendag etraby","province":"Lebap welaýaty","ISO3166-2-lvl4":"TM-L","postcode":"746670","country":"Türkmenistan","country_code":"tm"},"osm_type":"way","osm_id":531252558,"type":"administrative","location":[66.0135856,37.5097203],"bbox":[65.9553886,37.4957522,66.044337,37.5283253]}]}
{"name":"Magdanly","other_names":{"name:fa":"معدنلی","name:ml":"മഗ്ദൻലി","name:ru":"Магданлы","name:tk":"Magdanly","old_name":"Gowurdak","name:tk-Arab":"ماغدانلیٛ"},"display_name":"Magdanly, Köýtendag etraby, Lebap welaýaty, Türkmenistan","address":{"city":"Magdanly","county":"Köýtendag etraby","province":"Lebap welaýaty","ISO3166-2-lvl4":"TM-L","country":"Türkmenistan","country_code":"tm"},"population":65000,"osm_type":"node","osm_id":558823806,"type":"city","location":[66.0568816,37.8072492],"bbox":[65.8968816,37.6472492,66.2168816,37.9672492],"border":{"name":"Magdanly","other_names":{"name:ru":"Магданлы","name:tk":"Magdanly","old_name":"Gowurdak","old_name:ru":"Говурдак","name:fa":"معدنلی","name:ml":"മഗ്ദൻലി","name:tk-Arab":"ماغدانلیٛ"},"display_name":"Magdanly, Köýtendag etraby, Lebap welaýaty, 746680, Türkmenistan","address":{"city":"Magdanly","county":"Köýtendag etraby","province":"Lebap welaýaty","ISO3166-2-lvl4":"TM-L","postcode":"746680","country":"Türkmenistan","country_code":"tm"},"population":65000,"osm_type":"way","osm_id":246123554,"type":"administrative","location":[66.0568816,37.8072492],"bbox":[66.0274891,37.7911187,66.0793895,37.8227156]}}
{"name":"Magtymguly","other_names":{"name:az":"Məxdumqulu","name:en":"Magtymguly","name:fa":"مخدوم‌قلی","name:kk":"Мақтұмқұлы","name:ml":"മക്തൂംഗുലി","name:ru":"Махтумкули","name:tg":"Махдумқулӣ","name:tk":"Magtymguly","name:tr":"Mahtumkulu","name:uz":"Maxtumquli","alt_name":"Garry Gala","name:azb":"مخدوم‌قولو","old_name":"Garrygala;Kara Kala;Karakalinsk","old_name:az":"Qarrıqala","old_name:en":"Garrygala","old_name:fa":"قارری قلعه","old_name:kk":"Қарақала","old_name:ru":"Кара-Кала: Каракалинск","old_name:tg":"Қара-Қалъа","old_name:tk":"Garrygala","old_name:tr":"Karrıkala","old_name:uz":"Qarriqalʻa","name:kk-Arab":"ماقتۇمقۇلى","name:kk-Cyrl":"Мақтұмқұлы","name:kk-Latn":"Maqtūmqūly","name:tk-Arab":"ماغتیٛم‌قوُلیٛ","name:uz-Arab":"مخدوم‌قولی","name:uz-Cyrl":"Махтумқули","name:uz-Latn":"Maxtumquli","old_name:azb":"قارری قالا","old_name:kk-Arab":"قاراقالا","old_name:kk-Cyrl":"Қарақала","old_name:kk-Latn":"Qaraqala","old_name:tk-Arab":"غارریٛ قالا","old_name:uz-Arab":"قارری قلعه","old_name:uz-Cyrl":"Қарриқалъа","old_name:uz-Latn":"Qarriqalʻa"},"display_name":"Magtymguly, Magtymguly etraby, Balkan welaýaty, Türkmenistan","address":{"city":"Magtymguly","county":"Magtymguly etraby","state":"Balkan welaýaty","ISO3166-2-lvl4":"TM-B","country":"Türkmenistan","country_code":"tm"},"osm_type":"node","osm_id":1106825581,"type":"city","location":[56.2840092,38.4363653],"bbox":[56.1240092,38.2763653,56.4440092,38.5963653],"border":{"name":"Magtymguly","other_names":{"name:az":"Məxdumqulu","name:en":"Magtymguly","name:fa":"مخدوم‌قلی","name:kk":"Мақтұмқұлы","name:ru":"Махтумкули","name:tg":"Махдумқулӣ","name:tk":"Magtymguly","name:tr":"Mahtumkulu","name:uz":"Maxtumquli","alt_name":"Kara Kala","name:azb":"مخدوم‌قولو","old_name":"Garrygala;Kara Kala;Karakalinsk","alt_name:en":"Garry Gala","alt_name:ru":"Кара Кала","old_name:az":"Qarrıqala","old_name:en":"Garrygala","old_name:fa":"قارری قلعه","old_name:kk":"Қарақала","old_name:ru":"Кара-Кала: Каракалинск","old_name:tg":"Қара-Қалъа","old_name:tk":"Garrygala","old_name:tr":"Karrıkala","old_name:uz":"Qarriqalʻa","name:kk-Arab":"ماقتۇمقۇلى","name:kk-Cyrl":"Мақтұмқұлы","name:kk-Latn":"Maqtūmqūly","name:tk-Arab":"ماغتیٛم‌قوُلیٛ","name:uz-Arab":"مخدوم‌قولی","name:uz-Cyrl":"Махтумқули","name:uz-Latn":"Maxtumquli","old_name:azb":"قارری قالا","name:ml":"മക്തൂംഗുലി","_place_alt_name":"Garry Gala","old_name:kk-Arab":"قاراقالا","old_name:kk-Cyrl":"Қарақала","old_name:kk-Latn":"Qaraqala","old_name:tk-Arab":"غارریٛ قالا","old_name:uz-Arab":"قارری قلعه","old_name:uz-Cyrl":"Қарриқалъа","old_name:uz-Latn":"Qarriqalʻa"},"display_name":"Magtymguly, Magtymguly etraby, Balkan welaýaty, Türkmenistan","address":{"city":"Magtymguly","county":"Magtymguly etraby","state":"Balkan welaýaty","ISO3166-2-lvl4":"TM-B","country":"Türkmenistan","country_code":"tm"},"osm_type":"way","osm_id":96119238,"type":"administrative","location":[56.2840092,38.4363653],"bbox":[56.2621038,38.424575,56.3160058,38.4473035]}}
{"name":"Mary","other_names":{"name:ar":"ماري","name:az":"Marı","name:el":"Αντιόχεια της Μαργιανήs","name:en":"Mary","name:fa":"مرو","name:ja":"マル","name:lt":"Maras","name:ml":"മാറി","name:ru":"Мары","name:tg":"Марв","name:tk":"Mary","name:tr":"Marı","name:ug":"مارى","name:uk":"Мари","name:uz":"Mari","name:zh":"木鹿","int_name":"Mary","name:azb":"مرو","alt_name:az":"Mərv","alt_name:ml":"മെർവ്","alt_name:tr":"Merv","old_name:en":"Merv, Meru, Margiana","old_name:ru":"Мерв","old_name:tk":"Merw","name:tk-Arab":"ماریٛ","name:uz-Arab":"مرو","name:uz-Cyrl":"Мари","name:uz-Latn":"Mari"},"display_name":"Mary, Mary şäheri, Mary welaýaty, Türkmenistan","address":{"city":"Mary","province":"Mary welaýaty","ISO3166-2-lvl4":"TM-M","country":"Türkmenistan","country_code":"tm"},"population":123000,"osm_type":"node","osm_id":245889876,"type":"city","location":[61.8397935,37.5940358],"bbox":[61.6797935,37.4340358,61.9997935,37.7540358],"border":{"name":"Mary şäheri","other_names":{"name:az":"Marı Şəhəri","name:en":"Mary City","name:fa":"شهر مرو","name:ru":"город Мары","name:tg":"шаҳри Марв","name:tk":"Mary şäheri","name:tr":"Marı Şehri","name:ug":"مارى شەھىرى","name:uz":"Mari shahri","name:azb":"مرو شهری","alt_name:az":"Mərv Şəhəri","alt_name:tr":"Merv Şehri","name:tk-Arab":"ماریٛ شأهری","name:uz-Arab":"مرو شهری","name:uz-Cyrl":"Мари шаҳри","name:uz-Latn":"Mari shahri","name:ar":"ماري","name:el":"Αντιόχεια της Μαργιανήs","name:ja":"マル","name:lt":"Maras","name:ml":"മാറി","name:uk":"Мари","name:zh":"木鹿","int_name":"Mary","_place_alt_name:az":"Mərv","alt_name:ml":"മെർവ്","_place_alt_name:tr":"Merv","old_name:en":"Merv, Meru, Margiana","old_name:ru":"Мерв","old_name:tk":"Merw","alt":"Mary","alt:az":"Marı","alt:en":"Mary","alt:fa":"مرو","alt:ru":"Мары","alt:tg":"Марв","alt:tk":"Mary","alt:tr":"Marı","alt:ug":"مارى","alt:uz":"Mari","alt:azb":"مرو","alt:tk-Arab":"ماریٛ","alt:uz-Arab":"مرو","alt:uz-Cyrl":"Мари","alt:uz-Latn":"Mari"},"display_name":"Mary şäheri, Mary welaýaty, Türkmenistan","address":{"city":"Mary şäheri","province":"Mary welaýaty","ISO3166-2-lvl4":"TM-M","country":"Türkmenistan","country_code":"tm"},"population":123000,"osm_type":"relation","osm_id":15661097,"type":"administrative","location":[61.8397935,37.5940358],"bbox":[61.7689019,37.4735289,61.9198054,37.654362]}}
{"name":"Murgap","other_names":{"name:az":"Murqab","name:en":"Murgap","name:fa":"مرغاب","name:kk":"Мұрғап","name:ml":"മുർഗാബ്","name:ru":"Мургап","name:tg":"Мурғоб","name:tk":"Murgap","name:tr":"Murgab","name:uz":"Murg'ob","name:azb":"مورقاب","old_name:ru":"Сталино","name:kk-Arab":"مۇرعاپ","name:kk-Cyrl":"Мұрғап","name:kk-Latn":"Mūrğap","name:tk-Arab":"موُرغاپ","name:uz-Arab":"مرغاب","name:uz-Cyrl":"Мурғоб","name:uz-Latn":"Murg'ob"},"display_name":"Murgap, Murgap etraby, Mary welaýaty, Türkmenistan","address":{"city":"Murgap","county":"Murgap etraby","province":"Mary welaýaty","ISO3166-2-lvl4":"TM-M","country":"Türkmenistan","country_code":"tm"},"population":10000,"osm_type":"node","osm_id":1068534963,"type":"city","location":[61.973889,37.496389],"bbox":[61.813889,37.336389,62.133889,37.656389],"border":{"name":"Murgap","other_names":{"name:en":"Murgap","name:ru":"Мургап","name:tk":"Murgap","old_name":"Stalino","old_name:ru":"Сталино","name:az":"Murqab","name:fa":"مرغاب","name:kk":"Мұрғап","name:ml":"മുർഗാബ്","name:tg":"Мурғоб","name:tr":"Murgab","name:uz":"Murg'ob","name:azb":"مورقاب","name:kk-Arab":"مۇرعاپ","name:kk-Cyrl":"Мұрғап","name:kk-Latn":"Mūrğap","name:tk-Arab":"موُرغاپ","name:uz-Arab":"مرغاب","name:uz-Cyrl":"Мурғоб","name:uz-Latn":"Murg'ob"},"display_name":"Murgap, Murgap etraby, Mary welaýaty, Türkmenistan","address":{"city":"Murgap","county":"Murgap etraby","province":"Mary welaýaty","ISO3166-2-lvl4":"TM-M","country":"Türkmenistan","country_code":"tm"},"population":10000,"osm_type":"way","osm_id":93310654,"type":"administrative","location":[61.973889,37.496389],"bbox":[61.9538462,37.47777,62.0044863,37.5057257]}}
{"name":"Şabat","other_names":{"name:az":"Şabat","name:en":"Shabat","name:fa":"شابات","name:kk":"Шабат","name:ru":"Шабат","name:tg":"Шобот","name:tk":"Şabat","name:tr":"Şabat","name:uz":"Shobot","alt_name":"Täze Bazar","name:azb":"شابات","alt_name:en":"Şabat","old_name:az":"Saparmurat Niyazov","old_name:en":"Saparmurat Niyazov","old_name:fa":"صفرمراد نیازف","old_name:kk":"Сапармұрат Ниязов","old_name:tg":"Сафармурод Ниёзов","old_name:tk":"Saparmyrat Nyýazow adyndaky","old_name:tr":"Saparmurat Niyazov","old_name:uz":"Saparmurot Niyozov","name:kk-Arab":"شابات","name:kk-Cyrl":"Шабат","name:kk-Latn":"Şabat","name:tk-Arab":"شابات","name:uz-Arab":"شابات","name:uz-Cyrl":"Шобот","name:uz-Latn":"Shobot","old_name:azb":"صفرمراد نیازف","old_name:kk-Arab":"ساپارمۇرات نيازوۆ","old_name:kk-Cyrl":"Сапармұрат Ниязов","old_name:kk-Latn":"Saparmūrat Niiazov","old_name:tk-Arab":"ساپارمراد نیازوف آدیٛنداکیٛ","old_name:uz-Arab":"صفرمراد نیازف","old_name:uz-Cyrl":"Сапармурот Ниёзов","old_name:uz-Latn":"Saparmurot Niyozov","old_name:1937-1992":"Андреевский","old_name:1992-2006":"Täze Bazar","old_name:2006-2022":"Nyýazow şäheri","old_name:en:2006-2022":"Nyyazow City","old_name:tk:2006-2022":"Nyýazow şäheri"},"display_name":"Şabat, Şabat etraby, Daşoguz welaýaty, Türkmenistan","address":{"city":"Şabat","county":"Şabat etraby","province":"Daşoguz welaýaty","ISO3166-2-lvl4":"TM-D","country":"Türkmenistan","country_code":"tm"},"osm_type":"node","osm_id":1068535297,"type":"city","location":[60.1236741,41.8425081],"bbox":[59.9636741,41.6825081,60.2836741,42.0025081],"border":{"name":"Şabat","other_names":{"name:en":"Shabat","name:ru":"Шабат","name:tk":"Şabat","alt_name":"Täze Bazar","name:az":"Şabat","name:fa":"شابات","name:kk":"Шабат","name:tg":"Шобот","name:tr":"Şabat","name:uz":"Shobot","name:azb":"شابات","old_name:?-1938":"Täzä Bazar","alt_name:en":"Şabat","old_name:az":"Saparmurat Niyazov","old_name:en":"Saparmurat Niyazov","old_name:fa":"صفرمراد نیازف","old_name:kk":"Сапармұрат Ниязов","old_name:tg":"Сафармурод Ниёзов","old_name:tk":"Saparmyrat Nyýazow adyndaky","old_name:tr":"Saparmurat Niyazov","old_name:uz":"Saparmurot Niyozov","old_name:1938-194?":"imeni Andreyeva","old_name:194?-1957":"Андреевск","old_name:1957-1993":"Täzebazar","old_name:1993-2022":"Nyýazow şäheri","name:kk-Arab":"شابات","name:kk-Cyrl":"Шабат","name:kk-Latn":"Şabat","name:tk-Arab":"شابات","name:uz-Arab":"شابات","name:uz-Cyrl":"Шобот","name:uz-Latn":"Shobot","old_name:azb":"صفرمراد نیازف","old_name:en:1993-2022":"Nyyazow City","old_name:ru:1938-194?":"имени Андреева","old_name:ru:1993-2022":"Ниязовск","old_name:tk:1993-2022":"Nyýazow şäheri","old_name:kk-Arab":"ساپارمۇرات نيازوۆ","old_name:kk-Cyrl":"Сапармұрат Ниязов","old_name:kk-Latn":"Saparmūrat Niiazov","old_name:tk-Arab":"ساپارمراد نیازوف آدیٛنداکیٛ","old_name:uz-Arab":"صفرمراد نیازف","old_name:uz-Cyrl":"Сапармурот Ниёзов","old_name:uz-Latn":"Saparmurot Niyozov","old_name:1937-1992":"Андреевский","old_name:1992-2006":"Täze Bazar","old_name:2006-2022":"Nyýazow şäheri","old_name:en:2006-2022":"Nyyazow City","old_name:tk:2006-2022":"Nyýazow şäheri"},"display_name":"Şabat, Şabat etraby, Daşoguz welaýaty, Türkmenistan","address":{"city":"Şabat","county":"Şabat etraby","province":"Daşoguz welaýaty","ISO3166-2-lvl4":"TM-D","country":"Türkmenistan","country_code":"tm"},"osm_type":"way","osm_id":673899647,"type":"administrative","location":[60.1236741,41.8425081],"bbox":[60.0845834,41.8010742,60.169942,41.8630618]}}
{"name":"Sakar","other_names":{"name:ml":"സാക്കാർ","name:ru":"Сакар","name:tk":"Sakar"},"display_name":"Sakar, Saýat etraby, Lebap welaýaty, Türkmenistan","address":{"city":"Sakar","county":"Saýat etraby","province":"Lebap welaýaty","ISO3166-2-lvl4":"TM-L","country":"Türkmenistan","country_code":"tm"},"osm_type":"node","osm_id":1068535191,"type":"city","location":[63.746667,38.923889],"bbox":[63.586667,38.763889,63.906667,39.083889],"border":{"name":"Sakar","other_names":{"name:ru":"Сакар","name:tk":"Sakar"},"display_name":"Sakar, Saýat etraby, Lebap welaýaty, Türkmenistan","address":{"city":"Sakar","county":"Saýat etraby","province":"Lebap welaýaty","ISO3166-2-lvl4":"TM-L","country":"Türkmenistan","country_code":"tm"},"osm_type":"way","osm_id":274208459,"type":"administrative","location":[63.751656933348606,38.92322285],"bbox":[63.7301632,38.9105992,63.7679,38.9341362]}}
{"name":"Sakarçäge","other_names":{"name:az":"Saqarçəqə","name:en":"Sakarchage","name:fa":"ساکارچقه","name:kk":"Сақаршақ","name:ru":"Сакарчаге","name:tg":"Соқорчага","name:tk":"Sakarçäge","name:tr":"Sakarçege","name:uz":"Soqorchaga","name:azb":"ساقارچقه","alt_name:en":"Sakarçäge","name:kk-Arab":"ساقارشاق","name:kk-Cyrl":"Сақаршақ","name:kk-Latn":"Saqarşaq","name:tk-Arab":"ساقارچأقه","name:uz-Arab":"ساقارچقه","name:uz-Cyrl":"Соқорчага","name:uz-Latn":"Soqorchaga"},"display_name":"Sakarçäge, Sakarçäge etraby, Mary welaýaty, Türkmenistan","address":{"city":"Sakarçäge","province":"Mary welaýaty","ISO3166-2-lvl4":"TM-M","country":"Türkmenistan","country_code":"tm"},"population":10000,"osm_type":"node","osm_id":6089150772,"type":"city","location":[61.6544607,37.6635113],"bbox":[61.4944607,37.5035113,61.8144607,37.8235113],"border":[{"name":"Sakarçäge etraby","other_names":{"name:az":"Saqarçəqə rayonu","name:en":"Sakarchage District","name:fa":"ناحیه‌ی ساکارچقه","name:kk":"Сақаршақ атырабы","name:ru":"Сакарчагинский этрап","name:tg":"Ноҳияи Соқорчага","name:tk":"Sakarçege etraby","name:tr":"Sakarçege İlçesi","name:uz":"Soqorchaga tumani","name:azb":"ساقارچقه بؤلگه‌سی","alt_name:en":"Sakarçäge District","name:kk-Arab":"ساقارشاق اتىرابى","name:kk-Cyrl":"Сақаршақ атырабы","name:kk-Latn":"Saqarşaq atyraby","name:tk-Arab":"ساقارچأقه اترابیٛ","name:uz-Arab":"ساقارچقه تومنی","name:uz-Cyrl":"Соқорчага тумани","name:uz-Latn":"Soqorchaga tumani","_place_alt_name:en":"Sakarçäge","alt":"Sakarçäge","alt:az":"Saqarçəqə","alt:en":"Sakarchage","alt:fa":"ساکارچقه","alt:kk":"Сақаршақ","alt:ru":"Сакарчаге","alt:tg":"Соқорчага","alt:tk":"Sakarçäge","alt:tr":"Sakarçege","alt:uz":"Soqorchaga","alt:azb":"ساقارچقه","alt:kk-Arab":"ساقارشاق","alt:kk-Cyrl":"Сақаршақ","alt:kk-Latn":"Saqarşaq","alt:tk-Arab":"ساقارچأقه","alt:uz-Arab":"ساقارچقه","alt:uz-Cyrl":"Соқорчага","alt:uz-Latn":"Soqorchaga"},"display_name":"Sakarçäge etraby, Mary welaýaty, Türkmenistan","address":{"city":"Sakarçäge etraby","province":"Mary welaýaty","ISO3166-2-lvl4":"TM-M","country":"Türkmenistan","country_code":"tm"},"population":10000,"osm_type":"relation","osm_id":15661095,"type":"administrative","location":[61.6544607,37.6635113],"bbox":[60.3881064,37.2990872,61.7420447,39.3338328]},{"name":"Sakarçäge","other_names":{"name:en":"Sakarchage","name:ru":"Сакарчаге","name:tk":"Sakarçäge"},"display_name":"Sakarçäge, Mary welaýaty, Türkmenistan","address":{"city":"Sakarçäge","province":"Mary welaýaty","ISO3166-2-lvl4":"TM-M","country":"Türkmenistan","country_code":"tm"},"population":10000,"osm_type":"way","osm_id":690185556,"type":"administrative","location":[61.664144598563865,37.66676965],"bbox":[61.6177453,37.6383972,61.6847166,37.6949031]}]}
{"name":"Saparmyrat Türkmenbaşy","other_names":{"name:az":"Səfərmurad Türkmenbaşı","name:en":"Saparmurat Turkmenbashy","name:fa":"صفرمراد ترکمن‌باشی","name:ja":"サパルムロット トルクマンボシ地区","name:kk":"Сапармұрат Түрікменбашы","name:ru":"Сапармурата Туркменбаши","name:tg":"Сафармурот Туркманбоши","name:tk":"Saparmyrat Türkmenbaşy","name:tr":"Sefermurat Türkmenbaşı","name:uz":"Saparmurot Turkmanboshi","name:azb":"صفرمراد ترکمن‌باشی","old_name":"Oktyabrsk","alt_name:en":"Saparmyrat Türkmenbaşy","old_name:ru":"Октябрьск","name:kk-Arab":"ساپارمۇرات تۇرىكمەنباشى","name:kk-Cyrl":"Сапармұрат Түрікменбашы","name:kk-Latn":"Saparmūrat Türıkmenbaşy","name:tk-Arab":"ساپارمراد تۆرکمنباشیٛ","name:uz-Arab":"صفرمراد ترکمن‌باشی","name:uz-Cyrl":"Сапармурот Туркманбоши","name:uz-Latn":"Saparmurot Turkmanboshi","official_name":"Saparmyrat Türkmenbaşy adyndaky şäher"},"display_name":"Saparmyrat Türkmenbaşy, Saparmyrat Türkmenbaşy etraby, Daşoguz welaýaty, Türkmenistan","address":{"city":"Saparmyrat Türkmenbaşy","county":"Saparmyrat Türkmenbaşy etraby","province":"Daşoguz welaýaty","ISO3166-2-lvl4":"TM-D","country":"Türkmenistan","country_code":"tm"},"osm_type":"node","osm_id":6157958274,"type":"city","location":[58.8063155,42.3816216],"bbox":[58.6463155,42.2216216,58.9663155,42.5416216],"border":[{"name":"Saparmyrat Türkmenbaşy etraby","other_names":{"name:az":"Səfərmurad Türkmenbaşı rayonu","name:en":"Saparmurat Turkmenbashy District","name:fa":"ناحیه‌ی صفرمراد ترکمن‌باشی","name:ja":"サパルムロット トルクマンボシ地区","name:kk":"Сапармұрат Түрікменбашы атырабы","name:ru":"Этрап Сапармурата Туркменбаши","name:tg":"Ноҳияи Сафармурот Туркманбоши","name:tk":"Saparmyrat Türkmenbaşy etraby","name:tr":"Sefermurat Türkmenbaşı İlçesi","name:uz":"Saparmurot Turkmanboshi tumani","name:azb":"صفرمراد ترکمن‌باشی بؤلگه‌سی","alt_name:en":"Saparmyrat Türkmenbaşy District","name:kk-Arab":"ساپارمۇرات تۇرىكمەنباشى اتىرابى","name:kk-Cyrl":"Сапармұрат Түрікменбашы атырабы","name:kk-Latn":"Saparmūrat Türıkmenbaşy atyraby","name:tk-Arab":"ساپارمراد تۆرکمنباشیٛ اترابیٛ","name:uz-Arab":"صفرمراد ترکمن‌باشی تومنی","name:uz-Cyrl":"Сапармурот Туркманбоши тумани","name:uz-Latn":"Saparmurot Turkmanboshi tumani"},"display_name":"Saparmyrat Türkmenbaşy etraby, Daşoguz welaýaty, Türkmenistan","address":{"county":"Saparmyrat Türkmenbaşy etraby","province":"Daşoguz welaýaty","ISO3166-2-lvl4":"TM-D","country":"Türkmenistan","country_code":"tm"},"osm_type":"relation","osm_id":15688796,"type":"administrative","location":[57.50885202182518,41.43627215],"bbox":[56.4291714,40.0664404,59.0365619,42.7996686]},{"name":"Saparmyrat Türkmenbaşy","other_names":{"name:en":"Saparmurad Turkmenbashy","name:ru":"Сапармурат Туркменбаши","name:tk":"Saparmyrat Türkmenbaşy","old_name":"Oktyabrsk","old_name:ru":"Октябрьск","name:az":"Səfərmurad Türkmenbaşı","name:fa":"صفرمراد ترکمن‌باشی","name:ja":"サパルムロット トルクマンボシ地区","name:kk":"Сапармұрат Түрікменбашы","name:tg":"Сафармурот Туркманбоши","name:tr":"Sefermurat Türkmenbaşı","name:uz":"Saparmurot Turkmanboshi","name:azb":"صفرمراد ترکمن‌باشی","alt_name:en":"Saparmyrat Türkmenbaşy","name:kk-Arab":"ساپارمۇرات تۇرىكمەنباشى","name:kk-Cyrl":"Сапармұрат Түрікменбашы","name:kk-Latn":"Saparmūrat Türıkmenbaşy","name:tk-Arab":"ساپارمراد تۆرکمنباشیٛ","name:uz-Arab":"صفرمراد ترکمن‌باشی","name:uz-Cyrl":"Сапармурот Туркманбоши","name:uz-Latn":"Saparmurot Turkmanboshi","official_name":"Saparmyrat Türkmenbaşy adyndaky şäher","alt:en":"Saparmurat Turkmenbashy","alt:ru":"Сапармурата Туркменбаши"},"display_name":"Saparmyrat Türkmenbaşy, Saparmyrat Türkmenbaşy etraby, Daşoguz welaýaty, Türkmenistan","address":{"city":"Saparmyrat Türkmenbaşy","county":"Saparmyrat Türkmenbaşy etraby","province":"Daşoguz welaýaty","ISO3166-2-lvl4":"TM-D","country":"Türkmenistan","country_code":"tm"},"osm_type":"way","osm_id":229281178,"type":"administrative","location":[58.8063155,42.3816216],"bbox":[58.7800163,42.3644499,58.8230826,42.3968185]}]}
{"name":"Sarahs","other_names":{"name:ar":"سرخس","name:az":"Sərəxs","name:en":"Sarahs","name:fa":"سرخس","name:kk":"Сарахс","name:ks":"سرخس","name:ml":"സറഖ്സ്","name:ru":"Сарахс","name:tg":"Сарахс","name:tk":"Sarahs","name:tr":"Serahs","name:uk":"Серахс","name:ur":"سرخس","name:uz":"Saraxs","alt_name":"Serahs","name:azb":"سرخس","alt_name_1":"Serakhs","name:kk-Arab":"ساراحس","name:kk-Cyrl":"Сарахс","name:kk-Latn":"Saraxs","name:tk-Arab":"ساراخس","name:uz-Arab":"سرخس","name:uz-Cyrl":"Сарахс","name:uz-Latn":"Saraxs"},"display_name":"Sarahs, Sarahs etraby, Ahal welaýaty, Türkmenistan","address":{"city":"Sarahs","county":"Sarahs etraby","state":"Ahal welaýaty","ISO3166-2-lvl4":"TM-A","country":"Türkmenistan","country_code":"tm"},"osm_type":"node","osm_id":275224234,"type":"city","location":[61.2152195,36.5237406],"bbox":[61.0552195,36.3637406,61.3752195,36.6837406],"border":{"name":"Sarahs","other_names":{"name:fa":"سرخس","name:ru":"Серахс","name:tk":"Sarahs","alt_name":"Serakhs","name:ar":"سرخس","name:az":"Sərəxs","name:en":"Sarahs","name:kk":"Сарахс","name:ks":"سرخس","name:ml":"സറഖ്സ്","name:tg":"Сарахс","name:tr":"Serahs","name:uk":"Серахс","name:ur":"سرخس","name:uz":"Saraxs","_place_alt_name":"Serahs","name:azb":"سرخس","alt_name_1":"Serakhs","name:kk-Arab":"ساراحس","name:kk-Cyrl":"Сарахс","name:kk-Latn":"Saraxs","name:tk-Arab":"ساراخس","name:uz-Arab":"سرخس","name:uz-Cyrl":"Сарахс","name:uz-Latn":"Saraxs","alt:ru":"Сарахс"},"display_name":"Sarahs, Sarahs etraby, Ahal welaýaty, Türkmenistan","address":{"city":"Sarahs","county":"Sarahs etraby","state":"Ahal welaýaty","ISO3166-2-lvl4":"TM-A","country":"Türkmenistan","country_code":"tm"},"osm_type":"way","osm_id":109012014,"type":"administrative","location":[61.2152195,36.5237406],"bbox":[61.1947082,36.502186,61.233377,36.5672977]}}
{"name":"Şatlyk","other_names":{"name:en":"Shatlyk","name:ml":"ഷാത്ലിക്","name:ru":"Шатлык","name:tk":"Şatlyk"},"display_name":"Şatlyk, Mary welaýaty, Türkmenistan","address":{"city":"Şatlyk","province":"Mary welaýaty","ISO3166-2-lvl4":"TM-M","country":"Türkmenistan","country_code":"tm"},"osm_type":"node","osm_id":6055602665,"type":"city","location":[61.5878686,37.5955548],"bbox":[61.4278686,37.4355548,61.7478686,37.7555548],"border":{"name":"Şatlyk","other_names":{"name:en":"Shatlyk","name:ru":"Шатлык","name:tk":"Şatlyk","name:ml":"ഷാത്ലിക്"},"display_name":"Şatlyk, Mary welaýaty, Türkmenistan","address":{"city":"Şatlyk","province":"Mary welaýaty","ISO3166-2-lvl4":"TM-M","country":"Türkmenistan","country_code":"tm"},"osm_type":"way","osm_id":93310675,"type":"administrative","location":[61.5878686,37.5955548],"bbox":[61.5752973,37.5779195,61.6064213,37.6065327]}}
{"name":"Saýat","other_names":{"name:az":"Sayat","name:en":"Sayat","name:fa":"صیاد","name:kk":"Саят","name:ml":"സായാത്ത്","name:tg":"Саёд","name:tk":"Saýat","name:tr":"Sayat","name:uz":"Sayod","name:azb":"صایات","name:kk-Arab":"سايات","name:kk-Cyrl":"Саят","name:kk-Latn":"Saiat","name:tk-Arab":"صایات","name:uz-Arab":"صیاد","name:uz-Cyrl":"Саёд","name:uz-Latn":"Sayod"},"display_name":"Saýat, Saýat etraby, Lebap welaýaty, Türkmenistan","address":{"city":"Saýat","county":"Saýat etraby","province":"Lebap welaýaty","ISO3166-2-lvl4":"TM-L","country":"Türkmenistan","country_code":"tm"},"population":21000,"osm_type":"node","osm_id":1068535244,"type":"city","location":[63.8830102,38.7827608],"bbox":[63.7230102,38.6227608,64.0430102,38.9427608],"border":{"name":"Saýat","other_names":{"name:ru":"Саят","name:tk":"Saýat","name:az":"Sayat","name:en":"Sayat","name:fa":"صیاد","name:kk":"Саят","name:ml":"സായാത്ത്","name:tg":"Саёд","name:tr":"Sayat","name:uz":"Sayod","name:azb":"صایات","name:kk-Arab":"سايات","name:kk-Cyrl":"Саят","name:kk-Latn":"Saiat","name:tk-Arab":"صایات","name:uz-Arab":"صیاد","name:uz-Cyrl":"Саёд","name:uz-Latn":"Sayod"},"display_name":"Saýat, Saýat etraby, Lebap welaýaty, Türkmenistan","address":{"city":"Saýat","county":"Saýat etraby","province":"Lebap welaýaty","ISO3166-2-lvl4":"TM-L","country":"Türkmenistan","country_code":"tm"},"population":21000,"osm_type":"way","osm_id":255117231,"type":"administrative","location":[63.8830102,38.7827608],"bbox":[63.8606186,38.7647485,63.9041157,38.7925533]}}
{"name":"Serhetabat","other_names":{"name:ar":"سرحد آباد","name:fa":"سرحدآباد","name:ml":"സർഹദാബാദ്","name:ru":"Серхетабад","name:tk":"Serhetabat","name:ur":"سرحدآباد","name:zh":"库什卡","alt_name":"Serhetabad","name:pnb":"سرحدآباد","old_name":"Kushka","old_name:ar":"كوشكا","old_name:ru":"Кушка"},"display_name":"Serhetabat, Tagtabazar etraby, Mary welaýaty, Türkmenistan","address":{"city":"Serhetabat","county":"Tagtabazar etraby","province":"Mary welaýaty","ISO3166-2-lvl4":"TM-M","country":"Türkmenistan","country_code":"tm"},"population":14940,"osm_type":"node","osm_id":1068534970,"type":"city","location":[62.3253672,35.2740062],"bbox":[62.1653672,35.1140062,62.4853672,35.4340062],"border":{"name":"Serhetabat","other_names":{"name:ar":"سرحد آباد","name:fa":"سرحدآباد","name:ru":"Серхетабад","name:tk":"Serhetabat","name:ur":"سرحدآباد","alt_name":"Serhetabad","name:pnb":"سرحدآباد","old_name":"Kushka","old_name:ar":"كوشكا","old_name:ru":"Кушка","old_name:tk":"Kuşka","name:ml":"സർഹദാബാദ്","name:zh":"库什卡"},"display_name":"Serhetabat, Tagtabazar etraby, Mary welaýaty, Türkmenistan","address":{"city":"Serhetabat","county":"Tagtabazar etraby","province":"Mary welaýaty","ISO3166-2-lvl4":"TM-M","country":"Türkmenistan","country_code":"tm"},"population":14940,"osm_type":"way","osm_id":339696443,"type":"administrative","location":[62.3253672,35.2740062],"bbox":[62.2951161,35.2628801,62.3530949,35.2866342]}}
{"name":"Seýdi","other_names":{"name:en":"Seydi","name:fa":"سیدی","name:ml":"സെയ്ദി","name:ru":"Сейди","name:tk":"Seýdi","name:tk-Arab":"سیدی"},"display_name":"Seýdi, Dänew etraby, Lebap welaýaty, 746222, Türkmenistan","address":{"city":"Seýdi","county":"Dänew etraby","province":"Lebap welaýaty","ISO3166-2-lvl4":"TM-L","postcode":"746222","country":"Türkmenistan","country_code":"tm"},"osm_type":"node","osm_id":5518965134,"type":"city","location":[62.9152346,39.480693],"bbox":[62.7552346,39.320693,63.0752346,39.640693],"border":{"name":"Seydi","other_names":{"name:ru":"Сейди","name:tk":"Seýdi","old_name":"Neftezawodsk;Neftezavodsk","old_name:ru":"Нефтезаводск"},"display_name":"Seydi, Dänew etraby, Lebap welaýaty, 746222, Türkmenistan","address":{"city":"Seydi","county":"Dänew etraby","province":"Lebap welaýaty","ISO3166-2-lvl4":"TM-L","postcode":"746222","country":"Türkmenistan","country_code":"tm"},"osm_type":"way","osm_id":406147091,"type":"administrative","location":[62.9115776115831,39.477026300000006],"bbox":[62.9033807,39.4618581,62.924543,39.4946198]}}
{"name":"Tejen","other_names":{"name:az":"Təcən","name:en":"Tejen","name:fa":"تجن","name:kk":"Тежен","name:ml":"തേജെൻ","name:ru":"Теджен","name:tg":"Теҷен","name:tk":"Tejen","name:tr":"Tecen","name:uz":"Tejen","name:azb":"تجن","name:kk-Arab":"تەجەن","name:kk-Cyrl":"Тежен","name:kk-Latn":"Tejen","name:tk-Arab":"تجن","name:uz-Arab":"تجن","name:uz-Cyrl":"Теҷен","name:uz-Latn":"Tejen"},"display_name":"Tejen, Tejen etraby, Ahal welaýaty, Türkmenistan","address":{"city":"Tejen","county":"Tejen etraby","state":"Ahal welaýaty","ISO3166-2-lvl4":"TM-A","country":"Türkmenistan","country_code":"tm"},"osm_type":"node","osm_id":6109221773,"type":"city","location":[60.5027245,37.38463],"bbox":[60.3427245,37.22463,60.6627245,37.54463],"border":{"name":"Tejen","other_names":{"name:en":"Tejen","name:ru":"Теджен","name:tk":"Tejen","name:az":"Təcən","name:fa":"تجن","name:kk":"Тежен","name:ml":"തേജെൻ","name:tg":"Теҷен","name:tr":"Tecen","name:uz":"Tejen","name:azb":"تجن","name:kk-Arab":"تەجەن","name:kk-Cyrl":"Тежен","name:kk-Latn":"Tejen","name:tk-Arab":"تجن","name:uz-Arab":"تجن","name:uz-Cyrl":"Теҷен","name:uz-Latn":"Tejen"},"display_name":"Tejen, Tejen etraby, Ahal welaýaty, Türkmenistan","address":{"city":"Tejen","county":"Tejen etraby","state":"Ahal welaýaty","ISO3166-2-lvl4":"TM-A","country":"Türkmenistan","country_code":"tm"},"osm_type":"way","osm_id":43967943,"type":"administrative","location":[60.5027245,37.38463],"bbox":[60.4661659,37.3519157,60.5328886,37.4054091]}}
{"name":"Türkmenabat","other_names":{"name:ar":"تركمان أباد","name:az":"Türkmənabad","name:de":"Türkmenabat","name:el":"Τουρκμεναμπάτ","name:en":"Turkmenabat","name:es":"Türkmenabat","name:fa":"ترکمن‌آباد","name:fr":"Türkmenabat","name:kk":"Түрікменабат","name:ml":"തുർക്ക്മെനാബാദ്","name:ru":"Туркменабат","name:tg":"Туркманобод","name:tk":"Türkmenabat","name:tr":"Türkmenabat","name:ug":"تۈركمەنئابات","name:uz":"Turkmenobod","name:zh":"土库曼纳巴德","name:azb":"تورکمن‌آباد","alt_name:ru":"Туркменабад","old_name:az":"Çarcuy","old_name:en":"Chardjuy","old_name:fa":"چهارجوی","old_name:kk":"Шаржүй","old_name:ru":"Чарджоу","old_name:tg":"Чорҷӯй","old_name:tk":"Çärjew","old_name:tr":"Çarçou","old_name:ug":"چارجۇ","old_name:uz":"Chorjo'y","name:kk-Arab":"تۇرىكمەنابات","name:kk-Cyrl":"Түрікменабат","name:kk-Latn":"Türıkmenabat","name:tk-Arab":"تۆرکمن آبات","name:uz-Arab":"ترکمن‌آباد","name:uz-Cyrl":"Туркменобод","name:uz-Latn":"Turkmenobod","old_name:azb":"چهارجوی","old_name:kk-Arab":"ءشارجۇي","old_name:kk-Cyrl":"Шаржүй","old_name:kk-Latn":"Şarjüi","old_name:tk-Arab":"چأرجو","old_name:uz-Arab":"چارجۉی","old_name:uz-Cyrl":"Чоржўй","old_name:uz-Latn":"Chorjo'y"},"display_name":"Türkmenabat, Türkmenabat şäheri, Lebap welaýaty, 746100, Türkmenistan","address":{"city":"Türkmenabat","province":"Lebap welaýaty","ISO3166-2-lvl4":"TM-L","postcode":"746100","country":"Türkmenistan","country_code":"tm"},"population":830000,"osm_type":"node","osm_id":4086624259,"type":"city","location":[63.5831564,39.0733839],"bbox":[63.4231564,38.9133839,63.7431564,39.2333839],"border":{"name":"Türkmenabat şäheri","other_names":{"name:ar":"تركمان أباد","name:az":"Türkmənabad Şəhəri","name:de":"Türkmenabat","name:en":"Turkmenabat City","name:es":"Türkmenabat","name:fa":"شهر ترکمن‌آباد","name:fr":"Türkmenabat","name:kk":"Түрікменабат қаласы","name:ru":"город Туркменабат","name:tg":"шаҳри Туркманобод","name:tk":"Türkmenabat şäheri","name:tr":"Türkmenabat Şehri","name:ug":"تۈركمەنئابات شەھىرى","name:uz":"Turkmenobod shahri","name:azb":"تورکمن‌آباد شهری","alt_name:ru":"город Туркменабад","old_name:az":"Çarcuy Şəhəri","old_name:en":"Chardjuy City","old_name:fa":"شهر چهارجوی","old_name:kk":"Шаржүй қаласы","old_name:ru":"город Чарджоу","old_name:tg":"шаҳри Чорҷӯй","old_name:tk":"Çärjew şäheri","old_name:tr":"Çarçou Şehri","old_name:ug":"چارجۇ شەھىرى","old_name:uz":"Chorjo'y shahri","name:kk-Arab":"تۇرىكمەنابات قالاسى","name:kk-Cyrl":"Түрікменабат қаласы","name:kk-Latn":"Türıkmenabat qalasy","name:tk-Arab":"تۆرکمن آبات شأهری","name:uz-Arab":"ترکمن‌آباد شهری","name:uz-Cyrl":"Туркменобод шаҳри","name:uz-Latn":"Turkmenobod shahri","old_name:azb":"چهارجوی شهری","name:el":"Τουρκμεναμπάτ","name:ml":"തുർക്ക്മെനാബാദ്","name:zh":"土库曼纳巴德","old_name:kk-Arab":"ءشارجۇي قالاسىٛ","old_name:kk-Cyrl":"Шаржүй қаласы","old_name:kk-Latn":"Şarjüi qalasy","old_name:tk-Arab":"چأرجو شأهری","old_name:uz-Arab":"چارجۉی شهری","old_name:uz-Cyrl":"Чоржўй шаҳри","old_name:uz-Latn":"Chorjo'y shahri","_place_alt_name:ru":"Туркменабад","_place_old_name:az":"Çarcuy","_place_old_name:en":"Chardjuy","_place_old_name:fa":"چهارجوی","_place_old_name:kk":"Шаржүй","_place_old_name:ru":"Чарджоу","_place_old_name:tg":"Чорҷӯй","_place_old_name:tk":"Çärjew","_place_old_name:tr":"Çarçou","_place_old_name:ug":"چارجۇ","_place_old_name:uz":"Chorjo'y","_place_old_name:azb":"چهارجوی","_place_old_name:kk-Arab":"ءشارجۇي","_place_old_name:kk-Cyrl":"Шаржүй","_place_old_name:kk-Latn":"Şarjüi","_place_old_name:tk-Arab":"چأرجو","_place_old_name:uz-Arab":"چارجۉی","_place_old_name:uz-Cyrl":"Чоржўй","_place_old_name:uz-Latn":"Chorjo'y","alt":"Türkmenabat","alt:az":"Türkmənabad","alt:en":"Turkmenabat","alt:fa":"ترکمن‌آباد","alt:kk":"Түрікменабат","alt:ru":"Туркменабат","alt:tg":"Туркманобод","alt:tk":"Türkmenabat","alt:tr":"Türkmenabat","alt:ug":"تۈركمەنئابات","alt:uz":"Turkmenobod","alt:azb":"تورکمن‌آباد","alt:kk-Arab":"تۇرىكمەنابات","alt:kk-Cyrl":"Түрікменабат","alt:kk-Latn":"Türıkmenabat","alt:tk-Arab":"تۆرکمن آبات","alt:uz-Arab":"ترکمن‌آباد","alt:uz-Cyrl":"Туркменобод","alt:uz-Latn":"Turkmenobod"},"display_name":"Türkmenabat şäheri, Lebap welaýaty, 746100, Türkmenistan","address":{"city":"Türkmenabat şäheri","province":"Lebap welaýaty","ISO3166-2-lvl4":"TM-L","postcode":"746100","country":"Türkmenistan","country_code":"tm"},"population":830000,"osm_type":"relation","osm_id":8795632,"type":"administrative","location":[63.5831564,39.0733839],"bbox":[63.468446,38.871565,63.6624992,39.1243776]}}
{"name":"Türkmenbaşy","other_names":{"name:ar":"تركمان باشي","name:az":"Türkmənbaşı","name:de":"Türkmenbaşy","name:en":"Turkmenbashy","name:es":"Turkmenbashi","name:fa":"ترکمن‌باشی","name:fr":"Türkmenbaşy","name:he":"טורקמנבאשי","name:ja":"トルクメンバシ","name:kk":"Түрікменбашы","name:ko":"투르크멘바시","name:mk":"Туркменбаши","name:ml":"തുർക്ക്മെൻബാഷി","name:ru":"Туркменбашы","name:tg":"Туркманбошӣ","name:tk":"Türkmenbaşy","name:tr":"Türkmənbaşı","name:ug":"تۈركمەنباشى","name:uk":"Туркменбаші","name:uz":"Turkmanboshi","name:zh":"土库曼巴希","name:azb":"تورکمن‌باشی","old_name":"Красноводск","alt_name:en":"Türkmenbaşy","alt_name:mk":"Красноводск","alt_name:ru":"Туркменбаши","old_name:en":"Krasnovodsk","old_name:ru":"Красноводск","old_name:tk":"Krasnowodsk","name:kk-Arab":"تۇرىكمەنباشى","name:kk-Cyrl":"Түрікменбашы","name:kk-Latn":"Türıkmenbaşy","name:tk-Arab":"تۆرکمن‌باشیٛ","name:uz-Arab":"تورکمن‌باشی","name:uz-Cyrl":"Туркманбоши","name:uz-Latn":"Turkmanboshi","old_name:tk:1820-1881":"Şagadam;Шагадам;Ша-Кадам"},"display_name":"Türkmenbaşy, Türkmenbaşy şäheri, Balkan welaýaty, Türkmenistan","address":{"city":"Türkmenbaşy","state":"Balkan welaýaty","ISO3166-2-lvl4":"TM-B","country":"Türkmenistan","country_code":"tm"},"population":73803,"osm_type":"node","osm_id":98072410,"type":"city","location":[52.9928838,40.0053169],"bbox":[52.8328838,39.8453169,53.1528838,40.1653169],"border":{"name":"Türkmenbaşy şäheri","other_names":{"name:az":"Türkmənbaşı Şəhəri","name:de":"Türkmenbaşy","name:en":"Turkmenbashy","name:es":"Turkmenbashi","name:fa":"شهر ترکمن‌باشی","name:fr":"Türkmenbaşy","name:he":"עיר טורקמנבאשי","name:ja":"トルクメンバシ","name:kk":"Түрікменбашы қаласы","name:ko":"투르크멘바시","name:ru":"Туркменбаши","name:tg":"шаҳри Туркманбошӣ","name:tk":"Türkmenbaşy şäheri","name:tr":"Türkmənbaşı Şehri","name:ug":"تۈركمەنباشى شەھىرى","name:uk":"Туркменбаші","name:uz":"Turkmanboshi shahri","name:azb":"تورکمن‌باشی شهری","old_name":"Красноводск","alt_name:en":"Türkmenbaşy","alt_name:ru":"Туркменбашы","old_name:en":"Krasnovodsk","old_name:ru":"Красноводск","old_name:tk":"Krasnowodsk","name:kk-Arab":"تۇرىكمەنباشى قالاسى","name:kk-Cyrl":"Түрікменбашы қаласы","name:kk-Latn":"Türıkmenbaşy qalasy","name:tk-Arab":"تۆرکمن‌باشیٛ شأهری","name:uz-Arab":"تورکمن‌باشی شهری","name:uz-Cyrl":"Туркманбоши шаҳри","name:uz-Latn":"Turkmanboshi shahri","name:ar":"تركمان باشي","name:mk":"Туркменбаши","name:ml":"തുർക്ക്മെൻബാഷി","name:zh":"土库曼巴希","alt_name:mk":"Красноводск","_place_alt_name:ru":"Туркменбаши","old_name:tk:1820-1881":"Şagadam;Шагадам","_place_old_name:tk:1820-1881":"Şagadam;Шагадам;Ша-Кадам","alt":"Türkmenbaşy","alt:az":"Türkmənbaşı","alt:fa":"ترکمن‌باشی","alt:he":"טורקמנבאשי","alt:kk":"Түрікменбашы","alt:ru":"Туркменбашы","alt:tg":"Туркманбошӣ","alt:tk":"Türkmenbaşy","alt:tr":"Türkmənbaşı","alt:ug":"تۈركمەنباشى","alt:uz":"Turkmanboshi","alt:azb":"تورکمن‌باشی","alt:kk-Arab":"تۇرىكمەنباشى","alt:kk-Cyrl":"Түрікменбашы","alt:kk-Latn":"Türıkmenbaşy","alt:tk-Arab":"تۆرکمن‌باشیٛ","alt:uz-Arab":"تورکمن‌باشی","alt:uz-Cyrl":"Туркманбоши","alt:uz-Latn":"Turkmanboshi"},"display_name":"Türkmenbaşy şäheri, Balkan welaýaty, Türkmenistan","address":{"city":"Türkmenbaşy şäheri","state":"Balkan welaýaty","ISO3166-2-lvl4":"TM-B","country":"Türkmenistan","country_code":"tm"},"population":73803,"osm_type":"relation","osm_id":2603973,"type":"administrative","location":[52.9928838,40.0053169],"bbox":[52.7674079,39.9067781,53.0752457,40.0920734]}}
{"name":"Türkmengala","other_names":{"name:az":"Türkmənqala","name:en":"Turkmengala","name:fa":"ترکمن‌قلعه","name:kk":"Түрікменқала","name:ml":"തുർക്ക്മെൻഗല","name:tg":"Туркманқалъа","name:tk":"Türkmengala","name:tr":"Türkmenkale","name:uz":"Turkmanqal'a","name:azb":"تورکمنقالا","name:kk-Arab":"تۇرىكمەنقالا","name:kk-Cyrl":"Түрікменқала","name:kk-Latn":"Türıkmenqala","name:tk-Arab":"تۆرکمن‌قالا","name:uz-Arab":"تورکمن‌قلعه","name:uz-Cyrl":"Туркманқалъа","name:uz-Latn":"Turkmanqal'a"},"display_name":"Türkmengala, Türkmengala etraby, Mary welaýaty, Türkmenistan","address":{"city":"Türkmengala","county":"Türkmengala etraby","province":"Mary welaýaty","ISO3166-2-lvl4":"TM-M","country":"Türkmenistan","country_code":"tm"},"population":12000,"osm_type":"node","osm_id":6089138855,"type":"city","location":[62.3366647,37.4275715],"bbox":[62.1766647,37.2675715,62.4966647,37.5875715],"border":{"name":"Türkmengala","other_names":{"name:en":"Turkmengala","name:tk":"Türkmengala","name:az":"Türkmənqala","name:fa":"ترکمن‌قلعه","name:kk":"Түрікменқала","name:ml":"തുർക്ക്മെൻഗല","name:tg":"Туркманқалъа","name:tr":"Türkmenkale","name:uz":"Turkmanqal'a","name:azb":"تورکمنقالا","name:kk-Arab":"تۇرىكمەنقالا","name:kk-Cyrl":"Түрікменқала","name:kk-Latn":"Türıkmenqala","name:tk-Arab":"تۆرکمن‌قالا","name:uz-Arab":"تورکمن‌قلعه","name:uz-Cyrl":"Туркманқалъа","name:uz-Latn":"Turkmanqal'a"},"display_name":"Türkmengala, Türkmengala etraby, Mary welaýaty, Türkmenistan","address":{"city":"Türkmengala","county":"Türkmengala etraby","province":"Mary welaýaty","ISO3166-2-lvl4":"TM-M","country":"Türkmenistan","country_code":"tm"},"population":12000,"osm_type":"way","osm_id":44411933,"type":"administrative","location":[62.3366647,37.4275715],"bbox":[62.3201409,37.4053668,62.3807072,37.4563828]}}
{"name":"Ýolöten","other_names":{"name:az":"Yolötən","name:en":"Yoloten","name:fa":"یول‌اوتن","name:ja":"ヨロテン","name:kk":"Йолөтен","name:ml":"യോലോത്തൻ","name:ru":"Йолотан","name:tg":"Ёлётен","name:tk":"Ýolöten","name:tr":"Yolöten","name:uz":"Yo’lo’tan","name:azb":"یول‌اؤتن","alt_name:ru":"Елотен","name:kk-Arab":"يولوتەن","name:kk-Cyrl":"Йолөтен","name:kk-Latn":"İolöten","name:tk-Arab":"یوْل‌اؤتن","name:uz-Arab":"یۉل‌ اۉتن","name:uz-Cyrl":"Йўлўтан","name:uz-Latn":"Yo’lo’tan"},"display_name":"Ýolöten, Ýolöten etraby, Mary welaýaty, Türkmenistan","address":{"city":"Ýolöten","county":"Ýolöten etraby","province":"Mary welaýaty","ISO3166-2-lvl4":"TM-M","country":"Türkmenistan","country_code":"tm"},"population":37705,"osm_type":"node","osm_id":3474683322,"type":"city","location":[62.359518,37.2977786],"bbox":[62.199518,37.1377786,62.519518,37.4577786],"border":{"name":"Ýolöten","other_names":{"name:en":"Yoloten","name:tk":"Ýolöten","name:az":"Yolötən","name:fa":"یول‌اوتن","name:ja":"ヨロテン","name:kk":"Йолөтен","name:ml":"യോലോത്തൻ","name:ru":"Йолотан","name:tg":"Ёлётен","name:tr":"Yolöten","name:uz":"Yo’lo’tan","name:azb":"یول‌اؤتن","alt_name:ru":"Елотен","name:kk-Arab":"يولوتەن","name:kk-Cyrl":"Йолөтен","name:kk-Latn":"İolöten","name:tk-Arab":"یوْل‌اؤتن","name:uz-Arab":"یۉل‌ اۉتن","name:uz-Cyrl":"Йўлўтан","name:uz-Latn":"Yo’lo’tan"},"display_name":"Ýolöten, Ýolöten etraby, Mary welaýaty, 746420, Türkmenistan","address":{"city":"Ýolöten","county":"Ýolöten etraby","province":"Mary welaýaty","ISO3166-2-lvl4":"TM-M","postcode":"746420","country":"Türkmenistan","country_code":"tm"},"population":37705,"osm_type":"way","osm_id":658025463,"type":"administrative","location":[62.359518,37.2977786],"bbox":[62.3294184,37.2762576,62.3833196,37.3121607]}}
