{"name":"Aba Annaýew","other_names":{"name:en":"Aba Annayew","name:tk":"Aba Annaýew","alt_name":"Aba Annayew","official_name":"Aba Annaýew"},"display_name":"Aba Annaýew, Arkadag şäheri, Ahal welaýaty, Türkmenistan","address":{"town":"Aba Annaýew","city":"Arkadag şäheri","state":"Ahal welaýaty","ISO3166-2-lvl4":"TM-A","country":"Türkmenistan","country_code":"tm"},"osm_type":"node","osm_id":5370160879,"type":"town","location":[58.0330169,38.0467514],"bbox":[57.9930169,38.0067514,58.0730169,38.0867514],"border":{"name":"Aba Annaýew","other_names":{"name:tk":"Aba Annaýew","official_name":"Aba Annaýew","name:en":"Aba Annayew","alt_name":"Aba Annayew"},"display_name":"Aba Annaýew, Arkadag şäheri, Ahal welaýaty, Türkmenistan","address":{"town":"Aba Annaýew","city":"Arkadag şäheri","state":"Ahal welaýaty","ISO3166-2-lvl4":"TM-A","country":"Türkmenistan","country_code":"tm"},"osm_type":"relation","osm_id":15654585,"type":"administrative","location":[58.0330169,38.0467514],"bbox":[58.0255204,38.0413521,58.041541,38.0521424]}}
{"name":"Akdaş","other_names":{"name:en":"Akdash","name:ru":"Акдаш","name:tk":"Akdaş"},"display_name":"Akdaş, Türkmenbaşy etraby, Balkan welaýaty, Türkmenistan","address":{"town":"Akdaş","county":"Türkmenbaşy etraby","state":"Balkan welaýaty","ISO3166-2-lvl4":"TM-B","country":"Türkmenistan","country_code":"tm"},"osm_type":"node","osm_id":7512533222,"type":"town","location":[53.1291829,40.0456196],"bbox":[53.0891829,40.0056196,53.1691829,40.0856196],"border":{"name":"Akdaş","other_names":{"name:en":"Akdash","name:ru":"Акдаш","name:tk":"Akdaş"},"display_name":"Akdaş, Türkmenbaşy etraby, Balkan welaýaty, Türkmenistan","address":{"town":"Akdaş","county":"Türkmenbaşy etraby","state":"Balkan welaýaty","ISO3166-2-lvl4":"TM-B","country":"Türkmenistan","country_code":"tm"},"osm_type":"way","osm_id":819663291,"type":"administrative","location":[53.1291829,40.0456196],"bbox":[53.1007725,40.0342109,53.1371432,40.0509383]}}
{"name":"Amyderýa","other_names":{"name:ru":"Амыдеря","name:tk":"Amyderýa","old_name":"Kerki-Aryk;Samsonovo"},"display_name":"Amyderýa, Köýtendag etraby, Lebap welaýaty, Türkmenistan","address":{"town":"Amyderýa","county":"Köýtendag etraby","province":"Lebap welaýaty","ISO3166-2-lvl4":"TM-L","country":"Türkmenistan","country_code":"tm"},"osm_type":"node","osm_id":602674519,"type":"town","location":[65.2476516,37.8905251],"bbox":[65.2076516,37.8505251,65.2876516,37.9305251],"border":{"name":"Amyderýa","other_names":{"name:ru":"Амыдеря","name:tk":"Amyderýa","alt_name":"Аму-Дарья;Amu Darya;Amy Derya;","old_name":"Kerki-Aryk","_place_old_name":"Kerki-Aryk;Samsonovo"},"display_name":"Amyderýa, Köýtendag etraby, Lebap welaýaty, Türkmenistan","address":{"town":"Amyderýa","county":"Köýtendag etraby","province":"Lebap welaýaty","ISO3166-2-lvl4":"TM-L","country":"Türkmenistan","country_code":"tm"},"osm_type":"way","osm_id":405731743,"type":"administrative","location":[65.2476516,37.8905251],"bbox":[65.2311858,37.8615462,65.2642307,37.9039928]}}
{"name":"Arçman","other_names":{"name:en":"Archman","name:ml":"ആർച്ച്മാൻ","name:ru":"Арчман","name:tk":"Arçman"},"display_name":"Arçman, Bäherden etraby, Ahal welaýaty, Türkmenistan","address":{"town":"Arçman","county":"Bäherden etraby","state":"Ahal welaýaty","ISO3166-2-lvl4":"TM-A","country":"Türkmenistan","country_code":"tm"},"osm_type":"node","osm_id":1105715758,"type":"town","location":[57.163342,38.5369716],"bbox":[57.123342,38.4969716,57.203342,38.5769716],"border":{"name":"Arçman","other_names":{"name:en":"Archman","name:tk":"Arçman","old_name:en":"Kirova","old_name:ru":"Кирова","old_name:tk":"Kirowa","name:ml":"ആർച്ച്മാൻ","name:ru":"Арчман"},"display_name":"Arçman, Bäherden etraby, Ahal welaýaty, Türkmenistan","address":{"town":"Arçman","county":"Bäherden etraby","state":"Ahal welaýaty","ISO3166-2-lvl4":"TM-A","country":"Türkmenistan","country_code":"tm"},"osm_type":"way","osm_id":818948244,"type":"administrative","location":[57.163342,38.5369716],"bbox":[57.1500828,38.5312401,57.1718409,38.553377]}}
{"name":"Astanababa","other_names":{"name:tk":"Astanababa","old_name":"uchastok imeni Voroshilova","old_name:ru":"участок имени Ворошилова"},"display_name":"Astanababa, Kerki etraby, Lebap welaýaty, Türkmenistan","address":{"town":"Astanababa","village":"Astanababa","county":"Kerki etraby","province":"Lebap welaýaty","ISO3166-2-lvl4":"TM-L","country":"Türkmenistan","country_code":"tm"},"osm_type":"node","osm_id":7120738292,"type":"town","location":[65.125029,37.9020628],"bbox":[65.085029,37.8620628,65.165029,37.9420628],"border":{"name":"Astanababa","other_names":{"name:tk":"Astanababa","old_name:ru":"участок имени Ворошилова","old_name":"uchastok imeni Voroshilova"},"display_name":"Astanababa, Kerki etraby, Lebap welaýaty, Türkmenistan","address":{"village":"Astanababa","county":"Kerki etraby","province":"Lebap welaýaty","ISO3166-2-lvl4":"TM-L","country":"Türkmenistan","country_code":"tm"},"osm_type":"way","osm_id":604208901,"type":"administrative","location":[65.125029,37.9020628],"bbox":[65.0984052,37.8812059,65.1428952,37.9175408]}}
{"name":"Asuda şäherçesi","other_names":{"name:tk":"Asuda şäherçesi","old_name":"Farab-Pristan': Jeýhun"},"display_name":"Asuda şäherçesi, Dänew etraby, Lebap welaýaty, Türkmenistan","address":{"town":"Asuda şäherçesi","county":"Dänew etraby","province":"Lebap welaýaty","ISO3166-2-lvl4":"TM-L","country":"Türkmenistan","country_code":"tm"},"osm_type":"node","osm_id":1068535079,"type":"town","location":[63.5761554,39.144914],"bbox":[63.5361554,39.104914,63.6161554,39.184914],"border":{"name":"Asuda şäherçesi","other_names":{"name:tk":"Asuda şäherçesi","old_name":"Farab-Pristan': Jeýhun"},"display_name":"Asuda şäherçesi, Dänew etraby, Lebap welaýaty, Türkmenistan","address":{"town":"Asuda şäherçesi","county":"Dänew etraby","province":"Lebap welaýaty","ISO3166-2-lvl4":"TM-L","country":"Türkmenistan","country_code":"tm"},"osm_type":"way","osm_id":802296291,"type":"administrative","location":[63.5761554,39.144914],"bbox":[63.5709888,39.1342562,63.5880583,39.1571463]}}
{"name":"Aşyr Kakabaýew adyndaky şäherçe","other_names":{"name:ru":"имени Ашыра Какабаева","name:tk":"Aşyr Kakabaýew adyndaky şäherçe","old_name":"Akjadepe","old_name:ru":"Акджадепе","old_name:tk":"Akjadepe"},"display_name":"Aşyr Kakabaýew adyndaky şäherçe, Saparmyrat Türkmenbaşy etraby, Daşoguz welaýaty, Türkmenistan","address":{"town":"Aşyr Kakabaýew adyndaky şäherçe","county":"Saparmyrat Türkmenbaşy etraby","province":"Daşoguz welaýaty","ISO3166-2-lvl4":"TM-D","country":"Türkmenistan","country_code":"tm"},"osm_type":"node","osm_id":7449550224,"type":"town","location":[58.7144742,42.2862642],"bbox":[58.6744742,42.2462642,58.7544742,42.3262642],"border":{"name":"Aşyr Kakabaýew adyndaky şäherçe","other_names":{"name:ru":"имени Ашыра Какабаева","name:tk":"Aşyr Kakabaýew adyndaky şäherçe","old_name":"Akjadepe","old_name:ru":"Акджадепе","old_name:tk":"Akjadepe"},"display_name":"Aşyr Kakabaýew adyndaky şäherçe, Saparmyrat Türkmenbaşy etraby, Daşoguz welaýaty, Türkmenistan","address":{"town":"Aşyr Kakabaýew adyndaky şäherçe","county":"Saparmyrat Türkmenbaşy etraby","province":"Daşoguz welaýaty","ISO3166-2-lvl4":"TM-D","country":"Türkmenistan","country_code":"tm"},"osm_type":"way","osm_id":796538938,"type":"administrative","location":[58.7144742,42.2862642],"bbox":[58.6945208,42.2723555,58.7389808,42.2960561]}}
{"name":"Bagtyýarlyk şäherçesi","other_names":{"name:en":"Bagtyyarlyk shaherchesi","name:fa":"بختیارلیق","name:ru":"Багтыярлык шахерчеси","name:tk":"Bagtyýarlyk şäherçesi","name:ur":"بختیار","alt_name":"Uchaji","alt_name:ru":"Уч Аджи","old_name:en":"Ucajy","old_name:ru":"Учаджи","old_name:tk":"Ücajy","name:tk-Arab":"باغتیٛارلیٛق شأهرچسی"},"display_name":"Bagtyýarlyk şäherçesi, Baýramaly etraby, Mary welaýaty, Türkmenistan","address":{"town":"Bagtyýarlyk şäherçesi","county":"Baýramaly etraby","province":"Mary welaýaty","ISO3166-2-lvl4":"TM-M","country":"Türkmenistan","country_code":"tm"},"osm_type":"node","osm_id":558823712,"type":"town","location":[62.7949472,38.0898867],"bbox":[62.7549472,38.0498867,62.8349472,38.1298867],"border":{"name":"Bagtyýarlyk şäherçesi","other_names":{"name:en":"Bagtyyarlyk shaherchesi","name:ru":"Багтыярлык шахерчеси","name:tk":"Bagtyýarlyk şäherçesi","old_name":"Üçajy","name:fa":"بختیارلیق","name:ur":"بختیار","alt_name":"Uchaji","alt_name:ru":"Уч Аджи","old_name:en":"Ucajy","old_name:ru":"Учаджи","old_name:tk":"Ücajy","name:tk-Arab":"باغتیٛارلیٛق شأهرچسی"},"display_name":"Bagtyýarlyk şäherçesi, Baýramaly etraby, Mary welaýaty, Türkmenistan","address":{"town":"Bagtyýarlyk şäherçesi","county":"Baýramaly etraby","province":"Mary welaýaty","ISO3166-2-lvl4":"TM-M","country":"Türkmenistan","country_code":"tm"},"osm_type":"way","osm_id":406542714,"type":"administrative","location":[62.7949472,38.0898867],"bbox":[62.7889167,38.0818195,62.8074561,38.0940806]}}
{"name":"Bahar","other_names":{"name:tk":"Bahar","old_name":"Dänew demir ýol stansiýasy obasyna"},"display_name":"Bahar, Dänew etraby, Lebap welaýaty, Türkmenistan","address":{"town":"Bahar","county":"Dänew etraby","province":"Lebap welaýaty","ISO3166-2-lvl4":"TM-L","country":"Türkmenistan","country_code":"tm"},"osm_type":"node","osm_id":7127452136,"type":"town","location":[63.151922,39.2680822],"bbox":[63.111922,39.2280822,63.191922,39.3080822],"border":{"name":"Bahar","other_names":{"name:tk":"Bahar","old_name":"ew demir ýol stansiýasy","_place_old_name":"Dänew demir ýol stansiýasy obasyna"},"display_name":"Bahar, Dänew etraby, Lebap welaýaty, Türkmenistan","address":{"town":"Bahar","county":"Dänew etraby","province":"Lebap welaýaty","ISO3166-2-lvl4":"TM-L","country":"Türkmenistan","country_code":"tm"},"osm_type":"way","osm_id":315570574,"type":"administrative","location":[63.151922,39.2680822],"bbox":[63.1394661,39.2575584,63.1649342,39.276495]}}
{"name":"Başsaka","other_names":{"name:en":"Bashsaka","name:ru":"Башсака","name:tk":"Başsaka","old_name":"Golovnoye","old_name:ru":"Головное","name:tk-Arab":"باشساقا"},"display_name":"Başsaka, Kerki etraby, Lebap welaýaty, Türkmenistan","address":{"town":"Başsaka","county":"Kerki etraby","province":"Lebap welaýaty","ISO3166-2-lvl4":"TM-L","country":"Türkmenistan","country_code":"tm"},"osm_type":"node","osm_id":1068535064,"type":"town","location":[65.646944,37.568056],"bbox":[65.606944,37.528056,65.686944,37.608056],"border":{"name":"Başsaka","other_names":{"name:en":"Bashsaka","name:ru":"Башсака","name:tk":"Başsaka","old_name":"Golovnoye","old_name:ru":"Головное","name:tk-Arab":"باشساقا"},"display_name":"Başsaka, Kerki etraby, Lebap welaýaty, Türkmenistan","address":{"town":"Başsaka","county":"Kerki etraby","province":"Lebap welaýaty","ISO3166-2-lvl4":"TM-L","country":"Türkmenistan","country_code":"tm"},"osm_type":"way","osm_id":655203258,"type":"administrative","location":[65.646944,37.568056],"bbox":[65.637768,37.5558864,65.6562215,37.5704462]}}
{"name":"Belek","other_names":{"name:tk":"Belek"},"display_name":"Belek, Türkmenbaşy etraby, Balkan welaýaty, Türkmenistan","address":{"town":"Belek","county":"Türkmenbaşy etraby","state":"Balkan welaýaty","ISO3166-2-lvl4":"TM-B","country":"Türkmenistan","country_code":"tm"},"osm_type":"node","osm_id":6106562078,"type":"town","location":[53.8473055,39.9385331],"bbox":[53.8073055,39.8985331,53.8873055,39.9785331],"border":{"name":"Belek","other_names":{"name:ru":"Белек","name:tk":"Belek"},"display_name":"Belek, Türkmenbaşy etraby, Balkan welaýaty, Türkmenistan","address":{"town":"Belek","county":"Türkmenbaşy etraby","state":"Balkan welaýaty","ISO3166-2-lvl4":"TM-B","country":"Türkmenistan","country_code":"tm"},"osm_type":"way","osm_id":208322018,"type":"administrative","location":[53.8473055,39.9385331],"bbox":[53.8371694,39.9304667,53.8550327,39.9453296]}}
{"name":"Bereketli Zaman","other_names":{"name:en":"Bereketli Zaman","name:ru":"Берекетли Заман","name:tk":"Bereketli Zaman"},"display_name":"Bereketli Zaman, Ak bugdaý etraby, Ahal welaýaty, Türkmenistan","address":{"town":"Bereketli Zaman","county":"Ak bugdaý etraby","state":"Ahal welaýaty","ISO3166-2-lvl4":"TM-A","country":"Türkmenistan","country_code":"tm"},"osm_type":"way","osm_id":442557346,"type":"administrative","location":[58.71052348686217,37.799302350000005],"bbox":[58.7021634,37.7933995,58.7188539,37.8051646],"inferred_type":"town"}
{"name":"Berkarar şäherçesi","other_names":{"name:tk":"Berkarar şäherçesi","old_name":"Babadurmaz","old_name:tk":"Babadurmaz"},"display_name":"Berkarar şäherçesi, Ak bugdaý etraby, Ahal welaýaty, Türkmenistan","address":{"town":"Berkarar şäherçesi","county":"Ak bugdaý etraby","state":"Ahal welaýaty","ISO3166-2-lvl4":"TM-A","country":"Türkmenistan","country_code":"tm"},"osm_type":"node","osm_id":6239862640,"type":"town","location":[59.1479458,37.6492914],"bbox":[59.1079458,37.6092914,59.1879458,37.6892914],"border":{"name":"Berkarar şäherçesi","other_names":{"name:en":"Berkarar","name:ru":"Беркарар посёлок","name:tk":"Berkarar şäherçesi","old_name":"Babadurmaz","old_name:tk":"Babadurmaz"},"display_name":"Berkarar şäherçesi, Ak bugdaý etraby, Ahal welaýaty, Türkmenistan","address":{"town":"Berkarar şäherçesi","county":"Ak bugdaý etraby","state":"Ahal welaýaty","ISO3166-2-lvl4":"TM-A","country":"Türkmenistan","country_code":"tm"},"osm_type":"way","osm_id":565936137,"type":"administrative","location":[59.1479458,37.6492914],"bbox":[59.1382698,37.6392047,59.1648585,37.6556258]}}
{"name":"Berkarar şäherçesi","other_names":{"name:en":"Berkarar şäherçesi","name:fa":"برقرار","name:ru":"Беркарар посёлок","name:tk":"Berkarar şäherçesi","name:ur":"برقرار","old_name":"Çygaji","old_name:tk":"Çygaji","name:tk-Arab":"برقارار شأهرچسی"},"display_name":"Berkarar şäherçesi, Baýramaly etraby, Mary welaýaty, Türkmenistan","address":{"town":"Berkarar şäherçesi","county":"Baýramaly etraby","province":"Mary welaýaty","ISO3166-2-lvl4":"TM-M","country":"Türkmenistan","country_code":"tm"},"osm_type":"node","osm_id":5505312421,"type":"town","location":[62.6642457,37.9519891],"bbox":[62.6242457,37.9119891,62.7042457,37.9919891],"border":{"name":"Berkarar şäherçesi","other_names":{"name:en":"Berkarar şäherçesi","name:ru":"Беркарар посёлок","name:tk":"Berkarar şäherçesi","old_name":"Çygaji","old_name:en":"Chygaji","old_name:ru":"Чыгаджи","name:fa":"برقرار","name:ur":"برقرار","old_name:tk":"Çygaji","name:tk-Arab":"برقارار شأهرچسی"},"display_name":"Berkarar şäherçesi, Baýramaly etraby, Mary welaýaty, Türkmenistan","address":{"town":"Berkarar şäherçesi","county":"Baýramaly etraby","province":"Mary welaýaty","ISO3166-2-lvl4":"TM-M","country":"Türkmenistan","country_code":"tm"},"osm_type":"way","osm_id":530971822,"type":"administrative","location":[62.6642457,37.9519891],"bbox":[62.6610221,37.9472341,62.6704576,37.9592212]}}
{"name":"Berkarar şäherçesi","other_names":{"name:tk":"Berkarar şäherçesi","old_name":"Moskva","old_name:ru":"Москва"},"display_name":"Berkarar şäherçesi, Tejen etraby, Ahal welaýaty, Türkmenistan","address":{"town":"Berkarar şäherçesi","county":"Tejen etraby","state":"Ahal welaýaty","ISO3166-2-lvl4":"TM-A","country":"Türkmenistan","country_code":"tm"},"osm_type":"node","osm_id":7529031703,"type":"town","location":[60.4266397,37.4150582],"bbox":[60.3866397,37.3750582,60.4666397,37.4550582],"border":{"name":"Berkarar obasy","other_names":{"name:tk":"Berkarar obasy","old_name":"Moskva"},"display_name":"Berkarar obasy, Tejen etraby, Ahal welaýaty, Türkmenistan","address":{"village":"Berkarar obasy","county":"Tejen etraby","state":"Ahal welaýaty","ISO3166-2-lvl4":"TM-A","country":"Türkmenistan","country_code":"tm"},"osm_type":"way","osm_id":593941821,"type":"administrative","location":[60.42703721312893,37.41866695],"bbox":[60.4146336,37.4025196,60.460277,37.4290179]}}
{"name":"Beşir","other_names":{"name:tk":"Beşir"},"display_name":"Beşir, Hojambaz etraby, Lebap welaýaty, Türkmenistan","address":{"town":"Beşir","county":"Hojambaz etraby","province":"Lebap welaýaty","ISO3166-2-lvl4":"TM-L","country":"Türkmenistan","country_code":"tm"},"osm_type":"node","osm_id":7079041842,"type":"town","location":[64.7298189,38.2229023],"bbox":[64.6898189,38.1829023,64.7698189,38.2629023],"border":{"name":"Beşir","other_names":{"name:en":"Beshir","name:ru":"Бешир","name:tk":"Beşir"},"display_name":"Beşir, Hojambaz etraby, Lebap welaýaty, Türkmenistan","address":{"town":"Beşir","county":"Hojambaz etraby","province":"Lebap welaýaty","ISO3166-2-lvl4":"TM-L","country":"Türkmenistan","country_code":"tm"},"osm_type":"way","osm_id":406182528,"type":"administrative","location":[64.7298189,38.2229023],"bbox":[64.7201997,38.2114599,64.7485023,38.2433835]}}
{"name":"Bokurdak","other_names":{"name:en":"Bokurdak","name:ru":"Бокурдак","name:tk":"Bokurdak","alt_name":"Бохурдок;Бахардок","alt_name:en":"Bokhurdok;Bakhardok","old_name:ru":"Бахардок"},"display_name":"Bokurdak, Ak bugdaý etraby, Ahal welaýaty, Türkmenistan","address":{"town":"Bokurdak","county":"Ak bugdaý etraby","state":"Ahal welaýaty","ISO3166-2-lvl4":"TM-A","country":"Türkmenistan","country_code":"tm"},"osm_type":"node","osm_id":2000849380,"type":"town","location":[58.4971041,38.7622739],"bbox":[58.4571041,38.7222739,58.5371041,38.8022739],"border":{"name":"Bokurdak","other_names":{"name:tk":"Bokurdak","old_name:ru":"Бахардок","name:en":"Bokurdak","name:ru":"Бокурдак","alt_name":"Бохурдок;Бахардок","alt_name:en":"Bokhurdok;Bakhardok"},"display_name":"Bokurdak, Ak bugdaý etraby, Ahal welaýaty, Türkmenistan","address":{"town":"Bokurdak","county":"Ak bugdaý etraby","state":"Ahal welaýaty","ISO3166-2-lvl4":"TM-A","country":"Türkmenistan","country_code":"tm"},"osm_type":"way","osm_id":1157773583,"type":"administrative","location":[58.4971041,38.7622739],"bbox":[58.4856961,38.7430785,58.5098363,38.7844841]}}
{"name":"Çaltut şäherçesi","other_names":{"name:en":"Chaltut","name:ru":"Чалтут","name:tk":"Çaltut şäherçesi"},"display_name":"Çaltut şäherçesi, Saýat etraby, Lebap welaýaty, Türkmenistan","address":{"town":"Çaltut şäherçesi","county":"Saýat etraby","province":"Lebap welaýaty","ISO3166-2-lvl4":"TM-L","country":"Türkmenistan","country_code":"tm"},"osm_type":"node","osm_id":1068535103,"type":"town","location":[63.6898459,38.9762434],"bbox":[63.6498459,38.9362434,63.7298459,39.0162434],"border":{"name":"Çaltut şäherçesi","other_names":{"name:en":"Chaltut","name:ru":"Чалтут","name:tk":"Çaltut şäherçesi","alt_name":"колзоз имени Горького"},"display_name":"Çaltut şäherçesi, Saýat etraby, Lebap welaýaty, Türkmenistan","address":{"town":"Çaltut şäherçesi","county":"Saýat etraby","province":"Lebap welaýaty","ISO3166-2-lvl4":"TM-L","country":"Türkmenistan","country_code":"tm"},"osm_type":"way","osm_id":503731437,"type":"administrative","location":[63.6898459,38.9762434],"bbox":[63.6782159,38.963848,63.7007106,38.9850726]}}
{"name":"Çärjew","other_names":{"name:az":"Çarcuy","name:en":"Chardjuy","name:fa":"چهارجوی","name:kk":"Шаржүй","name:ru":"Чарджев","name:tg":"Чорҷӯй","name:tk":"Çärjew","name:tr":"Çarçou","name:uz":"Chorjo'y","name:azb":"چهارجوی","alt_name:en":"Çärjew","old_name:en":"Ptitsesovkhoz;Gushchular","old_name:ru":"Птицесовхоз;Гушчулар","old_name:tk":"Ptisesowhoz;Guşçular","name:kk-Arab":"ءشارجۇي","name:kk-Cyrl":"Шаржүй","name:kk-Latn":"Şarjüi","name:tk-Arab":"چأرجو","name:uz-Arab":"چارجۉی","name:uz-Cyrl":"Чоржўй","name:uz-Latn":"Chorjo'y"},"display_name":"Çärjew, Çärjew etraby, Lebap welaýaty, Türkmenistan","address":{"town":"Çärjew","county":"Çärjew etraby","province":"Lebap welaýaty","ISO3166-2-lvl4":"TM-L","country":"Türkmenistan","country_code":"tm"},"osm_type":"node","osm_id":7519683674,"type":"town","location":[63.4937827,39.0899043],"bbox":[63.4537827,39.0499043,63.5337827,39.1299043],"border":{"name":"Çärjew","other_names":{"name:tk":"Çärjew","name:az":"Çarcuy","name:en":"Chardjuy","name:fa":"چهارجوی","name:kk":"Шаржүй","name:ru":"Чарджев","name:tg":"Чорҷӯй","name:tr":"Çarçou","name:uz":"Chorjo'y","name:azb":"چهارجوی","alt_name:en":"Çärjew","old_name:en":"Ptitsesovkhoz;Gushchular","old_name:ru":"Птицесовхоз;Гушчулар","old_name:tk":"Ptisesowhoz;Guşçular","name:kk-Arab":"ءشارجۇي","name:kk-Cyrl":"Шаржүй","name:kk-Latn":"Şarjüi","name:tk-Arab":"چأرجو","name:uz-Arab":"چارجۉی","name:uz-Cyrl":"Чоржўй","name:uz-Latn":"Chorjo'y"},"display_name":"Çärjew, Çärjew etraby, Lebap welaýaty, Türkmenistan","address":{"town":"Çärjew","county":"Çärjew etraby","province":"Lebap welaýaty","ISO3166-2-lvl4":"TM-L","country":"Türkmenistan","country_code":"tm"},"osm_type":"way","osm_id":440510638,"type":"administrative","location":[63.4937827,39.0899043],"bbox":[63.4819919,39.086055,63.5016703,39.0997694]}}
{"name":"Çohpetde şäherçesi","other_names":{"name:tk":"Çohpetde şäherçesi","alt_name":"Chokh-Petta"},"display_name":"Çohpetde şäherçesi, Halaç etraby, Lebap welaýaty, Türkmenistan","address":{"town":"Çohpetde şäherçesi","county":"Halaç etraby","province":"Lebap welaýaty","ISO3166-2-lvl4":"TM-L","country":"Türkmenistan","country_code":"tm"},"osm_type":"node","osm_id":1068535119,"type":"town","location":[65.0356111,37.9722726],"bbox":[64.9956111,37.9322726,65.0756111,38.0122726],"border":{"name":"Çohpetde şäherçesi","other_names":{"name:tk":"Çohpetde şäherçesi","alt_name":"Chokh-Petta"},"display_name":"Çohpetde şäherçesi, Halaç etraby, Lebap welaýaty, Türkmenistan","address":{"town":"Çohpetde şäherçesi","county":"Halaç etraby","province":"Lebap welaýaty","ISO3166-2-lvl4":"TM-L","country":"Türkmenistan","country_code":"tm"},"osm_type":"way","osm_id":255288682,"type":"administrative","location":[65.0356111,37.9722726],"bbox":[65.011222,37.9533392,65.0480343,37.9781155]}}
{"display_name":"Darganata etraby, Lebap welaýaty, Türkmenistan","address":{"county":"Darganata etraby","province":"Lebap welaýaty","ISO3166-2-lvl4":"TM-L","country":"Türkmenistan","country_code":"tm"},"osm_type":"node","osm_id":7083894691,"type":"town","location":[62.2967623,40.3838052],"bbox":[62.2567623,40.3438052,62.3367623,40.4238052]}
{"name":"Döwletli zaman","other_names":{"name:fa":"دولتلی زمان","name:tk":"Döwletli zaman","name:tk-Arab":"دؤولتلی زامان"},"display_name":"Döwletli zaman, Mary welaýaty, Türkmenistan","address":{"town":"Döwletli zaman","province":"Mary welaýaty","ISO3166-2-lvl4":"TM-M","country":"Türkmenistan","country_code":"tm"},"osm_type":"node","osm_id":7512861062,"type":"town","location":[61.3164176,37.3370345],"bbox":[61.2764176,37.2970345,61.3564176,37.3770345],"border":{"name":"Döwletli zaman","other_names":{"name:tk":"Döwletli zaman","name:fa":"دولتلی زمان","name:tk-Arab":"دؤولتلی زامان"},"display_name":"Döwletli zaman, Mary welaýaty, Türkmenistan","address":{"town":"Döwletli zaman","province":"Mary welaýaty","ISO3166-2-lvl4":"TM-M","country":"Türkmenistan","country_code":"tm"},"osm_type":"way","osm_id":628996804,"type":"administrative","location":[61.3164176,37.3370345],"bbox":[61.308673,37.3321887,61.325191,37.3443188]}}
{"name":"Döwletli","other_names":{"name:en":"Dovletli","name:tk":"Döwletli","old_name":"Jeyhun;Jeýhun"},"display_name":"Döwletli, Döwletli şäherçesi, Hojambaz etraby, Lebap welaýaty, Türkmenistan","address":{"town":"Döwletli","county":"Hojambaz etraby","province":"Lebap welaýaty","ISO3166-2-lvl4":"TM-L","country":"Türkmenistan","country_code":"tm"},"osm_type":"node","osm_id":4737706221,"type":"town","location":[65.5707984,38.0159367],"bbox":[65.5307984,37.9759367,65.6107984,38.0559367],"border":{"name":"Döwletli şäherçesi","other_names":{"name:en":"Dovletli","name:ru":"Довлетли","name:tk":"Döwletli şäherçesi","old_name":"Jeýhun","_place_old_name":"Jeyhun;Jeýhun","alt":"Döwletli","alt:tk":"Döwletli"},"display_name":"Döwletli şäherçesi, Hojambaz etraby, Lebap welaýaty, Türkmenistan","address":{"town":"Döwletli şäherçesi","county":"Hojambaz etraby","province":"Lebap welaýaty","ISO3166-2-lvl4":"TM-L","country":"Türkmenistan","country_code":"tm"},"osm_type":"way","osm_id":762109670,"type":"administrative","location":[65.5707984,38.0159367],"bbox":[65.5452964,37.9899618,65.5814544,38.0229971]}}
{"name":"Duşak","other_names":{"name:en":"Dushak","name:fa":"دوشک","name:ml":"ദൂഷക്ക്","name:ru":"Душак","name:tk":"Duşak","name:uz":"To'shak","name:tk-Arab":"دوشاک","name:uz-Arab":"تۉشک","name:uz-Cyrl":"Тўшак","name:uz-Latn":"To'shak"},"display_name":"Duşak, Kaka etraby, Ahal welaýaty, Türkmenistan","address":{"town":"Duşak","county":"Kaka etraby","state":"Ahal welaýaty","ISO3166-2-lvl4":"TM-A","country":"Türkmenistan","country_code":"tm"},"osm_type":"node","osm_id":6109187284,"type":"town","location":[60.0089775,37.1909553],"bbox":[59.9689775,37.1509553,60.0489775,37.2309553],"border":{"name":"Duşak","other_names":{"name:en":"Dushak","name:ru":"Душак","name:tk":"Duşak","name:fa":"دوشک","name:ml":"ദൂഷക്ക്","name:uz":"To'shak","name:tk-Arab":"دوشاک","name:uz-Arab":"تۉشک","name:uz-Cyrl":"Тўшак","name:uz-Latn":"To'shak"},"display_name":"Duşak, Kaka etraby, Ahal welaýaty, Türkmenistan","address":{"town":"Duşak","county":"Kaka etraby","state":"Ahal welaýaty","ISO3166-2-lvl4":"TM-A","country":"Türkmenistan","country_code":"tm"},"osm_type":"way","osm_id":581407673,"type":"administrative","location":[60.0089775,37.1909553],"bbox":[59.9933523,37.1718567,60.0430327,37.2043929]}}
{"name":"Ekerem","other_names":{"name:ru":"Экерем","name:tk":"Ekerem","alt_name":"Okarem","old_name:ru":"Окарем"},"display_name":"Ekerem, Esenguly etraby, Balkan welaýaty, Türkmenistan","address":{"town":"Ekerem","county":"Esenguly etraby","state":"Balkan welaýaty","ISO3166-2-lvl4":"TM-B","country":"Türkmenistan","country_code":"tm"},"osm_type":"node","osm_id":1068535268,"type":"town","location":[53.8409145,38.0661593],"bbox":[53.8009145,38.0261593,53.8809145,38.1061593],"border":{"name":"Ekerem","other_names":{"name:tk":"Ekerem","old_name:ru":"Окарем","name:ru":"Экерем","alt_name":"Okarem"},"display_name":"Ekerem, Esenguly etraby, Balkan welaýaty, Türkmenistan","address":{"town":"Ekerem","county":"Esenguly etraby","state":"Balkan welaýaty","ISO3166-2-lvl4":"TM-B","country":"Türkmenistan","country_code":"tm"},"osm_type":"way","osm_id":790031956,"type":"administrative","location":[53.8409145,38.0661593],"bbox":[53.8319091,38.0547062,53.8532884,38.0732678]}}
{"name":"Galkynyş","other_names":{"name:en":"Galkynysh","name:tk":"Galkynyş"},"display_name":"Galkynyş, Bereket etraby, Balkan welaýaty, Türkmenistan","address":{"town":"Galkynyş","county":"Bereket etraby","state":"Balkan welaýaty","ISO3166-2-lvl4":"TM-B","country":"Türkmenistan","country_code":"tm"},"osm_type":"node","osm_id":12636802188,"type":"town","location":[55.8807671,39.1787704],"bbox":[55.8407671,39.1387704,55.9207671,39.2187704],"border":{"name":"Galkynyş","other_names":{"name:en":"Galkynysh","name:tk":"Galkynyş"},"display_name":"Galkynyş, Bereket etraby, Balkan welaýaty, Türkmenistan","address":{"town":"Galkynyş","county":"Bereket etraby","state":"Balkan welaýaty","ISO3166-2-lvl4":"TM-B","country":"Türkmenistan","country_code":"tm"},"osm_type":"way","osm_id":586985078,"type":"administrative","location":[55.87915231658571,39.1834271],"bbox":[55.8720615,39.1737292,55.8916979,39.1866698]}}
{"name":"Gaňňaly","other_names":{"name:en":"Gangaly","name:fa":"قانگلی","name:ru":"Гангалы","name:tk":"Gaňňaly","old_name":"Tejenstroý","old_name:ru":"Тедженстрой","name:tk-Arab":"قانگلیٛ"},"display_name":"Gaňňaly, Sarahs etraby, Ahal welaýaty, Türkmenistan","address":{"town":"Gaňňaly","county":"Sarahs etraby","state":"Ahal welaýaty","ISO3166-2-lvl4":"TM-A","country":"Türkmenistan","country_code":"tm"},"osm_type":"node","osm_id":1076849808,"type":"town","location":[60.7945524,37.0333259],"bbox":[60.7545524,36.9933259,60.8345524,37.0733259],"border":{"name":"Gaňňaly","other_names":{"name:tk":"Gaňňaly","old_name:ru":"Тедженстрой","name:en":"Gangaly","name:fa":"قانگلی","name:ru":"Гангалы","old_name":"Tejenstroý","name:tk-Arab":"قانگلیٛ"},"display_name":"Gaňňaly, Sarahs etraby, Ahal welaýaty, Türkmenistan","address":{"town":"Gaňňaly","county":"Sarahs etraby","state":"Ahal welaýaty","ISO3166-2-lvl4":"TM-A","country":"Türkmenistan","country_code":"tm"},"osm_type":"way","osm_id":651514380,"type":"administrative","location":[60.7945524,37.0333259],"bbox":[60.7890588,37.0260712,60.8010142,37.0397287]}}
{"name":"Garadepe","other_names":{"name:tk":"Garadepe"},"display_name":"Garadepe, Esenguly etraby, Balkan welaýaty, Türkmenistan","address":{"town":"Garadepe","county":"Esenguly etraby","state":"Balkan welaýaty","ISO3166-2-lvl4":"TM-B","country":"Türkmenistan","country_code":"tm"},"osm_type":"node","osm_id":558823363,"type":"town","location":[54.0343208,38.0320984],"bbox":[53.9943208,37.9920984,54.0743208,38.0720984],"border":{"name":"Garadepe","other_names":{"name:tk":"Garadepe"},"display_name":"Garadepe, Esenguly etraby, Balkan welaýaty, 800245, Türkmenistan","address":{"town":"Garadepe","county":"Esenguly etraby","state":"Balkan welaýaty","ISO3166-2-lvl4":"TM-B","postcode":"800245","country":"Türkmenistan","country_code":"tm"},"osm_type":"way","osm_id":43945829,"type":"administrative","location":[54.0343208,38.0320984],"bbox":[54.0224203,38.0208299,54.0479926,38.0503483]}}
{"name":"Garamätnyýaz","other_names":{"name:ru":"Гараметнияз","name:tk":"Garamätnyýaz","old_name":"Karamet-Niyaz"},"display_name":"Garamätnyýaz, Hojambaz etraby, Lebap welaýaty, Türkmenistan","address":{"town":"Garamätnyýaz","county":"Hojambaz etraby","province":"Lebap welaýaty","ISO3166-2-lvl4":"TM-L","country":"Türkmenistan","country_code":"tm"},"osm_type":"node","osm_id":1068535280,"type":"town","location":[64.5552941,37.7404169],"bbox":[64.5152941,37.7004169,64.5952941,37.7804169],"border":{"name":"Garamätnyýaz","other_names":{"name:ru":"Гараметнияз","name:tk":"Garamätnyýaz","old_name":"Karamet-Niyaz"},"display_name":"Garamätnyýaz, Hojambaz etraby, Lebap welaýaty, Türkmenistan","address":{"town":"Garamätnyýaz","county":"Hojambaz etraby","province":"Lebap welaýaty","ISO3166-2-lvl4":"TM-L","country":"Türkmenistan","country_code":"tm"},"osm_type":"way","osm_id":485043174,"type":"administrative","location":[64.5552941,37.7404169],"bbox":[64.5445179,37.7344733,64.5684971,37.7451958]}}
{"name":"Garaşsyzlygyň 15 ýyllygy adyndaky şäherçe","other_names":{"name:en":"15 Years of Independence Town","name:ru":"Посёлок имени 15-летия независимости","name:tk":"Garaşsyzlygyň 15 ýyllygy adyndaky şäherçe","old_name":"Zeid","name:tk-Arab":"غاراشسیٛزلیٛغیٛنگ ۱۵ ییٛللیٛغیٛ آدیٛنداقیٛ شأهرچه"},"display_name":"Garaşsyzlygyň 15 ýyllygy adyndaky şäherçe, Hojambaz etraby, Lebap welaýaty, Türkmenistan","address":{"town":"Garaşsyzlygyň 15 ýyllygy adyndaky şäherçe","county":"Hojambaz etraby","province":"Lebap welaýaty","ISO3166-2-lvl4":"TM-L","country":"Türkmenistan","country_code":"tm"},"osm_type":"node","osm_id":7120425063,"type":"town","location":[65.1149387,37.5840253],"bbox":[65.0749387,37.5440253,65.1549387,37.6240253],"border":{"name":"Garaşsyzlygyň 15 ýyllygy adyndaky şäherçe","other_names":{"name:en":"15 Years of Independence Town","name:fa":"شهرک قاراش‌سیزلیغینگ اون‌بش-ایل‌لیغی","name:kk":"Тәуелсіздіктің 15 жылдығы атындағы қалашық","name:ru":"Посёлок имени 15-летия независимости","name:tk":"Garaşsyzlygyň 15 ýyllygy adyndaky şäherçe","name:ug":"مۇستەقىللىقنىڭ 15 يىللىغى بىلەن ئاتالغان بازار","name:uz":"Mustaqillikning 15 yilligi nomidagi shaharcha","old_name":"Zeid","old_name:ru":"Зеид","name:kk-Arab":"تاۋەلسىزدىكتىڭ 15 جىلدىعى اتىنداعى قالاشىق","name:tk-Arab":"قاراش‌سیٛزلیٛغینگ اوْن‌بأش ییٛل‌لیٛغیٛ‌ شأهرچه","name:uz-Arab":"مستقل‌لیک‌نینگ ۱۵ ییل‌لیگی نامیده‌گی شهرچه","alt:tk-Arab":"غاراشسیٛزلیٛغیٛنگ ۱۵ ییٛللیٛغیٛ آدیٛنداقیٛ شأهرچه"},"display_name":"Garaşsyzlygyň 15 ýyllygy adyndaky şäherçe, Hojambaz etraby, Lebap welaýaty, Türkmenistan","address":{"town":"Garaşsyzlygyň 15 ýyllygy adyndaky şäherçe","county":"Hojambaz etraby","province":"Lebap welaýaty","ISO3166-2-lvl4":"TM-L","country":"Türkmenistan","country_code":"tm"},"osm_type":"way","osm_id":580126101,"type":"administrative","location":[65.1149387,37.5840253],"bbox":[65.1079328,37.5763042,65.1229065,37.5905599]}}
{"name":"Garaşsyzlyk şäherçesi","display_name":"Garaşsyzlyk şäherçesi, Dänew etraby, Lebap welaýaty, Türkmenistan","address":{"town":"Garaşsyzlyk şäherçesi","county":"Dänew etraby","province":"Lebap welaýaty","ISO3166-2-lvl4":"TM-L","country":"Türkmenistan","country_code":"tm"},"osm_type":"node","osm_id":10785327800,"type":"town","location":[63.3195052,39.2233996],"bbox":[63.2795052,39.1833996,63.3595052,39.2633996],"border":{"name":"Garaşsyzlyk şäherçesi","other_names":{"name:tk":"Garaşsyzlyk şäherçesi","old_name":"Moskovsk, Nyýazow","old_name:ru":"Московск, Ниязов"},"display_name":"Garaşsyzlyk şäherçesi, Dänew etraby, Lebap welaýaty, Türkmenistan","address":{"town":"Garaşsyzlyk şäherçesi","county":"Dänew etraby","province":"Lebap welaýaty","ISO3166-2-lvl4":"TM-L","country":"Türkmenistan","country_code":"tm"},"osm_type":"way","osm_id":591408424,"type":"administrative","location":[63.3195052,39.2233996],"bbox":[63.3094132,39.2130119,63.3367181,39.2288873]}}
{"name":"Garlyk","other_names":{"name:tk":"Garlyk","old_name:ru":"Карлюк"},"display_name":"Garlyk, Köýtendag etraby, Lebap welaýaty, Türkmenistan","address":{"town":"Garlyk","county":"Köýtendag etraby","province":"Lebap welaýaty","ISO3166-2-lvl4":"TM-L","country":"Türkmenistan","country_code":"tm"},"osm_type":"node","osm_id":6089131891,"type":"town","location":[66.3402029,37.5899115],"bbox":[66.3002029,37.5499115,66.3802029,37.6299115],"border":{"name":"Garlyk","other_names":{"name:tk":"Garlyk","old_name:ru":"Карлюк"},"display_name":"Garlyk, Köýtendag etraby, Lebap welaýaty, Türkmenistan","address":{"town":"Garlyk","county":"Köýtendag etraby","province":"Lebap welaýaty","ISO3166-2-lvl4":"TM-L","country":"Türkmenistan","country_code":"tm"},"osm_type":"way","osm_id":531255293,"type":"administrative","location":[66.3402029,37.5899115],"bbox":[66.3139944,37.5794444,66.3494635,37.5955095]}}
{"name":"Gökçäge","other_names":{"name:tk":"Gökçäge","name:tk-Arab":"گؤک‌چأقه"},"display_name":"Gökçäge, Akdepe etraby, Daşoguz welaýaty, Türkmenistan","address":{"town":"Gökçäge","county":"Akdepe etraby","province":"Daşoguz welaýaty","ISO3166-2-lvl4":"TM-D","country":"Türkmenistan","country_code":"tm"},"osm_type":"node","osm_id":10186710598,"type":"town","location":[59.860574,42.0096377],"bbox":[59.820574,41.9696377,59.900574,42.0496377]}
{"name":"Gumdag","other_names":{"name:az":"Qumdağ","name:en":"Gumdag","name:fa":"قوم‌داغ","name:ru":"Кумдаг","name:tk":"Gumdag","name:azb":"قوم‌داغ","name:tk-Arab":"قوُم‌داغ"},"display_name":"Gumdag, Balkan welaýaty, Türkmenistan","address":{"town":"Gumdag","state":"Balkan welaýaty","ISO3166-2-lvl4":"TM-B","country":"Türkmenistan","country_code":"tm"},"osm_type":"node","osm_id":275167009,"type":"town","location":[54.587459,39.2023717],"bbox":[54.547459,39.1623717,54.627459,39.2423717],"border":{"name":"Gumdag","other_names":{"name:ru":"Кумдаг","name:tk":"Gumdag","name:az":"Qumdağ","name:en":"Gumdag","name:fa":"قوم‌داغ","name:azb":"قوم‌داغ","name:tk-Arab":"قوُم‌داغ"},"display_name":"Gumdag, Balkan welaýaty, Türkmenistan","address":{"town":"Gumdag","state":"Balkan welaýaty","ISO3166-2-lvl4":"TM-B","country":"Türkmenistan","country_code":"tm"},"osm_type":"way","osm_id":43945833,"type":"administrative","location":[54.587459,39.2023717],"bbox":[54.5674618,39.1871736,54.6303435,39.2309209]}}
{"name":"Gurşun Magdan Käni şäherçesi","other_names":{"name:en":"Gurshun Magdan Kani","name:ru":"Свинцовый Рудник","name:tk":"Gurşun Magdan Käni şäherçesi"},"display_name":"Gurşun Magdan Käni şäherçesi, Köýtendag etraby, Lebap welaýaty, Türkmenistan","address":{"town":"Gurşun Magdan Käni şäherçesi","county":"Köýtendag etraby","province":"Lebap welaýaty","ISO3166-2-lvl4":"TM-L","country":"Türkmenistan","country_code":"tm"},"osm_type":"node","osm_id":1068535208,"type":"town","location":[66.4460675,37.8728871],"bbox":[66.4060675,37.8328871,66.4860675,37.9128871],"border":{"name":"Gurşun Magdan Käni şäherçesi","other_names":{"name:en":"Gurshun Magdan Kani","name:ru":"Свинцовый Рудник","name:tk":"Gurşun Magdan Käni şäherçesi"},"display_name":"Gurşun Magdan Käni şäherçesi, Köýtendag etraby, Lebap welaýaty, Türkmenistan","address":{"town":"Gurşun Magdan Käni şäherçesi","county":"Köýtendag etraby","province":"Lebap welaýaty","ISO3166-2-lvl4":"TM-L","country":"Türkmenistan","country_code":"tm"},"osm_type":"way","osm_id":531255297,"type":"administrative","location":[66.4460675,37.8728871],"bbox":[66.4175229,37.8454062,66.4602552,37.8848173]}}
{"name":"Guwlymaýak","other_names":{"name:en":"Guvlymayak;Guwlymayak","name:ru":"Куули-Маяк","name:tk":"Guwlymaýak","old_name":"Kuuli-Mayak"},"display_name":"Guwlymaýak, Türkmenbaşy etraby, Balkan welaýaty, Türkmenistan","address":{"town":"Guwlymaýak","county":"Türkmenbaşy etraby","state":"Balkan welaýaty","ISO3166-2-lvl4":"TM-B","country":"Türkmenistan","country_code":"tm"},"osm_type":"node","osm_id":7120250395,"type":"town","location":[52.7346061,40.2448091],"bbox":[52.6946061,40.2048091,52.7746061,40.2848091],"border":{"name":"Guwlymaýak","other_names":{"name:ru":"Куули-Маяк","name:tk":"Guwlymaýak","official_name":"Guwlymaýak","name:en":"Guvlymayak;Guwlymayak","old_name":"Kuuli-Mayak"},"display_name":"Guwlymaýak, Türkmenbaşy etraby, Balkan welaýaty, Türkmenistan","address":{"town":"Guwlymaýak","county":"Türkmenbaşy etraby","state":"Balkan welaýaty","ISO3166-2-lvl4":"TM-B","country":"Türkmenistan","country_code":"tm"},"osm_type":"way","osm_id":645992705,"type":"administrative","location":[52.7346061,40.2448091],"bbox":[52.730025,40.2404541,52.7486115,40.2515326]}}
{"name":"Gyzylgaýa","other_names":{"name:en":"Gyzylgaya","name:ru":"Гызылгая","name:tk":"Gyzylgaýa"},"display_name":"Gyzylgaýa, Türkmenbaşy etraby, Balkan welaýaty, Türkmenistan","address":{"town":"Gyzylgaýa","county":"Türkmenbaşy etraby","state":"Balkan welaýaty","ISO3166-2-lvl4":"TM-B","country":"Türkmenistan","country_code":"tm"},"osm_type":"node","osm_id":558823447,"type":"town","location":[55.4654267,40.6215847],"bbox":[55.4254267,40.5815847,55.5054267,40.6615847],"border":{"name":"Gyzylgaýa","other_names":{"name:en":"Gyzylgaya","name:ru":"Гызылгая","name:tk":"Gyzylgaýa"},"display_name":"Gyzylgaýa, Türkmenbaşy etraby, Balkan welaýaty, Türkmenistan","address":{"town":"Gyzylgaýa","county":"Türkmenbaşy etraby","state":"Balkan welaýaty","ISO3166-2-lvl4":"TM-B","country":"Türkmenistan","country_code":"tm"},"osm_type":"way","osm_id":327230464,"type":"administrative","location":[55.4654267,40.6215847],"bbox":[55.4599788,40.6169065,55.4723184,40.6256367]}}
{"name":"Gyzylsuw","other_names":{"name:fa":"قزل‌سو","name:tk":"Gyzylsuw","alt_name":"Kyzyl Suw;Kyzyl Su;Kyzyl Suv","old_name:ru":"Кызыл-Су","name:tk-Arab":"قیزیل‌سوُو"},"display_name":"Gyzylsuw, Türkmenbaşy etraby, Balkan welaýaty, Türkmenistan","address":{"town":"Gyzylsuw","county":"Türkmenbaşy etraby","state":"Balkan welaýaty","ISO3166-2-lvl4":"TM-B","country":"Türkmenistan","country_code":"tm"},"osm_type":"node","osm_id":1068535190,"type":"town","location":[53.0115541,39.7976576],"bbox":[52.9715541,39.7576576,53.0515541,39.8376576],"border":{"name":"Gyzylsuw","other_names":{"name:ru":"Гызылсув","name:tk":"Gyzylsuw","name:fa":"قزل‌سو","alt_name":"Kyzyl Suw;Kyzyl Su;Kyzyl Suv","old_name:ru":"Кызыл-Су","name:tk-Arab":"قیزیل‌سوُو","old_name:ru:1881-1993":"Кизыл-Су"},"display_name":"Gyzylsuw, Türkmenbaşy etraby, Balkan welaýaty, Türkmenistan","address":{"town":"Gyzylsuw","county":"Türkmenbaşy etraby","state":"Balkan welaýaty","ISO3166-2-lvl4":"TM-B","country":"Türkmenistan","country_code":"tm"},"osm_type":"way","osm_id":762088107,"type":"administrative","location":[53.0115541,39.7976576],"bbox":[53.006346,39.7936395,53.0160381,39.8006613]}}
{"name":"Hanhowuz (Deňizhan)","other_names":{"name:tk":"Hanhowuz (Deňizhan)","alt_name":"Khauz-Khan","old_name":"Hauz Han","old_name:ru":"Хауз-Хан","official_name":"Deňizhan şäherçesi"},"display_name":"Hanhowuz (Deňizhan), Murgap etraby, Mary welaýaty, Türkmenistan","address":{"town":"Hanhowuz (Deňizhan)","county":"Murgap etraby","province":"Mary welaýaty","ISO3166-2-lvl4":"TM-M","country":"Türkmenistan","country_code":"tm"},"osm_type":"node","osm_id":1068535127,"type":"town","location":[61.2454557,37.2355416],"bbox":[61.2054557,37.1955416,61.2854557,37.2755416],"border":{"name":"Hanhowuz (Deňizhan)","other_names":{"name:ru":"Ханховуз (Денгизхан)","name:tk":"Hanhowuz (Deňizhan)","old_name":"Hauz Han","official_name":"Deňizhan şäherçesi","alt_name":"Khauz-Khan","old_name:ru":"Хауз-Хан"},"display_name":"Hanhowuz (Deňizhan), Murgap etraby, Mary welaýaty, Türkmenistan","address":{"town":"Hanhowuz (Deňizhan)","county":"Murgap etraby","province":"Mary welaýaty","ISO3166-2-lvl4":"TM-M","country":"Türkmenistan","country_code":"tm"},"osm_type":"way","osm_id":406455918,"type":"administrative","location":[61.2454557,37.2355416],"bbox":[61.2374914,37.2272447,61.2517179,37.2398015]}}
{"name":"Hazar","other_names":{"name:az":"Xəzər","name:en":"Hazar","name:fa":"خزر","name:ru":"Хазар","name:tk":"Hazar","name:azb":"خزر","old_name":"Cheleken","old_name:fa":"چهارکن","old_name:ru":"Челекен","old_name:tk":"Çeleken","name:tk-Arab":"حازار","old_name:tk-Arab":"چله‌کن"},"display_name":"Hazar, Balkan welaýaty, Türkmenistan","address":{"town":"Hazar","state":"Balkan welaýaty","ISO3166-2-lvl4":"TM-B","country":"Türkmenistan","country_code":"tm"},"population":29131,"osm_type":"node","osm_id":3864684657,"type":"town","location":[53.1259978,39.4036025],"bbox":[53.0859978,39.3636025,53.1659978,39.4436025],"border":{"name":"Hazar","other_names":{"name:en":"Hazar","name:ru":"Хазар","name:tk":"Hazar","old_name:en":"Cheleken","old_name:ru":"Челекен","old_name:tk":"Çeleken","name:az":"Xəzər","name:fa":"خزر","name:azb":"خزر","old_name":"Cheleken","old_name:fa":"چهارکن","name:tk-Arab":"حازار","old_name:tk-Arab":"چله‌کن"},"display_name":"Hazar, Balkan welaýaty, 745030, Türkmenistan","address":{"town":"Hazar","state":"Balkan welaýaty","ISO3166-2-lvl4":"TM-B","postcode":"745030","country":"Türkmenistan","country_code":"tm"},"population":29131,"osm_type":"way","osm_id":340483597,"type":"administrative","location":[53.1259978,39.4036025],"bbox":[53.1149188,39.3779462,53.1637162,39.4206994]}}
{"name":"Hojagala şäherçesi","other_names":{"name:tk":"Hojagala şäherçesi","old_name":"Oktyabrsk","old_name:ru":"Октябрьск"},"display_name":"Hojagala şäherçesi, Çärjew etraby, Lebap welaýaty, Türkmenistan","address":{"town":"Hojagala şäherçesi","county":"Çärjew etraby","province":"Lebap welaýaty","ISO3166-2-lvl4":"TM-L","country":"Türkmenistan","country_code":"tm"},"osm_type":"node","osm_id":7509182406,"type":"town","location":[63.4342411,39.1326365],"bbox":[63.3942411,39.0926365,63.4742411,39.1726365],"border":{"name":"Hojagala şäherçesi","other_names":{"name:tk":"Hojagala şäherçesi","old_name":"Oktyabrsk","old_name:ru":"Октябрьск"},"display_name":"Hojagala şäherçesi, Çärjew etraby, Lebap welaýaty, Türkmenistan","address":{"town":"Hojagala şäherçesi","county":"Çärjew etraby","province":"Lebap welaýaty","ISO3166-2-lvl4":"TM-L","country":"Türkmenistan","country_code":"tm"},"osm_type":"way","osm_id":592711881,"type":"administrative","location":[63.4342411,39.1326365],"bbox":[63.4215027,39.1278631,63.4538019,39.1380577]}}
{"name":"Janahyr şäherçesi","other_names":{"name:ru":"Джанахыр","name:tk":"Janahyr şäherçesi"},"display_name":"Janahyr şäherçesi, Gyzylarbat etraby, Balkan welaýaty, Türkmenistan","address":{"town":"Janahyr şäherçesi","county":"Gyzylarbat etraby","state":"Balkan welaýaty","ISO3166-2-lvl4":"TM-B","country":"Türkmenistan","country_code":"tm"},"osm_type":"node","osm_id":7613886410,"type":"town","location":[56.2320034,38.9702662],"bbox":[56.1920034,38.9302662,56.2720034,39.0102662],"border":{"name":"Janahyr şäherçesi","other_names":{"name:ru":"Джанахыр","name:tk":"Janahyr şäherçesi"},"display_name":"Janahyr şäherçesi, Gyzylarbat etraby, Balkan welaýaty, Türkmenistan","address":{"town":"Janahyr şäherçesi","county":"Gyzylarbat etraby","state":"Balkan welaýaty","ISO3166-2-lvl4":"TM-B","country":"Türkmenistan","country_code":"tm"},"osm_type":"way","osm_id":216542673,"type":"administrative","location":[56.2320034,38.9702662],"bbox":[56.2182199,38.9612059,56.2459802,38.9830256]}}
{"name":"Jebel","other_names":{"name:en":"Jebel","name:ru":"Джебел","name:tk":"Jebel","int_name":"Dzhebel"},"display_name":"Jebel, Balkan welaýaty, Türkmenistan","address":{"town":"Jebel","state":"Balkan welaýaty","ISO3166-2-lvl4":"TM-B","country":"Türkmenistan","country_code":"tm"},"osm_type":"node","osm_id":275162634,"type":"town","location":[54.2374781,39.6311735],"bbox":[54.1974781,39.5911735,54.2774781,39.6711735],"border":{"name":"Jebel","other_names":{"name:en":"Jebel","name:ru":"Джебел","name:tk":"Jebel","int_name":"Dzhebel"},"display_name":"Jebel, Balkan welaýaty, Türkmenistan","address":{"town":"Jebel","state":"Balkan welaýaty","ISO3166-2-lvl4":"TM-B","country":"Türkmenistan","country_code":"tm"},"osm_type":"way","osm_id":406443351,"type":"administrative","location":[54.2374781,39.6311735],"bbox":[54.2188321,39.6223284,54.2509971,39.6492524]}}
{"name":"Kelif","other_names":{"name:ru":"Келиф","name:tk":"Kelif","alt_name":"Keleft"},"display_name":"Kelif, Köýtendag etraby, Lebap welaýaty, Türkmenistan","address":{"town":"Kelif","county":"Köýtendag etraby","province":"Lebap welaýaty","ISO3166-2-lvl4":"TM-L","country":"Türkmenistan","country_code":"tm"},"osm_type":"node","osm_id":1068535101,"type":"town","location":[66.311389,37.361389],"bbox":[66.271389,37.321389,66.351389,37.401389],"border":{"name":"Kelif","other_names":{"name:ru":"Келиф","name:tk":"Kelif","alt_name":"Keleft"},"display_name":"Kelif, Köýtendag etraby, Lebap welaýaty, Türkmenistan","address":{"town":"Kelif","county":"Köýtendag etraby","province":"Lebap welaýaty","ISO3166-2-lvl4":"TM-L","country":"Türkmenistan","country_code":"tm"},"osm_type":"way","osm_id":649539049,"type":"administrative","location":[66.311389,37.361389],"bbox":[66.2929684,37.3553743,66.3238302,37.3638361]}}
{"name":"Kerkiçi","other_names":{"name:en":"Kerkichi","name:ml":"കെർക്കിച്ചി","name:ru":"Керкичи","name:tk":"Kerkiçi"},"display_name":"Kerkiçi, Köýtendag etraby, Lebap welaýaty, Türkmenistan","address":{"town":"Kerkiçi","county":"Köýtendag etraby","province":"Lebap welaýaty","ISO3166-2-lvl4":"TM-L","country":"Türkmenistan","country_code":"tm"},"osm_type":"node","osm_id":275225948,"type":"town","location":[65.2432959,37.8507514],"bbox":[65.2032959,37.8107514,65.2832959,37.8907514],"border":{"name":"Kerkiçi","other_names":{"name:en":"Kerkichi","name:ru":"Керкичи","name:tk":"Kerkiçi","name:ml":"കെർക്കിച്ചി"},"display_name":"Kerkiçi, Köýtendag etraby, Lebap welaýaty, Türkmenistan","address":{"town":"Kerkiçi","county":"Köýtendag etraby","province":"Lebap welaýaty","ISO3166-2-lvl4":"TM-L","country":"Türkmenistan","country_code":"tm"},"osm_type":"way","osm_id":405725640,"type":"administrative","location":[65.2432959,37.8507514],"bbox":[65.2311882,37.8456388,65.2547058,37.8578858]}}
{"name":"Kiştiwan şäherçesi","other_names":{"name:tk":"Kiştiwan şäherçesi","old_name":"Maksim Gorkiý","old_name:ru":"Максим Горький"},"display_name":"Kiştiwan şäherçesi, Kiştiwan, Çärjew etraby, Lebap welaýaty, Türkmenistan","address":{"town":"Kiştiwan şäherçesi","county":"Çärjew etraby","province":"Lebap welaýaty","ISO3166-2-lvl4":"TM-L","country":"Türkmenistan","country_code":"tm"},"osm_type":"node","osm_id":7512795838,"type":"town","location":[63.5476524,39.098212],"bbox":[63.5076524,39.058212,63.5876524,39.138212],"border":{"name":"Kiştiwan","other_names":{"name:tk":"Kiştiwan","old_name":"Maksim Gorkiý","old_name:ru":"Максим Горький","alt":"Kiştiwan şäherçesi","alt:tk":"Kiştiwan şäherçesi"},"display_name":"Kiştiwan, Çärjew etraby, Lebap welaýaty, Türkmenistan","address":{"town":"Kiştiwan","county":"Çärjew etraby","province":"Lebap welaýaty","ISO3166-2-lvl4":"TM-L","country":"Türkmenistan","country_code":"tm"},"osm_type":"way","osm_id":803154002,"type":"administrative","location":[63.5476524,39.098212],"bbox":[63.5332807,39.0877834,63.5600027,39.1062589]}}
{"name":"Lebap","other_names":{"name:en":"Lebap","name:ru":"Лебап","name:tk":"Lebap"},"display_name":"Lebap, Darganata etraby, Lebap welaýaty, Türkmenistan","address":{"town":"Lebap","county":"Darganata etraby","province":"Lebap welaýaty","ISO3166-2-lvl4":"TM-L","country":"Türkmenistan","country_code":"tm"},"osm_type":"node","osm_id":4082426077,"type":"town","location":[61.8816865,41.049175],"bbox":[61.8416865,41.009175,61.9216865,41.089175],"border":{"name":"Lebap","other_names":{"name:en":"Lebap","name:ru":"Лебап","name:tk":"Lebap"},"display_name":"Lebap, Darganata etraby, Lebap welaýaty, Türkmenistan","address":{"town":"Lebap","county":"Darganata etraby","province":"Lebap welaýaty","ISO3166-2-lvl4":"TM-L","country":"Türkmenistan","country_code":"tm"},"osm_type":"way","osm_id":406137582,"type":"administrative","location":[61.8816865,41.049175],"bbox":[61.8704748,41.0426451,61.892072,41.0577672]}}
{"name":"Mekan şäherçesi","other_names":{"name:en":"Town of Mekan","name:fa":"شهرک مکان","name:ru":"Мекан","name:tk":"Mekan şäherçesi","name:tk-Arab":"مکان شأهرچسی"},"display_name":"Mekan şäherçesi, Baýramaly etraby, Mary welaýaty, Türkmenistan","address":{"town":"Mekan şäherçesi","county":"Baýramaly etraby","province":"Mary welaýaty","ISO3166-2-lvl4":"TM-M","country":"Türkmenistan","country_code":"tm"},"osm_type":"node","osm_id":10771133656,"type":"town","location":[62.1008734,37.611969],"bbox":[62.0608734,37.571969,62.1408734,37.651969],"border":{"name":"Mekan şäherçesi","other_names":{"name:en":"Mekan Town","name:ru":"Мекан","name:tk":"Mekan şäherçesi","name:fa":"شهرک مکان","name:tk-Arab":"مکان شأهرچسی","alt:en":"Town of Mekan"},"display_name":"Mekan şäherçesi, Baýramaly etraby, Mary welaýaty, Türkmenistan","address":{"town":"Mekan şäherçesi","county":"Baýramaly etraby","province":"Mary welaýaty","ISO3166-2-lvl4":"TM-M","country":"Türkmenistan","country_code":"tm"},"osm_type":"way","osm_id":390250430,"type":"administrative","location":[62.1008734,37.611969],"bbox":[62.0665602,37.5961845,62.1175651,37.6186232]}}
{"name":"Mollanepes adyndaky şäherçe","other_names":{"name:fa":"ملانفس","name:tk":"Mollanepes adyndaky şäherçe","old_name:ru":"имени Полторацкого","name:tk-Arab":"ملانپس"},"display_name":"Mollanepes adyndaky şäherçe, Wekilbazar etraby, Mary welaýaty, Türkmenistan","address":{"town":"Mollanepes adyndaky şäherçe","county":"Wekilbazar etraby","province":"Mary welaýaty","ISO3166-2-lvl4":"TM-M","country":"Türkmenistan","country_code":"tm"},"osm_type":"node","osm_id":6376191350,"type":"town","location":[61.9248987,37.6042317],"bbox":[61.8848987,37.5642317,61.9648987,37.6442317]}
{"name":"Mukry","other_names":{"name:ru":"Мукры","name:tk":"Mukry","alt_name:tk":"Mugry"},"display_name":"Mukry, Köýtendag etraby, Lebap welaýaty, Türkmenistan","address":{"town":"Mukry","county":"Köýtendag etraby","province":"Lebap welaýaty","ISO3166-2-lvl4":"TM-L","country":"Türkmenistan","country_code":"tm"},"osm_type":"node","osm_id":1068535100,"type":"town","location":[65.7329487,37.597393],"bbox":[65.6929487,37.557393,65.7729487,37.637393],"border":{"name":"Mukry","other_names":{"name:tk":"Mukry","alt_name":"Mugry","name:ru":"Мукры","alt_name:tk":"Mugry"},"display_name":"Mukry, Köýtendag etraby, Lebap welaýaty, Türkmenistan","address":{"town":"Mukry","county":"Köýtendag etraby","province":"Lebap welaýaty","ISO3166-2-lvl4":"TM-L","country":"Türkmenistan","country_code":"tm"},"osm_type":"way","osm_id":531248980,"type":"administrative","location":[65.7329487,37.597393],"bbox":[65.7171713,37.5894915,65.7658593,37.6016162]}}
{"name":"Oglanly","other_names":{"name:el":"Ογκλάνλι","name:en":"Oglanly","name:ru":"Огланлы","name:tk":"Oglanly","alt_name":"Käriz","alt_name:en":"Kyariz","alt_name:ru":"Кяриз","alt_name:tk":"Käriz"},"display_name":"Oglanly, Balkan welaýaty, Türkmenistan","address":{"town":"Oglanly","state":"Balkan welaýaty","ISO3166-2-lvl4":"TM-B","country":"Türkmenistan","country_code":"tm"},"osm_type":"node","osm_id":275219232,"type":"town","location":[54.4942981,39.848494],"bbox":[54.4542981,39.808494,54.5342981,39.888494],"border":{"name":"Oglanly","other_names":{"name:tk":"Oglanly","name:el":"Ογκλάνλι","name:en":"Oglanly","name:ru":"Огланлы","alt_name":"Käriz","alt_name:en":"Kyariz","alt_name:ru":"Кяриз","alt_name:tk":"Käriz"},"display_name":"Oglanly, Balkan welaýaty, Türkmenistan","address":{"town":"Oglanly","state":"Balkan welaýaty","ISO3166-2-lvl4":"TM-B","country":"Türkmenistan","country_code":"tm"},"osm_type":"way","osm_id":586044985,"type":"administrative","location":[54.4942981,39.848494],"bbox":[54.4839122,39.8370875,54.5057561,39.8568039]}}
{"name":"Oguzhan","other_names":{"name:tk":"Oguzhan","old_name":"Gulanly"},"display_name":"Oguzhan, Murgap etraby, Mary welaýaty, Türkmenistan","address":{"town":"Oguzhan","county":"Murgap etraby","province":"Mary welaýaty","ISO3166-2-lvl4":"TM-M","country":"Türkmenistan","country_code":"tm"},"osm_type":"node","osm_id":1068535038,"type":"town","location":[61.0861834,37.3181741],"bbox":[61.0461834,37.2781741,61.1261834,37.3581741],"border":{"name":"Oguzhan","other_names":{"name:tk":"Oguzhan","old_name":"Gulanly"},"display_name":"Oguzhan, Murgap etraby, Mary welaýaty, Türkmenistan","address":{"town":"Oguzhan","county":"Murgap etraby","province":"Mary welaýaty","ISO3166-2-lvl4":"TM-M","country":"Türkmenistan","country_code":"tm"},"osm_type":"way","osm_id":241881743,"type":"administrative","location":[61.0861834,37.3181741],"bbox":[61.0764591,37.3018475,61.1163133,37.3231348]}}
{"name":"Orazgeldi Ärsaryýew adyndaky şäherçe","other_names":{"name:ru":"имени Оразгелди Эрсарыева","name:tk":"Orazgeldi Ärsaryýew adyndaky şäherçe","old_name":"Ataýap","old_name:tk":"Ataýap"},"display_name":"Orazgeldi Ärsaryýew adyndaky şäherçe, Akdepe etraby, Daşoguz welaýaty, Türkmenistan","address":{"town":"Orazgeldi Ärsaryýew adyndaky şäherçe","county":"Akdepe etraby","province":"Daşoguz welaýaty","ISO3166-2-lvl4":"TM-D","country":"Türkmenistan","country_code":"tm"},"osm_type":"node","osm_id":7392545303,"type":"town","location":[59.4043828,41.9922376],"bbox":[59.3643828,41.9522376,59.4443828,42.0322376],"border":{"name":"Orazgeldi Ärsaryýew adyndaky şäherçe","other_names":{"name:ru":"имени Оразгелди Эрсарыева","name:tk":"Orazgeldi Ärsaryýew adyndaky şäherçe","old_name":"Ataýap","old_name:ru":"Атаяп","old_name:tk":"Ataýap"},"display_name":"Orazgeldi Ärsaryýew adyndaky şäherçe, Akdepe etraby, Daşoguz welaýaty, Türkmenistan","address":{"town":"Orazgeldi Ärsaryýew adyndaky şäherçe","county":"Akdepe etraby","province":"Daşoguz welaýaty","ISO3166-2-lvl4":"TM-D","country":"Türkmenistan","country_code":"tm"},"osm_type":"way","osm_id":416451491,"type":"administrative","location":[59.4043828,41.9922376],"bbox":[59.3536089,41.9902779,59.4059946,42.022359]}}
{"name":"Parahat şäherçesi","other_names":{"name:fa":"شهرک فراغت","name:tk":"Parahat şäherçesi","old_name":"Dzhodzhukly, Jojukly","old_name:ru":"Джоджуклы, Җоҗуклы,;Джу-Джу-Клу","name:tk-Arab":"پاراحات شأهرچه‌سی"},"display_name":"Parahat şäherçesi, Mary welaýaty, Türkmenistan","address":{"town":"Parahat şäherçesi","province":"Mary welaýaty","ISO3166-2-lvl4":"TM-M","country":"Türkmenistan","country_code":"tm"},"osm_type":"node","osm_id":7508621417,"type":"town","location":[61.0353209,37.5121114],"bbox":[60.9953209,37.4721114,61.0753209,37.5521114],"border":{"name":"Parahat şäherçesi","other_names":{"name:en":"Parahat şäherçesi","name:fa":"شهرک فراغت","name:tk":"Parahat şäherçesi","old_name":"Dzhodzhukly, Jojukly","old_name:ru":"Джоджуклы, Җоҗуклы,;Джу-Джу-Клу","name:tk-Arab":"پاراحات شأهرچه‌سی"},"display_name":"Parahat şäherçesi, Mary welaýaty, Türkmenistan","address":{"town":"Parahat şäherçesi","province":"Mary welaýaty","ISO3166-2-lvl4":"TM-M","country":"Türkmenistan","country_code":"tm"},"osm_type":"way","osm_id":648615008,"type":"administrative","location":[61.0353209,37.5121114],"bbox":[61.027163,37.5053186,61.0446475,37.5191877]}}
{"name":"Peşanaly şäherçesi","other_names":{"name:fa":"شهرک پیشانی‌لی","name:tk":"Peşanaly şäherçesi","name:tk-Arab":"پشانالیٛ شأهرچه‌سی"},"display_name":"Peşanaly şäherçesi, Wekilbazar etraby, Mary welaýaty, Türkmenistan","address":{"town":"Peşanaly şäherçesi","county":"Wekilbazar etraby","province":"Mary welaýaty","ISO3166-2-lvl4":"TM-M","country":"Türkmenistan","country_code":"tm"},"osm_type":"node","osm_id":7477364802,"type":"town","location":[61.7742104,37.7093718],"bbox":[61.7342104,37.6693718,61.8142104,37.7493718],"border":{"name":"Peşanaly şäherçesi","other_names":{"name:fa":"شهرک پیشانی‌لی","name:tk":"Peşanaly şäherçesi","name:tk-Arab":"پشانالیٛ شأهرچه‌سی"},"display_name":"Peşanaly şäherçesi, Wekilbazar etraby, Mary welaýaty, Türkmenistan","address":{"town":"Peşanaly şäherçesi","county":"Wekilbazar etraby","province":"Mary welaýaty","ISO3166-2-lvl4":"TM-M","country":"Türkmenistan","country_code":"tm"},"osm_type":"way","osm_id":93239442,"type":"administrative","location":[61.7742104,37.7093718],"bbox":[61.7584685,37.6941953,61.7806679,37.7206279]}}
{"name":"Rejepguly Ataýew adyndaky şäherçe","other_names":{"name:fa":"شهرک رجب‌قلی عطایف","name:tk":"Rejepguly Ataýew adyndaky şäherçe","old_name:tk":"Päkize şäherçesi","name:tk-Arab":"رجپ‌قوُلیٛ عطایف آدیٛنداکیٛ شأهرچه","old_name:tk-Arab":"پأکیزه شأهرچسی"},"display_name":"Rejepguly Ataýew adyndaky şäherçe, Akdepe etraby, Daşoguz welaýaty, Türkmenistan","address":{"town":"Rejepguly Ataýew adyndaky şäherçe","county":"Akdepe etraby","province":"Daşoguz welaýaty","ISO3166-2-lvl4":"TM-D","country":"Türkmenistan","country_code":"tm"},"osm_type":"node","osm_id":10793649247,"type":"town","location":[59.7446428,41.9288518],"bbox":[59.7046428,41.8888518,59.7846428,41.9688518]}
{"name":"Ruhubelent","other_names":{"name:az":"Ruhubələnd","name:en":"Ruhubelent","name:fa":"روح‌بلند","name:ja":"ルフベレント","name:kk":"Рухубелент","name:tg":"Руҳибаланд","name:tk":"Ruhubelent","name:tr":"Ruhubelent","name:uz":"Ruhibaland","name:azb":"روح‌بلند","old_name":"Monjukly;Mondzhukly","old_name:ru":"Монджуклы;Монҗуклы","name:kk-Arab":"رۋحۋبەلەنت","name:kk-Cyrl":"Рухубелент","name:kk-Latn":"Ruxubelent","name:tk-Arab":"روُحوُبلنت","name:uz-Arab":"روح‌بلند","name:uz-Cyrl":"Руҳибаланд","name:uz-Latn":"Ruhibaland"},"display_name":"Ruhubelent, Ruhubelent etraby, Daşoguz welaýaty, Türkmenistan","address":{"town":"Ruhubelent","county":"Ruhubelent etraby","province":"Daşoguz welaýaty","ISO3166-2-lvl4":"TM-D","country":"Türkmenistan","country_code":"tm"},"osm_type":"node","osm_id":5657190833,"type":"town","location":[58.6946653,41.7410234],"bbox":[58.6546653,41.7010234,58.7346653,41.7810234],"border":{"name":"Ruhubelent","other_names":{"name:tk":"Ruhubelent","old_name":"Monjukly;Mondzhukly","old_name:ru":"Монджуклы;Монҗуклы","name:az":"Ruhubələnd","name:en":"Ruhubelent","name:fa":"روح‌بلند","name:ja":"ルフベレント","name:kk":"Рухубелент","name:tg":"Руҳибаланд","name:tr":"Ruhubelent","name:uz":"Ruhibaland","name:azb":"روح‌بلند","name:kk-Arab":"رۋحۋبەلەنت","name:kk-Cyrl":"Рухубелент","name:kk-Latn":"Ruxubelent","name:tk-Arab":"روُحوُبلنت","name:uz-Arab":"روح‌بلند","name:uz-Cyrl":"Руҳибаланд","name:uz-Latn":"Ruhibaland"},"display_name":"Ruhubelent, Ruhubelent etraby, Daşoguz welaýaty, Türkmenistan","address":{"town":"Ruhubelent","county":"Ruhubelent etraby","province":"Daşoguz welaýaty","ISO3166-2-lvl4":"TM-D","country":"Türkmenistan","country_code":"tm"},"osm_type":"way","osm_id":642114255,"type":"administrative","location":[58.6946653,41.7410234],"bbox":[58.6859692,41.7310532,58.7140601,41.7427559]}}
{"name":"Sadylla Rozmetow adyndaky şäherçe","other_names":{"name:en":"Sadylla Rozmetov Town","name:fa":"شعرک سعدالله روزمتوف","name:ru":"посёлок имени Садуллы Розметова","name:tk":"Sadylla Rozmetow adyndaky şäherçe","old_name":"Gülüstan şäherçesi","old_name:tk":"Gülüstan şäherçesi","name:tk-Arab":"ساعدالله روْزمتوف آدیٛنداکیٛ شأهرچه"},"display_name":"Sadylla Rozmetow adyndaky şäherçe, Şabat etraby, Daşoguz welaýaty, Türkmenistan","address":{"town":"Sadylla Rozmetow adyndaky şäherçe","county":"Şabat etraby","province":"Daşoguz welaýaty","ISO3166-2-lvl4":"TM-D","country":"Türkmenistan","country_code":"tm"},"osm_type":"node","osm_id":7461213680,"type":"town","location":[59.9153547,41.9219241],"bbox":[59.8753547,41.8819241,59.9553547,41.9619241],"border":{"name":"Sadylla Rozmetow adyndaky şäherçe","other_names":{"name:en":"Sadylla Rozmetov Town","name:ru":"посёлок имени Садуллы Розметова","name:tk":"Sadylla Rozmetow adyndaky şäherçe","old_name":"Gülüstan şäherçesi","old_name:tk":"Gülüstan şäherçesi","name:fa":"شعرک سعدالله روزمتوف","name:tk-Arab":"ساعدالله روْزمتوف آدیٛنداکیٛ شأهرچه"},"display_name":"Sadylla Rozmetow adyndaky şäherçe, Şabat etraby, Daşoguz welaýaty, Türkmenistan","address":{"town":"Sadylla Rozmetow adyndaky şäherçe","county":"Şabat etraby","province":"Daşoguz welaýaty","ISO3166-2-lvl4":"TM-D","country":"Türkmenistan","country_code":"tm"},"osm_type":"way","osm_id":418054701,"type":"administrative","location":[59.9153547,41.9219241],"bbox":[59.9071844,41.9180927,59.9245834,41.9280919]}}
{"name":"Saparmyrat Turkmenbaşy şaherçesi","other_names":{"name:tk":"Saparmyrat Turkmenbaşy şaherçesi","old_name":"Energetik","old_name:ru":"Энергетик"},"display_name":"Saparmyrat Turkmenbaşy şaherçesi, Mary welaýaty, Türkmenistan","address":{"town":"Saparmyrat Turkmenbaşy şaherçesi","province":"Mary welaýaty","ISO3166-2-lvl4":"TM-M","country":"Türkmenistan","country_code":"tm"},"osm_type":"node","osm_id":7507399562,"type":"town","location":[61.8298954,37.5122438],"bbox":[61.7898954,37.4722438,61.8698954,37.5522438],"border":{"name":"Saparmyrat Turkmenbaşy şaherçesi","other_names":{"name:tk":"Saparmyrat Turkmenbaşy şaherçesi","old_name":"Energetik","old_name:ru":"Энергетик"},"display_name":"Saparmyrat Turkmenbaşy şaherçesi, Mary welaýaty, Türkmenistan","address":{"town":"Saparmyrat Turkmenbaşy şaherçesi","province":"Mary welaýaty","ISO3166-2-lvl4":"TM-M","country":"Türkmenistan","country_code":"tm"},"osm_type":"way","osm_id":802588523,"type":"administrative","location":[61.8298954,37.5122438],"bbox":[61.8159614,37.5023805,61.8372453,37.5178855]}}
{"name":"Tagtabazar","other_names":{"name:az":"Taxtabazar","name:en":"Tagtabazar","name:fa":"تخته‌بازار","name:kk":"Тақтабазар","name:ru":"Тагтабазар","name:tg":"Тахтабозор","name:tk":"Tagtabazar","name:tr":"Tağtapazar","name:ur":"تختہ بازار","name:uz":"Taxtabozor","name:azb":"تاختابازار","name:kk-Arab":"تاقتابازار","name:kk-Cyrl":"Тақтабазар","name:kk-Latn":"Taqtabazar","name:tk-Arab":"تاغتابازار","name:uz-Arab":"تخته‌بازار","name:uz-Cyrl":"Тахтабозор","name:uz-Latn":"Taxtabozor"},"display_name":"Tagtabazar, Tagtabazar etraby, Mary welaýaty, Türkmenistan","address":{"town":"Tagtabazar","county":"Tagtabazar etraby","province":"Mary welaýaty","ISO3166-2-lvl4":"TM-M","country":"Türkmenistan","country_code":"tm"},"osm_type":"node","osm_id":275224482,"type":"town","location":[62.9173859,35.9553117],"bbox":[62.8773859,35.9153117,62.9573859,35.9953117],"border":{"name":"Tagtabazar","other_names":{"name:ru":"Тагтабазар","name:tk":"Tagtabazar","name:az":"Taxtabazar","name:en":"Tagtabazar","name:fa":"تخته‌بازار","name:kk":"Тақтабазар","name:tg":"Тахтабозор","name:tr":"Tağtapazar","name:ur":"تختہ بازار","name:uz":"Taxtabozor","name:azb":"تاختابازار","name:kk-Arab":"تاقتابازار","name:kk-Cyrl":"Тақтабазар","name:kk-Latn":"Taqtabazar","name:tk-Arab":"تاغتابازار","name:uz-Arab":"تخته‌بازار","name:uz-Cyrl":"Тахтабозор","name:uz-Latn":"Taxtabozor"},"display_name":"Tagtabazar, Tagtabazar etraby, Mary welaýaty, Türkmenistan","address":{"town":"Tagtabazar","county":"Tagtabazar etraby","province":"Mary welaýaty","ISO3166-2-lvl4":"TM-M","country":"Türkmenistan","country_code":"tm"},"osm_type":"way","osm_id":43973700,"type":"administrative","location":[62.9173859,35.9553117],"bbox":[62.9014202,35.9319915,62.9299354,35.9605551]}}
{"name":"Täze şäherçesi Darganata","other_names":{"name:ru":"Дарганата","name:tk":"Täze şäherçesi Darganata"},"display_name":"Täze şäherçesi Darganata, Darganata etraby, Lebap welaýaty, Türkmenistan","address":{"town":"Täze şäherçesi Darganata","county":"Darganata etraby","province":"Lebap welaýaty","ISO3166-2-lvl4":"TM-L","country":"Türkmenistan","country_code":"tm"},"osm_type":"way","osm_id":772071482,"type":"town","location":[62.297904184495195,40.3837216],"bbox":[62.2816354,40.3710828,62.3142941,40.3950515]}
{"name":"Türkmenbaşy şäherçesi","other_names":{"name:en":"Town of Turkmenbashy","name:fa":"شهرک ترکمن‌باشی","name:ru":"Туркменбаши","name:tk":"Türkmenbaşy şäherçesi","old_name":"Janga","old_name:ru":"Джанга","old_name:tk":"Janga","name:tk-Arab":"تۆرکمن‌باشیٛ شأهرچه‌سی"},"display_name":"Türkmenbaşy şäherçesi, Türkmenbaşy etraby, Balkan welaýaty, Türkmenistan","address":{"town":"Türkmenbaşy şäherçesi","county":"Türkmenbaşy etraby","state":"Balkan welaýaty","ISO3166-2-lvl4":"TM-B","country":"Türkmenistan","country_code":"tm"},"osm_type":"node","osm_id":3643166330,"type":"town","location":[53.1124488,40.0085692],"bbox":[53.0724488,39.9685692,53.1524488,40.0485692],"border":{"name":"Türkmenbaşy şäherçesi","other_names":{"name:en":"Town of Turkmenbashy","name:ru":"Туркменбаши","name:tk":"Türkmenbaşy şäherçesi","alt_name":"Janga","old_name":"Janga;Dzhanga","old_name:ru":"Джанга","old_name:tk":"Janga","name:fa":"شهرک ترکمن‌باشی","_place_old_name":"Janga","name:tk-Arab":"تۆرکمن‌باشیٛ شأهرچه‌سی"},"display_name":"Türkmenbaşy şäherçesi, Türkmenbaşy etraby, Balkan welaýaty, Türkmenistan","address":{"town":"Türkmenbaşy şäherçesi","county":"Türkmenbaşy etraby","state":"Balkan welaýaty","ISO3166-2-lvl4":"TM-B","country":"Türkmenistan","country_code":"tm"},"osm_type":"way","osm_id":785726536,"type":"administrative","location":[53.1124488,40.0085692],"bbox":[53.1056937,40.001732,53.125747,40.0194824]}}
{"name":"Uzboý","other_names":{"name:ru":"Узбой","name:tk":"Uzboý"},"display_name":"Uzboý, Balkan welaýaty, Türkmenistan","address":{"town":"Uzboý","state":"Balkan welaýaty","ISO3166-2-lvl4":"TM-B","country":"Türkmenistan","country_code":"tm"},"osm_type":"node","osm_id":7120300530,"type":"town","location":[54.1492872,39.3384888],"bbox":[54.1092872,39.2984888,54.1892872,39.3784888],"border":{"name":"Uzboý","other_names":{"name:ru":"Узбой","name:tk":"Uzboý","old_name:ru:1939-2003":"им. 26 Бакинских Комиссаров"},"display_name":"Uzboý, Balkan welaýaty, Türkmenistan","address":{"town":"Uzboý","state":"Balkan welaýaty","ISO3166-2-lvl4":"TM-B","country":"Türkmenistan","country_code":"tm"},"osm_type":"way","osm_id":762093098,"type":"administrative","location":[54.1492872,39.3384888],"bbox":[54.1446698,39.3353731,54.1562737,39.3402591]}}
{"name":"Wekilbazar şäherçesi","other_names":{"name:az":"Vəkilbazar","name:en":"Wekilbazar","name:fa":"وکیل‌بازار","name:kk":"Уәкілбазар","name:ru":"Векилбазар","name:tg":"Вакилбозор","name:tk":"Wekilbazar şäherçesi","name:tr":"Vekilpazar","name:ur":"وکیل بازار","name:uz":"Vakilbozor","name:azb":"وکیل‌بازار","name:kk-Arab":"ۋاكىلبازار","name:kk-Cyrl":"Уәкілбазар","name:kk-Latn":"Uäkılbazar","name:tk-Arab":"وکیل‌بازار شأهرچسی","name:uz-Arab":"وکیل‌بازار","name:uz-Cyrl":"Вакилбозор","name:uz-Latn":"Vakilbozor"},"display_name":"Wekilbazar şäherçesi, Wekilbazar etraby, Mary welaýaty, Türkmenistan","address":{"town":"Wekilbazar şäherçesi","county":"Wekilbazar etraby","province":"Mary welaýaty","ISO3166-2-lvl4":"TM-M","country":"Türkmenistan","country_code":"tm"},"osm_type":"node","osm_id":7509231017,"type":"town","location":[61.9556349,37.6429702],"bbox":[61.9156349,37.6029702,61.9956349,37.6829702]}
{"name":"Ýagtyýol şäherçesi","other_names":{"name:en":"Yagtyyol","name:fa":"یاغتی‌یول","name:ru":"Ягтыел поселок","name:tk":"Ýagtyýol şäherçesi","name:ur":"یاغتی یو","name:tk-Arab":"یاغتیٛ یول"},"display_name":"Ýagtyýol şäherçesi, Garagum etraby, Mary welaýaty, Türkmenistan","address":{"town":"Ýagtyýol şäherçesi","county":"Garagum etraby","province":"Mary welaýaty","ISO3166-2-lvl4":"TM-M","country":"Türkmenistan","country_code":"tm"},"osm_type":"node","osm_id":6043094386,"type":"town","location":[62.0391836,37.7996967],"bbox":[61.9991836,37.7596967,62.0791836,37.8396967],"border":{"name":"Ýagtyýol şäherçesi","other_names":{"name:tk":"Ýagtyýol şäherçesi","name:en":"Yagtyyol","name:fa":"یاغتی‌یول","name:ru":"Ягтыел поселок","name:ur":"یاغتی یو","name:tk-Arab":"یاغتیٛ یول"},"display_name":"Ýagtyýol şäherçesi, Garagum etraby, Mary welaýaty, Türkmenistan","address":{"town":"Ýagtyýol şäherçesi","county":"Garagum etraby","province":"Mary welaýaty","ISO3166-2-lvl4":"TM-M","country":"Türkmenistan","country_code":"tm"},"osm_type":"way","osm_id":642219731,"type":"administrative","location":[62.0391836,37.7996967],"bbox":[62.000995,37.7931479,62.0678694,37.8188726]}}
{"name":"Ýaşlyk","other_names":{"name:en":"Yashlyk","name:ml":"യാഷ്ലിക്ക്","name:ru":"Яшлык","name:tk":"Ýaşlyk"},"display_name":"Ýaşlyk, Ak bugdaý etraby, Ahal welaýaty, Türkmenistan","address":{"town":"Ýaşlyk","county":"Ak bugdaý etraby","state":"Ahal welaýaty","ISO3166-2-lvl4":"TM-A","country":"Türkmenistan","country_code":"tm"},"osm_type":"node","osm_id":6109181285,"type":"town","location":[58.8896102,37.7793522],"bbox":[58.8496102,37.7393522,58.9296102,37.8193522],"border":{"name":"Ýaşlyk","other_names":{"name:en":"Yashlyk","name:ru":"Яшлык","name:tk":"Ýaşlyk","name:ml":"യാഷ്ലിക്ക്"},"display_name":"Ýaşlyk, Ak bugdaý etraby, Ahal welaýaty, Türkmenistan","address":{"town":"Ýaşlyk","county":"Ak bugdaý etraby","state":"Ahal welaýaty","ISO3166-2-lvl4":"TM-A","country":"Türkmenistan","country_code":"tm"},"osm_type":"way","osm_id":558119737,"type":"administrative","location":[58.8896102,37.7793522],"bbox":[58.8786325,37.7735213,58.9051966,37.786656]}}
{"name":"Yzgant","other_names":{"name:ru":"Ызгант","name:tk":"Yzgant","old_name:ru":"Изгант"},"display_name":"Yzgant, Gökdepe etraby, Ahal welaýaty, Türkmenistan","address":{"town":"Yzgant","county":"Gökdepe etraby","state":"Ahal welaýaty","ISO3166-2-lvl4":"TM-A","country":"Türkmenistan","country_code":"tm"},"osm_type":"node","osm_id":4827094682,"type":"town","location":[58.1101216,38.1772045],"bbox":[58.0701216,38.1372045,58.1501216,38.2172045],"border":{"name":"Yzgant","other_names":{"name:ru":"Ызгант","name:tk":"Yzgant","old_name:ru":"Изгант"},"display_name":"Yzgant, Gökdepe etraby, Ahal welaýaty, Türkmenistan","address":{"town":"Yzgant","county":"Gökdepe etraby","state":"Ahal welaýaty","ISO3166-2-lvl4":"TM-A","country":"Türkmenistan","country_code":"tm"},"osm_type":"way","osm_id":278143334,"type":"administrative","location":[58.1101216,38.1772045],"bbox":[58.1002788,38.1645496,58.1277552,38.2004223]}}
{"name":"Zähmet","other_names":{"name:tk":"Zähmet","name:ur":""},"display_name":"Zähmet, Türkmengala etraby, Mary welaýaty, Türkmenistan","address":{"town":"Zähmet","county":"Türkmengala etraby","province":"Mary welaýaty","ISO3166-2-lvl4":"TM-M","country":"Türkmenistan","country_code":"tm"},"osm_type":"node","osm_id":6540125555,"type":"town","location":[62.5272012,37.7711519],"bbox":[62.4872012,37.7311519,62.5672012,37.8111519],"border":{"name":"Zähmet","other_names":{"name:tk":"Zähmet","name:ur":""},"display_name":"Zähmet, Türkmengala etraby, Mary welaýaty, Türkmenistan","address":{"town":"Zähmet","county":"Türkmengala etraby","province":"Mary welaýaty","ISO3166-2-lvl4":"TM-M","country":"Türkmenistan","country_code":"tm"},"osm_type":"way","osm_id":406456722,"type":"administrative","location":[62.5272012,37.7711519],"bbox":[62.5204048,37.7588941,62.545403,37.7781037]}}
