{"name":"Apia","other_names":{"name:am":"አፒያ","name:ar":"أبيا","name:az":"Apia","name:be":"Апія","name:bg":"Апия","name:bo":"ཨ་པི་ཡ།","name:ca":"Apia","name:cs":"Apia","name:da":"Apia","name:de":"Apia","name:el":"Απία","name:en":"Apia","name:eo":"Apio","name:es":"Apia","name:et":"Apia","name:fa":"آپیا","name:fi":"Apia","name:fr":"Apia","name:he":"אפיה","name:hr":"Apia","name:ht":"Apiya","name:hu":"Apia","name:is":"Apía","name:it":"Apia","name:ja":"アピア","name:ka":"აპია","name:ko":"아피아","name:lt":"Apija","name:lv":"Apija","name:mk":"Апија","name:ml":"അപിയ","name:mr":"आपिया","name:nl":"Apia","name:no":"Apia","name:os":"Апиæ","name:pl":"Apia","name:pt":"Apia","name:ro":"Apia","name:ru":"Апиа","name:sk":"Apia","name:sl":"Apia","name:sr":"Апија","name:sv":"Apia","name:ta":"ஆப்பியா","name:th":"อาปีอา","name:uk":"Апіа","name:ur":"آپیا","name:vi":"Apia","name:zh":"阿皮亞","name:ckb":"ئەپیا","name:mrj":"Апиа","name:sah":"Апиа","name:be-tarask":"Апія"},"display_name":"Apia, Tuamasaga, Sāmoa","address":{"city":"Apia","state":"Tuamasaga","ISO3166-2-lvl4":"WS-TU","country":"Sāmoa","country_code":"ws"},"population":37708,"osm_type":"node","osm_id":388977545,"type":"city","location":[-171.7630955,-13.8345235],"bbox":[-171.9230955,-13.9945235,-171.6030955,-13.6745235]}
