{"name":"Chamla","display_name":"Chamla, تحصیل چملہ, ضلع بونیر, مالاکنڈ ڈویژن, خیبر پختونخوا, پاکستان","address":{"city":"Chamla","municipality":"تحصیل چملہ","county":"ضلع بونیر","state_district":"مالاکنڈ ڈویژن","state":"خیبر پختونخوا","ISO3166-2-lvl4":"PK-KP","country":"پاکستان","country_code":"pk"},"osm_type":"way","osm_id":694244851,"type":"city","location":[72.50919169383388,34.3746064],"bbox":[72.5026985,34.368195,72.5187059,34.3814069]}
{"name":"Garha Baloch","display_name":"Garha Baloch, تحصیل بھکر, ضلع بھکر, میانوالی ڈویژن, پنجاب, پاکستان","address":{"village":"Garha Baloch","subdistrict":"تحصیل بھکر","district":"ضلع بھکر","state_district":"میانوالی ڈویژن","state":"پنجاب","ISO3166-2-lvl4":"PK-PB","country":"پاکستان","country_code":"pk"},"population":2100,"osm_type":"way","osm_id":1156995455,"type":"city","location":[70.8774496,31.3741561],"bbox":[70.8655784,31.3653802,70.8904266,31.3826013]}
{"name":"Hala","display_name":"Hala, تعلقہ ہالا, ضلع مٹیاری, حیدر آباد ڈویژن, سندھ, 70120, پاکستان","address":{"city":"Hala","municipality":"تعلقہ ہالا","county":"ضلع مٹیاری","state_district":"حیدر آباد ڈویژن","state":"سندھ","ISO3166-2-lvl4":"PK-SD","postcode":"70120","country":"پاکستان","country_code":"pk"},"osm_type":"way","osm_id":783845816,"type":"city","location":[68.42503411821289,25.813826249999998],"bbox":[68.4146727,25.8013795,68.4383063,25.8284581]}
{"name":"Jalalpur Jattan","display_name":"Jalalpur Jattan, تحصیل جلال پور جٹاں, ضلع گجرات, گجرات ڈویژن, پنجاب, پاکستان","address":{"city":"Jalalpur Jattan","municipality":"تحصیل جلال پور جٹاں","county":"ضلع گجرات","state_district":"گجرات ڈویژن","state":"پنجاب","ISO3166-2-lvl4":"PK-PB","country":"پاکستان","country_code":"pk"},"osm_type":"way","osm_id":451675735,"type":"city","location":[74.20851907318577,32.64045215],"bbox":[74.1914711,32.6275571,74.2288571,32.6534318]}
{"name":"Kawga","display_name":"Kawga, تحصیل چملہ, ضلع بونیر, مالاکنڈ ڈویژن, خیبر پختونخوا, پاکستان","address":{"city":"Kawga","municipality":"تحصیل چملہ","county":"ضلع بونیر","state_district":"مالاکنڈ ڈویژن","state":"خیبر پختونخوا","ISO3166-2-lvl4":"PK-KP","country":"پاکستان","country_code":"pk"},"osm_type":"way","osm_id":694244852,"type":"city","location":[72.51117898204053,34.391447],"bbox":[72.497214,34.3820442,72.5218688,34.4002291]}
{"display_name":"Quetta City Tehsil, ضلع کوئٹہ, کوئٹہ ڈویژن, بلوچستان, پاکستان","address":{"city":"Quetta City Tehsil","county":"ضلع کوئٹہ","state_district":"کوئٹہ ڈویژن","state":"بلوچستان","ISO3166-2-lvl4":"PK-BA","country":"پاکستان","country_code":"pk"},"osm_type":"way","osm_id":964429102,"type":"city","location":[67.00045624978353,30.16438205],"bbox":[66.9267447,30.0468301,67.0550038,30.2819238]}
{"name":"Rajana","other_names":{"name:en":"Rajana","name:ur":"رجانہ","name:hi":"रजाना","alt":"رجانہ"},"display_name":"Rajana, تحصیل ٹوبہ ٹیک سنگھ, ضلع ٹوبہ ٹیک سنگھ, فیصل آباد ڈویژن, پنجاب, پاکستان","address":{"town":"Rajana","subdistrict":"تحصیل ٹوبہ ٹیک سنگھ","district":"ضلع ٹوبہ ٹیک سنگھ","historical_division":"فیصل آباد ڈویژن","state":"پنجاب","ISO3166-2-lvl4":"PK-PB","country":"پاکستان","country_code":"pk"},"population":22000,"osm_type":"way","osm_id":942762262,"type":"city","location":[72.5501802,30.8551198],"bbox":[72.5298581,30.838671,72.5741253,30.8679973]}
{"name":"Swat","display_name":"Swat, تحصیل بابوزئی, ضلع سوات, مالاکنڈ ڈویژن, خیبر پختونخوا, 19130, پاکستان","address":{"city":"Swat","municipality":"تحصیل بابوزئی","county":"ضلع سوات","state_district":"مالاکنڈ ڈویژن","state":"خیبر پختونخوا","ISO3166-2-lvl4":"PK-KP","postcode":"19130","country":"پاکستان","country_code":"pk"},"osm_type":"node","osm_id":12695164164,"type":"city","location":[72.3604226,34.7726378],"bbox":[72.2004226,34.6126378,72.5204226,34.9326378],"border":{"name":"ضلع سوات","other_names":{"name:ar":"سوات","name:bn":"সোয়াত জেলা","name:de":"Swat Distrikt","name:en":"Swat District","name:fa":"ناحیه سوات","name:hi":"स्वात ज़िला","name:it":"Distretto di Swat","name:ko":"스와트","name:ne":"स्वात जिल्ला","name:pa":"ਸਵਾਤ ਜ਼ਿਲ੍ਹਾ","name:ps":"سوات ولسوالۍ","name:ru":"Сват","name:sd":"سوات ضلعو","name:tr":"Svat","name:ur":"ضلع سوات","name:zh":"斯瓦特县","alt_name":"Swat","name:pnb":"ضلع سوات"},"display_name":"ضلع سوات, مالاکنڈ ڈویژن, خیبر پختونخوا, پاکستان","address":{"county":"ضلع سوات","state_district":"مالاکنڈ ڈویژن","state":"خیبر پختونخوا","ISO3166-2-lvl4":"PK-KP","country":"پاکستان","country_code":"pk"},"osm_type":"relation","osm_id":13927974,"type":"administrative","location":[72.51163496074679,35.23247495],"bbox":[72.0993232,34.5677155,72.8108593,35.8960973]}}
{"name":"Walled City of Peshawar","other_names":{"name:en":"Peshawar Walled City"},"display_name":"Walled City of Peshawar, ضلع پشاور‎, پشاور ڈویژن, خیبر پختونخوا, پاکستان","address":{"city":"Walled City of Peshawar","county":"ضلع پشاور‎","state_district":"پشاور ڈویژن","state":"خیبر پختونخوا","ISO3166-2-lvl4":"PK-KP","country":"پاکستان","country_code":"pk"},"osm_type":"way","osm_id":766551602,"type":"administrative","location":[71.57378333648352,34.006564],"bbox":[71.5599229,33.9984115,71.5859501,34.0142085],"inferred_type":"city"}
{"display_name":"Zafarwal, تحصیل ظفروال, ضلع نارووال, گوجرانوالہ ڈویژن, پنجاب, پاکستان","address":{"city":"Zafarwal","subdistrict":"تحصیل ظفروال","district":"ضلع نارووال","state_district":"گوجرانوالہ ڈویژن","state":"پنجاب","ISO3166-2-lvl4":"PK-PB","country":"پاکستان","country_code":"pk"},"osm_type":"relation","osm_id":13931461,"type":"city","location":[74.90910409029382,32.3384774],"bbox":[74.8790102,32.3225871,74.9181686,32.3544016]}
{"name":"اٹک","other_names":{"name:ar":"أتك","name:en":"Attock","name:es":"Attock","name:et":"Attock","name:fa":"اتک","name:fr":"Attock","name:hi":"अटक","name:ja":"アトック","name:kn":"ಅಟೊಕ್","name:ml":"അട്ടക്ക്","name:ps":"اټک","name:ru":"Атток","name:sd":"اٽڪ","name:ur":"اٹک","name:zh":"阿塔克","name:ckb":"ئاتۆک","name:skr":"اٹک","old_name":"Campbellpore"},"display_name":"اٹک, تحصیل اٹک, ضلع اٹک, راولپنڈی ڈویژن, پنجاب, 43600, پاکستان","address":{"city":"اٹک","subdistrict":"تحصیل اٹک","county":"ضلع اٹک","state_district":"راولپنڈی ڈویژن","state":"پنجاب","ISO3166-2-lvl4":"PK-PB","postcode":"43600","country":"پاکستان","country_code":"pk"},"population":146396,"osm_type":"node","osm_id":263734904,"type":"city","location":[72.3610911,33.7695323],"bbox":[72.2010911,33.6095323,72.5210911,33.9295323]}
{"name":"احمد پور شرقیہ","other_names":{"name:bn":"আহমেদপুর পূর্ব","name:en":"Ahmedpur East","name:ja":"アフマドプル・イースト","name:ml":"അഹമ്മദ്പൂർ ഷർഖി","name:pa":"ਅਹਿਮਦਪੁਰ ਸ਼ਰਕੀਆ","name:ru":"Ахмадпур-Шарки","name:sr":"Ахмадпур Ист","name:ur":"احمد پور شرقیہ","name:pnb":"احمد پور شرقیہ"},"display_name":"احمد پور شرقیہ, تحصیل احمد پور شرقیہ, ضلع بہاولپور, بہاولپور ڈویژن, پنجاب, پاکستان","address":{"city":"احمد پور شرقیہ","subdistrict":"تحصیل احمد پور شرقیہ","county":"ضلع بہاولپور","state_district":"بہاولپور ڈویژن","state":"پنجاب","ISO3166-2-lvl4":"PK-PB","country":"پاکستان","country_code":"pk"},"osm_type":"node","osm_id":251183523,"type":"city","location":[71.2625165,29.1437273],"bbox":[71.1025165,28.9837273,71.4225165,29.3037273]}
{"name":"اسلام آباد","other_names":{"ref":"IS","name:af":"Islamabad","name:am":"ኢስላማባድ","name:an":"Islamabad","name:ar":"إسلام آباد","name:as":"ইছলামাবাদ","name:az":"İslamabad","name:ba":"Исламабад","name:be":"Ісламабад","name:bg":"Исламабад","name:bn":"ইসলামাবাদ","name:bo":"ཨི་སི་ལམ་བོ།","name:br":"Islamabad","name:bs":"Islamabad","name:ca":"Islamabad","name:ce":"Исламабад","name:cs":"Islámábád","name:cy":"Islamabad","name:da":"Islamabad","name:de":"Islamabad","name:dv":"އިސްލާމްއާބާދު","name:el":"Ισλαμαμπάντ","name:en":"Islamabad","name:eo":"Islamabado","name:es":"Islamabad","name:et":"Islāmābād","name:eu":"Islamabad","name:fa":"اسلام‌آباد","name:fi":"Islamabad","name:fo":"Islamabad","name:fr":"Islamabad","name:fy":"Islamabad","name:ga":"Islamabad","name:gd":"Islamabad","name:gl":"Islamabad","name:gu":"ઇસ્લામાબાદ","name:ha":"Islamabad","name:he":"איסלמבד","name:hi":"इस्लामाबाद","name:hr":"Islamabad","name:ht":"Islamabad","name:hu":"Iszlámábád","name:hy":"Իսլամաբադ","name:ia":"Islamabad","name:id":"Islamabad","name:ie":"Islamabad","name:io":"Islamabad","name:is":"Islamabad","name:it":"Islamabad","name:ja":"イスラーマーバード首都圏;イスラマバード","name:jv":"Islamabad","name:ka":"ისლამაბადი","name:ki":"Islamabad","name:kk":"Исламабад","name:kn":"ಇಸ್ಲಾಮಾಬಾದ್","name:ko":"이슬라마바드","name:ks":"اِسلام آبادٖ","name:ku":"Îslamabad","name:ky":"Исламабад","name:la":"Islamabada","name:lb":"Islamabad","name:lt":"Islamabadas","name:lv":"Islāmābāda","name:mi":"Islamabad","name:mk":"Исламабад","name:ml":"ഇസ്ലാമബാദ്","name:mn":"Исламабад","name:mr":"इस्लामाबाद","name:ms":"Islamabad","name:my":"အစ္စလာမာဘတ်မြို့","name:nb":"Islamabad","name:ne":"इस्लामाबाद","name:nl":"Islamabad","name:nn":"Islamabad","name:nv":"Dį́į́ʼyaaʼáhí","name:oc":"Islamabad","name:or":"ଇସଲାମାବାଦ","name:os":"Исламабад","name:pa":"ਇਸਲਾਮਾਬਾਦ","name:pl":"Islamabad","name:ps":"اسلام آباد","name:pt":"Islamabad","name:ro":"Islamabad","name:ru":"Исламабад","name:rw":"Islamabad","name:sa":"इस्लामाबाद्","name:sc":"Islamabad","name:sd":"اسلام آباد","name:se":"Islamabad","name:si":"ඉස්ලාමාබාද්","name:sk":"Islamabad","name:sl":"Islamabad","name:sn":"Islamabad","name:sq":"Islamabadi","name:sr":"Исламабад","name:su":"Islamabad","name:sv":"Islamabad","name:sw":"Islamabad","name:ta":"இஸ்லாமாபாத்","name:te":"ఇస్లామాబాద్","name:tg":"Исламабад","name:th":"อิสลามาบัด","name:tl":"Islamabad","name:tr":"İslamabad","name:tt":"İslamabad","name:ug":"ئىسلامئاباد","name:uk":"Ісламабад","name:ur":"اسلام آباد","name:uz":"Islomobod","name:vi":"Islamabad","name:vo":"Islamabad","name:yi":"איסלאמאבאד","name:yo":"Islàmabad","name:zh":"伊斯兰堡","name:arz":"اسلام اباد","name:azb":"ایسلام آباد","name:ckb":"ئیسلاماباد","name:kab":"Islamabad","name:kmr":"ئیسلاماباد","name:lez":"Исламабад","name:lrc":"اْسلام آباد","name:mzn":"اسلام آباد","name:pnb":"اسلام آباد","name:sah":"Исламабад","name:yue":"伊斯蘭堡","name:ku-Arab":"ئیسلاماباد","official_name":"اسلام آباد وفاقی دارالحکومت علاقہ","official_name:ar":"ناحية بايتختي إسلام آباد","official_name:de":"Hauptstadtgebiet Islamabad","official_name:es":"Territorio de la Capital Islamabad","official_name:fa":"ناحیه پایتختی اسلام‌آباد","official_name:pt":"Território da Capital Islamabade","official_name:sd":"اسلام آباد راڄڌاني جو علائقو","official_name:ur":"اسلام آباد وفاقی دارالحکومت علاقہ","official_name:vi":"Lãnh thổ thủ đô Islamabad"},"display_name":"اسلام آباد, زون 1, وفاقی دارالحکومت اسلام آباد, 44000, پاکستان","address":{"city":"اسلام آباد","municipality":"زون 1","state":"وفاقی دارالحکومت اسلام آباد","ISO3166-2-lvl4":"PK-IS","postcode":"44000","country":"پاکستان","country_code":"pk"},"population":1009832,"osm_type":"node","osm_id":316440978,"type":"city","location":[73.0651511,33.6938118],"bbox":[72.9051511,33.5338118,73.2251511,33.8538118]}
{"name":"اوکاڑہ","other_names":{"name:ar":"أوكارا","name:de":"Okara","name:en":"Okara","name:es":"Okara","name:et":"Okāra","name:eu":"Okara","name:fr":"Okara","name:hi":"ओकरा","name:ja":"オーカーラー","name:kn":"ಓಕರಾ","name:ml":"ഒക്കാഡ","name:ru":"Окара","name:sd":"اوڪاڙا"},"display_name":"اوکاڑہ, تحصیل اوکاڑہ, ضلع اوکاڑہ, ساہیوال ڈویژن, پنجاب, 42000, پاکستان","address":{"city":"اوکاڑہ","subdistrict":"تحصیل اوکاڑہ","district":"ضلع اوکاڑہ","state_district":"ساہیوال ڈویژن","state":"پنجاب","ISO3166-2-lvl4":"PK-PB","postcode":"42000","country":"پاکستان","country_code":"pk"},"population":357935,"osm_type":"node","osm_id":251318194,"type":"city","location":[73.4493301,30.8091281],"bbox":[73.2893301,30.6491281,73.6093301,30.9691281]}
{"name":"ایبٹ آباد","other_names":{"name:ar":"أبوت آباد","name:bn":"অ্যাবোটাবাদ","name:de":"Abbottabad","name:en":"Abbottabad","name:et":"Abbotābād","name:fa":"ابوت‌آباد","name:fr":"Abbottabad","name:he":"אבוטאבאד","name:hi":"ऐब्टाबाद","name:ja":"アボッターバード","name:kn":"ಅಬೋಟಾಬಾದ್","name:ml":"ആബട്ടാബാദ്","name:ne":"एब्टाबाद","name:pl":"Abbottabad","name:ps":"ايبټ اباد","name:ru":"Абботтабад","name:sd":"ايبٽ آباد","name:sr":"Аботабад","name:ur":"ایبٹ آباد","name:zh":"阿博塔巴德","int_name":"Abbottabad","name:hnd":"ایبٹ آباد","name:hno":"ایبٹ آباد","name:pnb":"ایبٹ آباد"},"display_name":"ایبٹ آباد, تحصیل ایبٹ آباد, ضلع ایبٹ آباد, ہزارہ ڈویژن, خیبر پختونخوا, 22010, پاکستان","address":{"city":"ایبٹ آباد","municipality":"تحصیل ایبٹ آباد","county":"ضلع ایبٹ آباد","state_district":"ہزارہ ڈویژن","state":"خیبر پختونخوا","ISO3166-2-lvl4":"PK-KP","postcode":"22010","country":"پاکستان","country_code":"pk"},"population":208491,"osm_type":"node","osm_id":114141293,"type":"city","location":[73.2132747,34.1436136],"bbox":[73.0532747,33.9836136,73.3732747,34.3036136]}
{"name":"بٹ خیلہ","other_names":{"name:en":"Batkhela","name:fa":"بت خیله","name:ml":"ബട്ഖേല","name:ps":"بټ خېله","name:pt":"Bat Khela","name:ru":"Бат-Кхела","name:sd":"بٽ خيلا","name:ur":"بٹ خیلہ","name:zh":"巴特赫拉","name:pnb":"بٹ خيلا"},"display_name":"بٹ خیلہ, تحصیل سوات رانیزئی, ضلع مالاکنڈ, مالاکنڈ ڈویژن, خیبر پختونخوا, پاکستان","address":{"city":"بٹ خیلہ","municipality":"تحصیل سوات رانیزئی","county":"ضلع مالاکنڈ","state_district":"مالاکنڈ ڈویژن","state":"خیبر پختونخوا","ISO3166-2-lvl4":"PK-KP","country":"پاکستان","country_code":"pk"},"population":68200,"osm_type":"node","osm_id":9582838715,"type":"city","location":[71.9677447,34.6134314],"bbox":[71.8077447,34.4534314,72.1277447,34.7734314]}
{"name":"بٹگرام","other_names":{"name:ar":"بتغرام","name:en":"Battagram","name:fa":"بتگرام","name:hi":"बट्टग्राम","name:ml":"ബട്ടഗ്രാം","name:ps":"بټګرام","name:sd":"بٽگرام","name:ur":"بٹگرام","name:pnb":"بٹگرام","name:skr":"بٹگرام","alt_name:ar":"باتاغرام"},"display_name":"بٹگرام, تحصیل بٹگرام, ضلع بٹگرام, ہزارہ ڈویژن, خیبر پختونخوا, 21040, پاکستان","address":{"city":"بٹگرام","municipality":"تحصیل بٹگرام","county":"ضلع بٹگرام","state_district":"ہزارہ ڈویژن","state":"خیبر پختونخوا","ISO3166-2-lvl4":"PK-KP","postcode":"21040","country":"پاکستان","country_code":"pk"},"osm_type":"node","osm_id":4510945726,"type":"city","location":[73.0281188,34.6785555],"bbox":[72.8681188,34.5185555,73.1881188,34.8385555]}
{"name":"بدین","other_names":{"name:ar":"بدين","name:de":"Badin","name:en":"Badin","name:es":"Badin","name:fa":"بدین","name:fr":"Badin","name:ml":"ബദീൻ","name:ne":"बदिन","name:ru":"Бадин","name:sd":"بدين","name:ur":"بدین","name:azb":"بدين","name:pnb":"بدین"},"display_name":"بدین, تعلقہ بدین, ضلع بدین, بنبھور ڈویژن, سندھ, 72200, پاکستان","address":{"city":"بدین","municipality":"تعلقہ بدین","county":"ضلع بدین","state_district":"بنبھور ڈویژن","state":"سندھ","ISO3166-2-lvl4":"PK-SD","postcode":"72200","country":"پاکستان","country_code":"pk"},"population":112420,"osm_type":"node","osm_id":290729274,"type":"city","location":[68.8401509,24.6551671],"bbox":[68.6801509,24.4951671,69.0001509,24.8151671]}
{"name":"بنگلہ گوگیرہ","other_names":{"name:en":"Bangla Gogera","name:ur":"بنگلہ گوگیرہ","alt:en":"Gogera"},"display_name":"بنگلہ گوگیرہ, تحصیل اوکاڑہ, ضلع اوکاڑہ, ساہیوال ڈویژن, پنجاب, پاکستان","address":{"town":"بنگلہ گوگیرہ","subdistrict":"تحصیل اوکاڑہ","district":"ضلع اوکاڑہ","state_district":"ساہیوال ڈویژن","state":"پنجاب","ISO3166-2-lvl4":"PK-PB","country":"پاکستان","country_code":"pk"},"osm_type":"way","osm_id":548797722,"type":"city","location":[73.3298277,30.9552785],"bbox":[73.3154838,30.9398423,73.3420191,30.9595824]}
{"name":"بنوں","other_names":{"name:ar":"بنو","name:de":"Bannu","name:en":"Bannu","name:es":"Bannu","name:fa":"بنو","name:fr":"Bannu","name:hi":"बन्नू","name:ja":"バンヌ","name:ks":"بنوں","name:ml":"ബന്നൂ","name:ps":"بنو","name:pt":"Bannu","name:ru":"Банну","name:sd":"بنون","name:tr":"Bannu","name:uk":"Банну","name:ur":"بنوں","name:zh":"本努","name:azb":"بنو","name:pnb":"بنوں","name:az-Arab":"بنو"},"display_name":"بنوں, تحصیل بنوں, ضلع بنوں, بنوں ڈویژن, خیبر پختونخوا, 28100, پاکستان","address":{"city":"بنوں","municipality":"تحصیل بنوں","county":"ضلع بنوں","state_district":"بنوں ڈویژن","state":"خیبر پختونخوا","ISO3166-2-lvl4":"PK-KP","postcode":"28100","country":"پاکستان","country_code":"pk"},"population":1300000,"osm_type":"node","osm_id":279814314,"type":"city","location":[70.6036017,32.9857007],"bbox":[70.4436017,32.8257007,70.7636017,33.1457007]}
{"name":"بهكّر","other_names":{"name:ar":"بهكر","name:de":"Bhakkar","name:en":"Bhakkar","name:es":"Bhakkar","name:fa":"بهکر","name:fr":"Bhakkar","name:ja":"バッカル","name:ml":"ഭക്കർ","name:pa":"ਭੱਕਰ","name:ps":"بهکر","name:ru":"Бхаккар","name:sd":"ڀڪر","name:ur":"بھکر","name:pnb":"بھکھر","name:skr":"بھکر"},"display_name":"بهكّر, تحصیل بھکر, ضلع بھکر, میانوالی ڈویژن, پنجاب, پاکستان","address":{"city":"بهكّر","subdistrict":"تحصیل بھکر","district":"ضلع بھکر","state_district":"میانوالی ڈویژن","state":"پنجاب","ISO3166-2-lvl4":"PK-PB","country":"پاکستان","country_code":"pk"},"population":113018,"osm_type":"node","osm_id":281436520,"type":"city","location":[71.0676914,31.6303103],"bbox":[70.9076914,31.4703103,71.2276914,31.7903103]}
{"name":"بھلوال","other_names":{"name:ar":"بهلوال","name:en":"Bhalwal","name:hi":"भलवाल","name:ja":"ブハルワル","name:ml":"ഭൽവാൽ","name:ur":"بھلوال","name:pnb":"بھلوال"},"display_name":"بھلوال, تحصیل بھلوال, ضلع سرگودھا, سرگودھا ڈویژن, پنجاب, پاکستان","address":{"city":"بھلوال","subdistrict":"تحصیل بھلوال","county":"ضلع سرگودھا","state_district":"سرگودھا ڈویژن","state":"پنجاب","ISO3166-2-lvl4":"PK-PB","country":"پاکستان","country_code":"pk"},"population":100135,"osm_type":"node","osm_id":2447752336,"type":"city","location":[72.896564,32.2710743],"bbox":[72.736564,32.1110743,73.056564,32.4310743]}
{"name":"بہاولپور","other_names":{"name:ar":"بهاوالبور","name:bn":"ভাওয়ালপুর","name:de":"Bahawalpur","name:el":"Μπαχαγουαλπούρ","name:en":"Bahawalpur","name:es":"Bahawalpur","name:et":"Bahāwalpur","name:eu":"Bahawalpur","name:fr":"Bahawalpur","name:hi":"बहावलपुर","name:ja":"バハーワルプール","name:kn":"ಬಹಾವಲ್ಪುರ್","name:ml":"ബഹാവൽപൂർ","name:ne":"बहावलपुर","name:pa":"ਬਹਾਵਲਪੁਰ","name:ps":"بهاولپور","name:pt":"Bahawalpur","name:ru":"Бахавалпур","name:sd":"بهاولپور","name:tr":"Bahâvelpûr","name:uk":"Бахавалпур","name:ur":"بہاولپور","name:zh":"巴哈瓦尔布尔","name:pnb":"بہاولپور","name:skr":"بہاول پور"},"display_name":"بہاولپور, تحصیل بہاولپور شہر, ضلع بہاولپور, بہاولپور ڈویژن, پنجاب, 63100, پاکستان","address":{"city":"بہاولپور","subdistrict":"تحصیل بہاولپور شہر","county":"ضلع بہاولپور","state_district":"بہاولپور ڈویژن","state":"پنجاب","ISO3166-2-lvl4":"PK-PB","postcode":"63100","country":"پاکستان","country_code":"pk"},"population":762111,"osm_type":"node","osm_id":251065497,"type":"city","location":[71.6638747,29.394644],"bbox":[71.5038747,29.234644,71.8238747,29.554644],"border":{"name":"تحصیل بہاولپور شہر","other_names":{"name:en":"Bahawalpur City Tehsil","name:ur":"تحصیل بہاولپور شہر","name:pnb":"تحصیل بہاولپور شہر","alt_name:ur":"تحصیل بہاولپور سٹی","alt_name:pnb":"تحصیل بہاولپور سٹی","short_name:ur":"تحصیل بہاولپور","name:ar":"بهاوالبور","name:bn":"ভাওয়ালপুর","name:de":"Bahawalpur","name:el":"Μπαχαγουαλπούρ","name:es":"Bahawalpur","name:et":"Bahāwalpur","name:eu":"Bahawalpur","name:fr":"Bahawalpur","name:hi":"बहावलपुर","name:ja":"バハーワルプール","name:kn":"ಬಹಾವಲ್ಪುರ್","name:ml":"ബഹാവൽപൂർ","name:ne":"बहावलपुर","name:pa":"ਬਹਾਵਲਪੁਰ","name:ps":"بهاولپور","name:pt":"Bahawalpur","name:ru":"Бахавалпур","name:sd":"بهاولپور","name:tr":"Bahâvelpûr","name:uk":"Бахавалпур","name:zh":"巴哈瓦尔布尔","short_name:pnb":"تحصیل بہاولپور","name:skr":"بہاول پور","alt":"بہاولپور","alt:en":"Bahawalpur","alt:ur":"بہاولپور","alt:pnb":"بہاولپور"},"display_name":"تحصیل بہاولپور شہر, ضلع بہاولپور, بہاولپور ڈویژن, پنجاب, پاکستان","address":{"subdistrict":"تحصیل بہاولپور شہر","county":"ضلع بہاولپور","state_district":"بہاولپور ڈویژن","state":"پنجاب","ISO3166-2-lvl4":"PK-PB","country":"پاکستان","country_code":"pk"},"population":762111,"osm_type":"relation","osm_id":16117506,"type":"administrative","location":[71.6638747,29.394644],"bbox":[71.5047076,29.3143573,71.8401311,29.537301]}}
{"name":"بہاولنگر","other_names":{"name:ar":"بهاولنكر","name:bn":"ভাওয়ালনগর","name:de":"Bahawalnagar","name:en":"Bahawalnagar","name:es":"Bahawalnagar","name:et":"Bahawalnagar","name:fa":"بهاولنگر","name:fr":"Bahawalnagar","name:hi":"बहावलनगर","name:ja":"バハーワルナガル","name:ml":"ബഹാവൽനഗർ","name:pa":"ਬਹਾਵਲਨਗਰ","name:ps":"بهاولنگر","name:ru":"Бахавалнагар","name:sd":"بهاولنگر","name:sr":"Бахавалнагар","name:uk":"Багавалнаґар","name:ur":"بہاولنگر","name:pnb":"بہاولنگر"},"display_name":"بہاولنگر, تحصیل بہاولنگر, ضلع بہاولنگر, بہاولپور ڈویژن, پنجاب, 62300, پاکستان","address":{"city":"بہاولنگر","subdistrict":"تحصیل بہاولنگر","district":"ضلع بہاولنگر","state_district":"بہاولپور ڈویژن","state":"پنجاب","ISO3166-2-lvl4":"PK-PB","postcode":"62300","country":"پاکستان","country_code":"pk"},"population":161033,"osm_type":"node","osm_id":281410118,"type":"city","location":[73.2527621,29.9935922],"bbox":[73.0927621,29.8335922,73.4127621,30.1535922]}
{"name":"بورے والا","other_names":{"name:en":"Burewala","name:hi":"बुरेवाला","name:ja":"ブレワラ","name:ml":"ബുരെവാല","name:ur":"بورے والا","name:pnb":"بورے والا","alt_name:ur":"بورے والہ"},"display_name":"بورے والا, تحصیل بورے والا, ضلع وہاڑی, ملتان ڈویژن, پنجاب, 78646, پاکستان","address":{"city":"بورے والا","subdistrict":"تحصیل بورے والا","district":"ضلع وہاڑی","historical_division":"ملتان ڈویژن","state":"پنجاب","ISO3166-2-lvl4":"PK-PB","postcode":"78646","country":"پاکستان","country_code":"pk"},"population":231797,"osm_type":"node","osm_id":281399301,"type":"city","location":[72.6796973,30.1588005],"bbox":[72.5196973,29.9988005,72.8396973,30.3188005]}
{"name":"پاکپتّن","other_names":{"name:ar":"باكبتن","name:bn":"পাকপত্তন","name:de":"Pakpattan","name:en":"Pakpattan","name:es":"Pakpattan","name:et":"Pākpattan","name:fr":"Pakpattan","name:hi":"पकपट्टन","name:ja":"パークパッタン","name:ml":"പാക്പത്തൻ","name:pa":"ਪਾਕਪਤਨ","name:ps":"پاکپتن","name:ru":"Пакпаттан","name:sd":"پاڪپتڻ","name:ur":"پاکپتن","name:pnb":"پاکپتن","name:srk":"پاکپتݨ"},"display_name":"پاکپتّن, تحصیل پاکپتن, ضلع پاکپتن, ساہیوال ڈویژن, پنجاب, پاکستان","address":{"city":"پاکپتّن","subdistrict":"تحصیل پاکپتن","district":"ضلع پاکپتن","state_district":"ساہیوال ڈویژن","state":"پنجاب","ISO3166-2-lvl4":"PK-PB","country":"پاکستان","country_code":"pk"},"population":176693,"osm_type":"node","osm_id":281409468,"type":"city","location":[73.3891875,30.3422503],"bbox":[73.2291875,30.1822503,73.5491875,30.5022503]}
{"name":"پسرور","other_names":{"name:ar":"بسرور","name:de":"Pasrur","name:en":"Pasrur","name:es":"Pasrúr","name:hi":"पसरूर","name:ks":"پسرور","name:ml":"പസ്രൂർ","name:pt":"Pasrúr","name:ru":"Пасрур","name:ur":"پسرور","name:azb":"پسرور","name:pnb":"پسرور","name:az-Arab":"پسرور"},"display_name":"پسرور, تحصیل پسرور, ضلع سیالکوٹ, گوجرانوالہ ڈویژن, پنجاب, پاکستان","address":{"city":"پسرور","subdistrict":"تحصیل پسرور","district":"ضلع سیالکوٹ","state_district":"گوجرانوالہ ڈویژن","state":"پنجاب","ISO3166-2-lvl4":"PK-PB","country":"پاکستان","country_code":"pk"},"population":82485,"osm_type":"node","osm_id":2491024314,"type":"city","location":[74.662699,32.2638734],"bbox":[74.502699,32.1038734,74.822699,32.4238734]}
{"name":"پشاور‎","other_names":{"name:ar":"بيشاور","name:bn":"পেশোয়ার","name:cs":"Pešávar","name:de":"Peschawar","name:el":"Πεσαβάρ","name:en":"Peshawar","name:eo":"Peŝavaro","name:es":"Peshawar","name:et":"Peshāwar","name:eu":"Peshawar","name:fa":"پیشاور","name:fi":"Peshāwar","name:fr":"Peshawar","name:he":"פשוואר","name:hi":"पेशावर","name:it":"Peshawar","name:ja":"ペシャーワル","name:kn":"ಪೇಶಾವರ್","name:ko":"페샤와르","name:ml":"പെഷാവർ","name:ne":"पेशावर","name:nl":"Pesjawar","name:pa":"ਪਿਸ਼ੌਰ","name:pl":"Peszawar","name:ps":"پېښور","name:pt":"Peshawar","name:ru":"Пешавар","name:sd":"پشاور","name:sk":"Pešávar","name:ta":"பெஷாவர்","name:tr":"Peşâver","name:tt":"Пишавәр","name:uk":"Пешавар","name:ur":"پشاور‎","name:zh":"白沙瓦","name:bal":"پشاور","name:hnd":"پشور‎","name:hno":"پشور‎","name:khw":"پشاور","name:pnb":"پشور","name:skr":"پشاور"},"display_name":"پشاور‎, تحصیل پشاور شہر, ضلع پشاور‎, پشاور ڈویژن, خیبر پختونخوا, پاکستان","address":{"city":"پشاور‎","county":"ضلع پشاور‎","state_district":"پشاور ڈویژن","state":"خیبر پختونخوا","ISO3166-2-lvl4":"PK-KP","country":"پاکستان","country_code":"pk"},"population":1970042,"osm_type":"node","osm_id":294107164,"type":"city","location":[71.5787458,34.0123846],"bbox":[71.4187458,33.8523846,71.7387458,34.1723846],"border":{"name":"تحصیل پشاور شہر","other_names":{"name:en":"Peshawar City Tehsil","name:ps":"پېښور ښار تحصیل","name:ur":"تحصیل پشاور شہر","name:ar":"بيشاور","name:bn":"পেশোয়ার","name:cs":"Pešávar","name:de":"Peschawar","name:el":"Πεσαβάρ","name:eo":"Peŝavaro","name:es":"Peshawar","name:et":"Peshāwar","name:eu":"Peshawar","name:fa":"پیشاور","name:fi":"Peshāwar","name:fr":"Peshawar","name:he":"פשוואר","name:hi":"पेशावर","name:it":"Peshawar","name:ja":"ペシャーワル","name:kn":"ಪೇಶಾವರ್","name:ko":"페샤와르","name:ml":"പെഷാവർ","name:ne":"पेशावर","name:nl":"Pesjawar","name:pa":"ਪਿਸ਼ੌਰ","name:pl":"Peszawar","name:pt":"Peshawar","name:ru":"Пешавар","name:sd":"پشاور","name:sk":"Pešávar","name:ta":"பெஷாவர்","name:tr":"Peşâver","name:tt":"Пишавәр","name:uk":"Пешавар","name:zh":"白沙瓦","name:bal":"پشاور","name:hnd":"پشور‎","name:hno":"پشور‎","name:khw":"پشاور","name:pnb":"پشور","name:skr":"پشاور","alt":"پشاور‎","alt:en":"Peshawar","alt:ps":"پېښور","alt:ur":"پشاور‎"},"display_name":"تحصیل پشاور شہر, ضلع پشاور‎, پشاور ڈویژن, خیبر پختونخوا, پاکستان","address":{"city":"تحصیل پشاور شہر","county":"ضلع پشاور‎","state_district":"پشاور ڈویژن","state":"خیبر پختونخوا","ISO3166-2-lvl4":"PK-KP","country":"پاکستان","country_code":"pk"},"population":1970042,"osm_type":"relation","osm_id":16487008,"type":"administrative","location":[71.5787458,34.0123846],"bbox":[71.3688356,33.9154461,71.6262872,34.077447]}}
{"name":"پشین","other_names":{"name:en":"Pishin","name:fa":"پشین","name:hi":"पिशीन","name:ml":"പിഷീൻ","name:ps":"پښين","name:ru":"Пишин","name:sd":"پشين","name:ur":"پشین","name:bal":"پشین","name:pnb":"پشین","name:skr":"پشین"},"display_name":"پشین, تحصیل پشین, ضلع پشین, کوئٹہ ڈویژن, بلوچستان, 86700, پاکستان","address":{"city":"پشین","municipality":"تحصیل پشین","county":"ضلع پشین","state_district":"کوئٹہ ڈویژن","state":"بلوچستان","ISO3166-2-lvl4":"PK-BA","postcode":"86700","country":"پاکستان","country_code":"pk"},"osm_type":"node","osm_id":271909324,"type":"city","location":[66.9966427,30.5828663],"bbox":[66.8366427,30.4228663,67.1566427,30.7428663]}
{"name":"پنو عاقل","other_names":{"name:en":"Pano Akil","name:ml":"പനോ ആക്കിൽ","name:ru":"Паноакил","name:sd":"پنو عاقل","name:ur":"پنو عاقل","alt_name":"Pano Akil"},"display_name":"پنو عاقل, تلعقہ پنو عاقل, ضلع سکھر, سکھر ڈویژن, سندھ, پاکستان","address":{"city":"پنو عاقل","municipality":"تلعقہ پنو عاقل","county":"ضلع سکھر","state_district":"سکھر ڈویژن","state":"سندھ","ISO3166-2-lvl4":"PK-SD","country":"پاکستان","country_code":"pk"},"population":75805,"osm_type":"node","osm_id":89442833,"type":"city","location":[69.1127479,27.855824],"bbox":[68.9527479,27.695824,69.2727479,28.015824]}
{"name":"تاندلیانوالہ‎","other_names":{"name:en":"Tandlianwala","name:hi":"टंडलियानवाला","name:ml":"താന്ദ്ലിയാൻവാല","name:ur":"تاندلیانوالہ","name:pnb":"تاندلیانوالہ"},"display_name":"تاندلیانوالہ‎, تحصیل تاندلیانوالہ, ضلع فیصل آباد, فیصل آباد ڈویژن, پنجاب, پاکستان","address":{"city":"تاندلیانوالہ‎","subdistrict":"تحصیل تاندلیانوالہ","district":"ضلع فیصل آباد","historical_division":"فیصل آباد ڈویژن","state":"پنجاب","ISO3166-2-lvl4":"PK-PB","country":"پاکستان","country_code":"pk"},"population":47576,"osm_type":"node","osm_id":8487444643,"type":"city","location":[73.1330041,31.0321973],"bbox":[72.9730041,30.8721973,73.2930041,31.1921973]}
{"name":"تحصیل تورکھو-موڑکھو","other_names":{"name:en":"Torkhow-Molkhow Tehsil","name:ur":"تحصیل تورکھو-موڑکھو"},"display_name":"تحصیل تورکھو-موڑکھو, ضلع چترال بالا‎, مالاکنڈ ڈویژن, خیبر پختونخوا, پاکستان","address":{"city":"تحصیل تورکھو-موڑکھو","municipality":"ضلع چترال بالا‎","state_district":"مالاکنڈ ڈویژن","state":"خیبر پختونخوا","ISO3166-2-lvl4":"PK-KP","country":"پاکستان","country_code":"pk"},"osm_type":"relation","osm_id":16439488,"type":"administrative","location":[72.20491601567107,36.463620000000006],"bbox":[71.7581461,36.0731677,72.891258,36.855192],"inferred_type":"city"}
{"name":"تحصیل چترال","other_names":{"name:en":"Chitral Tehsil","name:fa":"تحصیل چترال","name:ps":"چترال تحصیل","name:ur":"تحصیل چترال","name:khw":"ݯھیترارو تحصیل"},"display_name":"تحصیل چترال, ضلع چترال زیریں, مالاکنڈ ڈویژن, خیبر پختونخوا, 17200, پاکستان","address":{"city":"تحصیل چترال","municipality":"ضلع چترال زیریں","state_district":"مالاکنڈ ڈویژن","state":"خیبر پختونخوا","ISO3166-2-lvl4":"PK-KP","postcode":"17200","country":"پاکستان","country_code":"pk"},"osm_type":"relation","osm_id":16445239,"type":"administrative","location":[71.74804566981788,36.031192250000004],"bbox":[71.195027,35.57872,72.2991369,36.483566],"inferred_type":"city"}
{"display_name":"تحصیل دوکی, ضلع دوکی, لورالائی ڈویژن, بلوچستان, پاکستان","address":{"municipality":"تحصیل دوکی","county":"ضلع دوکی","state_district":"لورالائی ڈویژن","state":"بلوچستان","ISO3166-2-lvl4":"PK-BA","country":"پاکستان","country_code":"pk"},"osm_type":"way","osm_id":395904324,"type":"city","location":[68.70513795554493,30.00112165],"bbox":[68.7004712,29.99762,68.7114727,30.0048538]}
{"display_name":"تحصیل لہڑی, ضلع سبی, سبی ڈویژن, بلوچستان, پاکستان","address":{"municipality":"تحصیل لہڑی","county":"ضلع سبی","state_district":"سبی ڈویژن","state":"بلوچستان","ISO3166-2-lvl4":"PK-BA","country":"پاکستان","country_code":"pk"},"osm_type":"way","osm_id":395905822,"type":"city","location":[68.20981433547061,29.18243255],"bbox":[68.2055692,29.1766516,68.215107,29.1881219]}
{"name":"تربت","other_names":{"name:ar":"ترنت","name:bn":"তুরবাত","name:de":"Turbat","name:en":"Turbat","name:es":"Turbat","name:fa":"تربت","name:fr":"Turbat","name:hi":"तुर्बत","name:ja":"トゥルバット","name:kn":"ತುರ್ಬತ್","name:ks":"تُربت","name:ml":"തുർബത്ത്","name:ps":"تربت","name:pt":"Turbat","name:ru":"Турбат","name:sd":"تربت","name:uk":"Турбат","name:ur":"تربت","name:azb":"تربت","name:bal":"تُربت","name:ota":"تربت","name:pnb":"تربت","name:az-Arab":"تربت"},"display_name":"تربت, تحصیل تربت, ضلع کیچ, مکران ڈویژن, بلوچستان, 92600, پاکستان","address":{"city":"تربت","municipality":"تحصیل تربت","county":"ضلع کیچ","state_district":"مکران ڈویژن","state":"بلوچستان","ISO3166-2-lvl4":"PK-BA","postcode":"92600","country":"پاکستان","country_code":"pk"},"population":213557,"osm_type":"node","osm_id":271909263,"type":"city","location":[63.0505609,26.0027894],"bbox":[62.8905609,25.8427894,63.2105609,26.1627894]}
{"name":"تعلقہ میہڑ","other_names":{"name:en":"Mehar Taluka","name:ml":"മേഹർ","name:ru":"Мехар","name:sd":"ميهڙ تعلقو","name:ur":"تعلقہ میہڑ","alt_name":"Mihar","name:pnb":"تعلقا میہڑ"},"display_name":"تعلقہ میہڑ, ضلع دادو, حیدر آباد ڈویژن, سندھ, پاکستان","address":{"city":"تعلقہ میہڑ","municipality":"تعلقہ میہڑ","county":"ضلع دادو","state_district":"حیدر آباد ڈویژن","state":"سندھ","ISO3166-2-lvl4":"PK-SD","country":"پاکستان","country_code":"pk"},"population":56000,"osm_type":"node","osm_id":1932752713,"type":"city","location":[67.8227579,27.17974],"bbox":[67.6627579,27.01974,67.9827579,27.33974],"border":{"name":"تعلقہ میہڑ","other_names":{"name:en":"Mehar Taluka","name:sd":"ميهڙ تعلقو","name:ur":"تعلقہ میہڑ","name:pnb":"تعلقا میہڑ","alt_name:en":"Mehar Tehsil","alt_name:ur":"تحصیل ‍میہڑ"},"display_name":"تعلقہ میہڑ, ضلع دادو, حیدر آباد ڈویژن, سندھ, پاکستان","address":{"municipality":"تعلقہ میہڑ","county":"ضلع دادو","state_district":"حیدر آباد ڈویژن","state":"سندھ","ISO3166-2-lvl4":"PK-SD","country":"پاکستان","country_code":"pk"},"osm_type":"relation","osm_id":16371759,"type":"administrative","location":[68.00315102895159,27.114406000000002],"bbox":[67.456805,26.8999735,68.1119416,27.3294913]}}
{"name":"تلہ گنگ","other_names":{"name:en":"Talagang","name:ml":"തലഗംഗ്","name:ru":"Талаганг","name:ur":"تلہ گنگ","name:hnd":"تلہ گنگ","name:pnb":"تلہ گنگ"},"display_name":"تلہ گنگ, تحصیل تلہ گنگ, ضلع تلہ گنگ, میانوالی ڈویژن, پنجاب, پاکستان","address":{"city":"تلہ گنگ","subdistrict":"تحصیل تلہ گنگ","county":"ضلع تلہ گنگ","state_district":"میانوالی ڈویژن","state":"پنجاب","ISO3166-2-lvl4":"PK-PB","country":"پاکستان","country_code":"pk"},"population":63855,"osm_type":"node","osm_id":895554449,"type":"city","location":[72.4139769,32.9235108],"bbox":[72.2539769,32.7635108,72.5739769,33.0835108]}
{"name":"ٹنڈو آدم","other_names":{"name:en":"Tando Adam","name:fr":"Tando Adam","name:ja":"タンドゥ・アダム","name:ml":"ടൻഡോ ആലം","name:ru":"Тандоадам","name:sd":"ٽنڊو آدم","name:sr":"Тандо Адам","name:ur":"ٹنڈو آدم","alt_name:fr":"Tando Adam Khan;Tandoadam"},"display_name":"ٹنڈو آدم, تعلقہ ٹنڈو آدم, ضلع سانگھڑ, شہید بینظیر آباد ڈویژن, سندھ, پاکستان","address":{"city":"ٹنڈو آدم","municipality":"تعلقہ ٹنڈو آدم","county":"ضلع سانگھڑ","state_district":"شہید بینظیر آباد ڈویژن","state":"سندھ","ISO3166-2-lvl4":"PK-SD","country":"پاکستان","country_code":"pk"},"population":152617,"osm_type":"node","osm_id":2486377075,"type":"city","location":[68.6578079,25.7620954],"bbox":[68.4978079,25.6020954,68.8178079,25.9220954]}
{"name":"ٹنڈو الہ یار","other_names":{"name:de":"Tando Allahyar","name:en":"Tando Allahyar","name:es":"Tando Allahyar","name:fa":"تندو الله‌یار","name:fr":"Tando Allahyar","name:ja":"タンド・アラヒャー","name:ml":"ടൻഡോ അള്ളായാർ","name:ps":"ټينډو اله يار","name:ru":"Тандоалахъяр","name:sd":"ٽنڊو الهيار","name:sr":"Тандо Алахјар","name:ur":"ٹنڈو الہ یار","name:pnb":"ٹنڈو الہ یار"},"display_name":"ٹنڈو الہ یار, تعلقہ ٹنڈو الہ یار, ضلع ٹنڈو الہ یار, حیدر آباد ڈویژن, سندھ, 70010, پاکستان","address":{"city":"ٹنڈو الہ یار","municipality":"تعلقہ ٹنڈو الہ یار","county":"ضلع ٹنڈو الہ یار","state_district":"حیدر آباد ڈویژن","state":"سندھ","ISO3166-2-lvl4":"PK-SD","postcode":"70010","country":"پاکستان","country_code":"pk"},"population":133487,"osm_type":"node","osm_id":253180210,"type":"city","location":[68.7198264,25.4619907],"bbox":[68.5598264,25.3019907,68.8798264,25.6219907]}
{"name":"ٹنڈو جام","other_names":{"name:en":"Tando Jam","name:ml":"ടൻഡോ ജാം","name:ru":"Тандоджам"},"display_name":"ٹنڈو جام, تعلقہ حیدرآباد دیہی, ضلع حیدرآباد, حیدر آباد ڈویژن, سندھ, پاکستان","address":{"city":"ٹنڈو جام","municipality":"تعلقہ حیدرآباد دیہی","county":"ضلع حیدرآباد","state_district":"حیدر آباد ڈویژن","state":"سندھ","ISO3166-2-lvl4":"PK-SD","country":"پاکستان","country_code":"pk"},"population":78989,"osm_type":"node","osm_id":1099299975,"type":"city","location":[68.5296162,25.4245266],"bbox":[68.3696162,25.2645266,68.6896162,25.5845266]}
{"name":"ٹھل","other_names":{"name:en":"Thul","name:ml":"തുൽ","name:sd":"ٺل","name:ur":"ٹھل"},"display_name":"ٹھل, تعلقہ ٹھل, ضلع جیکب آباد, لاڑکانہ ڈویژن, سندھ, پاکستان","address":{"city":"ٹھل","municipality":"تعلقہ ٹھل","county":"ضلع جیکب آباد","state_district":"لاڑکانہ ڈویژن","state":"سندھ","ISO3166-2-lvl4":"PK-SD","country":"پاکستان","country_code":"pk"},"population":70158,"osm_type":"node","osm_id":3962599957,"type":"city","location":[68.7761587,28.2365315],"bbox":[68.6161587,28.0765315,68.9361587,28.3965315]}
{"name":"ٹوبہ ٹیک سنگھ‎","other_names":{"name:en":"Toba Tek Singh","name:fr":"Toba Tek Singh","name:hi":"टोबा टेक सिंह","name:ml":"ടോബ ടെക് സിംഗ്","name:pa":"ਟੋਭਾ ਟੇਕ ਸਿੰਘ","name:sd":"ٽوبہ ٽيڪ سنگھ","name:ur":"ٹوبہ ٹیک سنگھ","name:pnb":"ٹوبہ ٹیک سنگھ"},"display_name":"ٹوبہ ٹیک سنگھ‎, تحصیل ٹوبہ ٹیک سنگھ, ضلع ٹوبہ ٹیک سنگھ, فیصل آباد ڈویژن, پنجاب, 36050, پاکستان","address":{"city":"ٹوبہ ٹیک سنگھ‎","subdistrict":"تحصیل ٹوبہ ٹیک سنگھ","district":"ضلع ٹوبہ ٹیک سنگھ","historical_division":"فیصل آباد ڈویژن","state":"پنجاب","ISO3166-2-lvl4":"PK-PB","postcode":"36050","country":"پاکستان","country_code":"pk"},"population":87210,"osm_type":"node","osm_id":282283720,"type":"city","location":[72.4860799,30.9777056],"bbox":[72.3260799,30.8177056,72.6460799,31.1377056]}
{"name":"ٹیکسلا","other_names":{"name:ar":"تاكسيلا","name:de":"Taxila","name:en":"Taxila","name:fa":"تاکسیلا","name:gu":"તક્ષશિલા","name:hi":"तक्षशिला","name:hr":"Taksila","name:ja":"タキシラ","name:kn":"ತಕ್ಷಶಿಲಾ","name:ml":"തക്ഷശില","name:mr":"तक्षशिला","name:ne":"तक्षशिला","name:pl":"Taksila","name:ru":"Таксила;Такшашила","name:sa":"तक्षशिला","name:sl":"Taksila","name:sr":"Таксила","name:ta":"தட்சசீலம்","name:te":"తక్షశిల","name:uk":"Таксила","name:ur":"ٹیکسلا","name:zh":"塔克西拉","alt_name":"Takshashila","int_name":"Taxila","name:pnb":"ٹیکسلا","alt_name:ar":"تاكسيلا;تاكشاشيلا","alt_name:fa":"تکشَشیلا"},"display_name":"ٹیکسلا, تحصیل ٹیکسلا, ضلع راولپنڈی, راولپنڈی ڈویژن, پنجاب, 47080, پاکستان","address":{"city":"ٹیکسلا","municipality":"تحصیل ٹیکسلا","county":"ضلع راولپنڈی","state_district":"راولپنڈی ڈویژن","state":"پنجاب","ISO3166-2-lvl4":"PK-PB","postcode":"47080","country":"پاکستان","country_code":"pk"},"population":121952,"osm_type":"node","osm_id":7673015520,"type":"city","location":[72.8073364,33.7474551],"bbox":[72.6473364,33.5874551,72.9673364,33.9074551]}
{"name":"جڑانوالہ","other_names":{"name:ar":"جرانوالا","name:en":"Jaranwala","name:et":"Jarānwāla","name:hi":"जरनवाला","name:ja":"ジャランワラ","name:ml":"ജരൻവാല","name:pa":"ਜੜਾਂਵਾਲਾ","name:ru":"Джаранвала","name:ur":"جڑانوالہ","name:pnb":"جڑانوالہ"},"display_name":"جڑانوالہ, تحصیل جڑانوالہ, ضلع فیصل آباد, فیصل آباد ڈویژن, پنجاب, 37250, پاکستان","address":{"city":"جڑانوالہ","subdistrict":"تحصیل جڑانوالہ","district":"ضلع فیصل آباد","historical_division":"فیصل آباد ڈویژن","state":"پنجاب","ISO3166-2-lvl4":"PK-PB","postcode":"37250","country":"پاکستان","country_code":"pk"},"population":150380,"osm_type":"node","osm_id":253515141,"type":"city","location":[73.4183387,31.3330181],"bbox":[73.2583387,31.1730181,73.5783387,31.4930181]}
{"name":"جھنگ","other_names":{"name:ar":"جهنك","name:be":"Джанг","name:bn":"ঝাং","name:de":"Jhang","name:en":"Jhang","name:es":"Jhang","name:eu":"Jhang","name:fa":"جهنگ","name:fr":"Jhang","name:hi":"झंग","name:ja":"ジャング・サダル","name:kn":"ಝಂಗ್","name:ml":"ഝംഗ്","name:pa":"ਝੰਗ","name:ps":"جهنگ","name:ru":"Джанг","name:sd":"جهنگ","name:sr":"Џанг","name:ur":"جھنگ","name:zh":"章市","name:azb":"جهنگ","name:pnb":"جھنگ","name:skr":"جھنگ"},"display_name":"جھنگ, تحصيل جھنگ, ضلع جھنگ, فیصل آباد ڈویژن, پنجاب, 08871, پاکستان","address":{"city":"جھنگ","subdistrict":"تحصيل جھنگ","district":"ضلع جھنگ","historical_division":"فیصل آباد ڈویژن","state":"پنجاب","ISO3166-2-lvl4":"PK-PB","postcode":"08871","country":"پاکستان","country_code":"pk"},"population":414131,"osm_type":"node","osm_id":281125675,"type":"city","location":[72.3103071,31.2728805],"bbox":[72.1503071,31.1128805,72.4703071,31.4328805]}
{"name":"جہانیاں","other_names":{"name:ar":"جهانيان","name:en":"Jahanian","name:ur":"جہانیاں","name:de":"Jahanian","name:es":"Jehanian","name:fr":"Jahanian","name:ml":"ജഹാനിയാൻ","name:pnb":"جہانیاں"},"display_name":"جہانیاں, ملتان ڈویژن, پنجاب, 58200, پاکستان","address":{"town":"جہانیاں","historical_division":"ملتان ڈویژن","state":"پنجاب","ISO3166-2-lvl4":"PK-PB","postcode":"58200","country":"پاکستان","country_code":"pk"},"osm_type":"way","osm_id":531136795,"type":"city","location":[71.8184519,30.038018],"bbox":[71.7921215,30.023379,71.8349081,30.0668339]}
{"name":"جہلم","other_names":{"name:ar":"جيلم","name:bn":"ঝিলাম","name:de":"Jhelam","name:en":"Jhelum","name:es":"Jhelum","name:et":"Jhelum","name:fa":"جهلم","name:fr":"Jhelum","name:hi":"झेलम","name:ja":"ジェラム","name:kn":"ಝೇಲಮ್","name:ml":"ഝലം","name:pa":"ਝੇਲਮ","name:ps":"ولسوالۍ","name:ru":"Джелам","name:sd":"جهلم","name:te":"జీలం","name:ur":"جہلم","name:pnb":"جھیلم"},"display_name":"جہلم, تحصیل جہلم, ضلع جہلم, راولپنڈی ڈویژن, پنجاب, 49600, پاکستان","address":{"city":"جہلم","municipality":"تحصیل جہلم","county":"ضلع جہلم","state_district":"راولپنڈی ڈویژن","state":"پنجاب","ISO3166-2-lvl4":"PK-PB","postcode":"49600","country":"پاکستان","country_code":"pk"},"population":190425,"osm_type":"node","osm_id":66298767,"type":"city","location":[73.719388,32.9247256],"bbox":[73.559388,32.7647256,73.879388,33.0847256]}
{"name":"جوہرآباد","other_names":{"name:en":"Joharabad","name:fa":"جوهرآباد","name:ml":"ജോഹറാബാദ്","name:ur":"جوہرآباد","alt_name:en":"Jauharabad"},"display_name":"جوہرآباد, تحصیل خوشاب, ضلع خوشاب, سرگودھا ڈویژن, پنجاب, 41200, پاکستان","address":{"city":"جوہرآباد","subdistrict":"تحصیل خوشاب","district":"ضلع خوشاب","state_district":"سرگودھا ڈویژن","state":"پنجاب","ISO3166-2-lvl4":"PK-PB","postcode":"41200","country":"پاکستان","country_code":"pk"},"population":113188,"osm_type":"node","osm_id":253748822,"type":"city","location":[72.2878819,32.2864067],"bbox":[72.1278819,32.1264067,72.4478819,32.4464067]}
{"name":"جیکب آباد","other_names":{"name:ar":"جاكوب آباد","name:bn":"জেকোবাবাদ","name:de":"Jacobabad","name:en":"Jacobabad","name:es":"Jacobabad","name:et":"Jacobābād","name:fa":"جیکب‌آباد","name:fr":"Jacobabad","name:hi":"जैकबाबाद","name:ja":"ジャコババード","name:kn":"ಜಕೊಬಬಾದ್","name:ml":"ജേക്കബാബാദ്","name:ps":"جېکب آباد","name:ru":"Джейкобабад","name:sd":"جيڪب آباد","name:ur":"جیکب آباد","name:bal":"جیکب آباد","name:pnb":"جیکب آباد","name:skr":"جیکب آباد"},"display_name":"جیکب آباد, تعلقہ جیکب آباد, ضلع جیکب آباد, لاڑکانہ ڈویژن, سندھ, 79000, پاکستان","address":{"city":"جیکب آباد","municipality":"تعلقہ جیکب آباد","county":"ضلع جیکب آباد","state_district":"لاڑکانہ ڈویژن","state":"سندھ","ISO3166-2-lvl4":"PK-SD","postcode":"79000","country":"پاکستان","country_code":"pk"},"population":200815,"osm_type":"node","osm_id":2940910421,"type":"city","location":[68.4364361,28.2813094],"bbox":[68.2764361,28.1213094,68.5964361,28.4413094]}
{"name":"چارسدہ","other_names":{"name:ar":"تشارسادا","name:de":"Charsadda","name:en":"Charsadda","name:et":"Chārsadda","name:fa":"چهارسده","name:fr":"Charsadda","name:hi":"चारसद्दा","name:ja":"チャルサダ","name:kn":"ಚರ್ಸದ್ದಾ","name:ml":"ചാർസദ്ദ","name:ne":"चरसद्दा","name:ps":"چارسدې","name:ru":"Чарсадда","name:sd":"چارسدہ","name:ur":"چار سدہ","name:zh":"查尔萨达","name:arz":"تشارسادا","name:pnb":"چار سدہ"},"display_name":"چارسدہ, تحصیل چارسدہ, ضلع چارسدہ, پشاور ڈویژن, خیبر پختونخوا, 24420, پاکستان","address":{"city":"چارسدہ","municipality":"تحصیل چارسدہ","county":"ضلع چارسدہ","state_district":"پشاور ڈویژن","state":"خیبر پختونخوا","ISO3166-2-lvl4":"PK-KP","postcode":"24420","country":"پاکستان","country_code":"pk"},"population":114565,"osm_type":"node","osm_id":90553405,"type":"city","location":[71.7337464,34.1461506],"bbox":[71.5737464,33.9861506,71.8937464,34.3061506]}
{"name":"چترال","other_names":{"name:ar":"شترال","name:de":"Chitral","name:en":"Chitral","name:es":"Chitral","name:et":"Chitrāl","name:fa":"چترال","name:fr":"Chitrâl","name:hi":"चित्राल","name:ja":"チトラル","name:ks":"چترال","name:ml":"ചിത്രാൽ","name:ps":"چترال","name:ru":"Читрал","name:ur":"چترال","name:zh":"吉德拉尔","name:khw":"ݯھیترار","alt_name:ar":"شيترال;شيترار","alt_name:fa":"چیترال"},"display_name":"چترال, تحصیل چترال, ضلع چترال زیریں, ضلع چترال, مالاکنڈ ڈویژن, خیبر پختونخوا, پاکستان","address":{"city":"چترال","municipality":"ضلع چترال زیریں","county":"ضلع چترال","state_district":"مالاکنڈ ڈویژن","state":"خیبر پختونخوا","ISO3166-2-lvl4":"PK-KP","country":"پاکستان","country_code":"pk"},"population":49794,"osm_type":"node","osm_id":279645187,"type":"city","location":[71.7901897,35.850889],"bbox":[71.6301897,35.690889,71.9501897,36.010889]}
{"name":"چِچہ وطنى‎","other_names":{"name:en":"Chichawatni","name:hi":"चिचावत्नी","name:ml":"ചിചാവത്നി","name:pa":"ਚੀਚਾ ਵਤਨੀ","name:ru":"Чичаватни","name:ur":"چیچہ وطنی","name:pnb":"چیچہ وطنی"},"display_name":"چِچہ وطنى‎, تحصیل چیچہ وطنی, ضلع ساہیوال, ساہیوال ڈویژن, پنجاب, 57201, پاکستان","address":{"city":"چِچہ وطنى‎","subdistrict":"تحصیل چیچہ وطنی","district":"ضلع ساہیوال","state_district":"ساہیوال ڈویژن","state":"پنجاب","ISO3166-2-lvl4":"PK-PB","postcode":"57201","country":"پاکستان","country_code":"pk"},"population":160000,"osm_type":"node","osm_id":251321140,"type":"city","location":[72.6914049,30.531691],"bbox":[72.5314049,30.371691,72.8514049,30.691691]}
{"name":"چشتیاں شریف","other_names":{"name:ar":"ششتيان شريف","name:bn":"চিশিতিয়াঁ শরীফ","name:en":"Chishtian Sharif","name:hi":"चिश्तियां शरीफ","name:ml":"ചിഷ്തിയാൻ ഷരീഫ്","name:ur":"چشتیاں شریف","name:pnb":"چشتیاں شریف","alt_name:en":"Chishtian","alt_name:ur":"چشتیاں","alt_name:pnb":"چشتیاں"},"display_name":"چشتیاں شریف, تحصیل چشتیاں, ضلع بہاولنگر, بہاولپور ڈویژن, پنجاب, پاکستان","address":{"city":"چشتیاں شریف","subdistrict":"تحصیل چشتیاں","district":"ضلع بہاولنگر","state_district":"بہاولپور ڈویژن","state":"پنجاب","ISO3166-2-lvl4":"PK-PB","country":"پاکستان","country_code":"pk"},"osm_type":"node","osm_id":4303514598,"type":"city","location":[72.857779,29.7945611],"bbox":[72.697779,29.6345611,73.017779,29.9545611],"border":{"name":"چشتیاں‎","other_names":{"name:en":"Chishtian","name:ja":"チスティアン"},"display_name":"چشتیاں‎, تحصیل چشتیاں, ضلع بہاولنگر, بہاولپور ڈویژن, پنجاب, پاکستان","address":{"city":"چشتیاں‎","subdistrict":"تحصیل چشتیاں","district":"ضلع بہاولنگر","state_district":"بہاولپور ڈویژن","state":"پنجاب","ISO3166-2-lvl4":"PK-PB","country":"پاکستان","country_code":"pk"},"population":149939,"osm_type":"way","osm_id":371345779,"type":"city","location":[72.8572781745865,29.79365915],"bbox":[72.8267,29.7723447,72.8877042,29.8137962]}}
{"name":"چکوال","other_names":{"name:en":"Chakwal","name:fa":"چکوال","name:fr":"Chakwal","name:hi":"चकवाल","name:ja":"チャクワール","name:kn":"ಚಕ್ವಾಲ್","name:ml":"ചക്വാൽ","name:pa":"ਚਕਵਾਲ","name:ps":"چکوال","name:ru":"Чаквал","name:sd":"چڪوال","name:ur":"چکوال","name:pnb":"چکوال"},"display_name":"چکوال, تحصیل چکوال, ضلع چکوال, راولپنڈی ڈویژن, پنجاب, 48800, پاکستان","address":{"city":"چکوال","subdistrict":"تحصیل چکوال","district":"ضلع چکوال","state_district":"راولپنڈی ڈویژن","state":"پنجاب","ISO3166-2-lvl4":"PK-PB","postcode":"48800","country":"پاکستان","country_code":"pk"},"population":138146,"osm_type":"node","osm_id":115965552,"type":"city","location":[72.8629763,32.932827],"bbox":[72.7029763,32.772827,73.0229763,33.092827]}
{"name":"چمن","other_names":{"name:ar":"شمن","name:de":"Chaman","name:en":"Chaman","name:es":"Chaman","name:et":"Chaman","name:fa":"چمن","name:fr":"Chaman","name:ja":"チャマン","name:ks":"چمن","name:ml":"ചമൻ","name:ps":"چمن","name:ru":"Чаман","name:uk":"Чаман","name:ur":"چمن","name:azb":"چمن","name:bal":"چمن","name:pnb":"چمن"},"display_name":"چمن, تحصیل چمن شہر, ضلع چمن, کوئٹہ ڈویژن, بلوچستان, 86000, پاکستان","address":{"city":"چمن","county":"ضلع چمن","state_district":"کوئٹہ ڈویژن","state":"بلوچستان","ISO3166-2-lvl4":"PK-BA","postcode":"86000","country":"پاکستان","country_code":"pk"},"population":123191,"osm_type":"node","osm_id":253260357,"type":"city","location":[66.4631051,30.915948],"bbox":[66.3031051,30.755948,66.6231051,31.075948],"border":{"name":"تحصیل چمن شہر","other_names":{"name:en":"Chaman City Tehsil","name:ps":"چمن ښار تحصیل","name:ur":"تحصیل چمن شہر","name:bal":"چمن شهر تحصیل","name:ar":"شمن","name:de":"Chaman","name:es":"Chaman","name:et":"Chaman","name:fa":"چمن","name:fr":"Chaman","name:ja":"チャマン","name:ks":"چمن","name:ml":"ചമൻ","name:ru":"Чаман","name:uk":"Чаман","name:azb":"چمن","name:pnb":"چمن","alt":"چمن","alt:en":"Chaman","alt:ps":"چمن","alt:ur":"چمن","alt:bal":"چمن"},"display_name":"تحصیل چمن شہر, ضلع چمن, کوئٹہ ڈویژن, بلوچستان, 86000, پاکستان","address":{"city":"تحصیل چمن شہر","county":"ضلع چمن","state_district":"کوئٹہ ڈویژن","state":"بلوچستان","ISO3166-2-lvl4":"PK-BA","postcode":"86000","country":"پاکستان","country_code":"pk"},"population":123191,"osm_type":"relation","osm_id":16634549,"type":"administrative","location":[66.4631051,30.915948],"bbox":[66.3822196,30.8680689,66.5117862,30.9634339]}}
{"name":"چنیوٹ","other_names":{"name:ar":"جنيوت","name:de":"Chiniot","name:en":"Chiniot","name:es":"Chiniot","name:et":"Chiniot","name:eu":"Chiniot","name:fa":"چنیوت","name:fr":"Chiniot","name:hi":"चिनीओट","name:ja":"シニョット","name:kn":"ಚನಿಓಟ್","name:ml":"ചിനിയോട്ട്","name:pa":"ਚਨਿਓਟ","name:ps":"چنيوټ","name:ru":"Чиниот","name:sd":"چنيوٽ","name:sr":"Чиниот","name:ur":"چنيوٹ","name:pnb":"چنیوٹ"},"display_name":"چنیوٹ, تحصیل چنیوٹ, ضلع چنيوٹ, فیصل آباد ڈویژن, پنجاب, پاکستان","address":{"city":"چنیوٹ","subdistrict":"تحصیل چنیوٹ","district":"ضلع چنيوٹ","historical_division":"فیصل آباد ڈویژن","state":"پنجاب","ISO3166-2-lvl4":"PK-PB","country":"پاکستان","country_code":"pk"},"population":278747,"osm_type":"node","osm_id":244034854,"type":"city","location":[72.9802538,31.7223135],"bbox":[72.8202538,31.5623135,73.1402538,31.8823135]}
{"name":"چوک اعظم chowk azam","other_names":{"name:en":"Chowk Azam","name:ur":"چوک اعظم"},"display_name":"چوک اعظم chowk azam, تحصیل لیہ, ضلع لیہ, ڈیرہ غازی خان ڈویژن, پنجاب, 31450, پاکستان","address":{"city":"چوک اعظم chowk azam","subdistrict":"تحصیل لیہ","district":"ضلع لیہ","state_district":"ڈیرہ غازی خان ڈویژن","state":"پنجاب","ISO3166-2-lvl4":"PK-PB","postcode":"31450","country":"پاکستان","country_code":"pk"},"population":87376,"osm_type":"node","osm_id":1527382166,"type":"city","location":[71.2124892,30.9628371],"bbox":[71.0524892,30.8028371,71.3724892,31.1228371]}
{"name":"حاصل پور","other_names":{"name:ar":"حاصل بور","name:bn":"হাসিলপুর","name:de":"Hasilpur","name:en":"Hasilpur","name:es":"Hasilpur","name:fr":"Hasilpur","name:hi":"हासिलपुर","name:ja":"ハシルパー","name:ml":"ഹാസിൽപൂർ","name:ru":"Хасилпур","name:ur":"حاصل پور","name:pnb":"حاصل پور"},"display_name":"حاصل پور, تحصیل حاصل پور, ضلع بہاولپور, بہاولپور ڈویژن, پنجاب, 63000, پاکستان","address":{"city":"حاصل پور","subdistrict":"تحصیل حاصل پور","county":"ضلع بہاولپور","state_district":"بہاولپور ڈویژن","state":"پنجاب","ISO3166-2-lvl4":"PK-PB","postcode":"63000","country":"پاکستان","country_code":"pk"},"population":115536,"osm_type":"node","osm_id":281434423,"type":"city","location":[72.5525446,29.6889811],"bbox":[72.3925446,29.5289811,72.7125446,29.8489811]}
{"name":"حافظ آباد","other_names":{"name:bn":"হাফিজাবাদ","name:en":"Hafizabad","name:fa":"حافظ‌آباد","name:fr":"Hafizabad","name:hi":"हफ़ीज़ाबाद","name:ja":"ハーフィザーバード","name:ml":"ഹാഫിസാബാദ്","name:pa":"ਹਾਫ਼ਿਜ਼ਾਬਾਦ","name:ps":"حافظ آباد","name:ru":"Хафизабад","name:sd":"حافظ آباد","name:ur":"حافظ آباد","name:pnb":"حافظ آباد"},"display_name":"حافظ آباد, تحصیل حافظ آباد, ضلع حافظ آباد, گجرات ڈویژن, پنجاب, 52110, پاکستان","address":{"city":"حافظ آباد","subdistrict":"تحصیل حافظ آباد","district":"ضلع حافظ آباد","state_district":"گجرات ڈویژن","state":"پنجاب","ISO3166-2-lvl4":"PK-PB","postcode":"52110","country":"پاکستان","country_code":"pk"},"population":245784,"osm_type":"node","osm_id":281400410,"type":"city","location":[73.6884523,32.0719134],"bbox":[73.5284523,31.9119134,73.8484523,32.2319134]}
{"name":"حب","other_names":{"name:ar":"حب","name:bn":"হুব","name:en":"Hub","name:fa":"حب","name:sd":"حب","name:ur":"حب","name:bal":"حب","name:brh":"حب","name:pnb":"حب"},"display_name":"حب, تحصیل حب, ضلع حب, قلات ڈویژن, بلوچستان, 90250, پاکستان","address":{"city":"حب","municipality":"تحصیل حب","county":"ضلع حب","state_district":"قلات ڈویژن","state":"بلوچستان","ISO3166-2-lvl4":"PK-BA","postcode":"90250","country":"پاکستان","country_code":"pk"},"population":175376,"osm_type":"node","osm_id":253185684,"type":"city","location":[66.8840285,25.0255428],"bbox":[66.7240285,24.8655428,67.0440285,25.1855428]}
{"name":"حجرہ شاہ مقیم","other_names":{"name:en":"Hujra Shah Muqeem","name:hi":"हुजरा शाह मुकीम","name:ml":"ഹുജ്റ ഷാ മുഖീം"},"display_name":"حجرہ شاہ مقیم, تحصیل دیپالپور, ضلع اوکاڑہ, ساہیوال ڈویژن, پنجاب, پاکستان","address":{"city":"حجرہ شاہ مقیم","subdistrict":"تحصیل دیپالپور","district":"ضلع اوکاڑہ","state_district":"ساہیوال ڈویژن","state":"پنجاب","ISO3166-2-lvl4":"PK-PB","country":"پاکستان","country_code":"pk"},"population":76462,"osm_type":"node","osm_id":282302998,"type":"city","location":[73.8245631,30.7393828],"bbox":[73.6645631,30.5793828,73.9845631,30.8993828]}
{"name":"حیدرآباد","other_names":{"name:ar":"حيدر آباد","name:az":"Heydərabad","name:be":"Хайдарабад","name:bn":"হায়দরাবাদ","name:de":"Hyderabad","name:el":"Χαϊντεραμπάντ","name:en":"Hyderabad","name:eo":"Hajderabado","name:es":"Hyderabad","name:et":"Hyderābād","name:eu":"Hyderabad","name:fa":"حیدرآباد","name:fr":"Hyderâbâd","name:gu":"હૈદરાબાદ","name:hi":"हैदराबाद","name:hr":"Hajderabad","name:hy":"Հայդարաբադ","name:ja":"ハイデラバード","name:kn":"ಹೈದರಾಬಾದ್‌","name:ky":"Хайдарабад","name:ml":"ഹൈദരാബാദ്","name:ne":"हैदराबाद","name:no":"Hyderabad","name:pa":"ਹੈਦਰਾਬਾਦ","name:ps":"حيدرآباد","name:pt":"Hyderabad","name:ru":"Хайдарабад","name:sd":"حيدرآباد","name:sk":"Hajdarábad","name:sr":"Хајдерабад","name:ta":"ஹைதராபாத்","name:tr":"Haydarabad","name:uk":"Хайдарабад","name:ur":"حیدرآباد","name:zh":"海得拉巴","name:azb":"حیدر آباد","name:pnb":"حیدرآباد"},"display_name":"حیدرآباد, تعلقہ حیدرآباد شہر, ضلع حیدرآباد, حیدر آباد ڈویژن, سندھ, پاکستان","address":{"city":"حیدرآباد","county":"ضلع حیدرآباد","state_district":"حیدر آباد ڈویژن","state":"سندھ","ISO3166-2-lvl4":"PK-SD","country":"پاکستان","country_code":"pk"},"population":1734309,"osm_type":"node","osm_id":1129364490,"type":"city","location":[68.3714971,25.3868287],"bbox":[68.2114971,25.2268287,68.5314971,25.5468287],"border":[{"name":"حیدرآباد","other_names":{"name:ar":"حيدر آباد","name:be":"Хайдарабад","name:de":"Hyderabad","name:el":"Χαϊντεραμπάντ","name:eo":"Hajderabado","name:es":"Hyderabad","name:et":"Hyderābād","name:gu":"હૈદરાબાદ","name:hi":"हैदराबाद","name:hy":"Հայդարաբադ","name:ja":"ハイデラバード","name:kn":"ಹೈದರಾಬಾದ್‌","name:ky":"Хайдарабад","name:ml":"ഹൈദരാബാദ്","name:pa":"ਹੈਦਰਾਬਾਦ","name:pt":"Hyderabad","name:ru":"Хайдарабад","name:sd":"حيدرآباد","name:sr":"Хајдерабад","name:ta":"ஹைதராபாத்","name:uk":"Хайдарабад","name:ur":"حیدرآباد","name:zh":"海得拉巴","name:azb":"حیدر آباد","name:pnb":"حیدرآباد"},"display_name":"حیدرآباد, ضلع حیدرآباد, حیدر آباد ڈویژن, سندھ, پاکستان","address":{"city":"حیدرآباد","county":"ضلع حیدرآباد","state_district":"حیدر آباد ڈویژن","state":"سندھ","ISO3166-2-lvl4":"PK-SD","country":"پاکستان","country_code":"pk"},"population":1732698,"osm_type":"relation","osm_id":14480894,"type":"city","location":[68.36134563257718,25.4075358],"bbox":[68.3103163,25.3434571,68.4200933,25.4711398]},{"name":"تعلقہ حیدرآباد شہر","other_names":{"name:en":"Hyderabad City Taluka","name:sd":"حيدرآباد شهر تعلقو","name:ur":"تعلقہ حیدرآباد شہر","alt_name:en":"Hyderabad City Tehsil","alt_name:ur":"تحصیل حیدرآباد شہر","name:ar":"حيدر آباد","name:az":"Heydərabad","name:be":"Хайдарабад","name:bn":"হায়দরাবাদ","name:de":"Hyderabad","name:el":"Χαϊντεραμπάντ","name:eo":"Hajderabado","name:es":"Hyderabad","name:et":"Hyderābād","name:eu":"Hyderabad","name:fa":"حیدرآباد","name:fr":"Hyderâbâd","name:gu":"હૈદરાબાદ","name:hi":"हैदराबाद","name:hr":"Hajderabad","name:hy":"Հայդարաբադ","name:ja":"ハイデラバード","name:kn":"ಹೈದರಾಬಾದ್‌","name:ky":"Хайдарабад","name:ml":"ഹൈദരാബാദ്","name:ne":"हैदराबाद","name:no":"Hyderabad","name:pa":"ਹੈਦਰਾਬਾਦ","name:ps":"حيدرآباد","name:pt":"Hyderabad","name:ru":"Хайдарабад","name:sk":"Hajdarábad","name:sr":"Хајдерабад","name:ta":"ஹைதராபாத்","name:tr":"Haydarabad","name:uk":"Хайдарабад","name:zh":"海得拉巴","name:azb":"حیدر آباد","name:pnb":"حیدرآباد","alt":"حیدرآباد","alt:en":"Hyderabad","alt:sd":"حيدرآباد","alt:ur":"حیدرآباد"},"display_name":"تعلقہ حیدرآباد شہر, ضلع حیدرآباد, حیدر آباد ڈویژن, سندھ, 91000, پاکستان","address":{"city":"تعلقہ حیدرآباد شہر","county":"ضلع حیدرآباد","state_district":"حیدر آباد ڈویژن","state":"سندھ","ISO3166-2-lvl4":"PK-SD","postcode":"91000","country":"پاکستان","country_code":"pk"},"population":1734309,"osm_type":"relation","osm_id":16362308,"type":"administrative","location":[68.3714971,25.3868287],"bbox":[68.3305109,25.3607042,68.4277109,25.4411614]}]}
{"name":"خانپور","other_names":{"name:ar":"جانبور","name:bn":"খানপুর","name:en":"Khanpur","name:es":"Khanpur","name:et":"Khānpur","name:fr":"Khanpur","name:hi":"खानपुर","name:ja":"ハーンプル","name:ml":"ഖാൻപൂർ","name:pa":"خانپور","name:ru":"Ханпур","name:sr":"Ханпур","name:ur":"خان پور","name:pnb":"خانپور کٹورا"},"display_name":"خانپور, تحصیل خان پور, ضلع رحیم یار خان, بہاولپور ڈویژن, پنجاب, 64100, پاکستان","address":{"city":"خانپور","subdistrict":"تحصیل خان پور","district":"ضلع رحیم یار خان","state_district":"بہاولپور ڈویژن","state":"پنجاب","ISO3166-2-lvl4":"PK-PB","postcode":"64100","country":"پاکستان","country_code":"pk"},"population":184793,"osm_type":"node","osm_id":281405781,"type":"city","location":[70.656008,28.6477403],"bbox":[70.496008,28.4877403,70.816008,28.8077403]}
{"name":"خانیوال","other_names":{"name:ar":"خانیوال","name:de":"Khanewal","name:en":"Khanewal","name:es":"Khanewal","name:et":"Khānewāl","name:fr":"Khanewal","name:hi":"खानेवाल","name:ja":"ハーネーワール","name:kn":"ಖಾನೆವಾಲ್","name:ml":"ഖാനെവാൽ","name:ne":"खानेवाल","name:ps":"خانيوال","name:ru":"Ханевал","name:sd":"خانيوال","name:sr":"Ханевал","name:ur":"خانیوال","name:pnb":"خانیوال"},"display_name":"خانیوال, ضلع خانیوال, ملتان ڈویژن, پنجاب, 58150, پاکستان","address":{"city":"خانیوال","village":"ضلع خانیوال","historical_division":"ملتان ڈویژن","state":"پنجاب","ISO3166-2-lvl4":"PK-PB","postcode":"58150","country":"پاکستان","country_code":"pk"},"population":227059,"osm_type":"node","osm_id":251165455,"type":"city","location":[71.9278916,30.3022528],"bbox":[71.7678916,30.1422528,72.0878916,30.4622528]}
{"name":"خضدار","other_names":{"name:ar":"خوزدار","name:de":"Khuzdar","name:en":"Khuzdar","name:es":"Khuzdar","name:fa":"خضدار","name:fr":"Khuzdar","name:hi":"खुजदार","name:ja":"フズダル","name:kn":"ಖುಜ್ದರ್","name:ks":"خضدار","name:ml":"ഖുസ്ദാർ","name:ps":"خضدار","name:ru":"Хуздар","name:sd":"خضدار","name:sr":"Куздар","name:uk":"Хуздар","name:ur":"خضدار","name:azb":"خضدار","name:bal":"هضدار","name:pnb":"خضدار","name:az-Arab":"خضدار"},"display_name":"خضدار, تحصیل خضدار, ضلع خضدار, قلات ڈویژن, بلوچستان, 89100, پاکستان","address":{"city":"خضدار","municipality":"تحصیل خضدار","county":"ضلع خضدار","state_district":"قلات ڈویژن","state":"بلوچستان","ISO3166-2-lvl4":"PK-BA","postcode":"89100","country":"پاکستان","country_code":"pk"},"population":182927,"osm_type":"node","osm_id":271909244,"type":"city","location":[66.6166537,27.8000135],"bbox":[66.4566537,27.6400135,66.7766537,27.9600135]}
{"name":"خوشاب","other_names":{"name:de":"Khushab","name:en":"Khushab","name:es":"Khushab","name:fa":"خوشاب","name:fr":"Khushab","name:hi":"ख़ुशाब","name:ml":"ഖൂഷാബ്","name:ru":"Шухаб","name:sd":"خوشاب","name:ur":"خوشاب"},"display_name":"خوشاب, تحصیل خوشاب, ضلع خوشاب, سرگودھا ڈویژن, پنجاب, پاکستان","address":{"city":"خوشاب","subdistrict":"تحصیل خوشاب","district":"ضلع خوشاب","state_district":"سرگودھا ڈویژن","state":"پنجاب","ISO3166-2-lvl4":"PK-PB","country":"پاکستان","country_code":"pk"},"population":139905,"osm_type":"node","osm_id":4236121707,"type":"city","location":[72.3515792,32.2903666],"bbox":[72.1915792,32.1303666,72.5115792,32.4503666]}
{"name":"خیرپور","other_names":{"name:bn":"খাইরপুর","name:en":"Khairpur","name:fa":"خیرپور","name:ja":"ハイルプル","name:kn":"ಖೈರಪುರ","name:ml":"ഖൈർപൂർ","name:ps":"خيرپور","name:sd":"خيرپور","name:ur":"خیرپور","name:pnb":"خیرپور","name:skr":"خیرپور"},"display_name":"خیرپور, تعلقہ خیرپور, ضلع خیرپور, سکھر ڈویژن, سندھ, 66020, پاکستان","address":{"city":"خیرپور","municipality":"تعلقہ خیرپور","county":"ضلع خیرپور","state_district":"سکھر ڈویژن","state":"سندھ","ISO3166-2-lvl4":"PK-SD","postcode":"66020","country":"پاکستان","country_code":"pk"},"population":183181,"osm_type":"node","osm_id":89432460,"type":"city","location":[68.7593983,27.5268953],"bbox":[68.5993983,27.3668953,68.9193983,27.6868953]}
{"name":"دادو","other_names":{"name:ar":"دادو","name:de":"Dadu","name:en":"Dadu","name:es":"Dadu","name:et":"Dādu","name:fa":"دادو","name:fr":"Dadu","name:hi":"दादु","name:ja":"ダードゥ","name:kn":"ದಡು","name:ml":"ദാദു","name:pa":"ਦਾਦੂ","name:ru":"Даду","name:sd":"دادو","name:ur":"دادو","name:pnb":"دادو"},"display_name":"دادو, تعلقہ دادو, ضلع دادو, حیدر آباد ڈویژن, سندھ, پاکستان","address":{"city":"دادو","municipality":"تعلقہ دادو","county":"ضلع دادو","state_district":"حیدر آباد ڈویژن","state":"سندھ","ISO3166-2-lvl4":"PK-SD","country":"پاکستان","country_code":"pk"},"population":171191,"osm_type":"node","osm_id":1970511970,"type":"city","location":[67.7804974,26.7274836],"bbox":[67.6204974,26.5674836,67.9404974,26.8874836]}
{"name":"دیپالپور","other_names":{"name:en":"Depalpur","name:hi":"दीपालपुर","name:ml":"ദീപാൽപൂർ","name:ru":"Дипалпур","name:ur":"دیپالپور","alt_name":"Dipalpur","name:pnb":"دیپالپور"},"display_name":"دیپالپور, تحصیل دیپالپور, ضلع اوکاڑہ, ساہیوال ڈویژن, پنجاب, پاکستان","address":{"city":"دیپالپور","subdistrict":"تحصیل دیپالپور","district":"ضلع اوکاڑہ","state_district":"ساہیوال ڈویژن","state":"پنجاب","ISO3166-2-lvl4":"PK-PB","country":"پاکستان","country_code":"pk"},"population":99858,"osm_type":"node","osm_id":281437566,"type":"city","location":[73.6513733,30.6691771],"bbox":[73.4913733,30.5091771,73.8113733,30.8291771]}
{"name":"دیر","other_names":{"name:ar":"دير","name:en":"Dir","name:fa":"دیر","name:ja":"ディール","name:ml":"ദീർ","name:ps":"دیر","name:ru":"Дир","name:sd":"دير","name:ur":"دیر","name:pnb":"دیر"},"display_name":"دیر, تحصیل دیر, ضلع دیر بالا, مالاکنڈ ڈویژن, خیبر پختونخوا, پاکستان","address":{"city":"دیر","municipality":"تحصیل دیر","county":"ضلع دیر بالا","state_district":"مالاکنڈ ڈویژن","state":"خیبر پختونخوا","ISO3166-2-lvl4":"PK-KP","country":"پاکستان","country_code":"pk"},"population":44165,"osm_type":"node","osm_id":299050028,"type":"city","location":[71.8779773,35.2080144],"bbox":[71.7179773,35.0480144,72.0379773,35.3680144]}
{"name":"ڈسکہ","other_names":{"name:ar":"دسكة","name:en":"Daska","name:fa":"دسکه","name:ja":"ダスカ","name:ks":"ڈسکہ","name:ml":"ഡസ്ക","name:pa":"ڈسکا","name:ps":"ډسکه","name:ur":"ڈسکہ","name:azb":"دسکه","name:pnb":"ڈسکہ"},"display_name":"ڈسکہ, تحصیل ڈسکہ, ضلع سیالکوٹ, گوجرانوالہ ڈویژن, پنجاب, 51010, پاکستان","address":{"city":"ڈسکہ","subdistrict":"تحصیل ڈسکہ","district":"ضلع سیالکوٹ","state_district":"گوجرانوالہ ڈویژن","state":"پنجاب","ISO3166-2-lvl4":"PK-PB","postcode":"51010","country":"پاکستان","country_code":"pk"},"population":175170,"osm_type":"node","osm_id":281408882,"type":"city","location":[74.352516,32.3323692],"bbox":[74.192516,32.1723692,74.512516,32.4923692],"border":{"name":"ڈسکہ","other_names":{"name:ar":"دسكة","name:en":"Daska","name:fa":"دسکه","name:ja":"ダスカ","name:ks":"ڈسکہ","name:pa":"ਡਸਕਾ","name:ps":"ډسکه","name:ur":"ڈسکہ","name:azb":"دسکه","name:pnb":"ڈسکہ","name:ml":"ഡസ്ക","alt:pa":"ڈسکا"},"display_name":"ڈسکہ, تحصیل ڈسکہ, ضلع سیالکوٹ, گوجرانوالہ ڈویژن, پنجاب, 51010, پاکستان","address":{"city":"ڈسکہ","subdistrict":"تحصیل ڈسکہ","district":"ضلع سیالکوٹ","state_district":"گوجرانوالہ ڈویژن","state":"پنجاب","ISO3166-2-lvl4":"PK-PB","postcode":"51010","country":"پاکستان","country_code":"pk"},"population":175170,"osm_type":"way","osm_id":691772968,"type":"city","location":[74.352516,32.3323692],"bbox":[74.3219717,32.3084179,74.38453,32.3497578]}}
{"name":"ڈھرکی","other_names":{"name:en":"Daharki","name:ml":"ദഹർക്കി","name:sd":"ڏهرڪي","name:ur":"ڈھرکی","name:pnb":"ڈھرکی"},"display_name":"ڈھرکی, تلعقہ ڈھرکی, ضلع گھوٹکی, سکھر ڈویژن, سندھ, پاکستان","address":{"city":"ڈھرکی","municipality":"تلعقہ ڈھرکی","county":"ضلع گھوٹکی","state_district":"سکھر ڈویژن","state":"سندھ","ISO3166-2-lvl4":"PK-SD","country":"پاکستان","country_code":"pk"},"population":103557,"osm_type":"node","osm_id":373395377,"type":"city","location":[69.7030649,28.052158],"bbox":[69.5430649,27.892158,69.8630649,28.212158]}
{"name":"ڈیره اسماعیل خان","other_names":{"name:ar":"ديره اسماعيل خان","name:bn":"ডেরা ইসমাইল খান","name:en":"Dera Ismail Khan","name:es":"Dera Ismail Khan","name:et":"Dera Ismāīl Khān","name:eu":"Dera Ismail Khan","name:fa":"دیره اسماعیل خان","name:fr":"Dera Ismail Khan","name:hi":"डेरा इस्माइल ख़ान","name:hy":"Դերա Իսմայիլ Խան","name:ja":"デーラー・イスマーイール・ハーン","name:kn":"ಡೇರಾ ಇಸ್ಮಾಇಲ್ ಖಾನ್","name:ml":"ദേര ഇസ്മായിൽ ഖാൻ","name:ne":"डेरा इस्माइल खान","name:pa":"ਡੇਰਾ ਇਸਮਾਈਲ ਖ਼ਾਨ","name:ps":"دېره اسماعيل خان","name:ru":"Дера-Исмаил-Хан","name:sd":"ڊيرا اسماعيل خان","name:sr":"Дера Исмаил Хан","name:ur":"ڈیره اسماعیل خان","alt_name":"DI Khan","name:pnb":"ڈیره اسماعیل خان","name:skr":"ڈیره اسماعیل خان"},"display_name":"ڈیره اسماعیل خان, تحصیل ڈیره اسماعیل خان, ضلع ڈیره اسماعیل خان, ڈیرہ اسماعیل خان ڈویژن, خیبر پختونخوا, 29050, پاکستان","address":{"city":"ڈیره اسماعیل خان","municipality":"تحصیل ڈیره اسماعیل خان","county":"ضلع ڈیره اسماعیل خان","state_district":"ڈیرہ اسماعیل خان ڈویژن","state":"خیبر پختونخوا","ISO3166-2-lvl4":"PK-KP","postcode":"29050","country":"پاکستان","country_code":"pk"},"population":217457,"osm_type":"node","osm_id":279821922,"type":"city","location":[70.9090919,31.827527],"bbox":[70.7490919,31.667527,71.0690919,31.987527]}
{"name":"ڈیرہ غازی خان","other_names":{"name:ar":"ديرا غازي خان","name:bn":"ডেরা গাজী খান","name:de":"Dera Ghazi Khan","name:en":"Dera Ghazi Khan","name:es":"Dera Ghazi Khan","name:et":"Dera Ghāzi Khān","name:eu":"Dera Ghazi Khan","name:fr":"Dera Ghazi Khan","name:hi":"डेरा गाजी खान","name:ja":"デーラー・ガーズィー・ハーン","name:kn":"ಡೇರಾ ಗಾಜೀ ಖಾನ್","name:ml":"ദേര ഗാസി ഖാൻ","name:ru":"Дерагазихан","name:sr":"Дера Гази Хан","name:uk":"Дера Газі Хан","name:ur":"ڈيره غازى خان","alt_name":"DG Khan","name:bal":"ڈیرہ غازی خان","name:pnb":"ڈیرا غازی خان","name:skr":"ڈیرا غازی خان"},"display_name":"ڈیرہ غازی خان, تحصِيل ڈيره غازى خان, ضلع ڈيره غازى خان, ڈیرہ غازی خان ڈویژن, پنجاب, 32201, پاکستان","address":{"city":"ڈیرہ غازی خان","subdistrict":"تحصِيل ڈيره غازى خان","district":"ضلع ڈيره غازى خان","state_district":"ڈیرہ غازی خان ڈویژن","state":"پنجاب","ISO3166-2-lvl4":"PK-PB","postcode":"32201","country":"پاکستان","country_code":"pk"},"population":399064,"osm_type":"node","osm_id":253890085,"type":"city","location":[70.6401114,30.0321374],"bbox":[70.4801114,29.8721374,70.8001114,30.1921374]}
{"name":"ڈیرہ مراد جمالی","other_names":{"name:bn":"ডেরা মুরাদ জামালী","name:en":"Dera Murad Jamali","name:ps":"دېره مراد جمالی","name:ur":"ڈیرہ مراد جمالی","name:bal":"ڈݔره مراد جمالی"},"display_name":"ڈیرہ مراد جمالی, تحصیل ڈیرہ مراد جمالی, ضلع نصیر آباد, نصیرآباد ڈویژن, بلوچستان, پاکستان","address":{"city":"ڈیرہ مراد جمالی","municipality":"تحصیل ڈیرہ مراد جمالی","county":"ضلع نصیر آباد","state_district":"نصیرآباد ڈویژن","state":"بلوچستان","ISO3166-2-lvl4":"PK-BA","country":"پاکستان","country_code":"pk"},"osm_type":"node","osm_id":8493285728,"type":"city","location":[68.2192722,28.5418332],"bbox":[68.0592722,28.3818332,68.3792722,28.7018332]}
{"name":"رائے ونڈ","other_names":{"name:en":"Raiwind","name:hi":"रायविंद","name:ml":"റായ്വിന്ദ്","name:pa":"ਰਾਏਵੰਡ","name:ru":"Райвинд","name:ur":"رائیونڈ‎","name:pnb":"رائیونڈ‎","alt_name:pa":"ਰਾਏਵਿੰਡ"},"display_name":"رائے ونڈ, تحصیل رائے ونڈ, ضلع لاہور, لاہور ڈویژن, پنجاب, 55150, پاکستان","address":{"city":"رائے ونڈ","municipality":"تحصیل رائے ونڈ","district":"ضلع لاہور","historical_division":"لاہور ڈویژن","state":"پنجاب","ISO3166-2-lvl4":"PK-PB","postcode":"55150","country":"پاکستان","country_code":"pk"},"population":78779,"osm_type":"node","osm_id":2950122945,"type":"city","location":[74.2138126,31.2443583],"bbox":[74.0538126,31.0843583,74.3738126,31.4043583]}
{"name":"راجن پور","other_names":{"name:bn":"রাজনপুর","name:en":"Rajanpur","name:fr":"Rajanpur","name:hi":"राजनपुर","name:ml":"രാജൻപൂർ","name:ps":"راجنپور","name:sd":"راجن پور","name:ur":"راجن پور","name:pnb":"راجن پور","name:skr":"راجن پور"},"display_name":"راجن پور, تحصیل راجن پور, ضلع راجن پور, ڈیرہ غازی خان ڈویژن, پنجاب, 33500, پاکستان","address":{"city":"راجن پور","subdistrict":"تحصیل راجن پور","district":"ضلع راجن پور","state_district":"ڈیرہ غازی خان ڈویژن","state":"پنجاب","ISO3166-2-lvl4":"PK-PB","postcode":"33500","country":"پاکستان","country_code":"pk"},"population":43000,"osm_type":"node","osm_id":945464750,"type":"city","location":[70.3283163,29.1042715],"bbox":[70.1683163,28.9442715,70.4883163,29.2642715]}
{"name":"راولا کوٹ","other_names":{"name:ar":"راولا كوت","name:de":"Rawalakot","name:en":"Rawalakot","name:es":"Rawalakot","name:fr":"Rawalakot","name:hr":"Ravalakot","name:lt":"Ravalakotas","name:ml":"റാവലാക്കോട്ട്","name:pl":"Rawalakot","name:ru":"Равалакот","name:sr":"Равалакот","name:ta":"ராவலாகோட்","name:ur":"راولا کوٹ","name:zh":"拉沃拉果德","alt_name":"راولاکوٹ","name:arz":"راولا كوت","name:pnb":"راولاکوٹ","alt_name:ur":"راولاکوٹ"},"display_name":"راولا کوٹ, تحصیل راولا کوٹ, ضلع پونچھ, پونچھ ڈویژن, آزاد کشمیر, 12200, پاکستان","address":{"city":"راولا کوٹ","municipality":"تحصیل راولا کوٹ","county":"ضلع پونچھ","state_district":"پونچھ ڈویژن","state":"آزاد کشمیر","ISO3166-2-lvl4":"PK-JK","postcode":"12200","country":"پاکستان","country_code":"pk"},"population":56006,"osm_type":"node","osm_id":2016139765,"type":"city","location":[73.7605747,33.8572284],"bbox":[73.6005747,33.6972284,73.9205747,34.0172284]}
{"name":"راولپنڈی","other_names":{"name:ar":"راولبندي","name:be":"Равалпіндзі","name:cs":"Rávalpindí","name:de":"Rawalpindi","name:el":"Ραβαλπίντι","name:en":"Rawalpindi","name:es":"Rawalpindi","name:et":"Rāwalpindi","name:eu":"Rawalpindi","name:fa":"راولپندی","name:fr":"Rawalpindi","name:he":"רוואלפינדי","name:hr":"Ravalpindi","name:ja":"ラーワルピンディー","name:kn":"ರಾವಲ್ಪಿಂಡಿ","name:ks":"راولپنڈی","name:ml":"രാവൽപിണ്ടി","name:ne":"रवालपिन्डी","name:pa":"ਰਾਵਲਪਿੰਡੀ","name:pl":"Rawalpindi","name:ps":"راولپنډي","name:pt":"Rawalpindi","name:ru":"Равалпинди","name:sd":"راولپنڊي","name:sl":"Ravalpindi","name:sr":"Равалпинди","name:te":"రావల్పిండి","name:ug":"راۋالپىندى","name:uk":"Равалпінді","name:ur":"راولپنڈی","name:zh":"拉瓦尔品第","name:azb":"راولپندی","name:pnb":"راولپنڈی","name:skr":"راولپنڈی","name:az-Arab":"راولپندی"},"display_name":"راولپنڈی, تحصیل راولپنڈی چھاؤنی, ضلع راولپنڈی, راولپنڈی ڈویژن, پنجاب, 23451, پاکستان","address":{"city":"راولپنڈی","town":"تحصیل راولپنڈی چھاؤنی","county":"ضلع راولپنڈی","state_district":"راولپنڈی ڈویژن","state":"پنجاب","ISO3166-2-lvl4":"PK-PB","postcode":"23451","country":"پاکستان","country_code":"pk"},"population":2098231,"osm_type":"node","osm_id":58744442,"type":"city","location":[73.053721,33.5915446],"bbox":[72.893721,33.4315446,73.213721,33.7515446]}
{"name":"ربوہ","other_names":{"name:ar":"الربوة","name:de":"Rabwa","name:en":"Rabwah","name:es":"Rabwa","name:fa":"ربوه","name:he":"רבוה","name:ml":"റബ്വ","name:pa":"ਰਬਵਾ","alt_name":"چناب نگر","name:pnb":"ربوہ","alt_name:en":"Chenab Nagar","alt_name:he":"רבווה","alt_name:ml":"ചെനാബ് നഗർ","alt_name:pa":"ਚਨਾਬ ਨਗਰ","official_name:de":"Chenab Nagar","official_name:en":"Chenab Nagar","official_name:es":"Chenab Nagar","official_name:ur":"چناب نگر","official_name:pnb":"چناب نگر"},"display_name":"ربوہ, تحصيل لالیاں, ضلع چنيوٹ, فیصل آباد ڈویژن, پنجاب, پاکستان","address":{"city":"ربوہ","subdistrict":"تحصيل لالیاں","district":"ضلع چنيوٹ","historical_division":"فیصل آباد ڈویژن","state":"پنجاب","ISO3166-2-lvl4":"PK-PB","country":"پاکستان","country_code":"pk"},"osm_type":"node","osm_id":11194946098,"type":"city","location":[72.9060562,31.7580001],"bbox":[72.7460562,31.5980001,73.0660562,31.9180001],"border":{"name":"ربوہ","other_names":{"name:en":"Rabwah","alt_name":"چناب نگر","alt_name:en":"Chenab Nagar","name:ar":"الربوة","name:de":"Rabwa","name:es":"Rabwa","name:fa":"ربوه","name:he":"רבוה","name:ml":"റബ്വ","name:pa":"ਰਬਵਾ","name:pnb":"ربوہ","alt_name:he":"רבווה","alt_name:ml":"ചെനാബ് നഗർ","alt_name:pa":"ਚਨਾਬ ਨਗਰ","official_name:de":"Chenab Nagar","official_name:en":"Chenab Nagar","official_name:es":"Chenab Nagar","official_name:ur":"چناب نگر","official_name:pnb":"چناب نگر"},"display_name":"ربوہ, تحصيل لالیاں, ضلع چنيوٹ, فیصل آباد ڈویژن, پنجاب, 35460, پاکستان","address":{"city":"ربوہ","subdistrict":"تحصيل لالیاں","district":"ضلع چنيوٹ","historical_division":"فیصل آباد ڈویژن","state":"پنجاب","ISO3166-2-lvl4":"PK-PB","postcode":"35460","country":"پاکستان","country_code":"pk"},"osm_type":"relation","osm_id":16271097,"type":"administrative","location":[72.9060562,31.7580001],"bbox":[72.8792879,31.7351584,72.9461318,31.7793388]}}
{"name":"رتو ڈیرو","other_names":{"name:ar":"رتوديرو","name:de":"Ratodero","name:en":"Ratodero","name:es":"Ratodero","name:fr":"Ratodero","name:ja":"ラトーダーロー","name:kn":"ರಟೊದೆರೊ","name:ml":"റത്തോഡെറോ","name:ru":"Ратодеро","name:sd":"رتوديرو","name:ur":"رتو ڈیرو","alt_name":"Ratodero","alt_name:ur":"رتوڈیرو"},"display_name":"رتو ڈیرو, تعلقہ رتو ڈیرو, ضلع لاڑکانہ, لاڑکانہ ڈویژن, سندھ, 78900, پاکستان","address":{"city":"رتو ڈیرو","municipality":"تعلقہ رتو ڈیرو","county":"ضلع لاڑکانہ","state_district":"لاڑکانہ ڈویژن","state":"سندھ","ISO3166-2-lvl4":"PK-SD","postcode":"78900","country":"پاکستان","country_code":"pk"},"population":67498,"osm_type":"node","osm_id":1932858719,"type":"city","location":[68.2884248,27.8007239],"bbox":[68.1284248,27.6407239,68.4484248,27.9607239]}
{"name":"رحیم یار خان","other_names":{"name:ar":"رحيم يار خان","name:bn":"রহীম ইয়ার খান","name:de":"Rahim Yar Khan","name:en":"Rahim Yar Khan","name:es":"Rahim Yar Khan","name:eu":"Rahimyar Khan","name:fr":"Rahim Yar Khan","name:hi":"रहीम यार खान","name:ja":"ラヒームヤール・ハーン","name:kn":"ರಹಿಮರ್ ಖಾನ್","name:ml":"റഹീം യാർ ഖാൻ","name:pa":"ਰਹੀਮ ਯਾਰ ਖਾਨ","name:ps":"رحيميار خان","name:ru":"Рахимъярхан","name:sd":"رحيم يار خان","name:sr":"Рахијар Хан","name:ur":"رحیم یار خان","name:pnb":"رحیم یار خاں","alt_name:fr":"Rahimyar Khan"},"display_name":"رحیم یار خان, تحصیل رحیم یار خان, ضلع رحیم یار خان, بہاولپور ڈویژن, پنجاب, 64200, پاکستان","address":{"city":"رحیم یار خان","subdistrict":"تحصیل رحیم یار خان","district":"ضلع رحیم یار خان","state_district":"بہاولپور ڈویژن","state":"پنجاب","ISO3166-2-lvl4":"PK-PB","postcode":"64200","country":"پاکستان","country_code":"pk"},"population":420419,"osm_type":"node","osm_id":251189337,"type":"city","location":[70.3036512,28.417607],"bbox":[70.1436512,28.257607,70.4636512,28.577607]}
{"name":"ژوب","other_names":{"name:ar":"زوب","name:de":"Zhob","name:en":"Zhob","name:es":"Zhob","name:fa":"ژوب","name:fr":"Job","name:hi":"झ़ोब","name:it":"Zhob","name:ja":"ジョーブ","name:ml":"ഝോബ്","name:ps":"ږوب","name:pt":"Zhob","name:ru":"Жоб","name:sd":"زوب","name:tr":"Job","name:ur":"ژوب","name:zh":"兹霍布","name:bal":"ژۏب","name:pnb":"ژوب","name:skr":"ژوب","old_name":"Fort Sandeman","old_name:fr":"Fort Sandeman"},"display_name":"ژوب, تحصیل ژوب, ضلع ژوب, ژوب ڈویژن, بلوچستان, 85200, پاکستان","address":{"city":"ژوب","municipality":"تحصیل ژوب","county":"ضلع ژوب","state_district":"ژوب ڈویژن","state":"بلوچستان","ISO3166-2-lvl4":"PK-BA","postcode":"85200","country":"پاکستان","country_code":"pk"},"population":46248,"osm_type":"node","osm_id":271909330,"type":"city","location":[69.4476997,31.3397058],"bbox":[69.2876997,31.1797058,69.6076997,31.4997058]}
{"name":"سانگھڑ","other_names":{"name:bn":"সংহার","name:de":"Sanghar","name:en":"Sanghar","name:es":"Sanghar","name:fa":"سانگهار","name:fr":"Sanghar","name:hi":"संगहार","name:ml":"സാൻഗഹാർ","name:ps":"سانگړ","name:ru":"Сангхар","name:sd":"سانگهڙ","name:ur":"سانگھڑ","name:pnb":"سانگھڑ","name:skr":"سانگھڑ"},"display_name":"سانگھڑ, سانگھڑ‎, تعلقہ سانگھڑ, ضلع سانگھڑ, شہید بینظیر آباد ڈویژن, سندھ, پاکستان","address":{"city":"سانگھڑ","municipality":"تعلقہ سانگھڑ","county":"ضلع سانگھڑ","state_district":"شہید بینظیر آباد ڈویژن","state":"سندھ","ISO3166-2-lvl4":"PK-SD","country":"پاکستان","country_code":"pk"},"population":75410,"osm_type":"node","osm_id":767462153,"type":"city","location":[68.9492402,26.0470447],"bbox":[68.7892402,25.8870447,69.1092402,26.2070447]}
{"name":"ساہِيوال","other_names":{"name:ar":"ساهيوال","name:bn":"সাহিওয়াল","name:de":"Sahiwal","name:en":"Sahiwal","name:es":"Sahiwal","name:et":"Sāhīwāl","name:eu":"Sahiwal","name:fr":"Sahiwal","name:hi":"सहिवाल","name:ja":"サーヒーワール","name:kn":"ಸಹಿವಾಲ್","name:ml":"സാഹിവാൽ","name:ne":"साहिवाल","name:pa":"ਸਾਹੀਵਾਲ","name:ps":"ساهيوال","name:ru":"Сахивал","name:sd":"ساهيوال","name:ur":"ساہیوال","name:pnb":"ساہیوال"},"display_name":"ساہِيوال, تحصیل ساہیوال, ضلع ساہیوال, ساہیوال ڈویژن, پنجاب, پاکستان","address":{"city":"ساہِيوال","subdistrict":"تحصیل ساہیوال","district":"ضلع ساہیوال","state_district":"ساہیوال ڈویژن","state":"پنجاب","ISO3166-2-lvl4":"PK-PB","country":"پاکستان","country_code":"pk"},"population":389605,"osm_type":"node","osm_id":251318496,"type":"city","location":[73.1110572,30.6715098],"bbox":[72.9510572,30.5115098,73.2710572,30.8315098]}
{"name":"ساہیوال","other_names":{"name:ar":"ساهيوال","name:en":"Sahiwal","name:eu":"Sahiwal","name:fa":"ساهیوال","name:fr":"Sahiwal","name:hi":"साहीवाल","name:ks":"ساہیوال","name:ml":"സാഹിവാൽ","name:ur":"ساہیوال","name:pnb":"ساہیوال"},"display_name":"ساہیوال, تحصیل ساہیوال, ضلع سرگودھا, سرگودھا ڈویژن, پنجاب, پاکستان","address":{"city":"ساہیوال","subdistrict":"تحصیل ساہیوال","county":"ضلع سرگودھا","state_district":"سرگودھا ڈویژن","state":"پنجاب","ISO3166-2-lvl4":"PK-PB","country":"پاکستان","country_code":"pk"},"population":255600,"osm_type":"node","osm_id":3105923429,"type":"city","location":[72.3296061,31.9729496],"bbox":[72.1696061,31.8129496,72.4896061,32.1329496],"border":{"name":"تحصیل ساہیوال","other_names":{"name:en":"Sahiwal Tehsil","name:ur":"تحصیل ساہیوال","name:pnb":"تحصیل ساہیوال","name:ar":"ساهيوال","name:eu":"Sahiwal","name:fa":"ساهیوال","name:fr":"Sahiwal","name:hi":"साहीवाल","name:ks":"ساہیوال","name:ml":"സാഹിവാൽ","alt":"ساہیوال","alt:en":"Sahiwal","alt:ur":"ساہیوال","alt:pnb":"ساہیوال"},"display_name":"تحصیل ساہیوال, ضلع سرگودھا, سرگودھا ڈویژن, پنجاب, 40040, پاکستان","address":{"subdistrict":"تحصیل ساہیوال","county":"ضلع سرگودھا","state_district":"سرگودھا ڈویژن","state":"پنجاب","ISO3166-2-lvl4":"PK-PB","postcode":"40040","country":"پاکستان","country_code":"pk"},"population":255600,"osm_type":"relation","osm_id":16108356,"type":"administrative","location":[72.3296061,31.9729496],"bbox":[72.217046,31.709465,72.561936,32.055986]}}
{"name":"سبی","other_names":{"name:ar":"سبي","name:de":"Sibi","name:en":"Sibi","name:es":"Sibi","name:fa":"سبی","name:fr":"Sibi","name:hi":"सिबि","name:it":"Sibi","name:ja":"シビ","name:kn":"ಸಿಬಿ","name:ml":"സിബി","name:ps":"سبي","name:pt":"Sibi","name:ru":"Сиби","name:sd":"سبي","name:ur":"سبی","name:ar1":"سيبي","name:bal":"سبی","name:pnb":"سبی","name:skr":"سبی"},"display_name":"سبی, تحصیل سبی, ضلع سبی, سبی ڈویژن, بلوچستان, 82000, پاکستان","address":{"city":"سبی","municipality":"تحصیل سبی","county":"ضلع سبی","state_district":"سبی ڈویژن","state":"بلوچستان","ISO3166-2-lvl4":"PK-BA","postcode":"82000","country":"پاکستان","country_code":"pk"},"population":52100,"osm_type":"node","osm_id":271909314,"type":"city","location":[67.8833398,29.5500097],"bbox":[67.7233398,29.3900097,68.0433398,29.7100097]}
{"name":"سرگودھا","other_names":{"name:ar":"سرغودها","name:de":"Sargodha","name:en":"Sargodha","name:es":"Sargodha","name:et":"Sargodha","name:eu":"Sargodha","name:fa":"سرگودها","name:fr":"Sargodha","name:hi":"सरगोधा","name:ja":"サルゴーダー","name:kn":"ಸರ್ಗೋಧಾ","name:ml":"സർഗോധ","name:pa":"ਸਰਗੋਧਾ","name:ps":"سرگودا","name:pt":"Sargodha","name:ru":"Саргодха","name:sd":"سرگوڌا","name:sr":"Саргода","name:ta":"சர்கோதா","name:uk":"Сарґодга","name:ur":"سرگودھا","name:zh":"萨戈达","name:azb":"سرگودها","name:pnb":"سرگودھا","name:xmf":"სარგოდჰა"},"display_name":"سرگودھا, تحصیل سرگودھا, ضلع سرگودھا, سرگودھا ڈویژن, پنجاب, 40162, پاکستان","address":{"city":"سرگودھا","subdistrict":"تحصیل سرگودھا","county":"ضلع سرگودھا","state_district":"سرگودھا ڈویژن","state":"پنجاب","ISO3166-2-lvl4":"PK-PB","postcode":"40162","country":"پاکستان","country_code":"pk"},"population":507817,"osm_type":"node","osm_id":244030016,"type":"city","location":[72.6776943,32.0889657],"bbox":[72.5176943,31.9289657,72.8376943,32.2489657],"border":{"name":"Sargodha","display_name":"Sargodha, تحصیل سرگودھا, ضلع سرگودھا, سرگودھا ڈویژن, پنجاب, پاکستان","address":{"city":"Sargodha","subdistrict":"تحصیل سرگودھا","county":"ضلع سرگودھا","state_district":"سرگودھا ڈویژن","state":"پنجاب","ISO3166-2-lvl4":"PK-PB","country":"پاکستان","country_code":"pk"},"osm_type":"way","osm_id":1138025958,"type":"administrative","location":[72.67917434961666,32.08535155],"bbox":[72.6395417,32.0448809,72.7442851,32.1261879]}}
{"name":"سکردو","other_names":{"name:ar":"سكردو","name:bn":"স্কারদু","name:cy":"Scyrdw","name:de":"Skardu","name:en":"Skardu","name:es":"Skardu","name:fa":"سکردو","name:fr":"Skardu","name:hi":"स्कर्दू","name:hr":"Skardu","name:ml":"സ്കർദൂ","name:pl":"Skardu","name:ru":"Скарду","name:sd":"اسڪردو","name:sr":"Скарду","name:te":"స్కర్డు","name:uk":"Скарду","name:ur":"سکردو","name:zh":"斯卡杜","name:azb":"سکردو","name:pnb":"سکردو"},"display_name":"سکردو, سکردو تحصیل, ضلع سکردو, بلتستان ڈویژن, گلگت بلتستان, پاکستان","address":{"city":"سکردو","municipality":"سکردو تحصیل","county":"ضلع سکردو","state_district":"بلتستان ڈویژن","state":"گلگت بلتستان","ISO3166-2-lvl4":"PK-GB","country":"پاکستان","country_code":"pk"},"osm_type":"node","osm_id":4029819717,"type":"city","location":[75.6400746,35.2863724],"bbox":[75.4800746,35.1263724,75.8000746,35.4463724],"border":{"name":"ضلع سکردو","other_names":{"name:ar":"سكردو","name:cy":"Scyrdw","name:de":"Skardu","name:en":"Skardu District","name:es":"Skardu","name:fa":"ناحیه سکردو","name:fr":"District de Skardu","name:hi":"स्कर्दू ज़िला","name:ml":"സ്കർഡു","name:ru":"Скарду","name:sd":"اسڪردو ضلعو","name:te":"స్కర్డు","name:uk":"Скарду","name:ur":"ضلع سکردو","name:zh":"斯卡杜县","name:azb":"سکردو","name:pnb":"ضلع سکردو"},"display_name":"ضلع سکردو, بلتستان ڈویژن, گلگت بلتستان, 16200, پاکستان","address":{"county":"ضلع سکردو","state_district":"بلتستان ڈویژن","state":"گلگت بلتستان","ISO3166-2-lvl4":"PK-GB","postcode":"16200","country":"پاکستان","country_code":"pk"},"osm_type":"relation","osm_id":15809430,"type":"administrative","location":[75.5649804097076,35.2022878],"bbox":[74.7431928,34.5136678,76.0268497,35.8892413]}}
{"name":"سکھر","other_names":{"name:ar":"سكر","name:de":"Sukkur","name:en":"Sukkur","name:es":"Sukkur","name:et":"Sukkur","name:eu":"Sukkur","name:fa":"سکر","name:fr":"Sukkur","name:hi":"सक्खर","name:hr":"Sukur","name:ja":"サッカル","name:kn":"ಸುಕ್ಕರ್","name:lt":"Sukuras","name:ml":"സഖർ","name:ps":"سکهر","name:ru":"Суккур","name:sd":"سکر","name:sr":"Сукур","name:ur":"سکھر","name:zh":"蘇庫爾","name:pnb":"سکھر"},"display_name":"سکھر, تعلقہ سکھر شہر, ضلع سکھر, سکھر ڈویژن, سندھ, 65200, پاکستان","address":{"city":"سکھر","municipality":"تعلقہ سکھر شہر","county":"ضلع سکھر","state_district":"سکھر ڈویژن","state":"سندھ","ISO3166-2-lvl4":"PK-SD","postcode":"65200","country":"پاکستان","country_code":"pk"},"population":499900,"osm_type":"node","osm_id":89313928,"type":"city","location":[68.8588754,27.6961883],"bbox":[68.6988754,27.5361883,69.0188754,27.8561883]}
{"name":"سمبڑیال","other_names":{"name:en":"Sambrial","name:ml":"സംബ്രിയാൽ","name:ru":"Самбриял","name:sd":"سمبڙيال","name:ur":"سمبڑیال","name:pnb":"سمبڑیال"},"display_name":"سمبڑیال, تحصیل سمبڑیال, ضلع سیالکوٹ, گوجرانوالہ ڈویژن, پنجاب, 51071, پاکستان","address":{"city":"سمبڑیال","subdistrict":"تحصیل سمبڑیال","district":"ضلع سیالکوٹ","state_district":"گوجرانوالہ ڈویژن","state":"پنجاب","ISO3166-2-lvl4":"PK-PB","postcode":"51071","country":"پاکستان","country_code":"pk"},"population":109479,"osm_type":"node","osm_id":282294319,"type":"city","location":[74.3529135,32.4756481],"bbox":[74.1929135,32.3156481,74.5129135,32.6356481]}
{"name":"سمندری","other_names":{"name:en":"Samundri","name:ml":"സമുന്ദ്രി","name:ru":"Самунджи","name:ur":"سمندری","name:pnb":"سمندری"},"display_name":"سمندری, تحصیل سمندری, ضلع فیصل آباد, فیصل آباد ڈویژن, پنجاب, پاکستان","address":{"city":"سمندری","subdistrict":"تحصیل سمندری","district":"ضلع فیصل آباد","historical_division":"فیصل آباد ڈویژن","state":"پنجاب","ISO3166-2-lvl4":"PK-PB","country":"پاکستان","country_code":"pk"},"population":156991,"osm_type":"node","osm_id":2499668067,"type":"city","location":[72.9588416,31.065143],"bbox":[72.7988416,30.905143,73.1188416,31.225143]}
{"name":"سوئی","other_names":{"name:bn":"সুই","name:en":"Sui","name:ml":"സൂയി","name:ru":"Суи","name:ur":"سوئی","name:bal":"سوئی"},"display_name":"سوئی, تحصیل سوئی, ضلع ڈیرہ بگٹی, سبی ڈویژن, بلوچستان, پاکستان","address":{"city":"سوئی","municipality":"تحصیل سوئی","county":"ضلع ڈیرہ بگٹی","state_district":"سبی ڈویژن","state":"بلوچستان","ISO3166-2-lvl4":"PK-BA","country":"پاکستان","country_code":"pk"},"osm_type":"node","osm_id":2936255027,"type":"city","location":[69.1916409,28.6421721],"bbox":[69.0316409,28.4821721,69.3516409,28.8021721]}
{"name":"سيدو شريف","other_names":{"name:ar":"سيدو شريف","name:de":"Saidu Sharif","name:en":"Saidu Sharif","name:fa":"سیدو شریف","name:fr":"Saidu Sharif","name:ml":"സൈദു ഷറീഫ്","name:ps":"سيدو شريف","name:ru":"Сайду-Шариф","name:ur":"سيدو شريف","name:zh":"赛杜沙里夫","name:pnb":"سیدو شریف"},"display_name":"سيدو شريف, تحصیل بابوزئی, ضلع سوات, مالاکنڈ ڈویژن, خیبر پختونخوا, 19200, پاکستان","address":{"city":"سيدو شريف","municipality":"تحصیل بابوزئی","county":"ضلع سوات","state_district":"مالاکنڈ ڈویژن","state":"خیبر پختونخوا","ISO3166-2-lvl4":"PK-KP","postcode":"19200","country":"پاکستان","country_code":"pk"},"osm_type":"node","osm_id":4869554289,"type":"city","location":[72.3562789,34.7447334],"bbox":[72.1962789,34.5847334,72.5162789,34.9047334]}
{"name":"سیالکوٹ","other_names":{"name:ar":"سيالكوت","name:az":"Sialkot","name:be":"Сіялкот","name:bg":"Сиалкот","name:bn":"সিয়ালকোট","name:cs":"Sjálkót","name:de":"Sialkot","name:en":"Sialkot","name:es":"Sialkot","name:et":"Siālkot","name:eu":"Sialkot","name:fr":"Sialkot","name:hi":"सियालकोट","name:hr":"Sialkot","name:ja":"シアールコート","name:ml":"സിയാൽകോട്ട്","name:pa":"ਸਿਆਲਕੋਟ","name:pl":"Sijalkot","name:ru":"Сиялкот","name:sd":"سيالڪوٽ","name:sl":"Sijalkot","name:sr":"Сијалкот","name:ta":"சியால்கோட்","name:te":"సియాల్కోట్","name:uk":"Сіялкот","name:ur":"سیالکوٹ","name:zh":"锡亚尔科特","name:azb":"سیالکوت","name:az-Arab":"سیالکوت"},"display_name":"سیالکوٹ, تحصیل سیالکوٹ, ضلع سیالکوٹ, گوجرانوالہ ڈویژن, پنجاب, 51430, پاکستان","address":{"city":"سیالکوٹ","subdistrict":"تحصیل سیالکوٹ","district":"ضلع سیالکوٹ","state_district":"گوجرانوالہ ڈویژن","state":"پنجاب","ISO3166-2-lvl4":"PK-PB","postcode":"51430","country":"پاکستان","country_code":"pk"},"population":655852,"osm_type":"node","osm_id":2408222266,"type":"city","location":[74.5411575,32.4935378],"bbox":[74.3811575,32.3335378,74.7011575,32.6535378]}
{"name":"سیہون شریف","other_names":{"name:ar":"سيهون","name:en":"Sehwan","name:fa":"سیهون","name:hi":"सहवान","name:ml":"സെഹ്‌വാൻ","name:ru":"Сехван","name:sd":"سيوھڻ","name:ur":"سہون شریف","official_name":"سیہون شریف","official_name:ar":"سيهون شريف","official_name:fa":"سیهون شریف","official_name:sd":"سيوھڻ شريف","official_name:ur":"سیہون شریف"},"display_name":"سیہون شریف, سہون شریف, تعلقہ سیہون, ضلع جام شورو, حیدر آباد ڈویژن, سندھ, پاکستان","address":{"city":"سیہون شریف","municipality":"تعلقہ سیہون","county":"ضلع جام شورو","state_district":"حیدر آباد ڈویژن","state":"سندھ","ISO3166-2-lvl4":"PK-SD","country":"پاکستان","country_code":"pk"},"osm_type":"node","osm_id":1970511665,"type":"city","location":[67.8625638,26.4255959],"bbox":[67.7025638,26.2655959,68.0225638,26.5855959],"border":{"name":"سہون شریف","other_names":{"name:ar":"سيهون","name:en":"Sehwan","name:fa":"سیهون","name:sd":"سيوھڻ","name:ur":"سہون","alt_name":"Sehwan Sharif","alt_name:ur":"سیہون شریف;سیہون;سیوہن;سیوھن","official_name":"سہون شریف","name:hi":"सहवान","name:ml":"സെഹ്‌വാൻ","name:ru":"Сехван","official_name:ar":"سيهون شريف","official_name:fa":"سیهون شریف","official_name:sd":"سيوھڻ شريف","_place_official_name":"سیہون شریف","official_name:ur":"سیہون شریف","alt":"سیہون شریف","alt:ur":"سہون شریف"},"display_name":"سہون شریف, تعلقہ سیہون, ضلع جام شورو, حیدر آباد ڈویژن, سندھ, پاکستان","address":{"city":"سہون شریف","municipality":"تعلقہ سیہون","county":"ضلع جام شورو","state_district":"حیدر آباد ڈویژن","state":"سندھ","ISO3166-2-lvl4":"PK-SD","country":"پاکستان","country_code":"pk"},"population":66923,"osm_type":"way","osm_id":76449423,"type":"city","location":[67.8625638,26.4255959],"bbox":[67.8520375,26.4022297,67.868645,26.4344757]}}
{"name":"شب قدر","other_names":{"name:de":"Shabqadar","name:en":"Shabqadar","name:es":"Shabqadar","name:fa":"شب‌قدر","name:fr":"Shabqadar","name:ml":"ഷബ്ഖദർ","name:ps":"شب قدر","name:ru":"Шабкадар","name:ur":"شب قدر","name:zh":"沙布卡达尔"},"display_name":"شب قدر, تحصیل شب قدر, ضلع چارسدہ, پشاور ڈویژن, خیبر پختونخوا, 24630, پاکستان","address":{"city":"شب قدر","municipality":"تحصیل شب قدر","county":"ضلع چارسدہ","state_district":"پشاور ڈویژن","state":"خیبر پختونخوا","ISO3166-2-lvl4":"PK-KP","postcode":"24630","country":"پاکستان","country_code":"pk"},"population":91851,"osm_type":"node","osm_id":848389510,"type":"city","location":[71.5559253,34.2146534],"bbox":[71.3959253,34.0546534,71.7159253,34.3746534]}
{"name":"شجاع آباد‎","other_names":{"name:bn":"শুজাআবাদ","name:en":"Shujaabad","name:ml":"ഷുജാബാദ്","name:ru":"Шуджаабад","name:ur":"شجاع آباد","name:pnb":"شجاع آباد"},"display_name":"شجاع آباد‎, تحصیل شجاع آباد, ضلع ملتان, ملتان ڈویژن, پنجاب, پاکستان","address":{"city":"شجاع آباد‎","subdistrict":"تحصیل شجاع آباد","county":"ضلع ملتان","historical_division":"ملتان ڈویژن","state":"پنجاب","ISO3166-2-lvl4":"PK-PB","country":"پاکستان","country_code":"pk"},"population":80035,"osm_type":"node","osm_id":282299313,"type":"city","location":[71.2931695,29.8809972],"bbox":[71.1331695,29.7209972,71.4531695,30.0409972]}
{"name":"شکارپور","other_names":{"name:ar":"شكاربور","name:bn":"শিকারপুর","name:en":"Shikarpur","name:es":"Shikarpur","name:et":"Shikārpur","name:fa":"شکارپور","name:fr":"Shikarpur","name:hi":"शिकारपुर","name:ja":"シカルプル","name:kn":"ಶಿಕರ್ಪುರ್","name:ml":"ശിക്കാർപൂർ","name:ps":"شکارپور","name:ru":"Шикарпур","name:sd":"شڪارپور","name:ur":"شکارپور","name:ar1":"شيكاربور","name:bal":"شکارپور","name:pnb":"شکار پور","name:skr":"شکار پور"},"display_name":"شکارپور, تعلقہ شكارپور, ضلع شکارپور, لاڑکانہ ڈویژن, سندھ, پاکستان","address":{"city":"شکارپور","municipality":"تعلقہ شكارپور","county":"ضلع شکارپور","state_district":"لاڑکانہ ڈویژن","state":"سندھ","ISO3166-2-lvl4":"PK-SD","country":"پاکستان","country_code":"pk"},"population":195437,"osm_type":"node","osm_id":2940910418,"type":"city","location":[68.6408686,27.9556608],"bbox":[68.4808686,27.7956608,68.8008686,28.1156608]}
{"name":"شکرگڑھ","other_names":{"name:en":"Shakargarh","name:hi":"शकरगढ़","name:ml":"ഷക്കർഗഢ്","name:pa":"ਸ਼ਕਰਗੜ੍ਹ","name:ru":"Шакаргарх","name:ur":"شکرگڑھ","name:pnb":"شکر گڑھ","alt_name:en":"Shakar Garh","alt_name:pa":"ਸ਼ਕਰਗੜ"},"display_name":"شکرگڑھ, تحصیل شکرگڑھ, ضلع نارووال, گوجرانوالہ ڈویژن, پنجاب, پاکستان","address":{"city":"شکرگڑھ","subdistrict":"تحصیل شکرگڑھ","district":"ضلع نارووال","state_district":"گوجرانوالہ ڈویژن","state":"پنجاب","ISO3166-2-lvl4":"PK-PB","country":"پاکستان","country_code":"pk"},"population":82294,"osm_type":"node","osm_id":275595348,"type":"city","location":[75.1604548,32.2631481],"bbox":[75.0004548,32.1031481,75.3204548,32.4231481]}
{"name":"شہدادکوٹ","other_names":{"name:de":"Shahdadkot","name:en":"Shahdadkot","name:es":"Shahdadkot","name:fr":"Shahdadkot","name:ja":"シャッフダッドコット","name:ml":"ഷഹ്ദാദ്കോട്ട്","name:ru":"Шахдадкот","name:sd":"شهدادڪوٽ","name:ur":"شہدادکوٹ"},"display_name":"شہدادکوٹ, تعلقہ شہدادکوٹ, ضلع قمبر-شہدادکوٹ, لاڑکانہ ڈویژن, سندھ, پاکستان","address":{"city":"شہدادکوٹ","municipality":"تعلقہ شہدادکوٹ","county":"ضلع قمبر-شہدادکوٹ","state_district":"لاڑکانہ ڈویژن","state":"سندھ","ISO3166-2-lvl4":"PK-SD","country":"پاکستان","country_code":"pk"},"population":118915,"osm_type":"node","osm_id":1934240459,"type":"city","location":[67.908116,27.8468014],"bbox":[67.748116,27.6868014,68.068116,28.0068014]}
{"name":"شورکوٹ‎","other_names":{"name:bn":"শরকোট","name:en":"Shorkot","name:ml":"ഷോർകോട്ട്","name:ru":"Шоркот","name:ur":"شورکوٹ","name:pnb":"شورکوٹ"},"display_name":"شورکوٹ‎, تحصیل شورکوٹ, ضلع جھنگ, فیصل آباد ڈویژن, پنجاب, پاکستان","address":{"city":"شورکوٹ‎","subdistrict":"تحصیل شورکوٹ","district":"ضلع جھنگ","historical_division":"فیصل آباد ڈویژن","state":"پنجاب","ISO3166-2-lvl4":"PK-PB","country":"پاکستان","country_code":"pk"},"population":42962,"osm_type":"node","osm_id":2500907322,"type":"city","location":[72.0764093,30.8349067],"bbox":[71.9164093,30.6749067,72.2364093,30.9949067]}
{"name":"شیخوپورہ","other_names":{"name:ar":"شيخوبورا","name:de":"Sheikhupura","name:el":"Σεϊχουπούρα","name:en":"Sheikhupura","name:es":"Sheikhupura","name:et":"Shekhūpura","name:fa":"شیخوپوره","name:fr":"Sheikhupura","name:hi":"शेखपुरा","name:ja":"シークープラ","name:ml":"ഷെയ്ഖുപുര","name:pa":"ਸ਼ੇਖ਼ੂਪੁਰਾ","name:ps":"شيخوپوره","name:ru":"Шекхупура","name:sd":"شيخوپوره","name:ur":"شیخوپورہ","name:pnb":"شیخوپورہ","alt_name:ur":"شیخو پورہ"},"display_name":"شیخوپورہ, تحصیل شیخوپورہ, ضلع شیخوپورہ, لاہور ڈویژن, پنجاب, 39350, پاکستان","address":{"city":"شیخوپورہ","subdistrict":"تحصیل شیخوپورہ","district":"ضلع شیخوپورہ","historical_division":"لاہور ڈویژن","state":"پنجاب","ISO3166-2-lvl4":"PK-PB","postcode":"39350","country":"پاکستان","country_code":"pk"},"population":473129,"osm_type":"node","osm_id":281395237,"type":"city","location":[73.9864014,31.7085285],"bbox":[73.8264014,31.5485285,74.1464014,31.8685285],"border":{"name":"شیخوپورہ","other_names":{"name:ar":"شيخوبورا","name:en":"Sheikhupura","name:fa":"شیخوپوره","name:pa":"ਸ਼ੇਖ਼ੂਪੁਰਾ","name:ps":"شيخوپوره","name:sd":"شيخوپوره","name:ur":"شیخوپورہ","name:pnb":"شیخوپورہ","alt_name:ur":"شیخو پورہ","name:de":"Sheikhupura","name:el":"Σεϊχουπούρα","name:es":"Sheikhupura","name:et":"Shekhūpura","name:fr":"Sheikhupura","name:hi":"शेखपुरा","name:ja":"シークープラ","name:ml":"ഷെയ്ഖുപുര","name:ru":"Шекхупура"},"display_name":"شیخوپورہ, تحصیل شیخوپورہ, ضلع شیخوپورہ, لاہور ڈویژن, پنجاب, 39350, پاکستان","address":{"city":"شیخوپورہ","subdistrict":"تحصیل شیخوپورہ","district":"ضلع شیخوپورہ","historical_division":"لاہور ڈویژن","state":"پنجاب","ISO3166-2-lvl4":"PK-PB","postcode":"39350","country":"پاکستان","country_code":"pk"},"population":473129,"osm_type":"way","osm_id":233592725,"type":"city","location":[73.9864014,31.7085285],"bbox":[73.9511902,31.6886617,74.0281589,31.7398813]}}
{"name":"صادق آباد","other_names":{"name:bn":"সাদিকাবাদ","name:en":"Sadiqabad","name:hi":"सादिकाबाद","name:ja":"サディカバード","name:kn":"ಸಾದಿಕಾಬಾದ್","name:ml":"സാദിഖാബാദ്","name:ru":"Садикабад","name:sr":"Садикабад","name:ur":"صادق آباد","name:pnb":"صادق آباد"},"display_name":"صادق آباد, تحصیل صادق آباد, ضلع رحیم یار خان, بہاولپور ڈویژن, پنجاب, 64350, پاکستان","address":{"city":"صادق آباد","subdistrict":"تحصیل صادق آباد","district":"ضلع رحیم یار خان","state_district":"بہاولپور ڈویژن","state":"پنجاب","ISO3166-2-lvl4":"PK-PB","postcode":"64350","country":"پاکستان","country_code":"pk"},"population":239677,"osm_type":"node","osm_id":89466380,"type":"city","location":[70.1283004,28.3086664],"bbox":[69.9683004,28.1486664,70.2883004,28.4686664]}
{"name":"صدہ","other_names":{"name:en":"Sadda","name:ml":"സദ്ദ"},"display_name":"صدہ, تحصیل کرم زیریں, ضلع کرم, کوہاٹ ڈویژن, خیبر پختونخوا, پاکستان","address":{"city":"صدہ","municipality":"تحصیل کرم زیریں","county":"ضلع کرم","state_district":"کوہاٹ ڈویژن","state":"خیبر پختونخوا","ISO3166-2-lvl4":"PK-KP","country":"پاکستان","country_code":"pk"},"population":34495,"osm_type":"node","osm_id":3442157091,"type":"city","location":[70.3267526,33.7062424],"bbox":[70.1667526,33.5462424,70.4867526,33.8662424]}
{"name":"صوابی","other_names":{"name:ar":"صوابي","name:en":"Swabi","name:es":"Swabi","name:fr":"Swabi","name:hi":"स्वाबी","name:ja":"スワビ","name:ml":"സ്വാബി","name:ps":"سوابۍ","name:sd":"صوابي","name:sr":"Сваби","name:uk":"Свабі","name:ur":"صوابی","name:zh":"斯瓦比"},"display_name":"صوابی, تحصیل صوابی, ضلع صوابی, مردان ڈویژن, خیبر پختونخوا, پاکستان","address":{"city":"صوابی","municipality":"تحصیل صوابی","county":"ضلع صوابی","state_district":"مردان ڈویژن","state":"خیبر پختونخوا","ISO3166-2-lvl4":"PK-KP","country":"پاکستان","country_code":"pk"},"population":123412,"osm_type":"node","osm_id":3072615069,"type":"city","location":[72.4743164,34.1262144],"bbox":[72.3143164,33.9662144,72.6343164,34.2862144]}
{"name":"ظاہر پیر","other_names":{"name:bn":"জহীর পীর","name:en":"Zahir Pir","name:ml":"സാഹിർ പീർ"},"display_name":"ظاہر پیر, تحصیل رحیم یار خان, ضلع رحیم یار خان, بہاولپور ڈویژن, پنجاب, پاکستان","address":{"city":"ظاہر پیر","subdistrict":"تحصیل رحیم یار خان","district":"ضلع رحیم یار خان","state_district":"بہاولپور ڈویژن","state":"پنجاب","ISO3166-2-lvl4":"PK-PB","country":"پاکستان","country_code":"pk"},"population":48554,"osm_type":"node","osm_id":89526336,"type":"city","location":[70.5177963,28.8126927],"bbox":[70.3577963,28.6526927,70.6777963,28.9726927]}
{"name":"ظفروال","other_names":{"name:en":"Zafarwal","name:hi":"ज़फ़रवाल","name:ml":"സഫർവാൽ","name:pa":"ਜ਼ਫਰਵਾਲ","name:ur":"ظفروال","name:pnb":"ظفروال"},"display_name":"ظفروال, تحصیل ظفروال, ضلع نارووال, گوجرانوالہ ڈویژن, پنجاب, پاکستان","address":{"city":"ظفروال","subdistrict":"تحصیل ظفروال","district":"ضلع نارووال","state_district":"گوجرانوالہ ڈویژن","state":"پنجاب","ISO3166-2-lvl4":"PK-PB","country":"پاکستان","country_code":"pk"},"population":39251,"osm_type":"node","osm_id":9701917325,"type":"city","location":[74.9020032,32.3427221],"bbox":[74.7420032,32.1827221,75.0620032,32.5027221]}
{"name":"عارف والہ","other_names":{"name:ar":"عارف والا","name:de":"Arifwala","name:en":"Arifwala","name:es":"Arifwala","name:fr":"Arifwala","name:hi":"आरिफवाला","name:ja":"アーリフワラー","name:ml":"ആരിഫ്വാല","name:ru":"Арифвала","name:ur":"عارف والہ","name:pnb":"عارف والا","alt_name:ur":"عارفوالہ","alt_name:pnb":"عارفوالا"},"display_name":"عارف والہ, تحصیل عارف والہ, ضلع پاکپتن, ساہیوال ڈویژن, پنجاب, پاکستان","address":{"city":"عارف والہ","subdistrict":"تحصیل عارف والہ","district":"ضلع پاکپتن","state_district":"ساہیوال ڈویژن","state":"پنجاب","ISO3166-2-lvl4":"PK-PB","country":"پاکستان","country_code":"pk"},"population":111403,"osm_type":"node","osm_id":281128757,"type":"city","location":[73.0589418,30.2944504],"bbox":[72.8989418,30.1344504,73.2189418,30.4544504]}
{"name":"عمرکوٹ","other_names":{"name:bn":"উমরকোট","name:de":"Umerkot","name:en":"Umerkot","name:es":"Umerkot","name:fa":"عمرکوت","name:fr":"Umerkot","name:gu":"ઉમરકોટ","name:hi":"उमरकोट","name:ka":"უმერკოტი","name:ks":"عمرکوٹ","name:ml":"ഉമർകോട്ട്","name:ne":"उमरकोट","name:or":"ଉମରକୋଟ","name:ps":"عمرکوټ","name:ru":"Умеркот","name:sd":"عمرڪوٽ","name:ta":"உமர்கோட்","name:uk":"Умеркот","name:ur":"عمرکوٹ","alt_name":"عُمَركوٹ‎","name:pnb":"عمرکوٹ","alt_name:fr":"Umarkot","alt_name:ur":"عُمَركوٹ‎","old_name:fr":"Amarkote"},"display_name":"عمرکوٹ, تلعقہ عمرکوٹ, ضلع عمرکوٹ, میرپور خاص ڈویژن, سندھ, پاکستان","address":{"city":"عمرکوٹ","municipality":"تلعقہ عمرکوٹ","county":"ضلع عمرکوٹ","state_district":"میرپور خاص ڈویژن","state":"سندھ","ISO3166-2-lvl4":"PK-SD","country":"پاکستان","country_code":"pk"},"population":134052,"osm_type":"node","osm_id":767462154,"type":"city","location":[69.7401257,25.3655302],"bbox":[69.5801257,25.2055302,69.9001257,25.5255302]}
{"name":"فارُوق آباد‎","other_names":{"name:bn":"ফারুকাবাদ","name:en":"Farooqabad","name:ml":"ഫാറൂഖാബാദ്","name:pa":"ਫ਼ਾਰੂਕਾਬਾਦ","name:ur":"فارُوق آباد‎","name:pnb":"فارُوق آباد‎","alt_name:en":"Choorkana","alt_name:ur":"چوڑ کانا"},"display_name":"فارُوق آباد‎, تحصیل شیخوپورہ, ضلع شیخوپورہ, لاہور ڈویژن, پنجاب, 39500, پاکستان","address":{"city":"فارُوق آباد‎","subdistrict":"تحصیل شیخوپورہ","district":"ضلع شیخوپورہ","historical_division":"لاہور ڈویژن","state":"پنجاب","ISO3166-2-lvl4":"PK-PB","postcode":"39500","country":"پاکستان","country_code":"pk"},"population":77706,"osm_type":"node","osm_id":2421644170,"type":"city","location":[73.8317857,31.7421403],"bbox":[73.6717857,31.5821403,73.9917857,31.9021403]}
{"name":"فیروزوالہ","other_names":{"name:en":"Ferozewala","name:ml":"ഫിറോസ്വാല","name:ur":"فیروزوالہ","name:pnb":"فیروزوالہ"},"display_name":"فیروزوالہ, تحصیل فیروزوالہ, ضلع شیخوپورہ, لاہور ڈویژن, پنجاب, 54950, پاکستان","address":{"city":"فیروزوالہ","subdistrict":"تحصیل فیروزوالہ","district":"ضلع شیخوپورہ","historical_division":"لاہور ڈویژن","state":"پنجاب","ISO3166-2-lvl4":"PK-PB","postcode":"54950","country":"پاکستان","country_code":"pk"},"osm_type":"node","osm_id":9325952207,"type":"city","location":[74.2807933,31.6583094],"bbox":[74.1207933,31.4983094,74.4407933,31.8183094]}
{"name":"فیصل آباد","other_names":{"name:ar":"فيصل آباد","name:az":"Feysəlabad","name:be":"Фейсалабад","name:bg":"Файсалабад","name:bn":"ফয়সালাবাদ","name:cs":"Faisalábád","name:de":"Faisalabad","name:en":"Faisalabad","name:es":"Faisalabad","name:et":"Faisalabad","name:eu":"Faisalabad","name:fa":"فیصل‌آباد","name:fr":"Faisalabad","name:he":"פייסלאבאד","name:hi":"फैसलाबाद","name:hr":"Fajsalabad","name:it":"Faisalabad","name:ja":"ファイサラーバード","name:ka":"ფეისალაბადი","name:lt":"Feisalabadas","name:ml":"ഫൈസലാബാദ്","name:ne":"फैसलाबाद","name:nl":"Faisalabad","name:oc":"Faysalabad","name:ru":"Фейсалабад","name:sl":"Fajsalabad","name:sr":"Фејсалабад","name:tr":"Faysalabad","name:uk":"Фейсалабад","name:ur":"فیصل آباد","name:zh":"费萨拉巴德","name:pnb":"لائل پور","old_name":"Lyallpur"},"display_name":"فیصل آباد, تحصیل فیصل آباد شہر, ضلع فیصل آباد, فیصل آباد ڈویژن, پنجاب, پاکستان","address":{"city":"فیصل آباد","subdistrict":"تحصیل فیصل آباد شہر","district":"ضلع فیصل آباد","historical_division":"فیصل آباد ڈویژن","state":"پنجاب","ISO3166-2-lvl4":"PK-PB","country":"پاکستان","country_code":"pk"},"population":3203846,"osm_type":"node","osm_id":1974766376,"type":"city","location":[73.0923253,31.4220558],"bbox":[72.9323253,31.2620558,73.2523253,31.5820558],"border":{"name":"تحصیل فیصل آباد شہر","other_names":{"name:en":"Faisalabad City Tehsil","name:ur":"تحصیل فیصل آباد شہر","name:pnb":"تحصیل فیصل آباد شہر","name:ar":"فيصل آباد","name:az":"Feysəlabad","name:be":"Фейсалабад","name:bg":"Файсалабад","name:bn":"ফয়সালাবাদ","name:cs":"Faisalábád","name:de":"Faisalabad","name:es":"Faisalabad","name:et":"Faisalabad","name:eu":"Faisalabad","name:fa":"فیصل‌آباد","name:fr":"Faisalabad","name:he":"פייסלאבאד","name:hi":"फैसलाबाद","name:hr":"Fajsalabad","name:it":"Faisalabad","name:ja":"ファイサラーバード","name:ka":"ფეისალაბადი","name:lt":"Feisalabadas","name:ml":"ഫൈസലാബാദ്","name:ne":"फैसलाबाद","name:nl":"Faisalabad","name:oc":"Faysalabad","name:ru":"Фейсалабад","name:sl":"Fajsalabad","name:sr":"Фејсалабад","name:tr":"Faysalabad","name:uk":"Фейсалабад","name:zh":"费萨拉巴德","old_name":"Lyallpur","alt":"فیصل آباد","alt:en":"Faisalabad","alt:ur":"فیصل آباد","alt:pnb":"لائل پور"},"display_name":"تحصیل فیصل آباد شہر, ضلع فیصل آباد, فیصل آباد ڈویژن, پنجاب, پاکستان","address":{"subdistrict":"تحصیل فیصل آباد شہر","district":"ضلع فیصل آباد","historical_division":"فیصل آباد ڈویژن","state":"پنجاب","ISO3166-2-lvl4":"PK-PB","country":"پاکستان","country_code":"pk"},"population":3203846,"osm_type":"relation","osm_id":16108315,"type":"administrative","location":[73.0923253,31.4220558],"bbox":[72.99379,31.335641,73.193035,31.526443]}}
{"name":"قصور","other_names":{"name:de":"Kasur","name:en":"Kasur","name:es":"Kasur","name:et":"Kasūr","name:eu":"Kasur","name:fr":"Kasur","name:hi":"कसूर","name:ja":"カスール","name:ml":"കസൂർ","name:ne":"कसुर","name:pa":"ਕ਼ਸੂਰ","name:ru":"Касур","name:ur":"قصور","name:pnb":"قصور"},"display_name":"قصور, تحصیل قصور, ضلع قصور, لاہور ڈویژن, پنجاب, 55050, پاکستان","address":{"city":"قصور","subdistrict":"تحصیل قصور","county":"ضلع قصور","historical_division":"لاہور ڈویژن","state":"پنجاب","ISO3166-2-lvl4":"PK-PB","postcode":"55050","country":"پاکستان","country_code":"pk"},"population":358409,"osm_type":"node","osm_id":281396083,"type":"city","location":[74.4478314,31.1175143],"bbox":[74.2878314,30.9575143,74.6078314,31.2775143]}
{"name":"قمبر","other_names":{"name:en":"Qambar","name:ml":"ഖമ്പർ","name:ru":"Камбар","name:sd":"قمبر","name:ur":"قمبر"},"display_name":"قمبر, تعلقہ قمبر, ضلع قمبر-شہدادکوٹ, لاڑکانہ ڈویژن, سندھ, 77210, پاکستان","address":{"city":"قمبر","municipality":"تعلقہ قمبر","county":"ضلع قمبر-شہدادکوٹ","state_district":"لاڑکانہ ڈویژن","state":"سندھ","ISO3166-2-lvl4":"PK-SD","postcode":"77210","country":"پاکستان","country_code":"pk"},"population":101474,"osm_type":"node","osm_id":1934240007,"type":"city","location":[67.9996747,27.5892431],"bbox":[67.8396747,27.4292431,68.1596747,27.7492431]}
{"name":"کامونکے","other_names":{"name:en":"Kamoke","name:ml":"കാമോക്കെ","name:pa":"ਕਾਮੋਂਕੀ","name:ur":"کامونکی","name:pnb":"کامونکی","alt_name:en":"Kamoki","alt_name:ur":"کامونکی"},"display_name":"کامونکے, تحصیل کامونکے, ضلع گوجرانوالہ, گوجرانوالہ ڈویژن, پنجاب, 55000, پاکستان","address":{"city":"کامونکے","subdistrict":"تحصیل کامونکے","district":"ضلع گوجرانوالہ","state_district":"گوجرانوالہ ڈویژن","state":"پنجاب","ISO3166-2-lvl4":"PK-PB","postcode":"55000","country":"پاکستان","country_code":"pk"},"population":249767,"osm_type":"node","osm_id":2491949737,"type":"city","location":[74.2218684,31.9749253],"bbox":[74.0618684,31.8149253,74.3818684,32.1349253]}
{"name":"کراچی","other_names":{"name:ar":"كراتشي","name:az":"Kəraçi","name:bn":"করাচী","name:cs":"Karáčí","name:de":"Karatschi","name:el":"Καράτσι","name:en":"Karachi","name:eo":"Karaĉio","name:es":"Karachi","name:et":"Karāchi","name:eu":"Karatxi","name:fa":"کراچی","name:fr":"Karachi","name:he":"קראצ'י","name:hi":"कराची","name:hr":"Karači","name:it":"Karachi","name:kn":"ಕರಾಚಿ","name:ko":"카라치","name:ks":"کَرٲچی","name:ku":"Keraçî","name:ml":"കറാച്ചി","name:ne":"कराँची","name:nl":"Karachi","name:no":"Karachi","name:oc":"Karachi","name:pa":"ਕਰਾਚੀ","name:pl":"Karaczi","name:ps":"کراچۍ","name:pt":"Carachi","name:ru":"Карачи","name:sd":"ڪراچي","name:sk":"Karáči","name:sl":"Karači","name:sv":"Karachi","name:ta":"கராச்சி","name:tr":"Karaçi","name:ug":"كاراچى","name:ur":"کراچی","name:zh":"卡拉奇","alt_name":"کیرانچی","name:azb":"کراچی","name:gan":"卡拉奇","name:kab":"Karaci","name:mzn":"کراچی","name:pnb":"کراچی"},"display_name":"کراچی, کراچی ڈویژن, سندھ, پاکستان","address":{"city":"کراچی","state":"سندھ","ISO3166-2-lvl4":"PK-SD","country":"پاکستان","country_code":"pk"},"population":14910352,"osm_type":"node","osm_id":3181550515,"type":"city","location":[67.0207055,24.8546842],"bbox":[66.8607055,24.6946842,67.1807055,25.0146842],"border":{"name":"کراچی ڈویژن","other_names":{"name:ar":"كراتشي","name:cs":"Karáčí","name:de":"Karatschi","name:el":"Καράτσι","name:en":"Karachi Division","name:eo":"Karaĉio","name:fa":"بخش کراچی","name:hr":"Karači","name:ks":"کَرٲچی","name:pa":"ਕਰਾਚੀ","name:pl":"Karaczi","name:ps":"کراچۍ څانګه‎","name:sd":"ڪراچي","name:ug":"كاراچى","name:ur":"کراچی ڈویژن","name:zh":"卡拉奇","name:azb":"کراچی","name:kab":"Karaci","name:mzn":"کراچی","name:pnb":"کراچی ڈویژن","alt_name:ur":"کیرانچی","name:az":"Kəraçi","name:bn":"করাচী","name:es":"Karachi","name:et":"Karāchi","name:eu":"Karatxi","name:fr":"Karachi","name:he":"קראצ'י","name:hi":"कराची","name:it":"Karachi","name:kn":"ಕರಾಚಿ","name:ko":"카라치","name:ku":"Keraçî","name:ml":"കറാച്ചി","name:ne":"कराँची","name:nl":"Karachi","name:no":"Karachi","name:oc":"Karachi","name:pt":"Carachi","name:ru":"Карачи","name:sk":"Karáči","name:sl":"Karači","name:sv":"Karachi","name:ta":"கராச்சி","name:tr":"Karaçi","alt_name":"کیرانچی","name:gan":"卡拉奇","alt":"کراچی","alt:en":"Karachi","alt:fa":"کراچی","alt:ps":"کراچۍ","alt:ur":"کراچی","alt:pnb":"کراچی"},"display_name":"کراچی ڈویژن, سندھ, پاکستان","address":{"city":"کراچی ڈویژن","state":"سندھ","ISO3166-2-lvl4":"PK-SD","country":"پاکستان","country_code":"pk"},"population":14910352,"osm_type":"relation","osm_id":6080948,"type":"administrative","location":[67.0207055,24.8546842],"bbox":[66.2862312,24.4273517,67.5827753,25.676796]}}
{"name":"کرک","other_names":{"name:en":"Karak","name:fa":"کرک","name:hi":"करक","name:ml":"കറക്ക്","name:ps":"کرک","name:sd":"ڪرڪ","name:ur":"کرک","alt_name":"Kharak","name:pnb":"کرک","name:skr":"کرک"},"display_name":"کرک, تحصیل کرک, ضلع کرک, کوہاٹ ڈویژن, خیبر پختونخوا, 27200, پاکستان","address":{"city":"کرک","municipality":"تحصیل کرک","county":"ضلع کرک","state_district":"کوہاٹ ڈویژن","state":"خیبر پختونخوا","ISO3166-2-lvl4":"PK-KP","postcode":"27200","country":"پاکستان","country_code":"pk"},"population":51149,"osm_type":"node","osm_id":8488590709,"type":"city","location":[71.0950863,33.1160464],"bbox":[70.9350863,32.9560464,71.2550863,33.2760464]}
{"name":"کمالیہ","other_names":{"name:ar":"كماليا","name:bn":"কামালিয়া","name:de":"Kamalia","name:en":"Kamalia","name:es":"Kamalia","name:fr":"Kamalia","name:ja":"カマリア","name:ml":"കമാലിയ","name:ru":"Камалия","name:ur":"کمالیہ","name:pnb":"کمالیا"},"display_name":"کمالیہ, تحصیل کمالیہ, ضلع ٹوبہ ٹیک سنگھ, فیصل آباد ڈویژن, پنجاب, 36350, پاکستان","address":{"city":"کمالیہ","subdistrict":"تحصیل کمالیہ","district":"ضلع ٹوبہ ٹیک سنگھ","historical_division":"فیصل آباد ڈویژن","state":"پنجاب","ISO3166-2-lvl4":"PK-PB","postcode":"36350","country":"پاکستان","country_code":"pk"},"population":135641,"osm_type":"node","osm_id":281413408,"type":"city","location":[72.6450218,30.7269883],"bbox":[72.4850218,30.5669883,72.8050218,30.8869883]}
{"name":"کندھ کوٹ","other_names":{"name:en":"Kandhkot","name:ml":"കന്ധ്കോട്ട്","name:ru":"Кандкхкот","name:sd":"ڪنڌڪوٽ","name:ur":"کندھ کوٹ"},"display_name":"کندھ کوٹ, تعلقہ کندھ کوٹ, ضلع کشمور, لاڑکانہ ڈویژن, سندھ, 79160, پاکستان","address":{"city":"کندھ کوٹ","municipality":"تعلقہ کندھ کوٹ","county":"ضلع کشمور","state_district":"لاڑکانہ ڈویژن","state":"سندھ","ISO3166-2-lvl4":"PK-SD","postcode":"79160","country":"پاکستان","country_code":"pk"},"population":100698,"osm_type":"node","osm_id":3962598285,"type":"city","location":[69.1814167,28.2449018],"bbox":[69.0214167,28.0849018,69.3414167,28.4049018]}
{"name":"کوئٹہ","other_names":{"name:ar":"كويته","name:bn":"কোয়েটা","name:cs":"Kvéta","name:da":"Quetta","name:de":"Quetta","name:en":"Quetta","name:es":"Quetta","name:et":"Quetta","name:eu":"Quetta","name:fa":"کویته","name:fr":"Quetta","name:he":"כוויתה","name:hi":"क्वेटा","name:ja":"クエッタ","name:kn":"ಕ್ವೆಟ್ಟ","name:ko":"퀘타","name:ml":"ക്വെട്ട","name:pa":"ਕੋਇਟਾ","name:pl":"Kweta","name:ps":"کوټه","name:ru":"Кветта","name:sd":"ڪوئيٽا","name:sk":"Kvéta","name:tr":"Ketta","name:tt":"Квиттә","name:uk":"Кветта","name:ur":"کوئٹہ","name:zh":"奎达","alt_name":"شالکوٹ","int_name":"Quetta","name:bal":"کویٹه","name:pnb":"کوئٹا","name:skr":"کوئٹہ","alt_name:ar":"كويتا","alt_name:ps":"کوټه"},"display_name":"کوئٹہ, تحصیل کوئٹہ شہر, ضلع کوئٹہ, کوئٹہ ڈویژن, بلوچستان, 87300, پاکستان","address":{"city":"کوئٹہ","county":"ضلع کوئٹہ","state_district":"کوئٹہ ڈویژن","state":"بلوچستان","ISO3166-2-lvl4":"PK-BA","postcode":"87300","country":"پاکستان","country_code":"pk"},"population":1001205,"osm_type":"node","osm_id":81458885,"type":"city","location":[67.0172447,30.1957677],"bbox":[66.8572447,30.0357677,67.1772447,30.3557677],"border":{"name":"تحصیل کوئٹہ شہر","other_names":{"name:en":"Quetta City Tehsil","name:ps":"کوټه ښار تحصیل","name:ur":"تحصیل کوئٹہ شہر","name:bal":"کویٹه شهر تحصیل","name:ar":"كويته","name:bn":"কোয়েটা","name:cs":"Kvéta","name:da":"Quetta","name:de":"Quetta","name:es":"Quetta","name:et":"Quetta","name:eu":"Quetta","name:fa":"کویته","name:fr":"Quetta","name:he":"כוויתה","name:hi":"क्वेटा","name:ja":"クエッタ","name:kn":"ಕ್ವೆಟ್ಟ","name:ko":"퀘타","name:ml":"ക്വെട്ട","name:pa":"ਕੋਇਟਾ","name:pl":"Kweta","name:ru":"Кветта","name:sd":"ڪوئيٽا","name:sk":"Kvéta","name:tr":"Ketta","name:tt":"Квиттә","name:uk":"Кветта","name:zh":"奎达","alt_name":"شالکوٹ","int_name":"Quetta","name:pnb":"کوئٹا","name:skr":"کوئٹہ","alt_name:ar":"كويتا","alt_name:ps":"کوټه","alt":"کوئٹہ","alt:en":"Quetta","alt:ps":"کوټه","alt:ur":"کوئٹہ","alt:bal":"کویٹه"},"display_name":"تحصیل کوئٹہ شہر, ضلع کوئٹہ, کوئٹہ ڈویژن, بلوچستان, پاکستان","address":{"city":"تحصیل کوئٹہ شہر","county":"ضلع کوئٹہ","state_district":"کوئٹہ ڈویژن","state":"بلوچستان","ISO3166-2-lvl4":"PK-BA","country":"پاکستان","country_code":"pk"},"population":1001205,"osm_type":"relation","osm_id":16636824,"type":"administrative","location":[67.0172447,30.1957677],"bbox":[66.8273053,30.0080352,67.2434482,30.2534296]}}
{"name":"کوٹ ادو","other_names":{"name:de":"Kot Addu","name:en":"Kot Addu","name:es":"Kot Addu","name:fr":"Kot Addu","name:ja":"コット・アドゥ","name:ml":"കോട്ട് അദ്ദു","name:ru":"Котадду","name:sr":"Кот Аду","name:ur":"کوٹ ادو","name:pnb":"کوٹ ادو"},"display_name":"کوٹ ادو, تحصیل کوٹ ادو, ضلع کوٹ ادو, ڈیرہ غازی خان ڈویژن, پنجاب, پاکستان","address":{"city":"کوٹ ادو","subdistrict":"تحصیل کوٹ ادو","county":"ضلع کوٹ ادو","state_district":"ڈیرہ غازی خان ڈویژن","state":"پنجاب","ISO3166-2-lvl4":"PK-PB","country":"پاکستان","country_code":"pk"},"population":129703,"osm_type":"node","osm_id":281413968,"type":"city","location":[70.9678776,30.4692602],"bbox":[70.8078776,30.3092602,71.1278776,30.6292602]}
{"name":"کوٹری","other_names":{"name:ar":"كوتري","name:de":"Kotri","name:en":"Kotri","name:es":"Kotri","name:fa":"کوتری","name:kn":"ಕೊಟ್ರಿ","name:sd":"ڪوٽڙي","name:uk":"Котрі","name:ur":"کوٹری","name:azb":"کوتری","name:pnb":"کوٹری"},"display_name":"کوٹری, تعلقہ کوٹری, ضلع جام شورو, حیدر آباد ڈویژن, سندھ, 72000, پاکستان","address":{"city":"کوٹری","municipality":"تعلقہ کوٹری","county":"ضلع جام شورو","state_district":"حیدر آباد ڈویژن","state":"سندھ","ISO3166-2-lvl4":"PK-SD","postcode":"72000","country":"پاکستان","country_code":"pk"},"population":259358,"osm_type":"node","osm_id":90056721,"type":"city","location":[68.3068896,25.3635325],"bbox":[68.1468896,25.2035325,68.4668896,25.5235325]}
{"name":"کوہاٹ","other_names":{"name:ar":"كوهات","name:de":"Kohat","name:en":"Kohat","name:et":"Kohāt","name:fa":"کوهات","name:fr":"Kohat","name:hi":"कोहाट","name:ja":"コハト","name:kn":"ಕೋಹಟ್","name:ml":"കൊഹാട്ട്","name:ps":"کوهاټ","name:pt":"Kohat","name:ru":"Кохат","name:sd":"ڪوھاٽ","name:tr":"Kohat","name:uk":"Когат","name:ur":"کوہاٹ","name:zh":"科哈特","name:pnb":"کوہاٹ","name:skr":"کوہاٹ"},"display_name":"کوہاٹ, تحصیل کوہاٹ, ضلع کوہاٹ, کوہاٹ ڈویژن, خیبر پختونخوا, پاکستان","address":{"city":"کوہاٹ","municipality":"تحصیل کوہاٹ","county":"ضلع کوہاٹ","state_district":"کوہاٹ ڈویژن","state":"خیبر پختونخوا","ISO3166-2-lvl4":"PK-KP","country":"پاکستان","country_code":"pk"},"population":228779,"osm_type":"node","osm_id":279783374,"type":"city","location":[71.4399944,33.5967144],"bbox":[71.2799944,33.4367144,71.5999944,33.7567144],"border":[{"name":"ضلع کوہاٹ","other_names":{"name:en":"Kohat District","name:fa":"ناحیه کوهات","name:hi":"कोहाट ज़िला","name:ps":"کوهاټ ولسوالۍ","name:sd":"ڪوھاٽ ضلعو","name:uk":"Когат","name:ur":"ضلع کوہاٹ","name:zh":"科哈特县","name:pnb":"ضلع کوہاٹ","name:skr":"ضلع کوہاٹ"},"display_name":"ضلع کوہاٹ, کوہاٹ ڈویژن, خیبر پختونخوا, پاکستان","address":{"county":"ضلع کوہاٹ","state_district":"کوہاٹ ڈویژن","state":"خیبر پختونخوا","ISO3166-2-lvl4":"PK-KP","country":"پاکستان","country_code":"pk"},"osm_type":"relation","osm_id":16499292,"type":"administrative","location":[71.42716806761993,33.3905983],"bbox":[70.9970865,33.0175364,72.0062866,33.7633587]},{"name":"تحصیل کوہاٹ","other_names":{"name:en":"Kohat Tehsil","name:ps":"کوهاټ تحصیل","name:uk":"Когат","name:ur":"تحصیل کوہاٹ"},"display_name":"تحصیل کوہاٹ, ضلع کوہاٹ, کوہاٹ ڈویژن, خیبر پختونخوا, پاکستان","address":{"municipality":"تحصیل کوہاٹ","county":"ضلع کوہاٹ","state_district":"کوہاٹ ڈویژن","state":"خیبر پختونخوا","ISO3166-2-lvl4":"PK-KP","country":"پاکستان","country_code":"pk"},"osm_type":"relation","osm_id":16501861,"type":"administrative","location":[71.39500631752702,33.57222645],"bbox":[70.9970865,33.397384,71.6523151,33.7462239]}]}
{"name":"گجرات","other_names":{"name:ar":"كجرات","name:be":"Гуджрат","name:bn":"গুজরাট","name:de":"Gujrat","name:en":"Gujrat","name:es":"Gujrat","name:et":"Gujrāt","name:eu":"Gujrat","name:fa":"گجرات","name:fr":"Gujrat","name:hi":"गुजरात","name:hr":"Gudžrat","name:ja":"グジュラート","name:ks":"گجرات","name:ml":"ഗുജ്റാത്ത്","name:pa":"ਜ਼ਿਲ੍ਹਾ ਗੁਜਰਾਤ","name:ps":"گجرات","name:ru":"Гуджрат","name:sd":"گجرات","name:sl":"Gudžrat","name:sr":"Гуџрат","name:ur":"گجرات","name:azb":"گوجرات","name:pnb":"گجرات"},"display_name":"گجرات, تحصیل گجرات, ضلع گجرات, گجرات ڈویژن, پنجاب, پاکستان","address":{"city":"گجرات","subdistrict":"تحصیل گجرات","county":"ضلع گجرات","state_district":"گجرات ڈویژن","state":"پنجاب","ISO3166-2-lvl4":"PK-PB","country":"پاکستان","country_code":"pk"},"population":390533,"osm_type":"node","osm_id":2555407404,"type":"city","location":[74.071481,32.5686782],"bbox":[73.911481,32.4086782,74.231481,32.7286782],"border":[{"name":"گجرات","other_names":{"name:ar":"كجرات","name:de":"Gujrat","name:en":"Gujrat","name:fa":"گجرات","name:ks":"گجرات","name:pa":"ਗੁਜਰਾਤ","name:ps":"گجرات","name:sd":"گجرات","name:ur":"گجرات","name:azb":"گوجرات","name:pnb":"گجرات","name:be":"Гуджрат","name:bn":"গুজরাট","name:es":"Gujrat","name:et":"Gujrāt","name:eu":"Gujrat","name:fr":"Gujrat","name:hi":"गुजरात","name:hr":"Gudžrat","name:ja":"グジュラート","name:ml":"ഗുജ്റാത്ത്","name:ru":"Гуджрат","name:sl":"Gudžrat","name:sr":"Гуџрат","alt:pa":"ਜ਼ਿਲ੍ਹਾ ਗੁਜਰਾਤ"},"display_name":"گجرات, تحصیل گجرات, ضلع گجرات, گجرات ڈویژن, پنجاب, پاکستان","address":{"city":"گجرات","subdistrict":"تحصیل گجرات","county":"ضلع گجرات","state_district":"گجرات ڈویژن","state":"پنجاب","ISO3166-2-lvl4":"PK-PB","country":"پاکستان","country_code":"pk"},"population":390533,"osm_type":"way","osm_id":452820167,"type":"city","location":[74.071481,32.5686782],"bbox":[74.0353632,32.4925875,74.1403448,32.6557799]},{"name":"ضلع گجرات","other_names":{"name:de":"Distrikt Gujrat","name:en":"Gujrat District","name:fa":"ناحیه گجرات","name:fr":"District de Gujrat","name:hi":"गुजरात ज़िला","name:pa":"ਜ਼ਿਲ੍ਹਾ ਗੁਜਰਾਤ","name:ps":"گجرات ولسوالۍ","name:sd":"گجرات ضلعو","name:ur":"ضلع گجرات","name:pnb":"ضلع گجرات","alt":"Gujrāt District","alt:ur":"گجرات"},"display_name":"ضلع گجرات, گجرات ڈویژن, پنجاب, پاکستان","address":{"district":"ضلع گجرات","state_district":"گجرات ڈویژن","state":"پنجاب","ISO3166-2-lvl4":"PK-PB","country":"پاکستان","country_code":"pk"},"osm_type":"relation","osm_id":16117657,"type":"administrative","location":[73.75,32.583333],"bbox":[73.5905066,32.397632,74.4918919,32.9466018]}]}
{"name":"گلگت","other_names":{"name:ar":"كلكت","name:az":"Gilgit","name:be":"Гілгіт","name:bn":"গিলগিট","name:cs":"Gilgit","name:de":"Gilgit","name:el":"Γκιλγκίτ","name:en":"Gilgit","name:es":"Gilgit","name:et":"Gilgit","name:fa":"گلگت","name:fr":"Gilgit","name:he":"גילגיט","name:hi":"गिलगित","name:hr":"Gilgit","name:ja":"ギルギット","name:kn":"ಗಿಲ್ಗಿಟ್","name:ko":"길기트","name:ks":"گلگت","name:ml":"ഗിൽഗിത്ത്","name:pl":"Gilgit","name:ru":"Гилгит","name:sl":"Gilgit","name:sr":"Гилгит","name:te":"గిల్గిట్","name:uk":"Гілгіт","name:ur":"گلگت","name:vi":"Gilgit","name:zh":"吉尔吉特","name:bsk":"Geelt","name:scl":"گلیٗت","alt_name:ar":"كلكيت;غلغيت;غيلغيت;غلغت"},"display_name":"گلگت, تحصیل گلگت, ضلع گلگت, گلگت ڈویژن, گلگت بلتستان, 51100, پاکستان","address":{"city":"گلگت","municipality":"تحصیل گلگت","county":"ضلع گلگت","state_district":"گلگت ڈویژن","state":"گلگت بلتستان","ISO3166-2-lvl4":"PK-GB","postcode":"51100","country":"پاکستان","country_code":"pk"},"osm_type":"node","osm_id":58568637,"type":"city","location":[74.314044,35.9208102],"bbox":[74.154044,35.7608102,74.474044,36.0808102],"border":{"name":"ضلع گلگت","other_names":{"name:ar":"كلكت","name:cs":"Gilgit","name:de":"Gilgit","name:en":"Gilgit District","name:es":"Gilgit","name:et":"Gilgit","name:fa":"ناحیه گلگت","name:fr":"District de Gilgit","name:hi":"गिलगित","name:ja":"ギルギット","name:kn":"ಗಿಲ್ಗಿಟ್","name:ko":"길기트","name:ks":"گلگت","name:ml":"ഗിൽജിറ്റ്","name:pl":"Gilgit","name:ru":"Гилгит","name:sd":"گلگت ضلعو","name:te":"గిల్గిట్","name:uk":"Гілгіт","name:ur":"ضلع گلگت","name:zh":"吉尔吉特县","name:bsk":"Geelt","name:pnb":"ضلع گلگت","name:scl":"گلیٗت ضلع"},"display_name":"ضلع گلگت, گلگت ڈویژن, گلگت بلتستان, پاکستان","address":{"county":"ضلع گلگت","state_district":"گلگت ڈویژن","state":"گلگت بلتستان","ISO3166-2-lvl4":"PK-GB","country":"پاکستان","country_code":"pk"},"osm_type":"relation","osm_id":15768216,"type":"administrative","location":[74.48672365107294,35.9562776],"bbox":[73.934555,35.5556918,74.9875044,36.355919]}}
{"name":"گھوٹکی","other_names":{"name:ar":"كهوتكي","name:de":"Ghotki","name:en":"Ghotki","name:fa":"گهوتکی","name:fr":"Ghotki","name:hi":"घोटकी","name:ks":"گھوٹکی","name:ml":"ഘോട്കി","name:sd":"گهوٽڪي","name:uk":"Ґготкі","name:ur":"گھوٹکی","name:azb":"گهوتکی","name:pnb":"گھوٹکی","name:skr":"گھوٹکی"},"display_name":"گھوٹکی, تعلقہ گھوٹکی, ضلع گھوٹکی, سکھر ڈویژن, سندھ, پاکستان","address":{"city":"گھوٹکی","municipality":"تعلقہ گھوٹکی","county":"ضلع گھوٹکی","state_district":"سکھر ڈویژن","state":"سندھ","ISO3166-2-lvl4":"PK-SD","country":"پاکستان","country_code":"pk"},"population":111321,"osm_type":"node","osm_id":8481170528,"type":"city","location":[69.3151043,28.0066566],"bbox":[69.1551043,27.8466566,69.4751043,28.1666566]}
{"name":"گوادر","other_names":{"name:ar":"كوادر","name:bn":"গোয়াদর","name:de":"Gwadar","name:en":"Gwādar","name:es":"Gwadar","name:fa":"گوادر","name:fr":"Gwadar","name:he":"גוואדר","name:hi":"ग्वादर","name:kn":"ಗ್ವಾದರ್","name:ks":"گوادر","name:ml":"ഗ്വാദർ","name:ne":"ग्वादर","name:pa":"ਗਵਾਦਰ","name:pt":"Gwadar","name:ru":"Гвадар","name:sd":"گوادار","name:tr":"Gwadar","name:uk":"Гвадар","name:ur":"گوادر","name:zh":"瓜达尔","name:azb":"گوادر","name:pnb":"گوادر","name:az-Arab":"گوادر"},"display_name":"گوادر, تحصیل گوادر, ضلع گوادر, مکران ڈویژن, بلوچستان, 91200, پاکستان","address":{"city":"گوادر","municipality":"تحصیل گوادر","county":"ضلع گوادر","state_district":"مکران ڈویژن","state":"بلوچستان","ISO3166-2-lvl4":"PK-BA","postcode":"91200","country":"پاکستان","country_code":"pk"},"population":138438,"osm_type":"node","osm_id":90465594,"type":"city","location":[62.3254553,25.1479816],"bbox":[62.1654553,24.9879816,62.4854553,25.3079816]}
{"name":"گوجر خان","other_names":{"name:en":"Gujar Khan","name:es":"Gujar Khan","name:fr":"Gujar Khan","name:hi":"गुजर खान","name:kn":"ಗುಜ್ಜರ್ ಖ಼ಾನ್","name:ml":"ഗുജർ ഖാൻ","name:pa":"ਗੁਜਰਖ਼ਾਨ","name:ur":"گوجر خان","alt_name:pa":"ਗੁਜਰ ਖ਼ਾਨ"},"display_name":"گوجر خان, تحصیل گوجر خان, ضلع راولپنڈی, راولپنڈی ڈویژن, پنجاب, پاکستان","address":{"city":"گوجر خان","municipality":"تحصیل گوجر خان","county":"ضلع راولپنڈی","state_district":"راولپنڈی ڈویژن","state":"پنجاب","ISO3166-2-lvl4":"PK-PB","country":"پاکستان","country_code":"pk"},"population":90131,"osm_type":"node","osm_id":66331528,"type":"city","location":[73.3065712,33.2543205],"bbox":[73.1465712,33.0943205,73.4665712,33.4143205]}
{"name":"گوجرانوالہ","other_names":{"name:ar":"جوجرانوالا","name:az":"Qucranvala","name:be":"Гуджранвала","name:bg":"Гуджранвала","name:bn":"গুজরানওয়ালা","name:cs":"Gudžranvala","name:de":"Gujranwala","name:en":"Gujranwala","name:es":"Gujranwala","name:et":"Gujrānwāla","name:eu":"Gujranwala","name:fr":"Gujranwala","name:he":"גוג'ראנוואלה","name:hi":"गुजराँवाला","name:hr":"Gudžranvala","name:hu":"Gudzsranvála","name:ja":"グジュラーンワーラー","name:kn":"ಗುಜ್ರನ್ವಾಲಾ","name:ml":"ഗുജ്റാൻവാല","name:pa":"ਗੁਜਰਾਂਵਾਲਾ","name:pt":"Gujranwala","name:ru":"Гуджранвала","name:sl":"Gudžranvala","name:sr":"Гуџранвала","name:te":"గుజ్రాన్‌వాలా","name:uk":"Гуджранвала","name:ur":"گوجرانوالہ","name:zh":"古吉兰瓦拉/古杰兰瓦拉","name:azb":"گوجرانواله","name:pnb":"گجرانوالا","name:az-Arab":"گوجرانواله"},"display_name":"گوجرانوالہ, تحصیل گوجرانوالہ شہر, ضلع گوجرانوالہ, گوجرانوالہ ڈویژن, پنجاب, پاکستان","address":{"city":"گوجرانوالہ","subdistrict":"تحصیل گوجرانوالہ شہر","district":"ضلع گوجرانوالہ","state_district":"گوجرانوالہ ڈویژن","state":"پنجاب","ISO3166-2-lvl4":"PK-PB","country":"پاکستان","country_code":"pk"},"population":2027001,"osm_type":"node","osm_id":60907763,"type":"city","location":[74.1933745,32.1525312],"bbox":[74.0333745,31.9925312,74.3533745,32.3125312],"border":{"name":"تحصیل گوجرانوالہ شہر","other_names":{"name:en":"Gujujranwala City Tehsil","name:ur":"تحصیل گوجرانوالہ شہر","name:pnb":"تحصیل گجرانوالا شہر","name:ar":"جوجرانوالا","name:az":"Qucranvala","name:be":"Гуджранвала","name:bg":"Гуджранвала","name:bn":"গুজরানওয়ালা","name:cs":"Gudžranvala","name:de":"Gujranwala","name:es":"Gujranwala","name:et":"Gujrānwāla","name:eu":"Gujranwala","name:fr":"Gujranwala","name:he":"גוג'ראנוואלה","name:hi":"गुजराँवाला","name:hr":"Gudžranvala","name:hu":"Gudzsranvála","name:ja":"グジュラーンワーラー","name:kn":"ಗುಜ್ರನ್ವಾಲಾ","name:ml":"ഗുജ്റാൻവാല","name:pa":"ਗੁਜਰਾਂਵਾਲਾ","name:pt":"Gujranwala","name:ru":"Гуджранвала","name:sl":"Gudžranvala","name:sr":"Гуџранвала","name:te":"గుజ్రాన్‌వాలా","name:uk":"Гуджранвала","name:zh":"古吉兰瓦拉/古杰兰瓦拉","name:azb":"گوجرانواله","name:az-Arab":"گوجرانواله","alt":"گوجرانوالہ","alt:en":"Gujranwala","alt:ur":"گوجرانوالہ","alt:pnb":"گجرانوالا"},"display_name":"تحصیل گوجرانوالہ شہر, ضلع گوجرانوالہ, گوجرانوالہ ڈویژن, پنجاب, پاکستان","address":{"subdistrict":"تحصیل گوجرانوالہ شہر","district":"ضلع گوجرانوالہ","state_district":"گوجرانوالہ ڈویژن","state":"پنجاب","ISO3166-2-lvl4":"PK-PB","country":"پاکستان","country_code":"pk"},"population":2027001,"osm_type":"relation","osm_id":16108369,"type":"administrative","location":[74.1933745,32.1525312],"bbox":[74.1266029,32.0298111,74.2812075,32.2445605]}}
{"name":"گوجرہ","other_names":{"name:ar":"غوجرا","name:de":"Gojra","name:en":"Gojra","name:es":"Gojra","name:et":"Gojra","name:fr":"Gojra","name:hi":"गोजरा","name:ja":"ゴジュラ","name:ml":"ഗോജ്ര","name:pa":"ਗੋਜਰਾ","name:ru":"Годжра","name:ur":"گوجرہ","name:pnb":"گوجرہ"},"display_name":"گوجرہ, تحصیل گوجرہ, ضلع ٹوبہ ٹیک سنگھ, فیصل آباد ڈویژن, پنجاب, 38100, پاکستان","address":{"city":"گوجرہ","subdistrict":"تحصیل گوجرہ","district":"ضلع ٹوبہ ٹیک سنگھ","historical_division":"فیصل آباد ڈویژن","state":"پنجاب","ISO3166-2-lvl4":"PK-PB","postcode":"38100","country":"پاکستان","country_code":"pk"},"population":157863,"osm_type":"node","osm_id":281407275,"type":"city","location":[72.6859082,31.1482371],"bbox":[72.5259082,30.9882371,72.8459082,31.3082371]}
{"name":"لاڑکانہ","other_names":{"name:ar":"لاركانا","name:bn":"লারকানা","name:de":"Larkana","name:en":"Larkana","name:es":"Larkana","name:et":"Lārkāna","name:eu":"Larkana","name:fa":"لارکانه","name:fr":"Larkana","name:hi":"लरकाना","name:hr":"Larkana","name:it":"Larkana","name:ja":"ラルカナ","name:kn":"ಲಾರ್ಕಾಣ","name:ks":"لاڑکانہ","name:lt":"Larkana","name:ml":"ലാർക്കാന","name:nl":"Larkano","name:pa":"ਲਾੜਕਾਣਾ","name:ps":"لاړکانه","name:pt":"Larkana","name:ru":"Ларкана","name:sd":"لاڙڪاڻو","name:sr":"Ларкана","name:tr":"Larkana","name:ur":"لاڑکانہ","alt_name":"لاٹکانہ","name:arz":"لاركانا","name:azb":"لارکانه","name:pnb":"ضلع","alt_name:ur":"لاٹکانہ","name:az-Arab":"لارکانه"},"display_name":"لاڑکانہ, تعلقہ لاڑکانہ, ضلع لاڑکانہ, لاڑکانہ ڈویژن, سندھ, 77150, پاکستان","address":{"city":"لاڑکانہ","municipality":"تعلقہ لاڑکانہ","county":"ضلع لاڑکانہ","state_district":"لاڑکانہ ڈویژن","state":"سندھ","ISO3166-2-lvl4":"PK-SD","postcode":"77150","country":"پاکستان","country_code":"pk"},"population":490508,"osm_type":"node","osm_id":1934239893,"type":"city","location":[68.2101509,27.5564798],"bbox":[68.0501509,27.3964798,68.3701509,27.7164798]}
{"name":"لالہ موسیٰ","other_names":{"name:en":"Lalamusa","name:ml":"ലാലാമൂസ","name:ru":"Лала-Муса","name:pnb":"لالہ موسٰے","alt_name:en":"Lala Musa"},"display_name":"لالہ موسیٰ, تحصیل کھاریاں, ضلع گجرات, گجرات ڈویژن, پنجاب, پاکستان","address":{"city":"لالہ موسیٰ","subdistrict":"تحصیل کھاریاں","county":"ضلع گجرات","state_district":"گجرات ڈویژن","state":"پنجاب","ISO3166-2-lvl4":"PK-PB","country":"پاکستان","country_code":"pk"},"osm_type":"node","osm_id":11194933322,"type":"city","location":[73.9576582,32.699529],"bbox":[73.7976582,32.539529,74.1176582,32.859529],"border":{"name":"لالہ موسیٰ","other_names":{"name:en":"Lalamusa","name:pa":"ਲਾਲਾਮੂਸਾ","name:ur":"لالہ موسیٰ","name:pnb":"لالہ موسٰے","alt_name:en":"Lala Musa","name:ml":"ലാലാമൂസ","name:ru":"Лала-Муса"},"display_name":"لالہ موسیٰ, تحصیل کھاریاں, ضلع گجرات, گجرات ڈویژن, پنجاب, 50200, پاکستان","address":{"city":"لالہ موسیٰ","subdistrict":"تحصیل کھاریاں","county":"ضلع گجرات","state_district":"گجرات ڈویژن","state":"پنجاب","ISO3166-2-lvl4":"PK-PB","postcode":"50200","country":"پاکستان","country_code":"pk"},"osm_type":"relation","osm_id":16271380,"type":"administrative","location":[73.9576582,32.699529],"bbox":[73.9332248,32.6889605,73.9734096,32.7192405]}}
{"name":"لاہور","other_names":{"name:af":"Lahore","name:ar":"لاهور","name:bn":"লাহোর","name:cs":"Láhaur","name:de":"Lahore","name:el":"Λαχόρη","name:en":"Lahore","name:eo":"Lahoro","name:es":"Lahore","name:et":"Lahore","name:fa":"لاهور","name:fr":"Lahore","name:he":"להורה","name:hi":"लाहौर","name:hr":"Lahore","name:hy":"Լահոր","name:it":"Lahore","name:ja":"ラホール","name:kn":"ಲಾಹೋರ್","name:ko":"라호르","name:ks":"لوہوٗر","name:ml":"ലാഹോർ","name:ne":"लाहोर","name:nl":"Lahore","name:oc":"Lahaur","name:pa":"ਲਹੌਰ","name:pl":"Lahaur","name:ps":"لاهور","name:pt":"Laore","name:ru":"Лахор","name:sk":"Láhaur","name:ta":"லாகூர்","name:tr":"Lahor","name:uk":"Лахор","name:ur":"لاہور","name:zh":"拉合尔","name:arz":"لاهور","name:azb":"لاهور","name:mzn":"لاهور","name:pnb":"لہور","name:az-Arab":"لاهور","name:sr-Latn":"Lahor","short_name:en":"LHR"},"display_name":"لاہور, تحصیل لاہور شہر, ضلع لاہور, لاہور ڈویژن, پنجاب, 54500, پاکستان","address":{"city":"لاہور","subdistrict":"تحصیل لاہور شہر","district":"ضلع لاہور","historical_division":"لاہور ڈویژن","state":"پنجاب","ISO3166-2-lvl4":"PK-PB","postcode":"54500","country":"پاکستان","country_code":"pk"},"population":11126285,"osm_type":"node","osm_id":1886594378,"type":"city","location":[74.3141829,31.5656822],"bbox":[74.1541829,31.4056822,74.4741829,31.7256822]}
{"name":"لودھراں","other_names":{"name:bn":"লোধরান","name:de":"Lodhran","name:en":"Lodhran","name:fr":"Lodhran","name:hi":"लोधराण","name:ja":"ロードラーン","name:ml":"ലോധ്രാൻ","name:pa":"ਲੋਧਰਾਂ","name:ps":"لودهران","name:ru":"Лодхран","name:sd":"لوڌران","name:ur":"لودھراں","name:pnb":"لودھراں","name:skr":"لودھراں"},"display_name":"لودھراں, تحصیل لودھراں, ضلع لودھراں, ملتان ڈویژن, پنجاب, 59320, پاکستان","address":{"city":"لودھراں","subdistrict":"تحصیل لودھراں","district":"ضلع لودھراں","historical_division":"ملتان ڈویژن","state":"پنجاب","ISO3166-2-lvl4":"PK-PB","postcode":"59320","country":"پاکستان","country_code":"pk"},"population":117851,"osm_type":"node","osm_id":251112004,"type":"city","location":[71.6344196,29.5390395],"bbox":[71.4744196,29.3790395,71.7944196,29.6990395],"border":{"name":"تحصیل لودھراں","other_names":{"name:en":"Lodhran Tehsil","name:ur":"تحصیل لودھراں","name:pnb":"تحصیل لودھراں","name:bn":"লোধরান","name:de":"Lodhran","name:fr":"Lodhran","name:hi":"लोधराण","name:ja":"ロードラーン","name:ml":"ലോധ്രാൻ","name:pa":"ਲੋਧਰਾਂ","name:ps":"لودهران","name:ru":"Лодхран","name:sd":"لوڌران","name:skr":"لودھراں","alt":"لودھراں","alt:en":"Lodhran","alt:ur":"لودھراں","alt:pnb":"لودھراں"},"display_name":"تحصیل لودھراں, ضلع لودھراں, ملتان ڈویژن, پنجاب, 59320, پاکستان","address":{"subdistrict":"تحصیل لودھراں","district":"ضلع لودھراں","historical_division":"ملتان ڈویژن","state":"پنجاب","ISO3166-2-lvl4":"PK-PB","postcode":"59320","country":"پاکستان","country_code":"pk"},"population":117851,"osm_type":"relation","osm_id":16108405,"type":"administrative","location":[71.6344196,29.5390395],"bbox":[71.355021,29.372238,71.7977681,29.813663]}}
{"name":"لیہ","other_names":{"name:ar":"ليه","name:de":"Layyah","name:en":"Layyah","name:es":"Layyah","name:fr":"Layyah","name:hi":"लायेह","name:ml":"ലയ്യ","name:pa":"ਲਯਾਹ","name:ps":"ليه","name:sd":"ليہ","name:ur":"لیہ","name:pnb":"لیہ","name:skr":"لیہ","alt_name:ur":"لئیا","alt_name:pnb":"لئیا"},"display_name":"لیہ, تحصیل لیہ, ضلع لیہ, ڈیرہ غازی خان ڈویژن, پنجاب, 31200, پاکستان","address":{"city":"لیہ","subdistrict":"تحصیل لیہ","district":"ضلع لیہ","state_district":"ڈیرہ غازی خان ڈویژن","state":"پنجاب","ISO3166-2-lvl4":"PK-PB","postcode":"31200","country":"پاکستان","country_code":"pk"},"population":126361,"osm_type":"node","osm_id":281439340,"type":"city","location":[70.9455995,30.964868],"bbox":[70.7855995,30.804868,71.1055995,31.124868]}
{"name":"ماتلی","other_names":{"name:bn":"মাতলী","name:de":"Matli","name:en":"Matli","name:es":"Matli","name:fr":"Matli","name:ml":"മാത്ലി","name:ru":"Матли","name:sd":"ماتلي","name:ur":"ماتلی","name:pnb":"ماتلی"},"display_name":"ماتلی, تعلقہ ماتلی, ضلع بدین, بنبھور ڈویژن, سندھ, 72200, پاکستان","address":{"city":"ماتلی","municipality":"تعلقہ ماتلی","county":"ضلع بدین","state_district":"بنبھور ڈویژن","state":"سندھ","ISO3166-2-lvl4":"PK-SD","postcode":"72200","country":"پاکستان","country_code":"pk"},"population":62556,"osm_type":"node","osm_id":3467175792,"type":"city","location":[68.6589358,25.0441564],"bbox":[68.4989358,24.8841564,68.8189358,25.2041564]}
{"name":"مانسہرہ","other_names":{"name:ar":"مانسهره","name:de":"Mansehra","name:en":"Mansehra","name:es":"Mansehra","name:fa":"مانسهره","name:fr":"Mansehra","name:hi":"मानसेहरा","name:ja":"マンセーラ","name:ml":"മാൻസെഹ്റ","name:ps":"مانسهره","name:pt":"Mansehra","name:ru":"Мансехра","name:sd":"مانسھرہ","name:ur":"مانسہرہ","name:azb":"مانسهره","name:hno":"مانسہرہ","name:pnb":"مانسہرہ","name:az-Arab":"مانسهره"},"display_name":"مانسہرہ, تحصیل مانسہرہ, ضلع مانسہرہ, ہزارہ ڈویژن, خیبر پختونخوا, 21300, پاکستان","address":{"city":"مانسہرہ","municipality":"تحصیل مانسہرہ","county":"ضلع مانسہرہ","state_district":"ہزارہ ڈویژن","state":"خیبر پختونخوا","ISO3166-2-lvl4":"PK-KP","postcode":"21300","country":"پاکستان","country_code":"pk"},"population":80653,"osm_type":"node","osm_id":114143790,"type":"city","location":[73.1993125,34.3286855],"bbox":[73.0393125,34.1686855,73.3593125,34.4886855],"border":{"name":"مانسہرہ","other_names":{"name:ar":"مانسهره","name:de":"Mansehra","name:en":"Mansehra","name:es":"Mansehra","name:fa":"مانسهره","name:hi":"मनशेरां","name:ja":"マンセーラ","name:pt":"Mansehra","name:ru":"Мансехра","name:sd":"مانسهره","name:ur":"مانسہرہ","name:azb":"مانسهره","name:pnb":"مانسہرہ","name:az-Arab":"مانسهره","name:fr":"Mansehra","name:ml":"മാൻസെഹ്റ","name:ps":"مانسهره","name:hno":"مانسہرہ","alt:hi":"मानसेहरा","alt:sd":"مانسھرہ"},"display_name":"مانسہرہ, تحصیل مانسہرہ, ضلع مانسہرہ, ہزارہ ڈویژن, خیبر پختونخوا, پاکستان","address":{"city":"مانسہرہ","municipality":"تحصیل مانسہرہ","county":"ضلع مانسہرہ","state_district":"ہزارہ ڈویژن","state":"خیبر پختونخوا","ISO3166-2-lvl4":"PK-KP","country":"پاکستان","country_code":"pk"},"population":127623,"osm_type":"way","osm_id":235475302,"type":"city","location":[73.1993125,34.3286855],"bbox":[73.1688331,34.2981531,73.2357905,34.3732443]}}
{"name":"مٹھی","other_names":{"name:bn":"মিথি","name:de":"Mithi","name:en":"Mithi","name:es":"Mithi","name:fa":"متهی","name:fr":"Mithi","name:ks":"مِٹّھی‎","name:ml":"മീഠി","name:pa":"ਮੀਠੀ","name:ru":"Митхи","name:sd":"مٺي","name:ur":"مٹھی","name:azb":"متهی","name:pnb":"مٹھی","name:az-Arab":"متهی"},"display_name":"مٹھی, تعلقہ مٹھی, ضلع تھرپارکر, میرپور خاص ڈویژن, سندھ, 69230, پاکستان","address":{"city":"مٹھی","municipality":"تعلقہ مٹھی","county":"ضلع تھرپارکر","state_district":"میرپور خاص ڈویژن","state":"سندھ","ISO3166-2-lvl4":"PK-SD","postcode":"69230","country":"پاکستان","country_code":"pk"},"population":47073,"osm_type":"node","osm_id":2479350718,"type":"city","location":[69.7973419,24.736412],"bbox":[69.6373419,24.576412,69.9573419,24.896412]}
{"name":"محراب پور","other_names":{"name:bn":"মিহরাবপুর","name:en":"Mehrabpur","name:ml":"മിഹ്റാബ്പൂർ","name:ru":"Михрабпур","name:sd":"محراب پور","name:ur":"محراب پور","alt_name":"Mahrabpur Junction"},"display_name":"محراب پور, تعلقہ محراب پور, ضلع نوشہرو فیروز, شہید بینظیر آباد ڈویژن, سندھ, 67211, پاکستان","address":{"city":"محراب پور","municipality":"تعلقہ محراب پور","county":"ضلع نوشہرو فیروز","state_district":"شہید بینظیر آباد ڈویژن","state":"سندھ","ISO3166-2-lvl4":"PK-SD","postcode":"67211","country":"پاکستان","country_code":"pk"},"population":53394,"osm_type":"node","osm_id":929274923,"type":"city","location":[68.4171295,27.1018685],"bbox":[68.2571295,26.9418685,68.5771295,27.2618685]}
{"name":"مردان","other_names":{"name:ar":"مردان","name:de":"Mardan","name:en":"Mardan","name:es":"Mardan","name:eu":"Mardan","name:fa":"مردان","name:fr":"Mardan","name:hi":"मर्दान","name:ja":"マルダーン","name:ks":"مردان","name:ml":"മർദാൻ","name:ne":"मरदान","name:ps":"مردان","name:ru":"Мардан","name:sd":"مردان","name:ur":"مردان","name:zh":"马尔丹","name:azb":"مردان","name:pnb":"مردان","name:skr":"مردان","name:az-Arab":"مردان"},"display_name":"مردان, تحصیل مردان, ضلع مردان, مردان ڈویژن, خیبر پختونخوا, 23200, پاکستان","address":{"city":"مردان","municipality":"تحصیل مردان","county":"ضلع مردان","state_district":"مردان ڈویژن","state":"خیبر پختونخوا","ISO3166-2-lvl4":"PK-KP","postcode":"23200","country":"پاکستان","country_code":"pk"},"population":358604,"osm_type":"node","osm_id":279649847,"type":"city","location":[72.0451467,34.1937969],"bbox":[71.8851467,34.0337969,72.2051467,34.3537969]}
{"name":"مریدکے","other_names":{"name:el":"Μουρίντκε","name:en":"Muridke","name:ja":"ムリードケー","name:kn":"ಮುರೀದ್ಕೇ","name:ml":"മുരീദ്കെ","name:ru":"Муридке","name:ur":"مریدکے","name:pnb":"مریدکے"},"display_name":"مریدکے, تحصیل مریدکے, ضلع شیخوپورہ, لاہور ڈویژن, پنجاب, 39000, پاکستان","address":{"city":"مریدکے","subdistrict":"تحصیل مریدکے","district":"ضلع شیخوپورہ","historical_division":"لاہور ڈویژن","state":"پنجاب","ISO3166-2-lvl4":"PK-PB","postcode":"39000","country":"پاکستان","country_code":"pk"},"population":166652,"osm_type":"node","osm_id":110248628,"type":"city","location":[74.2540999,31.8010863],"bbox":[74.0940999,31.6410863,74.4140999,31.9610863]}
{"name":"مظفر آباد","other_names":{"name:ar":"مظفر آباد","name:az":"Müzəffərabad","name:be":"Музафарабад","name:bn":"মুজাফফরাবাদ","name:cs":"Muzaffarábád","name:de":"Muzaffarabad","name:el":"Μουζαφαραμπάντ","name:en":"Muzaffarabad","name:es":"Muzaffarabad","name:et":"Muzaffarābād","name:fa":"مظفرآباد","name:fr":"Muzaffarabad","name:hi":"मुज़फ़्फ़राबाद","name:hr":"Muzafarabad","name:ja":"ムザファラバード","name:kn":"ಮುಜಫರಾಬಾದ್","name:ko":"무자파라바드","name:ks":"مظفر آباد","name:ml":"മുസ്സഫറാബാദ്","name:pl":"Muzaffarabad","name:ru":"Музаффарабад","name:sd":"مظفر آباد","name:sl":"Muzafaradab","name:sr":"Музафарабад","name:te":"ముజఫరాబాద్","name:uk":"Музаффарабад","name:ur":"مظفر آباد","name:zh":"穆扎法拉巴德","name:ckb":"مزەفەر ئاباد","name:pnb":"مظفر آباد","alt_name:ur":"مُظفَّرآباد‬‎"},"display_name":"مظفر آباد, ضلع مظفر آباد, مظفرآباد ڈویژن, آزاد کشمیر, 13100, پاکستان","address":{"city":"مظفر آباد","county":"ضلع مظفر آباد","state_district":"مظفرآباد ڈویژن","state":"آزاد کشمیر","ISO3166-2-lvl4":"PK-JK","postcode":"13100","country":"پاکستان","country_code":"pk"},"population":149913,"osm_type":"node","osm_id":212677583,"type":"city","location":[73.4702407,34.3734751],"bbox":[73.3102407,34.2134751,73.6302407,34.5334751]}
{"name":"مظفر گڑھ","other_names":{"name:ar":"مظفر كره","name:bn":"মুজাফফরগড়","name:de":"Muzaffargarh","name:en":"Muzaffargarh","name:es":"Muzaffargarh","name:et":"Muzaffargarh","name:fr":"Muzaffargarh","name:hi":"मुज़फ्फरगढ़","name:ja":"ムザファルガル","name:kn":"ಮುಝಫ್ಫರಗಾಡ್","name:ml":"മുസഫർഗഢ്","name:ps":"مظفرګړ","name:ru":"Музаффаргарх","name:sd":"مظفرڳڙھ","name:sr":"Музафаргарх","name:tr":"Muzaffargarh","name:ur":"مظفر گڑھ","alt_name":"مُظفّرگڑھ‬","name:pnb":"مظفر گڑھ","name:skr":"مظفر ڳڑھ","alt_name:ar":"مظفركره"},"display_name":"مظفر گڑھ, تحصیل مظفر گڑھ, ضلع مظفر گڑھ, ڈیرہ غازی خان ڈویژن, پنجاب, پاکستان","address":{"city":"مظفر گڑھ","subdistrict":"تحصیل مظفر گڑھ","district":"ضلع مظفر گڑھ","state_district":"ڈیرہ غازی خان ڈویژن","state":"پنجاب","ISO3166-2-lvl4":"PK-PB","country":"پاکستان","country_code":"pk"},"population":209604,"osm_type":"node","osm_id":253890164,"type":"city","location":[71.1906224,30.0743097],"bbox":[71.0306224,29.9143097,71.3506224,30.2343097]}
{"name":"ملتان","other_names":{"name:af":"Multan","name:ar":"ملتان","name:be":"Мултан","name:bg":"Мултан","name:bn":"মুলতান","name:de":"Multan","name:el":"Μουλτάν","name:en":"Multan","name:es":"Multán","name:et":"Multān","name:eu":"Multan","name:fa":"مولتان","name:fr":"Multan","name:he":"מולטן","name:hi":"मुल्तान","name:hy":"Մուլտան","name:ja":"ムルターン","name:ks":"مُلتان","name:ml":"മുൽത്താൻ","name:ne":"मुल्तान","name:nl":"Multan","name:pa":"ਮੁਲਤਾਨ","name:ps":"ملتان","name:pt":"Multã","name:ru":"Мултан","name:sd":"ملتان","name:sh":"Multan","name:sr":"Мултан","name:sv":"Multan","name:tr":"Mültan","name:uk":"Мултан","name:ur":"ملتان","name:zh":"木尔坦","name:azb":"مولتان","name:pnb":"ملتان","name:skr":"ملتان","name:kk-Arab":"مۋلتان"},"display_name":"ملتان, تحصیل ملتان شہر, ضلع ملتان, ملتان ڈویژن, پنجاب, 66000, پاکستان","address":{"city":"ملتان","subdistrict":"تحصیل ملتان شہر","county":"ضلع ملتان","historical_division":"ملتان ڈویژن","state":"پنجاب","ISO3166-2-lvl4":"PK-PB","postcode":"66000","country":"پاکستان","country_code":"pk"},"population":1871843,"osm_type":"node","osm_id":307617596,"type":"city","location":[71.4719683,30.197838],"bbox":[71.3119683,30.037838,71.6319683,30.357838]}
{"name":"منڈی بہاؤالدین","other_names":{"name:ar":"مندي بهاؤ الدين","name:de":"Mandi Bahauddin","name:en":"Mandi Bahauddin","name:es":"Mandi Bahauddin","name:et":"Mandi Bahāuddīn","name:fa":"مندی بهاءالدین","name:fr":"Mandi Bahauddin","name:hi":"मंडी बहाऊद्दीन","name:ja":"マンディー・バハーウッディーン","name:ml":"മണ്ഡി ബഹാവുദ്ദീൻ","name:pa":"ਮੰਡੀ ਬਹਾਉੱਦੀਨ","name:ps":"منڈی بهاؤالدین‬","name:sd":"منڊي بهاء الدين","name:ur":"منڈی بہاؤالدین","name:zh":"门迪伯哈乌丁","name:pnb":"منڈی بہاؤدین"},"display_name":"منڈی بہاؤالدین, تحصیل منڈی بہاؤالدین, ضلع منڈی بہاؤالدین, گجرات ڈویژن, پنجاب, 50400, پاکستان","address":{"city":"منڈی بہاؤالدین","subdistrict":"تحصیل منڈی بہاؤالدین","district":"ضلع منڈی بہاؤالدین","state_district":"گجرات ڈویژن","state":"پنجاب","ISO3166-2-lvl4":"PK-PB","postcode":"50400","country":"پاکستان","country_code":"pk"},"population":198609,"osm_type":"node","osm_id":281407604,"type":"city","location":[73.4914169,32.5846351],"bbox":[73.3314169,32.4246351,73.6514169,32.7446351]}
{"name":"مورو","other_names":{"name:en":"Moro","name:kn":"ಮೋರೋ","name:ml":"മോറോ","name:ru":"Моро","name:sd":"مورو","name:ur":"مورو"},"display_name":"مورو, تعلقہ مورو, ضلع نوشہرو فیروز, شہید بینظیر آباد ڈویژن, سندھ, پاکستان","address":{"city":"مورو","municipality":"تعلقہ مورو","county":"ضلع نوشہرو فیروز","state_district":"شہید بینظیر آباد ڈویژن","state":"سندھ","ISO3166-2-lvl4":"PK-SD","country":"پاکستان","country_code":"pk"},"population":95398,"osm_type":"node","osm_id":89400760,"type":"city","location":[68.0024421,26.6636199],"bbox":[67.8424421,26.5036199,68.1624421,26.8236199]}
{"name":"میانوالی","other_names":{"name:en":"Mianwali","name:fa":"میانوالی","name:fr":"Mianwali","name:hi":"मियांवाली","name:lt":"Mianvalis","name:ml":"മിയാൻവാലി","name:ne":"मियाँवाली","name:pa":"ਮੀਆਂਵਾਲੀ","name:ps":"ميانوالي","name:ru":"Миянвали","name:sd":"ميانوالي","name:ur":"میانوالی","name:zh":"米扬瓦利","name:pnb":"میان٘والی","name:skr":"میانوالی"},"display_name":"میانوالی, تحصیل میانوالی, ضلع میانوالی, میانوالی ڈویژن, پنجاب, پاکستان","address":{"city":"میانوالی","subdistrict":"تحصیل میانوالی","district":"ضلع میانوالی","state_district":"میانوالی ڈویژن","state":"پنجاب","ISO3166-2-lvl4":"PK-PB","country":"پاکستان","country_code":"pk"},"population":118883,"osm_type":"node","osm_id":281435046,"type":"city","location":[71.5239763,32.5705533],"bbox":[71.3639763,32.4105533,71.6839763,32.7305533]}
{"name":"میرپور خاص","other_names":{"name:ar":"ميربور خاص","name:bn":"মীরপুর খাস","name:de":"Mirpur Khas","name:en":"Mirpur Khas","name:es":"Mirpur Khas","name:et":"Mīrpur Khās","name:fa":"میرپور خاص","name:fr":"Mirpur Khas","name:hi":"मीरपुर ख़ास","name:ja":"ミールプル・ハース","name:kn":"ಮಿರ್ಪುರ್ ಖಾಸ್","name:ml":"മിർപൂർ ഖാസ്","name:ne":"मीरपुर खास","name:ru":"Мирпур-Хас","name:sd":"ميرپور خاص","name:sr":"Мирпур Хас","name:ur":"میرپور خاص","alt_name":"Mirpurkhas","name:pnb":"میرپور خاص"},"display_name":"میرپور خاص, تعلقہ میرپور خاص, ضلع میرپور خاص, میرپور خاص ڈویژن, سندھ, پاکستان","address":{"city":"میرپور خاص","county":"ضلع میرپور خاص","state_district":"میرپور خاص ڈویژن","state":"سندھ","ISO3166-2-lvl4":"PK-SD","country":"پاکستان","country_code":"pk"},"population":233916,"osm_type":"node","osm_id":1967476281,"type":"city","location":[69.0110617,25.5262817],"bbox":[68.8510617,25.3662817,69.1710617,25.6862817],"border":{"name":"تعلقہ میرپور خاص","other_names":{"name:en":"Mirpur Khas Taluka","name:sd":"ميرپور خاص تعلقو","name:ur":"تعلقہ میرپور خاص","name:pnb":"تعلقا میرپور خاص","alt_name:en":"Mirpur Khas Tehsil","alt_name:ur":"تحصیل میرپور خاص","name:ar":"ميربور خاص","name:bn":"মীরপুর খাস","name:de":"Mirpur Khas","name:es":"Mirpur Khas","name:et":"Mīrpur Khās","name:fa":"میرپور خاص","name:fr":"Mirpur Khas","name:hi":"मीरपुर ख़ास","name:ja":"ミールプル・ハース","name:kn":"ಮಿರ್ಪುರ್ ಖಾಸ್","name:ml":"മിർപൂർ ഖാസ്","name:ne":"मीरपुर खास","name:ru":"Мирпур-Хас","name:sr":"Мирпур Хас","alt_name":"Mirpurkhas","alt":"میرپور خاص","alt:en":"Mirpur Khas","alt:sd":"ميرپور خاص","alt:ur":"میرپور خاص","alt:pnb":"میرپور خاص"},"display_name":"تعلقہ میرپور خاص, ضلع میرپور خاص, میرپور خاص ڈویژن, سندھ, پاکستان","address":{"city":"تعلقہ میرپور خاص","county":"ضلع میرپور خاص","state_district":"میرپور خاص ڈویژن","state":"سندھ","ISO3166-2-lvl4":"PK-SD","country":"پاکستان","country_code":"pk"},"population":233916,"osm_type":"relation","osm_id":16383604,"type":"administrative","location":[69.0110617,25.5262817],"bbox":[68.9410509,25.4852662,69.0766527,25.5590519]}}
{"name":"میرپور ماتھیلو","other_names":{"name:en":"Mirpur Mathelo","name:ml":"മിർപൂർ മാത്തേലോ","name:ru":"Мирпурматхело","name:sd":"ميرپور ماٿيلو","name:ur":"میرپور ماتھیلو","name:pnb":"میرپور ماتھیلو"},"display_name":"میرپور ماتھیلو, تلعقہ میرپور ماتھیلو, ضلع گھوٹکی, سکھر ڈویژن, سندھ, پاکستان","address":{"city":"میرپور ماتھیلو","municipality":"تلعقہ میرپور ماتھیلو","county":"ضلع گھوٹکی","state_district":"سکھر ڈویژن","state":"سندھ","ISO3166-2-lvl4":"PK-SD","country":"پاکستان","country_code":"pk"},"population":100760,"osm_type":"node","osm_id":251327307,"type":"city","location":[69.5521553,28.0224685],"bbox":[69.3921553,27.8624685,69.7121553,28.1824685]}
{"name":"میرپور","other_names":{"name:ar":"مير بور","name:bn":"মীরপুর","name:de":"Mirpur","name:en":"Mirpur","name:es":"Mirpur","name:fr":"Mirpur","name:hi":"मीरपुर","name:hr":"Mirpur","name:ja":"ミルプル","name:ml":"മീർപുർ","name:pa":"ਮੀਰਪੁਰ","name:ru":"Мирпур","name:sl":"Mirpur","name:sr":"Мирпур","name:te":"మీర్పూర్","name:ur":"میرپور","name:zh":"米尔布尔","alt_name":"نیو میرپور شہر","name:pnb":"میرپور","alt_name:en":"New Mirpur City","name:pa:locative":"ਮੀਰਪੁਰੇ","name:pnb:locative":"میرپورے"},"display_name":"میرپور, تحصیل میرپور, ضلع میرپور, میرپور ڈویژن, آزاد کشمیر, 10250, پاکستان","address":{"city":"میرپور","municipality":"تحصیل میرپور","county":"ضلع میرپور","state_district":"میرپور ڈویژن","state":"آزاد کشمیر","ISO3166-2-lvl4":"PK-JK","postcode":"10250","country":"پاکستان","country_code":"pk"},"population":124350,"osm_type":"node","osm_id":2457145202,"type":"city","location":[73.7482102,33.1486351],"bbox":[73.5882102,32.9886351,73.9082102,33.3086351]}
{"name":"میلسی","other_names":{"name:ar":"ميلسي","name:de":"Mailsi","name:en":"Mailsi","name:es":"Mailsi","name:fa":"میلسی","name:fr":"Mailsi","name:ml":"മൈൽസി","name:ru":"Майлси","name:ur":"میلسی","name:pnb":"میلسی"},"display_name":"میلسی, تحصیل میلسی, ضلع وہاڑی, ملتان ڈویژن, پنجاب, 61200, پاکستان","address":{"city":"میلسی","subdistrict":"تحصیل میلسی","district":"ضلع وہاڑی","historical_division":"ملتان ڈویژن","state":"پنجاب","ISO3166-2-lvl4":"PK-PB","postcode":"61200","country":"پاکستان","country_code":"pk"},"population":82267,"osm_type":"node","osm_id":282300773,"type":"city","location":[72.1782366,29.7989371],"bbox":[72.0182366,29.6389371,72.3382366,29.9589371]}
{"name":"مینگورہ‎","other_names":{"name:be":"Мінгора","name:de":"Mingora","name:en":"Mingora","name:es":"Mingora","name:eu":"Mingora","name:fr":"Mingora","name:hi":"मिंगोरा","name:ml":"മിംഗോര","name:pa":"ਮਿੰਗੋਰਾ","name:pt":"Mingora","name:sr":"Мингаора","name:uk":"Мінгора","name:ur":"مینگورہ‎","name:zh":"明戈拉"},"display_name":"مینگورہ‎, تحصیل بابوزئی, ضلع سوات, مالاکنڈ ڈویژن, خیبر پختونخوا, 19130, پاکستان","address":{"city":"مینگورہ‎","municipality":"تحصیل بابوزئی","county":"ضلع سوات","state_district":"مالاکنڈ ڈویژن","state":"خیبر پختونخوا","ISO3166-2-lvl4":"PK-KP","postcode":"19130","country":"پاکستان","country_code":"pk"},"population":331091,"osm_type":"node","osm_id":4832577118,"type":"city","location":[72.3607712,34.7725375],"bbox":[72.2007712,34.6125375,72.5207712,34.9325375]}
{"name":"نارووال","other_names":{"name:en":"Narowal","name:fr":"Narowal","name:hi":"नारोवाल","name:ja":"ナーローアル","name:ml":"നാരോവാൽ","name:pa":"ਨਾਰੋਵਾਲ","name:ru":"Наровал","name:ur":"نارووال","name:pnb":"نارووال"},"display_name":"نارووال, تحصیل نارووال, ضلع نارووال, گوجرانوالہ ڈویژن, پنجاب, پاکستان","address":{"city":"نارووال","subdistrict":"تحصیل نارووال","district":"ضلع نارووال","state_district":"گوجرانوالہ ڈویژن","state":"پنجاب","ISO3166-2-lvl4":"PK-PB","country":"پاکستان","country_code":"pk"},"population":103067,"osm_type":"node","osm_id":282286030,"type":"city","location":[74.872238,32.1009752],"bbox":[74.712238,31.9409752,75.032238,32.2609752]}
{"name":"نوابشاہ","other_names":{"name:ar":"نواب شاه","name:bn":"নওয়াবশাহ","name:de":"Nawabshah","name:en":"Nawabshah","name:eu":"Nawabshah","name:fa":"نوابشاه","name:fr":"Nawabshah","name:hi":"नवाबशाह","name:hr":"Navabšah","name:ja":"ナワーブシャー","name:kn":"ನವಾಬ್ಶಾಹ್","name:ml":"നവാബ്ഷാ","name:pa":"ਨਵਾਬਸ਼ਾਹ","name:ps":"نواب شاه","name:ru":"Навабшах","name:sd":"نوابشاھ","name:sr":"Навабах","name:ur":"نوابشاہ","name:pnb":"نواب شاہ"},"display_name":"نوابشاہ, تعلقہ نوابشاہ, ضلع شہید بینظیر آباد, شہید بینظیر آباد ڈویژن, سندھ, پاکستان","address":{"city":"نوابشاہ","municipality":"تعلقہ نوابشاہ","county":"ضلع شہید بینظیر آباد","state_district":"شہید بینظیر آباد ڈویژن","state":"سندھ","ISO3166-2-lvl4":"PK-SD","country":"پاکستان","country_code":"pk"},"population":263102,"osm_type":"node","osm_id":89293667,"type":"city","location":[68.4040229,26.2452915],"bbox":[68.2440229,26.0852915,68.5640229,26.4052915]}
{"name":"نوشہرہ","other_names":{"name:ar":"نوشيرا","name:de":"Nowshera","name:en":"Nowshera","name:es":"Nowshera","name:et":"Nowshera","name:fa":"نوشهره","name:fr":"Nowshera","name:hi":"नोशहर","name:ja":"ノウシェラ","name:kn":"ನೌಶೇರ","name:ml":"നൗഷഹ്റ","name:ps":"نوښار","name:ru":"Наушахра","name:sd":"نوشھرہ","name:uk":"Ноушера","name:ur":"نوشہرہ‎","name:khw":"نوشہر","name:pnb":"نوشہرہ‎","alt_name:ml":"നൗഖാർ;നൗഷഹർ"},"display_name":"نوشہرہ, تحصیل نوشہرہ, ضلع نوشہرہ, پشاور ڈویژن, خیبر پختونخوا, پاکستان","address":{"city":"نوشہرہ","municipality":"تحصیل نوشہرہ","county":"ضلع نوشہرہ","state_district":"پشاور ڈویژن","state":"خیبر پختونخوا","ISO3166-2-lvl4":"PK-KP","country":"پاکستان","country_code":"pk"},"population":120131,"osm_type":"node","osm_id":90536341,"type":"city","location":[71.981283,34.0155606],"bbox":[71.821283,33.8555606,72.141283,34.1755606]}
{"name":"ہارون آباد","other_names":{"name:bn":"হারুনাবাদ","name:en":"Haroonabad","name:ml":"ഹാറൂണാബാദ്","name:ru":"Харунабад","name:ur":"ہارون آباد","name:pnb":"ہارون آباد"},"display_name":"ہارون آباد, تحصیل ہارون آباد, ضلع بہاولنگر, بہاولپور ڈویژن, پنجاب, پاکستان","address":{"city":"ہارون آباد","subdistrict":"تحصیل ہارون آباد","district":"ضلع بہاولنگر","state_district":"بہاولپور ڈویژن","state":"پنجاب","ISO3166-2-lvl4":"PK-PB","country":"پاکستان","country_code":"pk"},"population":107858,"osm_type":"node","osm_id":281996393,"type":"city","location":[73.1388889,29.6104977],"bbox":[72.9788889,29.4504977,73.2988889,29.7704977],"border":{"name":"ہارون آباد","other_names":{"name:en":"Haroonabad","name:bn":"হারুনাবাদ","name:ml":"ഹാറൂണാബാദ്","name:ru":"Харунабад","name:ur":"ہارون آباد","name:pnb":"ہارون آباد"},"display_name":"ہارون آباد, تحصیل ہارون آباد, ضلع بہاولنگر, بہاولپور ڈویژن, پنجاب, پاکستان","address":{"city":"ہارون آباد","subdistrict":"تحصیل ہارون آباد","district":"ضلع بہاولنگر","state_district":"بہاولپور ڈویژن","state":"پنجاب","ISO3166-2-lvl4":"PK-PB","country":"پاکستان","country_code":"pk"},"population":107858,"osm_type":"way","osm_id":618082182,"type":"city","location":[73.1388889,29.6104977],"bbox":[73.1209558,29.5925943,73.1653031,29.6291905]}}
{"name":"ہری پور","other_names":{"name:ar":"هري بور","name:bn":"হরিপুর","name:de":"Haripur","name:en":"Haripur","name:es":"Haripur","name:fa":"هری‌پور","name:fr":"Haripur","name:hi":"हरिपुर","name:ja":"ホリプール","name:ml":"ഹരിപൂർ","name:ps":"ولسوالۍ","name:ru":"Харипур","name:sd":"ھريپور","name:ur":"ہری پور","name:hnd":"ہری پور","name:hno":"ہری پور","name:pnb":"ہری پور","name:skr":"ہری پور"},"display_name":"ہری پور, تحصیل ہری پور, ضلع ہری پور, ہزارہ ڈویژن, خیبر پختونخوا, 22620, پاکستان","address":{"city":"ہری پور","municipality":"تحصیل ہری پور","county":"ضلع ہری پور","state_district":"ہزارہ ڈویژن","state":"خیبر پختونخوا","ISO3166-2-lvl4":"PK-KP","postcode":"22620","country":"پاکستان","country_code":"pk"},"population":85739,"osm_type":"node","osm_id":299277405,"type":"city","location":[72.9331737,33.9944889],"bbox":[72.7731737,33.8344889,73.0931737,34.1544889]}
{"name":"واہ","other_names":{"name:en":"Wah","name:fa":"واه","name:hi":"वाह","name:ml":"വാ","name:ur":"واہ","name:pnb":"واہ"},"display_name":"واہ, تحصیل ٹیکسلا, ضلع راولپنڈی, راولپنڈی ڈویژن, پنجاب, 47040, پاکستان","address":{"city":"واہ","municipality":"تحصیل ٹیکسلا","county":"ضلع راولپنڈی","state_district":"راولپنڈی ڈویژن","state":"پنجاب","ISO3166-2-lvl4":"PK-PB","postcode":"47040","country":"پاکستان","country_code":"pk"},"osm_type":"node","osm_id":9917192085,"type":"city","location":[72.7267564,33.7863064],"bbox":[72.5667564,33.6263064,72.8867564,33.9463064]}
{"name":"وزیر آباد","other_names":{"name:bn":"ওয়াজিরাবাদ","name:en":"Wazirabad","name:hi":"वज़ीराबाद","name:ja":"ワジラーバード","name:ml":"വസീറാബാദ്","name:pa":"ਵਜ਼ੀਰਾਬਾਦ","name:ru":"Вазирабад","name:ur":"وزیر آباد","name:zh":"沃济拉巴德","name:pnb":"وزیر آباد","alt_name:ur":"وزِيرآباد"},"display_name":"وزیر آباد, تحصيل وزير آباد, ضلع وزیر آباد, گجرات ڈویژن, پنجاب, 52000, پاکستان","address":{"city":"وزیر آباد","subdistrict":"تحصيل وزير آباد","county":"ضلع وزیر آباد","state_district":"گجرات ڈویژن","state":"پنجاب","ISO3166-2-lvl4":"PK-PB","postcode":"52000","country":"پاکستان","country_code":"pk"},"population":128060,"osm_type":"node","osm_id":281415318,"type":"city","location":[74.1182117,32.4417427],"bbox":[73.9582117,32.2817427,74.2782117,32.6017427],"border":{"name":"Wazirabad","display_name":"Wazirabad, تحصيل وزير آباد, ضلع وزیر آباد, گجرات ڈویژن, پنجاب, 52000, پاکستان","address":{"city":"Wazirabad","subdistrict":"تحصيل وزير آباد","county":"ضلع وزیر آباد","state_district":"گجرات ڈویژن","state":"پنجاب","ISO3166-2-lvl4":"PK-PB","postcode":"52000","country":"پاکستان","country_code":"pk"},"osm_type":"way","osm_id":1148152311,"type":"city","location":[74.13088162810784,32.433995249999995],"bbox":[74.0806939,32.4076135,74.1811587,32.4604418]}}
{"name":"وِہاڑی‎","other_names":{"name:en":"Vehari","name:hi":"वेहारी","name:ml":"വെഹാരി","name:pa":"ਵਿਹਾੜੀ","name:ps":"ويهاړي","name:sd":"وهاڙي","name:ur":"وہاڑی","name:pnb":"وہاڑی"},"display_name":"وِہاڑی‎, تحصیل وہاڑی, ضلع وہاڑی, ملتان ڈویژن, پنجاب, 61100, پاکستان","address":{"city":"وِہاڑی‎","subdistrict":"تحصیل وہاڑی","district":"ضلع وہاڑی","historical_division":"ملتان ڈویژن","state":"پنجاب","ISO3166-2-lvl4":"PK-PB","postcode":"61100","country":"پاکستان","country_code":"pk"},"osm_type":"node","osm_id":8455746340,"type":"city","location":[72.3489871,30.0447871],"bbox":[72.1889871,29.8847871,72.5089871,30.2047871],"border":{"name":"وہاڑی","other_names":{"name:ar":"وهاري","name:en":"Vehari","name:fa":"وهاری","name:ur":"وہاڑی"},"display_name":"وہاڑی, تحصیل وہاڑی, ضلع وہاڑی, ملتان ڈویژن, پنجاب, 61100, پاکستان","address":{"city":"وہاڑی","subdistrict":"تحصیل وہاڑی","district":"ضلع وہاڑی","historical_division":"ملتان ڈویژن","state":"پنجاب","ISO3166-2-lvl4":"PK-PB","postcode":"61100","country":"پاکستان","country_code":"pk"},"population":145464,"osm_type":"way","osm_id":680681312,"type":"city","location":[72.35635188697299,30.04804175],"bbox":[72.2883038,30.0194452,72.4162988,30.0774512]}}
