{"name":"Bhunya","display_name":"Bhunya, Inkhundla Mhlambanyatsi, Manzini, Eswatini","address":{"town":"Bhunya","county":"Inkhundla Mhlambanyatsi","state":"Manzini","ISO3166-2-lvl4":"SZ-MA","country":"Eswatini","country_code":"sz"},"osm_type":"node","osm_id":4415045766,"type":"town","location":[31.0113353,-26.540374],"bbox":[30.9713353,-26.580374,31.0513353,-26.500374]}
{"name":"Big Bend","display_name":"Big Bend, Inkhundla Nkilongo, Lubombo, Eswatini","address":{"town":"Big Bend","county":"Inkhundla Nkilongo","state":"Lubombo","ISO3166-2-lvl4":"SZ-LU","country":"Eswatini","country_code":"sz"},"osm_type":"node","osm_id":2277349166,"type":"town","location":[31.9383605,-26.7911213],"bbox":[31.8983605,-26.8311213,31.9783605,-26.7511213]}
{"name":"Buhleni","display_name":"Buhleni, Inkhundla Mayiwane, Hhohho, Eswatini","address":{"town":"Buhleni","county":"Inkhundla Mayiwane","state":"Hhohho","ISO3166-2-lvl4":"SZ-HH","country":"Eswatini","country_code":"sz"},"osm_type":"node","osm_id":6628631289,"type":"town","location":[31.5102678,-25.9229563],"bbox":[31.4702678,-25.9629563,31.5502678,-25.8829563]}
{"name":"Ezulwini","display_name":"Ezulwini, Inkhundla Lobamba, Hhohho, Eswatini","address":{"town":"Ezulwini","county":"Inkhundla Lobamba","state":"Hhohho","ISO3166-2-lvl4":"SZ-HH","country":"Eswatini","country_code":"sz"},"osm_type":"node","osm_id":4415037937,"type":"town","location":[31.178316,-26.4018193],"bbox":[31.138316,-26.4418193,31.218316,-26.3618193]}
{"name":"Gege","other_names":{"official_name":"Inkhundla Gege"},"display_name":"Gege, Inkhundla Gege, Shiselweni, Eswatini","address":{"town":"Gege","state":"Shiselweni","ISO3166-2-lvl4":"SZ-SH","country":"Eswatini","country_code":"sz"},"osm_type":"node","osm_id":9937239344,"type":"town","location":[31.0148871,-26.9672438],"bbox":[30.9748871,-27.0072438,31.0548871,-26.9272438],"border":{"name":"Inkhundla Gege","other_names":{"official_name":"Inkhundla Gege","alt":"Gege"},"display_name":"Inkhundla Gege, Shiselweni, Eswatini","address":{"town":"Inkhundla Gege","state":"Shiselweni","ISO3166-2-lvl4":"SZ-SH","country":"Eswatini","country_code":"sz"},"osm_type":"relation","osm_id":1253029,"type":"administrative","location":[31.0148871,-26.9672438],"bbox":[30.890428,-27.0863986,31.2146446,-26.77359]}}
{"name":"Hlatikulu","other_names":{"name:ru":"Хлатикулу"},"display_name":"Hlatikulu, Inkhundla Mtsambama, Shiselweni, Eswatini","address":{"town":"Hlatikulu","county":"Inkhundla Mtsambama","state":"Shiselweni","ISO3166-2-lvl4":"SZ-SH","country":"Eswatini","country_code":"sz"},"osm_type":"node","osm_id":908534612,"type":"town","location":[31.3255167,-26.9738777],"bbox":[31.2855167,-27.0138777,31.3655167,-26.9338777]}
{"name":"Hluti","other_names":{"alt_name":"Hluthi","old_name":"Sihlutse"},"display_name":"Hluti, Inkhundla Hosea, Shiselweni, Eswatini","address":{"town":"Hluti","county":"Inkhundla Hosea","state":"Shiselweni","ISO3166-2-lvl4":"SZ-SH","country":"Eswatini","country_code":"sz"},"osm_type":"node","osm_id":1469805713,"type":"town","location":[31.5576369,-27.2044278],"bbox":[31.5176369,-27.2444278,31.5976369,-27.1644278]}
{"name":"Lobamba","other_names":{"name:ar":"لوبامبا","name:az":"Lobamba","name:be":"Лабамба","name:bg":"Лабамба","name:bs":"Lobamba","name:ca":"Lobamba","name:cs":"Lobamba","name:de":"Lobamba","name:el":"Λομπάμπα","name:en":"Lobamba","name:eo":"Lobambo","name:es":"Lobamba","name:et":"Lobamba","name:eu":"Lobamba","name:fa":"لوبامبا","name:fi":"Lobamba","name:fr":"Lobamba","name:gd":"Lobamba","name:gl":"Lobamba","name:he":"לובמבה","name:hi":"लोबम्बा","name:ht":"Lobamba","name:hu":"Lobamba","name:hy":"Լոբամբա","name:id":"Lobamba","name:ie":"Lobamba","name:it":"Lobamba","name:ja":"ロバンバ","name:jv":"Lobamba","name:ka":"ლობამბა","name:ko":"로밤바","name:lt":"Lobamba","name:lv":"Lobamba","name:ms":"Lobamba","name:nl":"Lobamba","name:nn":"Lobamba","name:no":"Lobamba","name:oc":"Lobamba","name:pl":"Lobamba","name:ps":"لوبامبا","name:pt":"Lobamba","name:ro":"Lobamba","name:ru":"Лобамба","name:sc":"Lobamba","name:sh":"Lobamba","name:sk":"Lobamba","name:sn":"Lobamba","name:so":"Lobamba","name:sr":"Лобамба","name:ss":"Lobamba","name:sv":"Lobamba","name:sw":"Lobamba","name:ta":"லோபம்பா","name:tr":"Lobamba","name:uk":"Лобамба","name:ur":"لوبامبا","name:vi":"Lobamba","name:yo":"Lobamba","name:zh":"洛班巴","name:zu":"ILobamba","name:ast":"Lobamba","name:bcl":"Lobamba","name:cdo":"Lobamba","name:ceb":"Lobamba","name:ckb":"لۆبامبا","name:frr":"Lobamba","name:hif":"Lobamba","name:lmo":"Lobamba","name:nds":"Lobamba","name:pnb":"لوباما","name:smn":"Lobamba","name:vec":"Lobamba","name:war":"Lobamba","name:wuu":"洛班巴","name:xmf":"ლობამბა"},"display_name":"Lobamba, Inkhundla Lobamba, Hhohho, Eswatini","address":{"town":"Lobamba","county":"Inkhundla Lobamba","state":"Hhohho","ISO3166-2-lvl4":"SZ-HH","country":"Eswatini","country_code":"sz"},"population":11000,"osm_type":"node","osm_id":4415037938,"type":"town","location":[31.2083781,-26.4462848],"bbox":[31.1683781,-26.4862848,31.2483781,-26.4062848]}
{"name":"Lomahasha","display_name":"Lomahasha, Inkhundla Lomahasha, Lubombo, Eswatini","address":{"town":"Lomahasha","county":"Inkhundla Lomahasha","state":"Lubombo","ISO3166-2-lvl4":"SZ-LU","country":"Eswatini","country_code":"sz"},"osm_type":"node","osm_id":6615844882,"type":"town","location":[31.9965301,-25.9900748],"bbox":[31.9565301,-26.0300748,32.0365301,-25.9500748]}
{"name":"Luve","display_name":"Luve, Inkhundla Mkhiweni, Manzini, Eswatini","address":{"town":"Luve","county":"Inkhundla Mkhiweni","state":"Manzini","ISO3166-2-lvl4":"SZ-MA","country":"Eswatini","country_code":"sz"},"osm_type":"node","osm_id":6528192624,"type":"town","location":[31.4756155,-26.321335],"bbox":[31.4356155,-26.361335,31.5156155,-26.281335]}
{"name":"Malkerns","display_name":"Malkerns, Inkhundla Lobamba Lomdzala, Manzini, Eswatini","address":{"town":"Malkerns","county":"Inkhundla Lobamba Lomdzala","state":"Manzini","ISO3166-2-lvl4":"SZ-MA","country":"Eswatini","country_code":"sz"},"population":9724,"osm_type":"node","osm_id":2277192792,"type":"town","location":[31.189006,-26.531888],"bbox":[31.149006,-26.571888,31.229006,-26.491888]}
{"name":"Matsapha","display_name":"Matsapha, Inkhundla Kwaluseni, Manzini, M202, Eswatini","address":{"town":"Matsapha","county":"Inkhundla Kwaluseni","state":"Manzini","ISO3166-2-lvl4":"SZ-MA","postcode":"M202","country":"Eswatini","country_code":"sz"},"osm_type":"node","osm_id":4415037936,"type":"town","location":[31.308351,-26.494482],"bbox":[31.268351,-26.534482,31.348351,-26.454482]}
{"name":"Mpaka","other_names":{"alt_name":"Empaka"},"display_name":"Mpaka, Inkhundla Dvokodvweni, Lubombo, Eswatini","address":{"town":"Mpaka","county":"Inkhundla Dvokodvweni","state":"Lubombo","ISO3166-2-lvl4":"SZ-LU","country":"Eswatini","country_code":"sz"},"osm_type":"node","osm_id":4285889417,"type":"town","location":[31.776236,-26.412793],"bbox":[31.736236,-26.452793,31.816236,-26.372793]}
{"name":"Ngomane","display_name":"Ngomane, Inkhundla Mhlume, Lubombo, Eswatini","address":{"town":"Ngomane","county":"Inkhundla Mhlume","state":"Lubombo","ISO3166-2-lvl4":"SZ-LU","country":"Eswatini","country_code":"sz"},"osm_type":"node","osm_id":11013242957,"type":"town","location":[31.8138634,-26.1959024],"bbox":[31.7738634,-26.2359024,31.8538634,-26.1559024]}
{"name":"Nhlangano","other_names":{"name:ru":"Нхлангано"},"display_name":"Nhlangano, Inkhundla Mbangweni, Shiselweni, Eswatini","address":{"town":"Nhlangano","county":"Inkhundla Mbangweni","state":"Shiselweni","ISO3166-2-lvl4":"SZ-SH","country":"Eswatini","country_code":"sz"},"osm_type":"node","osm_id":2276754230,"type":"town","location":[31.200679,-27.112694],"bbox":[31.160679,-27.152694,31.240679,-27.072694]}
{"name":"Piggs Peak","other_names":{"name:ru":"Пигс-Пик"},"display_name":"Piggs Peak, Inkhundla Piggs Peak, Hhohho, Eswatini","address":{"town":"Piggs Peak","county":"Inkhundla Piggs Peak","state":"Hhohho","ISO3166-2-lvl4":"SZ-HH","country":"Eswatini","country_code":"sz"},"osm_type":"node","osm_id":59732385,"type":"town","location":[31.247642,-25.9616997],"bbox":[31.207642,-26.0016997,31.287642,-25.9216997]}
{"name":"Simunye","display_name":"Simunye, Inkhundla Mhlume, Lubombo, Eswatini","address":{"town":"Simunye","county":"Inkhundla Mhlume","state":"Lubombo","ISO3166-2-lvl4":"SZ-LU","country":"Eswatini","country_code":"sz"},"population":18350,"osm_type":"node","osm_id":4415037935,"type":"town","location":[31.9195,-26.208449],"bbox":[31.8795,-26.248449,31.9595,-26.168449]}
{"name":"Siteki","display_name":"Siteki, Inkhundla Lugongolweni, Lubombo, L300, Eswatini","address":{"town":"Siteki","county":"Inkhundla Lugongolweni","state":"Lubombo","ISO3166-2-lvl4":"SZ-LU","postcode":"L300","country":"Eswatini","country_code":"sz"},"osm_type":"node","osm_id":2330307546,"type":"town","location":[31.9463149,-26.4536442],"bbox":[31.9063149,-26.4936442,31.9863149,-26.4136442]}
