{"name":"Manzini","other_names":{"name:ar":"منزيني","name:ko":"만지니"},"display_name":"Manzini, Inkhundla Manzini, Manzini, M100, Eswatini","address":{"city":"Manzini","county":"Inkhundla Manzini","state":"Manzini","ISO3166-2-lvl4":"SZ-MA","postcode":"M100","country":"Eswatini","country_code":"sz"},"population":110508,"osm_type":"node","osm_id":243838438,"type":"city","location":[31.3750815,-26.4976444],"bbox":[31.2150815,-26.6576444,31.5350815,-26.3376444]}
{"name":"Mbabane","other_names":{"name:am":"ምባባኔ","name:an":"Mbabane","name:ar":"مبابان","name:az":"Mbabane","name:ba":"Мбабане","name:be":"Мбабанэ","name:bg":"Мбабане","name:bm":"Mbabane","name:bn":"এম্বাবানে","name:bo":"མ་པ་པན།","name:br":"Mbabane","name:bs":"Mbabane","name:ca":"Mbabane","name:ce":"Мбабане","name:cs":"Mbabane","name:cy":"Mbabane","name:da":"Mbabane","name:de":"Mbabane","name:el":"Μπαμπάνε","name:en":"Mbabane","name:eo":"Mbabano","name:es":"Mbabane","name:et":"Mbabane","name:eu":"Mbabane","name:fa":"مبابانه","name:fi":"Mbabane","name:fr":"Mbabane","name:ga":"Mbabane","name:gd":"Mbabane","name:gl":"Mbabane","name:ha":"Mbabane","name:he":"מבבנה","name:hi":"मबैब्ने","name:hr":"Mbabane","name:ht":"Mbabàn","name:hu":"Mbabane","name:hy":"Մբաբանե","name:ia":"Mbabane","name:id":"Mbabane","name:ie":"Mbabane","name:io":"Mbabane","name:is":"Mbabane","name:it":"Mbabane","name:ja":"ムババーネ","name:jv":"Mbabane","name:ka":"მბაბანე","name:kg":"Mbabane","name:ko":"음바바네","name:ky":"Мбабане","name:la":"Mbabane","name:lb":"Mbabane","name:lt":"Mbabanė","name:lv":"Mbabane","name:mg":"Mbabane","name:mk":"Мбабане","name:ml":"എംബബാനി","name:mr":"अंबाबाने","name:ms":"Mbabane","name:nl":"Mbabane","name:nn":"Mbabane","name:no":"Mbabane","name:ny":"Mbabane","name:oc":"Mbabane","name:os":"Мбабане","name:pa":"ਅੰਬਾਬਾਨੇ","name:pl":"Mbabane","name:ps":"مبابانه","name:pt":"Mbabane","name:ro":"Mbabane","name:ru":"Мбабане","name:sc":"Mbabane","name:se":"Mbabane","name:sh":"Mbabane","name:sk":"Mbabane","name:sl":"Mbabane","name:sn":"Mbabane","name:so":"Mabane","name:sq":"Mbabane","name:sr":"Мбабане","name:ss":"ÉMbábáne","name:sv":"Mbabane","name:sw":"Mbabane","name:ta":"இம்பபான்","name:tg":"Мбабане","name:th":"อัมบาบาเน","name:tl":"Mbabane","name:tr":"Mbabane","name:uk":"Мбабане","name:ur":"مبابنے","name:uz":"Mbabane","name:vi":"Mbabane","name:yi":"מבאבאנע","name:yo":"Mbabane","name:zh":"姆巴巴內","name:zu":"IMbabane","name:ast":"Mbabane","name:avk":"Mbabane","name:bcl":"Mbabane","name:cdo":"Mbabane","name:ceb":"Mbabane","name:ckb":"مبابانێ","name:frr":"Mbabane","name:hak":"Mbabane","name:hif":"Mbabane","name:kab":"Mbabane","name:lij":"Mbabane","name:lmo":"Mbabane","name:nah":"Mbabane","name:nds":"Mbabane","name:pms":"Mbabane","name:pnb":"مبابین","name:sco":"Mbabane","name:smn":"Mbabane","name:szl":"Mbabane","name:udm":"Мбабане","name:vec":"Mbabane","name:vep":"Mbabane","name:war":"Mbabane","name:wuu":"姆巴巴内","name:xmf":"მბაბანე"},"display_name":"Mbabane, Inkhundla Mbabane, Hhohho, H100, Eswatini","address":{"city":"Mbabane","county":"Inkhundla Mbabane","state":"Hhohho","ISO3166-2-lvl4":"SZ-HH","postcode":"H100","country":"Eswatini","country_code":"sz"},"population":94874,"osm_type":"node","osm_id":243837793,"type":"city","location":[31.144663,-26.325745],"bbox":[30.984663,-26.485745,31.304663,-26.165745]}
