{"name":"Blantyre","other_names":{"name:ar":"بلانتاير","name:de":"Blantyre","name:it":"Blantyre","name:ja":"ブランタイヤ","name:ko":"블랜타이어","name:pl":"Blantyre","name:pt":"Blantyre","name:ru":"Блантайр","name:zh":"布兰太尔"},"display_name":"Blantyre, Southern Region, Malawi","address":{"city":"Blantyre","state":"Blantyre","ISO3166-2-lvl4":"MW-BL","region":"Southern Region","ISO3166-2-lvl3":"MW-S","country":"Malawi","country_code":"mw"},"population":994500,"osm_type":"node","osm_id":27565113,"type":"city","location":[35.0035694,-15.7862543],"bbox":[34.8435694,-15.9462543,35.1635694,-15.6262543]}
{"name":"Lilongwe","other_names":{"name:ar":"ليلونغوي","name:ca":"Lilongwe","name:en":"Lilongwe","name:eo":"Lilongvo","name:es":"Lilongüe","name:fr":"Lilongwe","name:hu":"Lilongwe","name:ko":"릴롱궤","name:ml":"ലിലോംഗ്വേ","name:oc":"Lilongwe","name:pl":"Lilongwe","name:pt":"Lilôngué","name:ru":"Лилонгве","name:sv":"Lilongwe","name:ta":"லிலொங்வே","name:tr":"Lilongve","name:uk":"Лілонгве","name:zh":"利隆圭"},"display_name":"Lilongwe, Central Region, Malawi","address":{"city":"Lilongwe","state":"Lilongwe","ISO3166-2-lvl4":"MW-LI","region":"Central Region","ISO3166-2-lvl3":"MW-C","country":"Malawi","country_code":"mw"},"population":781538,"osm_type":"node","osm_id":6765699485,"type":"city","location":[33.768144,-13.9875107],"bbox":[33.608144,-14.1475107,33.928144,-13.8275107]}
{"name":"Limbe","display_name":"Limbe, Blantyre, Southern Region, Malawi","address":{"city":"Limbe","state":"Blantyre","ISO3166-2-lvl4":"MW-BL","region":"Southern Region","ISO3166-2-lvl3":"MW-S","country":"Malawi","country_code":"mw"},"population":7438,"osm_type":"node","osm_id":264951312,"type":"city","location":[35.0525005,-15.8074399],"bbox":[34.8925005,-15.9674399,35.2125005,-15.6474399]}
{"name":"Mzuzu","other_names":{"name:en":"Mzuzu","name:ko":"음주주","name:ru":"Мзузу","name:uk":"Мзузу"},"display_name":"Mzuzu, Mzimba, Northern Region, Malawi","address":{"city":"Mzuzu","state":"Mzimba","ISO3166-2-lvl4":"MW-MZ","region":"Northern Region","ISO3166-2-lvl3":"MW-N","country":"Malawi","country_code":"mw"},"population":150100,"osm_type":"node","osm_id":262183934,"type":"city","location":[34.0226422,-11.4607518],"bbox":[33.8626422,-11.6207518,34.1826422,-11.3007518]}
{"name":"Zomba","other_names":{"name:ko":"좀바","name:ru":"Зомба"},"display_name":"Zomba, Southern Region, Malawi","address":{"city":"Zomba","state":"Zomba","ISO3166-2-lvl4":"MW-ZO","region":"Southern Region","ISO3166-2-lvl3":"MW-S","country":"Malawi","country_code":"mw"},"population":101140,"osm_type":"node","osm_id":265772769,"type":"city","location":[35.3268273,-15.3863208],"bbox":[35.1668273,-15.5463208,35.4868273,-15.2263208]}
