{"name":"Donji Suvi Do","other_names":{"name:sq":"Suhodoll i Poshtëm","name:sr":"Доњи Суви До","name:sr-Latn":"Donji Suvi Do"},"display_name":"Donji Suvi Do, Opština Severna Kosovska Mitrovica / Komuna e Mitrovicës Veriore, Rajoni i Mitrovicës / Kosovskomitrovački okrug, Kosova / Kosovo","address":{"city":"Donji Suvi Do","municipality":"Opština Severna Kosovska Mitrovica / Komuna e Mitrovicës Veriore","district":"Rajoni i Mitrovicës / Kosovskomitrovački okrug","country":"Kosova / Kosovo","country_code":"xk"},"osm_type":"relation","osm_id":8832386,"type":"administrative","location":[20.82937437720258,42.8900345],"bbox":[20.8218955,42.8843688,20.8420015,42.8959733],"inferred_type":"city"}
{"name":"Ferizaj","other_names":{"name:ar":"فريزاي","name:de":"Ferizaj","name:en":"Ferizaj","name:es":"Ferizaj","name:fr":"Ferizaj","name:hr":"Uroševac","name:hu":"Ferizaj","name:mk":"Урошевац","name:ml":"ഫെറിസായ്","name:ru":"Урошевац","name:sq":"Ferizaj","name:sr":"Урошевац","name:uk":"Феризай","name:sr-Latn":"Uroševac"},"display_name":"Ferizaj, Komuna e Ferizajt / Opština Uroševac, Rajoni i Ferizajt / Uroševački okrug, Kosova / Kosovo","address":{"city":"Ferizaj","municipality":"Komuna e Ferizajt / Opština Uroševac","district":"Rajoni i Ferizajt / Uroševački okrug","country":"Kosova / Kosovo","country_code":"xk"},"population":42628,"osm_type":"node","osm_id":1905560456,"type":"city","location":[21.1532848,42.3682168],"bbox":[20.9932848,42.2082168,21.3132848,42.5282168],"border":{"name":"Ferizaj","other_names":{"name:cs":"Uroševac","name:hr":"Uroševac","name:mk":"Урошевац","name:ru":"Урошевац","name:sr":"Урошевац","name:sr-Latn":"Uroševac","name:ar":"فريزاي","name:de":"Ferizaj","name:en":"Ferizaj","name:es":"Ferizaj","name:fr":"Ferizaj","name:hu":"Ferizaj","name:ml":"ഫെറിസായ്","name:sq":"Ferizaj","name:uk":"Феризай"},"display_name":"Ferizaj, Komuna e Ferizajt / Opština Uroševac, Rajoni i Ferizajt / Uroševački okrug, Kosova / Kosovo","address":{"city":"Ferizaj","municipality":"Komuna e Ferizajt / Opština Uroševac","district":"Rajoni i Ferizajt / Uroševački okrug","country":"Kosova / Kosovo","country_code":"xk"},"population":42628,"osm_type":"relation","osm_id":8598644,"type":"administrative","location":[21.1532848,42.3682168],"bbox":[21.1142451,42.3561495,21.1885589,42.3875397]}}
{"name":"Gjakovë","other_names":{"name:ar":"جاكوفا","name:bg":"Дяково","name:cs":"Đakovica","name:de":"Gjakova","name:el":"Τζακόβιτσα","name:en":"Gjakova","name:eo":"Gjakova","name:es":"Gjakova","name:fa":"جاکوویسا","name:fi":"Gjakova","name:fr":"Đakovica","name:ga":"Gjakova","name:he":"ג'קובה","name:hr":"Đakovica","name:hy":"Ջյակովիցա","name:id":"Gjakova","name:it":"Gjakova","name:ja":"ジャコヴァ","name:ko":"자코바","name:lb":"Gjakova","name:lt":"Džiakovica","name:mk":"Ѓаковица","name:ml":"ജാക്കോവ","name:nb":"Gjakova","name:nn":"Gjakova","name:pl":"Djakowica","name:pt":"Đakovica","name:ro":"Đakovica","name:ru":"Джяковица","name:sl":"Đakovica","name:sq":"Gjakovë","name:sr":"Ђаковица","name:sv":"Gjakova","name:tr":"Yakova","name:uk":"Джяковиця","name:ur":"گیاکووا","name:zh":"贾科维察","alt_name":"Gjakova","int_name":"Djakovica","name:sr-Latn":"Đakovica"},"display_name":"Gjakovë, Komuna e Gjakovës / Opština Ðakovica, Rajoni i Gjakovës / Đakovički okrug, 50000, Kosova / Kosovo","address":{"city":"Gjakovë","municipality":"Komuna e Gjakovës / Opština Ðakovica","district":"Rajoni i Gjakovës / Đakovički okrug","postcode":"50000","country":"Kosova / Kosovo","country_code":"xk"},"population":40827,"osm_type":"node","osm_id":1530391541,"type":"city","location":[20.4316226,42.3798793],"bbox":[20.2716226,42.2198793,20.5916226,42.5398793]}
{"name":"Gjilan","other_names":{"name:ar":"جيلان","name:de":"Gjilan","name:en":"Gjilan","name:es":"Gnjilane","name:fr":"Gjilane","name:hr":"Gnjilane","name:mk":"Гнилане","name:ml":"ഗീലാൻ","name:ru":"Гнилане","name:sl":"Gnjilane","name:sq":"Gjilan","name:sr":"Гњилане","name:tr":"Gilan","name:uk":"Г'їлані","name:sr-Latn":"Gnjilane"},"display_name":"Gjilan, Komuna e Gjilanit / Opština Gnjilane / Gilan Belediyesi, Rajoni i Gjilanit / Gnjilanski okrug, Kosova / Kosovo","address":{"city":"Gjilan","municipality":"Komuna e Gjilanit / Opština Gnjilane / Gilan Belediyesi","district":"Rajoni i Gjilanit / Gnjilanski okrug","country":"Kosova / Kosovo","country_code":"xk"},"population":54239,"osm_type":"node","osm_id":6352912023,"type":"city","location":[21.4693599,42.463515],"bbox":[21.3093599,42.303515,21.6293599,42.623515],"border":{"name":"Gjilan","other_names":{"name:mk":"Гнилане","name:sr":"Гњилане","name:sr-Latn":"Gnjilane","name:ar":"جيلان","name:de":"Gjilan","name:en":"Gjilan","name:es":"Gnjilane","name:fr":"Gjilane","name:hr":"Gnjilane","name:ml":"ഗീലാൻ","name:ru":"Гнилане","name:sl":"Gnjilane","name:sq":"Gjilan","name:tr":"Gilan","name:uk":"Г'їлані"},"display_name":"Gjilan, Komuna e Gjilanit / Opština Gnjilane / Gilan Belediyesi, Rajoni i Gjilanit / Gnjilanski okrug, Kosova / Kosovo","address":{"city":"Gjilan","municipality":"Komuna e Gjilanit / Opština Gnjilane / Gilan Belediyesi","district":"Rajoni i Gjilanit / Gnjilanski okrug","country":"Kosova / Kosovo","country_code":"xk"},"population":54239,"osm_type":"relation","osm_id":9046423,"type":"administrative","location":[21.4693599,42.463515],"bbox":[21.4373902,42.4351285,21.4964796,42.4861846]}}
{"name":"Mitrovicë","other_names":{"name:ar":"ميتروفيتسا","name:de":"Mitrovicë","name:el":"Μιτρόβιτσα","name:en":"Mitrovica","name:es":"Mitrovica","name:fr":"Mitrovica","name:hr":"Kosovska Mitrovica","name:mk":"Косовска Митровица","name:ml":"മിട്രോവിക്ക","name:ru":"Косовска-Митровица","name:sq":"Mitrovicë","name:sr":"Косовска Митровица","name:uk":"Митровиця","alt_name":"Mitrovica","alt_name:hr":"Mitrovica","alt_name:mk":"Митровица","alt_name:sq":"Mitrovica","alt_name:sr":"Митровица","name:sr-Latn":"Kosovska Mitrovica","alt_name:sr-Latn":"Mitrovica","old_name:1981-1991":"Titova Mitrovica"},"display_name":"Mitrovicë, Komuna e Mitrovicës / Opština Kosovska Mitrovica, Rajoni i Mitrovicës / Kosovskomitrovački okrug, 40010, Kosova / Kosovo","address":{"city":"Mitrovicë","municipality":"Komuna e Mitrovicës / Opština Kosovska Mitrovica","district":"Rajoni i Mitrovicës / Kosovskomitrovački okrug","postcode":"40010","country":"Kosova / Kosovo","country_code":"xk"},"population":46132,"osm_type":"node","osm_id":1640485042,"type":"city","location":[20.8657862,42.8790424],"bbox":[20.7057862,42.7190424,21.0257862,43.0390424],"border":{"name":"Mitrovicë","display_name":"Mitrovicë, Komuna e Mitrovicës / Opština Kosovska Mitrovica, Rajoni i Mitrovicës / Kosovskomitrovački okrug, 40010, Kosova / Kosovo","address":{"city_district":"Mitrovicë","municipality":"Komuna e Mitrovicës / Opština Kosovska Mitrovica","district":"Rajoni i Mitrovicës / Kosovskomitrovački okrug","postcode":"40010","country":"Kosova / Kosovo","country_code":"xk"},"osm_type":"relation","osm_id":16189810,"type":"administrative","location":[20.861062016383134,42.882416250000006],"bbox":[20.8462553,42.8603844,20.8949027,42.9039809]}}
{"name":"Pejë","other_names":{"name:ar":"بيخا","name:bs":"Peć","name:de":"Peja","name:el":"Πετς","name:es":"Peć","name:fr":"Peć","name:hr":"Peć","name:mk":"Пеќ","name:ml":"പേഖ","name:ru":"Печ","name:sq":"Pejë","name:sr":"Пећ","name:tr":"İpek","name:uk":"Печ","alt_name":"Peja","name:sr-Latn":"Peć"},"display_name":"Pejë, Komuna e Pejës / Opština Peć, Rajoni i Pejës / Pećki okrug, 30000, Kosova / Kosovo","address":{"city":"Pejë","municipality":"Komuna e Pejës / Opština Peć","district":"Rajoni i Pejës / Pećki okrug","postcode":"30000","country":"Kosova / Kosovo","country_code":"xk"},"population":48962,"osm_type":"node","osm_id":3075195901,"type":"city","location":[20.2885757,42.6593986],"bbox":[20.1285757,42.4993986,20.4485757,42.8193986]}
{"name":"Podujevë","other_names":{"name:de":"Podujeva","name:hr":"Podujevo","name:mk":"Подуево","name:ml":"പോഡുയേവോ","name:ru":"Подуево","name:sq":"Podujevë","name:sr":"Подујево","alt_name":"Besianë","alt_name:mk":"Подујево","name:sr-Latn":"Podujevo"},"display_name":"Podujevë, Komuna e Podujevës / Opština Podujevo, Rajoni i Prishtinës / Prištinski okrug, 11000, Kosova / Kosovo","address":{"city":"Podujevë","municipality":"Komuna e Podujevës / Opština Podujevo","district":"Rajoni i Prishtinës / Prištinski okrug","postcode":"11000","country":"Kosova / Kosovo","country_code":"xk"},"population":31417,"osm_type":"node","osm_id":299447753,"type":"city","location":[21.1925286,42.9078011],"bbox":[21.0325286,42.7478011,21.3525286,43.0678011]}
{"name":"Prishtinë","other_names":{"name:af":"Pristina","name:am":"ፕርሽቲና","name:an":"Pristina","name:ar":"بريشتينا","name:az":"Priştina","name:ba":"Приштина","name:be":"Прышціна","name:bg":"Прищина","name:bn":"প্রিস্টিনা","name:bo":"པི་རི་སི་ཊི་ན།","name:br":"Prishtina","name:bs":"Priština","name:ca":"Pristina","name:ce":"Приштина","name:cs":"Priština","name:cy":"Prishtina","name:da":"Pristina","name:de":"Pristina","name:el":"Πρίστινα","name:en":"Pristina","name:eo":"Priŝtino","name:es":"Pristina","name:et":"Priština","name:eu":"Pristina","name:fa":"پریشتینا","name:fi":"Pristina","name:fr":"Pristina","name:fy":"Pristina","name:ga":"Pristine","name:gd":"Prishtina","name:gl":"Pristina","name:gv":"Prishtina","name:he":"פרישטינה","name:hr":"Priština","name:hu":"Pristina","name:hy":"Պրիշտինա","name:ia":"Pristina","name:id":"Pristina","name:ie":"Priština","name:io":"Prishtina","name:is":"Pristína","name:it":"Pristina","name:ja":"プリシュティナ","name:jv":"Priština","name:ka":"პრიშტინა","name:kk":"Приштина","name:ko":"프리슈티나","name:ku":"Priştîna","name:kw":"Prishtina","name:la":"Pristina","name:lb":"Pristina","name:li":"Pristina","name:lt":"Priština","name:lv":"Priština","name:mg":"Pristina","name:mk":"Приштина","name:ml":"പ്രിസ്റ്റീന","name:mn":"Приштина","name:mr":"प्रिस्टिना","name:ms":"Priština","name:mt":"Prixtina","name:nb":"Priština","name:nl":"Pristina","name:nn":"Prishtina","name:oc":"Prishtina","name:os":"Приштинæ","name:pa":"ਪ੍ਰਿਸ਼ਤੀਨਾ","name:pl":"Prisztina","name:ps":"پریشتینا","name:pt":"Pristina","name:ro":"Priștina","name:ru":"Приштина","name:sc":"Pristina","name:sk":"Priština","name:sl":"Priština","name:sm":"Pristina","name:sn":"Pristina","name:sq":"Prishtinë","name:sr":"Приштина","name:sv":"Pristina","name:sw":"Prishtina","name:ta":"பிரிஸ்டினா","name:th":"พริสตีนา","name:tr":"Priştine","name:tt":"Приштина","name:uk":"Приштина","name:ur":"پرسٹینا","name:uz":"Prishtina","name:vi":"Priština","name:vo":"Prijtina","name:yo":"Pristina","name:zh":"普里什蒂纳 / 普里斯提納","alt_name":"Pristina","name:kab":"Pristina","alt_name:sq":"Prishtina","name:sr-Latn":"Priština","name:zh-Hans":"普里什蒂纳","name:zh-Hant":"普里斯提納","name:be-tarask":"Прышціна"},"display_name":"Prishtinë, Komuna e Prishtinës / Opština Priština, Rajoni i Prishtinës / Prištinski okrug, 10000, Kosova / Kosovo","address":{"city":"Prishtinë","municipality":"Komuna e Prishtinës / Opština Priština","district":"Rajoni i Prishtinës / Prištinski okrug","postcode":"10000","country":"Kosova / Kosovo","country_code":"xk"},"population":161751,"osm_type":"node","osm_id":2885136501,"type":"city","location":[21.1640849,42.6638771],"bbox":[21.0040849,42.5038771,21.3240849,42.8238771],"border":{"name":"Prishtinë","other_names":{"name:be":"Прышціна","name:ca":"Pristina","name:de":"Pristina","name:en":"Pristina","name:fr":"Pristina","name:it":"Pristina","name:mk":"Приштина","name:ml":"പ്രിസ്റ്റീന","name:sk":"Priština","name:sl":"Priština","name:sq":"Prishtinë","name:tr":"Priştine","name:zh":"普里什蒂纳 / 普里斯提納","name:sr-Latn":"Priština","name:zh-Hans":"普里什蒂纳","name:zh-Hant":"普里斯提納","name:af":"Pristina","name:am":"ፕርሽቲና","name:an":"Pristina","name:ar":"بريشتينا","name:az":"Priştina","name:ba":"Приштина","name:bg":"Прищина","name:bn":"প্রিস্টিনা","name:bo":"པི་རི་སི་ཊི་ན།","name:br":"Prishtina","name:bs":"Priština","name:ce":"Приштина","name:cs":"Priština","name:cy":"Prishtina","name:da":"Pristina","name:el":"Πρίστινα","name:eo":"Priŝtino","name:es":"Pristina","name:et":"Priština","name:eu":"Pristina","name:fa":"پریشتینا","name:fi":"Pristina","name:fy":"Pristina","name:ga":"Pristine","name:gd":"Prishtina","name:gl":"Pristina","name:gv":"Prishtina","name:he":"פרישטינה","name:hr":"Priština","name:hu":"Pristina","name:hy":"Պրիշտինա","name:ia":"Pristina","name:id":"Pristina","name:ie":"Priština","name:io":"Prishtina","name:is":"Pristína","name:ja":"プリシュティナ","name:jv":"Priština","name:ka":"პრიშტინა","name:kk":"Приштина","name:ko":"프리슈티나","name:ku":"Priştîna","name:kw":"Prishtina","name:la":"Pristina","name:lb":"Pristina","name:li":"Pristina","name:lt":"Priština","name:lv":"Priština","name:mg":"Pristina","name:mn":"Приштина","name:mr":"प्रिस्टिना","name:ms":"Priština","name:mt":"Prixtina","name:nb":"Priština","name:nl":"Pristina","name:nn":"Prishtina","name:oc":"Prishtina","name:os":"Приштинæ","name:pa":"ਪ੍ਰਿਸ਼ਤੀਨਾ","name:pl":"Prisztina","name:ps":"پریشتینا","name:pt":"Pristina","name:ro":"Priștina","name:ru":"Приштина","name:sc":"Pristina","name:sm":"Pristina","name:sn":"Pristina","name:sr":"Приштина","name:sv":"Pristina","name:sw":"Prishtina","name:ta":"பிரிஸ்டினா","name:th":"พริสตีนา","name:tt":"Приштина","name:uk":"Приштина","name:ur":"پرسٹینا","name:uz":"Prishtina","name:vi":"Priština","name:vo":"Prijtina","name:yo":"Pristina","alt_name":"Pristina","name:kab":"Pristina","alt_name:sq":"Prishtina","name:be-tarask":"Прышціна"},"display_name":"Prishtinë, Komuna e Prishtinës / Opština Priština, Rajoni i Prishtinës / Prištinski okrug, Kosova / Kosovo","address":{"city":"Prishtinë","municipality":"Komuna e Prishtinës / Opština Priština","district":"Rajoni i Prishtinës / Prištinski okrug","country":"Kosova / Kosovo","country_code":"xk"},"population":145149,"osm_type":"relation","osm_id":7118787,"type":"administrative","location":[21.1640849,42.6638771],"bbox":[21.1066198,42.6290946,21.2136267,42.696965]}}
{"name":"Prizren","other_names":{"name:ar":"بريزرن","name:de":"Prizren","name:el":"Πρίζρεν","name:en":"Prizren","name:es":"Prizren","name:fr":"Prizren","name:gl":"Prizren","name:hr":"Prizren","name:lt":"Prizrenas","name:lv":"Prizrena","name:mk":"Призрен","name:ml":"പ്രിസ്രൻ","name:pt":"Prizren","name:ru":"Призрен","name:sl":"Prizren","name:sq":"Prizren","name:sr":"Призрен","name:tr":"Prizren","name:uk":"Призрен","alt_name:sq":"Prizreni;Prizrend","name:sr-Latn":"Prizren"},"display_name":"Prizren, Komuna e Prizrenit / Opština Prizren / Prizren Belediyesi, Rajoni i Prizrenit / Prizrenski okrug, 20080, Kosova / Kosovo","address":{"city":"Prizren","municipality":"Komuna e Prizrenit / Opština Prizren / Prizren Belediyesi","district":"Rajoni i Prizrenit / Prizrenski okrug","postcode":"20080","country":"Kosova / Kosovo","country_code":"xk"},"population":85119,"osm_type":"node","osm_id":150906142,"type":"city","location":[20.7363339,42.2130151],"bbox":[20.5763339,42.0530151,20.8963339,42.3730151]}
