{"name":"Deçan","other_names":{"name:de":"Deçan","name:en":"Deçan","name:hr":"Dečani","name:mk":"Дечани","name:ru":"Дечане","name:sq":"Deçan","name:sr":"Дечане","name:zh":"代查尼","alt_name:sr":"Дечани","name:sr-Latn":"Dečane","alt_name:sr-Latn":"Dečani"},"display_name":"Deçan, Komuna e Deçanit / Opština Dečane, Rajoni i Gjakovës / Đakovički okrug, 51000, Kosova / Kosovo","address":{"town":"Deçan","municipality":"Komuna e Deçanit / Opština Dečane","district":"Rajoni i Gjakovës / Đakovički okrug","postcode":"51000","country":"Kosova / Kosovo","country_code":"xk"},"population":3803,"osm_type":"node","osm_id":1839805748,"type":"town","location":[20.2882372,42.5402266],"bbox":[20.2482372,42.5002266,20.3282372,42.5802266]}
{"name":"Dragash","other_names":{"name:en":"Dragash","name:hr":"Dragaš","name:mk":"Драгаш","name:sq":"Dragash","name:sr":"Драгаш","alt_name":"Sharr","name:sr-Latn":"Dragaš"},"display_name":"Dragash, Dragaš - Dragash, Komuna e Dragashit / Opština Dragaš, Rajoni i Prizrenit / Prizrenski okrug, Kosova / Kosovo","address":{"town":"Dragash","municipality":"Komuna e Dragashit / Opština Dragaš","district":"Rajoni i Prizrenit / Prizrenski okrug","country":"Kosova / Kosovo","country_code":"xk"},"population":1098,"osm_type":"node","osm_id":623922742,"type":"town","location":[20.6533669,42.0615806],"bbox":[20.6133669,42.0215806,20.6933669,42.1015806],"border":{"name":"Dragaš - Dragash","other_names":{"name:sq":"Dragash","name:sr":"Драгаш","alt_name":"Sharr","name:sr-Latn":"Dragaš","name:en":"Dragash","name:hr":"Dragaš","name:mk":"Драгаш","alt":"Dragash"},"display_name":"Dragaš - Dragash, Komuna e Dragashit / Opština Dragaš, Rajoni i Prizrenit / Prizrenski okrug, 22000, Kosova / Kosovo","address":{"town":"Dragaš - Dragash","municipality":"Komuna e Dragashit / Opština Dragaš","district":"Rajoni i Prizrenit / Prizrenski okrug","postcode":"22000","country":"Kosova / Kosovo","country_code":"xk"},"population":1098,"osm_type":"relation","osm_id":8600255,"type":"administrative","location":[20.6533669,42.0615806],"bbox":[20.6200651,42.0505251,20.6594245,42.0743224]}}
{"name":"Drenas","other_names":{"name:de":"Drenas","name:en":"Drenas","name:hr":"Glogovac","name:mk":"Глоговац","name:sq":"Drenas","name:sr":"Глоговац","old_name:sq":"Gllogoc","name:sr-Latn":"Glogovac"},"display_name":"Drenas, Komuna e Drenasit / Opština Glogovac, Rajoni i Prishtinës / Prištinski okrug, Kosova / Kosovo","address":{"town":"Drenas","municipality":"Komuna e Drenasit / Opština Glogovac","district":"Rajoni i Prishtinës / Prištinski okrug","country":"Kosova / Kosovo","country_code":"xk"},"population":6129,"osm_type":"node","osm_id":1957422741,"type":"town","location":[20.8957543,42.6252526],"bbox":[20.8557543,42.5852526,20.9357543,42.6652526],"border":{"name":"Komuna e Drenasit / Opština Glogovac","other_names":{"name:de":"Gemeinde Drenas","name:en":"Municipality of Drenas / Glogovac","name:fa":"گلوگوواس","name:sq":"Komuna e Drenasit","name:sr":"Општина Глоговац","name:sr-Latn":"Opština Glogovac","name:hr":"Glogovac","name:mk":"Глоговац","old_name:sq":"Gllogoc","alt":"Drenas","alt:de":"Drenas","alt:en":"Drenas","alt:sq":"Drenas","alt:sr":"Глоговац","alt:sr-Latn":"Glogovac"},"display_name":"Komuna e Drenasit / Opština Glogovac, Rajoni i Prishtinës / Prištinski okrug, 13000, Kosova / Kosovo","address":{"municipality":"Komuna e Drenasit / Opština Glogovac","district":"Rajoni i Prishtinës / Prištinski okrug","postcode":"13000","country":"Kosova / Kosovo","country_code":"xk"},"population":58531,"osm_type":"relation","osm_id":1332168,"type":"administrative","location":[20.8957543,42.6252526],"bbox":[20.7607555,42.5100148,20.9864781,42.7235382]}}
{"name":"Fushë Kosovë","other_names":{"name:de":"Fushë Kosova","name:hr":"Kosovo Polje","name:mk":"Косово Поле","name:sq":"Fushë Kosovë","name:sr":"Косово Поље","alt_name":"Fushë Kosova","name:sr-Latn":"Kosovo Polje"},"display_name":"Fushë Kosovë, Komuna e Fushë Kosovës / Opština Kosovo Polje, Rajoni i Prishtinës / Prištinski okrug, Kosova / Kosovo","address":{"town":"Fushë Kosovë","municipality":"Komuna e Fushë Kosovës / Opština Kosovo Polje","district":"Rajoni i Prishtinës / Prištinski okrug","country":"Kosova / Kosovo","country_code":"xk"},"population":12919,"osm_type":"node","osm_id":448554221,"type":"town","location":[21.093132,42.6374117],"bbox":[21.053132,42.5974117,21.133132,42.6774117],"border":{"name":"Fushë Kosovë","other_names":{"name:mk":"Косово Поле","name:sr":"Косово Поље","name:de":"Fushë Kosova","name:hr":"Kosovo Polje","name:sq":"Fushë Kosovë","alt_name":"Fushë Kosova","name:sr-Latn":"Kosovo Polje"},"display_name":"Fushë Kosovë, Komuna e Fushë Kosovës / Opština Kosovo Polje, Rajoni i Prishtinës / Prištinski okrug, Kosova / Kosovo","address":{"town":"Fushë Kosovë","municipality":"Komuna e Fushë Kosovës / Opština Kosovo Polje","district":"Rajoni i Prishtinës / Prištinski okrug","country":"Kosova / Kosovo","country_code":"xk"},"population":12919,"osm_type":"relation","osm_id":7461229,"type":"administrative","location":[21.093132,42.6374117],"bbox":[21.0664461,42.6110717,21.122189,42.661737]}}
{"name":"Gračanica","other_names":{"name:el":"Γκρατσάνιτσα","name:sq":"Graçanicë","name:sr":"Грачаница","alt_name":"Gračanica","name:sr-Latn":"Gračanica"},"display_name":"Gračanica, Opština Gračanica / Komuna e Graçanicës / E Gracanicaki Komuna, Rajoni i Prishtinës / Prištinski okrug, 10500, Kosova / Kosovo","address":{"town":"Gračanica","municipality":"Opština Gračanica / Komuna e Graçanicës / E Gracanicaki Komuna","district":"Rajoni i Prishtinës / Prištinski okrug","postcode":"10500","country":"Kosova / Kosovo","country_code":"xk"},"population":2686,"osm_type":"node","osm_id":2017956737,"type":"town","location":[21.1922853,42.5999713],"bbox":[21.1522853,42.5599713,21.2322853,42.6399713],"border":{"name":"Gračanica","other_names":{"name:mk":"Грачаница","name:sq":"Graçanicë","name:sr":"Грачаница","name:sr-Latn":"Gračanica","name:el":"Γκρατσάνιτσα","alt_name":"Gračanica"},"display_name":"Gračanica, Opština Gračanica / Komuna e Graçanicës / E Gracanicaki Komuna, Rajoni i Prishtinës / Prištinski okrug, 10500, Kosova / Kosovo","address":{"town":"Gračanica","municipality":"Opština Gračanica / Komuna e Graçanicës / E Gracanicaki Komuna","district":"Rajoni i Prishtinës / Prištinski okrug","postcode":"10500","country":"Kosova / Kosovo","country_code":"xk"},"population":2686,"osm_type":"relation","osm_id":8753677,"type":"administrative","location":[21.1922853,42.5999713],"bbox":[21.1578157,42.5804294,21.2302119,42.6239414]}}
{"name":"Istog","other_names":{"name:de":"Istog","name:el":"Ίστοκ","name:en":"Istog","name:hr":"Istok","name:mk":"Исток","name:sq":"Istog","name:sr":"Исток","alt_name":"Burim","name:sr-Latn":"Istok"},"display_name":"Istog, Komuna e Istogut / Opština Istok, Rajoni i Pejës / Pećki okrug, 31000, Kosova / Kosovo","address":{"town":"Istog","municipality":"Komuna e Istogut / Opština Istok","district":"Rajoni i Pejës / Pećki okrug","postcode":"31000","country":"Kosova / Kosovo","country_code":"xk"},"population":5115,"osm_type":"node","osm_id":3031511862,"type":"town","location":[20.4882544,42.7816777],"bbox":[20.4482544,42.7416777,20.5282544,42.8216777]}
{"name":"Kaçanik","other_names":{"name:de":"Kaçanik","name:en":"Kaçanik","name:hr":"Kačanik","name:mk":"Качаник","name:sq":"Kaçanik","name:sr":"Качаник","alt_name:sq":"Kaçaniku","name:sr-Latn":"Kačanik"},"display_name":"Kaçanik, Komuna e Kaçanikut / Opština Kačanik, Rajoni i Ferizajt / Uroševački okrug, Kosova / Kosovo","address":{"town":"Kaçanik","municipality":"Komuna e Kaçanikut / Opština Kačanik","district":"Rajoni i Ferizajt / Uroševački okrug","country":"Kosova / Kosovo","country_code":"xk"},"population":10393,"osm_type":"node","osm_id":3962446463,"type":"town","location":[21.2579777,42.2280602],"bbox":[21.2179777,42.1880602,21.2979777,42.2680602],"border":{"name":"Kaçanik","other_names":{"name:de":"Kaçanik","name:en":"Kaçanik","name:hr":"Kačanik","name:mk":"Качаник","name:sq":"Kaçanik","name:sr":"Качаник","alt_name:sq":"Kaçaniku","name:sr-Latn":"Kačanik"},"display_name":"Kaçanik, Komuna e Kaçanikut / Opština Kačanik, Rajoni i Ferizajt / Uroševački okrug, 71000, Kosova / Kosovo","address":{"town":"Kaçanik","municipality":"Komuna e Kaçanikut / Opština Kačanik","district":"Rajoni i Ferizajt / Uroševački okrug","postcode":"71000","country":"Kosova / Kosovo","country_code":"xk"},"population":10393,"osm_type":"relation","osm_id":10952598,"type":"administrative","location":[21.2579777,42.2280602],"bbox":[21.2382475,42.2053859,21.3044348,42.2496603]}}
{"name":"Kamenicë","other_names":{"name:de":"Kamenica","name:hr":"Kamenica","name:mk":"Kamenicë","name:sq":"Kamenicë","name:sr":"Косовска Каменица","alt_name":"Kamenica","alt_name:sq":"Dardana;Dardanë","name:sr-Latn":"Kosovska Kamenica"},"display_name":"Kamenicë, Komuna e Kamenicës / Opština Kamenica, Rajoni i Gjilanit / Gnjilanski okrug, 62000, Kosova / Kosovo","address":{"town":"Kamenicë","municipality":"Komuna e Kamenicës / Opština Kamenica","district":"Rajoni i Gjilanit / Gnjilanski okrug","postcode":"62000","country":"Kosova / Kosovo","country_code":"xk"},"population":7331,"osm_type":"node","osm_id":369559187,"type":"town","location":[21.5796877,42.5783818],"bbox":[21.5396877,42.5383818,21.6196877,42.6183818]}
{"name":"Klinë","other_names":{"name:de":"Klina","name:hr":"Klina","name:mk":"Клина","name:sq":"Klinë","name:sr":"Клина","alt_name":"Klina","name:sr-Latn":"Klina"},"display_name":"Klinë, Komuna e Klinës / Opština Klina, Rajoni i Pejës / Pećki okrug, 32000, Kosova / Kosovo","address":{"town":"Klinë","municipality":"Komuna e Klinës / Opština Klina","district":"Rajoni i Pejës / Pećki okrug","postcode":"32000","country":"Kosova / Kosovo","country_code":"xk"},"population":5542,"osm_type":"node","osm_id":430705589,"type":"town","location":[20.57611,42.6179925],"bbox":[20.53611,42.5779925,20.61611,42.6579925]}
{"name":"Leposavić","other_names":{"name:hr":"Leposavić","name:mk":"Лепосавиќ","name:sq":"Leposaviq","name:sr":"Лепосавић","alt_name:sq":"Albanik","name:sr-Latn":"Leposavić"},"display_name":"Leposavić, Opština Leposavić / Komuna e Leposaviqit, Rajoni i Mitrovicës / Kosovskomitrovački okrug, 38218, Kosova / Kosovo","address":{"town":"Leposavić","municipality":"Opština Leposavić / Komuna e Leposaviqit","district":"Rajoni i Mitrovicës / Kosovskomitrovački okrug","postcode":"38218","country":"Kosova / Kosovo","country_code":"xk"},"population":3702,"osm_type":"node","osm_id":448739405,"type":"town","location":[20.8010532,43.1019523],"bbox":[20.7610532,43.0619523,20.8410532,43.1419523],"border":{"name":"Opština Leposavić / Komuna e Leposaviqit","other_names":{"name:de":"Gemeinde Leposavić","name:el":"Δήμος Λεποσάβιτς","name:en":"Municipality of Leposavić","name:it":"Leposavić","name:sq":"Komuna e Leposaviqit","name:sr":"Општина Лепосавић","name:zh":"莱波萨维齐","alt_name:sq":"Komuna e Albanikut","name:sr-Latn":"Opština Leposavić"},"display_name":"Opština Leposavić / Komuna e Leposaviqit, Rajoni i Mitrovicës / Kosovskomitrovački okrug, Kosova / Kosovo","address":{"municipality":"Opština Leposavić / Komuna e Leposaviqit","district":"Rajoni i Mitrovicës / Kosovskomitrovački okrug","country":"Kosova / Kosovo","country_code":"xk"},"population":13773,"osm_type":"relation","osm_id":1332176,"type":"administrative","location":[20.811203768116062,43.12855495],"bbox":[20.5938437,42.9836707,21.0043913,43.2733306]}}
{"name":"Lipjan","other_names":{"name:de":"Lipjan","name:en":"Lipjan","name:hr":"Lipljan","name:mk":"Липљан","name:sq":"Lipjan","name:sr":"Липљан","name:sr-Latn":"Lipljan"},"display_name":"Lipjan, Komuna e Lipjanit / Opština Lipljan, Rajoni i Prishtinës / Prištinski okrug, 14000, Kosova / Kosovo","address":{"town":"Lipjan","municipality":"Komuna e Lipjanit / Opština Lipljan","district":"Rajoni i Prishtinës / Prištinski okrug","postcode":"14000","country":"Kosova / Kosovo","country_code":"xk"},"population":6870,"osm_type":"node","osm_id":371547322,"type":"town","location":[21.122598,42.5213395],"bbox":[21.082598,42.4813395,21.162598,42.5613395],"border":{"name":"Lipjan","other_names":{"name:de":"Lipjan","name:en":"Lipjan","name:hr":"Lipljan","name:mk":"Липљан","name:sq":"Lipjan","name:sr":"Липљан","name:sr-Latn":"Lipljan"},"display_name":"Lipjan, Komuna e Lipjanit / Opština Lipljan, Rajoni i Prishtinës / Prištinski okrug, 14000, Kosova / Kosovo","address":{"town":"Lipjan","municipality":"Komuna e Lipjanit / Opština Lipljan","district":"Rajoni i Prishtinës / Prištinski okrug","postcode":"14000","country":"Kosova / Kosovo","country_code":"xk"},"population":6870,"osm_type":"relation","osm_id":8090207,"type":"administrative","location":[21.122598,42.5213395],"bbox":[21.0941959,42.5067416,21.1503409,42.5429472]}}
{"name":"Malishevë","other_names":{"name:de":"Malisheva","name:hr":"Mališevo","name:mk":"Малишево","name:sq":"Malishevë","name:sr":"Малишево","name:sr-Latn":"Mališevo"},"display_name":"Malishevë, Komuna e Malishevës / Opština Mališevo, Rajoni i Prizrenit / Prizrenski okrug, 24000, Kosova / Kosovo","address":{"town":"Malishevë","municipality":"Komuna e Malishevës / Opština Mališevo","district":"Rajoni i Prizrenit / Prizrenski okrug","postcode":"24000","country":"Kosova / Kosovo","country_code":"xk"},"population":3395,"osm_type":"node","osm_id":6139380125,"type":"town","location":[20.7430294,42.4838388],"bbox":[20.7030294,42.4438388,20.7830294,42.5238388]}
{"name":"Obiliq","other_names":{"name:hr":"Obilić","name:mk":"Обилиќ","name:sq":"Obiliq","name:sr":"Обилић","alt_name":"Kastriot","name:sr-Latn":"Obilić"},"display_name":"Obiliq, Komuna e Obiliqit / Opština Obilić, Rajoni i Prishtinës / Prištinski okrug, Kosova / Kosovo","address":{"town":"Obiliq","municipality":"Komuna e Obiliqit / Opština Obilić","district":"Rajoni i Prishtinës / Prištinski okrug","country":"Kosova / Kosovo","country_code":"xk"},"population":6864,"osm_type":"node","osm_id":430796564,"type":"town","location":[21.0694943,42.6861684],"bbox":[21.0294943,42.6461684,21.1094943,42.7261684],"border":{"name":"Obiliq","other_names":{"name:mk":"Обилиќ","name:hr":"Obilić","name:sq":"Obiliq","name:sr":"Обилић","alt_name":"Kastriot","name:sr-Latn":"Obilić"},"display_name":"Obiliq, Komuna e Obiliqit / Opština Obilić, Rajoni i Prishtinës / Prištinski okrug, 15000, Kosova / Kosovo","address":{"town":"Obiliq","municipality":"Komuna e Obiliqit / Opština Obilić","district":"Rajoni i Prishtinës / Prištinski okrug","postcode":"15000","country":"Kosova / Kosovo","country_code":"xk"},"population":6864,"osm_type":"relation","osm_id":8180500,"type":"administrative","location":[21.0694943,42.6861684],"bbox":[21.0489521,42.6677525,21.1293739,42.7055253]}}
{"name":"Rahovec","other_names":{"name:de":"Rahovec","name:fa":"راهووس","name:fr":"Rahovec","name:hr":"Orahovac","name:it":"Rahovec","name:mk":"Ораховац","name:no":"Rahovec","name:pl":"Orahovac","name:ru":"Ораховац","name:sq":"Rahovec","name:sr":"Ораховац","name:tr":"Rahofça","name:sr-Latn":"Orahovac"},"display_name":"Rahovec, Komuna e Rahovecit / Opština Orahovac, Rajoni i Gjakovës / Đakovički okrug, 21010, Kosova / Kosovo","address":{"town":"Rahovec","municipality":"Komuna e Rahovecit / Opština Orahovac","district":"Rajoni i Gjakovës / Đakovički okrug","postcode":"21010","country":"Kosova / Kosovo","country_code":"xk"},"population":15829,"osm_type":"node","osm_id":1379511730,"type":"town","location":[20.6527389,42.3998736],"bbox":[20.6127389,42.3598736,20.6927389,42.4398736]}
{"name":"Severna Kosovska Mitrovica - Mitrovicë Veriore","other_names":{"name:de":"Nord-Mitrovica","name:el":"Βόρεια Μιτρόβιτσα","name:en":"North Mitrovica","name:es":"Mitrovica Norte","name:hr":"Sjeverna Mitrovica","name:it":"Mitrovica Nord","name:mk":"Косовска Митровица (Север)","name:sq":"Mitrovica e Veriut","name:sr":"Северна Косовска Митровица","name:uk":"Північна Митровиця","alt_name:hr":"Sjeverna Kosovska Mitrovica","alt_name:sq":"Mitrovica e Veriut","alt_name:sr":"Северна Митровица","name:sr-Latn":"Severna Kosovska Mitrovica","alt_name:sr-Latn":"Severna Mitrovica"},"display_name":"Severna Kosovska Mitrovica - Mitrovicë Veriore, Severna Kosovska Mitrovica / Mitrovicë Veriore, Opština Severna Kosovska Mitrovica / Komuna e Mitrovicës Veriore, Rajoni i Mitrovicës / Kosovskomitrovački okrug, 38220, Kosova / Kosovo","address":{"town":"Severna Kosovska Mitrovica - Mitrovicë Veriore","city":"Severna Kosovska Mitrovica / Mitrovicë Veriore","municipality":"Opština Severna Kosovska Mitrovica / Komuna e Mitrovicës Veriore","district":"Rajoni i Mitrovicës / Kosovskomitrovački okrug","postcode":"38220","country":"Kosova / Kosovo","country_code":"xk"},"population":12326,"osm_type":"node","osm_id":5830684024,"type":"town","location":[20.865765,42.8963331],"bbox":[20.825765,42.8563331,20.905765,42.9363331],"border":{"name":"Severna Kosovska Mitrovica / Mitrovicë Veriore","other_names":{"name:sq":"Mitrovicë Veriore","name:sr":"Северна Косовска Митровица","alt_name:sq":"Mitrovica e Veriut","alt_name:sr":"Северна Митровица","name:sr-Latn":"Severna Kosovska Mitrovica","alt_name:sr-Latn":"Severna Mitrovica"},"display_name":"Severna Kosovska Mitrovica / Mitrovicë Veriore, Opština Severna Kosovska Mitrovica / Komuna e Mitrovicës Veriore, Rajoni i Mitrovicës / Kosovskomitrovački okrug, 38220, Kosova / Kosovo","address":{"city":"Severna Kosovska Mitrovica / Mitrovicë Veriore","municipality":"Opština Severna Kosovska Mitrovica / Komuna e Mitrovicës Veriore","district":"Rajoni i Mitrovicës / Kosovskomitrovački okrug","postcode":"38220","country":"Kosova / Kosovo","country_code":"xk"},"osm_type":"relation","osm_id":8598829,"type":"administrative","location":[20.862402868082526,42.897177400000004],"bbox":[20.8437792,42.8845344,20.8728458,42.9098206]}}
{"name":"Shtime","other_names":{"name:hr":"Štimlje","name:mk":"Штимље","name:sq":"Shtime","name:sr":"Штимље","alt_name:sq":"Shtimja","name:sr-Latn":"Štimlje"},"display_name":"Shtime, Komuna e Shtimes / Opština Štimlje, Rajoni i Ferizajt / Uroševački okrug, 72000, Kosova / Kosovo","address":{"town":"Shtime","municipality":"Komuna e Shtimes / Opština Štimlje","district":"Rajoni i Ferizajt / Uroševački okrug","postcode":"72000","country":"Kosova / Kosovo","country_code":"xk"},"population":7255,"osm_type":"node","osm_id":282425103,"type":"town","location":[21.0363448,42.4341803],"bbox":[20.9963448,42.3941803,21.0763448,42.4741803]}
{"name":"Skënderaj","other_names":{"name:de":"Skënderaj","name:hr":"Srbica","name:mk":"Србица","name:sq":"Skënderaj","name:sr":"Србица","alt_name":"Skënderaj","name:sr-Latn":"Srbica"},"display_name":"Skënderaj, Komuna e Skënderajt / Opština Srbica, Rajoni i Mitrovicës / Kosovskomitrovački okrug, 41000, Kosova / Kosovo","address":{"town":"Skënderaj","municipality":"Komuna e Skënderajt / Opština Srbica","district":"Rajoni i Mitrovicës / Kosovskomitrovački okrug","postcode":"41000","country":"Kosova / Kosovo","country_code":"xk"},"population":6612,"osm_type":"node","osm_id":1957453084,"type":"town","location":[20.7891645,42.747569],"bbox":[20.7491645,42.707569,20.8291645,42.787569]}
{"name":"Štrpce","other_names":{"name:hr":"Štrpce","name:mk":"Штрпце","name:sq":"Shtërpcë","name:sr":"Штрпце","name:sr-Latn":"Štrpce"},"display_name":"Štrpce, Komuna e Shtërpcës / Opština Štrpce, Rajoni i Ferizajt / Uroševački okrug, 73000, Kosova / Kosovo","address":{"town":"Štrpce","municipality":"Komuna e Shtërpcës / Opština Štrpce","district":"Rajoni i Ferizajt / Uroševački okrug","postcode":"73000","country":"Kosova / Kosovo","country_code":"xk"},"population":1265,"osm_type":"node","osm_id":2381741659,"type":"town","location":[21.0253337,42.2401249],"bbox":[20.9853337,42.2001249,21.0653337,42.2801249]}
{"name":"Suharekë","other_names":{"name:de":"Suhareka","name:hr":"Suva Reka","name:mk":"Сува Река","name:sq":"Suharekë","name:sr":"Сува Река","old_name":"Suhareka","alt_name:sq":"Therandë","name:sr-Latn":"Suva Reka"},"display_name":"Suharekë, Komuna e Suharekës / Opština Suva Reka, Rajoni i Prizrenit / Prizrenski okrug, 23000, Kosova / Kosovo","address":{"town":"Suharekë","municipality":"Komuna e Suharekës / Opština Suva Reka","district":"Rajoni i Prizrenit / Prizrenski okrug","postcode":"23000","country":"Kosova / Kosovo","country_code":"xk"},"population":10422,"osm_type":"node","osm_id":1836571291,"type":"town","location":[20.8315238,42.3621996],"bbox":[20.7915238,42.3221996,20.8715238,42.4021996]}
{"name":"Viti","other_names":{"name:de":"Viti","name:en":"Viti","name:hr":"Vitina","name:mk":"Витина","name:sq":"Viti","name:sr":"Витина","alt_name:sq":"Vitia","name:sr-Latn":"Vitina"},"display_name":"Viti, Komuna e Vitisë / Opština Vitina, Rajoni i Gjilanit / Gnjilanski okrug, 61000, Kosova / Kosovo","address":{"town":"Viti","municipality":"Komuna e Vitisë / Opština Vitina","district":"Rajoni i Gjilanit / Gnjilanski okrug","postcode":"61000","country":"Kosova / Kosovo","country_code":"xk"},"population":4924,"osm_type":"node","osm_id":3195851291,"type":"town","location":[21.3571197,42.3187997],"bbox":[21.3171197,42.2787997,21.3971197,42.3587997]}
{"name":"Vushtrri","other_names":{"name:de":"Vushtrria","name:hr":"Vučitrn","name:mk":"Вучитрн","name:ru":"Вучитрн","name:sl":"Vučitrn","name:sq":"Vushtrri","name:sr":"Вучитрн","name:tr":"Vulçıtrın","name:sr-Latn":"Vučitrn"},"display_name":"Vushtrri, Komuna e Vushtrrisë / Opština Vučitrn, Rajoni i Mitrovicës / Kosovskomitrovački okrug, Kosova / Kosovo","address":{"town":"Vushtrri","municipality":"Komuna e Vushtrrisë / Opština Vučitrn","district":"Rajoni i Mitrovicës / Kosovskomitrovački okrug","country":"Kosova / Kosovo","country_code":"xk"},"population":26964,"osm_type":"node","osm_id":448726882,"type":"town","location":[20.9674413,42.8219248],"bbox":[20.9274413,42.7819248,21.0074413,42.8619248],"border":{"name":"Vushtrri","other_names":{"name:mk":"Вучитрн","name:de":"Vushtrria","name:hr":"Vučitrn","name:ru":"Вучитрн","name:sl":"Vučitrn","name:sq":"Vushtrri","name:sr":"Вучитрн","name:tr":"Vulçıtrın","name:sr-Latn":"Vučitrn"},"display_name":"Vushtrri, Komuna e Vushtrrisë / Opština Vučitrn, Rajoni i Mitrovicës / Kosovskomitrovački okrug, 42000, Kosova / Kosovo","address":{"town":"Vushtrri","municipality":"Komuna e Vushtrrisë / Opština Vučitrn","district":"Rajoni i Mitrovicës / Kosovskomitrovački okrug","postcode":"42000","country":"Kosova / Kosovo","country_code":"xk"},"population":26964,"osm_type":"relation","osm_id":9186240,"type":"administrative","location":[20.9674413,42.8219248],"bbox":[20.932687,42.7992298,21.0398743,42.84294]}}
{"name":"Zubin Potok","other_names":{"name:el":"Ζούμπιν Πότοκ","name:hr":"Zubin Potok","name:mk":"Зубин Поток","name:sq":"Zubin Potoku","name:sr":"Зубин Поток","alt_name:sq":"Zubin Potoku","name:sr-Latn":"Zubin Potok"},"display_name":"Zubin Potok, Opština Zubin Potok / Komuna e Zubin Potokut, Rajoni i Mitrovicës / Kosovskomitrovački okrug, 40650, Kosova / Kosovo","address":{"town":"Zubin Potok","municipality":"Opština Zubin Potok / Komuna e Zubin Potokut","district":"Rajoni i Mitrovicës / Kosovskomitrovački okrug","postcode":"40650","country":"Kosova / Kosovo","country_code":"xk"},"population":1724,"osm_type":"node","osm_id":2183422140,"type":"town","location":[20.6897381,42.9147673],"bbox":[20.6497381,42.8747673,20.7297381,42.9547673]}
{"name":"Zvečan","other_names":{"name:hr":"Zvečan","name:mk":"Звечан","name:sq":"Zveçan","name:sr":"Звечан","alt_name:sq":"Zveçan","name:sr-Latn":"Zvečan"},"display_name":"Zvečan, Opština Zvečan / Komuna e Zveçanit, Rajoni i Mitrovicës / Kosovskomitrovački okrug, 38227, Kosova / Kosovo","address":{"town":"Zvečan","municipality":"Opština Zvečan / Komuna e Zveçanit","district":"Rajoni i Mitrovicës / Kosovskomitrovački okrug","postcode":"38227","country":"Kosova / Kosovo","country_code":"xk"},"population":1297,"osm_type":"node","osm_id":1907401314,"type":"town","location":[20.8389308,42.9091868],"bbox":[20.7989308,42.8691868,20.8789308,42.9491868]}
