{"name":"Bir Lahmar","other_names":{"name:ar":"بئر الأحمر","name:en":"Bir Lahmar","name:fr":"Bir Lahmar"},"display_name":"Bir Lahmar, السند, بئر الأحمر, ولاية تطاوين, 3212, تونس","address":{"town":"Bir Lahmar","county":"السند","state_district":"بئر الأحمر","state":"ولاية تطاوين","ISO3166-2-lvl4":"TN-83","postcode":"3212","country":"تونس","country_code":"tn"},"osm_type":"node","osm_id":5942342265,"type":"town","location":[10.4420751,33.1785612],"bbox":[10.4020751,33.1385612,10.4820751,33.2185612]}
{"name":"Bou Salem","other_names":{"name:ar":"بوسالم","name:ca":"Bousalem","name:cy":"Bou Salem","name:de":"Bou Salem","name:en":"Busalim","name:fr":"Bou Salem","name:ro":"Bousalem","name:ru":"Бу-Салим","name:uk":"Бу Салем","name:zu":"Bou Salem","alt_name":"Bousalem","name:kab":"Bu Salem","old_name":"سوق الخميس","old_name:ar":"سوق الخميس","old_name:fr":"Souk El Khemis"},"display_name":"Bou Salem, بوسالم الشمالية, معتمدية بوسالم, ولاية جندوبة, 8710, تونس","address":{"town":"Bou Salem","county":"بوسالم الشمالية","state_district":"معتمدية بوسالم","state":"ولاية جندوبة","ISO3166-2-lvl4":"TN-32","postcode":"8710","country":"تونس","country_code":"tn"},"population":21000,"osm_type":"node","osm_id":1837034352,"type":"town","location":[8.9696535,36.607408],"bbox":[8.9296535,36.567408,9.0096535,36.647408],"border":{"name":"بوسالم الشمالية","other_names":{"name:ar":"بوسالم الشمالية","name:fr":"Bou Salem"},"display_name":"بوسالم الشمالية, معتمدية بوسالم, ولاية جندوبة, تونس","address":{"county":"بوسالم الشمالية","state_district":"معتمدية بوسالم","state":"ولاية جندوبة","ISO3166-2-lvl4":"TN-32","country":"تونس","country_code":"tn"},"osm_type":"relation","osm_id":7144493,"type":"administrative","location":[8.953201491381995,36.604858050000004],"bbox":[8.9259134,36.5910699,8.9750836,36.6181787]}}
{"name":"Dkhilet Toujane","other_names":{"name:fr":"Dkhilet Toujane","name:aeb":"دخيلة توجان"},"display_name":"Dkhilet Toujane, دخيلة توجان, معتمدية مارث, ولاية قابس, 6055, تونس","address":{"town":"Dkhilet Toujane","county":"دخيلة توجان","state_district":"معتمدية مارث","state":"ولاية قابس","ISO3166-2-lvl4":"TN-81","postcode":"6055","country":"تونس","country_code":"tn"},"osm_type":"node","osm_id":1996259768,"type":"town","location":[10.2025764,33.4352272],"bbox":[10.1625764,33.3952272,10.2425764,33.4752272],"border":{"name":"دخيلة توجان","other_names":{"name:ar":"دخيلة توجان","name:fr":"Dekhilet Toujane"},"display_name":"دخيلة توجان, معتمدية مارث, ولاية قابس, 6055, تونس","address":{"county":"دخيلة توجان","state_district":"معتمدية مارث","state":"ولاية قابس","ISO3166-2-lvl4":"TN-81","postcode":"6055","country":"تونس","country_code":"tn"},"osm_type":"relation","osm_id":7145386,"type":"administrative","location":[10.212969726415094,33.4464051],"bbox":[10.1327462,33.4094117,10.2827722,33.4834051]}}
{"name":"Erriadh","other_names":{"name:ar":"الرياض","name:en":"Erriadh","name:fr":"Erriadh"},"display_name":"Erriadh, الرياض, معتمدية جربة حومة السوق, ولاية مدنين, 4166, تونس","address":{"town":"Erriadh","county":"الرياض","state_district":"معتمدية جربة حومة السوق","state":"ولاية مدنين","ISO3166-2-lvl4":"TN-82","postcode":"4166","country":"تونس","country_code":"tn"},"osm_type":"node","osm_id":297765267,"type":"town","location":[10.8543339,33.8190783],"bbox":[10.8143339,33.7790783,10.8943339,33.8590783],"border":{"name":"الرياض","other_names":{"name:ar":"الرياض","name:fr":"Erriadh"},"display_name":"الرياض, معتمدية جربة حومة السوق, ولاية مدنين, تونس","address":{"county":"الرياض","state_district":"معتمدية جربة حومة السوق","state":"ولاية مدنين","ISO3166-2-lvl4":"TN-82","country":"تونس","country_code":"tn"},"osm_type":"relation","osm_id":7133860,"type":"administrative","location":[10.856848904416264,33.8199146],"bbox":[10.8034434,33.7861013,10.8832379,33.8538951]}}
{"name":"Matmata el Qadima","other_names":{"name:ar":"مطماطة القديمة","name:fr":"Matmata Ancienne","name:ber":"ⵎⴰⵟⵎⴰⵟⴰ"},"display_name":"Matmata el Qadima, مطماطة, معتمدية مطماطة, ولاية قابس, 6070, تونس","address":{"town":"Matmata el Qadima","county":"مطماطة","state_district":"معتمدية مطماطة","state":"ولاية قابس","ISO3166-2-lvl4":"TN-81","postcode":"6070","country":"تونس","country_code":"tn"},"osm_type":"node","osm_id":262722264,"type":"town","location":[9.9671116,33.5457377],"bbox":[9.9271116,33.5057377,10.0071116,33.5857377]}
{"name":"Sidi Thabet","other_names":{"name:ar":"سيدي ثابت","name:en":"Sidi Thabet","name:fr":"Sidi Thabet","name:aeb":"سيدي ثابت"},"display_name":"Sidi Thabet, سيدي ثابت, delegation de Sidi Thabet, ولاية أريانة, تونس","address":{"town":"Sidi Thabet","state_district":"delegation de Sidi Thabet","state":"ولاية أريانة","ISO3166-2-lvl4":"TN-12","country":"تونس","country_code":"tn"},"population":27090,"osm_type":"node","osm_id":660826515,"type":"town","location":[10.0425496,36.9085108],"bbox":[10.0025496,36.8685108,10.0825496,36.9485108],"border":{"name":"سيدي ثابت","other_names":{"name:ar":"سيدي ثابت","name:fr":"Sidi Thabet","name:en":"Sidi Thabet","name:aeb":"سيدي ثابت","alt":"Sidi Thabet"},"display_name":"سيدي ثابت, delegation de Sidi Thabet, ولاية أريانة, تونس","address":{"town":"سيدي ثابت","state_district":"delegation de Sidi Thabet","state":"ولاية أريانة","ISO3166-2-lvl4":"TN-12","country":"تونس","country_code":"tn"},"population":27090,"osm_type":"relation","osm_id":7115793,"type":"administrative","location":[10.0425496,36.9085108],"bbox":[10.0267504,36.8787632,10.089911,36.9249915]}}
{"name":"Smar","other_names":{"name:en":"Smar","name:fr":"Smar","name:aeb":"الصمار"},"display_name":"Smar, الصمار, معتمدية الصمار, ولاية تطاوين, تونس","address":{"town":"Smar","county":"الصمار","state_district":"معتمدية الصمار","state":"ولاية تطاوين","ISO3166-2-lvl4":"TN-83","country":"تونس","country_code":"tn"},"osm_type":"node","osm_id":1980279372,"type":"town","location":[10.8222443,32.9946554],"bbox":[10.7822443,32.9546554,10.8622443,33.0346554],"border":{"name":"الصمار","other_names":{"name:ar":"الصمار","name:fr":"Smar"},"display_name":"الصمار, معتمدية الصمار, ولاية تطاوين, تونس","address":{"county":"الصمار","state_district":"معتمدية الصمار","state":"ولاية تطاوين","ISO3166-2-lvl4":"TN-83","country":"تونس","country_code":"tn"},"osm_type":"relation","osm_id":7143872,"type":"administrative","location":[10.909536521839584,33.0313974],"bbox":[10.7474959,32.9674174,11.0365705,33.0950723]}}
{"name":"Tozeur","other_names":{"name:ar":"توزر","name:de":"Tauzar","name:en":"Tauzar","name:fr":"Tozeur","name:la":"Tusuros","name:ru":"Таузар"},"display_name":"Tozeur, توزر, الحضر, معتمدية توزر, ولاية توزر, تونس","address":{"town":"Tozeur","county":"الحضر","state_district":"معتمدية توزر","state":"ولاية توزر","ISO3166-2-lvl4":"TN-72","country":"تونس","country_code":"tn"},"osm_type":"relation","osm_id":8893267,"type":"town","location":[8.122324423128646,33.906941849999995],"bbox":[8.117112,33.9007788,8.1304508,33.9130201]}
{"name":"أجيم","other_names":{"name:ar":"أجيم","name:de":"Adschim","name:en":"Ajim","name:es":"Adjim","name:fa":"اجیم","name:fr":"Adjim","name:it":"Adjim","name:ru":"Аджим","alt_name":"آجيم","name:azb":"اجیم","alt_name:ar":"آجيم"},"display_name":"أجيم, معتمدية جربة أجيم, ولاية مدنين, 4135, تونس","address":{"town":"أجيم","county":"أجيم","state_district":"معتمدية جربة أجيم","state":"ولاية مدنين","ISO3166-2-lvl4":"TN-82","postcode":"4135","country":"تونس","country_code":"tn"},"population":13950,"osm_type":"node","osm_id":297764755,"type":"town","location":[10.7485015,33.7248466],"bbox":[10.7085015,33.6848466,10.7885015,33.7648466],"border":{"name":"أجيم","other_names":{"name:ar":"أجيم","name:fr":"Ajim"},"display_name":"أجيم, معتمدية جربة أجيم, ولاية مدنين, 4135, تونس","address":{"county":"أجيم","state_district":"معتمدية جربة أجيم","state":"ولاية مدنين","ISO3166-2-lvl4":"TN-82","postcode":"4135","country":"تونس","country_code":"tn"},"osm_type":"relation","osm_id":7133864,"type":"administrative","location":[10.764994748440753,33.7199371],"bbox":[10.7342347,33.6967827,10.7910327,33.743079]}}
{"name":"أم العرائس","other_names":{"name:ar":"أم العرائس","name:de":"Umm al-'Arāis","name:en":"Moularès","name:fr":"Moularès","alt_name:ar":"أم العرايس","official_name":"بلدية أم العرائس","official_name:ar":"بلدية أم العرائس"},"display_name":"أم العرائس, أم العرائس المحطة, معتمدية أم العرائس, ولاية قفصة, تونس","address":{"town":"أم العرائس","county":"أم العرائس المحطة","state_district":"معتمدية أم العرائس","state":"ولاية قفصة","ISO3166-2-lvl4":"TN-71","country":"تونس","country_code":"tn"},"population":24487,"osm_type":"node","osm_id":2165194615,"type":"town","location":[8.2733836,34.485737],"bbox":[8.2333836,34.445737,8.3133836,34.525737],"border":{"name":"أم العرائس","other_names":{"name:ar":"أم العرائس","name:de":"Umm al-'Arāis","name:en":"Moularès","name:fr":"Moularès","alt_name:ar":"أم العرايس","official_name":"بلدية أم العرائس","official_name:ar":"بلدية أم العرائس"},"display_name":"أم العرائس, أم العرائس المحطة, معتمدية أم العرائس, ولاية قفصة, 2110, تونس","address":{"town":"أم العرائس","county":"أم العرائس المحطة","state_district":"معتمدية أم العرائس","state":"ولاية قفصة","ISO3166-2-lvl4":"TN-71","postcode":"2110","country":"تونس","country_code":"tn"},"population":24487,"osm_type":"way","osm_id":189337619,"type":"town","location":[8.2733836,34.485737],"bbox":[8.2456315,34.4762174,8.3008984,34.4989903]}}
{"name":"أولاد الجلاصي","other_names":{"name:ar":"أولاد الجلاصي","name:en":"Awled Jlassi","name:es":"Aulád Alyalási","name:fr":"Ouled Jlassi"},"display_name":"أولاد الجلاصي, الدريعات, معتمدية السبيخة, ولاية القيروان, 3196, تونس","address":{"town":"أولاد الجلاصي","county":"الدريعات","state_district":"معتمدية السبيخة","state":"ولاية القيروان","ISO3166-2-lvl4":"TN-41","postcode":"3196","country":"تونس","country_code":"tn"},"population":200,"osm_type":"node","osm_id":8805590373,"type":"town","location":[10.1150485,35.9682802],"bbox":[10.0750485,35.9282802,10.1550485,36.0082802]}
{"name":"البطان","other_names":{"name:ar":"البطان","name:en":"El Battan","name:fr":"El Battan"},"display_name":"البطان, معتمدية البطان, ولاية منوبة, 1130, تونس","address":{"town":"البطان","county":"البطان","state_district":"معتمدية البطان","state":"ولاية منوبة","ISO3166-2-lvl4":"TN-14","postcode":"1130","country":"تونس","country_code":"tn"},"osm_type":"node","osm_id":3668370508,"type":"town","location":[9.844442,36.804353],"bbox":[9.804442,36.764353,9.884442,36.844353],"border":{"name":"البطان","other_names":{"name:ar":"البطان","name:fr":"El Battane"},"display_name":"البطان, معتمدية البطان, ولاية منوبة, تونس","address":{"county":"البطان","state_district":"معتمدية البطان","state":"ولاية منوبة","ISO3166-2-lvl4":"TN-14","country":"تونس","country_code":"tn"},"osm_type":"relation","osm_id":7101673,"type":"administrative","location":[9.822000100313478,36.79772215],"bbox":[9.7724337,36.7674668,9.8802524,36.8291134]}}
{"name":"الجديدة","other_names":{"name:ar":"الجديدة","name:en":"Djedeida","name:fr":"Djedeida"},"display_name":"الجديدة, الجديدة حشاد, معتمدية الجديدة, ولاية منوبة, 1124, تونس","address":{"town":"الجديدة","municipality":"الجديدة","county":"الجديدة حشاد","state_district":"معتمدية الجديدة","state":"ولاية منوبة","ISO3166-2-lvl4":"TN-14","postcode":"1124","country":"تونس","country_code":"tn"},"osm_type":"node","osm_id":7359785747,"type":"town","location":[9.9353189,36.8492607],"bbox":[9.8953189,36.8092607,9.9753189,36.8892607],"border":{"name":"الجديدة","other_names":{"name:ar":"الجديدة","name:fr":"Djedaïda"},"display_name":"الجديدة, معتمدية الجديدة, ولاية منوبة, تونس","address":{"county":"الجديدة","state_district":"معتمدية الجديدة","state":"ولاية منوبة","ISO3166-2-lvl4":"TN-14","country":"تونس","country_code":"tn"},"osm_type":"relation","osm_id":7098012,"type":"administrative","location":[9.906107037387551,36.84488275],"bbox":[9.8807389,36.8301662,9.9658429,36.8595441]}}
{"name":"الجريصة","other_names":{"name:ar":"الجريصة","name:en":"Jérissa","name:fr":"Jérissa","name:ru":"Джериса"},"display_name":"الجريصة, الجريصة المركزية, معتمدية الجريصة, ولاية الكاف, تونس","address":{"town":"الجريصة","county":"الجريصة المركزية","state_district":"معتمدية الجريصة","state":"ولاية الكاف","ISO3166-2-lvl4":"TN-33","country":"تونس","country_code":"tn"},"population":11298,"osm_type":"node","osm_id":1899219943,"type":"town","location":[8.6310155,35.8450091],"bbox":[8.5910155,35.8050091,8.6710155,35.8850091]}
{"name":"الجم","other_names":{"name:ar":"الجم","name:cs":"Džem","name:en":"El Jem","name:fr":"El Jem","name:ru":"Эль-Джем","int_name":"El Jem","alt_name:cs":"el-Džem"},"display_name":"الجم, الزاوية, معتمدية الجم, ولاية المهدية, 5160, تونس","address":{"town":"الجم","county":"الزاوية","state_district":"معتمدية الجم","state":"ولاية المهدية","ISO3166-2-lvl4":"TN-53","postcode":"5160","country":"تونس","country_code":"tn"},"population":18302,"osm_type":"node","osm_id":299240195,"type":"town","location":[10.71284,35.2966435],"bbox":[10.67284,35.2566435,10.75284,35.3366435]}
{"name":"الحامة","other_names":{"name:ar":"الحامة","name:en":"El Hamma","name:fr":"El Hamma","name:ru":"Эль-Хамма"},"display_name":"الحامة, القصر, معتمدية الحامة, ولاية قابس, تونس","address":{"town":"الحامة","county":"القصر","state_district":"معتمدية الحامة","state":"ولاية قابس","ISO3166-2-lvl4":"TN-81","country":"تونس","country_code":"tn"},"osm_type":"node","osm_id":298020344,"type":"town","location":[9.7997111,33.8894378],"bbox":[9.7597111,33.8494378,9.8397111,33.9294378]}
{"name":"الدهماني","other_names":{"name:ar":"الدهماني","name:en":"Dahmani","name:fa":"دهمانی","name:fr":"Dahmani","name:ru":"Дахмани","name:azb":"دهمانی","name:kab":"Dahmani","old_name":"أبة قصور","old_name:ar":"أبة قصور","old_name:fr":"Ebba Ksour"},"display_name":"الدهماني, معتمدية الدهماني, ولاية الكاف, 7170, تونس","address":{"town":"الدهماني","state_district":"معتمدية الدهماني","state":"ولاية الكاف","ISO3166-2-lvl4":"TN-33","postcode":"7170","country":"تونس","country_code":"tn"},"population":27907,"osm_type":"node","osm_id":2020536002,"type":"town","location":[8.8284346,35.9424417],"bbox":[8.7884346,35.9024417,8.8684346,35.9824417],"border":{"name":"الدهماني","other_names":{"name:ar":"الدهماني","name:fr":"Dahmani","name:en":"Dahmani","name:fa":"دهمانی","name:ru":"Дахмани","name:azb":"دهمانی","name:kab":"Dahmani","old_name":"أبة قصور","old_name:ar":"أبة قصور","old_name:fr":"Ebba Ksour"},"display_name":"الدهماني, معتمدية الدهماني, ولاية الكاف, تونس","address":{"town":"الدهماني","state_district":"معتمدية الدهماني","state":"ولاية الكاف","ISO3166-2-lvl4":"TN-33","country":"تونس","country_code":"tn"},"population":27907,"osm_type":"relation","osm_id":7140683,"type":"administrative","location":[8.8284346,35.9424417],"bbox":[8.8184744,35.9303955,8.8578399,35.9518261]}}
{"name":"الذهيبة","other_names":{"name:ar":"الذهيبة","name:en":"Dhehiba","name:fa":"ذهیبه","name:fr":"Dhehiba","name:pl":"Az-Zahibat","name:ru":"Дехибат","name:uk":"Зехіба"},"display_name":"الذهيبة, الذهيبة الغربية, معتمدية الذهيبة, ولاية تطاوين, تونس","address":{"town":"الذهيبة","county":"الذهيبة الغربية","state_district":"معتمدية الذهيبة","state":"ولاية تطاوين","ISO3166-2-lvl4":"TN-83","country":"تونس","country_code":"tn"},"population":3971,"osm_type":"node","osm_id":1278361178,"type":"town","location":[10.6999924,32.0103463],"bbox":[10.6599924,31.9703463,10.7399924,32.0503463]}
{"name":"الرديف","other_names":{"name:ar":"الرديف","name:en":"Redeyef","name:fr":"Redeyef","name:ru":"Редееф"},"display_name":"الرديف, الرديف المحطة, معتمدية الرديف, ولاية قفصة, تونس","address":{"town":"الرديف","county":"الرديف المحطة","state_district":"معتمدية الرديف","state":"ولاية قفصة","ISO3166-2-lvl4":"TN-71","country":"تونس","country_code":"tn"},"population":26000,"osm_type":"node","osm_id":1104122473,"type":"town","location":[8.1538874,34.3843201],"bbox":[8.1138874,34.3443201,8.1938874,34.4243201],"border":{"name":"الرديف","other_names":{"name:ar":"الرديف","name:en":"Redeyef","name:fr":"Redeyef","name:ru":"Редееф"},"display_name":"الرديف, الرديف المحطة, معتمدية الرديف, ولاية قفصة, تونس","address":{"town":"الرديف","county":"الرديف المحطة","state_district":"معتمدية الرديف","state":"ولاية قفصة","ISO3166-2-lvl4":"TN-71","country":"تونس","country_code":"tn"},"population":26000,"osm_type":"way","osm_id":206512070,"type":"town","location":[8.1538874,34.3843201],"bbox":[8.1314303,34.3701588,8.1833987,34.4084416]}}
{"name":"الرقبة","other_names":{"name:ar":"الرقبة","name:de":"Ar-Ruqba","name:en":"Ar Ruqba","name:fr":"El Rogba"},"display_name":"الرقبة, المسرب, معتمدية تطاوين الجنوبية, ولاية تطاوين, 3293, تونس","address":{"town":"الرقبة","county":"المسرب","state_district":"معتمدية تطاوين الجنوبية","state":"ولاية تطاوين","ISO3166-2-lvl4":"TN-83","postcode":"3293","country":"تونس","country_code":"tn"},"osm_type":"node","osm_id":6178330200,"type":"town","location":[10.4144622,32.908583],"bbox":[10.3744622,32.868583,10.4544622,32.948583],"border":{"name":"الرقبة","other_names":{"name:ar":"الرقبة","name:fr":"ERROGHBA"},"display_name":"الرقبة, معتمدية تطاوين الجنوبية, ولاية تطاوين, تونس","address":{"county":"الرقبة","state_district":"معتمدية تطاوين الجنوبية","state":"ولاية تطاوين","ISO3166-2-lvl4":"TN-83","country":"تونس","country_code":"tn"},"osm_type":"relation","osm_id":7143877,"type":"administrative","location":[10.421232373300972,32.9025874],"bbox":[10.4103049,32.8906274,10.4338469,32.9151074]}}
{"name":"الرملة","other_names":{"name:en":"Remla","name:fr":"Remla","alt_name":"Erremla","name:aeb":"الرملة"},"display_name":"الرملة, قرقنة, ولاية صفاقس, 3070, تونس","address":{"town":"الرملة","county":"الرملة","island":"قرقنة","state":"ولاية صفاقس","ISO3166-2-lvl4":"TN-61","postcode":"3070","country":"تونس","country_code":"tn"},"osm_type":"node","osm_id":2248618409,"type":"town","location":[11.2031411,34.7053684],"bbox":[11.1631411,34.6653684,11.2431411,34.7453684],"border":{"name":"الرملة","other_names":{"name:ar":"الرملة","name:fr":"Erramla"},"display_name":"الرملة, قرقنة, ولاية صفاقس, تونس","address":{"county":"الرملة","island":"قرقنة","state":"ولاية صفاقس","ISO3166-2-lvl4":"TN-61","country":"تونس","country_code":"tn"},"osm_type":"relation","osm_id":7147637,"type":"administrative","location":[11.1955532525,34.73156695],"bbox":[11.1636969,34.7007134,11.2225626,34.7624249]}}
{"name":"الزهراء","other_names":{"name:ar":"الزهراء","name:en":"Ezzahra","name:fr":"Ezzahra","name:ru":"Эз-Захра"},"display_name":"الزهراء, حي الحبيب, معتمدية الزهراء, ولاية بن عروس, 2034, تونس","address":{"town":"الزهراء","county":"حي الحبيب","state_district":"معتمدية الزهراء","state":"ولاية بن عروس","ISO3166-2-lvl4":"TN-13","postcode":"2034","country":"تونس","country_code":"tn"},"population":34962,"osm_type":"node","osm_id":1204588103,"type":"town","location":[10.3029461,36.7404497],"bbox":[10.2629461,36.7004497,10.3429461,36.7804497]}
{"name":"الساحلين","other_names":{"name:ar":"الساحلين","name:en":"Sahline","name:fr":"Sahline","name:ru":"Эс-Сахилин"},"display_name":"الساحلين, الساحلين الغربية, معتمدية الساحلين, ولاية المنستير, 5012, تونس","address":{"town":"الساحلين","county":"الساحلين الغربية","state_district":"معتمدية الساحلين","state":"ولاية المنستير","ISO3166-2-lvl4":"TN-52","postcode":"5012","country":"تونس","country_code":"tn"},"osm_type":"node","osm_id":1206559008,"type":"town","location":[10.7116486,35.7512612],"bbox":[10.6716486,35.7112612,10.7516486,35.7912612]}
{"name":"السند","other_names":{"name:ar":"السند","name:en":"Sened","name:fr":"Sened","name:ru":"Сенед","alt_name":"As Snad"},"display_name":"السند, السند الشمالية, معتمدية السند, ولاية قفصة, 2190, تونس","address":{"town":"السند","county":"السند الشمالية","state_district":"معتمدية السند","state":"ولاية قفصة","ISO3166-2-lvl4":"TN-71","postcode":"2190","country":"تونس","country_code":"tn"},"population":8931,"osm_type":"node","osm_id":2178146164,"type":"town","location":[9.2513281,34.540278],"bbox":[9.2113281,34.500278,9.2913281,34.580278],"border":[{"name":"السند","other_names":{"name:ar":"السند","name:en":"Sened","name:fr":"Sened","name:ru":"Сенед","alt_name":"As Snad"},"display_name":"السند, السند الشمالية, معتمدية السند, ولاية قفصة, 2190, تونس","address":{"town":"السند","county":"السند الشمالية","state_district":"معتمدية السند","state":"ولاية قفصة","ISO3166-2-lvl4":"TN-71","postcode":"2190","country":"تونس","country_code":"tn"},"population":8931,"osm_type":"way","osm_id":270160718,"type":"town","location":[9.2513281,34.540278],"bbox":[9.2331585,34.5322219,9.2682468,34.5539454]},{"name":"السند","other_names":{"name:ar":"السند","name:fr":"Sned"},"display_name":"السند, معتمدية السند, ولاية قفصة, 2193, تونس","address":{"county":"السند","state_district":"معتمدية السند","state":"ولاية قفصة","ISO3166-2-lvl4":"TN-71","postcode":"2193","country":"تونس","country_code":"tn"},"osm_type":"relation","osm_id":7150185,"type":"administrative","location":[9.230336007875284,34.47689],"bbox":[9.122118,34.40902,9.338944,34.54457]}]}
{"name":"الشابة","other_names":{"name:ar":"الشابة","name:en":"Chebba","name:fa":"الشابه","name:fr":"Chebba","name:ru":"Шебба"},"display_name":"الشابة, الشابة الجنوبية, معتمدية الشابة, ولاية المهدية, 5170, تونس","address":{"town":"الشابة","county":"الشابة الجنوبية","state_district":"معتمدية الشابة","state":"ولاية المهدية","ISO3166-2-lvl4":"TN-53","postcode":"5170","country":"تونس","country_code":"tn"},"population":24515,"osm_type":"node","osm_id":443160117,"type":"town","location":[11.1129712,35.2365477],"bbox":[11.0729712,35.1965477,11.1529712,35.2765477]}
{"name":"الصمعة","other_names":{"name:ar":"الصمعة","name:en":"Somâa","name:fr":"Somâa","name:ru":"Эс-Сомаа"},"display_name":"الصمعة, صمعة, معتمدية بني خيار, ولاية نابل, تونس","address":{"town":"الصمعة","county":"صمعة","state_district":"معتمدية بني خيار","state":"ولاية نابل","ISO3166-2-lvl4":"TN-21","country":"تونس","country_code":"tn"},"osm_type":"node","osm_id":1128016495,"type":"town","location":[10.7841027,36.5428113],"bbox":[10.7441027,36.5028113,10.8241027,36.5828113],"border":{"name":"الصمعة","other_names":{"name:ar":"الصمعة","name:en":"Somâa","name:fr":"Somâa","name:ru":"Эс-Сомаа"},"display_name":"الصمعة, صمعة, معتمدية بني خيار, ولاية نابل, تونس","address":{"town":"الصمعة","county":"صمعة","state_district":"معتمدية بني خيار","state":"ولاية نابل","ISO3166-2-lvl4":"TN-21","country":"تونس","country_code":"tn"},"osm_type":"way","osm_id":176000341,"type":"town","location":[10.7841027,36.5428113],"bbox":[10.7742357,36.5360679,10.7885876,36.5478695]}}
{"name":"الطويرف","other_names":{"name:ar":"الطويرف","name:en":"Touiref","name:fr":"Touiref","name:ru":"Туире"},"display_name":"الطويرف, معتمدية نبر, ولاية الكاف, 7112, تونس","address":{"town":"الطويرف","county":"الطويرف","state_district":"معتمدية نبر","state":"ولاية الكاف","ISO3166-2-lvl4":"TN-33","postcode":"7112","country":"تونس","country_code":"tn"},"population":2895,"osm_type":"node","osm_id":675058710,"type":"town","location":[8.5798302,36.3398873],"bbox":[8.5398302,36.2998873,8.6198302,36.3798873],"border":{"name":"الطويرف","other_names":{"name:ar":"الطويرف","name:fr":"Touiref"},"display_name":"الطويرف, معتمدية نبر, ولاية الكاف, 7112, تونس","address":{"county":"الطويرف","state_district":"معتمدية نبر","state":"ولاية الكاف","ISO3166-2-lvl4":"TN-33","postcode":"7112","country":"تونس","country_code":"tn"},"osm_type":"relation","osm_id":7198151,"type":"administrative","location":[8.567029173427088,36.314449999999994],"bbox":[8.5222825,36.2506694,8.654249,36.37603]}}
{"name":"العالية","other_names":{"name:ar":"العالية","name:en":"El Alia","name:fr":"El Alia","name:ru":"Эль-Алия","name:uk":"Ель-Алья","name:kab":"Lɛaliya"},"display_name":"العالية, العالية الشمالية, معتمدية العالية, ولاية بنزرت, 7016, تونس","address":{"town":"العالية","county":"العالية الشمالية","state_district":"معتمدية العالية","state":"ولاية بنزرت","ISO3166-2-lvl4":"TN-23","postcode":"7016","country":"تونس","country_code":"tn"},"population":16819,"osm_type":"node","osm_id":1839362661,"type":"town","location":[10.0338705,37.1689041],"bbox":[9.9938705,37.1289041,10.0738705,37.2089041]}
{"name":"العوينة","other_names":{"name:ar":"العوينة","name:en":"El Aouina","name:fr":"El Aouina"},"display_name":"العوينة, ولاية تونس, 2045, تونس","address":{"town":"العوينة","state":"ولاية تونس","ISO3166-2-lvl4":"TN-11","postcode":"2045","country":"تونس","country_code":"tn"},"osm_type":"node","osm_id":1136727177,"type":"town","location":[10.2659363,36.852609],"bbox":[10.2259363,36.812609,10.3059363,36.892609],"border":{"name":"العوينة","other_names":{"name:ar":"العوينة","name:en":"El Aouina","name:fr":"El Aouina"},"display_name":"العوينة, ولاية تونس, 2045, تونس","address":{"town":"العوينة","state":"ولاية تونس","ISO3166-2-lvl4":"TN-11","postcode":"2045","country":"تونس","country_code":"tn"},"osm_type":"way","osm_id":128946405,"type":"town","location":[10.2659363,36.852609],"bbox":[10.2486299,36.8479152,10.2949332,36.8671762]}}
{"name":"الفحص","other_names":{"name:ar":"الفحص","name:en":"El Fahs","name:fr":"El Fahs"},"display_name":"الفحص, معتمدية الفحص, ولاية زغوان, 1140, تونس","address":{"town":"الفحص","county":"الفحص","state_district":"معتمدية الفحص","state":"ولاية زغوان","ISO3166-2-lvl4":"TN-22","postcode":"1140","country":"تونس","country_code":"tn"},"osm_type":"node","osm_id":1277956973,"type":"town","location":[9.9019369,36.3717136],"bbox":[9.8619369,36.3317136,9.9419369,36.4117136],"border":{"name":"الفحص","other_names":{"name:ar":"الفحص","name:fr":"El Fahs"},"display_name":"الفحص, معتمدية الفحص, ولاية زغوان, 1140, تونس","address":{"county":"الفحص","state_district":"معتمدية الفحص","state":"ولاية زغوان","ISO3166-2-lvl4":"TN-22","postcode":"1140","country":"تونس","country_code":"tn"},"osm_type":"relation","osm_id":7110834,"type":"administrative","location":[9.899836631278166,36.3632487],"bbox":[9.8702026,36.3370833,9.9501266,36.3894837]}}
{"name":"القطار","other_names":{"name:ar":"القطار","name:en":"El Guettar","name:fr":"El Guettar","name:ru":"Эль-Геттар","alt_name":"El Kettar"},"display_name":"القطار, القطار الشرقية, معتمدية القطار, ولاية قفصة, 2180, تونس","address":{"town":"القطار","county":"القطار الشرقية","state_district":"معتمدية القطار","state":"ولاية قفصة","ISO3166-2-lvl4":"TN-71","postcode":"2180","country":"تونس","country_code":"tn"},"osm_type":"node","osm_id":2177334841,"type":"town","location":[8.950364,34.3394652],"bbox":[8.910364,34.2994652,8.990364,34.3794652],"border":{"name":"القطار","other_names":{"name:ar":"القطار","name:en":"El Guettar","name:fr":"El Guettar","name:ru":"Эль-Геттар","alt_name":"El Kettar"},"display_name":"القطار, القطار الشرقية, معتمدية القطار, ولاية قفصة, تونس","address":{"town":"القطار","county":"القطار الشرقية","state_district":"معتمدية القطار","state":"ولاية قفصة","ISO3166-2-lvl4":"TN-71","country":"تونس","country_code":"tn"},"osm_type":"way","osm_id":1228794998,"type":"town","location":[8.950364,34.3394652],"bbox":[8.9309177,34.3303722,8.9628509,34.345831]}}
{"name":"القلعة الخصبة","other_names":{"name:ar":"القلعة الخصبة","name:en":"Kalâat Khasba","name:fr":"Kalâat Khasba","old_name":"القلعة الجردة","old_name:ar":"القلعة الجردة"},"display_name":"القلعة الخصبة, معتمدية القلعة الخصبة, ولاية الكاف, 7113, تونس","address":{"town":"القلعة الخصبة","state_district":"معتمدية القلعة الخصبة","state":"ولاية الكاف","ISO3166-2-lvl4":"TN-33","postcode":"7113","country":"تونس","country_code":"tn"},"population":2871,"osm_type":"node","osm_id":674434208,"type":"town","location":[8.5877785,35.6654639],"bbox":[8.5477785,35.6254639,8.6277785,35.7054639],"border":{"name":"القلعة الخصبة","other_names":{"name:ar":"القلعة الخصبة","name:fr":"Kalaat Khasba","old_name":"القلعة الجردة","old_name:ar":"القلعة الجردة","name:en":"Kalâat Khasba","alt:fr":"Kalâat Khasba"},"display_name":"القلعة الخصبة, معتمدية القلعة الخصبة, ولاية الكاف, 7113, تونس","address":{"town":"القلعة الخصبة","state_district":"معتمدية القلعة الخصبة","state":"ولاية الكاف","ISO3166-2-lvl4":"TN-33","postcode":"7113","country":"تونس","country_code":"tn"},"population":2871,"osm_type":"relation","osm_id":7125195,"type":"administrative","location":[8.5877785,35.6654639],"bbox":[8.5434635,35.6373286,8.6261553,35.6856583]}}
{"name":"القلعة الكبرى","other_names":{"name:ar":"القلعة الكبرى","name:en":"Kalaa Kebira","name:fr":"Kalaa Kebira","name:ru":"Калъа-Кебира"},"display_name":"القلعة الكبرى, زعارنة الشرقية, معتمدية القلعة الكبرى, ولاية سوسة, 4045, تونس","address":{"town":"القلعة الكبرى","county":"زعارنة الشرقية","state_district":"معتمدية القلعة الكبرى","state":"ولاية سوسة","ISO3166-2-lvl4":"TN-51","postcode":"4045","country":"تونس","country_code":"tn"},"osm_type":"node","osm_id":287620228,"type":"town","location":[10.5365372,35.8704108],"bbox":[10.4965372,35.8304108,10.5765372,35.9104108]}
{"name":"الكرم","other_names":{"name:ar":"الكرم","name:en":"Le Kram","name:fr":"Le Kram"},"display_name":"الكرم, تونس, ولاية تونس, 2025, تونس","address":{"town":"الكرم","city":"تونس","state":"ولاية تونس","ISO3166-2-lvl4":"TN-11","postcode":"2025","country":"تونس","country_code":"tn"},"osm_type":"node","osm_id":1136725873,"type":"town","location":[10.3181518,36.8348312],"bbox":[10.2781518,36.7948312,10.3581518,36.8748312]}
{"name":"اللوزة","other_names":{"name:ar":"اللوزة","name:de":"Al-Luza","name:en":"Al Luza","name:fr":"Ellouza","alt_name:en":"Ellouza"},"display_name":"اللوزة, ‫اللوزة‬, معتمدية جبنيانة, ولاية صفاقس, 3016, تونس","address":{"town":"اللوزة","county":"‫اللوزة‬","state_district":"معتمدية جبنيانة","state":"ولاية صفاقس","ISO3166-2-lvl4":"TN-61","postcode":"3016","country":"تونس","country_code":"tn"},"osm_type":"node","osm_id":3823151839,"type":"town","location":[11.000684,35.0289322],"bbox":[10.960684,34.9889322,11.040684,35.0689322],"border":{"name":"‫اللوزة‬","other_names":{"name:ar":"‫اللوزة‬","name:fr":"Ellouza"},"display_name":"‫اللوزة‬, معتمدية جبنيانة, ولاية صفاقس, تونس","address":{"county":"‫اللوزة‬","state_district":"معتمدية جبنيانة","state":"ولاية صفاقس","ISO3166-2-lvl4":"TN-61","country":"تونس","country_code":"tn"},"osm_type":"relation","osm_id":7127923,"type":"administrative","location":[11.002059616712872,35.03997545],"bbox":[10.9744003,35.0122635,11.0235608,35.0674053]}}
{"name":"الماي","other_names":{"name:ar":"الماي","name:en":"El Mey","name:es":"El May","name:fr":"El Mey","alt_name":"El Mey","int_name":"El Mey"},"display_name":"الماي, معتمدية جربة ميدون, ولاية مدنين, 4195, تونس","address":{"town":"الماي","county":"الماي","state_district":"معتمدية جربة ميدون","state":"ولاية مدنين","ISO3166-2-lvl4":"TN-82","postcode":"4195","country":"تونس","country_code":"tn"},"population":9131,"osm_type":"node","osm_id":1926362521,"type":"town","location":[10.8833275,33.8011894],"bbox":[10.8433275,33.7611894,10.9233275,33.8411894],"border":{"name":"الماي","other_names":{"name:ar":"الماي","name:fr":"El May"},"display_name":"الماي, معتمدية جربة ميدون, ولاية مدنين, تونس","address":{"county":"الماي","state_district":"معتمدية جربة ميدون","state":"ولاية مدنين","ISO3166-2-lvl4":"TN-82","country":"تونس","country_code":"tn"},"osm_type":"relation","osm_id":7133855,"type":"administrative","location":[10.901888052048415,33.7906447],"bbox":[10.8612364,33.7646043,10.9440006,33.8165785]}}
{"name":"المتلوي","other_names":{"name:ar":"المتلوي","name:de":"Al-Matlawi","name:en":"Metlaoui","name:fr":"Métlaoui","name:pl":"Al-Matlawi","name:ru":"Метлави","name:uk":"Мітлаві"},"display_name":"المتلوي, المتلوي المركز, معتمدية المتلوي, ولاية قفصة, 2134, تونس","address":{"town":"المتلوي","county":"المتلوي المركز","state_district":"معتمدية المتلوي","state":"ولاية قفصة","ISO3166-2-lvl4":"TN-71","postcode":"2134","country":"تونس","country_code":"tn"},"osm_type":"node","osm_id":694068983,"type":"town","location":[8.4018294,34.315723],"bbox":[8.3618294,34.275723,8.4418294,34.355723]}
{"name":"المحرس","other_names":{"name:ar":"المحرس","name:en":"Mahres","name:fr":"Mahrès","name:ru":"Махарес","alt_name":"محرس","alt_name:ar":"محرس"},"display_name":"المحرس, ‫المحرس‬, معتمدية ‫المحرس‬, ولاية صفاقس, 3060, تونس","address":{"town":"المحرس","county":"‫المحرس‬","state_district":"معتمدية ‫المحرس‬","state":"ولاية صفاقس","ISO3166-2-lvl4":"TN-61","postcode":"3060","country":"تونس","country_code":"tn"},"osm_type":"node","osm_id":443149064,"type":"town","location":[10.4984421,34.5218412],"bbox":[10.4584421,34.4818412,10.5384421,34.5618412],"border":{"name":"‫المحرس‬","other_names":{"name:ar":"‫المحرس‬","name:fr":"El Mahrès","alt_name":"محرس","alt_name:ar":"محرس‬"},"display_name":"‫المحرس‬, معتمدية ‫المحرس‬, ولاية صفاقس, تونس","address":{"county":"‫المحرس‬","state_district":"معتمدية ‫المحرس‬","state":"ولاية صفاقس","ISO3166-2-lvl4":"TN-61","country":"تونس","country_code":"tn"},"osm_type":"relation","osm_id":7110921,"type":"administrative","location":[10.51667290780154,34.54692185],"bbox":[10.4826957,34.5176002,10.5647513,34.5768122]}}
{"name":"المحمدية","other_names":{"name:ar":"المحمدية","name:en":"Mohamedia","name:fr":"Mohamedia","name:ru":"Эль-Мохамедия"},"display_name":"المحمدية, حي النسيم, معتمدية المحمدية, ولاية بن عروس, 1145, تونس","address":{"town":"المحمدية","county":"حي النسيم","state_district":"معتمدية المحمدية","state":"ولاية بن عروس","ISO3166-2-lvl4":"TN-13","postcode":"1145","country":"تونس","country_code":"tn"},"osm_type":"node","osm_id":2988370656,"type":"town","location":[10.1570438,36.6796879],"bbox":[10.1170438,36.6396879,10.1970438,36.7196879],"border":{"name":"المحمدية","other_names":{"name:ar":"المحمدية","name:fr":"Mohamedia"},"display_name":"المحمدية, معتمدية المحمدية, ولاية بن عروس, تونس","address":{"county":"المحمدية","state_district":"معتمدية المحمدية","state":"ولاية بن عروس","ISO3166-2-lvl4":"TN-13","country":"تونس","country_code":"tn"},"osm_type":"relation","osm_id":7174570,"type":"administrative","location":[10.146443758460517,36.67475],"bbox":[10.136739,36.65843,10.161801,36.69099]}}
{"name":"المرسى","other_names":{"name:ar":"المرسى","name:en":"La Marsa","name:fr":"La Marsa","name:ru":"Эль-Марса"},"display_name":"المرسى, تونس, ولاية تونس, 2070, تونس","address":{"town":"المرسى","city":"تونس","state":"ولاية تونس","ISO3166-2-lvl4":"TN-11","postcode":"2070","country":"تونس","country_code":"tn"},"osm_type":"node","osm_id":287547219,"type":"town","location":[10.327678,36.8790882],"bbox":[10.287678,36.8390882,10.367678,36.9190882]}
{"name":"المظيلة ‎","other_names":{"name:ar":"المظيلة ‎","name:en":"Mdhila","name:fr":"Mdhilla","name:ru":"Мдилла","int_name":"Al Maḏīla","name:kab":"Lemḍila"},"display_name":"المظيلة ‎, المظيلة المركز, معتمدية المضيلة, ولاية قفصة, تونس","address":{"town":"المظيلة ‎","county":"المظيلة المركز","state_district":"معتمدية المضيلة","state":"ولاية قفصة","ISO3166-2-lvl4":"TN-71","country":"تونس","country_code":"tn"},"population":12383,"osm_type":"node","osm_id":2177279829,"type":"town","location":[8.7480284,34.286879],"bbox":[8.7080284,34.246879,8.7880284,34.326879],"border":{"name":"Mdhila","display_name":"Mdhila, المظيلة المركز, معتمدية المضيلة, ولاية قفصة, تونس","address":{"town":"Mdhila","county":"المظيلة المركز","state_district":"معتمدية المضيلة","state":"ولاية قفصة","ISO3166-2-lvl4":"TN-71","country":"تونس","country_code":"tn"},"population":12,"osm_type":"way","osm_id":207473651,"type":"town","location":[8.753444680102582,34.28990925],"bbox":[8.7378236,34.2769421,8.7660186,34.3029879]}}
{"name":"المكنين","other_names":{"name:ar":"المكنين","name:en":"Moknine","name:fa":"مکنین","name:fr":"Moknine","name:ru":"Мокнин","name:ur":"مکنین","alt_name":"مكنين","alt_name:ar":"مكنين"},"display_name":"المكنين, مكنين, معتمدية المكنين, ولاية المنستير, 5050, تونس","address":{"town":"المكنين","state_district":"معتمدية المكنين","state":"ولاية المنستير","ISO3166-2-lvl4":"TN-52","postcode":"5050","country":"تونس","country_code":"tn"},"osm_type":"node","osm_id":287615073,"type":"town","location":[10.9001327,35.628257],"bbox":[10.8601327,35.588257,10.9401327,35.668257],"border":{"name":"مكنين","other_names":{"name:ar":"مكنين","name:en":"Moknine","name:fr":"Moknine","name:ru":"Мокнин"},"display_name":"مكنين, معتمدية المكنين, ولاية المنستير, تونس","address":{"town":"مكنين","state_district":"معتمدية المكنين","state":"ولاية المنستير","ISO3166-2-lvl4":"TN-52","country":"تونس","country_code":"tn"},"osm_type":"relation","osm_id":8893246,"type":"town","location":[10.857544502644071,35.5940849],"bbox":[10.8293782,35.5371712,10.9470527,35.651077]}}
{"name":"النفيضة","other_names":{"name:ar":"النفيضة","name:en":"Enfidha","name:fr":"Enfidha","name:kab":"Nfiḍa"},"display_name":"النفيضة, معتمدية النفيضة, ولاية سوسة, 4030, تونس","address":{"town":"النفيضة","county":"النفيضة","state_district":"معتمدية النفيضة","state":"ولاية سوسة","ISO3166-2-lvl4":"TN-51","postcode":"4030","country":"تونس","country_code":"tn"},"population":10990,"osm_type":"node","osm_id":1439531928,"type":"town","location":[10.3779916,36.1341194],"bbox":[10.3379916,36.0941194,10.4179916,36.1741194],"border":{"name":"النفيضة","other_names":{"name:ar":"النفيضة","name:fr":"Enfidha"},"display_name":"النفيضة, معتمدية النفيضة, ولاية سوسة, 4030, تونس","address":{"county":"النفيضة","state_district":"معتمدية النفيضة","state":"ولاية سوسة","ISO3166-2-lvl4":"TN-51","postcode":"4030","country":"تونس","country_code":"tn"},"osm_type":"relation","osm_id":7105617,"type":"administrative","location":[10.415036820595237,36.09427745],"bbox":[10.3315044,36.0466354,10.4734924,36.1411325]}}
{"name":"الوسلاتية","other_names":{"name:ar":"الوسلاتية","name:en":"Weslatia","name:fr":"Oueslatia","name:kab":"Waslateyya"},"display_name":"الوسلاتية, الوسلاتية الشرقية, معتمدية الوسلاتية, ولاية القيروان, تونس","address":{"town":"الوسلاتية","county":"الوسلاتية الشرقية","state_district":"معتمدية الوسلاتية","state":"ولاية القيروان","ISO3166-2-lvl4":"TN-41","country":"تونس","country_code":"tn"},"population":9006,"osm_type":"node","osm_id":2131332953,"type":"town","location":[9.5932661,35.8476563],"bbox":[9.5532661,35.8076563,9.6332661,35.8876563]}
{"name":"بئر الباي","other_names":{"name:ar":"بئر الباي","name:en":"Bir El Bey","name:fr":"Bir El Bey","name:ru":"Бир Эль Бе"},"display_name":"بئر الباي, معتمدية حمام الشط, ولاية بن عروس, 2050, تونس","address":{"town":"بئر الباي","county":"بئر الباي","state_district":"معتمدية حمام الشط","state":"ولاية بن عروس","ISO3166-2-lvl4":"TN-13","postcode":"2050","country":"تونس","country_code":"tn"},"osm_type":"node","osm_id":411893392,"type":"town","location":[10.3737904,36.7105838],"bbox":[10.3337904,36.6705838,10.4137904,36.7505838],"border":{"name":"بئر الباي","other_names":{"name:ar":"بئر الباي","name:fr":"Bir El Bey"},"display_name":"بئر الباي, معتمدية حمام الشط, ولاية بن عروس, تونس","address":{"county":"بئر الباي","state_district":"معتمدية حمام الشط","state":"ولاية بن عروس","ISO3166-2-lvl4":"TN-13","country":"تونس","country_code":"tn"},"osm_type":"relation","osm_id":7174583,"type":"administrative","location":[10.370015497999864,36.702715],"bbox":[10.351763,36.68587,10.384378,36.7194851]}}
{"name":"بئر الحفي","other_names":{"name:ar":"بئر الحفي","name:en":"Bir El Hafey","name:fr":"Bir El Hafey"},"display_name":"بئر الحفي, معتمدية بئر الحفي, ولاية سيدي بوزيد, تونس","address":{"town":"بئر الحفي","county":"بئر الحفي","state_district":"معتمدية بئر الحفي","state":"ولاية سيدي بوزيد","ISO3166-2-lvl4":"TN-43","country":"تونس","country_code":"tn"},"population":10000,"osm_type":"node","osm_id":5067512322,"type":"town","location":[9.1960034,34.932087],"bbox":[9.1560034,34.892087,9.2360034,34.972087],"border":{"name":"بئر الحفي","other_names":{"name:ar":"بئر الحفي","name:fr":"Bir El Hafey"},"display_name":"بئر الحفي, معتمدية بئر الحفي, ولاية سيدي بوزيد, تونس","address":{"county":"بئر الحفي","state_district":"معتمدية بئر الحفي","state":"ولاية سيدي بوزيد","ISO3166-2-lvl4":"TN-43","country":"تونس","country_code":"tn"},"osm_type":"relation","osm_id":7169596,"type":"administrative","location":[9.19674285034786,34.9555],"bbox":[9.099946,34.89259,9.260754,35.0196507]}}
{"name":"بئر علي بن خليفة","other_names":{"name:ar":"بئر علي بن خليفة","name:ca":"Bir Ali Ben Khélifa","name:en":"Bir Ali Ben Khalifa","name:fa":"بئر علی بن خلیفه","name:fr":"Bir Ali Ben Khalifa","name:it":"Bir Ali Ben Khalifa","name:ko":"비르알리벤켈리파","name:ru":"Бир-Али-Бен-Халифа","name:uk":"Беер-Алі-Бен-Халіфа","name:zu":"Bir Ali Ben Khélifa","alt_name":"بير علي بن خليفة","name:kab":"Bir Ɛli Ben Xalifa","alt_name:ar":"بير علي بن خليفة"},"display_name":"بئر علي بن خليفة, معتمدية بئر علي بن خليفة, ولاية صفاقس, 3040, تونس","address":{"town":"بئر علي بن خليفة","state_district":"معتمدية بئر علي بن خليفة","state":"ولاية صفاقس","ISO3166-2-lvl4":"TN-61","postcode":"3040","country":"تونس","country_code":"tn"},"osm_type":"node","osm_id":443160013,"type":"town","location":[10.0958949,34.7406664],"bbox":[10.0558949,34.7006664,10.1358949,34.7806664],"border":{"name":"بئر علي بن خليفة","other_names":{"name:ar":"بئر علي بن خليفة","name:fa":"بئر علی بن خلیفه","name:fr":"Bir Ali Ben Khalifa","alt_name":"بير علي بن خليفة","alt_name:ar":"بير علي بن خليفة","official_name":"بلدية بئر علي بن خليفة","name:ca":"Bir Ali Ben Khélifa","name:en":"Bir Ali Ben Khalifa","name:it":"Bir Ali Ben Khalifa","name:ko":"비르알리벤켈리파","name:ru":"Бир-Али-Бен-Халифа","name:uk":"Беер-Алі-Бен-Халіфа","name:zu":"Bir Ali Ben Khélifa","name:kab":"Bir Ɛli Ben Xalifa","official_name:ar":"بلدية بئر علي بن خليفة"},"display_name":"بئر علي بن خليفة, معتمدية بئر علي بن خليفة, ولاية صفاقس, تونس","address":{"town":"بئر علي بن خليفة","state_district":"معتمدية بئر علي بن خليفة","state":"ولاية صفاقس","ISO3166-2-lvl4":"TN-61","country":"تونس","country_code":"tn"},"osm_type":"relation","osm_id":7119537,"type":"administrative","location":[10.0958949,34.7406664],"bbox":[10.0737578,34.7068839,10.1203548,34.7472771]}}
{"name":"باب العسل","other_names":{"name:ar":"باب العسل","name:en":"Bab Laassal","name:fr":"Bab Laassal"},"display_name":"باب العسل, تونس, ولاية تونس, 1005, تونس","address":{"town":"باب العسل","city":"تونس","state":"ولاية تونس","ISO3166-2-lvl4":"TN-11","postcode":"1005","country":"تونس","country_code":"tn"},"osm_type":"node","osm_id":1831965889,"type":"town","location":[10.1690687,36.8120095],"bbox":[10.1290687,36.7720095,10.2090687,36.8520095],"border":{"name":"باب العسل","other_names":{"name:ar":"باب العسل","name:fr":"Bab El Assel"},"display_name":"باب العسل, معتمدية باب سويقة, ولاية تونس, تونس","address":{"suburb":"باب العسل","city_district":"معتمدية باب سويقة","state":"ولاية تونس","ISO3166-2-lvl4":"TN-11","country":"تونس","country_code":"tn"},"osm_type":"relation","osm_id":7201469,"type":"administrative","location":[10.167046624759426,36.81138],"bbox":[10.1654823,36.8089254,10.1733901,36.8137038]}}
{"name":"باردو","other_names":{"name:ar":"باردو","name:en":"Le Bardo","name:fr":"Le Bardo","name:ru":"Ле Бардо"},"display_name":"باردو, تونس, ولاية تونس, 2000, تونس","address":{"town":"باردو","city":"تونس","state":"ولاية تونس","ISO3166-2-lvl4":"TN-11","postcode":"2000","country":"تونس","country_code":"tn"},"osm_type":"node","osm_id":287558953,"type":"town","location":[10.1363018,36.8139969],"bbox":[10.0963018,36.7739969,10.1763018,36.8539969],"border":{"name":"باردو","other_names":{"name:ar":"باردو","name:en":"Le Bardo","name:fr":"Le Bardo","name:ru":"Ле Бардо"},"display_name":"باردو, تونس, ولاية تونس, 2000, تونس","address":{"town":"باردو","city":"تونس","state":"ولاية تونس","ISO3166-2-lvl4":"TN-11","postcode":"2000","country":"تونس","country_code":"tn"},"osm_type":"way","osm_id":103825771,"type":"town","location":[10.1363018,36.8139969],"bbox":[10.1259227,36.8074619,10.1548857,36.8212048]}}
{"name":"بن قردان","other_names":{"name:ar":"بن قردان","name:ca":"Ben Gardane","name:cs":"Ben Gardane","name:cy":"Ben Guerdane","name:da":"Ben Gardane","name:de":"Ben Gardane","name:el":"Μπεν Γκερντάν","name:en":"Ben Gardane","name:es":"Ben Gardane","name:fa":"بن قردان","name:fi":"Ben Gardane","name:fr":"Ben Gardane","name:he":"בן גרדאן","name:hu":"Ben Gardane","name:it":"Ben Gardane","name:ja":"ベンカルダン","name:ko":"벤가르단","name:lt":"Ben Gardanas","name:nl":"Ben Gardane","name:pl":"Bin Kirdan","name:pt":"Ben Gardane","name:ro":"Ben Gardane","name:ru":"Бен-Гардан","name:tr":"Ben Gardane","name:uk":"Бен Кардан","name:ur":"بن قردان","name:zh":"本加爾丹","name:zu":"Ben Gardane","alt_name":"بن قردان","name:azb":"بن قردان","name:kab":"Ben Gardane","alt_name:ar":"بن قردان","official_name":"مدينة بنقردان","official_name:ar":"مدينة بنقردان"},"display_name":"بن قردان, بنقردان الشمالية, معتمدية بنقردان, ولاية مدنين, 4160, تونس","address":{"town":"بن قردان","county":"بنقردان الشمالية","state_district":"معتمدية بنقردان","state":"ولاية مدنين","ISO3166-2-lvl4":"TN-82","postcode":"4160","country":"تونس","country_code":"tn"},"population":58000,"osm_type":"node","osm_id":287588734,"type":"town","location":[11.2170109,33.1403223],"bbox":[11.1770109,33.1003223,11.2570109,33.1803223]}
{"name":"بني خداش","other_names":{"name:ar":"بني خداش","name:en":"Beni Khedache","name:fr":"Beni Khedache","int_name":"Beni Kheddache"},"display_name":"بني خداش, معتمدية بني خداش, ولاية مدنين, تونس","address":{"town":"بني خداش","county":"بني خداش","state_district":"معتمدية بني خداش","state":"ولاية مدنين","ISO3166-2-lvl4":"TN-82","country":"تونس","country_code":"tn"},"osm_type":"node","osm_id":1657474545,"type":"town","location":[10.2001033,33.2513927],"bbox":[10.1601033,33.2113927,10.2401033,33.2913927],"border":{"name":"بني خداش","other_names":{"name:ar":"بني خداش","name:fr":"Beni Khedech"},"display_name":"بني خداش, معتمدية بني خداش, ولاية مدنين, تونس","address":{"county":"بني خداش","state_district":"معتمدية بني خداش","state":"ولاية مدنين","ISO3166-2-lvl4":"TN-82","country":"تونس","country_code":"tn"},"osm_type":"relation","osm_id":7142941,"type":"administrative","location":[10.200806312500008,33.252977],"bbox":[10.1625585,33.216142,10.2618255,33.2896319]}}
{"name":"بني خيار","other_names":{"name:ar":"بني خيار","name:en":"Béni Khiar","name:fr":"Béni Khiar","name:uk":"Бені-Х'яр","int_name":"Béni Khiar"},"display_name":"بني خيار, معتمدية بني خيار, ولاية نابل, 8060, تونس","address":{"town":"بني خيار","county":"بني خيار","state_district":"معتمدية بني خيار","state":"ولاية نابل","ISO3166-2-lvl4":"TN-21","postcode":"8060","country":"تونس","country_code":"tn"},"osm_type":"node","osm_id":1128018620,"type":"town","location":[10.7809776,36.4693627],"bbox":[10.7409776,36.4293627,10.8209776,36.5093627],"border":{"name":"بني خيار","other_names":{"name:ar":"بني خيار","name:fr":"Beni Khiar"},"display_name":"بني خيار, معتمدية بني خيار, ولاية نابل, 8060, تونس","address":{"county":"بني خيار","state_district":"معتمدية بني خيار","state":"ولاية نابل","ISO3166-2-lvl4":"TN-21","postcode":"8060","country":"تونس","country_code":"tn"},"osm_type":"relation","osm_id":7103009,"type":"administrative","location":[10.760805595170368,36.50793645],"bbox":[10.6948606,36.4494259,10.8025157,36.5663968]}}
{"display_name":"بو عبد الله, معتمدية سوق الأحد, ولاية قبلي, تونس","address":{"county":"بو عبد الله","state_district":"معتمدية سوق الأحد","state":"ولاية قبلي","ISO3166-2-lvl4":"TN-73","country":"تونس","country_code":"tn"},"osm_type":"way","osm_id":556356818,"type":"town","location":[8.848015276749472,33.7785543],"bbox":[8.8303546,33.7712246,8.8720241,33.7858838]}
{"name":"بوشمة","other_names":{"name:ar":"بوشمة","name:de":"Bouchemma","name:en":"Bouchamma","name:fr":"Bouchemma"},"display_name":"بوشمة, معتمدية قابس الغربية, ولاية قابس, 6031, تونس","address":{"town":"بوشمة","county":"بوشمة","state_district":"معتمدية قابس الغربية","state":"ولاية قابس","ISO3166-2-lvl4":"TN-81","postcode":"6031","country":"تونس","country_code":"tn"},"osm_type":"node","osm_id":2202008629,"type":"town","location":[10.0624148,33.9047245],"bbox":[10.0224148,33.8647245,10.1024148,33.9447245],"border":{"name":"بوشمة","other_names":{"name:ar":"بوشمة","name:fr":"Bouchemma"},"display_name":"بوشمة, معتمدية قابس الغربية, ولاية قابس, 6031, تونس","address":{"county":"بوشمة","state_district":"معتمدية قابس الغربية","state":"ولاية قابس","ISO3166-2-lvl4":"TN-81","postcode":"6031","country":"تونس","country_code":"tn"},"osm_type":"relation","osm_id":7145377,"type":"administrative","location":[10.026157098054757,33.907624999999996],"bbox":[9.9692582,33.8735936,10.0837972,33.940825]}}
{"name":"بوغرارة","other_names":{"name:ar":"بوغرارة","name:en":"Boughrara","name:fr":"Boughrara"},"display_name":"بوغرارة, معتمدية مدنين االجنوبية, ولاية مدنين, تونس","address":{"town":"بوغرارة","county":"بوغرارة","state_district":"معتمدية مدنين االجنوبية","state":"ولاية مدنين","ISO3166-2-lvl4":"TN-82","country":"تونس","country_code":"tn"},"osm_type":"node","osm_id":2844579781,"type":"town","location":[10.6741918,33.5393404],"bbox":[10.6341918,33.4993404,10.7141918,33.5793404],"border":{"name":"بوغرارة","other_names":{"name:ar":"بوغرارة","name:fr":"Boughrara"},"display_name":"بوغرارة, معتمدية مدنين االجنوبية, ولاية مدنين, تونس","address":{"county":"بوغرارة","state_district":"معتمدية مدنين االجنوبية","state":"ولاية مدنين","ISO3166-2-lvl4":"TN-82","country":"تونس","country_code":"tn"},"osm_type":"relation","osm_id":7142959,"type":"administrative","location":[10.6626642352234,33.56599495],"bbox":[10.5857475,33.4919015,10.7364485,33.6401812]}}
{"name":"بومهل البساتين","other_names":{"name:ar":"بومهل البساتين","name:en":"Bou Mhel el-Bassatine","name:fr":"Bou Mhel el-Bassatine"},"display_name":"بومهل البساتين, بومهل, معتمدية بومهل البساتين, ولاية بن عروس, 2034, تونس","address":{"town":"بومهل البساتين","county":"بومهل","state_district":"معتمدية بومهل البساتين","state":"ولاية بن عروس","ISO3166-2-lvl4":"TN-13","postcode":"2034","country":"تونس","country_code":"tn"},"osm_type":"node","osm_id":7716925563,"type":"town","location":[10.3010512,36.7244212],"bbox":[10.2610512,36.6844212,10.3410512,36.7644212]}
{"name":"تاجروين","other_names":{"name:ar":"تاجروين","name:en":"Tajerouine","name:fr":"Tajerouine","name:ru":"Таджервин"},"display_name":"تاجروين, تاجروين الشمالية, معتمدية تاجروين, ولاية الكاف, تونس","address":{"town":"تاجروين","county":"تاجروين الشمالية","state_district":"معتمدية تاجروين","state":"ولاية الكاف","ISO3166-2-lvl4":"TN-33","country":"تونس","country_code":"tn"},"population":30659,"osm_type":"node","osm_id":1899226322,"type":"town","location":[8.5530477,35.8913691],"bbox":[8.5130477,35.8513691,8.5930477,35.9313691],"border":{"name":"تاجروين","other_names":{"name:ar":"تاجروين","name:en":"Tajerouine","name:fr":"Tajerouine","name:ru":"Таджервин"},"display_name":"تاجروين, تاجروين الشمالية, معتمدية تاجروين, ولاية الكاف, تونس","address":{"town":"تاجروين","county":"تاجروين الشمالية","state_district":"معتمدية تاجروين","state":"ولاية الكاف","ISO3166-2-lvl4":"TN-33","country":"تونس","country_code":"tn"},"population":30659,"osm_type":"way","osm_id":103510660,"type":"town","location":[8.5530477,35.8913691],"bbox":[8.5392421,35.8796626,8.560642,35.9000503]}}
{"name":"تازركة","other_names":{"name:ar":"تازركة","name:en":"Tazerka","name:fr":"Tazarka","name:ru":"Тазерка"},"display_name":"تازركة, معتمدية قربة, ولاية نابل, 8024, تونس","address":{"town":"تازركة","county":"تازركة","state_district":"معتمدية قربة","state":"ولاية نابل","ISO3166-2-lvl4":"TN-21","postcode":"8024","country":"تونس","country_code":"tn"},"osm_type":"node","osm_id":4633446424,"type":"town","location":[10.8366689,36.5459523],"bbox":[10.7966689,36.5059523,10.8766689,36.5859523],"border":[{"name":"تازركة","other_names":{"name:ar":"تازركة","name:en":"Tazerka","name:fr":"Tazarka","name:ru":"Тазерка"},"display_name":"تازركة, معتمدية قربة, ولاية نابل, 8024, تونس","address":{"town":"تازركة","county":"تازركة","state_district":"معتمدية قربة","state":"ولاية نابل","ISO3166-2-lvl4":"TN-21","postcode":"8024","country":"تونس","country_code":"tn"},"osm_type":"way","osm_id":208566949,"type":"town","location":[10.8366689,36.5459523],"bbox":[10.8274674,36.5381026,10.8435169,36.5548076]},{"name":"تازركة","other_names":{"name:ar":"تازركة","name:fr":"Tazarka"},"display_name":"تازركة, معتمدية قربة, ولاية نابل, 8024, تونس","address":{"county":"تازركة","state_district":"معتمدية قربة","state":"ولاية نابل","ISO3166-2-lvl4":"TN-21","postcode":"8024","country":"تونس","country_code":"tn"},"osm_type":"relation","osm_id":7102857,"type":"administrative","location":[10.82773675882568,36.537775499999995],"bbox":[10.8036059,36.50872,10.8596913,36.5674185]}]}
{"name":"تالة","other_names":{"name:ar":"تالة","name:en":"Thala","name:fr":"Thala","name:ru":"Тала"},"display_name":"تالة, تالة الغربية, معتمدية تالة, ولاية القصرين, 1210, تونس","address":{"town":"تالة","county":"تالة الغربية","state_district":"معتمدية تالة","state":"ولاية القصرين","ISO3166-2-lvl4":"TN-42","postcode":"1210","country":"تونس","country_code":"tn"},"population":18230,"osm_type":"node","osm_id":1187470251,"type":"town","location":[8.6708968,35.5717763],"bbox":[8.6308968,35.5317763,8.7108968,35.6117763],"border":{"name":"تالة","other_names":{"name:ar":"تالة","name:en":"Thala","name:fr":"Thala","name:ru":"Тала"},"display_name":"تالة, تالة الغربية, معتمدية تالة, ولاية القصرين, 1210, تونس","address":{"town":"تالة","county":"تالة الغربية","state_district":"معتمدية تالة","state":"ولاية القصرين","ISO3166-2-lvl4":"TN-42","postcode":"1210","country":"تونس","country_code":"tn"},"population":18230,"osm_type":"way","osm_id":473961592,"type":"town","location":[8.6708968,35.5717763],"bbox":[8.659831,35.5625521,8.6780432,35.579242]}}
{"name":"تبرسق","other_names":{"name:ar":"تبرسق","name:ca":"Téboursouk","name:de":"Téboursouk","name:en":"Téboursouk","name:fa":"تبرسق","name:fr":"Téboursouk","name:hu":"Téboursouk","name:uk":"Тебурсук","name:zu":"Téboursouk","name:azb":"تبرسق","name:kab":"Tabursuq"},"display_name":"تبرسق, تبرسق المدينة, معتمدية تبرسق, ولاية باجة, 9040, تونس","address":{"town":"تبرسق","county":"تبرسق المدينة","state_district":"معتمدية تبرسق","state":"ولاية باجة","ISO3166-2-lvl4":"TN-31","postcode":"9040","country":"تونس","country_code":"tn"},"osm_type":"node","osm_id":1116804955,"type":"town","location":[9.2426211,36.4615073],"bbox":[9.2026211,36.4215073,9.2826211,36.5015073]}
{"name":"تستور","other_names":{"name:ar":"تستور","name:en":"Testour","name:fr":"Testour"},"display_name":"تستور, معتمدية تستور, ولاية باجة, 9060, تونس","address":{"town":"تستور","county":"تستور","state_district":"معتمدية تستور","state":"ولاية باجة","ISO3166-2-lvl4":"TN-31","postcode":"9060","country":"تونس","country_code":"tn"},"osm_type":"node","osm_id":1452253103,"type":"town","location":[9.4418606,36.5520138],"bbox":[9.4018606,36.5120138,9.4818606,36.5920138],"border":{"name":"تستور","other_names":{"name:ar":"تستور","name:fr":"Testour"},"display_name":"تستور, معتمدية تستور, ولاية باجة, تونس","address":{"county":"تستور","state_district":"معتمدية تستور","state":"ولاية باجة","ISO3166-2-lvl4":"TN-31","country":"تونس","country_code":"tn"},"osm_type":"relation","osm_id":7189436,"type":"administrative","location":[9.459672958333329,36.546575000000004],"bbox":[9.424963,36.51111,9.484625,36.58207]}}
{"name":"تطاوين","other_names":{"name:ar":"تطاوين","name:en":"Tataouine","name:fa":"تطاوین","name:fr":"Tataouine","name:ru":"Татавин","name:ur":"تطاوین","name:ber":"ⵜⵉⵟⵟⴰⵡⵉⵏ"},"display_name":"تطاوين, تطاوين المدينة, معتمدية تطاوين الجنوبية, ولاية تطاوين, 3200, تونس","address":{"town":"تطاوين","county":"تطاوين المدينة","state_district":"معتمدية تطاوين الجنوبية","state":"ولاية تطاوين","ISO3166-2-lvl4":"TN-83","postcode":"3200","country":"تونس","country_code":"tn"},"population":56000,"osm_type":"node","osm_id":264885332,"type":"town","location":[10.4503959,32.9315242],"bbox":[10.4103959,32.8915242,10.4903959,32.9715242]}
{"name":"توزر","other_names":{"name:ar":"توزر","name:de":"Tauzar","name:en":"Tozeur","name:fa":"توزر","name:fr":"Tozeur","name:ks":"توزر","name:la":"Tusuros","name:ru":"Таузар","name:ur":"توزر","name:azb":"توزر","name:ber":"ⵜⵓⵣⵔ","name:kab":"Tuzer"},"display_name":"توزر, القيطنة, معتمدية توزر, ولاية توزر, 2210, تونس","address":{"town":"توزر","county":"القيطنة","state_district":"معتمدية توزر","state":"ولاية توزر","ISO3166-2-lvl4":"TN-72","postcode":"2210","country":"تونس","country_code":"tn"},"population":37365,"osm_type":"node","osm_id":298018887,"type":"town","location":[8.1370639,33.9239001],"bbox":[8.0970639,33.8839001,8.1770639,33.9639001]}
{"name":"جبنيانة","other_names":{"name:ar":"جبنيانة","name:en":"Jebiniana","name:fr":"Jebeniana"},"display_name":"جبنيانة, ‫جبنيانة‬, معتمدية جبنيانة, ولاية صفاقس, 3087, تونس","address":{"town":"جبنيانة","county":"‫جبنيانة‬","state_district":"معتمدية جبنيانة","state":"ولاية صفاقس","ISO3166-2-lvl4":"TN-61","postcode":"3087","country":"تونس","country_code":"tn"},"osm_type":"node","osm_id":5981914543,"type":"town","location":[10.9090537,35.0351327],"bbox":[10.8690537,34.9951327,10.9490537,35.0751327],"border":{"name":"‫جبنيانة‬","other_names":{"name:ar":"‫جبنيانة‬","name:fr":"Jebeniana"},"display_name":"‫جبنيانة‬, معتمدية جبنيانة, ولاية صفاقس, تونس","address":{"county":"‫جبنيانة‬","state_district":"معتمدية جبنيانة","state":"ولاية صفاقس","ISO3166-2-lvl4":"TN-61","country":"تونس","country_code":"tn"},"osm_type":"relation","osm_id":7127887,"type":"administrative","location":[10.907581032534171,35.0359979],"bbox":[10.8701161,35.0111554,10.944096,35.0603959]}}
{"name":"جرجيس","other_names":{"name:ar":"جرجيس","name:de":"Zarzis","name:en":"Zarzis","name:fr":"Zarzis","name:ru":"Джарджис","name:kab":"Zerzis"},"display_name":"جرجيس, معتمدية جرجيس, ولاية مدنين, تونس","address":{"town":"جرجيس","county":"جرجيس","state_district":"معتمدية جرجيس","state":"ولاية مدنين","ISO3166-2-lvl4":"TN-82","country":"تونس","country_code":"tn"},"population":70895,"osm_type":"node","osm_id":287558790,"type":"town","location":[11.1097173,33.5036797],"bbox":[11.0697173,33.4636797,11.1497173,33.5436797],"border":{"name":"جرجيس","other_names":{"name:ar":"جرجيس","name:fr":"Zarzis"},"display_name":"جرجيس, معتمدية جرجيس, ولاية مدنين, تونس","address":{"county":"جرجيس","state_district":"معتمدية جرجيس","state":"ولاية مدنين","ISO3166-2-lvl4":"TN-82","country":"تونس","country_code":"tn"},"osm_type":"relation","osm_id":7142910,"type":"administrative","location":[11.088846191235083,33.431416150000004],"bbox":[11.0795185,33.3586645,11.1381153,33.5044215]}}
{"name":"جندوبة","other_names":{"name:ar":"جندوبة","name:en":"Jendouba","name:fr":"Jendouba","name:ru":"Джендуба","name:kab":"Janduba","old_name":"سوق الأربعاء","old_name:ar":"سوق الأربعاء","old_name:fr":"Souk El Arba"},"display_name":"جندوبة, الطريق الوطنية طبرقة - تلابت, جندوبة, جندوبة الجنوبية, معتمدية جندوبة الجنوبية, ولاية جندوبة, 8100, تونس","address":{"amenity":"جندوبة","road":"الطريق الوطنية طبرقة - تلابت","town":"جندوبة","county":"جندوبة الجنوبية","state_district":"معتمدية جندوبة الجنوبية","state":"ولاية جندوبة","ISO3166-2-lvl4":"TN-32","postcode":"8100","country":"تونس","country_code":"tn"},"population":45431,"osm_type":"node","osm_id":287625095,"type":"bank","location":[8.775699,36.4967177],"bbox":[8.775649,36.4966677,8.775749,36.4967677]}
{"name":"‫حزق‬","other_names":{"name:ar":"‫حزق‬","name:en":"Hazeg","name:fr":"Hazeg"},"display_name":"‫حزق‬, معتمدية جبنيانة, ولاية صفاقس, 3026, تونس","address":{"town":"‫حزق‬","county":"‫حزق‬","state_district":"معتمدية جبنيانة","state":"ولاية صفاقس","ISO3166-2-lvl4":"TN-61","postcode":"3026","country":"تونس","country_code":"tn"},"osm_type":"node","osm_id":5982965571,"type":"town","location":[10.9617017,35.0286135],"bbox":[10.9217017,34.9886135,11.0017017,35.0686135],"border":{"name":"‫حزق‬","other_names":{"name:ar":"‫حزق‬","name:fr":"Hazeg"},"display_name":"‫حزق‬, معتمدية جبنيانة, ولاية صفاقس, 3026, تونس","address":{"county":"‫حزق‬","state_district":"معتمدية جبنيانة","state":"ولاية صفاقس","ISO3166-2-lvl4":"TN-61","postcode":"3026","country":"تونس","country_code":"tn"},"osm_type":"relation","osm_id":7127924,"type":"administrative","location":[10.957832444459337,35.030996],"bbox":[10.9276709,34.9991969,11.0001764,35.0621951]}}
{"name":"حفوز","other_names":{"name:ar":"حفوز","name:en":"Haffouz","name:fr":"Haffouz","name:ru":"Хаффуз"},"display_name":"حفوز, حفوز المركز, معتمدية حفوز, ولاية القيروان, تونس","address":{"town":"حفوز","county":"حفوز المركز","state_district":"معتمدية حفوز","state":"ولاية القيروان","ISO3166-2-lvl4":"TN-41","country":"تونس","country_code":"tn"},"osm_type":"node","osm_id":1187534946,"type":"town","location":[9.6717546,35.6354138],"bbox":[9.6317546,35.5954138,9.7117546,35.6754138],"border":{"name":"حفوز","other_names":{"name:ar":"حفوز","name:en":"Haffouz","name:fr":"Haffouz","name:ru":"Хаффуз"},"display_name":"حفوز, حفوز المركز, معتمدية حفوز, ولاية القيروان, تونس","address":{"town":"حفوز","county":"حفوز المركز","state_district":"معتمدية حفوز","state":"ولاية القيروان","ISO3166-2-lvl4":"TN-41","country":"تونس","country_code":"tn"},"osm_type":"way","osm_id":206440354,"type":"town","location":[9.6717546,35.6354138],"bbox":[9.6627466,35.6187496,9.6819775,35.6501142]}}
{"name":"حلق الوادي","other_names":{"name:ar":"حلق الوادي","name:de":"Ḥalq al-Wādī","name:en":"La Goulette","name:es":"La Goleta","name:fr":"La Goulette","name:it":"La Goletta","name:ru":"Хальк-эль-Уэд","name:azb":"حلق الوادی"},"display_name":"حلق الوادي, ولاية تونس, 2060, تونس","address":{"town":"حلق الوادي","state":"ولاية تونس","ISO3166-2-lvl4":"TN-11","postcode":"2060","country":"تونس","country_code":"tn"},"osm_type":"node","osm_id":283645091,"type":"town","location":[10.3042378,36.8159278],"bbox":[10.2642378,36.7759278,10.3442378,36.8559278],"border":{"name":"حلق الوادي","other_names":{"name:ar":"حلق الوادي","name:de":"Ḥalq al-Wādī","name:es":"La Goleta","name:fr":"La Goulette","name:azb":"حلق الوادی"},"display_name":"حلق الوادي, معتمدية حلق الوادي, ولاية تونس, 2060, تونس","address":{"suburb":"حلق الوادي","city_district":"معتمدية حلق الوادي","state":"ولاية تونس","ISO3166-2-lvl4":"TN-11","postcode":"2060","country":"تونس","country_code":"tn"},"osm_type":"relation","osm_id":7117933,"type":"administrative","location":[10.29305878989592,36.8133756],"bbox":[10.279783,36.8063269,10.3110096,36.8202355]}}
{"name":"حمام الأتف","other_names":{"name:ar":"حمام الأتف","name:en":"Hammam-Lif","name:fr":"Hammam-Lif","name:ru":"Хаммам-Лиф"},"display_name":"حمام الأتف, حمام الانف المدينة, معتمدية حمام الأنف, ولاية بن عروس, 2093, تونس","address":{"town":"حمام الأتف","county":"حمام الانف المدينة","state_district":"معتمدية حمام الأنف","state":"ولاية بن عروس","ISO3166-2-lvl4":"TN-13","postcode":"2093","country":"تونس","country_code":"tn"},"population":50000,"osm_type":"node","osm_id":4394953973,"type":"town","location":[10.3363985,36.7313788],"bbox":[10.2963985,36.6913788,10.3763985,36.7713788]}
{"name":"حمام الزريبة","other_names":{"name:ar":"حمام الزريبة","name:en":"Zriba","name:fr":"Hammam Zriba","name:ru":"Зриба Хаммам","int_name":"Zriba Hammam"},"display_name":"حمام الزريبة, حمام الزريبة الجنوبية, معتمدية الزريبة, ولاية زغوان, 1152, تونس","address":{"town":"حمام الزريبة","county":"حمام الزريبة الجنوبية","state_district":"معتمدية الزريبة","state":"ولاية زغوان","ISO3166-2-lvl4":"TN-22","postcode":"1152","country":"تونس","country_code":"tn"},"osm_type":"node","osm_id":312490313,"type":"town","location":[10.207921,36.3512115],"bbox":[10.167921,36.3112115,10.247921,36.3912115]}
{"name":"حمام الشط","other_names":{"name:ar":"حمام الشط","name:en":"Hammam Chott","name:fr":"Hammam Chott"},"display_name":"حمام الشط, معتمدية حمام الشط, ولاية بن عروس, 2050, تونس","address":{"town":"حمام الشط","county":"حمام الشط","state_district":"معتمدية حمام الشط","state":"ولاية بن عروس","ISO3166-2-lvl4":"TN-13","postcode":"2050","country":"تونس","country_code":"tn"},"osm_type":"node","osm_id":2063816292,"type":"town","location":[10.3642733,36.7189536],"bbox":[10.3242733,36.6789536,10.4042733,36.7589536],"border":{"name":"حمام الشط","other_names":{"name:ar":"حمام الشط","name:fr":"Hammem Chatt"},"display_name":"حمام الشط, معتمدية حمام الشط, ولاية بن عروس, تونس","address":{"county":"حمام الشط","state_district":"معتمدية حمام الشط","state":"ولاية بن عروس","ISO3166-2-lvl4":"TN-13","country":"تونس","country_code":"tn"},"osm_type":"relation","osm_id":7174596,"type":"administrative","location":[10.365275161958566,36.716539999999995],"bbox":[10.355705,36.70882,10.3756146,36.7241933]}}
{"name":"حومة السوق","other_names":{"name:ar":"حومة السوق","name:en":"Houmt Souk","name:fr":"Houmet Souk","name:ru":"Хумт-Сук"},"display_name":"حومة السوق, الجوامع, معتمدية جربة حومة السوق, ولاية مدنين, 4180, تونس","address":{"town":"حومة السوق","county":"الجوامع","state_district":"معتمدية جربة حومة السوق","state":"ولاية مدنين","ISO3166-2-lvl4":"TN-82","postcode":"4180","country":"تونس","country_code":"tn"},"population":75904,"osm_type":"node","osm_id":287559510,"type":"town","location":[10.8571532,33.8759878],"bbox":[10.8171532,33.8359878,10.8971532,33.9159878]}
{"name":"دار شعبان الفهري","other_names":{"name:ar":"دار شعبان الفهري","name:en":"Dar Chaabane","name:fr":"Dar Chaâbane","name:ru":"Дар-Шаабан","name:kab":"Dar Caɛban"},"display_name":"دار شعبان الفهري, دار شعبان, معتمدية دار شعبان الفهري, ولاية نابل, 8011, تونس","address":{"town":"دار شعبان الفهري","county":"دار شعبان","state_district":"معتمدية دار شعبان الفهري","state":"ولاية نابل","ISO3166-2-lvl4":"TN-21","postcode":"8011","country":"تونس","country_code":"tn"},"osm_type":"node","osm_id":1851671410,"type":"town","location":[10.7478479,36.4666209],"bbox":[10.7078479,36.4266209,10.7878479,36.5066209],"border":{"name":"دار شعبان","other_names":{"name:ar":"دار شعبان","name:fr":"Dar Chaabane"},"display_name":"دار شعبان, معتمدية دار شعبان الفهري, ولاية نابل, 8011, تونس","address":{"county":"دار شعبان","state_district":"معتمدية دار شعبان الفهري","state":"ولاية نابل","ISO3166-2-lvl4":"TN-21","postcode":"8011","country":"تونس","country_code":"tn"},"osm_type":"relation","osm_id":7103335,"type":"administrative","location":[10.748533521672552,36.46982425],"bbox":[10.721101,36.455763,10.7680148,36.4841628]}}
{"name":"دقاش","other_names":{"name:ar":"دقاش","name:en":"Degache","name:fr":"Degache","name:ru":"Дегаш"},"display_name":"دقاش, دقاش الجنوبية, معتمدية دقاش, ولاية توزر, 2260, تونس","address":{"town":"دقاش","county":"دقاش الجنوبية","state_district":"معتمدية دقاش","state":"ولاية توزر","ISO3166-2-lvl4":"TN-72","postcode":"2260","country":"تونس","country_code":"tn"},"osm_type":"node","osm_id":351582010,"type":"town","location":[8.2154584,33.9841058],"bbox":[8.1754584,33.9441058,8.2554584,34.0241058]}
{"name":"دوار هيشر","other_names":{"name:ar":"دوار هيشر","name:en":"Douar Hicher","name:fr":"Douar Hicher"},"display_name":"دوار هيشر, ‫‫دوار‬ ھیشر‬, معتمدية دوار هيشر, ولاية منوبة, 2086, تونس","address":{"town":"دوار هيشر","county":"‫‫دوار‬ ھیشر‬","state_district":"معتمدية دوار هيشر","state":"ولاية منوبة","ISO3166-2-lvl4":"TN-14","postcode":"2086","country":"تونس","country_code":"tn"},"osm_type":"node","osm_id":7720714782,"type":"town","location":[10.0960637,36.8237415],"bbox":[10.0560637,36.7837415,10.1360637,36.8637415],"border":{"name":"‫‫دوار‬ ھیشر‬","other_names":{"name:fr":"Douar Hicher"},"display_name":"‫‫دوار‬ ھیشر‬, معتمدية دوار هيشر, ولاية منوبة, 2086, تونس","address":{"county":"‫‫دوار‬ ھیشر‬","state_district":"معتمدية دوار هيشر","state":"ولاية منوبة","ISO3166-2-lvl4":"TN-14","postcode":"2086","country":"تونس","country_code":"tn"},"osm_type":"relation","osm_id":7090957,"type":"administrative","location":[10.09708483639932,36.82173455],"bbox":[10.0861443,36.815754,10.1049474,36.8276213]}}
{"name":"دوز","other_names":{"name:ar":"دوز","name:en":"Douz","name:eo":"Douz","name:fr":"Douz","name:pl":"Duz","name:ru":"Дуз","name:kab":"Duz"},"display_name":"دوز, العبادلة, معتمدية دوز الشمالية, ولاية قبلي, 4216, تونس","address":{"town":"دوز","county":"العبادلة","state_district":"معتمدية دوز الشمالية","state":"ولاية قبلي","ISO3166-2-lvl4":"TN-73","postcode":"4216","country":"تونس","country_code":"tn"},"osm_type":"node","osm_id":264881676,"type":"town","location":[9.0249829,33.4571102],"bbox":[8.9849829,33.4171102,9.0649829,33.4971102]}
{"name":"رأس الجبل","other_names":{"name:ar":"رأس الجبل","name:en":"Ras Jebel","name:fr":"Ras Jebel","name:ru":"Рас-эль-Джебель","int_name":"Ras Jebel","name:kab":"Ras Jbel"},"display_name":"رأس الجبل, رأس الجبل الشمالية, معتمدية رأس الجبل, ولاية بنزرت, 7070, تونس","address":{"town":"رأس الجبل","county":"رأس الجبل الشمالية","state_district":"معتمدية رأس الجبل","state":"ولاية بنزرت","ISO3166-2-lvl4":"TN-23","postcode":"7070","country":"تونس","country_code":"tn"},"osm_type":"node","osm_id":469845572,"type":"town","location":[10.1245603,37.2146189],"bbox":[10.0845603,37.1746189,10.1645603,37.2546189]}
{"name":"رادس","other_names":{"name:ar":"رادس","name:en":"Radès","name:fr":"Radès","name:ru":"Радес"},"display_name":"رادس, معتمدية رادس, ولاية بن عروس, 2040, تونس","address":{"town":"رادس","state_district":"معتمدية رادس","state":"ولاية بن عروس","ISO3166-2-lvl4":"TN-13","postcode":"2040","country":"تونس","country_code":"tn"},"population":59998,"osm_type":"node","osm_id":286091511,"type":"town","location":[10.2724617,36.767891],"bbox":[10.2324617,36.727891,10.3124617,36.807891],"border":{"name":"رادس","other_names":{"name:ar":"رادس","name:en":"Radès","name:fr":"Radès","name:ru":"Радес","name:kab":"Rades"},"display_name":"رادس, معتمدية رادس, ولاية بن عروس, تونس","address":{"town":"رادس","state_district":"معتمدية رادس","state":"ولاية بن عروس","ISO3166-2-lvl4":"TN-13","country":"تونس","country_code":"tn"},"population":59998,"osm_type":"relation","osm_id":8893221,"type":"town","location":[10.2724617,36.767891],"bbox":[10.246812,36.73958,10.3071285,36.812548]}}
{"name":"رمادة","other_names":{"name:ar":"رمادة","name:en":"Remada","name:fr":"Remada"},"display_name":"رمادة, رمادة الشرقية, معتمدية رمادة, ولاية تطاوين, 3240, تونس","address":{"town":"رمادة","county":"رمادة الشرقية","state_district":"معتمدية رمادة","state":"ولاية تطاوين","ISO3166-2-lvl4":"TN-83","postcode":"3240","country":"تونس","country_code":"tn"},"population":4606,"osm_type":"node","osm_id":1278361348,"type":"town","location":[10.3987008,32.3146481],"bbox":[10.3587008,32.2746481,10.4387008,32.3546481]}
{"name":"زغوان","other_names":{"name:ar":"زغوان","name:ca":"Zaghouan","name:cy":"Zaghouan","name:de":"Zaghouan","name:el":"Ζαγκουάν","name:en":"Zaghouan","name:es":"Zaghouan","name:fa":"زغوان","name:fr":"Zaghouan","name:it":"Zaghouan","name:ja":"ザグアン","name:ko":"자구완","name:ks":"زغوان","name:nl":"Zaghouan","name:pl":"Zaghwan","name:ps":"زغوان","name:pt":"Zaguã","name:ro":"Zaghouan","name:ru":"Загван","name:sw":"Zaghouan","name:tr":"Zağvan","name:uk":"Загуан","name:ur":"زغوان","name:zh":"宰格萬","name:zu":"Zaghouan","name:azb":"زغوان","name:kab":"Zeɣwan","name:ota":"زغوان","name:pnb":"زغوان"},"display_name":"زغوان, زغوان المدينة, معتمدية زغوان, ولاية زغوان, 1100, تونس","address":{"town":"زغوان","county":"زغوان المدينة","state_district":"معتمدية زغوان","state":"ولاية زغوان","ISO3166-2-lvl4":"TN-22","postcode":"1100","country":"تونس","country_code":"tn"},"osm_type":"node","osm_id":1216174459,"type":"town","location":[10.1446349,36.3994751],"bbox":[10.1046349,36.3594751,10.1846349,36.4394751]}
{"name":"ساقية الدائر","other_names":{"name:ar":"ساقية الدائر","name:en":"Sakiet Eddaïer","name:fr":"Sakiet Eddaïer"},"display_name":"ساقية الدائر, معتمدية ساقية الدائر, ولاية صفاقس, 3011, تونس","address":{"town":"ساقية الدائر","county":"ساقية الدائر","state_district":"معتمدية ساقية الدائر","state":"ولاية صفاقس","ISO3166-2-lvl4":"TN-61","postcode":"3011","country":"تونس","country_code":"tn"},"osm_type":"node","osm_id":479938481,"type":"town","location":[10.7800417,34.7896235],"bbox":[10.7400417,34.7496235,10.8200417,34.8296235],"border":{"name":"ساقية الدائر","other_names":{"name:ar":"ساقية الدائر","name:fr":"Sakiet Eddaier"},"display_name":"ساقية الدائر, معتمدية ساقية الدائر, ولاية صفاقس, تونس","address":{"county":"ساقية الدائر","state_district":"معتمدية ساقية الدائر","state":"ولاية صفاقس","ISO3166-2-lvl4":"TN-61","country":"تونس","country_code":"tn"},"osm_type":"relation","osm_id":7147601,"type":"administrative","location":[10.78562323145842,34.79299925],"bbox":[10.7719236,34.7818302,10.7975124,34.8040007]}}
{"name":"ساقية الزيت","other_names":{"name:ar":"ساقية الزيت","name:en":"Sakiet Ezzit","name:fr":"Sakiet Ezzit"},"display_name":"ساقية الزيت, معتمدية ساقية الزيت, ولاية صفاقس, 3021, تونس","address":{"town":"ساقية الزيت","county":"ساقية الزيت","state_district":"معتمدية ساقية الزيت","state":"ولاية صفاقس","ISO3166-2-lvl4":"TN-61","postcode":"3021","country":"تونس","country_code":"tn"},"population":87512,"osm_type":"node","osm_id":479938480,"type":"town","location":[10.7613107,34.8023823],"bbox":[10.7213107,34.7623823,10.8013107,34.8423823],"border":{"name":"ساقية الزيت","other_names":{"name:ar":"ساقية الزيت","name:fr":"Sakiet Ezzit"},"display_name":"ساقية الزيت, معتمدية ساقية الزيت, ولاية صفاقس, 3021, تونس","address":{"county":"ساقية الزيت","state_district":"معتمدية ساقية الزيت","state":"ولاية صفاقس","ISO3166-2-lvl4":"TN-61","postcode":"3021","country":"تونس","country_code":"tn"},"osm_type":"relation","osm_id":7147592,"type":"administrative","location":[10.768686546696236,34.805246350000004],"bbox":[10.7500752,34.78978,10.7848757,34.8209823]}}
{"name":"ساقية سيدي يوسف","other_names":{"name:ar":"ساقية سيدي يوسف","name:en":"Sakiet Sidi Youcef","name:fr":"Sakiet Sidi Youssef","name:ru":"Сиди-Юсеф","name:kab":"Saqiyet Sidi Yusef"},"display_name":"ساقية سيدي يوسف, معتمدية ساقية سيدي يوسف, ولاية الكاف, 7120, تونس","address":{"town":"ساقية سيدي يوسف","county":"ساقية سيدي يوسف","state_district":"معتمدية ساقية سيدي يوسف","state":"ولاية الكاف","ISO3166-2-lvl4":"TN-33","postcode":"7120","country":"تونس","country_code":"tn"},"population":17500,"osm_type":"node","osm_id":462003374,"type":"town","location":[8.3547342,36.2220401],"bbox":[8.3147342,36.1820401,8.3947342,36.2620401],"border":{"name":"ساقية سيدي يوسف","other_names":{"name:ar":"ساقية سيدي يوسف","name:fr":"Sakiet Sidi Youssef"},"display_name":"ساقية سيدي يوسف, معتمدية ساقية سيدي يوسف, ولاية الكاف, 7120, تونس","address":{"county":"ساقية سيدي يوسف","state_district":"معتمدية ساقية سيدي يوسف","state":"ولاية الكاف","ISO3166-2-lvl4":"TN-33","postcode":"7120","country":"تونس","country_code":"tn"},"osm_type":"relation","osm_id":7192038,"type":"administrative","location":[8.36796129400387,36.22083],"bbox":[8.3468161,36.19051,8.393941,36.2508756]}}
{"name":"سبيطلة","other_names":{"name:ar":"سبيطلة","name:en":"Sbeitla","name:fr":"Sbeïtla","name:ru":"Сбейтла","name:grc":"Σουφετούλα","name:kab":"Sbaytla"},"display_name":"سبيطلة, معتمدية سبيطلة, ولاية القصرين, 1250, تونس","address":{"town":"سبيطلة","county":"سبيطلة","state_district":"معتمدية سبيطلة","state":"ولاية القصرين","ISO3166-2-lvl4":"TN-42","postcode":"1250","country":"تونس","country_code":"tn"},"osm_type":"node","osm_id":437592157,"type":"town","location":[9.1313411,35.2303636],"bbox":[9.0913411,35.1903636,9.1713411,35.2703636],"border":{"name":"سبيطلة","other_names":{"name:ar":"سبيطلة","name:fr":"Sbeïtla","name:grc":"Σουφετούλα"},"display_name":"سبيطلة, معتمدية سبيطلة, ولاية القصرين, 1250, تونس","address":{"county":"سبيطلة","state_district":"معتمدية سبيطلة","state":"ولاية القصرين","ISO3166-2-lvl4":"TN-42","postcode":"1250","country":"تونس","country_code":"tn"},"osm_type":"relation","osm_id":7164914,"type":"administrative","location":[9.11165813438807,35.240570000000005],"bbox":[9.093394,35.2229924,9.133198,35.25842]}}
{"name":"سدويكش","other_names":{"name:en":"Sedouikech","name:fr":"Sedouikech","alt_name":"Sedouikech"},"display_name":"سدويكش, معتمدية جربة ميدون, ولاية مدنين, 4167, تونس","address":{"town":"سدويكش","county":"سدويكش","state_district":"معتمدية جربة ميدون","state":"ولاية مدنين","ISO3166-2-lvl4":"TN-82","postcode":"4167","country":"تونس","country_code":"tn"},"osm_type":"node","osm_id":1259515669,"type":"town","location":[10.9198664,33.7432636],"bbox":[10.8798664,33.7032636,10.9598664,33.7832636],"border":{"name":"سدويكش","other_names":{"name:ar":"سدويكش","name:fr":"Sedouikech"},"display_name":"سدويكش, معتمدية جربة ميدون, ولاية مدنين, تونس","address":{"county":"سدويكش","state_district":"معتمدية جربة ميدون","state":"ولاية مدنين","ISO3166-2-lvl4":"TN-82","country":"تونس","country_code":"tn"},"osm_type":"relation","osm_id":7133851,"type":"administrative","location":[10.916397812196626,33.715300049999996],"bbox":[10.8644697,33.6560532,10.9881001,33.7745548]}}
{"name":"سوق الأحد","other_names":{"name:ar":"سوق الأحد","name:en":"Souk Lahad","name:fr":"Souk Lahad","name:ru":"Сук-Ляхад"},"display_name":"سوق الأحد, المنشية, معتمدية قبلي الشمالية, ولاية قبلي, 4212, تونس","address":{"town":"سوق الأحد","county":"المنشية","state_district":"معتمدية قبلي الشمالية","state":"ولاية قبلي","ISO3166-2-lvl4":"TN-73","postcode":"4212","country":"تونس","country_code":"tn"},"osm_type":"node","osm_id":351575544,"type":"town","location":[8.8525855,33.7783142],"bbox":[8.8125855,33.7383142,8.8925855,33.8183142]}
{"name":"سيدي الظريف","other_names":{"name:ar":"سيدي الظريف","name:en":"Sidi Dhrif","name:fr":"Sidi Dhrif","alt_name:ar":"سيدي الضريف;سيدي الدحريف"},"display_name":"سيدي الظريف, تونس, ولاية تونس, 1054, تونس","address":{"town":"سيدي الظريف","city":"تونس","state":"ولاية تونس","ISO3166-2-lvl4":"TN-11","postcode":"1054","country":"تونس","country_code":"tn"},"osm_type":"node","osm_id":5826137835,"type":"town","location":[10.3356799,36.8810026],"bbox":[10.2956799,36.8410026,10.3756799,36.9210026]}
{"name":"سيدي حسين","other_names":{"name:ar":"سيدي حسين","name:ca":"Sidi Hassine","name:en":"Sidi Hassine","name:fr":"Sidi Hassine","name:ru":"Сиди-Хассин","name:uk":"Сіді-Хассін"},"display_name":"سيدي حسين, تونس, ولاية تونس, 1095, تونس","address":{"town":"سيدي حسين","city":"تونس","state":"ولاية تونس","ISO3166-2-lvl4":"TN-11","postcode":"1095","country":"تونس","country_code":"tn"},"population":109690,"osm_type":"node","osm_id":3145829326,"type":"town","location":[10.1102505,36.7708432],"bbox":[10.0702505,36.7308432,10.1502505,36.8108432]}
{"name":"سيدي سعد","other_names":{"name:ar":"سيدي سعد","name:de":"Sayyidi Sa'ad","name:en":"Sayyidi Sa'ad","name:fr":"Sidi Saad","name:ru":"Сиди-Саад"},"display_name":"سيدي سعد, الطويلة, معتمدية نصر الله, ولاية القيروان, تونس","address":{"town":"سيدي سعد","county":"الطويلة","state_district":"معتمدية نصر الله","state":"ولاية القيروان","ISO3166-2-lvl4":"TN-41","country":"تونس","country_code":"tn"},"osm_type":"node","osm_id":1187534934,"type":"town","location":[9.7569732,35.388364],"bbox":[9.7169732,35.348364,9.7969732,35.428364]}
{"name":"سيدي عمر بوحجلة","other_names":{"name:ar":"سيدي عمر بوحجلة","name:en":"Sidi Amor Bou Hajla","name:fr":"Sidi Amor Bou Hajla"},"display_name":"سيدي عمر بوحجلة, بوحجلة المركز, معتمدية بوحجلة, ولاية القيروان, 3180, تونس","address":{"town":"سيدي عمر بوحجلة","county":"بوحجلة المركز","state_district":"معتمدية بوحجلة","state":"ولاية القيروان","ISO3166-2-lvl4":"TN-41","postcode":"3180","country":"تونس","country_code":"tn"},"osm_type":"node","osm_id":1187534930,"type":"town","location":[10.0508652,35.3981921],"bbox":[10.0108652,35.3581921,10.0908652,35.4381921]}
{"name":"سيدي مخلوف","other_names":{"name:ar":"سيدي مخلوف","name:en":"Sidi Makhlouf","name:fr":"Sidi Makhlouf"},"display_name":"سيدي مخلوف, معتمدية سيدي مخلوف, ولاية مدنين, 4191, تونس","address":{"town":"سيدي مخلوف","county":"سيدي مخلوف","state_district":"معتمدية سيدي مخلوف","state":"ولاية مدنين","ISO3166-2-lvl4":"TN-82","postcode":"4191","country":"تونس","country_code":"tn"},"population":3070,"osm_type":"node","osm_id":3143761492,"type":"town","location":[10.479706,33.5063363],"bbox":[10.439706,33.4663363,10.519706,33.5463363],"border":{"name":"سيدي مخلوف","other_names":{"name:ar":"سيدي مخلوف","name:de":"Sayyidi Machlūf","name:en":"Sayyidi Makhlūf","name:fr":"Sidi Makhlouf"},"display_name":"سيدي مخلوف, معتمدية سيدي مخلوف, ولاية مدنين, 4191, تونس","address":{"county":"سيدي مخلوف","state_district":"معتمدية سيدي مخلوف","state":"ولاية مدنين","ISO3166-2-lvl4":"TN-82","postcode":"4191","country":"تونس","country_code":"tn"},"osm_type":"relation","osm_id":7142952,"type":"administrative","location":[10.492231272397095,33.5202515],"bbox":[10.4566835,33.4575716,10.5322745,33.5829313]}}
{"name":"طبربة","other_names":{"name:ar":"طبربة","name:ca":"Tebourba","name:en":"Tebourba","name:fa":"طبربه","name:fr":"Tebourba","name:ru":"Тебурба","name:uk":"Тебурба","name:zu":"Tebourba","name:azb":"طبربه","name:kab":"Taburba","name:az-Arab":"طبربه"},"display_name":"طبربة, الرجاء, معتمدية طبربة, ولاية منوبة, 1130, تونس","address":{"town":"طبربة","county":"الرجاء","state_district":"معتمدية طبربة","state":"ولاية منوبة","ISO3166-2-lvl4":"TN-14","postcode":"1130","country":"تونس","country_code":"tn"},"osm_type":"node","osm_id":1435708256,"type":"town","location":[9.8413482,36.8302496],"bbox":[9.8013482,36.7902496,9.8813482,36.8702496],"border":{"name":"طبربة","other_names":{"name:ar":"طبربة","name:en":"Tebourba","name:fa":"طبربه","name:fr":"Tebourba","name:azb":"طبربه","name:az-Arab":"طبربه"},"display_name":"طبربة, معتمدية طبربة, ولاية منوبة, تونس","address":{"county":"طبربة","state_district":"معتمدية طبربة","state":"ولاية منوبة","ISO3166-2-lvl4":"TN-14","country":"تونس","country_code":"tn"},"osm_type":"relation","osm_id":7098933,"type":"administrative","location":[9.859015948862067,36.822038649999996],"bbox":[9.8364273,36.8083159,9.8974309,36.8358694]}}
{"name":"طبرقة","other_names":{"name:ar":"طبرقة","name:cs":"Tabarka","name:en":"Tabarka","name:fr":"Tabarka","name:it":"Tabarca","name:ru":"Табарка","name:kab":"Tabarka"},"display_name":"طبرقة, معتمدية طبرقة, ولاية جندوبة, تونس","address":{"town":"طبرقة","county":"طبرقة","state_district":"معتمدية طبرقة","state":"ولاية جندوبة","ISO3166-2-lvl4":"TN-32","country":"تونس","country_code":"tn"},"population":19770,"osm_type":"node","osm_id":2043739836,"type":"town","location":[8.7573829,36.9545614],"bbox":[8.7173829,36.9145614,8.7973829,36.9945614],"border":{"name":"طبرقة","other_names":{"name:ar":"طبرقة","name:fr":"Tabarka"},"display_name":"طبرقة, معتمدية طبرقة, ولاية جندوبة, تونس","address":{"county":"طبرقة","state_district":"معتمدية طبرقة","state":"ولاية جندوبة","ISO3166-2-lvl4":"TN-32","country":"تونس","country_code":"tn"},"osm_type":"relation","osm_id":7126384,"type":"administrative","location":[8.74401035328201,36.9450359],"bbox":[8.7190557,36.9213084,8.766743,36.9696989]}}
{"name":"عقارب","other_names":{"name:ar":"عقارب","name:en":"Agareb","name:fr":"Agareb"},"display_name":"عقارب, معتمدية عقارب, ولاية صفاقس, 3030, تونس","address":{"town":"عقارب","county":"عقارب","state_district":"معتمدية عقارب","state":"ولاية صفاقس","ISO3166-2-lvl4":"TN-61","postcode":"3030","country":"تونس","country_code":"tn"},"osm_type":"node","osm_id":6637553224,"type":"town","location":[10.5274044,34.7421056],"bbox":[10.4874044,34.7021056,10.5674044,34.7821056],"border":{"name":"عقارب","other_names":{"name:ar":"عقارب","name:fr":"Agareb"},"display_name":"عقارب, معتمدية عقارب, ولاية صفاقس, تونس","address":{"county":"عقارب","state_district":"معتمدية عقارب","state":"ولاية صفاقس","ISO3166-2-lvl4":"TN-61","country":"تونس","country_code":"tn"},"osm_type":"relation","osm_id":7046892,"type":"administrative","location":[10.544992907915717,34.7267589],"bbox":[10.505761,34.6874903,10.586892,34.7661069]}}
{"name":"عمدون","other_names":{"name:ar":"عمدون","name:en":"Zahret Medien","name:fr":"Amdoun","name:ur":"عمدون","alt_name":"زهرة مدين","alt_name:ar":"زهرة مدين","alt_name:fr":"Zahret Median"},"display_name":"عمدون, عمدون الجنوبية, معتمدية عمدون, ولاية باجة, تونس","address":{"town":"عمدون","county":"عمدون الجنوبية","state_district":"معتمدية عمدون","state":"ولاية باجة","ISO3166-2-lvl4":"TN-31","country":"تونس","country_code":"tn"},"osm_type":"node","osm_id":4099579144,"type":"town","location":[9.0894667,36.7686376],"bbox":[9.0494667,36.7286376,9.1294667,36.8086376],"border":{"name":"عمدون","other_names":{"name:ar":"عمدون","name:fr":"Amdoun"},"display_name":"عمدون, معتمدية عمدون, ولاية باجة, تونس","address":{"county":"عمدون","state_district":"معتمدية عمدون","state":"ولاية باجة","ISO3166-2-lvl4":"TN-31","country":"تونس","country_code":"tn"},"osm_type":"relation","osm_id":7189452,"type":"administrative","location":[9.088967722014925,36.78194],"bbox":[9.055601,36.76293,9.109579,36.80082]}}
{"name":"عين دراهم","other_names":{"name:ar":"عين دراهم","name:en":"Aïn Draham","name:fr":"Aïn Draham","name:kab":"Ɛin Drahem"},"display_name":"عين دراهم, عين دراهم الأحواز, معتمدية عين دراهم, ولاية جندوبة, تونس","address":{"town":"عين دراهم","county":"عين دراهم الأحواز","state_district":"معتمدية عين دراهم","state":"ولاية جندوبة","ISO3166-2-lvl4":"TN-32","country":"تونس","country_code":"tn"},"population":9659,"osm_type":"node","osm_id":548180838,"type":"town","location":[8.6879509,36.7774877],"bbox":[8.6479509,36.7374877,8.7279509,36.8174877]}
{"name":"غار الدماء","other_names":{"name:ar":"غار الدماء","name:en":"Ghardimaou","name:fr":"Ghardimaou","name:ru":"Гардимау","name:kab":"Ɣardimaw"},"display_name":"غار الدماء, معتمدية غار الدماء, ولاية جندوبة, 8160, تونس","address":{"town":"غار الدماء","county":"غار الدماء","state_district":"معتمدية غار الدماء","state":"ولاية جندوبة","ISO3166-2-lvl4":"TN-32","postcode":"8160","country":"تونس","country_code":"tn"},"population":68000,"osm_type":"node","osm_id":299272084,"type":"town","location":[8.4425342,36.4505903],"bbox":[8.4025342,36.4105903,8.4825342,36.4905903],"border":{"name":"غار الدماء","other_names":{"name:ar":"غار الدماء","name:fr":"Ghardimaou"},"display_name":"غار الدماء, معتمدية غار الدماء, ولاية جندوبة, 8160, تونس","address":{"county":"غار الدماء","state_district":"معتمدية غار الدماء","state":"ولاية جندوبة","ISO3166-2-lvl4":"TN-32","postcode":"8160","country":"تونس","country_code":"tn"},"osm_type":"relation","osm_id":7137967,"type":"administrative","location":[8.4451502668508,36.4465941],"bbox":[8.4277172,36.4389731,8.457575,36.4544994]}}
{"name":"غمراسن","other_names":{"name:ar":"غمراسن","name:en":"Ghomrassen","name:fr":"Ghomrassen","name:ru":"Гумрасен"},"display_name":"غمراسن, الواحة, معتمدية غمراسن, ولاية تطاوين, 3220, تونس","address":{"town":"غمراسن","county":"الواحة","state_district":"معتمدية غمراسن","state":"ولاية تطاوين","ISO3166-2-lvl4":"TN-83","postcode":"3220","country":"تونس","country_code":"tn"},"population":11300,"osm_type":"node","osm_id":1655884872,"type":"town","location":[10.3390575,33.0598991],"bbox":[10.2990575,33.0198991,10.3790575,33.0998991],"border":{"name":"غمراسن","other_names":{"name:ar":"غمراسن","name:fr":"GHOMRASSEN"},"display_name":"غمراسن, معتمدية غمراسن, ولاية تطاوين, تونس","address":{"county":"غمراسن","state_district":"معتمدية غمراسن","state":"ولاية تطاوين","ISO3166-2-lvl4":"TN-83","country":"تونس","country_code":"tn"},"osm_type":"relation","osm_id":7143816,"type":"administrative","location":[10.347603758349422,33.0615324],"bbox":[10.3381549,33.0570274,10.3690419,33.0660674]}}
{"name":"غنوش","other_names":{"name:ar":"غنوش","name:en":"Ghannouch","name:fr":"Ghannouch","name:ru":"Ганнуш"},"display_name":"غنوش, غنوش الغربية, معتمدية غنوش, ولاية قابس, 6021, تونس","address":{"town":"غنوش","county":"غنوش الغربية","state_district":"معتمدية غنوش","state":"ولاية قابس","ISO3166-2-lvl4":"TN-81","postcode":"6021","country":"تونس","country_code":"tn"},"osm_type":"node","osm_id":2203045897,"type":"town","location":[10.0650345,33.939816],"bbox":[10.0250345,33.899816,10.1050345,33.979816]}
{"name":"فرنانة","other_names":{"name:ar":"فرنانة","name:de":"Firnana","name:en":"Firnana","name:fr":"Fernana","alt_name":"الفرنانة;فرنانه","alt_name:ar":"الفرنانة;فرنانه"},"display_name":"فرنانة, معتمدية فرنانة, ولاية جندوبة, 8140, تونس","address":{"town":"فرنانة","state_district":"معتمدية فرنانة","state":"ولاية جندوبة","ISO3166-2-lvl4":"TN-32","postcode":"8140","country":"تونس","country_code":"tn"},"osm_type":"node","osm_id":4790853022,"type":"town","location":[8.6957875,36.6556629],"bbox":[8.6557875,36.6156629,8.7357875,36.6956629],"border":{"name":"فرنانة","other_names":{"name:ar":"فرنانة","name:de":"Firnana","name:en":"Firnana","name:fr":"Fernana","alt_name:ar":"الفرنانة;فرنانه","alt_name":"الفرنانة;فرنانه"},"display_name":"فرنانة, معتمدية فرنانة, ولاية جندوبة, 8140, تونس","address":{"town":"فرنانة","state_district":"معتمدية فرنانة","state":"ولاية جندوبة","ISO3166-2-lvl4":"TN-32","postcode":"8140","country":"تونس","country_code":"tn"},"osm_type":"relation","osm_id":7134440,"type":"administrative","location":[8.6957875,36.6556629],"bbox":[8.6550736,36.6390061,8.7481254,36.7094067]}}
{"name":"فريانة","other_names":{"name:ar":"فريانة","name:en":"Feriana","name:fr":"Fériana","name:ru":"Фериана"},"display_name":"فريانة, معتمدية فريانة, ولاية القصرين, 1215, تونس","address":{"town":"فريانة","county":"فريانة","state_district":"معتمدية فريانة","state":"ولاية القصرين","ISO3166-2-lvl4":"TN-42","postcode":"1215","country":"تونس","country_code":"tn"},"population":29572,"osm_type":"node","osm_id":1896502664,"type":"town","location":[8.5663107,34.9466476],"bbox":[8.5263107,34.9066476,8.6063107,34.9866476],"border":[{"name":"فريانة","other_names":{"name:ar":"فريانة","name:en":"Feriana","name:fr":"Fériana","name:ru":"Фериана"},"display_name":"فريانة, معتمدية فريانة, ولاية القصرين, تونس","address":{"town":"فريانة","county":"فريانة","state_district":"معتمدية فريانة","state":"ولاية القصرين","ISO3166-2-lvl4":"TN-42","country":"تونس","country_code":"tn"},"population":29572,"osm_type":"way","osm_id":207079353,"type":"town","location":[8.5663107,34.9466476],"bbox":[8.5361721,34.9328703,8.5781916,34.9515499]},{"name":"فريانة","other_names":{"name:ar":"فريانة","name:fr":"Feriana"},"display_name":"فريانة, معتمدية فريانة, ولاية القصرين, تونس","address":{"county":"فريانة","state_district":"معتمدية فريانة","state":"ولاية القصرين","ISO3166-2-lvl4":"TN-42","country":"تونس","country_code":"tn"},"osm_type":"relation","osm_id":7164948,"type":"administrative","location":[8.586602746361255,34.960145],"bbox":[8.53599,34.93845,8.600871,34.98174]}]}
{"name":"فوشانة‎","other_names":{"name:ar":"فوشانة‎","name:ca":"Fouchana","name:en":"Fouchana","name:fr":"Fouchana","name:ru":"Фушана","name:uk":"Фушана","name:kab":"Fucana"},"display_name":"فوشانة‎, الهضاب, معتمدية فوشانة, ولاية بن عروس, 2082, تونس","address":{"town":"فوشانة‎","county":"الهضاب","state_district":"معتمدية فوشانة","state":"ولاية بن عروس","ISO3166-2-lvl4":"TN-13","postcode":"2082","country":"تونس","country_code":"tn"},"population":106167,"osm_type":"node","osm_id":286354073,"type":"town","location":[10.1693582,36.6987224],"bbox":[10.1293582,36.6587224,10.2093582,36.7387224],"border":{"name":"فوشانة","other_names":{"name:ar":"فوشانة","name:fr":"Fouchana"},"display_name":"فوشانة, معتمدية فوشانة, ولاية بن عروس, 1145, تونس","address":{"county":"فوشانة","state_district":"معتمدية فوشانة","state":"ولاية بن عروس","ISO3166-2-lvl4":"TN-13","postcode":"1145","country":"تونس","country_code":"tn"},"osm_type":"relation","osm_id":7174623,"type":"administrative","location":[10.172476773648647,36.69471],"bbox":[10.1471286,36.67778,10.196376,36.7117574]}}
{"name":"قبلي","other_names":{"name:ar":"قبلي","name:en":"Kebili","name:eo":"Kebili","name:fa":"قبلی","name:fr":"Kebili","name:ks":"قبلی","name:pl":"Kibili","name:ru":"Кебили","name:ur":"قبلی"},"display_name":"قبلي, ‫جنعورة‬, معتمدية قبلي الشمالية, ولاية قبلي, 4200, تونس","address":{"town":"قبلي","county":"‫جنعورة‬","state_district":"معتمدية قبلي الشمالية","state":"ولاية قبلي","ISO3166-2-lvl4":"TN-73","postcode":"4200","country":"تونس","country_code":"tn"},"osm_type":"node","osm_id":298019989,"type":"town","location":[8.9698376,33.7061148],"bbox":[8.9298376,33.6661148,9.0098376,33.7461148]}
{"name":"قربة","other_names":{"name:ar":"قربة","name:en":"Korba","name:fr":"Korba","name:ru":"Корба"},"display_name":"قربة, قربة الغربية, معتمدية قربة, ولاية نابل, 8070, تونس","address":{"town":"قربة","county":"قربة الغربية","state_district":"معتمدية قربة","state":"ولاية نابل","ISO3166-2-lvl4":"TN-21","postcode":"8070","country":"تونس","country_code":"tn"},"population":68966,"osm_type":"node","osm_id":2187459836,"type":"town","location":[10.857624,36.5728862],"bbox":[10.817624,36.5328862,10.897624,36.6128862],"border":{"name":"قربة","other_names":{"name:ar":"قربة","name:en":"Korba","name:fr":"Korba","name:ru":"Корба"},"display_name":"قربة, قربة الغربية, معتمدية قربة, ولاية نابل, 8070, تونس","address":{"town":"قربة","county":"قربة الغربية","state_district":"معتمدية قربة","state":"ولاية نابل","ISO3166-2-lvl4":"TN-21","postcode":"8070","country":"تونس","country_code":"tn"},"population":68966,"osm_type":"way","osm_id":208440754,"type":"town","location":[10.857624,36.5728862],"bbox":[10.8352663,36.5577587,10.8733434,36.5983043]}}
{"name":"قرمبالية","other_names":{"name:ar":"قرمبالية","name:en":"Grombalia","name:fr":"Grombalia","name:ru":"Громбалия"},"display_name":"قرمبالية, قرنبالية الشرقية, معتمدية قرمبالية, ولاية نابل, 8092, تونس","address":{"town":"قرمبالية","county":"قرنبالية الشرقية","state_district":"معتمدية قرمبالية","state":"ولاية نابل","ISO3166-2-lvl4":"TN-21","postcode":"8092","country":"تونس","country_code":"tn"},"osm_type":"node","osm_id":1124134746,"type":"town","location":[10.4990402,36.5984231],"bbox":[10.4590402,36.5584231,10.5390402,36.6384231]}
{"name":"قصر هلال","other_names":{"name:ar":"قصر هلال","name:en":"Ksar Hellal","name:fa":"قصر هلال","name:fr":"Ksar Hellal","name:ru":"Ксар-Хеллаль","name:ur":"قصر ہلال","name:azb":"قصر هلال"},"display_name":"قصر هلال, معتمدية قصر هلال, ولاية المنستير, 5070, تونس","address":{"town":"قصر هلال","county":"قصر هلال","state_district":"معتمدية قصر هلال","state":"ولاية المنستير","ISO3166-2-lvl4":"TN-52","postcode":"5070","country":"تونس","country_code":"tn"},"osm_type":"node","osm_id":1212253275,"type":"town","location":[10.8891403,35.6443898],"bbox":[10.8491403,35.6043898,10.9291403,35.6843898],"border":[{"name":"قصر هلال","other_names":{"name:ar":"قصر هلال","name:fr":"Ksar Hellal"},"display_name":"قصر هلال, معتمدية قصر هلال, ولاية المنستير, تونس","address":{"county":"قصر هلال","state_district":"معتمدية قصر هلال","state":"ولاية المنستير","ISO3166-2-lvl4":"TN-52","country":"تونس","country_code":"tn"},"osm_type":"relation","osm_id":7110673,"type":"administrative","location":[10.858165252582465,35.6287343],"bbox":[10.8419459,35.6107661,10.8953888,35.6469713]},{"name":"قصرهلال","other_names":{"name:ar":"قصرهلال","name:fr":"Ksar Hellal"},"display_name":"قصرهلال, معتمدية قصر هلال, ولاية المنستير, 5070, تونس","address":{"county":"قصرهلال","state_district":"معتمدية قصر هلال","state":"ولاية المنستير","ISO3166-2-lvl4":"TN-52","postcode":"5070","country":"تونس","country_code":"tn"},"osm_type":"relation","osm_id":7110676,"type":"administrative","location":[10.906119548434997,35.6516722],"bbox":[10.8738347,35.6384389,10.9250274,35.6648257]}]}
{"name":"قصور الساف","other_names":{"name:ar":"قصور الساف","name:en":"Ksour Essef","name:fr":"Ksour Essef"},"display_name":"قصور الساف, قصور الساف الرياض, معتمدية قصور الساف, ولاية المهدية, 5180, تونس","address":{"town":"قصور الساف","county":"قصور الساف الرياض","state_district":"معتمدية قصور الساف","state":"ولاية المهدية","ISO3166-2-lvl4":"TN-53","postcode":"5180","country":"تونس","country_code":"tn"},"population":26219,"osm_type":"node","osm_id":558962262,"type":"town","location":[10.9987172,35.4162835],"bbox":[10.9587172,35.3762835,11.0387172,35.4562835]}
{"name":"قلالة","other_names":{"name:ar":"قلالة","name:en":"Guellala","name:es":"Guellala","name:fr":"Guellala","name:it":"Guellala","name:pl":"Kallala","name:ru":"Геллала","alt_name":"Guellala","name:ber":"Iqellalen"},"display_name":"قلالة, معتمدية جربة أجيم, ولاية مدنين, تونس","address":{"town":"قلالة","state_district":"معتمدية جربة أجيم","state":"ولاية مدنين","ISO3166-2-lvl4":"TN-82","country":"تونس","country_code":"tn"},"population":10216,"osm_type":"node","osm_id":1259516109,"type":"town","location":[10.8558574,33.7287283],"bbox":[10.8158574,33.6887283,10.8958574,33.7687283],"border":{"name":"قلالة","other_names":{"name:ar":"قلالة","name:fr":"Guellala","name:kab":"Iqellalen","name:en":"Guellala","name:es":"Guellala","name:it":"Guellala","name:pl":"Kallala","name:ru":"Геллала","alt_name":"Guellala","name:ber":"Iqellalen"},"display_name":"قلالة, معتمدية جربة أجيم, ولاية مدنين, تونس","address":{"town":"قلالة","state_district":"معتمدية جربة أجيم","state":"ولاية مدنين","ISO3166-2-lvl4":"TN-82","country":"تونس","country_code":"tn"},"population":10216,"osm_type":"relation","osm_id":7133852,"type":"administrative","location":[10.8558574,33.7287283],"bbox":[10.8277689,33.631443,10.9152747,33.7919998]}}
{"name":"قلعة الأندلس","other_names":{"name:ar":"قلعة الأندلس","name:en":"Kalâat el-Andalous","name:fr":"Kalâat el-Andalous","name:ru":"Калъат-эль-Андалус"},"display_name":"قلعة الأندلس, قلعة الأندلس الشرقية, معتمدية قلعة الأندلس, ولاية أريانة, 2022, تونس","address":{"town":"قلعة الأندلس","county":"قلعة الأندلس الشرقية","state_district":"معتمدية قلعة الأندلس","state":"ولاية أريانة","ISO3166-2-lvl4":"TN-12","postcode":"2022","country":"تونس","country_code":"tn"},"osm_type":"node","osm_id":3013469458,"type":"town","location":[10.118145,37.0624508],"bbox":[10.078145,37.0224508,10.158145,37.1024508]}
{"name":"قلعة سنان","other_names":{"name:ar":"قلعة سنان","name:en":"Kalaat es Senam","name:fr":"Kalaat Senan","name:ru":"Калъат-эс-Сенам"},"display_name":"قلعة سنان, معتمدية قلعة سنان, ولاية الكاف, 7130, تونس","address":{"town":"قلعة سنان","state_district":"معتمدية قلعة سنان","state":"ولاية الكاف","ISO3166-2-lvl4":"TN-33","postcode":"7130","country":"تونس","country_code":"tn"},"population":8145,"osm_type":"node","osm_id":501803032,"type":"town","location":[8.3438119,35.7672773],"bbox":[8.3038119,35.7272773,8.3838119,35.8072773],"border":{"name":"قلعة سنان","other_names":{"name:ar":"قلعة سنان","name:fr":"Kalâat Snan","name:en":"Kalaat es Senam","name:ru":"Калъат-эс-Сенам","alt:fr":"Kalaat Senan"},"display_name":"قلعة سنان, معتمدية قلعة سنان, ولاية الكاف, 7130, تونس","address":{"town":"قلعة سنان","state_district":"معتمدية قلعة سنان","state":"ولاية الكاف","ISO3166-2-lvl4":"TN-33","postcode":"7130","country":"تونس","country_code":"tn"},"population":8145,"osm_type":"relation","osm_id":7129263,"type":"administrative","location":[8.3438119,35.7672773],"bbox":[8.3109289,35.7299618,8.40082,35.8085836]}}
{"display_name":"قليبية الغربية, معتمدية قليبية, ولاية نابل, تونس","address":{"county":"قليبية الغربية","state_district":"معتمدية قليبية","state":"ولاية نابل","ISO3166-2-lvl4":"TN-21","country":"تونس","country_code":"tn"},"osm_type":"way","osm_id":1051671935,"type":"town","location":[11.086551893585359,36.8348952],"bbox":[11.0858152,36.8342512,11.0870168,36.8353331]}
{"name":"قليبية","other_names":{"name:ar":"قليبية","name:fr":"Kelibia","name:en":"Kelibia","name:ru":"Келибия","name:kab":"Qlibya","alt:fr":"Kélibia"},"display_name":"قليبية, قليبية الغربية, معتمدية قليبية, ولاية نابل, تونس","address":{"city":"قليبية","county":"قليبية الغربية","state_district":"معتمدية قليبية","state":"ولاية نابل","ISO3166-2-lvl4":"TN-21","country":"تونس","country_code":"tn"},"population":58491,"osm_type":"way","osm_id":1051671934,"type":"town","location":[11.0935701,36.8456561],"bbox":[11.0735809,36.832231,11.1223291,36.8680068]}
{"name":"ماجل بلعباس","other_names":{"name:ar":"ماجل بلعباس","name:en":"Magel Bel Abbes","name:fr":"Majel Bel Abbès"},"display_name":"ماجل بلعباس, ماجل بالعباس الشمالية, معتمدية ماجل بالعباس, ولاية القصرين, تونس","address":{"town":"ماجل بلعباس","county":"ماجل بالعباس الشمالية","state_district":"معتمدية ماجل بالعباس","state":"ولاية القصرين","ISO3166-2-lvl4":"TN-42","country":"تونس","country_code":"tn"},"osm_type":"node","osm_id":2175125786,"type":"town","location":[8.5231276,34.750428],"bbox":[8.4831276,34.710428,8.5631276,34.790428],"border":{"name":"ماجل بلعباس","other_names":{"name:ar":"ماجل بلعباس","name:en":"Magel Bel Abbes","name:fr":"Magel Bel Abbès","alt:fr":"Majel Bel Abbès"},"display_name":"ماجل بلعباس, ماجل بالعباس الشمالية, معتمدية ماجل بالعباس, ولاية القصرين, تونس","address":{"town":"ماجل بلعباس","county":"ماجل بالعباس الشمالية","state_district":"معتمدية ماجل بالعباس","state":"ولاية القصرين","ISO3166-2-lvl4":"TN-42","country":"تونس","country_code":"tn"},"osm_type":"way","osm_id":189337618,"type":"town","location":[8.5231276,34.750428],"bbox":[8.5120506,34.7379945,8.534376,34.7604306]}}
{"name":"مارث","other_names":{"name:ar":"مارث","name:de":"Mareth","name:en":"Mareth","name:fr":"Mareth","name:ru":"Марет"},"display_name":"مارث, معتمدية مارث, ولاية قابس, 6080, تونس","address":{"town":"مارث","county":"مارث","state_district":"معتمدية مارث","state":"ولاية قابس","ISO3166-2-lvl4":"TN-81","postcode":"6080","country":"تونس","country_code":"tn"},"osm_type":"node","osm_id":352839775,"type":"town","location":[10.2882317,33.617159],"bbox":[10.2482317,33.577159,10.3282317,33.657159],"border":{"name":"مارث","other_names":{"name:ar":"مارث","name:fr":"Mareth"},"display_name":"مارث, معتمدية مارث, ولاية قابس, 6080, تونس","address":{"county":"مارث","state_district":"معتمدية مارث","state":"ولاية قابس","ISO3166-2-lvl4":"TN-81","postcode":"6080","country":"تونس","country_code":"tn"},"osm_type":"relation","osm_id":7145413,"type":"administrative","location":[10.266054220270266,33.580484999999996],"bbox":[10.2346642,33.5261751,10.3342542,33.634485]}}
{"name":"ماطر","other_names":{"name:ar":"ماطر","name:de":"Matir","name:en":"Matir","name:fa":"ماطر","name:fr":"Mateur","name:ks":"ماطر","name:ru":"Матир","name:ur":"ماطر","name:azb":"ماطر","name:kab":"Maṭer","name:pnb":"ماطر"},"display_name":"ماطر, معتمدية ماطر, ولاية بنزرت, 7030, تونس","address":{"town":"ماطر","state_district":"معتمدية ماطر","state":"ولاية بنزرت","ISO3166-2-lvl4":"TN-23","postcode":"7030","country":"تونس","country_code":"tn"},"population":32546,"osm_type":"node","osm_id":299277153,"type":"town","location":[9.6676974,37.0385985],"bbox":[9.6276974,36.9985985,9.7076974,37.0785985],"border":{"name":"ماطر","other_names":{"name:ar":"ماطر","name:fr":"Mateur","name:de":"Matir","name:en":"Matir","name:fa":"ماطر","name:ks":"ماطر","name:ru":"Матир","name:ur":"ماطر","name:azb":"ماطر","name:kab":"Maṭer","name:pnb":"ماطر"},"display_name":"ماطر, معتمدية ماطر, ولاية بنزرت, 7030, تونس","address":{"town":"ماطر","state_district":"معتمدية ماطر","state":"ولاية بنزرت","ISO3166-2-lvl4":"TN-23","postcode":"7030","country":"تونس","country_code":"tn"},"population":32546,"osm_type":"relation","osm_id":7122218,"type":"administrative","location":[9.6676974,37.0385985],"bbox":[9.6337805,37.0242877,9.7054344,37.049882]}}
{"name":"مجاز الباب","other_names":{"name:ar":"مجاز الباب","name:en":"Medjez El-Bab","name:fa":"مجاز الباب","name:fr":"Medjez El-Bab","name:ru":"Меджес-эль-Баб"},"display_name":"مجاز الباب, سيدي الرايس, معتمدية مجاز الباب, ولاية باجة, 9070, تونس","address":{"town":"مجاز الباب","county":"سيدي الرايس","state_district":"معتمدية مجاز الباب","state":"ولاية باجة","ISO3166-2-lvl4":"TN-31","postcode":"9070","country":"تونس","country_code":"tn"},"population":21653,"osm_type":"node","osm_id":299265771,"type":"town","location":[9.616516,36.6471499],"bbox":[9.576516,36.6071499,9.656516,36.6871499]}
{"name":"مدنين","other_names":{"name:ar":"مدنين","name:de":"Medenine","name:en":"Medenine","name:es":"Médenine","name:fa":"مدنین","name:fr":"Médenine","name:it":"Medenina","name:ja":"メドニン","name:ks":"مدنین","name:pt":"Médenine","name:ru":"Меденин","name:tr":"Medenin","name:ur":"مدنین","name:zh":"梅德寧","name:kab":"Mednin"},"display_name":"مدنين, مدنين الجنوبية, معتمدية مدنين االجنوبية, ولاية مدنين, 4100, تونس","address":{"town":"مدنين","county":"مدنين الجنوبية","state_district":"معتمدية مدنين االجنوبية","state":"ولاية مدنين","ISO3166-2-lvl4":"TN-82","postcode":"4100","country":"تونس","country_code":"tn"},"population":71406,"osm_type":"node","osm_id":287585326,"type":"town","location":[10.4910703,33.3434014],"bbox":[10.4510703,33.3034014,10.5310703,33.3834014]}
{"name":"مرناق","other_names":{"name:ar":"مرناق","name:en":"Mornag","name:fr":"Mornag","name:ru":"Морнаг"},"display_name":"مرناق, معتمدية مرناق, ولاية بن عروس, 2090, تونس","address":{"town":"مرناق","county":"مرناق","state_district":"معتمدية مرناق","state":"ولاية بن عروس","ISO3166-2-lvl4":"TN-13","postcode":"2090","country":"تونس","country_code":"tn"},"osm_type":"node","osm_id":1157744669,"type":"town","location":[10.2901728,36.6807415],"bbox":[10.2501728,36.6407415,10.3301728,36.7207415],"border":[{"name":"مرناق","other_names":{"name:ar":"مرناق","name:en":"Mornag","name:fr":"Mornag","name:ru":"Морнаг"},"display_name":"مرناق, معتمدية مرناق, ولاية بن عروس, تونس","address":{"town":"مرناق","county":"مرناق","state_district":"معتمدية مرناق","state":"ولاية بن عروس","ISO3166-2-lvl4":"TN-13","country":"تونس","country_code":"tn"},"osm_type":"way","osm_id":267582939,"type":"town","location":[10.2901728,36.6807415],"bbox":[10.2823745,36.6657921,10.3012978,36.6904981]},{"name":"مرناق","other_names":{"name:ar":"مرناق","name:fr":"Mornag"},"display_name":"مرناق, معتمدية مرناق, ولاية بن عروس, 2090, تونس","address":{"county":"مرناق","state_district":"معتمدية مرناق","state":"ولاية بن عروس","ISO3166-2-lvl4":"TN-13","postcode":"2090","country":"تونس","country_code":"tn"},"osm_type":"relation","osm_id":7174625,"type":"administrative","location":[10.297943930493275,36.66721],"bbox":[10.282819,36.63874,10.3234347,36.69568]}]}
{"name":"مساكن","other_names":{"name:ar":"مساكن","name:en":"M'Saken","name:fr":"M'saken","name:ru":"Мсакен","int_name":"M'saken"},"display_name":"مساكن, التوارة الجنوبية, معتمدية مساكن, ولاية سوسة, 4070, تونس","address":{"town":"مساكن","county":"التوارة الجنوبية","state_district":"معتمدية مساكن","state":"ولاية سوسة","ISO3166-2-lvl4":"TN-51","postcode":"4070","country":"تونس","country_code":"tn"},"population":56000,"osm_type":"node","osm_id":287612727,"type":"town","location":[10.5751923,35.7330411],"bbox":[10.5351923,35.6930411,10.6151923,35.7730411]}
{"name":"مسجد عيسى","other_names":{"name:ar":"مسجد عيسى","name:en":"Mesjed-Aïssa","name:fr":"Masjed Aissa"},"display_name":"مسجد عيسى, معتمدية الساحلين, ولاية المنستير, 5042, تونس","address":{"town":"مسجد عيسى","county":"مسجد عيسى","state_district":"معتمدية الساحلين","state":"ولاية المنستير","ISO3166-2-lvl4":"TN-52","postcode":"5042","country":"تونس","country_code":"tn"},"osm_type":"node","osm_id":6582739511,"type":"town","location":[10.7149804,35.7241582],"bbox":[10.6749804,35.6841582,10.7549804,35.7641582],"border":{"name":"مسجد عيسى","other_names":{"name:ar":"مسجد عيسى","name:fr":"Masjed Aïssa"},"display_name":"مسجد عيسى, معتمدية الساحلين, ولاية المنستير, 5042, تونس","address":{"county":"مسجد عيسى","state_district":"معتمدية الساحلين","state":"ولاية المنستير","ISO3166-2-lvl4":"TN-52","postcode":"5042","country":"تونس","country_code":"tn"},"osm_type":"relation","osm_id":7106910,"type":"administrative","location":[10.717592436045175,35.7188465],"bbox":[10.6943735,35.7017333,10.7405604,35.73554]}}
{"name":"مطماطة الجديدة","other_names":{"name:ar":"مطماطة الجديدة","name:de":"Nouvelle Matmata","name:en":"Nouvelle Matmata","name:fr":"Nouvelle Matmata","name:aeb":"مطماطة الجديدة"},"display_name":"مطماطة الجديدة, معتمدية مطماطة الجديدة, ولاية قابس, 6044, تونس","address":{"town":"مطماطة الجديدة","county":"مطماطة الجديدة","state_district":"معتمدية مطماطة الجديدة","state":"ولاية قابس","ISO3166-2-lvl4":"TN-81","postcode":"6044","country":"تونس","country_code":"tn"},"population":30000,"osm_type":"node","osm_id":352752197,"type":"town","location":[10.0144336,33.6688822],"bbox":[9.9744336,33.6288822,10.0544336,33.7088822],"border":{"name":"مطماطة الجديدة","other_names":{"name:ar":"مطماطة الجديدة","name:fr":"Nouvelle Matmata"},"display_name":"مطماطة الجديدة, معتمدية مطماطة الجديدة, ولاية قابس, 6044, تونس","address":{"county":"مطماطة الجديدة","state_district":"معتمدية مطماطة الجديدة","state":"ولاية قابس","ISO3166-2-lvl4":"TN-81","postcode":"6044","country":"تونس","country_code":"tn"},"osm_type":"relation","osm_id":7145430,"type":"administrative","location":[9.980098212842458,33.654405],"bbox":[9.9436572,33.571235,10.0616252,33.737595]}}
{"name":"مقرين","other_names":{"name:ar":"مقرين","name:en":"Mégrine","name:fr":"Mégrine"},"display_name":"مقرين, مقرين العليا, معتمدية مقرين, ولاية بن عروس, 2033, تونس","address":{"town":"مقرين","county":"مقرين العليا","state_district":"معتمدية مقرين","state":"ولاية بن عروس","ISO3166-2-lvl4":"TN-13","postcode":"2033","country":"تونس","country_code":"tn"},"osm_type":"node","osm_id":7716925564,"type":"town","location":[10.2315885,36.7703354],"bbox":[10.1915885,36.7303354,10.2715885,36.8103354]}
{"name":"مكثر","other_names":{"name:ar":"مكثر","name:en":"Maktar","name:fr":"Makthar","name:ru":"Мактар","alt_name":"Makthar","alt_name:1":"Makter"},"display_name":"مكثر, مكثر الجنوبية, معتمدية مكثر, ولاية سليانة, تونس","address":{"town":"مكثر","county":"مكثر الجنوبية","state_district":"معتمدية مكثر","state":"ولاية سليانة","ISO3166-2-lvl4":"TN-34","country":"تونس","country_code":"tn"},"population":12942,"osm_type":"node","osm_id":1088455110,"type":"town","location":[9.2057475,35.8558974],"bbox":[9.1657475,35.8158974,9.2457475,35.8958974]}
{"name":"ملولش","other_names":{"name:ar":"ملولش","name:en":"Melloulèche","name:fr":"Melloulèche"},"display_name":"ملولش, معتمدية ملولش, ولاية المهدية, تونس","address":{"town":"ملولش","county":"ملولش","state_district":"معتمدية ملولش","state":"ولاية المهدية","ISO3166-2-lvl4":"TN-53","country":"تونس","country_code":"tn"},"osm_type":"node","osm_id":5974000209,"type":"town","location":[11.0355373,35.165461],"bbox":[10.9955373,35.125461,11.0755373,35.205461],"border":{"name":"ملولش","other_names":{"name:ar":"ملولش","name:fr":"Melloulech"},"display_name":"ملولش, معتمدية ملولش, ولاية المهدية, تونس","address":{"county":"ملولش","state_district":"معتمدية ملولش","state":"ولاية المهدية","ISO3166-2-lvl4":"TN-53","country":"تونس","country_code":"tn"},"osm_type":"relation","osm_id":7152284,"type":"administrative","location":[11.007459686282665,35.14241055],"bbox":[10.968365,35.1007075,11.0868398,35.1839066]}}
{"name":"منزل بورقيبة","other_names":{"name:ar":"منزل بورقيبة","name:de":"Manzil Bourguiba","name:en":"Manzil Bourguiba","name:fr":"Menzel Bourguiba","name:ru":"Мензель-Бургиба"},"display_name":"منزل بورقيبة, المدينة, معتمدية منزل بورقيبة, ولاية بنزرت, 7050, تونس","address":{"town":"منزل بورقيبة","county":"المدينة","state_district":"معتمدية منزل بورقيبة","state":"ولاية بنزرت","ISO3166-2-lvl4":"TN-23","postcode":"7050","country":"تونس","country_code":"tn"},"population":61919,"osm_type":"node","osm_id":287618126,"type":"town","location":[9.7925864,37.1549472],"bbox":[9.7525864,37.1149472,9.8325864,37.1949472]}
{"name":"منزل تميم","other_names":{"name:ar":"منزل تميم","name:en":"Menzel Temime","name:fr":"Menzel Temime","name:ru":"Мензель Темим"},"display_name":"منزل تميم, علي بلهوان, معتمدية منزل تميم, ولاية نابل, 8080, تونس","address":{"town":"منزل تميم","county":"علي بلهوان","state_district":"معتمدية منزل تميم","state":"ولاية نابل","ISO3166-2-lvl4":"TN-21","postcode":"8080","country":"تونس","country_code":"tn"},"population":65645,"osm_type":"node","osm_id":6039044550,"type":"town","location":[10.9939105,36.7807127],"bbox":[10.9539105,36.7407127,11.0339105,36.8207127]}
{"name":"منزل جميل","other_names":{"name:ar":"منزل جميل","name:en":"Menzel Jemil","name:fr":"Menzel Jemil"},"display_name":"منزل جميل, منزل جميل الشرقية, معتمدية منزل جميل, ولاية بنزرت, تونس","address":{"town":"منزل جميل","county":"منزل جميل الشرقية","state_district":"معتمدية منزل جميل","state":"ولاية بنزرت","ISO3166-2-lvl4":"TN-23","country":"تونس","country_code":"tn"},"osm_type":"node","osm_id":7364294250,"type":"town","location":[9.9129702,37.239323],"bbox":[9.8729702,37.199323,9.9529702,37.279323],"border":{"name":"منزل جميل","other_names":{"name:ar":"منزل جميل","name:en":"Menzel Jemil","name:fr":"Menzel Jemil","name:ru":"Мензель-Джемиль"},"display_name":"منزل جميل, منزل جميل الشرقية, معتمدية منزل جميل, ولاية بنزرت, تونس","address":{"town":"منزل جميل","county":"منزل جميل الشرقية","state_district":"معتمدية منزل جميل","state":"ولاية بنزرت","ISO3166-2-lvl4":"TN-23","country":"تونس","country_code":"tn"},"osm_type":"way","osm_id":575072345,"type":"town","location":[9.9129702,37.239323],"bbox":[9.9011926,37.2255743,9.9324631,37.250892]}}
{"name":"منوبة","other_names":{"name:ar":"منوبة","name:en":"Manouba","name:fa":"منوبه","name:fr":"La Manouba","name:ru":"Мануба","name:ur":"منوبہ"},"display_name":"منوبة, ‫منوبة‬, معتمدية منوبة‬, ولاية منوبة, 2087, تونس","address":{"town":"منوبة","county":"‫منوبة‬","state_district":"معتمدية منوبة‬","state":"ولاية منوبة","ISO3166-2-lvl4":"TN-14","postcode":"2087","country":"تونس","country_code":"tn"},"population":58792,"osm_type":"node","osm_id":2988385577,"type":"town","location":[10.0947037,36.8113307],"bbox":[10.0547037,36.7713307,10.1347037,36.8513307]}
{"name":"ميدون","other_names":{"name:ar":"ميدون","name:ca":"Midoun","name:de":"Midoun","name:en":"Midoun","name:fr":"Midoun","name:it":"Midoun","name:pl":"Midun","name:pt":"Midoun","name:ru":"Мидун","name:uk":"Мідун","name:zu":"Midoun","name:kab":"Midun"},"display_name":"ميدون, آركو, معتمدية جربة ميدون, ولاية مدنين, 4165, تونس","address":{"town":"ميدون","county":"آركو","state_district":"معتمدية جربة ميدون","state":"ولاية مدنين","ISO3166-2-lvl4":"TN-82","postcode":"4165","country":"تونس","country_code":"tn"},"osm_type":"node","osm_id":287613682,"type":"town","location":[10.9910666,33.8074152],"bbox":[10.9510666,33.7674152,11.0310666,33.8474152],"border":{"name":"ميدون","other_names":{"name:ar":"ميدون","name:fr":"Midoun"},"display_name":"ميدون, معتمدية جربة ميدون, ولاية مدنين, تونس","address":{"county":"ميدون","state_district":"معتمدية جربة ميدون","state":"ولاية مدنين","ISO3166-2-lvl4":"TN-82","country":"تونس","country_code":"tn"},"osm_type":"relation","osm_id":7133850,"type":"administrative","location":[11.006923854584123,33.82455695],"bbox":[10.9477104,33.798263,11.0514371,33.8512275]}}
{"name":"نبر","other_names":{"name:ar":"نبر","name:de":"Nibbar","name:en":"Nibbar","name:fa":"نبر","name:fr":"Nebeur","name:ru":"Ниббар","name:ur":"نبر"},"display_name":"نبر, معتمدية نبر, ولاية الكاف, 7110, تونس","address":{"town":"نبر","county":"نبر","state_district":"معتمدية نبر","state":"ولاية الكاف","ISO3166-2-lvl4":"TN-33","postcode":"7110","country":"تونس","country_code":"tn"},"population":3435,"osm_type":"node","osm_id":3430536430,"type":"town","location":[8.7713168,36.3050927],"bbox":[8.7313168,36.2650927,8.8113168,36.3450927],"border":{"name":"نبر","other_names":{"name:ar":"نبر","name:fr":"Nebeur"},"display_name":"نبر, معتمدية نبر, ولاية الكاف, 7110, تونس","address":{"county":"نبر","state_district":"معتمدية نبر","state":"ولاية الكاف","ISO3166-2-lvl4":"TN-33","postcode":"7110","country":"تونس","country_code":"tn"},"osm_type":"relation","osm_id":7198160,"type":"administrative","location":[8.758716151515154,36.277829999999994],"bbox":[8.704126,36.2384517,8.807716,36.31714]}}
{"name":"نصر الله","other_names":{"name:ar":"نصر الله","name:de":"Nasrallah","name:en":"Nasr Allah","name:fr":"Nasrallah"},"display_name":"نصر الله, نصر اللّه المركز, معتمدية نصر الله, ولاية القيروان, تونس","address":{"town":"نصر الله","county":"نصر اللّه المركز","state_district":"معتمدية نصر الله","state":"ولاية القيروان","ISO3166-2-lvl4":"TN-41","country":"تونس","country_code":"tn"},"osm_type":"node","osm_id":6215539235,"type":"town","location":[9.8275155,35.3528502],"bbox":[9.7875155,35.3128502,9.8675155,35.3928502]}
{"name":"نعسان","other_names":{"name:ar":"نعسان","name:en":"Naassen","name:fr":"Naassene"},"display_name":"نعسان, معتمدية فوشانة, ولاية بن عروس, 2059, تونس","address":{"town":"نعسان","county":"نعسان","state_district":"معتمدية فوشانة","state":"ولاية بن عروس","ISO3166-2-lvl4":"TN-13","postcode":"2059","country":"تونس","country_code":"tn"},"osm_type":"node","osm_id":7186137196,"type":"town","location":[10.2327771,36.7044775],"bbox":[10.1927771,36.6644775,10.2727771,36.7444775],"border":{"name":"نعسان","other_names":{"name:ar":"نعسان","name:fr":"Naassen"},"display_name":"نعسان, معتمدية فوشانة, ولاية بن عروس, تونس","address":{"county":"نعسان","state_district":"معتمدية فوشانة","state":"ولاية بن عروس","ISO3166-2-lvl4":"TN-13","country":"تونس","country_code":"tn"},"osm_type":"relation","osm_id":7174631,"type":"administrative","location":[10.23534498853811,36.697109999999995],"bbox":[10.223906,36.68339,10.250503,36.71094]}}
{"name":"نفطة","other_names":{"name:ar":"نفطة","name:en":"Nefta","name:fr":"Nefta","name:ru":"Нефта"},"display_name":"نفطة, السني, معتمدية نفطة, ولاية توزر, 2240, تونس","address":{"town":"نفطة","county":"السني","state_district":"معتمدية نفطة","state":"ولاية توزر","ISO3166-2-lvl4":"TN-72","postcode":"2240","country":"تونس","country_code":"tn"},"osm_type":"node","osm_id":298018764,"type":"town","location":[7.880684,33.8720687],"bbox":[7.840684,33.8320687,7.920684,33.9120687],"border":{"name":"نفطة","other_names":{"name:ar":"نفطة","name:en":"Nefta","name:fr":"Nefta","name:ru":"Нефта"},"display_name":"نفطة, السني, معتمدية نفطة, ولاية توزر, 2240, تونس","address":{"town":"نفطة","county":"السني","state_district":"معتمدية نفطة","state":"ولاية توزر","ISO3166-2-lvl4":"TN-72","postcode":"2240","country":"تونس","country_code":"tn"},"osm_type":"way","osm_id":253117735,"type":"town","location":[7.880684,33.8720687],"bbox":[7.8585479,33.8663053,7.8985646,33.8850038]}}
{"display_name":"وادي الليل, النجاة, معتمدية وادي اللیل‬, ولاية منوبة, تونس","address":{"town":"وادي الليل","county":"النجاة","state_district":"معتمدية وادي اللیل‬","state":"ولاية منوبة","ISO3166-2-lvl4":"TN-14","country":"تونس","country_code":"tn"},"osm_type":"way","osm_id":609722187,"type":"town","location":[10.038796901656983,36.84239825],"bbox":[10.0202625,36.8298973,10.0551749,36.8551554]}
{"name":"وادي الليل","other_names":{"name:ar":"وادي الليل","name:en":"Oued Ellil","name:fr":"Oued Ellil","name:ru":"Оуед Еллил"},"display_name":"وادي الليل, وادي اللیل‬, معتمدية وادي اللیل‬, ولاية منوبة, 2021, تونس","address":{"town":"وادي الليل","county":"وادي اللیل‬","state_district":"معتمدية وادي اللیل‬","state":"ولاية منوبة","ISO3166-2-lvl4":"TN-14","postcode":"2021","country":"تونس","country_code":"tn"},"osm_type":"node","osm_id":287619187,"type":"town","location":[10.0422381,36.8376735],"bbox":[10.0022381,36.7976735,10.0822381,36.8776735],"border":{"name":"وادي اللیل‬","other_names":{"name:ar":"وادي اللیل‬","name:fr":"Oued Ellil"},"display_name":"وادي اللیل‬, معتمدية وادي اللیل‬, ولاية منوبة, تونس","address":{"county":"وادي اللیل‬","state_district":"معتمدية وادي اللیل‬","state":"ولاية منوبة","ISO3166-2-lvl4":"TN-14","country":"تونس","country_code":"tn"},"osm_type":"relation","osm_id":7095862,"type":"administrative","location":[10.039089051307428,36.83284795],"bbox":[10.0068365,36.8229431,10.0660736,36.8428642]}}
{"name":"وذرف","other_names":{"name:ar":"وذرف","name:en":"Oudhref","name:fr":"Oudhref","name:ru":"Удреф","name:uk":"Узреф"},"display_name":"وذرف, وذرف الجنوبية, معتمدية المطوية, ولاية قابس, 6052, تونس","address":{"town":"وذرف","county":"وذرف الجنوبية","state_district":"معتمدية المطوية","state":"ولاية قابس","ISO3166-2-lvl4":"TN-81","postcode":"6052","country":"تونس","country_code":"tn"},"population":15000,"osm_type":"node","osm_id":1561079549,"type":"town","location":[9.9677051,33.9840486],"bbox":[9.9277051,33.9440486,10.0077051,34.0240486]}
