{"name":"Les Jardins de Zaghouan","display_name":"Les Jardins de Zaghouan, زغوان الجنوبية, معتمدية زغوان, ولاية زغوان, 1100, تونس","address":{"city":"Les Jardins de Zaghouan","county":"زغوان الجنوبية","state_district":"معتمدية زغوان","state":"ولاية زغوان","ISO3166-2-lvl4":"TN-22","postcode":"1100","country":"تونس","country_code":"tn"},"population":null,"osm_type":"way","osm_id":1390960491,"type":"city","location":[10.18113590046082,36.4153495],"bbox":[10.1635623,36.4064741,10.1937216,36.4275712]}
{"name":"أريانة","other_names":{"name:ar":"أريانة","name:ca":"Ariana","name:de":"Ariana","name:en":"Ariana","name:eo":"Arjana","name:et":"Ariana","name:fa":"اریانه","name:fr":"Ariana","name:lt":"Ariana","name:pl":"Arjana","name:ru":"Арьяна","name:ur":"آریانہ","name:azb":"اریانه","name:kab":"Aryana","name:pnb":"آریانہ"},"display_name":"أريانة, أريانة الجديدة, معتمدية أريانة المدينة, ولاية أريانة, 2080, تونس","address":{"city":"أريانة","county":"أريانة الجديدة","state_district":"معتمدية أريانة المدينة","state":"ولاية أريانة","ISO3166-2-lvl4":"TN-12","postcode":"2080","country":"تونس","country_code":"tn"},"population":114486,"osm_type":"node","osm_id":287554239,"type":"city","location":[10.188232,36.8587351],"bbox":[10.028232,36.6987351,10.348232,37.0187351]}
{"name":"الحمامات","other_names":{"name:ar":"الحمامات","name:de":"Al-Hammamat","name:en":"Hammamet","name:fr":"Hammamet","name:ml":"ഹമ്മാമാത്ത്","name:ru":"Хаммамет","name:kab":"Ḥemmamat"},"display_name":"الحمامات, الحمامات الشرقية, معتمدية الحمامات, ولاية نابل, 8050, تونس","address":{"city":"الحمامات","county":"الحمامات الشرقية","state_district":"معتمدية الحمامات","state":"ولاية نابل","ISO3166-2-lvl4":"TN-21","postcode":"8050","country":"تونس","country_code":"tn"},"population":97579,"osm_type":"node","osm_id":287583296,"type":"city","location":[10.6190626,36.4006557],"bbox":[10.4590626,36.2406557,10.7790626,36.5606557]}
{"name":"القصرين","other_names":{"name:ar":"القصرين","name:cs":"Kasrín","name:de":"Kasserine","name:en":"Kasserine","name:fa":"القصرین","name:fr":"Kasserine","name:ja":"カスリーヌ","name:pt":"Kasserine","name:ro":"Kasserine","name:ru":"Касерин","name:tr":"Kassarin","name:ur":"قصرین","name:zh":"卡塞林","name:azb":"القصرین","name:kab":"Gaṣrin"},"display_name":"القصرين, البساتين, معتمدية القصرين الشمالية, ولاية القصرين, 1200, تونس","address":{"city":"القصرين","county":"البساتين","state_district":"معتمدية القصرين الشمالية","state":"ولاية القصرين","ISO3166-2-lvl4":"TN-42","postcode":"1200","country":"تونس","country_code":"tn"},"population":83534,"osm_type":"node","osm_id":287547703,"type":"city","location":[8.8365654,35.1687646],"bbox":[8.6765654,35.0087646,8.9965654,35.3287646]}
{"name":"القيروان","other_names":{"name:ar":"القيروان","name:cs":"Kairuán","name:en":"Kairouan","name:eo":"Kajruano","name:es":"Kairuán","name:et":"Kairouan","name:fa":"قیروان","name:fr":"Kairouan","name:hr":"Kairuan","name:ja":"ケルアン","name:ml":"ഖൈറവാൻ","name:pl":"Kairuan","name:pt":"Cairuão","name:ru":"Кайруан","name:sk":"Kajruván","name:tr":"Kayravan","name:ur":"قیروان","name:zh":"凯鲁万","name:azb":"قیروان","name:ber":"ⵜⴰⴽⴻⵔⵡⴰⵏⵜ","name:kab":"Takerwant","name:pnb":"قیروان"},"display_name":"القيروان, القبلية الجنوبية, معتمدية القيروان الجنوبية, ولاية القيروان, 3172, تونس","address":{"city":"القيروان","county":"القبلية الجنوبية","state_district":"معتمدية القيروان الجنوبية","state":"ولاية القيروان","ISO3166-2-lvl4":"TN-41","postcode":"3172","country":"تونس","country_code":"tn"},"population":139070,"osm_type":"node","osm_id":287543904,"type":"city","location":[10.10062,35.6710101],"bbox":[9.94062,35.5110101,10.26062,35.8310101]}
{"name":"الكاف","other_names":{"name:ar":"الكاف","name:de":"Al-Kaf","name:en":"Al-Kaf","name:fa":"الکاف","name:fr":"Le Kef","name:ks":"الکاف","name:ru":"Эль-Кеф","name:ur":"الکاف","name:azb":"الکاف","name:kab":"Lkaf"},"display_name":"الكاف, الحوارث الشمالية, معتمدية الكاف الشرقية, ولاية الكاف, 7100, تونس","address":{"city":"الكاف","county":"الحوارث الشمالية","state_district":"معتمدية الكاف الشرقية","state":"ولاية الكاف","ISO3166-2-lvl4":"TN-33","postcode":"7100","country":"تونس","country_code":"tn"},"population":73710,"osm_type":"node","osm_id":287622372,"type":"city","location":[8.707347,36.1784491],"bbox":[8.547347,36.0184491,8.867347,36.3384491]}
{"name":"المدينة الجديدة","other_names":{"name:ar":"المدينة الجديدة","name:fr":"Nouvelle Medina"},"display_name":"المدينة الجديدة, معتمدية المدينة الجديدة, ولاية بن عروس, 2063, تونس","address":{"city":"المدينة الجديدة","state":"ولاية بن عروس","ISO3166-2-lvl4":"TN-13","postcode":"2063","country":"تونس","country_code":"tn"},"osm_type":"node","osm_id":2573224812,"type":"city","location":[10.2507635,36.742946],"bbox":[10.0907635,36.582946,10.4107635,36.902946],"border":{"name":"معتمدية المدينة الجديدة","other_names":{"name:ar":"معتمدية المدينة الجديدة","name:fr":"Délégation La Nouvelle Médina","alt_name:fr":"Medina Jedida","alt":"المدينة الجديدة","alt:ar":"المدينة الجديدة","alt:fr":"Nouvelle Medina"},"display_name":"معتمدية المدينة الجديدة, ولاية بن عروس, تونس","address":{"city":"معتمدية المدينة الجديدة","state":"ولاية بن عروس","ISO3166-2-lvl4":"TN-13","country":"تونس","country_code":"tn"},"osm_type":"relation","osm_id":7174546,"type":"administrative","location":[10.2507635,36.742946],"bbox":[10.227258,36.71274,10.274747,36.75551]}}
{"name":"المنستير","other_names":{"name:ar":"المنستير","name:de":"Monastir","name:el":"Μοναστίρ","name:en":"Monastir","name:es":"Monastir","name:et":"Monastir","name:fa":"المنستیر","name:fr":"Monastir","name:he":"מונסתיר","name:hu":"Monasztir","name:it":"Monastir","name:ja":"モナスティル","name:ko":"모나스티르","name:nl":"Monastir","name:no":"Monastir","name:pl":"Monastyr","name:ru":"Монастир","name:tr":"Münestîr","name:ur":"منستیر","alt_name":"منستير","name:azb":"المنستیر","name:kab":"Munastir","alt_name:ar":"منستير"},"display_name":"المنستير, المدينة, معتمدية المنستير, ولاية المنستير, 5000, تونس","address":{"city":"المنستير","county":"المدينة","state_district":"معتمدية المنستير","state":"ولاية المنستير","ISO3166-2-lvl4":"TN-52","postcode":"5000","country":"تونس","country_code":"tn"},"population":104535,"osm_type":"node","osm_id":287553320,"type":"city","location":[10.8280511,35.7707582],"bbox":[10.6680511,35.6107582,10.9880511,35.9307582]}
{"name":"المهدية","other_names":{"name:ar":"المهدية","name:ba":"Мәхдиә","name:ca":"Mahdia","name:cs":"Mahdia","name:da":"Mahdia","name:de":"Mahdia","name:el":"Αλ-Μαχντίγια","name:en":"Mahdia","name:eo":"Mahdia","name:es":"Mahdía","name:eu":"Mahdia","name:fa":"المهدیه","name:fi":"Mahdia","name:fr":"Mahdia","name:gl":"Mahdia","name:he":"מהדיה","name:id":"Mahdia","name:it":"Mahdia","name:ja":"マーディア","name:ko":"마디아","name:lt":"Mahdija","name:nb":"Mahdia","name:nl":"Mahdia","name:pl":"Al-Mahdijja","name:pt":"Mádia","name:ro":"Mahdia","name:ru":"Махдия","name:sv":"Mahdia","name:tr":"Mehdiye","name:uk":"Махдія","name:ur":"مہدیہ","name:zh":"马赫迪耶","name:zu":"Mahdia","name:azb":"المهدیه","name:ckb":"مەهدیە","name:kab":"Mahdeyya"},"display_name":"المهدية, معتمدية المهدية, ولاية المهدية, 5129, تونس","address":{"city":"المهدية","county":"المهدية","state_district":"معتمدية المهدية","state":"ولاية المهدية","ISO3166-2-lvl4":"TN-53","postcode":"5129","country":"تونس","country_code":"tn"},"population":79545,"osm_type":"node","osm_id":287621836,"type":"city","location":[11.0682429,35.503642],"bbox":[10.9082429,35.343642,11.2282429,35.663642],"border":{"name":"المهدية","other_names":{"name:ar":"المهدية","name:fr":"Mahdia"},"display_name":"المهدية, معتمدية المهدية, ولاية المهدية, 5129, تونس","address":{"county":"المهدية","state_district":"معتمدية المهدية","state":"ولاية المهدية","ISO3166-2-lvl4":"TN-53","postcode":"5129","country":"تونس","country_code":"tn"},"osm_type":"relation","osm_id":7152281,"type":"administrative","location":[11.068605471046219,35.5042816],"bbox":[11.063712,35.4987501,11.082537,35.5098037]}}
{"name":"باجة","other_names":{"name:ar":"باجة","name:en":"Béja","name:fa":"باجه","name:fr":"Béja","name:ru":"Беджа","name:ur":"باجہ","name:azb":"باجه","name:kab":"Baja"},"display_name":"باجة, معتمدية باجة الشمالية, ولاية باجة, 9000, تونس","address":{"city":"باجة","county":"باجة","state_district":"معتمدية باجة الشمالية","state":"ولاية باجة","ISO3166-2-lvl4":"TN-31","postcode":"9000","country":"تونس","country_code":"tn"},"population":57000,"osm_type":"node","osm_id":287590041,"type":"city","location":[9.185382,36.7236755],"bbox":[9.025382,36.5636755,9.345382,36.8836755],"border":{"name":"باجة","other_names":{"name:ar":"باجة","name:fr":"Béja"},"display_name":"باجة, معتمدية باجة الشمالية, ولاية باجة, تونس","address":{"county":"باجة","state_district":"معتمدية باجة الشمالية","state":"ولاية باجة","ISO3166-2-lvl4":"TN-31","country":"تونس","country_code":"tn"},"osm_type":"relation","osm_id":7189431,"type":"administrative","location":[9.182816346140175,36.725860999999995],"bbox":[9.177443,36.72118,9.187706,36.73028]}}
{"name":"بن عروس","other_names":{"name:ar":"بن عروس","name:ca":"Ben Arous","name:cy":"Ben Arous","name:de":"Bin Arus","name:el":"Μπεν Αρούς","name:en":"Ben Arous","name:es":"Ben Arous","name:fa":"بن عروس","name:fr":"Ben Arous","name:it":"Ben Arous","name:ja":"ベンナラス","name:ko":"벤아루스","name:ks":"بن عروس","name:lt":"Ben Arusas","name:nb":"Ben Arous","name:nl":"Ben Arous","name:pl":"Bin Arus","name:pt":"Ben Arous","name:ro":"Ben Arous","name:ru":"Бен-Арус","name:sv":"Ben Arous","name:tr":"Ben Arus","name:uk":"Бен-Арус","name:ur":"بن عروس","name:zh":"本阿鲁斯","name:zu":"Ben Arous","name:azb":"بن عروس","name:kab":"Ben Ɛruṣ"},"display_name":"بن عروس, بن عروس الشرقية, معتمدية بن عروس, ولاية بن عروس, 2013, تونس","address":{"city":"بن عروس","county":"بن عروس الشرقية","state_district":"معتمدية بن عروس","state":"ولاية بن عروس","ISO3166-2-lvl4":"TN-13","postcode":"2013","country":"تونس","country_code":"tn"},"population":88322,"osm_type":"node","osm_id":287550909,"type":"city","location":[10.2245072,36.7516855],"bbox":[10.0645072,36.5916855,10.3845072,36.9116855]}
{"name":"بنزرت","other_names":{"name:ar":"بنزرت","name:de":"Binzart","name:en":"Bizerte","name:es":"Bizerta","name:et":"Bizerte","name:fa":"بنزرت","name:fr":"Bizerte","name:gd":"Bisearta","name:hr":"Bizerte","name:it":"Biserta","name:ja":"ビゼルト","name:ko":"비제르테","name:ks":"بنزرت","name:nl":"Bizerte","name:pl":"Bizerta","name:ru":"Бизерта","name:sk":"Bizerta","name:uk":"Бізерта","name:ur":"بنزرت","name:zh":"比塞大","name:azb":"بنزرت","name:kab":"Benzart","name:pnb":"بنزرت","name:zgh":"ⴱⴻⵏⵣⴰⵔⵜ"},"display_name":"بنزرت, بوبكر باكير, معتمدية بنزرت الشمالية, ولاية بنزرت, 7000, تونس","address":{"city":"بنزرت","county":"بوبكر باكير","state_district":"معتمدية بنزرت الشمالية","state":"ولاية بنزرت","ISO3166-2-lvl4":"TN-23","postcode":"7000","country":"تونس","country_code":"tn"},"population":136917,"osm_type":"node","osm_id":287544816,"type":"city","location":[9.8708565,37.2720905],"bbox":[9.7108565,37.1120905,10.0308565,37.4320905]}
{"name":"تونس","other_names":{"name:af":"Tunisië","name:am":"ቱኒስ","name:an":"Túniz","name:ar":"تونس","name:az":"Tunis","name:ba":"Тунис","name:be":"Туніс","name:bg":"Тунис","name:bm":"Tunizi","name:bn":"তিউনিসিয়া","name:bo":"ཊུ་ནིསི།","name:br":"Tuniz","name:bs":"Tunis","name:ca":"Tunísia","name:ce":"Тунис","name:cs":"Tunis","name:cv":"Тунис","name:cy":"Tunisia","name:da":"Tunis","name:de":"Tunis","name:dv":"ތޫނިސް","name:ee":"Tunisia","name:el":"Τύνιδα","name:en":"Tunis","name:eo":"Tunizo","name:es":"Túnez","name:et":"Tunis","name:eu":"Tunis","name:fa":"تونس","name:fi":"Tunis","name:fo":"Tunesia","name:fr":"Tunis","name:fy":"Tuneezje","name:ga":"Túinis","name:gd":"Tuinisia","name:gl":"Tunes","name:gu":"ટ્યુનિશિયા","name:gv":"Yn Tooneesh","name:ha":"Tunis","name:he":"תוניס","name:hi":"ट्यूनिस","name:hr":"Tunis","name:ht":"Tinis","name:hu":"Tunisz","name:hy":"Թունիս","name:ia":"Tunis","name:id":"Tunisia","name:ie":"Tunisia","name:io":"Tunizia","name:is":"Túnis","name:it":"Tunisi","name:ja":"チュニス","name:jv":"Tunisia","name:ka":"ტუნისი","name:kg":"Tunisia","name:kk":"Тунис","name:kn":"ಟುನೀಶಿಯ","name:ko":"튀니스","name:ku":"Tûnis","name:kw":"Tunisi","name:ky":"Тунис шаары","name:la":"Tunes","name:lb":"Tunesien","name:li":"Tunesië","name:ln":"Tunisia","name:lt":"Tunisas","name:lv":"Tunisa","name:mg":"Tonizia","name:mk":"Тунис","name:ml":"ടൂണിസ്സ്","name:mn":"Тунис","name:mr":"ट्युनिस","name:ms":"Tunisia","name:mt":"Tuneżija","name:my":"တူနီးရှားနိုင်ငံ","name:nb":"Tunis","name:ne":"ट्युनिस","name:nl":"Tunis","name:nn":"Tunisia","name:no":"Tunisia","name:oc":"Tunisia","name:or":"ଟ୍ୟୁନିସିଆ","name:os":"Тунис","name:pa":"ਤੁਨੀਸੀਆ","name:pl":"Tunis","name:ps":"تونس","name:pt":"Tunes","name:qu":"Tunisya","name:rm":"Tunesia","name:ro":"Tunisia","name:ru":"Тунис","name:rw":"Tunisiya","name:sa":"टुनिशिया","name:sc":"Tunisia","name:sd":"تيونس شهر","name:se":"Tunisia","name:sg":"Tunizïi","name:sh":"Tunis","name:sk":"Tunis","name:sl":"Tunizija","name:sn":"Tunisia","name:so":"Tunisiya","name:sq":"Tunizia","name:sr":"Тунис","name:ss":"IThunisiya","name:su":"Tunisia","name:sv":"Tunis","name:sw":"Tunisia","name:ta":"தூனிஸ்","name:te":"ట్యునీషియా","name:tg":"Тунис","name:th":"ตูนิส","name:ti":"ቱኒዢያ","name:tk":"Tunis","name:tl":"Tunisya","name:tr":"Tunus","name:ts":"Tunisia","name:tt":"Тунис","name:tw":"Tunis","name:ug":"تۇنىس شەھىرى","name:uk":"Туніс","name:ur":"تونس","name:uz":"Tunis","name:vi":"Tunis","name:vo":"Tunis","name:wa":"Tunizeye","name:wo":"Tiniisi","name:yi":"טוניסיע","name:yo":"Tùnísíà","name:zh":"突尼斯","name:zu":"ITunisia","alt_name":"Tunis","name:ace":"Tunisia","name:als":"Tunesien","name:ang":"Tunisia","name:arc":"ܬܘܢܣ","name:arz":"تونس","name:ast":"Túnez","name:bcl":"Tunisya","name:ber":"ⵜⵓⵏⴻⵙ","name:bjn":"Tunisia","name:bpy":"তিউনিসিয়া","name:bxr":"Тунис","name:ceb":"Tunisia","name:ckb":"شاری تونس","name:crh":"Tunis","name:diq":"Tunıs","name:ext":"Túnis","name:frp":"Tunisie","name:gag":"Tunis","name:grc":"Τύνις","name:haw":"Tunisia","name:hif":"Tunisia","name:hsb":"Tuneziska","name:ilo":"Tunisia","name:kab":"Tunes tamaneɣt","name:lad":"Tunesia","name:lij":"Tunixia","name:lmo":"Tünis","name:mdf":"Тунис","name:mrj":"Тунис","name:mzn":"تونس","name:nah":"Tunez","name:nan":"Tunisia","name:nds":"Tunesien","name:new":"ट्युनिसिया","name:nov":"Tunisia","name:nso":"Tunisia","name:pam":"Tunisia","name:pap":"Tunesia","name:pms":"Tùnis","name:pnb":"ٹیونس نگر","name:pnt":"Τυνησίαν","name:sah":"Тунис","name:scn":"Tùnisi","name:sco":"Tunisie","name:stq":"Tunesien","name:syc":"ܬܘܢܣ","name:szl":"Tůnezyjo","name:udm":"Тунис","name:vec":"Túnixi","name:vro":"Tuneesiä","name:war":"Tunisia","name:wuu":"突尼斯市","name:xal":"Тунисин Орн","name:yue":"突尼西亞","alt_name:ar":"تونس العاصمة","alt_name:es":"Túnez La Capital","name:bat-smg":"Tonėsos","official_name":"Tunis","name:be-tarask":"Туніс","official_name:ar":"مدينة تونس","official_name:es":"Ciudad de Túnez","official_name:ur":"تونس شہر"},"display_name":"تونس, ولاية تونس, 2058, تونس","address":{"city":"تونس","state":"ولاية تونس","ISO3166-2-lvl4":"TN-11","postcode":"2058","country":"تونس","country_code":"tn"},"population":728453,"osm_type":"node","osm_id":27564968,"type":"city","location":[10.1857757,36.8002068],"bbox":[10.0257757,36.6402068,10.3457757,36.9602068],"border":{"name":"تونس","other_names":{"name:af":"Tunisië","name:am":"ቱኒስ","name:an":"Túniz","name:ar":"تونس","name:az":"Tunis","name:ba":"Тунис","name:be":"Туніс","name:bg":"Тунис","name:bm":"Tunizi","name:bn":"তিউনিসিয়া","name:bo":"ཊུ་ནིསི།","name:br":"Tuniz","name:bs":"Tunis","name:ca":"Tunísia","name:ce":"Тунис","name:cs":"Tunis","name:cv":"Тунис","name:cy":"Tunisia","name:da":"Tunis","name:de":"Tunis","name:dv":"ތޫނިސް","name:ee":"Tunisia","name:el":"Τύνιδα","name:en":"Tunis","name:eo":"Tunizo","name:es":"Túnez","name:et":"Tunis","name:eu":"Tunisia","name:fa":"تونس","name:fi":"Tunis","name:fo":"Tunesia","name:fr":"Tunis","name:fy":"Tuneezje","name:ga":"Túinis","name:gd":"Tuinisia","name:gl":"Tunes","name:gu":"ટ્યુનિશિયા","name:gv":"Yn Tooneesh","name:he":"תוניס","name:hi":"ट्यूनिस","name:hr":"Tunis","name:ht":"Tinis","name:hu":"Tunisz","name:hy":"Թունիս","name:id":"Tunisia","name:ie":"Tunisia","name:io":"Tunizia","name:is":"Túnis","name:it":"Tunisi","name:ja":"チュニス","name:jv":"Tunisia","name:ka":"ტუნისი","name:kg":"Tunisia","name:kk":"Тунис","name:kn":"ಟುನೀಶಿಯ","name:ko":"튀니스","name:ku":"Tûnis","name:kw":"Tunisi","name:ky":"Тунис шаары","name:la":"Tunes","name:lb":"Tunesien","name:li":"Tunesië","name:ln":"Tunisia","name:lt":"Tunisas","name:lv":"Tunisa","name:mg":"Tonizia","name:mk":"Тунис","name:ml":"ടൂണിസ്സ്","name:mn":"Тунис","name:mr":"ट्युनिस","name:ms":"Tunisia","name:mt":"Tuneżija","name:my":"တူနီးရှားနိုင်ငံ","name:nl":"Tunis","name:nn":"Tunisia","name:no":"Tunisia","name:oc":"Tunisia","name:or":"ଟ୍ୟୁନିସିଆ","name:os":"Тунис","name:pa":"ਤੁਨੀਸੀਆ","name:pl":"Tunis","name:ps":"تونس","name:pt":"Tunes","name:qu":"Tunisya","name:rm":"Tunesia","name:ro":"Tunisia","name:ru":"Тунис","name:rw":"Tunisiya","name:sa":"टुनिशिया","name:sc":"Tunisia","name:se":"Tunisia","name:sg":"Tunizïi","name:sh":"Tunis","name:sk":"Tunis","name:sl":"Tunizija","name:sn":"Tunisia","name:so":"Tunisiya","name:sq":"Tunizia","name:sr":"Тунис","name:ss":"IThunisiya","name:su":"Tunisia","name:sv":"Tunis","name:sw":"Tunisia","name:ta":"தூனிஸ்","name:te":"ట్యునీషియా","name:tg":"Тунис","name:th":"ตูนิส","name:ti":"ቱኒዢያ","name:tk":"Tunis","name:tl":"Tunisya","name:tr":"Tunus","name:ts":"Tunisia","name:tt":"Тунис","name:ug":"تۇنىس شەھىرى","name:uk":"Туніс","name:ur":"تونس شہر","name:uz":"Tunis","name:vi":"Tunis","name:vo":"Tunis","name:wa":"Tunizeye","name:wo":"Tiniisi","name:yi":"טוניסיע","name:yo":"Tùnísíà","name:zh":"突尼斯","name:zu":"ITunisia","alt_name":"تونس العاصمة","name:ace":"Tunisia","name:als":"Tunesien","name:ang":"Tunisia","name:arc":"ܬܘܢܣ","name:arz":"تونس","name:ast":"Túnez","name:bcl":"Tunisya","name:ber":"ⵜⵓⵏⴻⵙ","name:bjn":"Tunisia","name:bpy":"তিউনিসিয়া","name:bxr":"Тунис","name:ceb":"Tunisia","name:ckb":"شاری تونس","name:crh":"Tunis","name:diq":"Tunıs","name:ext":"Túnis","name:frp":"Tunisie","name:gag":"Tunis","name:grc":"Τύνις","name:haw":"Tunisia","name:hif":"Tunisia","name:hsb":"Tuneziska","name:ilo":"Tunisia","name:kab":"Tunes tamaneɣt","name:lad":"Tunesia","name:lij":"Tunixia","name:lmo":"Tünis","name:mdf":"Тунис","name:mrj":"Тунис","name:mzn":"تونس","name:nah":"Tunez","name:nan":"Tunisia","name:nds":"Tunesien","name:new":"ट्युनिसिया","name:nov":"Tunisia","name:nso":"Tunisia","name:pam":"Tunisia","name:pap":"Tunesia","name:pms":"Tùnis","name:pnb":"ٹیونس نگر","name:pnt":"Τυνησίαν","name:sah":"Тунис","name:scn":"Tùnisi","name:sco":"Tunisie","name:stq":"Tunesien","name:syc":"ܬܘܢܣ","name:szl":"Tůnezyjo","name:udm":"Тунис","name:vec":"Túnixi","name:vro":"Tuneesiä","name:war":"Tunisia","name:wuu":"突尼斯市","name:xal":"Тунисин Орн","name:yue":"突尼西亞","alt_name:ar":"تونس العاصمة","alt_name:es":"Túnez La Capital","name:bat-smg":"Tonėsos","official_name":"مدينة تونس","name:ha":"Tunis","name:ia":"Tunis","name:nb":"Tunis","name:ne":"ट्युनिस","name:sd":"تيونس شهر","name:tw":"Tunis","name:be-tarask":"Туніс","_place_alt_name":"Tunis","official_name:ar":"مدينة تونس","official_name:es":"Ciudad de Túnez","_place_official_name":"Tunis","official_name:ur":"تونس شہر","alt:eu":"Tunis","alt:ur":"تونس"},"display_name":"تونس, ولاية تونس, تونس","address":{"city":"تونس","state":"ولاية تونس","ISO3166-2-lvl4":"TN-11","country":"تونس","country_code":"tn"},"population":728453,"osm_type":"relation","osm_id":8896976,"type":"city","location":[10.1857757,36.8002068],"bbox":[10.0037899,36.6925111,10.3548094,36.9430196]}}
{"name":"سليانة","other_names":{"name:ar":"سليانة","name:en":"Siliana","name:fr":"Siliana","name:ru":"Сильяна","alt_name":"Seliana","name:kab":"Silyana"},"display_name":"سليانة, سليانة الشمالية, معتمدية سليانة الشمالية, ولاية سليانة, 6100, تونس","address":{"city":"سليانة","county":"سليانة الشمالية","state_district":"معتمدية سليانة الشمالية","state":"ولاية سليانة","ISO3166-2-lvl4":"TN-34","postcode":"6100","country":"تونس","country_code":"tn"},"population":24243,"osm_type":"node","osm_id":2930586474,"type":"city","location":[9.3743733,36.0846651],"bbox":[9.2143733,35.9246651,9.5343733,36.2446651]}
{"name":"سوسة","other_names":{"name:ar":"سوسة","name:ca":"Sussa","name:cs":"Súsa","name:de":"Sousse","name:en":"Sousse","name:eo":"Sousse","name:es":"Susa","name:et":"Sousse","name:fa":"سوسه","name:fr":"Sousse","name:he":"סוסה","name:hr":"Sousse","name:hu":"Szúsza","name:it":"Susa","name:ja":"スース","name:ko":"수스","name:ks":"سوسہ","name:lt":"Susas","name:ml":"സൂസ","name:nl":"Sousse","name:pl":"Susa","name:pt":"Sousse","name:ro":"Sousse","name:ru":"Сус","name:tr":"Sûse","name:uk":"Сус","name:ur":"سوسہ","name:zh":"苏塞","name:azb":"سوسه","name:ber":"ⵙⵓⵙⴰ","name:ckb":"سوسە","name:kab":"Susa","name:ota":"سوسه"},"display_name":"سوسة, معتمدية سوسة المدينة, ولاية سوسة, تونس","address":{"city":"سوسة","state_district":"معتمدية سوسة المدينة","state":"ولاية سوسة","ISO3166-2-lvl4":"TN-51","country":"تونس","country_code":"tn"},"population":221530,"osm_type":"node","osm_id":287543373,"type":"city","location":[10.6405254,35.8288284],"bbox":[10.4805254,35.6688284,10.8005254,35.9888284],"border":{"name":"سوسة","other_names":{"name:ar":"سوسة","name:ca":"Sussa","name:cs":"Súsa","name:de":"Sousse","name:en":"Sousse","name:eo":"Sousse","name:es":"Susa","name:et":"Sousse","name:fa":"سوسه","name:fr":"Sousse","name:he":"סוסה","name:hr":"Sousse","name:hu":"Szúsza","name:it":"Susa","name:ja":"スース","name:ko":"수스","name:ks":"سوسہ","name:lt":"Susas","name:nl":"Sousse","name:pl":"Susa","name:pt":"Sousse","name:ro":"Sousse","name:ru":"Сус","name:uk":"Сус","name:ur":"سوسہ","name:zh":"苏塞","name:azb":"سوسه","name:ber":"ⵙⵓⵙⴰ","name:ckb":"سوسە","name:kab":"Susa","name:ota":"سوسه","name:ml":"സൂസ","name:tr":"Sûse"},"display_name":"سوسة, معتمدية سوسة المدينة, ولاية سوسة, تونس","address":{"city":"سوسة","state_district":"معتمدية سوسة المدينة","state":"ولاية سوسة","ISO3166-2-lvl4":"TN-51","country":"تونس","country_code":"tn"},"population":221530,"osm_type":"relation","osm_id":8896987,"type":"city","location":[10.6405254,35.8288284],"bbox":[10.5752808,35.7930981,10.649393,35.8726205]}}
{"name":"سيدي بوزيد","other_names":{"name:ar":"سيدي بوزيد","name:de":"Sayyidi Buzaid","name:en":"Sidi Bouzid","name:es":"Sidi Buzid","name:fa":"سیدی بوزید","name:fr":"Sidi Bouzid","name:it":"Sidi Bouzid","name:ks":"سیدی بوزید","name:ru":"Сиди-Бу-Зид","name:ur":"سیدی بوزید","name:zh":"西迪布濟德","name:azb":"سیدی بوزید","name:kab":"Sidi Buzid","official_name":"بلدية سيدي بوزيد","official_name:ar":"بلدية سيدي بوزيد","official_name:es":"Municipio de Sidi Buzid"},"display_name":"سيدي بوزيد, النور, معتمدية سيدي بوزيد الغربية, ولاية سيدي بوزيد, 9100, تونس","address":{"city":"سيدي بوزيد","county":"النور","state_district":"معتمدية سيدي بوزيد الغربية","state":"ولاية سيدي بوزيد","ISO3166-2-lvl4":"TN-43","postcode":"9100","country":"تونس","country_code":"tn"},"population":122676,"osm_type":"node","osm_id":561134924,"type":"city","location":[9.4865301,35.0382386],"bbox":[9.3265301,34.8782386,9.6465301,35.1982386],"border":{"name":"سيدي بوزيد الغربية","other_names":{"name:ar":"سيدي بوزيد الغربية","name:es":"Sidi Buzid Oeste","name:fr":"Sidi Bouzid Ouest","alt_name":"سيدي بوزيد","alt_name:ar":"سيدي بوزيد"},"display_name":"سيدي بوزيد الغربية, معتمدية سيدي بوزيد الغربية, ولاية سيدي بوزيد, تونس","address":{"county":"سيدي بوزيد الغربية","state_district":"معتمدية سيدي بوزيد الغربية","state":"ولاية سيدي بوزيد","ISO3166-2-lvl4":"TN-43","country":"تونس","country_code":"tn"},"osm_type":"relation","osm_id":7169624,"type":"administrative","location":[9.492681107258065,35.0346541],"bbox":[9.4860324,35.0277894,9.507687,35.04167]}}
{"name":"صفاقس","other_names":{"name:an":"Sfax","name:ar":"صفاقس","name:ba":"Сфакс","name:be":"Сфакс","name:bg":"Сфакс","name:br":"Sfax","name:ca":"Sfax","name:cs":"Sfax","name:cy":"Sfax","name:da":"Sfax","name:de":"Sfax","name:el":"Σφαξ","name:en":"Sfax","name:eo":"Sfakso","name:es":"Sfax","name:et":"Sfax","name:eu":"Sfax","name:fi":"Sfax","name:fr":"Sfax","name:ga":"Sfax","name:gl":"Sfax","name:he":"ספקס","name:hu":"Szfaksz","name:hy":"Սֆաքս","name:id":"Sfax","name:ie":"Sfax","name:io":"Sfax","name:it":"Sfax","name:ja":"スファックス","name:ka":"სფაქსი","name:ko":"스팍스","name:la":"Thaenae","name:lt":"Sfaksas","name:lv":"Sfāksa","name:ml":"സ്ഫാക്സ്","name:ms":"Sfax","name:nb":"Sfax","name:nl":"Sfax","name:os":"Сфакс","name:pl":"Safakis","name:pt":"Sfax","name:ro":"Sfax","name:ru":"Сфакс","name:sk":"Sfax","name:sl":"Sfax","name:sr":"Сфакс","name:sv":"Sfax","name:sw":"Sfax","name:th":"สฟักซ์","name:tn":"Sfax","name:tr":"Safakes","name:uk":"Сфакс","name:uz":"Sfaks","name:vi":"Sfax","name:zh":"斯法克斯","name:zu":"Sfax","int_name":"Sfax","name:ber":"ⵚⴼⴰⵇⴻⵙ","name:kab":"Ṣfaqes","alt_name_2":"Taparura","alt_name:eo":"Sfax"},"display_name":"صفاقس, المدينة, معتمدية صفاقس المدينة, ولاية صفاقس, 3000, تونس","address":{"city":"صفاقس","county":"المدينة","state_district":"معتمدية صفاقس المدينة","state":"ولاية صفاقس","ISO3166-2-lvl4":"TN-61","postcode":"3000","country":"تونس","country_code":"tn"},"population":955421,"osm_type":"node","osm_id":287001619,"type":"city","location":[10.7604024,34.7394361],"bbox":[10.6004024,34.5794361,10.9204024,34.8994361]}
{"name":"قابس","other_names":{"name:ar":"قابس","name:cs":"Gábes","name:de":"Gabes","name:en":"Gabes","name:es":"Gabes","name:et":"Gabès","name:fa":"قابس","name:fr":"Gabès","name:it":"Gabès","name:ja":"ガベス","name:ks":"قابس","name:la":"Tacape","name:pt":"Gabès","name:ro":"Gabès","name:ru":"Габес","name:ur":"قابس","name:zh":"加貝斯","name:azb":"قابس","name:kab":"Gabes","name:ota":"قابس"},"display_name":"قابس, المنطقة الرابعة, معتمدية قابس المدينة, ولاية قابس, 6001, تونس","address":{"city":"قابس","county":"المنطقة الرابعة","state_district":"معتمدية قابس المدينة","state":"ولاية قابس","ISO3166-2-lvl4":"TN-81","postcode":"6001","country":"تونس","country_code":"tn"},"population":130984,"osm_type":"node","osm_id":287544603,"type":"city","location":[10.10044,33.8878082],"bbox":[9.94044,33.7278082,10.26044,34.0478082]}
{"name":"قرطاج","other_names":{"name:ar":"قرطاج","name:be":"Карфаген","name:de":"Karthago","name:el":"Καρχηδόνα","name:en":"Carthage","name:es":"Cartago","name:fr":"Carthage","name:hy":"Կարթագեն","name:it":"Cartagine","name:la":"Carthago","name:ml":"കാർത്തേജ്","name:ru":"Карфаген","name:tr":"Kartaca","name:uk":"Карфаген","name:ur":"قرطاجنہ","name:arc":"ܩܪܬܐܓܘ","name:azb":"کارتاژ","name:grc":"Καρχηδών","name:hyw":"Կարթագէն","name:kab":"Qarṭaj","name:skr":"قرطاجنہ","name:syc":"ܩܪܬܐܓܘ","name:be-tarask":"Картаген"},"display_name":"قرطاج, تونس, ولاية تونس, 2016, تونس","address":{"city":"قرطاج","state":"ولاية تونس","ISO3166-2-lvl4":"TN-11","postcode":"2016","country":"تونس","country_code":"tn"},"population":21276,"osm_type":"node","osm_id":1136727225,"type":"city","location":[10.3309924,36.8548083],"bbox":[10.1709924,36.6948083,10.4909924,37.0148083]}
{"name":"قفصة","other_names":{"name:ar":"قفصة","name:en":"Gafsa","name:fr":"Gafsa","name:ru":"Гафса","name:tr":"Kafsa","int_name":"Qafsa","alt_name:tr":"Gafsa"},"display_name":"قفصة, وادي أيلو, معتمدية قفصة الجنوبية, ولاية قفصة, 2100, تونس","address":{"city":"قفصة","county":"وادي أيلو","state_district":"معتمدية قفصة الجنوبية","state":"ولاية قفصة","ISO3166-2-lvl4":"TN-71","postcode":"2100","country":"تونس","country_code":"tn"},"population":111170,"osm_type":"node","osm_id":287545859,"type":"city","location":[8.7843862,34.4224374],"bbox":[8.6243862,34.2624374,8.9443862,34.5824374]}
{"name":"قليبية","other_names":{"name:ar":"قليبية","name:en":"Kelibia","name:fr":"Kélibia","name:ru":"Келибия","name:kab":"Qlibya"},"display_name":"قليبية, قليبية الغربية, معتمدية قليبية, ولاية نابل, 8090, تونس","address":{"city":"قليبية","county":"قليبية الغربية","state_district":"معتمدية قليبية","state":"ولاية نابل","ISO3166-2-lvl4":"TN-21","postcode":"8090","country":"تونس","country_code":"tn"},"population":58491,"osm_type":"node","osm_id":287625642,"type":"city","location":[11.0935701,36.8456561],"bbox":[10.9335701,36.6856561,11.2535701,37.0056561]}
{"name":"نابل","other_names":{"name:ar":"نابل","name:be":"Набуль","name:ca":"Nabeul","name:cy":"Nabeul","name:da":"Nabeul","name:de":"Nabeul","name:el":"Ναμπέλ","name:en":"Nabeul","name:es":"Nabeul","name:fa":"نابل","name:fr":"Nabeul","name:he":"נאבל","name:hu":"Nabeul","name:it":"Nabeul","name:ja":"ナブール","name:ko":"나뵐","name:ks":"نابل","name:la":"Neapolis","name:lt":"Nabulas","name:nb":"Nabeul","name:nl":"Nabeul","name:pl":"Nabul","name:pt":"Nabeul","name:ro":"Nabeul","name:ru":"Набуль","name:sv":"Nabeul","name:tr":"Nabil","name:uk":"Набуль","name:ur":"نابل","name:zh":"纳布勒","name:zu":"Nabeul","name:azb":"نابل","name:ckb":"نابل","name:kab":"Nabel"},"display_name":"نابل, الحدائق, معتمدية نابل, ولاية نابل, 8000, تونس","address":{"city":"نابل","county":"الحدائق","state_district":"معتمدية نابل","state":"ولاية نابل","ISO3166-2-lvl4":"TN-21","postcode":"8000","country":"تونس","country_code":"tn"},"population":73128,"osm_type":"node","osm_id":287534172,"type":"city","location":[10.7355915,36.4512897],"bbox":[10.5755915,36.2912897,10.8955915,36.6112897],"border":{"name":"نيابوليس","other_names":{"name:ar":"نيابوليس","name:fr":"Neapolis"},"display_name":"نيابوليس, معتمدية نابل, ولاية نابل, تونس","address":{"county":"نيابوليس","state_district":"معتمدية نابل","state":"ولاية نابل","ISO3166-2-lvl4":"TN-21","country":"تونس","country_code":"tn"},"osm_type":"relation","osm_id":7103330,"type":"administrative","location":[10.699086223696906,36.4398168],"bbox":[10.6741156,36.4261298,10.7368947,36.4535308]}}
