{"name":"Paramaribo","other_names":{"name:am":"ፓራማሪቦ","name:ar":"باراماريبو","name:be":"Парамарыба","name:bg":"Парамарибо","name:bo":"པེ་ར་མེ་རི་བོ།","name:br":"Paramaribo","name:ca":"Paramaribo","name:cv":"Парамарибо","name:de":"Paramaribo","name:el":"Παραμαρίμπο","name:en":"Paramaribo","name:es":"Paramaribo","name:fa":"پاراماریبو","name:fr":"Paramaribo","name:gu":"પારામારિબો","name:he":"פרמריבו","name:hi":"पारामरीबो","name:hu":"Paramaribo","name:hy":"Պարամարիբո","name:is":"Paramaríbó","name:ja":"パラマリボ","name:ka":"პარამარიბო","name:kn":"ಪಾರಮಾರಿಬೋ","name:ko":"파라마리보","name:ku":"Paramarîbo","name:lt":"Paramaribas","name:mk":"Парамарибо","name:mr":"पारामारिबो","name:nl":"Paramaribo","name:no":"Paramaribo","name:oc":"Paramaribo","name:os":"Парамарибо","name:pl":"Paramaribo","name:ru":"Парамарибо","name:sr":"Парамарибо","name:sv":"Paramaribo","name:ta":"பரமரிபொ","name:uk":"Парамарибо","name:ur":"پاراماریبو","name:ace":"Paramaribô","name:ckb":"پاراماریبۆ","name:yue":"巴拉馬利波","name:zh-Hans":"帕拉马里博","name:zh-Hant":"帕拉馬里博","name:be-tarask":"Парамарыба"},"display_name":"Paramaribo, Centrum, Paramaribo, Suriname","address":{"city":"Paramaribo","county":"Centrum","state":"Paramaribo","ISO3166-2-lvl4":"SR-PM","country":"Suriname","country_code":"sr"},"population":242946,"osm_type":"node","osm_id":281537750,"type":"city","location":[-55.1703941,5.8247628],"bbox":[-55.3303941,5.6647628,-55.0103941,5.9847628],"border":{"name":"Centrum","other_names":{"name:es":"Centro","name:nl":"Centrum","alt_name":"Paramaribo"},"display_name":"Centrum, Paramaribo, Suriname","address":{"county":"Centrum","state":"Paramaribo","ISO3166-2-lvl4":"SR-PM","country":"Suriname","country_code":"sr"},"osm_type":"relation","osm_id":13026345,"type":"administrative","location":[-55.16628130970069,5.8241764499999995],"bbox":[-55.1883752,5.8091976,-55.144505,5.8400053]}}
