{"name":"Lénakel","other_names":{"name:lt":"Lenakelis","alt_name":"Lenakel"},"display_name":"Lénakel, Tafea, Vanuatu","address":{"city":"Lénakel","state":"Tafea","ISO3166-2-lvl4":"VU-TAE","country":"Vanuatu","country_code":"vu"},"osm_type":"node","osm_id":2257957310,"type":"city","location":[169.2677639,-19.5315762],"bbox":[169.1077639,-19.6915762,169.4277639,-19.3715762]}
{"name":"Luganville","other_names":{"name:de":"Luganville","name:fr":"Luganville","name:lt":"Luganvilis","name:ru":"Люганвиль"},"display_name":"Luganville, Sanma, Vanuatu","address":{"city":"Luganville","state":"Sanma","ISO3166-2-lvl4":"VU-SAM","country":"Vanuatu","country_code":"vu"},"population":13156,"osm_type":"node","osm_id":2087030825,"type":"city","location":[167.1784414,-15.5121107],"bbox":[167.0184414,-15.6721107,167.3384414,-15.3521107]}
{"name":"Port Vila","other_names":{"name:af":"Port Vila","name:am":"ፖርት ቪላ","name:an":"Port Vila","name:ar":"بورت فيلا","name:az":"Port Vila","name:be":"Порт-Віла","name:bg":"Порт Вила","name:bi":"Port Vila","name:bn":"পোর্ট ভিলা","name:bo":"ཝེ་ལ་གྲུ་ཁ།","name:br":"Port Vila","name:bs":"Port Vila","name:ca":"Port Vila","name:cs":"Port Vila","name:cy":"Port Vila","name:da":"Port Vila","name:de":"Port Vila","name:el":"Πορτ Βίλα","name:en":"Port Vila","name:eo":"Portvilao","name:es":"Port Vila","name:et":"Port Vila","name:eu":"Port Vila","name:fa":"پورت ویلا","name:fi":"Port Vila","name:fj":"Port Vila","name:fr":"Port-Vila","name:fy":"Port Fila","name:gd":"Port Vila","name:gl":"Port Vila","name:he":"פורט וילה","name:hi":"पोर्ट विला","name:hr":"Port Vila","name:ht":"Pò Vila","name:hu":"Port Vila","name:hy":"Պորտ Վիլա","name:id":"Port Vila","name:ie":"Port Vila","name:io":"Port Vila","name:is":"Port Vila","name:it":"Port Vila","name:ja":"ポートビラ","name:ka":"პორტ-ვილა","name:ko":"포트빌라","name:ky":"Порт-Вила","name:la":"Portus Vila","name:lb":"Port Vila","name:lt":"Port Vila","name:lv":"Vila","name:mg":"Port Vila","name:mk":"Порт Вила","name:ml":"പോർട്ട് വില","name:mr":"पोर्ट व्हिला","name:ms":"Port Vila","name:na":"Port Vila","name:nl":"Port Vila","name:no":"Port Vila","name:ny":"Port Vila","name:oc":"Port Vila","name:os":"Порт-Вилæ","name:pa":"ਪੋਰਟ ਵਿਲਾ","name:pl":"Port Vila","name:ps":"پورت ویلا","name:pt":"Porto Vila","name:ro":"Port Vila","name:ru":"Порт-Вила","name:sc":"Port Vila","name:sh":"Port Vila","name:sk":"Port Vila","name:sl":"Port Vila","name:sn":"Port Vila","name:sq":"Port Vila","name:sr":"Порт Вила","name:sv":"Port Vila","name:sw":"Port Vila","name:ta":"போர்ட் விலா","name:tg":"Порт-Вила","name:th":"พอร์ตวิลา","name:tr":"Port Vila","name:ty":"Port-Vila","name:uk":"Порт-Віла","name:ur":"پورٹ ولا","name:uz":"Port-vila","name:vi":"Port Vila","name:vo":"Port Vila","name:zh":"維拉港","name:ace":"Port Vila","name:arz":"بورت فيلا","name:ast":"Puertu Villa","name:hak":"Port Vila","name:hif":"Port Vila","name:lij":"Porto Vila","name:lmo":"Port Vila","name:mrj":"Порт-Вила","name:pms":"Port Vila","name:sah":"Порт Вила","name:szl":"Port Vila","name:tpi":"Pot Vila","name:vep":"Port Vil","name:war":"Port Vila","name:xmf":"პორტ-ვილა","name:zea":"Port Vila","old_name":"Franceville","name:be-tarask":"Порт Віла"},"display_name":"Port Vila, Shefa, Vanuatu","address":{"city":"Port Vila","state":"Shefa","ISO3166-2-lvl4":"VU-SEE","country":"Vanuatu","country_code":"vu"},"population":44039,"osm_type":"node","osm_id":115622916,"type":"city","location":[168.3150163,-17.7414972],"bbox":[168.1550163,-17.9014972,168.4750163,-17.5814972]}
