{"name":"أم صلال علي","other_names":{"name:ar":"أم صلال علي","name:en":"Umm Salal Ali"},"display_name":"أم صلال علي, أم صلال, قطر","address":{"town":"أم صلال علي","state":"أم صلال","ISO3166-2-lvl4":"QA-US","country":"قطر","country_code":"qa"},"osm_type":"node","osm_id":12409403565,"type":"town","location":[51.3976347,25.4698144],"bbox":[51.3576347,25.4298144,51.4376347,25.5098144]}
{"name":"أم صلال محمد","other_names":{"name:ar":"أم صلال محمد","name:en":"Umm Salal Muhammad","name:fr":"Umm Salal Muhammad","name:ml":"ഉമ്മുസലാൽ മുഹമ്മദ്","short_name:ar":"أم صلال"},"display_name":"أم صلال محمد, أم صلال, قطر","address":{"town":"أم صلال محمد","state":"أم صلال","ISO3166-2-lvl4":"QA-US","country":"قطر","country_code":"qa"},"osm_type":"node","osm_id":2189240942,"type":"town","location":[51.4068455,25.4136174],"bbox":[51.3668455,25.3736174,51.4468455,25.4536174]}
{"name":"الجميلية","other_names":{"name:ar":"الجميلية","name:en":"Al Jumaliyah","alt:en":"Al Jemailiya"},"display_name":"الجميلية, الشحانية, قطر","address":{"village":"الجميلية","state":"الشحانية","ISO3166-2-lvl4":"QA-SH","country":"قطر","country_code":"qa"},"osm_type":"way","osm_id":228263444,"type":"town","location":[51.0812308,25.6200859],"bbox":[51.0776364,25.6163454,51.0912166,25.6354791]}
{"name":"الخور","other_names":{"name:ar":"الخور","name:de":"Al Khor","name:en":"Al Khor","name:es":"Al Khor","name:fr":"Al Khor","name:lt":"Choras","name:ml":"അൽ-ഖോർ","name:pl":"Al-Chaur"},"display_name":"الخور, الخور والذخيرة, قطر","address":{"town":"الخور","ISO3166-2-lvl4":"QA-KH","country":"قطر","country_code":"qa"},"population":31,"osm_type":"node","osm_id":1227115978,"type":"town","location":[51.5031212,25.6837333],"bbox":[51.4631212,25.6437333,51.5431212,25.7237333],"border":{"name":"الخور والذخيرة","other_names":{"name:ar":"الخور والذخيرة","name:de":"Al-Chaur und Adh-Dhachira","name:en":"Al Khor and Al Thakhira","name:es":"Municipio de Jor","name:fa":"الخور","name:fi":"Al-Khawr","name:fr":"Al Khawr","name:gn":"Al Khor","name:id":"Al Khawr","name:it":"Al Khawr","name:ja":"アル＝ハウル","name:ko":"알코르","name:lt":"Chauras","name:mk":"Хор","name:nl":"Al Khawr","name:nn":"Al Khor","name:pl":"Al-Chaur","name:pt":"Al Khor","name:ro":"Al Khor","name:ru":"Эль-Хаур","name:tl":"Al Khor","name:uk":"Ель-Хаур","name:ur":"الخور و الدخیرہ","name:vi":"Al Khor","name:ast":"Conceyu d'Al Khor","name:ceb":"Baladīyat al Khawr wa adh Dhakhīrah","name:lmo":"Al Khawr","name:xmf":"ელ-ხორიშ მუნიციპალიტეტი","ISO3166-2":"QA-KH","name:ml":"അൽ-ഖോർ","alt":"الخور","alt:ar":"الخور","alt:de":"Al Khor","alt:en":"Al Khor","alt:es":"Al Khor","alt:fr":"Al Khor","alt:lt":"Choras"},"display_name":"الخور والذخيرة, قطر","address":{"town":"الخور والذخيرة","ISO3166-2-lvl4":"QA-KH","country":"قطر","country_code":"qa"},"population":31,"osm_type":"relation","osm_id":27329,"type":"administrative","location":[51.5031212,25.6837333],"bbox":[50.9554629,25.5583149,51.660742,25.9682057]}}
{"name":"الذخيرة","other_names":{"name:ar":"الذخيرة","name:de":"Al Dhakira","name:en":"Al Dhakira","name:es":"Al Dhakira","name:fr":"Al Dhakira","name:ml":"അൽ-ധക്കീറ"},"display_name":"الذخيرة, الخور والذخيرة, قطر","address":{"town":"الذخيرة","ISO3166-2-lvl4":"QA-KH","country":"قطر","country_code":"qa"},"osm_type":"node","osm_id":1733928061,"type":"town","location":[51.5433356,25.7347406],"bbox":[51.5033356,25.6947406,51.5833356,25.7747406]}
{"name":"الرويس","other_names":{"name:ar":"الرويس","name:en":"Al Ruwais","name:fr":"Al Rouwaïs","name:ml":"അൽ-റുവൈസ്"},"display_name":"الرويس, الشمال, قطر","address":{"town":"الرويس","state":"الشمال","ISO3166-2-lvl4":"QA-MS","country":"قطر","country_code":"qa"},"osm_type":"node","osm_id":1474146066,"type":"town","location":[51.2046522,26.1295039],"bbox":[51.1646522,26.0895039,51.2446522,26.1695039]}
{"name":"الشحانية","other_names":{"name:ar":"الشحانية","name:en":"Al-Shahaniya","name:es":"Al-Shahaniya","name:fr":"Al Shahaniya","name:ml":"അൽ-ഷഹാനിയ"},"display_name":"الشحانية, قطر","address":{"town":"الشحانية","state":"الشحانية","ISO3166-2-lvl4":"QA-SH","country":"قطر","country_code":"qa"},"osm_type":"node","osm_id":1474049663,"type":"town","location":[51.227109,25.3717421],"bbox":[51.187109,25.3317421,51.267109,25.4117421]}
{"name":"الوكرة","other_names":{"name:ar":"الوكرة","name:de":"Al Wakra","name:en":"Al Wakrah","name:es":"Al Wakrah","name:fr":"Al Wakrah","name:ml":"അൽ-വക്ര","name:ru":"Аль-Вакра","name:uk":"Аль-Вакра","alt_name":"Al Wakra","int_name":"Al Wakra"},"display_name":"الوكرة, قطر","address":{"town":"الوكرة","ISO3166-2-lvl4":"QA-WA","country":"قطر","country_code":"qa"},"population":87970,"osm_type":"node","osm_id":1363470272,"type":"town","location":[51.6013212,25.1566623],"bbox":[51.5613212,25.1166623,51.6413212,25.1966623],"border":{"name":"الوكرة","other_names":{"name:ar":"الوكرة","name:bg":"Уакра","name:ca":"Al Wakrah","name:de":"Al-Wakra","name:el":"Αλ Ουάκρα","name:en":"Al Wakrah","name:eo":"Al Wakrah","name:es":"Al Wakrah","name:fa":"الوکره","name:fi":"Al-Wakra","name:fr":"Al Wakrah","name:ga":"Al Wakrah","name:he":"אל-וכרה","name:hu":"Al-Vakra","name:id":"Al-Wakrah","name:it":"Al Wakrah","name:ja":"アル＝ワクラ","name:ko":"알와크라","name:lt":"Vakra","name:mk":"Вакра","name:ms":"Al Wakrah","name:nl":"Al Wakrah","name:nn":"Al Wakrah","name:pl":"Al-Wakra","name:pt":"Al-Wakrah","name:ru":"Эль-Вакра","name:sv":"Al Wakrah","name:tl":"Al Wakrah","name:tr":"Vekre","name:uk":"Ель-Вакра","name:ur":"الوکرہ","name:vi":"Al Wakrah","name:zh":"沃克拉","name:azb":"الوکره","name:ceb":"Al Wakrah","name:mzn":"الوکره","name:pnb":"الوکرہ","name:xmf":"ელ-ვაკრა","ISO3166-2":"QA-WA","name:ml":"അൽ-വക്ര","alt_name":"Al Wakra","int_name":"Al Wakra","alt:de":"Al Wakra","alt:ru":"Аль-Вакра","alt:uk":"Аль-Вакра"},"display_name":"الوكرة, قطر","address":{"town":"الوكرة","ISO3166-2-lvl4":"QA-WA","country":"قطر","country_code":"qa"},"population":87970,"osm_type":"relation","osm_id":27337,"type":"administrative","location":[51.6013212,25.1566623],"bbox":[51.0873499,24.4748195,52.2364879,25.2198203]}}
{"name":"الوكير","other_names":{"name:ar":"الوكير","name:en":"Al Wukair"},"display_name":"الوكير, الوكرة, قطر","address":{"town":"الوكير","ISO3166-2-lvl4":"QA-WA","country":"قطر","country_code":"qa"},"osm_type":"node","osm_id":12795802220,"type":"town","location":[51.5476895,25.1559864],"bbox":[51.5076895,25.1159864,51.5876895,25.1959864]}
{"name":"دخان","other_names":{"name:ar":"دخان","name:de":"Dukhan","name:en":"Dukhan","name:es":"Dukhan","name:fr":"Dukhan","name:ml":"ദുക്കാൻ","int_name":"Dukhan"},"display_name":"دخان, الشحانية, قطر","address":{"town":"دخان","state":"الشحانية","ISO3166-2-lvl4":"QA-SH","country":"قطر","country_code":"qa"},"population":7250,"osm_type":"node","osm_id":3930895157,"type":"town","location":[50.7876198,25.4188602],"bbox":[50.7476198,25.3788602,50.8276198,25.4588602]}
{"name":"رأس لفان","other_names":{"name:ar":"رأس لفان","name:de":"Ras Laffan","name:en":"Ras Laffan","name:es":"Ras Laffan","name:fr":"Ras Laffan","name:ml":"റാസ് ലഫാൻ","name:tr":"Ras Laffan"},"display_name":"رأس لفان, قطر","address":{"town":"رأس لفان","country":"قطر","country_code":"qa"},"osm_type":"node","osm_id":1664865661,"type":"town","location":[51.5331527,25.8976567],"bbox":[51.4931527,25.8576567,51.5731527,25.9376567]}
{"name":"سميسمة","other_names":{"name:ar":"سميسمة","name:en":"Simaisma","name:ml":"സിമൈസ്മ","int_name":"Simaisma"},"display_name":"سميسمة, الضعاين, قطر","address":{"town":"سميسمة","state":"الضعاين","ISO3166-2-lvl4":"QA-ZA","country":"قطر","country_code":"qa"},"osm_type":"node","osm_id":1736130075,"type":"town","location":[51.4838309,25.5772027],"bbox":[51.4438309,25.5372027,51.5238309,25.6172027]}
{"name":"مسيعيد","other_names":{"name:ar":"مسيعيد","name:de":"Mesaieed","name:en":"Mesaieed","name:es":"Mesaieed","name:fr":"Oumm Sa´îd","name:ml":"മെസയ്യീദ്","name:ru":"Месаид","name:uk":"Месаїід"},"display_name":"مسيعيد, الوكرة, قطر","address":{"town":"مسيعيد","ISO3166-2-lvl4":"QA-WA","country":"قطر","country_code":"qa"},"osm_type":"node","osm_id":1363444750,"type":"town","location":[51.5493583,24.9953944],"bbox":[51.5093583,24.9553944,51.5893583,25.0353944]}
