{"name":"الدوحة","other_names":{"name:af":"Doha","name:am":"ዶሃ","name:an":"Doha","name:ar":"الدوحة","name:az":"Doha","name:ba":"Доһа","name:be":"Доха","name:bg":"Доха","name:bn":"দোহা","name:bo":"དྷོ་ཧ།","name:br":"Doha","name:bs":"Doha","name:ca":"Doha","name:ce":"Духьа","name:cs":"Dauhá","name:cy":"Doha","name:da":"Doha","name:de":"Doha","name:el":"Ντόχα","name:en":"Doha","name:eo":"Doho","name:es":"Doha","name:et":"Doha","name:eu":"Doha","name:fa":"دوحه","name:fi":"Doha","name:fr":"Doha","name:fy":"Doha","name:ga":"Doha","name:gd":"Doha","name:gl":"Doha","name:gn":"Doha","name:gu":"દોહા","name:ha":"Doha","name:he":"דוחה","name:hi":"दोहा","name:hr":"Doha","name:ht":"Doha","name:hu":"Doha","name:hy":"Դոհա","name:ia":"Doha","name:id":"Doha","name:ie":"Doha","name:is":"Doha","name:it":"Doha","name:ja":"ドーハ","name:jv":"Doha","name:ka":"დოჰა","name:kk":"Доһа","name:kl":"Doha","name:km":"ដូហា","name:kn":"ದೊಹಾ","name:ko":"도하","name:ku":"Dohe","name:ky":"Доха","name:la":"Doha","name:lb":"Doha","name:lt":"Doha","name:lv":"Doha","name:mg":"Doha","name:mk":"Доха","name:ml":"ദോഹ","name:mn":"Доха","name:mr":"दोहा","name:ms":"Doha","name:my":"ဒိုဟာမြို့","name:ne":"दोहा","name:nl":"Doha","name:no":"Doha","name:oc":"Doha","name:os":"Дохæ","name:pa":"ਦੋਹਾ","name:pl":"Doha","name:ps":"دوها","name:pt":"Doha","name:ro":"Doha","name:ru":"Доха","name:rw":"Doha","name:sc":"Doha","name:sh":"Doha","name:sk":"Dauha","name:sl":"Doha","name:sn":"Doha","name:so":"Dooxa","name:sq":"Doha","name:sr":"Доха","name:sv":"Doha","name:sw":"Doha","name:ta":"தோகா","name:tg":"Доҳа","name:th":"โดฮา","name:tk":"Doha","name:tl":"Doha","name:tr":"Doha","name:tt":"Doha","name:ug":"دوھا","name:uk":"Доха","name:ur":"دوحہ","name:uz":"Doʻha","name:vi":"Doha","name:vo":"Däuha","name:yi":"דאכא","name:yo":"Doha","name:zh":"多哈","name:ace":"Doha","name:ast":"Doḥa","name:awa":"दोहा(जगह)","name:azb":"دوحه","name:ban":"Doha","name:ceb":"Doha","name:ckb":"دەوحە","name:diq":"Dewhe","name:dty":"दोहा","name:ext":"Doha","name:frp":"Doha","name:grc":"Δοχή","name:hak":"Doha","name:hif":"Doha","name:hsb":"Doha","name:kab":"Dawḥa","name:lij":"Doha","name:lmo":"Doha","name:mai":"दोहा","name:mzn":"دوحه","name:nah":"Doha","name:pap":"Doha","name:pms":"Doha","name:rue":"Доуга","name:sat":"ᱫᱚᱦᱟ","name:scn":"Doha","name:sco":"Doha","name:szl":"Doha","name:udm":"Доха","name:vec":"Doha","name:vep":"Doh","name:war":"Doha","name:wuu":"多哈","name:xmf":"დოჰა","old_name":"البدع","alt_name:el":"Δῶα","alt_name:pl":"Ad-Dauha","old_name:ar":"البدع","old_name:pl":"Al-Bida","old_name:ur":"البدع","alt_name:grc":"Δῶα","name:bat-smg":"Duoha","name:sr-Latn":"Doha"},"display_name":"الدوحة, قطر","address":{"city":"الدوحة","ISO3166-2-lvl4":"QA-DA","country":"قطر","country_code":"qa"},"population":1312947,"osm_type":"node","osm_id":1676664890,"type":"city","location":[51.5264162,25.2856329],"bbox":[51.3664162,25.1256329,51.6864162,25.4456329],"border":{"name":"الدوحة","other_names":{"name:af":"Doha","name:am":"ዶሃ","name:an":"Doha","name:ar":"الدوحة","name:az":"Doha","name:ba":"Доһа","name:be":"Доха","name:bg":"Доха","name:bn":"দোহা","name:bo":"དྷོ་ཧ།","name:br":"Doha","name:bs":"Doha","name:ca":"Doha","name:ce":"Духьа","name:cs":"Dauhá","name:cy":"Doha","name:da":"Doha","name:de":"Doha","name:el":"Ντόχα","name:en":"Doha","name:eo":"Doho","name:es":"Doha","name:et":"Doha","name:eu":"Doha","name:fa":"دوحه","name:fi":"Doha","name:fr":"Doha","name:fy":"Doha","name:ga":"Doha","name:gd":"Doha","name:gl":"Doha","name:gn":"Doha","name:gu":"દોહા","name:ha":"Doha","name:he":"דוחה","name:hi":"दोहा, क़तर","name:hr":"Doha","name:ht":"Doha","name:hu":"Doha","name:hy":"Դոհա","name:ia":"Doha","name:id":"Doha","name:ie":"Doha","name:io":"Doha","name:is":"Doha","name:it":"Doha","name:ja":"ドーハ","name:jv":"Doha","name:ka":"დოჰა","name:kk":"Доһа","name:kl":"Doha","name:kn":"ದೊಹಾ","name:ko":"도하","name:ku":"Doha","name:ky":"Доха","name:la":"Doha","name:lb":"Doha","name:lt":"Doha","name:lv":"Doha","name:mg":"Doha","name:mk":"Доха","name:ml":"ദോഹ","name:mn":"Доха","name:mr":"दोहा","name:ms":"Doha","name:my":"ဒိုဟာမြို့","name:ne":"दोहा","name:nl":"Doha","name:nn":"Doha","name:no":"Doha","name:oc":"Doha","name:os":"Дохæ","name:pa":"ਦੋਹਾ","name:pl":"Doha","name:ps":"دوحه","name:pt":"Doha","name:ro":"Doha","name:ru":"Доха","name:rw":"Doha","name:sc":"Doha","name:sd":"دوحہ","name:sh":"Doha","name:sk":"Dauha","name:sl":"Doha","name:sn":"Doha","name:so":"Dooxa","name:sq":"Doha","name:sr":"Доха","name:sv":"Doha","name:sw":"Doha","name:ta":"தோகா","name:tg":"Дуҳа","name:th":"โดฮา","name:tk":"Doha","name:tl":"Doha","name:tr":"Doha","name:tt":"Doha","name:ug":"دوھا","name:uk":"Доха","name:ur":"دوحہ","name:uz":"Doʻha","name:vi":"Doha","name:vo":"Däuha","name:yi":"דאכא","name:yo":"Doha","name:zh":"多哈","name:ace":"Doha","name:ast":"Doḥa","name:awa":"दोहा(जगह)","name:azb":"دوحه","name:ban":"Doha","name:ceb":"Doha","name:ckb":"دەوحە","name:grc":"Δοχή","name:hsb":"Doha","name:ilo":"Doha","name:kaa":"Doha","name:kab":"Dawḥa","name:mai":"दोहा","name:nah":"Doha","name:nan":"Doha","name:pap":"Doha","name:pms":"Doha","name:pnb":"دوحا","name:sat":"ᱫᱚᱦᱟ","name:scn":"Doha","name:sco":"Doha","name:szl":"Doha","name:udm":"Доха","name:vec":"Doha","name:vep":"Doh","name:war":"Doha","name:wuu":"多哈","name:xmf":"დოჰა","name:yue":"多哈","old_name":"البدع","ISO3166-2":"QA-DA","alt_name:el":"Δῶα","old_name:ar":"البدع","old_name:ur":"البدع","alt_name:grc":"Δῶα","official_name":"بلدية الدوحة","name:km":"ដូហា","name:diq":"Dewhe","name:dty":"दोहा","name:ext":"Doha","name:frp":"Doha","name:hak":"Doha","name:hif":"Doha","name:lij":"Doha","name:lmo":"Doha","name:mzn":"دوحه","name:rue":"Доуга","official_name:ar":"بلدية الدوحة","official_name:de":"Gemeinde Doha","official_name:es":"Municipio de Doha","alt_name:pl":"Ad-Dauha","old_name:pl":"Al-Bida","name:bat-smg":"Duoha","name:sr-Latn":"Doha","alt:hi":"दोहा","alt:ku":"Dohe","alt:ps":"دوها","alt:tg":"Доҳа"},"display_name":"الدوحة, قطر","address":{"city":"الدوحة","ISO3166-2-lvl4":"QA-DA","country":"قطر","country_code":"qa"},"population":1312947,"osm_type":"relation","osm_id":27332,"type":"administrative","location":[51.5264162,25.2856329],"bbox":[51.3957733,25.1505411,52.4171167,25.6832009]}}
{"name":"الريان","other_names":{"name:ar":"الريان","name:bn":"রাইয়ান","name:cs":"ar-Rajján","name:en":"Al Rayyan","name:fr":"Al-Rayyan","name:ml":"അൽ-റയ്യാൻ","alt_name:en":"Ar Rayyan"},"display_name":"الريان, قطر","address":{"city":"الريان","state":"الريان","ISO3166-2-lvl4":"QA-RA","country":"قطر","country_code":"qa"},"osm_type":"node","osm_id":2189253861,"type":"city","location":[51.434626,25.296619],"bbox":[51.274626,25.136619,51.594626,25.456619]}
{"name":"لوسيل","other_names":{"name:ar":"لوسيل","name:bn":"লুসাইল","name:de":"Lusail","name:en":"Lusail","name:es":"Lusail","name:fr":"Lusail","name:ml":"ലുസൈൽ"},"display_name":"لوسيل, الضعاين, قطر","address":{"city":"لوسيل","state":"الضعاين","ISO3166-2-lvl4":"QA-ZA","country":"قطر","country_code":"qa"},"osm_type":"node","osm_id":1736113516,"type":"city","location":[51.5197163,25.4228888],"bbox":[51.3597163,25.2628888,51.6797163,25.5828888]}
