{"name":"Akranes","other_names":{"name:da":"Akranes","name:is":"Akranes","name:lt":"Akranesas","name:ru":"Акранес","name:ckb":"ئەکرانێس"},"display_name":"Akranes, Akraneskaupstaður, Vesturland, Ísland","address":{"town":"Akranes","state_district":"Vesturland","ISO3166-2-lvl5":"IS-3","country":"Ísland","country_code":"is"},"population":8285,"osm_type":"node","osm_id":122273962,"type":"town","location":[-22.0833512,64.3170806],"bbox":[-22.1233512,64.2770806,-22.0433512,64.3570806],"border":{"name":"Akraneskaupstaður","other_names":{"name:is":"Akraneskaupstaður","alt_name":"Akranes","name:da":"Akranes","name:lt":"Akranesas","name:ru":"Акранес","name:ckb":"ئەکرانێس","alt":"Akranes","alt:is":"Akranes"},"display_name":"Akraneskaupstaður, Vesturland, 300, Ísland","address":{"town":"Akraneskaupstaður","state_district":"Vesturland","ISO3166-2-lvl5":"IS-3","postcode":"300","country":"Ísland","country_code":"is"},"population":8285,"osm_type":"relation","osm_id":8810762,"type":"administrative","location":[-22.0833512,64.3170806],"bbox":[-22.1098132,64.3076185,-21.9977041,64.3541618]}}
{"name":"Akureyri","other_names":{"name:fr":"Akureyri","name:lt":"Akureiris","name:ru":"Акюрейри","name:zh":"阿克雷里","name:gsw":"Aküreyri"},"display_name":"Akureyri, Akureyrarbær, Norðurland eystra, Ísland","address":{"town":"Akureyri","state_district":"Norðurland eystra","ISO3166-2-lvl5":"IS-6","country":"Ísland","country_code":"is"},"population":20050,"osm_type":"node","osm_id":242107681,"type":"town","location":[-18.0912993,65.6826364],"bbox":[-18.1312993,65.6426364,-18.0512993,65.7226364],"border":[{"name":"Akureyri","other_names":{"name:fr":"Akureyri","name:he":"אקוריירי","name:is":"Akureyri","name:lt":"Akureiris","name:ru":"Акюрейри","name:gsw":"Aküreyri"},"display_name":"Akureyri, Norðurland eystra, Ísland","address":{"town":"Akureyri","state_district":"Norðurland eystra","ISO3166-2-lvl5":"IS-6","country":"Ísland","country_code":"is"},"osm_type":"way","osm_id":22539492,"type":"town","location":[-18.11217559813441,65.68390355],"bbox":[-18.1595222,65.6604456,-18.0657951,65.7073642]},{"name":"Akureyrarbær","other_names":{"ref":"6000","name:is":"Akureyrarbær","alt_name":"Akureyri","name:fr":"Akureyri","name:lt":"Akureiris","name:ru":"Акюрейри","name:zh":"阿克雷里","name:gsw":"Aküreyri","alt":"Akureyri"},"display_name":"Akureyrarbær, Norðurland eystra, Ísland","address":{"town":"Akureyrarbær","state_district":"Norðurland eystra","ISO3166-2-lvl5":"IS-6","country":"Ísland","country_code":"is"},"population":18103,"osm_type":"relation","osm_id":56086,"type":"administrative","location":[-18.0912993,65.6826364],"bbox":[-18.421368,65.5530696,-17.9769212,66.5662439]}]}
{"name":"Blönduós","other_names":{"name:is":"Blönduós","name:ru":"Блёндюоус"},"display_name":"Blönduós, Húnabyggð, Norðurland vestra, 540, Ísland","address":{"town":"Blönduós","county":"Húnabyggð","state_district":"Norðurland vestra","ISO3166-2-lvl5":"IS-5","postcode":"540","country":"Ísland","country_code":"is"},"population":834,"osm_type":"node","osm_id":249088982,"type":"town","location":[-20.280998,65.6601344],"bbox":[-20.320998,65.6201344,-20.240998,65.7001344]}
{"name":"Bolungarvík","other_names":{"name:lt":"Bolungarvikas","name:ru":"Болунгарвик"},"display_name":"Bolungarvík, Bolungarvíkurkaupstaður, Vestfirðir, Ísland","address":{"town":"Bolungarvík","state_district":"Vestfirðir","ISO3166-2-lvl5":"IS-4","country":"Ísland","country_code":"is"},"population":971,"osm_type":"node","osm_id":256613036,"type":"town","location":[-23.2507273,66.1575503],"bbox":[-23.2907273,66.1175503,-23.2107273,66.1975503],"border":{"name":"Bolungarvíkurkaupstaður","other_names":{"name:is":"Bolungarvíkurkaupstaður","alt_name":"Bolungarvík","name:lt":"Bolungarvikas","name:ru":"Болунгарвик","alt":"Bolungarvík"},"display_name":"Bolungarvíkurkaupstaður, Vestfirðir, Ísland","address":{"town":"Bolungarvíkurkaupstaður","state_district":"Vestfirðir","ISO3166-2-lvl5":"IS-4","country":"Ísland","country_code":"is"},"population":971,"osm_type":"relation","osm_id":56180,"type":"administrative","location":[-23.2507273,66.1575503],"bbox":[-23.5432935,66.0770469,-23.1443363,66.1975028]}}
{"name":"Borgarnes","other_names":{"name:en":"Borgarnes","name:is":"Borgarnes","name:lt":"Borgarnesas","name:ru":"Боргарнес","name:zh":"博尔加内斯"},"display_name":"Borgarnes, Borgarbyggð, Vesturland, 310, Ísland","address":{"town":"Borgarnes","county":"Borgarbyggð","state_district":"Vesturland","ISO3166-2-lvl5":"IS-3","postcode":"310","country":"Ísland","country_code":"is"},"population":2147,"osm_type":"node","osm_id":122275012,"type":"town","location":[-21.920208,64.5383337],"bbox":[-21.960208,64.4983337,-21.880208,64.5783337]}
{"name":"Dalvík","other_names":{"name:is":"Dalvík","name:ru":"Дальвик"},"display_name":"Dalvík, Dalvíkurbyggð, Norðurland eystra, 620, Ísland","address":{"town":"Dalvík","county":"Dalvíkurbyggð","state_district":"Norðurland eystra","ISO3166-2-lvl5":"IS-6","postcode":"620","country":"Ísland","country_code":"is"},"population":1360,"osm_type":"node","osm_id":60654107,"type":"town","location":[-18.5304388,65.9710942],"bbox":[-18.5704388,65.9310942,-18.4904388,66.0110942],"border":{"name":"Dalvíkurbyggð","other_names":{"ref":"6400","name:is":"Dalvíkurbyggð","alt_name":"Dalvík"},"display_name":"Dalvíkurbyggð, Norðurland eystra, Ísland","address":{"county":"Dalvíkurbyggð","state_district":"Norðurland eystra","ISO3166-2-lvl5":"IS-6","country":"Ísland","country_code":"is"},"osm_type":"relation","osm_id":55969,"type":"administrative","location":[-18.56387887155323,65.89340585],"bbox":[-18.9849166,65.6913758,-18.2645618,66.0952648]}}
{"name":"Egilsstaðir","other_names":{"name:is":"Egilsstaðir","name:lt":"Ejilstadiras","name:ru":"Эйильсстадир","name:zh":"埃伊尔斯塔济"},"display_name":"Egilsstaðir, Múlaþing, Austurland, 700, Ísland","address":{"town":"Egilsstaðir","county":"Múlaþing","state_district":"Austurland","ISO3166-2-lvl5":"IS-7","postcode":"700","country":"Ísland","country_code":"is"},"population":2632,"osm_type":"node","osm_id":249086265,"type":"town","location":[-14.4035258,65.2620412],"bbox":[-14.4435258,65.2220412,-14.3635258,65.3020412],"border":{"name":"Egilsstaðir","other_names":{"name:is":"Egilsstaðir","name:lt":"Ejilstadiras","name:ru":"Эгильсстадир","name:zh":"埃伊尔斯塔济","alt:ru":"Эйильсстадир"},"display_name":"Egilsstaðir, Múlaþing, Austurland, 700, Ísland","address":{"town":"Egilsstaðir","county":"Múlaþing","state_district":"Austurland","ISO3166-2-lvl5":"IS-7","postcode":"700","country":"Ísland","country_code":"is"},"population":2632,"osm_type":"way","osm_id":22529357,"type":"town","location":[-14.4035258,65.2620412],"bbox":[-14.4194698,65.2520808,-14.3785393,65.272694]}}
{"name":"Eskifjörður","display_name":"Eskifjörður, Fjarðabyggð, Austurland, 735, Ísland","address":{"town":"Eskifjörður","county":"Fjarðabyggð","state_district":"Austurland","ISO3166-2-lvl5":"IS-7","postcode":"735","country":"Ísland","country_code":"is"},"population":1089,"osm_type":"node","osm_id":256611840,"type":"town","location":[-14.0123709,65.0713085],"bbox":[-14.0523709,65.0313085,-13.9723709,65.1113085]}
{"name":"Fáskrúðsfjörður","other_names":{"name:is":"Fáskrúðsfjörður","old_name":"Búðir"},"display_name":"Fáskrúðsfjörður, Fjarðabyggð, Austurland, 750, Ísland","address":{"town":"Fáskrúðsfjörður","county":"Fjarðabyggð","state_district":"Austurland","ISO3166-2-lvl5":"IS-7","postcode":"750","country":"Ísland","country_code":"is"},"population":735,"osm_type":"node","osm_id":256612045,"type":"town","location":[-14.0084454,64.9299691],"bbox":[-14.0484454,64.8899691,-13.9684454,64.9699691]}
{"name":"Garðabær","other_names":{"name:lt":"Gardabairas","name:ru":"Гардабайр"},"display_name":"Garðabær, Höfuðborgarsvæðið, Ísland","address":{"town":"Garðabær","state_district":"Höfuðborgarsvæðið","ISO3166-2-lvl5":"IS-1","country":"Ísland","country_code":"is"},"population":20116,"osm_type":"node","osm_id":2171340641,"type":"town","location":[-21.9193961,64.0880255],"bbox":[-21.9593961,64.0480255,-21.8793961,64.1280255],"border":{"name":"Garðabær","other_names":{"name:is":"Garðabær","name:lt":"Gardabairas","name:ru":"Гардабайр","alt_name":"Garðabæ","old_name":"Garðahreppur"},"display_name":"Garðabær, Höfuðborgarsvæðið, Ísland","address":{"town":"Garðabær","state_district":"Höfuðborgarsvæðið","ISO3166-2-lvl5":"IS-1","country":"Ísland","country_code":"is"},"population":20116,"osm_type":"relation","osm_id":2556726,"type":"administrative","location":[-21.9193961,64.0880255],"bbox":[-22.0440885,64.0094096,-21.7990735,64.1197509]}}
{"name":"Garður","other_names":{"name:is":"Garður","name:lt":"Garduras","name:ru":"Гардур"},"display_name":"Garður, Suðurnesjabær, Suðurnes, 250, Ísland","address":{"town":"Garður","municipality":"Suðurnesjabær","state_district":"Suðurnes","ISO3166-2-lvl5":"IS-2","postcode":"250","country":"Ísland","country_code":"is"},"population":1860,"osm_type":"node","osm_id":206195959,"type":"town","location":[-22.6512093,64.07035],"bbox":[-22.6912093,64.03035,-22.6112093,64.11035],"border":{"name":"Suðurnesjabær","other_names":{"name:is":"Suðurnesjabær","alt_name":"Sameinað sveitarfélag Sandgerðisbæjar og Sveitarfélagsins Garðs","alt_name_1":"Sandgerðisbær","alt_name_2":"Garður"},"display_name":"Suðurnesjabær, Suðurnes, Ísland","address":{"municipality":"Suðurnesjabær","state_district":"Suðurnes","ISO3166-2-lvl5":"IS-2","country":"Ísland","country_code":"is"},"population":4091,"osm_type":"relation","osm_id":8467956,"type":"administrative","location":[-22.6503009,64.0704701],"bbox":[-22.7537756,63.9456816,-22.5611717,64.0830828]}}
{"name":"Grindavík","other_names":{"name:is":"Grindavík","name:lt":"Grindavikas","name:ru":"Гриндавик"},"display_name":"Grindavík, Grindavíkurbær, Suðurnes, 240, Ísland","address":{"town":"Grindavík","county":"Grindavíkurbær","state_district":"Suðurnes","ISO3166-2-lvl5":"IS-2","postcode":"240","country":"Ísland","country_code":"is"},"population":1246,"osm_type":"node","osm_id":244149207,"type":"town","location":[-22.4317498,63.844239],"bbox":[-22.4717498,63.804239,-22.3917498,63.884239],"border":{"name":"Grindavíkurbær","other_names":{"name:is":"Grindavíkurbær","alt_name":"Grindavík"},"display_name":"Grindavíkurbær, Suðurnes, Ísland","address":{"county":"Grindavíkurbær","state_district":"Suðurnes","ISO3166-2-lvl5":"IS-2","country":"Ísland","country_code":"is"},"osm_type":"relation","osm_id":8485628,"type":"administrative","location":[-22.32934340266734,63.88479975],"bbox":[-22.7112891,63.7998947,-21.7136476,63.9777604]}}
{"name":"Grundarfjörður","display_name":"Grundarfjörður, Grundarfjarðarbær, Vesturland, Ísland","address":{"town":"Grundarfjörður","state_district":"Vesturland","ISO3166-2-lvl5":"IS-3","country":"Ísland","country_code":"is"},"population":777,"osm_type":"node","osm_id":126199675,"type":"town","location":[-23.2592976,64.9250284],"bbox":[-23.2992976,64.8850284,-23.2192976,64.9650284],"border":{"name":"Grundarfjarðarbær","other_names":{"name:is":"Grundarfjarðarbær","alt_name":"Grundarfjörður","alt":"Grundarfjörður"},"display_name":"Grundarfjarðarbær, Vesturland, 350, Ísland","address":{"town":"Grundarfjarðarbær","state_district":"Vesturland","ISO3166-2-lvl5":"IS-3","postcode":"350","country":"Ísland","country_code":"is"},"population":777,"osm_type":"relation","osm_id":56198,"type":"administrative","location":[-23.2592976,64.9250284],"bbox":[-23.4845102,64.8744574,-23.012538,65.0112992]}}
{"name":"Hafnarfjörður","other_names":{"name:en":"Hafnarfjordur","name:lt":"Habnarfjorduras","name:ru":"Хабнарфьордюр"},"display_name":"Hafnarfjörður, Hafnarfjarðarkaupstaður, Höfuðborgarsvæðið, Ísland","address":{"town":"Hafnarfjörður","state_district":"Höfuðborgarsvæðið","ISO3166-2-lvl5":"IS-1","country":"Ísland","country_code":"is"},"population":31525,"osm_type":"node","osm_id":2171372991,"type":"town","location":[-21.9575664,64.0695354],"bbox":[-21.9975664,64.0295354,-21.9175664,64.1095354],"border":{"name":"Hafnarfjarðarkaupstaður","other_names":{"name:en":"Hafnarfjordur","name:is":"Hafnarfjarðarkaupstaður","name:lt":"Habnarfjorduras","name:ru":"Хабнарфьордур","alt_name":"Hafnarfjörður","alt":"Hafnarfjörður","alt:ru":"Хабнарфьордюр"},"display_name":"Hafnarfjarðarkaupstaður, Höfuðborgarsvæðið, Ísland","address":{"town":"Hafnarfjarðarkaupstaður","state_district":"Höfuðborgarsvæðið","ISO3166-2-lvl5":"IS-1","country":"Ísland","country_code":"is"},"population":31525,"osm_type":"relation","osm_id":2582273,"type":"administrative","location":[-21.9575664,64.0695354],"bbox":[-22.130945,63.8293792,-21.6483949,64.0832125]}}
{"name":"Hella","display_name":"Hella, Rangárþing ytra, Suðurland, 850, Ísland","address":{"town":"Hella","county":"Rangárþing ytra","state_district":"Suðurland","ISO3166-2-lvl5":"IS-8","postcode":"850","country":"Ísland","country_code":"is"},"population":1015,"osm_type":"node","osm_id":201585514,"type":"town","location":[-20.3987009,63.8355038],"bbox":[-20.4387009,63.7955038,-20.3587009,63.8755038]}
{"name":"Höfn","other_names":{"name:is":"Höfn","name:ru":"Хёбн","alt_name":"Höfn í Hornafirði"},"display_name":"Höfn, Sveitarfélagið Hornafjörður, Suðurland, 780, Ísland","address":{"town":"Höfn","county":"Sveitarfélagið Hornafjörður","state_district":"Suðurland","ISO3166-2-lvl5":"IS-8","postcode":"780","country":"Ísland","country_code":"is"},"population":1764,"osm_type":"node","osm_id":249085731,"type":"town","location":[-15.2080441,64.2532647],"bbox":[-15.2480441,64.2132647,-15.1680441,64.2932647]}
{"name":"Húsavík","other_names":{"name:is":"Húsavík","name:lt":"Husavikas","name:ru":"Хусавик","name:zh":"胡萨维克"},"display_name":"Húsavík, Norðurþing, Norðurland eystra, 640, Ísland","address":{"town":"Húsavík","county":"Norðurþing","state_district":"Norðurland eystra","ISO3166-2-lvl5":"IS-6","postcode":"640","country":"Ísland","country_code":"is"},"population":2449,"osm_type":"node","osm_id":245808228,"type":"town","location":[-17.3410402,66.0433168],"bbox":[-17.3810402,66.0033168,-17.3010402,66.0833168]}
{"name":"Hveragerði","other_names":{"name:ru":"Кверагерди"},"display_name":"Hveragerði, Hveragerðisbær, Suðurland, Ísland","address":{"town":"Hveragerði","state_district":"Suðurland","ISO3166-2-lvl5":"IS-8","country":"Ísland","country_code":"is"},"population":3300,"osm_type":"node","osm_id":59864605,"type":"town","location":[-21.1868303,63.9975943],"bbox":[-21.2268303,63.9575943,-21.1468303,64.0375943],"border":{"name":"Hveragerðisbær","other_names":{"name:is":"Hveragerðisbær","alt_name":"Hveragerði","name:ru":"Кверагерди","alt":"Hveragerði"},"display_name":"Hveragerðisbær, Suðurland, 810, Ísland","address":{"town":"Hveragerðisbær","state_district":"Suðurland","ISO3166-2-lvl5":"IS-8","postcode":"810","country":"Ísland","country_code":"is"},"population":3300,"osm_type":"relation","osm_id":8485632,"type":"administrative","location":[-21.1868303,63.9975943],"bbox":[-21.2337968,63.9795694,-21.1483,64.0228083]}}
{"name":"Hvolsvöllur","other_names":{"name:is":"Hvolsvöllur","name:ru":"Хвольсвёдлур"},"display_name":"Hvolsvöllur, Rangárþing eystra, Suðurland, 860, Ísland","address":{"town":"Hvolsvöllur","county":"Rangárþing eystra","state_district":"Suðurland","ISO3166-2-lvl5":"IS-8","postcode":"860","country":"Ísland","country_code":"is"},"population":1078,"osm_type":"node","osm_id":201575301,"type":"town","location":[-20.223842,63.7508108],"bbox":[-20.263842,63.7108108,-20.183842,63.7908108]}
{"name":"Ísafjörður","other_names":{"name:es":"Isafjordur","name:is":"Ísafjörður","name:lt":"Isafjorduras","name:ru":"Исафьордюр","name:zh":"伊萨菲厄泽"},"display_name":"Ísafjörður, Ísafjarðarbær, Vestfirðir, 400, Ísland","address":{"town":"Ísafjörður","county":"Ísafjarðarbær","state_district":"Vestfirðir","ISO3166-2-lvl5":"IS-4","postcode":"400","country":"Ísland","country_code":"is"},"population":2679,"osm_type":"node","osm_id":60741085,"type":"town","location":[-23.1193541,66.0726918],"bbox":[-23.1593541,66.0326918,-23.0793541,66.1126918],"border":{"name":"Ísafjarðarbær","other_names":{"name:is":"Ísafjarðarbær","alt_name":"Ísafjörður"},"display_name":"Ísafjarðarbær, Vestfirðir, Ísland","address":{"county":"Ísafjarðarbær","state_district":"Vestfirðir","ISO3166-2-lvl5":"IS-4","country":"Ísland","country_code":"is"},"osm_type":"relation","osm_id":56181,"type":"administrative","location":[-23.401342167391306,65.9320905],"bbox":[-23.8687635,65.6872767,-21.965189,66.4694971]}}
{"name":"Keflavík","other_names":{"name:is":"Keflavík","name:ru":"Кеблавик","name:sv":"Keflavik","name:zh":"凯夫拉维克"},"display_name":"Keflavík, Reykjanesbær, Suðurnes, 230, Ísland","address":{"town":"Keflavík","state_district":"Suðurnes","ISO3166-2-lvl5":"IS-2","postcode":"230","country":"Ísland","country_code":"is"},"population":15000,"osm_type":"node","osm_id":2876969801,"type":"town","location":[-22.5565373,63.9997694],"bbox":[-22.5965373,63.9597694,-22.5165373,64.0397694]}
{"name":"Kópavogur","other_names":{"name:lt":"Koupavoguras","name:ru":"Коупавогюр","name:th":"โคปาโวก"},"display_name":"Kópavogur, Kópavogsbær, Höfuðborgarsvæðið, Ísland","address":{"town":"Kópavogur","state_district":"Höfuðborgarsvæðið","ISO3166-2-lvl5":"IS-1","country":"Ísland","country_code":"is"},"population":40040,"osm_type":"node","osm_id":2171340646,"type":"town","location":[-21.9048106,64.1113504],"bbox":[-21.9448106,64.0713504,-21.8648106,64.1513504],"border":{"name":"Kópavogsbær","other_names":{"name:en":"Kopavogur","name:is":"Kópavogsbær","name:lt":"Koupavoguras","name:ru":"Коупавогюр","alt_name":"Kópavogur","name:th":"โคปาโวก","alt":"Kópavogur"},"display_name":"Kópavogsbær, Höfuðborgarsvæðið, Ísland","address":{"town":"Kópavogsbær","state_district":"Höfuðborgarsvæðið","ISO3166-2-lvl5":"IS-1","country":"Ísland","country_code":"is"},"population":40040,"osm_type":"relation","osm_id":2580603,"type":"administrative","location":[-21.9048106,64.1113504],"bbox":[-21.947836,63.9691947,-21.5041643,64.1179044]}}
{"name":"Laugar","display_name":"Laugar, Þingeyjarsveit, Norðurland eystra, 650, Ísland","address":{"town":"Laugar","county":"Þingeyjarsveit","state_district":"Norðurland eystra","ISO3166-2-lvl5":"IS-6","postcode":"650","country":"Ísland","country_code":"is"},"population":107,"osm_type":"way","osm_id":1227436160,"type":"town","location":[-17.360184205621074,65.7210719],"bbox":[-17.3798373,65.7127286,-17.3417499,65.7249847]}
{"name":"Mosfellsbær","other_names":{"name:it":"Mosfellsbær","name:ru":"Мосфедльсбайр"},"display_name":"Mosfellsbær, Höfuðborgarsvæðið, Ísland","address":{"town":"Mosfellsbær","state_district":"Höfuðborgarsvæðið","ISO3166-2-lvl5":"IS-1","country":"Ísland","country_code":"is"},"population":13715,"osm_type":"node","osm_id":2171340649,"type":"town","location":[-21.6971313,64.1674922],"bbox":[-21.7371313,64.1274922,-21.6571313,64.2074922],"border":{"name":"Mosfellsbær","other_names":{"name:is":"Mosfellsbær","name:ru":"Мосфедльсбайр","name:it":"Mosfellsbær"},"display_name":"Mosfellsbær, Höfuðborgarsvæðið, Ísland","address":{"town":"Mosfellsbær","state_district":"Höfuðborgarsvæðið","ISO3166-2-lvl5":"IS-1","country":"Ísland","country_code":"is"},"population":13715,"osm_type":"relation","osm_id":2580604,"type":"administrative","location":[-21.6971313,64.1674922],"bbox":[-21.7546141,64.0717932,-21.3719102,64.2201903]}}
{"name":"Neskaupstaður","other_names":{"name:is":"Neskaupstaður","name:ru":"Нескёйпстадюр"},"display_name":"Neskaupstaður, Fjarðabyggð, Austurland, 740, Ísland","address":{"town":"Neskaupstaður","county":"Fjarðabyggð","state_district":"Austurland","ISO3166-2-lvl5":"IS-7","postcode":"740","country":"Ísland","country_code":"is"},"population":1460,"osm_type":"node","osm_id":256611930,"type":"town","location":[-13.6888688,65.1487219],"bbox":[-13.7288688,65.1087219,-13.6488688,65.1887219]}
{"name":"Njarðvík","other_names":{"name:is":"Njarðvík","name:ru":"Ньярдвик"},"display_name":"Njarðvík, Reykjanesbær, Suðurnes, 260, Ísland","address":{"town":"Njarðvík","state_district":"Suðurnes","ISO3166-2-lvl5":"IS-2","postcode":"260","country":"Ísland","country_code":"is"},"population":5000,"osm_type":"node","osm_id":2426033226,"type":"town","location":[-22.5426892,63.9733089],"bbox":[-22.5826892,63.9333089,-22.5026892,64.0133089]}
{"name":"Ólafsfjörður","other_names":{"name:is":"Ólafsfjörður","name:lt":"Oulafsfjorduras","name:ru":"Оулафсфьордюр"},"display_name":"Ólafsfjörður, Fjallabyggð, Norðurland eystra, 625, Ísland","address":{"town":"Ólafsfjörður","county":"Fjallabyggð","state_district":"Norðurland eystra","ISO3166-2-lvl5":"IS-6","postcode":"625","country":"Ísland","country_code":"is"},"population":762,"osm_type":"node","osm_id":60654105,"type":"town","location":[-18.6474965,66.071806],"bbox":[-18.6874965,66.031806,-18.6074965,66.111806]}
{"name":"Ólafsvík","other_names":{"name:is":"Ólafsvík","name:lt":"Oulafsvikas","name:ru":"Оулафсвик"},"display_name":"Ólafsvík, Snæfellsbær, Vesturland, 355, Ísland","address":{"town":"Ólafsvík","county":"Snæfellsbær","state_district":"Vesturland","ISO3166-2-lvl5":"IS-3","postcode":"355","country":"Ísland","country_code":"is"},"population":960,"osm_type":"node","osm_id":126054561,"type":"town","location":[-23.7084345,64.8959304],"bbox":[-23.7484345,64.8559304,-23.6684345,64.9359304]}
{"name":"Patreksfjörður","display_name":"Patreksfjörður, Vesturbyggð, Vestfirðir, 450, Ísland","address":{"town":"Patreksfjörður","county":"Vesturbyggð","state_district":"Vestfirðir","ISO3166-2-lvl5":"IS-4","postcode":"450","country":"Ísland","country_code":"is"},"population":756,"osm_type":"node","osm_id":242958931,"type":"town","location":[-24.0008951,65.5972919],"bbox":[-24.0408951,65.5572919,-23.9608951,65.6372919]}
{"name":"Reyðarfjörður","other_names":{"name:is":"Reyðarfjörður","name:ru":"Рейдарфьордур","old_name":"Búðareyri"},"display_name":"Reyðarfjörður, Fjarðabyggð, Austurland, 731, Ísland","address":{"town":"Reyðarfjörður","county":"Fjarðabyggð","state_district":"Austurland","ISO3166-2-lvl5":"IS-7","postcode":"731","country":"Ísland","country_code":"is"},"population":1368,"osm_type":"node","osm_id":6239764505,"type":"town","location":[-14.2084678,65.0340671],"bbox":[-14.2484678,64.9940671,-14.1684678,65.0740671]}
{"name":"Reykjanesbær","other_names":{"name:ru":"Рейкьянесбайр"},"display_name":"Reykjanesbær, Suðurnes, Ísland","address":{"town":"Reykjanesbær","state_district":"Suðurnes","ISO3166-2-lvl5":"IS-2","country":"Ísland","country_code":"is"},"population":22499,"osm_type":"node","osm_id":129958272,"type":"town","location":[-22.5561494,63.9832697],"bbox":[-22.5961494,63.9432697,-22.5161494,64.0232697],"border":{"name":"Reykjanesbær","other_names":{"name:is":"Reykjanesbær","name:ru":"Рейкьянесбайр"},"display_name":"Reykjanesbær, Suðurnes, Ísland","address":{"town":"Reykjanesbær","state_district":"Suðurnes","ISO3166-2-lvl5":"IS-2","country":"Ísland","country_code":"is"},"population":22499,"osm_type":"relation","osm_id":8467955,"type":"administrative","location":[-22.5561494,63.9832697],"bbox":[-22.7424985,63.8099579,-22.3988087,64.0307264]}}
{"name":"Sandgerði","other_names":{"name:is":"Sandgerði","name:ru":"Сандгерди"},"display_name":"Sandgerði, Suðurnesjabær, Suðurnes, 245, Ísland","address":{"town":"Sandgerði","municipality":"Suðurnesjabær","state_district":"Suðurnes","ISO3166-2-lvl5":"IS-2","postcode":"245","country":"Ísland","country_code":"is"},"population":1990,"osm_type":"node","osm_id":206196181,"type":"town","location":[-22.7059293,64.0388116],"bbox":[-22.7459293,63.9988116,-22.6659293,64.0788116]}
{"name":"Sauðárkrókur","other_names":{"name:is":"Sauðárkrókur","name:ru":"Сейдауркроукюр","name:zh":"瑟伊藻克罗屈尔"},"display_name":"Sauðárkrókur, Skagafjörður, Norðurland vestra, 550, Ísland","address":{"town":"Sauðárkrókur","county":"Skagafjörður","state_district":"Norðurland vestra","ISO3166-2-lvl5":"IS-5","postcode":"550","country":"Ísland","country_code":"is"},"population":2609,"osm_type":"node","osm_id":65295844,"type":"town","location":[-19.6385795,65.7443213],"bbox":[-19.6785795,65.7043213,-19.5985795,65.7843213]}
{"name":"Selfoss","other_names":{"name:is":"Selfoss","name:lt":"Selfosas","name:ru":"Сельфосс","name:zh":"塞尔福斯"},"display_name":"Selfoss, Sveitarfélagið Árborg, Suðurland, 800, Ísland","address":{"town":"Selfoss","county":"Sveitarfélagið Árborg","state_district":"Suðurland","ISO3166-2-lvl5":"IS-8","postcode":"800","country":"Ísland","country_code":"is"},"population":9812,"osm_type":"node","osm_id":59864601,"type":"town","location":[-21.0035319,63.9368093],"bbox":[-21.0435319,63.8968093,-20.9635319,63.9768093]}
{"name":"Seltjarnarnes","other_names":{"name:lt":"Seltjarnarnesas","name:ru":"Селтьярнарнес"},"display_name":"Seltjarnarnes, Seltjarnarnesbær, Höfuðborgarsvæðið, Ísland","address":{"town":"Seltjarnarnes","state_district":"Höfuðborgarsvæðið","ISO3166-2-lvl5":"IS-1","country":"Ísland","country_code":"is"},"population":4585,"osm_type":"node","osm_id":2171340653,"type":"town","location":[-21.9879563,64.1526552],"bbox":[-22.0279563,64.1126552,-21.9479563,64.1926552],"border":{"name":"Seltjarnarnesbær","other_names":{"name:is":"Seltjarnarnesbær","name:lt":"Seltjarnarnesas","name:ru":"Селтьярнарнес","alt_name":"Seltjarnarnes","old_name":"Seltjarnarneskaupstaður","alt":"Seltjarnarnes"},"display_name":"Seltjarnarnesbær, Höfuðborgarsvæðið, 170, Ísland","address":{"town":"Seltjarnarnesbær","state_district":"Höfuðborgarsvæðið","ISO3166-2-lvl5":"IS-1","postcode":"170","country":"Ísland","country_code":"is"},"population":4585,"osm_type":"relation","osm_id":2580606,"type":"administrative","location":[-21.9879563,64.1526552],"bbox":[-22.0364027,64.1447603,-21.9760894,64.1653958]}}
{"name":"Seyðisfjörður","other_names":{"name:en":"Seydisfjordur","name:is":"Seyðisfjörður","name:lt":"Seidisfjorduras","name:ru":"Сейдисфьордюр"},"display_name":"Seyðisfjörður, Múlaþing, Austurland, 710, Ísland","address":{"town":"Seyðisfjörður","county":"Múlaþing","state_district":"Austurland","ISO3166-2-lvl5":"IS-7","postcode":"710","country":"Ísland","country_code":"is"},"population":648,"osm_type":"node","osm_id":249086462,"type":"town","location":[-14.0049009,65.2598475],"bbox":[-14.0449009,65.2198475,-13.9649009,65.2998475]}
{"name":"Siglufjörður","other_names":{"name:is":"Siglufjörður","name:ru":"Сиглюфьордюр"},"display_name":"Siglufjörður, Fjallabyggð, Norðurland eystra, 580, Ísland","address":{"town":"Siglufjörður","county":"Fjallabyggð","state_district":"Norðurland eystra","ISO3166-2-lvl5":"IS-6","postcode":"580","country":"Ísland","country_code":"is"},"population":1165,"osm_type":"node","osm_id":61365704,"type":"town","location":[-18.9096279,66.1504928],"bbox":[-18.9496279,66.1104928,-18.8696279,66.1904928]}
{"name":"Stykkishólmur","other_names":{"name:is":"Stykkishólmur","name:ru":"Стиккисхоульмюр"},"display_name":"Stykkishólmur, Sveitarfélagið Stykkishólmur, Vesturland, 340, Ísland","address":{"town":"Stykkishólmur","county":"Sveitarfélagið Stykkishólmur","state_district":"Vesturland","ISO3166-2-lvl5":"IS-3","postcode":"340","country":"Ísland","country_code":"is"},"population":1170,"osm_type":"node","osm_id":614271536,"type":"town","location":[-22.7302954,65.0742584],"bbox":[-22.7702954,65.0342584,-22.6902954,65.1142584],"border":{"name":"Sveitarfélagið Stykkishólmur","other_names":{"name:is":"Sveitarfélagið Stykkishólmur","alt_name":"Stykkishólmur"},"display_name":"Sveitarfélagið Stykkishólmur, Vesturland, Ísland","address":{"county":"Sveitarfélagið Stykkishólmur","state_district":"Vesturland","ISO3166-2-lvl5":"IS-3","country":"Ísland","country_code":"is"},"osm_type":"relation","osm_id":8405089,"type":"administrative","location":[-22.82590267041446,64.979788],"bbox":[-23.0583394,64.87824,-22.5164255,65.081276]}}
{"name":"Vestmannaeyjabær","other_names":{"name:de":"Westmännerinseln","name:lt":"Vestmanaejaras","name:ru":"Вестманнаэйяр","alt_name":"Vestmannaeyjar"},"display_name":"Vestmannaeyjabær, Suðurland, Ísland","address":{"town":"Vestmannaeyjabær","state_district":"Suðurland","ISO3166-2-lvl5":"IS-8","country":"Ísland","country_code":"is"},"population":4444,"osm_type":"node","osm_id":457702046,"type":"town","location":[-20.2785899,63.4401009],"bbox":[-20.3185899,63.4001009,-20.2385899,63.4801009],"border":{"name":"Vestmannaeyjabær","other_names":{"name:is":"Vestmannaeyjabær","loc_name":"Vestmannaeyjar","official_name":"Vestmannaeyjabær","name:de":"Westmännerinseln","name:lt":"Vestmanaejaras","name:ru":"Вестманнаэйяр","alt_name":"Vestmannaeyjar"},"display_name":"Vestmannaeyjabær, Suðurland, 900, Ísland","address":{"town":"Vestmannaeyjabær","state_district":"Suðurland","ISO3166-2-lvl5":"IS-8","postcode":"900","country":"Ísland","country_code":"is"},"population":4444,"osm_type":"relation","osm_id":14433161,"type":"administrative","location":[-20.2785899,63.4401009],"bbox":[-20.617482,63.2960926,-20.1681165,63.4919612]}}
{"name":"Vogar","other_names":{"name:ru":"Вогар"},"display_name":"Vogar, Sveitarfélagið Vogar, Suðurnes, Ísland","address":{"town":"Vogar","state_district":"Suðurnes","ISO3166-2-lvl5":"IS-2","country":"Ísland","country_code":"is"},"population":1741,"osm_type":"node","osm_id":421609805,"type":"town","location":[-22.387446,63.9832106],"bbox":[-22.427446,63.9432106,-22.347446,64.0232106],"border":{"name":"Sveitarfélagið Vogar","other_names":{"name:is":"Sveitarfélagið Vogar","alt_name":"Vogar","name:ru":"Вогар","alt":"Vogar"},"display_name":"Sveitarfélagið Vogar, Suðurnes, Ísland","address":{"town":"Sveitarfélagið Vogar","state_district":"Suðurnes","ISO3166-2-lvl5":"IS-2","country":"Ísland","country_code":"is"},"population":1741,"osm_type":"relation","osm_id":8485229,"type":"administrative","location":[-22.387446,63.9832106],"bbox":[-22.4522244,63.9253102,-22.023296,64.0405676]}}
{"name":"Vopnafjörður","other_names":{"name:is":"Vopnafjörður","name:ru":"Вопнафьордюр"},"display_name":"Vopnafjörður, Vopnafjarðarhreppur, Austurland, 690, Ísland","address":{"town":"Vopnafjörður","county":"Vopnafjarðarhreppur","state_district":"Austurland","ISO3166-2-lvl5":"IS-7","postcode":"690","country":"Ísland","country_code":"is"},"population":510,"osm_type":"node","osm_id":59860048,"type":"town","location":[-14.8294887,65.7540583],"bbox":[-14.8694887,65.7140583,-14.7894887,65.7940583],"border":{"name":"Vopnafjarðarhreppur","other_names":{"name:is":"Vopnafjarðarhreppur","alt_name":"Vopnafjörður"},"display_name":"Vopnafjarðarhreppur, Austurland, Ísland","address":{"county":"Vopnafjarðarhreppur","state_district":"Austurland","ISO3166-2-lvl5":"IS-7","country":"Ísland","country_code":"is"},"osm_type":"relation","osm_id":56147,"type":"administrative","location":[-15.073854985964557,65.7022474],"bbox":[-15.7206,65.4404914,-14.3283578,65.9659481]}}
{"name":"Þorlákshöfn","other_names":{"name:is":"Þorlákshöfn","name:ru":"Торлауксхёбн"},"display_name":"Þorlákshöfn, Sveitarfélagið Ölfus, Suðurland, 815, Ísland","address":{"town":"Þorlákshöfn","county":"Sveitarfélagið Ölfus","state_district":"Suðurland","ISO3166-2-lvl5":"IS-8","postcode":"815","country":"Ísland","country_code":"is"},"population":2037,"osm_type":"node","osm_id":300934025,"type":"town","location":[-21.3866276,63.8561592],"bbox":[-21.4266276,63.8161592,-21.3466276,63.8961592]}
