{"name":"Reykjavík","other_names":{"name:af":"Reykjavik","name:am":"ሬይኪያቪክ","name:ar":"ريكيافيك","name:av":"Рейкявик","name:ay":"Reykjavik","name:az":"Reykyavik","name:ba":"Рейкьявик","name:be":"Рэйк'явік","name:bg":"Рейкявик","name:bn":"রেইকিয়াভিক","name:bo":"རེཀ་ཇ་བིཀ།","name:ca":"Reykjavík","name:ce":"Рейкьявик","name:cu":"Рєикꙗвикъ","name:cv":"Рейкьявик","name:da":"Reykjavik","name:de":"Reykjavik","name:el":"Ρέικιαβικ","name:en":"Reykjavik","name:eo":"Rejkjaviko","name:es":"Reikiavik","name:eu":"Reykjavik","name:fa":"ریکیاویک","name:fr":"Reykjavik","name:fy":"Reykjavik","name:ga":"Réicivíc","name:gl":"Reiquiavik","name:gn":"Reikiavik","name:ha":"Reykjavik","name:he":"רייקיאוויק","name:hi":"रेक्याविक","name:hr":"Reykjavik","name:ht":"Rèkyavik","name:hu":"Reykjavík","name:hy":"Ռեյկյավիկ","name:is":"Reykjavík","name:it":"Reykjavík","name:ja":"レイキャヴィク","name:ka":"რეიკიავიკი","name:kk":"Рейкьявик","name:ko":"레이캬비크","name:ku":"Reykjavîk","name:kv":"Рейкьявик","name:ky":"Рейкьявик","name:la":"Reykiavica","name:lo":"ເຣກຈາວີກ","name:lt":"Reikjavikas","name:lv":"Reikjavika","name:mi":"Rēkawhiki","name:mk":"Рејкјавик","name:ml":"റെയ്ക്യവിക്","name:mn":"Рейкьявик","name:mr":"रेक्याविक","name:mt":"Rejkjavik","name:nl":"Reykjavik","name:no":"Reykjavík","name:nv":"Siil Nástłʼah","name:oc":"Reykjavik","name:os":"Рейкьявик","name:pa":"ਰੇਕੀਆਵਿਕ","name:pl":"Reykjavík","name:ps":"ریکیاویک","name:pt":"Reiquiavique","name:ro":"Reykjavík","name:ru":"Рейкьявик","name:sd":"ريڪجاويڪ","name:sg":"Reykjavik","name:sk":"Reykjavík","name:sl":"Reykjavik","name:sq":"Rejkjavik","name:sr":"Рејкјавик","name:sv":"Reykjavik","name:ta":"ரெய்க்யவிக்","name:tg":"Рейкявик","name:th":"เรคยาวิก","name:tl":"Reikiavik","name:tt":"Рейкьявик","name:ug":"رېيكياۋىك","name:uk":"Рейк'явік","name:ur":"ریکجاوک","name:uz":"Reykyavik","name:vi":"Reykjavik","name:wo":"Reykjawik","name:yi":"רעקיאוויק","name:zh":"雷克雅未克","name:ckb":"ڕێکیاڤیک","name:gsw":"Reykjavik"},"display_name":"Reykjavík, Reykjavíkurborg, Höfuðborgarsvæðið, Ísland","address":{"city":"Reykjavík","state_district":"Höfuðborgarsvæðið","ISO3166-2-lvl5":"IS-1","country":"Ísland","country_code":"is"},"population":138772,"osm_type":"node","osm_id":2107832620,"type":"city","location":[-21.9422367,64.145981],"bbox":[-22.1022367,63.985981,-21.7822367,64.305981],"border":{"name":"Reykjavíkurborg","other_names":{"name:af":"Reykjavik","name:am":"ሬይኪያቪክ","name:ar":"ريكيافيك","name:az":"Reykyavik","name:be":"Рэйк'явік","name:bg":"Рейкявик","name:bn":"রেইকিয়াভিক","name:bo":"རེཀ་ཇ་བིཀ།","name:ca":"Reykjavík","name:ce":"Рейкьявик","name:cs":"Reykjavík","name:cv":"Рейкьявик","name:da":"Reykjavik","name:el":"Ρέυκιαβικ","name:en":"Reykjavik","name:eo":"Rejkjaviko","name:es":"Reikiavik","name:eu":"Reykjavik","name:fa":"ریکیاویک","name:fr":"Reykjavik","name:ga":"Réicivíc","name:gl":"Reiquiavik - Reykjavík","name:he":"רייקיויק","name:hi":"रेक्जाविक","name:hr":"Rejkjavik","name:ht":"Rèkyavik","name:hu":"Reykjavík","name:hy":"Ռեյկյավիկ","name:is":"Reykjavíkurborg","name:ja":"レイキャヴィーク","name:ka":"რეიკიავიკი","name:kk":"Рейкиявик","name:ko":"레이캬비크","name:ku":"Reykjavik","name:kv":"Рейкьявик","name:la":"Reykiavica","name:lt":"Reikjavikas","name:lv":"Reikjavīka","name:mi":"Reykjavik","name:mk":"Рејкјавик","name:ml":"റെയിക്യാവിക്","name:mr":"रेक्याविक","name:mt":"Reykjavik","name:nl":"Reykjavik","name:os":"Рейкьявик","name:ru":"Рейкьявик","name:sg":"Reykjavik","name:sh":"Rejkjavik","name:sk":"Reykjavík","name:sr":"Рејкјавик","name:sv":"Reykjavik","name:ta":"ரெய்க்யவிக்","name:te":"రేకవిక్","name:tg":"Рейкявик","name:th":"เรคยาวิก","name:tl":"Reykjavik","name:tr":"Reykjavik","name:tt":"Рейкьявик","name:ug":"رېيكياۋىك","name:uk":"Рейк'явік","name:ur":"ریکیاوک","name:wo":"Reykjawik","name:yi":"רעקיאוויק","name:zh":"雷克雅維克","alt_name":"Reykjavík","name:ang":"Rēcwīc","name:ckb":"ڕێکیاڤیک","name:frr":"Reykjavik","name:gsw":"Reykjavik","name:kab":"Reykyabik","name:lad":"Reikiavik","name:lmo":"Reykjavik","name:mhr":"Рейкьявик","name:nah":"Reikiavik","name:pnb":"ریکجاوک","name:sah":"Рейкьявик","name:tet":"Reikiavike","name:tpi":"Reykjavik","name:udm":"Рейкьявик","name:vec":"Reykjavik","name:vep":"Reikjavik","name:yue":"雷克雅未克","name:nds-nl":"Reykjavik","name:bat-smg":"Rėikjavėks","name:roa-rup":"Reikiavic","name:av":"Рейкявик","name:ay":"Reykjavik","name:ba":"Рейкьявик","name:cu":"Рєикꙗвикъ","name:de":"Reykjavik","name:fy":"Reykjavik","name:gn":"Reikiavik","name:ha":"Reykjavik","name:it":"Reykjavík","name:ky":"Рейкьявик","name:lo":"ເຣກຈາວີກ","name:mn":"Рейкьявик","name:no":"Reykjavík","name:nv":"Siil Nástłʼah","name:oc":"Reykjavik","name:pa":"ਰੇਕੀਆਵਿਕ","name:pl":"Reykjavík","name:ps":"ریکیاویک","name:pt":"Reiquiavique","name:ro":"Reykjavík","name:sd":"ريڪجاويڪ","name:sl":"Reykjavik","name:sq":"Rejkjavik","name:uz":"Reykyavik","name:vi":"Reykjavik","name:be-tarask":"Рэйк’явік","alt":"Reykjavík","alt:el":"Ρέικιαβικ","alt:gl":"Reiquiavik","alt:he":"רייקיאוויק","alt:hi":"रेक्याविक","alt:hr":"Reykjavik","alt:is":"Reykjavík","alt:ja":"レイキャヴィク","alt:kk":"Рейкьявик","alt:ku":"Reykjavîk","alt:lv":"Reikjavika","alt:mi":"Rēkawhiki","alt:ml":"റെയ്ക്യവിക്","alt:mt":"Rejkjavik","alt:tl":"Reikiavik","alt:ur":"ریکجاوک","alt:zh":"雷克雅未克"},"display_name":"Reykjavíkurborg, Höfuðborgarsvæðið, Ísland","address":{"city":"Reykjavíkurborg","state_district":"Höfuðborgarsvæðið","ISO3166-2-lvl5":"IS-1","country":"Ísland","country_code":"is"},"population":138772,"osm_type":"relation","osm_id":2580605,"type":"administrative","location":[-21.9422367,64.145981],"bbox":[-21.9838299,64.0404021,-21.4019991,64.3153711]}}
