{"name":"Bar","other_names":{"name:ar":"بار","name:be":"Бар","name:bg":"Бар","name:bs":"Bar","name:ca":"Bar","name:ce":"Бар","name:cs":"Bar","name:da":"Bar","name:de":"Bar","name:el":"Μπαρ","name:en":"Bar","name:es":"Bar","name:et":"Bar","name:eu":"Bar","name:fa":"بار","name:fi":"Bar","name:fo":"Bar","name:fr":"Bar","name:he":"בר","name:hr":"Bar","name:hu":"Bar","name:id":"Bar","name:is":"Bar","name:it":"Antivari","name:ja":"バール","name:ka":"ბარი","name:kl":"Bar","name:ko":"바르","name:la":"Antibarium","name:lt":"Baras","name:mk":"Бар","name:ml":"ബാർ","name:nb":"Bar","name:nl":"Bar","name:nn":"Bar","name:oc":"Bar","name:pa":"ਬਾਰ","name:pl":"Bar","name:pt":"Bar","name:ro":"Bar","name:ru":"Бар","name:sh":"Bar","name:sk":"Bar","name:sl":"Bar","name:sq":"Tivar","name:sr":"Бар","name:sv":"Bar","name:th":"บาร์","name:tr":"Bar","name:uk":"Бар","name:ur":"بار","name:zh":"巴爾","name:azb":"بار","name:ceb":"Bar","name:cnr":"Bar","name:gag":"Bar","name:grc":"Ἀντιβάριον","name:sco":"Bar","name:vec":"Var","name:wuu":"巴尔","alt_name:it":"Antibari","alt_name:la":"Antibarum;Avarorum Civitas","alt_name:grc":"Θηβάριον","name:sr-Latn":"Bar","name:zh-Hans":"巴尔","name:zh-Hant":"巴爾","name:be-tarask":"Бар"},"display_name":"Bar, Opština Bar, Crna Gora / Црна Гора","address":{"city":"Bar","town":"Bar","county":"Opština Bar","ISO3166-2-lvl6":"ME-02","country":"Crna Gora / Црна Гора","country_code":"me"},"population":17727,"osm_type":"node","osm_id":49875186,"type":"city","location":[19.0954528,42.0979745],"bbox":[18.9354528,41.9379745,19.2554528,42.2579745],"border":{"name":"Bar","other_names":{"name:be":"Бар","name:bs":"Bar","name:ce":"Бар","name:de":"Bar","name:es":"Bar","name:fr":"Bar","name:it":"Antivari","name:mk":"Бар","name:pa":"ਬਾਰ","name:ru":"Бар","name:sq":"Tivar","name:sr":"Бар","name:sv":"Bar","name:uk":"Бар","name:ur":"بار","name:zh":"巴爾","name:azb":"بار","name:cnr":"Bar","name:grc":"Ἀντιβάριον","alt_name:it":"Antibari","alt_name:grc":"Θηβάριον","name:zh-Hans":"巴尔","name:zh-Hant":"巴爾","name:ar":"بار","name:bg":"Бар","name:ca":"Bar","name:cs":"Bar","name:da":"Bar","name:el":"Μπαρ","name:en":"Bar","name:et":"Bar","name:eu":"Bar","name:fa":"بار","name:fi":"Bar","name:fo":"Bar","name:he":"בר","name:hr":"Bar","name:hu":"Bar","name:id":"Bar","name:is":"Bar","name:ja":"バール","name:ka":"ბარი","name:kl":"Bar","name:ko":"바르","name:la":"Antibarium","name:lt":"Baras","name:ml":"ബാർ","name:nb":"Bar","name:nl":"Bar","name:nn":"Bar","name:oc":"Bar","name:pl":"Bar","name:pt":"Bar","name:ro":"Bar","name:sh":"Bar","name:sk":"Bar","name:sl":"Bar","name:th":"บาร์","name:tr":"Bar","name:be-tarask":"Бар","name:ceb":"Bar","name:gag":"Bar","name:sco":"Bar","name:vec":"Var","name:wuu":"巴尔","alt_name:la":"Antibarum;Avarorum Civitas","name:sr-Latn":"Bar"},"display_name":"Bar, Opština Bar, Crna Gora / Црна Гора","address":{"town":"Bar","county":"Opština Bar","ISO3166-2-lvl6":"ME-02","country":"Crna Gora / Црна Гора","country_code":"me"},"population":17727,"osm_type":"relation","osm_id":8881697,"type":"administrative","location":[19.0954528,42.0979745],"bbox":[19.067977,42.0769512,19.1083042,42.1224791]}}
{"name":"Bijelo Polje","other_names":{"name:ar":"بييلو بوليي","name:be":"Біела-Поле","name:bg":"Биело поле","name:bs":"Bijelo Polje","name:ce":"Биело-Поле","name:el":"Μπιέλο Πόλιε","name:fa":"بیجلو پولیه","name:he":"ביילו פולה","name:hr":"Bijelo Polje","name:ja":"ビイェロ・ポリェ","name:ka":"ბიელო-პოლე","name:ko":"비옐로폴레","name:lt":"Bijelo Polė","name:mk":"Бијело Поље","name:ml":"ബിയേലോ പോളിയെ","name:ps":"بیجلو پولیه","name:ru":"Биело-Поле","name:sq":"Bellopoja","name:sr":"Бијело Поље","name:tr":"Akova","name:uk":"Бієло-Полє","name:ur":"بیئلو پولیے","name:zh":"比耶洛波列","name:cnr":"Bijelo Polje","old_name":"Akovo","alt_name:ku":"Biyêlo Polye","alt_name:sq":"Bellopojë;Akovë","old_name:sr":"Аково","name:sr-Latn":"Bijelo Polje","name:cnr-Cyrl":"Бијело Поље"},"display_name":"Bijelo Polje, Opština Bijelo Polje, Crna Gora / Црна Гора","address":{"city":"Bijelo Polje","county":"Opština Bijelo Polje","ISO3166-2-lvl6":"ME-04","country":"Crna Gora / Црна Гора","country_code":"me"},"population":13117,"osm_type":"node","osm_id":313119774,"type":"city","location":[19.7473559,43.0341595],"bbox":[19.5873559,42.8741595,19.9073559,43.1941595],"border":{"name":"Bijelo Polje","other_names":{"name:sr":"Бијело Поље","name:sr-Latn":"Bijelo Polje","name:ar":"بييلو بوليي","name:be":"Біела-Поле","name:bg":"Биело поле","name:bs":"Bijelo Polje","name:ce":"Биело-Поле","name:el":"Μπιέλο Πόλιε","name:fa":"بیجلو پولیه","name:he":"ביילו פולה","name:hr":"Bijelo Polje","name:ja":"ビイェロ・ポリェ","name:ka":"ბიელო-პოლე","name:ko":"비옐로폴레","name:lt":"Bijelo Polė","name:mk":"Бијело Поље","name:ml":"ബിയേലോ പോളിയെ","name:ps":"بیجلو پولیه","name:ru":"Биело-Поле","name:sq":"Bellopoja","name:tr":"Akova","name:uk":"Бієло-Полє","name:ur":"بیئلو پولیے","name:zh":"比耶洛波列","name:cnr":"Bijelo Polje","old_name":"Akovo","alt_name:ku":"Biyêlo Polye","alt_name:sq":"Bellopojë;Akovë","old_name:sr":"Аково","name:cnr-Cyrl":"Бијело Поље"},"display_name":"Bijelo Polje, Opština Bijelo Polje, Crna Gora / Црна Гора","address":{"city":"Bijelo Polje","county":"Opština Bijelo Polje","ISO3166-2-lvl6":"ME-04","country":"Crna Gora / Црна Гора","country_code":"me"},"population":13117,"osm_type":"relation","osm_id":12434568,"type":"administrative","location":[19.7473559,43.0341595],"bbox":[19.7257439,42.9878714,19.7789513,43.0525384]}}
{"name":"Budva","other_names":{"name:ar":"بودفا","name:be":"Будва","name:bg":"Будва","name:ce":"Будва","name:el":"Μπούντβα","name:en":"Budva","name:fa":"بودوا","name:he":"בודווה","name:hy":"Բուդվա","name:it":"Budua","name:ja":"ブドヴァ","name:ka":"ბუდვა","name:ko":"부드바","name:la":"Butua","name:mk":"Будва","name:ml":"ബുഡ്വ","name:ru":"Будва","name:sq":"Budua","name:sr":"Будва","name:uk":"Будва","name:ur":"بودوا","name:zh":"布德瓦","name:cnr":"Budva","name:grc":"Βουθόη","name:lmo":"Büdua","alt_name:la":"Budua;Batua;Budra;Bulua","name:sr-Latn":"Budva","name:cnr-Cyrl":"Будва"},"display_name":"Budva, Opština Budva, Crna Gora / Црна Гора","address":{"city":"Budva","town":"Budva","county":"Opština Budva","ISO3166-2-lvl6":"ME-05","country":"Crna Gora / Црна Гора","country_code":"me"},"population":13338,"osm_type":"node","osm_id":36258939,"type":"city","location":[18.8419505,42.2885656],"bbox":[18.6819505,42.1285656,19.0019505,42.4485656],"border":[{"name":"Opština Budva","other_names":{"name:bg":"Община Будва","name:bs":"Općina Budva","name:cs":"Občina Budva","name:de":"Gemeinde Budva","name:en":"Budva Municipality","name:es":"Municipio de Budva","name:fr":"Municipalité de Budva","name:hr":"Općina Budva","name:it":"Budua","name:mk":"Општина Будва","name:ro":"Comuna Budva","name:ru":"Община Будва","name:sh":"Opština Budva","name:sk":"Obec Budva","name:sl":"Občina Budva","name:sq":"Komuna e Budva","name:sr":"Општина Будва","name:zh":"布德瓦市鎮","name:cnr":"Opština Budva","ISO3166-2":"ME-05","name:sr-Latn":"Opština Budva","name:cnr-Cyrl":"Општина Будва"},"display_name":"Opština Budva, Crna Gora / Црна Гора","address":{"county":"Opština Budva","ISO3166-2-lvl6":"ME-05","country":"Crna Gora / Црна Гора","country_code":"me"},"population":19218,"osm_type":"relation","osm_id":2319528,"type":"administrative","location":[18.92057804931808,42.2592577],"bbox":[18.7936864,42.1618411,19.0116018,42.3567495]},{"name":"Budva","other_names":{"name:en":"Budva","name:it":"Budua","name:ru":"Будва","name:sr":"Будва","name:cnr":"Budva","name:sr-Latn":"Budva","name:cnr-Cyrl":"Будва","name:ar":"بودفا","name:be":"Будва","name:bg":"Будва","name:ce":"Будва","name:el":"Μπούντβα","name:fa":"بودوا","name:he":"בודווה","name:hy":"Բուդվա","name:ja":"ブドヴァ","name:ka":"ბუდვა","name:ko":"부드바","name:la":"Butua","name:mk":"Будва","name:ml":"ബുഡ്വ","name:sq":"Budua","name:uk":"Будва","name:ur":"بودوا","name:zh":"布德瓦","name:grc":"Βουθόη","name:lmo":"Büdua","alt_name:la":"Budua;Batua;Budra;Bulua"},"display_name":"Budva, Opština Budva, Crna Gora / Црна Гора","address":{"town":"Budva","county":"Opština Budva","ISO3166-2-lvl6":"ME-05","country":"Crna Gora / Црна Гора","country_code":"me"},"population":13338,"osm_type":"relation","osm_id":18019999,"type":"administrative","location":[18.8419505,42.2885656],"bbox":[18.8220039,42.2734697,18.8610421,42.3028143]}]}
{"name":"Bunovići","other_names":{"name:sr":"Буновићи","name:sr-Latn":"Bunovići"},"display_name":"Bunovići, Opština Kotor, Crna Gora / Црна Гора","address":{"city":"Bunovići","county":"Opština Kotor","ISO3166-2-lvl6":"ME-10","country":"Crna Gora / Црна Гора","country_code":"me"},"osm_type":"relation","osm_id":12546979,"type":"administrative","location":[18.58914434039459,42.49016235],"bbox":[18.5810971,42.4807268,18.5970687,42.4956334],"inferred_type":"city"}
{"name":"Čavori","other_names":{"name:sr":"Чавори","name:sr-Latn":"Čavori"},"display_name":"Čavori, Opština Kotor, Crna Gora / Црна Гора","address":{"city":"Čavori","county":"Opština Kotor","ISO3166-2-lvl6":"ME-10","country":"Crna Gora / Црна Гора","country_code":"me"},"osm_type":"relation","osm_id":12546980,"type":"administrative","location":[18.806287511238626,42.36522035],"bbox":[18.7992393,42.3561161,18.8138579,42.3746232],"inferred_type":"city"}
{"name":"Cetinje","other_names":{"name:ar":"ستنيي","name:az":"Çetinye","name:be":"Цэтынэ","name:bg":"Цетине","name:ce":"Цетине","name:cu":"Цєтиниѥ","name:el":"Τσέτινιε","name:en":"Cetinje","name:es":"Cetiña","name:fa":"چتینیه","name:gn":"Setíña","name:he":"צטיניה","name:hr":"Cetinje","name:hy":"Ցետինե","name:it":"Cettigne","name:ja":"ツェティニェ","name:ka":"ცეტინიე","name:ko":"체티네","name:ky":"Цетине","name:lt":"Cetinė","name:lv":"Cetiņe","name:mk":"Цетиње","name:ml":"സെറ്റിന്യെ","name:os":"Цетине","name:pl":"Cetynia","name:ru":"Цетине","name:sq":"Cetina","name:sr":"Цетиње","name:ta":"செட்டிஞ்","name:th":"เซติเญ","name:tr":"Çetine","name:tt":"Цетине","name:uk":"Цетинє","name:ur":"سیتینیے","name:zh":"策提涅","name:cnr":"Cetinje","name:vep":"Cetine","name:wuu":"采蒂涅","name:xmf":"ცეტინიე","name:yue":"切庭耶","alt_name:be":"Цэціне","alt_name:el":"Κετίγνη","alt_name:ja":"チェッティーニェ;チェティネ","alt_name:os":"Цетинье","alt_name:sq":"Cetina","alt_name:tr":"Çetinye","old_name:bg":"Цетина","name:sr-Latn":"Cetinje","name:zh-Hans":"采蒂涅","name:zh-Hant":"策提涅","name:cnr-Cyrl":"Цетиње","name:zh-Hant-HK":"采蒂涅"},"display_name":"Cetinje, Prijestolnica Cetinje, Crna Gora / Црна Гора","address":{"city":"Cetinje","town":"Cetinje","county":"Prijestolnica Cetinje","ISO3166-2-lvl6":"ME-06","country":"Crna Gora / Црна Гора","country_code":"me"},"population":13918,"osm_type":"node","osm_id":255351379,"type":"city","location":[18.9246085,42.389633],"bbox":[18.7646085,42.229633,19.0846085,42.549633],"border":{"name":"Cetinje","other_names":{"name:it":"Cettigne","name:pl":"Cetynia","name:ru":"Цетинье","name:sr":"Цетиње","name:ar":"ستنيي","name:az":"Çetinye","name:be":"Цэтынэ","name:bg":"Цетине","name:ce":"Цетине","name:cu":"Цєтиниѥ","name:el":"Τσέτινιε","name:en":"Cetinje","name:es":"Cetiña","name:fa":"چتینیه","name:gn":"Setíña","name:he":"צטיניה","name:hr":"Cetinje","name:hy":"Ցետինե","name:ja":"ツェティニェ","name:ka":"ცეტინიე","name:ko":"체티네","name:ky":"Цетине","name:lt":"Cetinė","name:lv":"Cetiņe","name:mk":"Цетиње","name:ml":"സെറ്റിന്യെ","name:os":"Цетине","name:sq":"Cetina","name:ta":"செட்டிஞ்","name:th":"เซติเญ","name:tr":"Çetine","name:tt":"Цетине","name:uk":"Цетинє","name:ur":"سیتینیے","name:zh":"策提涅","name:cnr":"Cetinje","name:vep":"Cetine","name:wuu":"采蒂涅","name:xmf":"ცეტინიე","name:yue":"切庭耶","alt_name:be":"Цэціне","alt_name:el":"Κετίγνη","alt_name:ja":"チェッティーニェ;チェティネ","alt_name:os":"Цетинье","alt_name:sq":"Cetina","alt_name:tr":"Çetinye","old_name:bg":"Цетина","name:sr-Latn":"Cetinje","name:zh-Hans":"采蒂涅","name:zh-Hant":"策提涅","name:cnr-Cyrl":"Цетиње","name:zh-Hant-HK":"采蒂涅","alt:ru":"Цетине"},"display_name":"Cetinje, Prijestolnica Cetinje, Crna Gora / Црна Гора","address":{"town":"Cetinje","county":"Prijestolnica Cetinje","ISO3166-2-lvl6":"ME-06","country":"Crna Gora / Црна Гора","country_code":"me"},"population":13918,"osm_type":"way","osm_id":167047843,"type":"administrative","location":[18.9246085,42.389633],"bbox":[18.8864361,42.3767789,18.9390304,42.4063492]}}
{"name":"Donja Cijevna","other_names":{"name:sr":"Доња Цијевна","name:sr-Latn":"Donja Cijevna"},"display_name":"Donja Cijevna, Opština Zeta, Crna Gora / Црна Гора","address":{"city":"Donja Cijevna","county":"Opština Zeta","ISO3166-2-lvl6":"ME-25","country":"Crna Gora / Црна Гора","country_code":"me"},"osm_type":"relation","osm_id":12519296,"type":"administrative","location":[19.23388974514976,42.379209849999995],"bbox":[19.2060351,42.3682894,19.2544605,42.3900743],"inferred_type":"city"}
{"name":"Donja Lastva","other_names":{"name:sr":"Доња Ластва"},"display_name":"Donja Lastva, Opština Tivat, Crna Gora / Црна Гора","address":{"city":"Donja Lastva","county":"Opština Tivat","ISO3166-2-lvl6":"ME-19","country":"Crna Gora / Црна Гора","country_code":"me"},"osm_type":"relation","osm_id":12487830,"type":"administrative","location":[18.690930957137933,42.45017445],"bbox":[18.6812843,42.4405246,18.6989799,42.459899],"inferred_type":"city"}
{"name":"Džafića Brdo","other_names":{"name:sr":"Џафића Брдо","name:sr-Latn":"Džafića Brdo"},"display_name":"Džafića Brdo, Opština Bijelo Polje, 84000, Crna Gora / Црна Гора","address":{"city":"Džafića Brdo","county":"Opština Bijelo Polje","ISO3166-2-lvl6":"ME-04","postcode":"84000","country":"Crna Gora / Црна Гора","country_code":"me"},"osm_type":"relation","osm_id":12435054,"type":"administrative","location":[19.753461214534696,43.04772285],"bbox":[19.7378884,43.0375315,19.7658148,43.0578122],"inferred_type":"city"}
{"name":"Lješnica","other_names":{"name:sr":"Љешница","name:sr-Latn":"Lješnica"},"display_name":"Lješnica, Opština Bijelo Polje, Crna Gora / Црна Гора","address":{"city":"Lješnica","county":"Opština Bijelo Polje","ISO3166-2-lvl6":"ME-04","country":"Crna Gora / Црна Гора","country_code":"me"},"osm_type":"relation","osm_id":12435056,"type":"administrative","location":[19.723714331119375,43.062732999999994],"bbox":[19.6987109,43.0401272,19.7474539,43.085293],"inferred_type":"city"}
{"name":"Loznica","other_names":{"name:sr":"Лозница","name:sr-Latn":"Loznica"},"display_name":"Loznica, Opština Bijelo Polje, Crna Gora / Црна Гора","address":{"city":"Loznica","county":"Opština Bijelo Polje","ISO3166-2-lvl6":"ME-04","country":"Crna Gora / Црна Гора","country_code":"me"},"osm_type":"relation","osm_id":12435055,"type":"administrative","location":[19.762086509707903,43.0351139],"bbox":[19.7542669,43.0310472,19.7670942,43.0391263],"inferred_type":"city"}
{"name":"Luštica","other_names":{"name:sr":"Луштица"},"display_name":"Luštica, Opština Herceg Novi, Crna Gora / Црна Гора","address":{"city":"Luštica","county":"Opština Herceg Novi","ISO3166-2-lvl6":"ME-08","country":"Crna Gora / Црна Гора","country_code":"me"},"population":311,"osm_type":"relation","osm_id":2187910,"type":"administrative","location":[18.609196956229376,42.3972366],"bbox":[18.5464776,42.3621903,18.6493457,42.4322146],"inferred_type":"city"}
{"name":"Mali Mikulići","other_names":{"name:ru":"Мали Микуличи"},"display_name":"Mali Mikulići, Opština Bar, Crna Gora / Црна Гора","address":{"city":"Mali Mikulići","county":"Opština Bar","ISO3166-2-lvl6":"ME-02","country":"Crna Gora / Црна Гора","country_code":"me"},"osm_type":"relation","osm_id":10298524,"type":"administrative","location":[19.163898128916195,42.111991200000006],"bbox":[19.1463035,42.09621,19.1811996,42.1278449],"inferred_type":"city"}
{"name":"Menke","other_names":{"name:ru":"Менке"},"display_name":"Menke, Opština Bar, Crna Gora / Црна Гора","address":{"city":"Menke","county":"Opština Bar","ISO3166-2-lvl6":"ME-02","country":"Crna Gora / Црна Гора","country_code":"me"},"osm_type":"relation","osm_id":10323035,"type":"administrative","location":[19.145974076614007,42.0945151],"bbox":[19.1370926,42.0890282,19.1607532,42.1001659],"inferred_type":"city"}
{"name":"Nedakusi","other_names":{"name:sr":"Недакуси","name:sr-Latn":"Nedakusi"},"display_name":"Nedakusi, Opština Bijelo Polje, Crna Gora / Црна Гора","address":{"city":"Nedakusi","county":"Opština Bijelo Polje","ISO3166-2-lvl6":"ME-04","country":"Crna Gora / Црна Гора","country_code":"me"},"osm_type":"relation","osm_id":12435057,"type":"administrative","location":[19.76079454335251,43.0602045],"bbox":[19.7370591,43.0462745,19.7847042,43.0742553],"inferred_type":"city"}
{"name":"Nikšić","other_names":{"name:ar":"نیکشیچ","name:az":"Nikşiç","name:be":"Нікшыч","name:bg":"Никшич","name:ce":"Никшич","name:cs":"Nikšić","name:el":"Νίκσιτς","name:en":"Nikšić","name:hy":"Նիկշիչ","name:ja":"ニクシッチ","name:ka":"ნიკშიჩი","name:ko":"닉시치","name:lt":"Nikšičius","name:lv":"Nikšiča","name:mk":"Никшиќ","name:ml":"നിക്ഷിച്ച്","name:ps":"نیکشیچ","name:ru":"Никшич","name:sq":"Nikshiqi","name:sr":"Никшић","name:th":"นิกชิช","name:tr":"Nikşik","name:tt":"Никшич","name:uk":"Никшич","name:ur":"نیکشیچ","name:zh":"尼克希奇","name:pnb":"نیکشیچ","name:wuu":"尼克希奇","alt_name:tr":"Nikşık","name:sr-Latn":"Nikšić"},"display_name":"Nikšić, Opština Nikšić, Crna Gora / Црна Гора","address":{"city":"Nikšić","county":"Opština Nikšić","ISO3166-2-lvl6":"ME-12","country":"Crna Gora / Црна Гора","country_code":"me"},"population":56970,"osm_type":"node","osm_id":255351703,"type":"city","location":[18.9488097,42.7739388],"bbox":[18.7888097,42.6139388,19.1088097,42.9339388],"border":{"name":"Nikšić","other_names":{"name:ru":"Никшич","name:sr":"Никшић","name:sr-Latn":"Nikšić","name:ar":"نیکشیچ","name:az":"Nikşiç","name:be":"Нікшыч","name:bg":"Никшич","name:ce":"Никшич","name:cs":"Nikšić","name:el":"Νίκσιτς","name:en":"Nikšić","name:hy":"Նիկշիչ","name:ja":"ニクシッチ","name:ka":"ნიკშიჩი","name:ko":"닉시치","name:lt":"Nikšičius","name:lv":"Nikšiča","name:mk":"Никшиќ","name:ml":"നിക്ഷിച്ച്","name:ps":"نیکشیچ","name:sq":"Nikshiqi","name:th":"นิกชิช","name:tr":"Nikşik","name:tt":"Никшич","name:uk":"Никшич","name:ur":"نیکشیچ","name:zh":"尼克希奇","name:pnb":"نیکشیچ","name:wuu":"尼克希奇","alt_name:tr":"Nikşık"},"display_name":"Nikšić, Opština Nikšić, Crna Gora / Црна Гора","address":{"city":"Nikšić","county":"Opština Nikšić","ISO3166-2-lvl6":"ME-12","country":"Crna Gora / Црна Гора","country_code":"me"},"population":56970,"osm_type":"relation","osm_id":11497014,"type":"administrative","location":[18.9488097,42.7739388],"bbox":[18.8923637,42.7282677,19.0167017,42.8226746]}}
{"name":"Obrov","other_names":{"name:sr":"Обров","name:sr-Latn":"Obrov"},"display_name":"Obrov, Opština Bijelo Polje, Crna Gora / Црна Гора","address":{"city":"Obrov","county":"Opština Bijelo Polje","ISO3166-2-lvl6":"ME-04","country":"Crna Gora / Црна Гора","country_code":"me"},"osm_type":"relation","osm_id":12435085,"type":"administrative","location":[19.755404083495144,43.0261906],"bbox":[19.7362541,43.0182244,19.7694618,43.0341465],"inferred_type":"city"}
{"name":"Piničići","other_names":{"name:ru":"Пиничи"},"display_name":"Piničići, Opština Bar, Crna Gora / Црна Гора","address":{"city":"Piničići","county":"Opština Bar","ISO3166-2-lvl6":"ME-02","country":"Crna Gora / Црна Гора","country_code":"me"},"osm_type":"relation","osm_id":10330010,"type":"administrative","location":[19.183823734274668,42.13716225],"bbox":[19.1588321,42.1150541,19.2082995,42.1588704],"inferred_type":"city"}
{"name":"Pljevlja","other_names":{"name:ar":"بلييفليا","name:az":"Plyevlya","name:be":"Плеўля","name:bg":"Плевля","name:bs":"Pljevlja","name:ce":"Плевля","name:de":"Pljevlja","name:el":"Πλιέβλια","name:en":"Pljevlja","name:fa":"پلیفلیا","name:he":"פלייבליה","name:hr":"Pljevlja","name:ja":"プリェヴリャ","name:ka":"პლევლია","name:ko":"플레블라","name:lt":"Plevlia","name:mk":"Плевља","name:ml":"പ്ലെവ്ല്യ","name:ps":"پلیفلیا","name:ru":"Плевля","name:sq":"Plevla","name:sr":"Пљевља","name:th":"ปลิเยวลิยา","name:tr":"Taşlıca","name:uk":"Плєвля","name:ur":"پلئیولیا","name:cnr":"Pljevlja","old_name":"Breznik;Taslidža","alt_name:sq":"Plevlë","old_name:bg":"Брезник","old_name:ja":"ブレズニク;タシュルジャ","old_name:sq":"Tashlixha","old_name:sr":"Брезник;Таслиџа","name:zh-Hans":"普列夫利亚","name:zh-Hant":"普列夫利亞"},"display_name":"Pljevlja, Opština Pljevlja, Crna Gora / Црна Гора","address":{"city":"Pljevlja","county":"Opština Pljevlja","ISO3166-2-lvl6":"ME-14","country":"Crna Gora / Црна Гора","country_code":"me"},"population":19136,"osm_type":"node","osm_id":292101644,"type":"city","location":[19.3584715,43.3565611],"bbox":[19.1984715,43.1965611,19.5184715,43.5165611],"border":{"name":"Pljevlja","other_names":{"name:ar":"بلييفليا","name:az":"Plyevlya","name:be":"Плеўля","name:bg":"Плевля","name:bs":"Pljevlja","name:ce":"Плевля","name:de":"Pljevlja","name:el":"Πλιέβλια","name:en":"Pljevlja","name:fa":"پلیفلیا","name:he":"פלייבליה","name:hr":"Pljevlja","name:ja":"プリェヴリャ","name:ka":"პლევლია","name:ko":"플레블라","name:lt":"Plevlia","name:mk":"Плевља","name:ps":"پلیفلیا","name:ru":"Плевля","name:sq":"Plevla","name:sr":"Пљевља","name:th":"ปลิเยวลิยา","name:tr":"Taşlıca","name:uk":"Плєвля","name:ur":"پلئیولیا","int_name":"Pljevlja","alt_name:sq":"Plevlë","name:ml":"പ്ലെവ്ല്യ","name:cnr":"Pljevlja","old_name":"Breznik;Taslidža","old_name:bg":"Брезник","old_name:ja":"ブレズニク;タシュルジャ","old_name:sq":"Tashlixha","old_name:sr":"Брезник;Таслиџа","name:zh-Hans":"普列夫利亚","name:zh-Hant":"普列夫利亞"},"display_name":"Pljevlja, Opština Pljevlja, 84210, Crna Gora / Црна Гора","address":{"city":"Pljevlja","county":"Opština Pljevlja","ISO3166-2-lvl6":"ME-14","postcode":"84210","country":"Crna Gora / Црна Гора","country_code":"me"},"population":19136,"osm_type":"way","osm_id":1255491789,"type":"administrative","location":[19.3584715,43.3565611],"bbox":[19.3228912,43.3452018,19.3722009,43.3636438]}}
{"name":"Podgorica","other_names":{"name:am":"ፖድጎሪጻ","name:ar":"بودغوريتسا","name:av":"Подгорица","name:az":"Podqoritsa","name:ba":"Подгорица","name:be":"Падгорыца","name:bg":"Подгорица","name:bn":"পোদগোরিচা","name:ca":"Podgorica","name:ce":"Подгорица","name:cu":"Подъгорица","name:cv":"Подгорица","name:de":"Podgorica","name:el":"Ποντγκόριτσα","name:en":"Podgorica","name:eo":"Podgorico","name:es":"Podgorica","name:fa":"پودگوریتسا","name:fr":"Podgorica","name:fy":"Podgorytsa","name:ga":"Podgairítse","name:gl":"Podgorica","name:gn":"Poygoríka","name:ha":"Podgoritsa","name:he":"פודגוריצה","name:hr":"Podgorica","name:hu":"Podgorica","name:hy":"Պոդգորիցա","name:is":"Podgorica","name:it":"Podgorizza","name:ja":"ポドゴリツァ","name:ka":"პოდგორიცა","name:kk":"Подгорица","name:ko":"포드고리차","name:ku":"Podgorica","name:ky":"Подгорица","name:la":"Birziminium","name:mk":"Подгорица","name:ml":"പോഡ്‌ഗോറിറ്റ്‌സ","name:mr":"पॉडगोरिका","name:no":"Podgorica","name:nv":"Dah Yiskʼid Biyaaí","name:os":"Подгорицæ","name:pa":"ਪਾਡਗੋਰਿਤਸਾ","name:pl":"Podgorica","name:ps":"پودګوریتسا","name:pt":"Podgoritza","name:ro":"Podgorița","name:ru":"Подгорица","name:sh":"Podgorica","name:sl":"Podgorica","name:sq":"Podgoricë","name:sr":"Подгорица","name:sv":"Podgorica","name:ta":"பத்கரீத்சா","name:tg":"Подгоритса","name:th":"พอดกอรีตซา","name:tk":"Podgoritsa","name:tr":"Böğürtlen","name:tt":"Подгорица","name:uk":"Подгориця","name:ur":"پودگوریتسا","name:uz":"Podgoritsa","name:vi":"Podgorica","name:wo":"Podgorika","name:zh":"波德戈里察 / 波德里查","name:ast":"Podgorica","name:ban":"Podgorisa","name:ckb":"پۆدگۆریتسا","name:cnr":"Podgorica","name:crh":"Podgoritsa","name:diq":"Podgorika","name:kaa":"Podgoritsa","name:myv":"Подгорица","name:nov":"Podgoritsa","name:pnb":"پودگوریتسا","name:sah":"Подгорица","name:scn":"Podgòrica","name:udm":"Подгорица","name:wuu":"波德戈里察","name:xmf":"პოდგორიცა","name:yue":"波德戈里察","old_name":"Titograd;Ribnica","alt_name:pa":"ਪਾਡਗੋਰੀਸਾ","alt_name:tr":"Burguriçe","old_name:am":"ቲቶግራድ;ሪብኒጻ;ቢዚርሚኒዩም","old_name:ar":"تيتوغراد","old_name:az":"Titoqrad","old_name:be":"Цітаград;Рыбніца","old_name:bg":"Титоград","old_name:bs":"Titograd","old_name:cu":"Тїтоградъ","old_name:de":"Titograd;Podgoritza","old_name:es":"Titogrado","old_name:fa":"تیتوگراد","old_name:fr":"Titograde;Podgoritsa","old_name:he":"טיטוגרד","old_name:hr":"Titograd","old_name:hy":"Բիրզիմինում;Ռիբնիցա;Բոգուրտլեն;Տիտոգրադ","old_name:it":"Titogrado","old_name:ja":"チトーグラード","old_name:ko":"티토그라드;리브니차","old_name:lt":"Titogradu","old_name:lv":"Titograda","old_name:mk":"Титоград;Рибница","old_name:ps":"تیتوګراد","old_name:ro":"Ribnița","old_name:sh":"Titograd","old_name:sr":"Титоград;Рибница","old_name:th":"ติตอกราด;ริบนิตซา","old_name:tr":"Böğürtlen;Burguriçe","old_name:uk":"Титоград","old_name:ur":"ٹیٹوگراڈ","old_name:vi":"Titograd","old_name:zh":"铁托格勒 / 狄托格勒","name:sr-Latn":"Podgorica","name:zh-Hans":"波德戈里察","name:zh-Hant":"波德里查","old_name:ast":"Titográu","old_name:cnr":"Titograd;Ribnica","old_name:pnb":"ٹیٹوگراڈ","name:be-tarask":"Падгорыца","old_name:sr-Latn":"Titograd;Ribnica","old_name:zh-Hans":"铁托格勒","old_name:zh-Hant":"狄托格勒"},"display_name":"Podgorica, Glavni grad Podgorica, Crna Gora / Црна Гора","address":{"city":"Podgorica","county":"Glavni grad Podgorica","ISO3166-2-lvl6":"ME-16","country":"Crna Gora / Црна Гора","country_code":"me"},"population":150799,"osm_type":"node","osm_id":123860883,"type":"city","location":[19.2621081,42.4415238],"bbox":[19.1021081,42.2815238,19.4221081,42.6015238],"border":{"name":"Podgorica","other_names":{"name:hr":"Podgorica","name:ru":"Подгорица","name:sq":"Podgoricë","name:sr":"Подгорица","name:zh":"波德戈里察 / 波德里查","name:cnr":"Podgorica","name:zh-Hans":"波德戈里察","name:zh-Hant":"波德里查","name:am":"ፖድጎሪጻ","name:ar":"بودغوريتسا","name:av":"Подгорица","name:az":"Podqoritsa","name:ba":"Подгорица","name:be":"Падгорыца","name:bg":"Подгорица","name:bn":"পোদগোরিচা","name:ca":"Podgorica","name:ce":"Подгорица","name:cu":"Подъгорица","name:cv":"Подгорица","name:de":"Podgorica","name:el":"Ποντγκόριτσα","name:en":"Podgorica","name:eo":"Podgorico","name:es":"Podgorica","name:fa":"پودگوریتسا","name:fr":"Podgorica","name:fy":"Podgorytsa","name:ga":"Podgairítse","name:gl":"Podgorica","name:gn":"Poygoríka","name:ha":"Podgoritsa","name:he":"פודגוריצה","name:hu":"Podgorica","name:hy":"Պոդգորիցա","name:is":"Podgorica","name:it":"Podgorizza","name:ja":"ポドゴリツァ","name:ka":"პოდგორიცა","name:kk":"Подгорица","name:ko":"포드고리차","name:ku":"Podgorica","name:ky":"Подгорица","name:la":"Birziminium","name:mk":"Подгорица","name:ml":"പോഡ്‌ഗോറിറ്റ്‌സ","name:mr":"पॉडगोरिका","name:no":"Podgorica","name:nv":"Dah Yiskʼid Biyaaí","name:os":"Подгорицæ","name:pa":"ਪਾਡਗੋਰਿਤਸਾ","name:pl":"Podgorica","name:ps":"پودګوریتسا","name:pt":"Podgoritza","name:ro":"Podgorița","name:sh":"Podgorica","name:sl":"Podgorica","name:sv":"Podgorica","name:ta":"பத்கரீத்சா","name:tg":"Подгоритса","name:th":"พอดกอรีตซา","name:tk":"Podgoritsa","name:tr":"Böğürtlen","name:tt":"Подгорица","name:uk":"Подгориця","name:ur":"پودگوریتسا","name:uz":"Podgoritsa","name:vi":"Podgorica","name:wo":"Podgorika","name:ast":"Podgorica","name:ban":"Podgorisa","name:ckb":"پۆدگۆریتسا","name:crh":"Podgoritsa","name:diq":"Podgorika","name:kaa":"Podgoritsa","name:myv":"Подгорица","name:nov":"Podgoritsa","name:pnb":"پودگوریتسا","name:sah":"Подгорица","name:scn":"Podgòrica","name:udm":"Подгорица","name:wuu":"波德戈里察","name:xmf":"პოდგორიცა","name:yue":"波德戈里察","old_name":"Titograd;Ribnica","alt_name:pa":"ਪਾਡਗੋਰੀਸਾ","alt_name:tr":"Burguriçe","old_name:am":"ቲቶግራድ;ሪብኒጻ;ቢዚርሚኒዩም","old_name:ar":"تيتوغراد","old_name:az":"Titoqrad","old_name:be":"Цітаград;Рыбніца","old_name:bg":"Титоград","old_name:bs":"Titograd","old_name:cu":"Тїтоградъ","old_name:de":"Titograd;Podgoritza","old_name:es":"Titogrado","old_name:fa":"تیتوگراد","old_name:fr":"Titograde;Podgoritsa","old_name:he":"טיטוגרד","old_name:hr":"Titograd","old_name:hy":"Բիրզիմինում;Ռիբնիցա;Բոգուրտլեն;Տիտոգրադ","old_name:it":"Titogrado","old_name:ja":"チトーグラード","old_name:ko":"티토그라드;리브니차","old_name:lt":"Titogradu","old_name:lv":"Titograda","old_name:mk":"Титоград;Рибница","old_name:ps":"تیتوګراد","old_name:ro":"Ribnița","old_name:sh":"Titograd","old_name:sr":"Титоград;Рибница","old_name:th":"ติตอกราด;ริบนิตซา","old_name:tr":"Böğürtlen;Burguriçe","old_name:uk":"Титоград","old_name:ur":"ٹیٹوگراڈ","old_name:vi":"Titograd","old_name:zh":"铁托格勒 / 狄托格勒","old_name:1946-1992":"Titograd","name:sr-Latn":"Podgorica","old_name:ast":"Titográu","old_name:cnr":"Titograd;Ribnica","old_name:pnb":"ٹیٹوگراڈ","name:be-tarask":"Падгорыца","old_name:sr-Latn":"Titograd;Ribnica","old_name:zh-Hans":"铁托格勒","old_name:zh-Hant":"狄托格勒"},"display_name":"Podgorica, Glavni grad Podgorica, Crna Gora / Црна Гора","address":{"city":"Podgorica","county":"Glavni grad Podgorica","ISO3166-2-lvl6":"ME-16","country":"Crna Gora / Црна Гора","country_code":"me"},"population":150799,"osm_type":"relation","osm_id":8882104,"type":"administrative","location":[19.2621081,42.4415238],"bbox":[19.1817483,42.3771251,19.331538,42.4960625]}}
{"name":"Potkrajci","other_names":{"name:sr":"Поткрајци","name:sr-Latn":"Potkrajci"},"display_name":"Potkrajci, Opština Bijelo Polje, Crna Gora / Црна Гора","address":{"city":"Potkrajci","county":"Opština Bijelo Polje","ISO3166-2-lvl6":"ME-04","country":"Crna Gora / Црна Гора","country_code":"me"},"osm_type":"relation","osm_id":12439925,"type":"administrative","location":[19.76840484158305,43.08287525],"bbox":[19.75179,43.0666741,19.7853074,43.0989727],"inferred_type":"city"}
{"name":"Pripčići","other_names":{"name:sr":"Припчићи","name:sr-Latn":"Pripčići"},"display_name":"Pripčići, Opština Bijelo Polje, Crna Gora / Црна Гора","address":{"city":"Pripčići","county":"Opština Bijelo Polje","ISO3166-2-lvl6":"ME-04","country":"Crna Gora / Црна Гора","country_code":"me"},"osm_type":"relation","osm_id":12439926,"type":"administrative","location":[19.7551017614711,43.00418435],"bbox":[19.7362584,42.988307,19.7688725,43.0201788],"inferred_type":"city"}
{"name":"Rakonje","other_names":{"name:sr":"Ракоње","name:sr-Latn":"Rakonje"},"display_name":"Rakonje, Opština Bijelo Polje, Crna Gora / Црна Гора","address":{"city":"Rakonje","county":"Opština Bijelo Polje","ISO3166-2-lvl6":"ME-04","country":"Crna Gora / Црна Гора","country_code":"me"},"osm_type":"relation","osm_id":12439927,"type":"administrative","location":[19.7242428228254,43.0264867],"bbox":[19.7138241,43.0094515,19.7436912,43.0433983],"inferred_type":"city"}
{"name":"Rasovo","other_names":{"name:sr":"Расово","name:sr-Latn":"Rasovo"},"display_name":"Rasovo, Opština Bijelo Polje, Crna Gora / Црна Гора","address":{"city":"Rasovo","county":"Opština Bijelo Polje","ISO3166-2-lvl6":"ME-04","country":"Crna Gora / Црна Гора","country_code":"me"},"osm_type":"relation","osm_id":12439928,"type":"administrative","location":[19.789504318083424,43.057027149999996],"bbox":[19.7744051,43.0474793,19.8055902,43.0671757],"inferred_type":"city"}
{"name":"Turčini","other_names":{"name:ru":"Турчини","name:sr":"Турчини"},"display_name":"Turčini, Opština Bar, Crna Gora / Црна Гора","address":{"city":"Turčini","county":"Opština Bar","ISO3166-2-lvl6":"ME-02","country":"Crna Gora / Црна Гора","country_code":"me"},"osm_type":"relation","osm_id":10441143,"type":"administrative","location":[19.144543736299614,42.10888385],"bbox":[19.133829,42.0961687,19.1591823,42.1207236],"inferred_type":"city"}
