{"name":"Andrijevica","other_names":{"name:be":"Андрыевіца","name:bg":"Андриевица","name:ce":"Андриевица","name:el":"Αντριέβιτσα","name:en":"Andrijevica","name:fa":"آندرییفیتسا","name:ja":"アンドリイェヴィツァ","name:ka":"ანდრიევიცა","name:ko":"안드리예비차","name:ru":"Андриевица","name:sr":"Андријевица","name:tr":"Endreviç","name:uk":"Андрієвиця","name:ur":"آندریےویتسا","name:zh":"安德里耶維察","int_name":"Andrijevica","name:cnr":"Andrijevica","name:sr-Latn":"Andrijevica","name:zh-Hans":"安德里耶维察","name:zh-Hant":"安德里耶維察","name:cnr-Cyrl":"Андријевица"},"display_name":"Andrijevica, Opština Andrijevica, 84320, Crna Gora / Црна Гора","address":{"town":"Andrijevica","county":"Opština Andrijevica","ISO3166-2-lvl6":"ME-01","postcode":"84320","country":"Crna Gora / Црна Гора","country_code":"me"},"population":1073,"osm_type":"node","osm_id":335730547,"type":"town","location":[19.7917886,42.7339619],"bbox":[19.7517886,42.6939619,19.8317886,42.7739619]}
{"name":"Berane","other_names":{"name:ar":"براني","name:bg":"Беране","name:bs":"Berane","name:ce":"Беране","name:el":"Μπέρανε","name:en":"Berane","name:fa":"برانه","name:he":"בראן","name:hr":"Berane","name:ja":"ベラネ","name:ka":"ბერანე","name:ko":"베라네","name:lt":"Beranė","name:mk":"Беране","name:ml":"ബെറാനെ","name:ru":"Беране","name:sq":"Berana","name:sr":"Беране","name:uk":"Беране","name:ur":"بیرانے","name:zh":"貝拉內","name:cnr":"Berane","old_name":"Ivangrad;Budimlja","alt_name:ce":"Бераны","alt_name:sq":"Beranë","old_name:el":"Μπούντιμλια;Ίβανγκραντ","old_name:he":"איוואנגרד;בודימליה","old_name:ja":"イヴァングラード;ブディミリャ","old_name:lt":"Ivangradu;Budimlia","old_name:sr":"Иванград;Будимља","name:sr-Latn":"Berane","name:zh-Hans":"贝拉内","name:zh-Hant":"貝拉內","name:cnr-Cyrl":"Беране"},"display_name":"Berane, Opština Berane, Crna Gora / Црна Гора","address":{"town":"Berane","county":"Opština Berane","ISO3166-2-lvl6":"ME-03","country":"Crna Gora / Црна Гора","country_code":"me"},"population":11073,"osm_type":"node","osm_id":320443766,"type":"town","location":[19.8728701,42.8435792],"bbox":[19.8328701,42.8035792,19.9128701,42.8835792],"border":{"name":"Berane","other_names":{"name:ar":"براني","name:bg":"Беране","name:bs":"Berane","name:ce":"Беране","name:el":"Μπέρανε","name:en":"Berane","name:fa":"برانه","name:he":"בראן","name:hr":"Berane","name:ja":"ベラネ","name:ka":"ბერანე","name:ko":"베라네","name:lt":"Beranė","name:mk":"Беране","name:ru":"Беране","name:sq":"Berana","name:sr":"Беране","name:uk":"Беране","name:ur":"بیرانے","int_name":"Berane","alt_name:ce":"Бераны","alt_name:sq":"Beranë","name:sr-Latn":"Berane","name:ml":"ബെറാനെ","name:zh":"貝拉內","name:cnr":"Berane","old_name":"Ivangrad;Budimlja","old_name:el":"Μπούντιμλια;Ίβανγκραντ","old_name:he":"איוואנגרד;בודימליה","old_name:ja":"イヴァングラード;ブディミリャ","old_name:lt":"Ivangradu;Budimlia","old_name:sr":"Иванград;Будимља","name:zh-Hans":"贝拉内","name:zh-Hant":"貝拉內","name:cnr-Cyrl":"Беране"},"display_name":"Berane, Opština Berane, Crna Gora / Црна Гора","address":{"town":"Berane","county":"Opština Berane","ISO3166-2-lvl6":"ME-03","country":"Crna Gora / Црна Гора","country_code":"me"},"population":11073,"osm_type":"relation","osm_id":18265088,"type":"administrative","location":[19.8728701,42.8435792],"bbox":[19.8604071,42.834476,19.8828907,42.8577415]}}
{"name":"Bijela","other_names":{"name:bs":"Bijela","name:en":"Bijela","name:fr":"Bijela","name:hr":"Bijela","name:ml":"ബിയേല","name:ro":"Bijela","name:ru":"Биела","name:sh":"Bijela","name:sl":"Bijela","name:sr":"Бијела","name:uk":"Бієла","name:sr-Latn":"Bijela"},"display_name":"Bijela, Opština Herceg Novi, Crna Gora / Црна Гора","address":{"town":"Bijela","county":"Opština Herceg Novi","ISO3166-2-lvl6":"ME-08","country":"Crna Gora / Црна Гора","country_code":"me"},"population":3691,"osm_type":"node","osm_id":255260894,"type":"town","location":[18.6542346,42.4544318],"bbox":[18.6142346,42.4144318,18.6942346,42.4944318],"border":{"name":"Bijela","other_names":{"name:sr":"Бијела","name:sr-Latn":"Bijela","name:bs":"Bijela","name:en":"Bijela","name:fr":"Bijela","name:hr":"Bijela","name:ml":"ബിയേല","name:ro":"Bijela","name:ru":"Биела","name:sh":"Bijela","name:sl":"Bijela","name:uk":"Бієла"},"display_name":"Bijela, Opština Herceg Novi, Crna Gora / Црна Гора","address":{"town":"Bijela","county":"Opština Herceg Novi","ISO3166-2-lvl6":"ME-08","country":"Crna Gora / Црна Гора","country_code":"me"},"population":3691,"osm_type":"relation","osm_id":2187903,"type":"administrative","location":[18.6542346,42.4544318],"bbox":[18.619688,42.4428357,18.6626651,42.4674559]}}
{"name":"Danilovgrad","other_names":{"name:be":"Данілаўград","name:bg":"Даниловград","name:ce":"Даниловград","name:en":"Danilovgrad","name:fa":"دانیلوفگراد","name:ja":"ダニロヴグラード","name:ka":"დანილოვგრადი","name:ko":"다닐로브그라드","name:lt":"Danilovgradas","name:ml":"ഡാനിലോവ്ഗ്രാഡ്","name:ru":"Даниловград","name:sq":"Danilovgradi","name:sr":"Даниловград","name:uk":"Даниловград","name:ur":"دانیلووگراد","name:zh":"達尼洛夫格勒","name:cnr":"Danilovgrad","name:sr-Latn":"Danilovgrad","name:zh-Hans":"达尼洛夫格勒","name:zh-Hant":"達尼洛夫格勒","name:cnr-Cyrl":"Даниловград"},"display_name":"Danilovgrad, Opština Danilovgrad, Crna Gora / Црна Гора","address":{"town":"Danilovgrad","county":"Opština Danilovgrad","ISO3166-2-lvl6":"ME-07","country":"Crna Gora / Црна Гора","country_code":"me"},"population":5156,"osm_type":"node","osm_id":426878932,"type":"town","location":[19.1053006,42.5524074],"bbox":[19.0653006,42.5124074,19.1453006,42.5924074],"border":{"name":"Danilovgrad","other_names":{"name:ru":"Даниловград","name:sr":"Даниловград","name:be":"Данілаўград","name:bg":"Даниловград","name:ce":"Даниловград","name:en":"Danilovgrad","name:fa":"دانیلوفگراد","name:ja":"ダニロヴグラード","name:ka":"დანილოვგრადი","name:ko":"다닐로브그라드","name:lt":"Danilovgradas","name:ml":"ഡാനിലോവ്ഗ്രാഡ്","name:sq":"Danilovgradi","name:uk":"Даниловград","name:ur":"دانیلووگراد","name:zh":"達尼洛夫格勒","name:cnr":"Danilovgrad","name:sr-Latn":"Danilovgrad","name:zh-Hans":"达尼洛夫格勒","name:zh-Hant":"達尼洛夫格勒","name:cnr-Cyrl":"Даниловград"},"display_name":"Danilovgrad, Opština Danilovgrad, Crna Gora / Црна Гора","address":{"town":"Danilovgrad","county":"Opština Danilovgrad","ISO3166-2-lvl6":"ME-07","country":"Crna Gora / Црна Гора","country_code":"me"},"population":5156,"osm_type":"way","osm_id":173013157,"type":"administrative","location":[19.1053006,42.5524074],"bbox":[19.0856691,42.5320036,19.1295311,42.5638072]}}
{"name":"Dobrota","other_names":{"name:en":"Dobrota","name:it":"Dobrota","name:ml":"ഡോബ്രോട്ട","name:ru":"Доброта","name:sr":"Доброта","name:uk":"Доброта","alt_name:it":"Bonentro;Sant'Eustachio"},"display_name":"Dobrota, Opština Kotor, Crna Gora / Црна Гора","address":{"town":"Dobrota","county":"Opština Kotor","ISO3166-2-lvl6":"ME-10","country":"Crna Gora / Црна Гора","country_code":"me"},"population":8169,"osm_type":"node","osm_id":705026141,"type":"town","location":[18.7669566,42.4562399],"bbox":[18.7269566,42.4162399,18.8069566,42.4962399],"border":{"name":"Dobrota","other_names":{"name:sr":"Доброта","name:sr-Latn":"Dobrota","name:en":"Dobrota","name:it":"Dobrota","name:ml":"ഡോബ്രോട്ട","name:ru":"Доброта","name:uk":"Доброта","alt_name:it":"Bonentro;Sant'Eustachio"},"display_name":"Dobrota, Opština Kotor, 85330, Crna Gora / Црна Гора","address":{"town":"Dobrota","county":"Opština Kotor","ISO3166-2-lvl6":"ME-10","postcode":"85330","country":"Crna Gora / Црна Гора","country_code":"me"},"population":8169,"osm_type":"relation","osm_id":12547630,"type":"administrative","location":[18.7669566,42.4562399],"bbox":[18.7616579,42.4267903,18.7847686,42.4877023]}}
{"name":"Gradac","other_names":{"name:ru":"Градац","name:sr":"Градац"},"display_name":"Gradac, Opština Pljevlja, Crna Gora / Црна Гора","address":{"town":"Gradac","county":"Opština Pljevlja","ISO3166-2-lvl6":"ME-14","country":"Crna Gora / Црна Гора","country_code":"me"},"population":296,"osm_type":"node","osm_id":2388129895,"type":"town","location":[19.1532752,43.3946117],"bbox":[19.1132752,43.3546117,19.1932752,43.4346117]}
{"name":"Gusinje","other_names":{"name:bg":"Гусине","name:cs":"Gusinje","name:de":"Gusinje","name:el":"Γκούσινιε","name:en":"Gusinje","name:es":"Gusinje","name:fa":"گوسینیه","name:fr":"Gusinje","name:it":"Gusinje","name:ja":"グシニェ","name:ko":"구시네","name:lt":"Gusinė","name:mk":"Гусиње","name:pl":"Gusinje","name:ro":"Gusinje","name:ru":"Гусине","name:sh":"Gusinje","name:sl":"Gusinje","name:sq":"Gucia","name:sr":"Гусиње","name:tr":"Gusinye","name:uk":"Гусинє","name:ur":"گوسینیے","name:zh":"古西涅","alt_name:sq":"Guci","name:sr-Latn":"Gusinje"},"display_name":"Gusinje, Opština Gusinje, 84326, Crna Gora / Црна Гора","address":{"town":"Gusinje","county":"Opština Gusinje","ISO3166-2-lvl6":"ME-22","postcode":"84326","country":"Crna Gora / Црна Гора","country_code":"me"},"population":1704,"osm_type":"node","osm_id":1927167879,"type":"town","location":[19.833253,42.5637693],"bbox":[19.793253,42.5237693,19.873253,42.6037693]}
{"name":"Herceg Novi","other_names":{"name:ar":"هرسك نوفي","name:az":"Herseq Novi","name:ba":"Херцег-Нови","name:be":"Херцэг-Нові","name:bg":"Херцег Нови","name:bs":"Herceg Novi","name:ce":"Херцег-Нови","name:el":"Χέρτσεγκ Νόβι","name:en":"Herceg Novi","name:es":"Herceg Novi","name:fa":"هرتسگ نووی","name:fr":"Herceg Novi","name:he":"הרצג נובי","name:hr":"Herceg Novi","name:hu":"Herceg Novi","name:it":"Castelnuovo","name:ja":"ヘルツェグ・ノヴィ","name:ka":"ჰერცეგ-ნოვი","name:ko":"헤르체그노비","name:la":"Castrum Novum","name:lt":"Herceg Novis","name:mk":"Херцег Нови","name:ml":"ഹെർസെഗ് നോവി","name:ps":"هرتسګ نووي","name:ro":"Herceg Novi","name:ru":"Херцег-Нови","name:sh":"Herceg Novi","name:sk":"Herceg Novi","name:sl":"Hercegnovi","name:sq":"Herceg Novi","name:sr":"Херцег Нови","name:tr":"Kastelnovo","name:uk":"Герцег-Новий","name:ur":"خیرتسیگ نووی","name:zh":"新海爾采格","name:cnr":"Herceg Novi","alt_name:el":"Κάστελνουόβο","alt_name:it":"Castelnuovo in Dalmazia;Castelnuovo di Cattaro","alt_name:la":"Novi;Castrum Novum Catharense;Castellum Novum Dalmatiae;Neocastrum;Novi in Dalmatia","alt_name:ml":"കാസ്റ്റൽനോവോ","alt_name:tr":"Kastelnova;Yeni Hersek","alt_name:uk":"Херцег-Новий","old_name:es":"Castelnovo","name:sr-Latn":"Herceg Novi","name:zh-Hans":"新海尔采格","name:zh-Hant":"新海爾采格","name:cnr-Cyrl":"Херцег Нови","short_name:it":"Castelnuovo"},"display_name":"Herceg Novi, Opština Herceg Novi, Crna Gora / Црна Гора","address":{"town":"Herceg Novi","county":"Opština Herceg Novi","ISO3166-2-lvl6":"ME-08","country":"Crna Gora / Црна Гора","country_code":"me"},"population":11059,"osm_type":"node","osm_id":123858919,"type":"town","location":[18.5367516,42.4517622],"bbox":[18.4967516,42.4117622,18.5767516,42.4917622],"border":{"name":"Herceg Novi","other_names":{"name:bg":"Херцег Нови","name:bs":"Herceg Novi","name:el":"Χέρτσεγκ Νόβι","name:en":"Herceg Novi","name:fr":"Herceg Novi","name:hr":"Herceg Novi","name:hu":"Herceg Novi","name:it":"Castelnuovo","name:lt":"Herceg Novis","name:mk":"Херцег Нови","name:ro":"Herceg Novi","name:ru":"Херцег-Нови","name:sh":"Herceg Novi","name:sk":"Herceg Novi","name:sl":"Hercegnovi","name:sq":"Herceg Novi","name:sr":"Херцег Нови","name:uk":"Херцег-Новий","name:zh":"新海爾采格","int_name":"Herceg Novi","name:cnr":"Herceg Novi","name:sr-Latn":"Herceg Novi","name:zh-Hans":"新海尔采格","name:zh-Hant":"新海爾采格","name:ar":"هرسك نوفي","name:az":"Herseq Novi","name:ba":"Херцег-Нови","name:be":"Херцэг-Нові","name:ce":"Херцег-Нови","name:es":"Herceg Novi","name:fa":"هرتسگ نووی","name:he":"הרצג נובי","name:ja":"ヘルツェグ・ノヴィ","name:ka":"ჰერცეგ-ნოვი","name:ko":"헤르체그노비","name:la":"Castrum Novum","name:ml":"ഹെർസെഗ് നോവി","name:ps":"هرتسګ نووي","name:tr":"Kastelnovo","name:ur":"خیرتسیگ نووی","alt_name:el":"Κάστελνουόβο","alt_name:it":"Castelnuovo in Dalmazia;Castelnuovo di Cattaro","alt_name:la":"Novi;Castrum Novum Catharense;Castellum Novum Dalmatiae;Neocastrum;Novi in Dalmatia","alt_name:ml":"കാസ്റ്റൽനോവോ","alt_name:tr":"Kastelnova;Yeni Hersek","alt_name:uk":"Херцег-Новий","old_name:es":"Castelnovo","name:cnr-Cyrl":"Херцег Нови","short_name:it":"Castelnuovo","alt:uk":"Герцег-Новий"},"display_name":"Herceg Novi, Opština Herceg Novi, 85340, Crna Gora / Црна Гора","address":{"town":"Herceg Novi","county":"Opština Herceg Novi","ISO3166-2-lvl6":"ME-08","postcode":"85340","country":"Crna Gora / Црна Гора","country_code":"me"},"population":11059,"osm_type":"relation","osm_id":2187904,"type":"administrative","location":[18.5367516,42.4517622],"bbox":[18.5141141,42.4490736,18.5624172,42.4661307]}}
{"name":"Igalo","other_names":{"name:bs":"Igalo","name:el":"Ίγκαλο","name:en":"Igalo","name:fr":"Igalo","name:hr":"Igalo","name:it":"Igalo","name:mk":"Игало","name:ml":"ഇഗാലോ","name:ro":"Igalo","name:ru":"Игало","name:sh":"Igalo","name:sl":"Igalo","name:sr":"Игало","name:uk":"Іхало","name:sr-Latn":"Igalo"},"display_name":"Igalo, Opština Herceg Novi, Crna Gora / Црна Гора","address":{"town":"Igalo","county":"Opština Herceg Novi","ISO3166-2-lvl6":"ME-08","country":"Crna Gora / Црна Гора","country_code":"me"},"population":3355,"osm_type":"node","osm_id":1435479087,"type":"town","location":[18.5106652,42.4587283],"bbox":[18.4706652,42.4187283,18.5506652,42.4987283],"border":{"name":"Igalo","other_names":{"name:el":"Ίγκαλο","name:en":"Igalo","name:fr":"Igalo","name:hr":"Igalo","name:it":"Igalo","name:mk":"Игало","name:ro":"Igalo","name:ru":"Игало","name:sh":"Igalo","name:sl":"Igalo","name:sr":"Игало","name:uk":"Іхало","name:sr-Latn":"Igalo","name:bs":"Igalo","name:ml":"ഇഗാലോ"},"display_name":"Igalo, Opština Herceg Novi, 85347, Crna Gora / Црна Гора","address":{"town":"Igalo","county":"Opština Herceg Novi","ISO3166-2-lvl6":"ME-08","postcode":"85347","country":"Crna Gora / Црна Гора","country_code":"me"},"population":3355,"osm_type":"relation","osm_id":2187905,"type":"administrative","location":[18.5106652,42.4587283],"bbox":[18.4981634,42.4529261,18.516964,42.4649668]}}
{"name":"Kolašin","other_names":{"name:bg":"Колашин","name:ce":"Колашин","name:fa":"کولاشین","name:fr":"Kolašin","name:he":"קולאשין","name:ja":"コラシン","name:ka":"კოლაშინი","name:ko":"콜라신","name:lt":"Kolašinas","name:ml":"കൊളാഷിൻ","name:ru":"Колашин","name:sq":"Koloshini","name:sr":"Колашин","name:tr":"Kolaşin","name:uk":"Колашин","name:ur":"کولاشن","name:zh":"科拉欣","name:cnr":"Kolašin","alt_name:sq":"Koloshin","name:cnr-Cyrl":"Колашин"},"display_name":"Kolašin, Opština Kolašin, Crna Gora / Црна Гора","address":{"town":"Kolašin","county":"Opština Kolašin","ISO3166-2-lvl6":"ME-09","country":"Crna Gora / Црна Гора","country_code":"me"},"population":2725,"osm_type":"node","osm_id":289905750,"type":"town","location":[19.5218005,42.8238387],"bbox":[19.4818005,42.7838387,19.5618005,42.8638387],"border":{"name":"Kolašin","other_names":{"name:bg":"Колашин","name:ce":"Колашин","name:fa":"کولاشین","name:fr":"Kolašin","name:he":"קולאשין","name:ja":"コラシン","name:ka":"კოლაშინი","name:ko":"콜라신","name:lt":"Kolašinas","name:ru":"Колашин","name:sq":"Koloshini","name:sr":"Колашин","name:tr":"Kolaşin","name:uk":"Колашин","name:ur":"کولاشن","int_name":"Kolašin","alt_name:sq":"Koloshin","name:ml":"കൊളാഷിൻ","name:zh":"科拉欣","name:cnr":"Kolašin","name:cnr-Cyrl":"Колашин"},"display_name":"Kolašin, Opština Kolašin, Crna Gora / Црна Гора","address":{"town":"Kolašin","county":"Opština Kolašin","ISO3166-2-lvl6":"ME-09","country":"Crna Gora / Црна Гора","country_code":"me"},"population":2725,"osm_type":"relation","osm_id":18367401,"type":"administrative","location":[19.5218005,42.8238387],"bbox":[19.5096738,42.8127881,19.5330017,42.8288915]}}
{"name":"Kotor","other_names":{"name:ar":"كوتور","name:be":"Котар","name:bg":"Котор","name:cv":"Котор","name:el":"Κότορ","name:fa":"کوتور","name:he":"קוטור","name:hy":"Կոտոր","name:it":"Cattaro","name:ja":"コトル","name:ka":"კოტორი","name:ko":"코토르","name:la":"Catharum","name:lt":"Kotoras","name:lv":"Kotora","name:mk":"Котор","name:ml":"കോട്ടോർ","name:os":"Котор","name:ru":"Котор","name:sq":"Kotorri","name:sr":"Котор","name:uk":"Котор","name:ur":"کوتور","name:zh":"科托爾","name:cnr":"Kotor","name:grc":"Ασκρήβιον","name:vec":"Càtaro","name:wuu":"科托尔","alt_name:la":"Ascrivium","name:zh-Hans":"科托尔","name:zh-Hant":"科托爾"},"display_name":"Kotor, Opština Kotor, 85339, Crna Gora / Црна Гора","address":{"town":"Kotor","county":"Opština Kotor","ISO3166-2-lvl6":"ME-10","postcode":"85339","country":"Crna Gora / Црна Гора","country_code":"me"},"population":961,"osm_type":"node","osm_id":29052086,"type":"town","location":[18.7713332,42.4249205],"bbox":[18.7313332,42.3849205,18.8113332,42.4649205],"border":{"name":"Kotor","other_names":{"name:it":"Cattaro","name:ru":"Котор","name:sr":"Котор","int_name":"Kotor","name:cnr":"Kotor","name:sr-Latn":"Kotor","name:ar":"كوتور","name:be":"Котар","name:bg":"Котор","name:cv":"Котор","name:el":"Κότορ","name:fa":"کوتور","name:he":"קוטור","name:hy":"Կոտոր","name:ja":"コトル","name:ka":"კოტორი","name:ko":"코토르","name:la":"Catharum","name:lt":"Kotoras","name:lv":"Kotora","name:mk":"Котор","name:ml":"കോട്ടോർ","name:os":"Котор","name:sq":"Kotorri","name:uk":"Котор","name:ur":"کوتور","name:zh":"科托爾","name:grc":"Ασκρήβιον","name:vec":"Càtaro","name:wuu":"科托尔","alt_name:la":"Ascrivium","name:zh-Hans":"科托尔","name:zh-Hant":"科托爾"},"display_name":"Kotor, Opština Kotor, 85339, Crna Gora / Црна Гора","address":{"town":"Kotor","county":"Opština Kotor","ISO3166-2-lvl6":"ME-10","postcode":"85339","country":"Crna Gora / Црна Гора","country_code":"me"},"population":961,"osm_type":"relation","osm_id":18452118,"type":"administrative","location":[18.7713332,42.4249205],"bbox":[18.7662953,42.4211579,18.7747736,42.4274683]}}
{"name":"Mojkovac","other_names":{"name:ar":"مويكوفاتش","name:bg":"Мойковац","name:el":"Μόικοβατς","name:fa":"مویکوواس","name:ja":"モイコヴァツ","name:ka":"მოიკოვაცი","name:ko":"모이코바츠","name:lt":"Moikovacas","name:ml":"മൊയ്‌കോവാറ്റ്‌സ്","name:ru":"Мойковац","name:sq":"Mojkovaci","name:sr":"Мојковац","name:tr":"Moykova","name:uk":"Мойковац","name:ur":"مویکوواتس","name:zh":"莫伊科瓦茨","name:cnr":"Mojkovac","name:sr-Latn":"Mojkovac"},"display_name":"Mojkovac, Opština Mojkovac, Crna Gora / Црна Гора","address":{"town":"Mojkovac","county":"Opština Mojkovac","ISO3166-2-lvl6":"ME-11","country":"Crna Gora / Црна Гора","country_code":"me"},"population":3590,"osm_type":"node","osm_id":313120480,"type":"town","location":[19.5799899,42.9624908],"bbox":[19.5399899,42.9224908,19.6199899,43.0024908],"border":{"name":"Mojkovac","other_names":{"name:ar":"مويكوفاتش","name:bg":"Мойковац","name:el":"Μόικοβατς","name:fa":"مویکوواس","name:ja":"モイコヴァツ","name:ka":"მოიკოვაცი","name:ko":"모이코바츠","name:lt":"Moikovacas","name:ru":"Мойковац","name:sq":"Mojkovaci","name:sr":"Мојковац","name:uk":"Мойковац","name:ur":"مویکوواتس","name:sr-Latn":"Mojkovac","name:ml":"മൊയ്‌കോവാറ്റ്‌സ്","name:tr":"Moykova","name:zh":"莫伊科瓦茨","name:cnr":"Mojkovac"},"display_name":"Mojkovac, Opština Mojkovac, Crna Gora / Црна Гора","address":{"town":"Mojkovac","county":"Opština Mojkovac","ISO3166-2-lvl6":"ME-11","country":"Crna Gora / Црна Гора","country_code":"me"},"population":3590,"osm_type":"way","osm_id":431843720,"type":"administrative","location":[19.5799899,42.9624908],"bbox":[19.5550867,42.9483977,19.5969935,42.9736797]}}
{"name":"Perast","other_names":{"name:it":"Perasto","name:ml":"പെറാസ്റ്റ്","name:ru":"Пераст","name:sr":"Пераст"},"display_name":"Perast, Opština Kotor, 85336, Crna Gora / Црна Гора","address":{"town":"Perast","county":"Opština Kotor","ISO3166-2-lvl6":"ME-10","postcode":"85336","country":"Crna Gora / Црна Гора","country_code":"me"},"population":349,"osm_type":"node","osm_id":48069998,"type":"town","location":[18.6988592,42.4862681],"bbox":[18.6588592,42.4462681,18.7388592,42.5262681]}
{"name":"Petnjica","other_names":{"name:bg":"Петница","name:bs":"Petnjica","name:en":"Petnjica","name:fa":"پتنیکا","name:ja":"ペトニツァ","name:ko":"페트니차","name:ml":"പെറ്റ്നിറ്റ്സ","name:ru":"Петница","name:sh":"Petnjica","name:sr":"Петњица","name:tr":"Petnitsa","name:uk":"Петніця","name:ur":"پیتنئیتسا","name:zh":"佩特尼察","name:sr-Latn":"Petnjica"},"display_name":"Petnjica, Opština Petnjica, Crna Gora / Црна Гора","address":{"town":"Petnjica","county":"Opština Petnjica","ISO3166-2-lvl6":"ME-23","country":"Crna Gora / Црна Гора","country_code":"me"},"population":539,"osm_type":"node","osm_id":338462696,"type":"town","location":[19.9637412,42.9090825],"bbox":[19.9237412,42.8690825,20.0037412,42.9490825],"border":{"name":"Petnjica","other_names":{"name:bg":"Петница","name:bs":"Petnjica","name:en":"Petnjica","name:fa":"پتنیکا","name:ja":"ペトニツァ","name:ko":"페트니차","name:ml":"പെറ്റ്നിറ്റ്സ","name:ru":"Петница","name:sh":"Petnjica","name:sr":"Петњица","name:tr":"Petnitsa","name:uk":"Петніця","name:ur":"پیتنئیتسا","name:zh":"佩特尼察","name:sr-Latn":"Petnjica"},"display_name":"Petnjica, Opština Petnjica, Crna Gora / Црна Гора","address":{"town":"Petnjica","county":"Opština Petnjica","ISO3166-2-lvl6":"ME-23","country":"Crna Gora / Црна Гора","country_code":"me"},"population":539,"osm_type":"relation","osm_id":19157334,"type":"administrative","location":[19.9637412,42.9090825],"bbox":[19.9373796,42.8934004,19.9773064,42.9114477]}}
{"name":"Petrovac na Moru","other_names":{"name:it":"Castellastua","name:ml":"പെട്രോവാറ്റ്‌സ്","name:ru":"Петровац","name:sr":"Петровац на Мору","name:uk":"Петровац","alt_name":"Petrovac","int_name":"Petrovac","alt_name:it":"Castel Lastua","name:sr-Latn":"Petrovac na Moru"},"display_name":"Petrovac na Moru, Opština Budva, 85300, Crna Gora / Црна Гора","address":{"town":"Petrovac na Moru","county":"Opština Budva","ISO3166-2-lvl6":"ME-05","postcode":"85300","country":"Crna Gora / Црна Гора","country_code":"me"},"population":1485,"osm_type":"node","osm_id":705456583,"type":"town","location":[18.9428248,42.2068358],"bbox":[18.9028248,42.1668358,18.9828248,42.2468358],"border":{"name":"Petrovac na Moru","other_names":{"name:it":"Castellastua","name:ru":"Петровац","name:sr":"Петровац","alt_name":"Petrovac","int_name":"Petrovac","alt_name:it":"Castel Lastua","name:ml":"പെട്രോവാറ്റ്‌സ്","name:uk":"Петровац","name:sr-Latn":"Petrovac na Moru","alt:sr":"Петровац на Мору"},"display_name":"Petrovac na Moru, Opština Budva, Crna Gora / Црна Гора","address":{"town":"Petrovac na Moru","county":"Opština Budva","ISO3166-2-lvl6":"ME-05","country":"Crna Gora / Црна Гора","country_code":"me"},"population":1485,"osm_type":"way","osm_id":224470365,"type":"town","location":[18.9428248,42.2068358],"bbox":[18.9348713,42.20239,18.9503456,42.2108475]}}
{"name":"Plav","other_names":{"name:be":"Плаў","name:bg":"Плав","name:el":"Πλαβ","name:en":"Plav","name:fa":"پلاو","name:ja":"プラヴ","name:ka":"პლავი","name:kk":"Плав","name:ko":"플라브","name:lt":"Plavas","name:mk":"Плав","name:ru":"Плав","name:sq":"Plava","name:sr":"Плав","name:uk":"Плав","name:ur":"پلاو","name:zh":"普拉夫","int_name":"Plav","name:cnr":"Plav","name:pnb":"پلاو","alt_name:sq":"Plavë","name:sr-Latn":"Plav"},"display_name":"Plav, Opština Plav, Crna Gora / Црна Гора","address":{"town":"Plav","county":"Opština Plav","ISO3166-2-lvl6":"ME-13","country":"Crna Gora / Црна Гора","country_code":"me"},"population":3615,"osm_type":"node","osm_id":335731660,"type":"town","location":[19.9441846,42.5968969],"bbox":[19.9041846,42.5568969,19.9841846,42.6368969],"border":{"name":"Plav","other_names":{"name:be":"Плаў","name:bg":"Плав","name:el":"Πλαβ","name:en":"Plav","name:fa":"پلاو","name:ja":"プラヴ","name:ka":"პლავი","name:kk":"Плав","name:ko":"플라브","name:lt":"Plavas","name:mk":"Плав","name:ru":"Плав","name:sq":"Plavë","name:sr":"Плав","name:uk":"Плав","name:ur":"پلاو","int_name":"Plav","name:pnb":"پلاو","alt_name:sq":"Plava","name:sr-Latn":"Plav","name:zh":"普拉夫","name:cnr":"Plav","_place_alt_name:sq":"Plavë","alt:sq":"Plava"},"display_name":"Plav, Opština Plav, 84325, Crna Gora / Црна Гора","address":{"town":"Plav","county":"Opština Plav","ISO3166-2-lvl6":"ME-13","postcode":"84325","country":"Crna Gora / Црна Гора","country_code":"me"},"population":3615,"osm_type":"way","osm_id":1255501570,"type":"administrative","location":[19.9441846,42.5968969],"bbox":[19.927268,42.5906971,19.9496967,42.6104169]}}
{"name":"Plužine","other_names":{"name:bg":"Плужине","name:fa":"پلوژینه","name:ja":"プルジネ","name:ka":"პლუჟინე","name:ko":"플루지네","name:lt":"Plužinė","name:ml":"പ്ലുജിനെ","name:ru":"Плужине","name:sq":"Pluzhina","name:sr":"Плужине","name:uk":"Плужине","name:ur":"پلوژینے","name:sr-Latn":"Plužine","name:zh-Hans":"普卢日内","name:zh-Hant":"普盧日內"},"display_name":"Plužine, Opština Plužine, Crna Gora / Црна Гора","address":{"town":"Plužine","county":"Opština Plužine","ISO3166-2-lvl6":"ME-15","country":"Crna Gora / Црна Гора","country_code":"me"},"population":1341,"osm_type":"node","osm_id":255352645,"type":"town","location":[18.8452248,43.1562282],"bbox":[18.8052248,43.1162282,18.8852248,43.1962282]}
{"name":"Prčanj","other_names":{"name:it":"Perzagno","name:ml":"പ്രച്ചാനി","name:ru":"Прчань","name:sr":"Прчањ"},"display_name":"Prčanj, Opština Kotor, 85335, Crna Gora / Црна Гора","address":{"town":"Prčanj","county":"Opština Kotor","ISO3166-2-lvl6":"ME-10","postcode":"85335","country":"Crna Gora / Црна Гора","country_code":"me"},"population":1130,"osm_type":"node","osm_id":705225047,"type":"town","location":[18.753071,42.4490017],"bbox":[18.713071,42.4090017,18.793071,42.4890017]}
{"name":"Rijeka Crnojevića","other_names":{"name:ml":"റിയേക്ക ചെർണോയേവിച്ച","name:ru":"Риека Црноевича","name:sr":"Ријека Црнојевића","name:sr-Latn":"Rijeka Crnojevića"},"display_name":"Rijeka Crnojevića, Prijestolnica Cetinje, Crna Gora / Црна Гора","address":{"town":"Rijeka Crnojevića","county":"Prijestolnica Cetinje","ISO3166-2-lvl6":"ME-06","country":"Crna Gora / Црна Гора","country_code":"me"},"population":175,"osm_type":"node","osm_id":529467160,"type":"town","location":[19.0226515,42.3563513],"bbox":[18.9826515,42.3163513,19.0626515,42.3963513]}
{"name":"Risan","other_names":{"name:it":"Risano","name:ml":"റിസാൻ","name:pl":"Risan","name:ru":"Рисан","name:sr":"Рисан","name:uk":"Рісан"},"display_name":"Risan, Opština Kotor, 85337, Crna Gora / Црна Гора","address":{"town":"Risan","county":"Opština Kotor","ISO3166-2-lvl6":"ME-10","postcode":"85337","country":"Crna Gora / Црна Гора","country_code":"me"},"population":2034,"osm_type":"node","osm_id":425487395,"type":"town","location":[18.6955649,42.5149792],"bbox":[18.6555649,42.4749792,18.7355649,42.5549792]}
{"name":"Rožaje","other_names":{"name:ar":"روجايي","name:bg":"Рожае","name:bs":"Rožaje","name:el":"Ρόζαγιε","name:fa":"روژایه","name:hr":"Rožaje","name:ja":"ロジャイェ","name:ka":"როჟაიე","name:ko":"로자예","name:lt":"Rožajė","name:mk":"Рожае","name:ml":"റോജായെ","name:ru":"Рожае","name:sq":"Rozhajë","name:sr":"Рожаје","name:tr":"Ruşye","name:uk":"Рожає","name:ur":"روژایے","alt_name":"Rozaje","name:cnr":"Rožaje","alt_name:el":"Ρόζαγε","alt_name:mk":"Рожаје","alt_name:sq":"Rozhaja","alt_name:tr":"Roşya;Rojay","name:zh-Hans":"罗扎伊","name:zh-Hant":"羅扎伊"},"display_name":"Rožaje, Opština Rožaje, Crna Gora / Црна Гора","address":{"town":"Rožaje","county":"Opština Rožaje","ISO3166-2-lvl6":"ME-17","country":"Crna Gora / Црна Гора","country_code":"me"},"population":22693,"osm_type":"node","osm_id":307861977,"type":"town","location":[20.1679653,42.8433181],"bbox":[20.1279653,42.8033181,20.2079653,42.8833181],"border":{"name":"Rožaje","other_names":{"name:ar":"روجايي","name:bg":"Рожае","name:bs":"Rožaje","name:el":"Ρόζαγιε","name:fa":"روژایه","name:hr":"Rožaje","name:ja":"ロジャイェ","name:ka":"როჟაიე","name:ko":"로자예","name:lt":"Rožajė","name:mk":"Рожае","name:ml":"റോജായെ","name:ru":"Рожае","name:sq":"Rozhajë","name:sr":"Рожаје","name:tr":"Ruşye","name:uk":"Рожає","name:ur":"روژایے","alt_name":"Rozaje","name:cnr":"Rožaje","alt_name:el":"Ρόζαγε","alt_name:mk":"Рожаје","alt_name:sq":"Rozhaja","alt_name:tr":"Roşya;Rojay","name:zh-Hans":"罗扎伊","name:zh-Hant":"羅扎伊"},"display_name":"Rožaje, Opština Rožaje, 84310, Crna Gora / Црна Гора","address":{"town":"Rožaje","county":"Opština Rožaje","ISO3166-2-lvl6":"ME-17","postcode":"84310","country":"Crna Gora / Црна Гора","country_code":"me"},"population":22693,"osm_type":"relation","osm_id":18371630,"type":"administrative","location":[20.1679653,42.8433181],"bbox":[20.1477593,42.8214746,20.1985743,42.8677998]}}
{"name":"Šavnik","other_names":{"name:bg":"Шавник","name:ja":"シャヴニク","name:ka":"შავნიკი","name:ko":"샤브니크","name:lt":"Šavnikas","name:ml":"ഷാവ്‌നിക്ക്","name:ru":"Шавник","name:sq":"Shavniku","name:sr":"Шавник","name:uk":"Шавник","name:ur":"شاونیک","name:zh":"沙夫尼克","int_name":"Savnik","name:sr-Latn":"Šavnik"},"display_name":"Šavnik, Opština Šavnik, Crna Gora / Црна Гора","address":{"town":"Šavnik","county":"Opština Šavnik","ISO3166-2-lvl6":"ME-18","country":"Crna Gora / Црна Гора","country_code":"me"},"population":570,"osm_type":"node","osm_id":717568839,"type":"town","location":[19.0946043,42.957197],"bbox":[19.0546043,42.917197,19.1346043,42.997197],"border":{"name":"Šavnik","other_names":{"name:ru":"Шавник","name:sr":"Шавник","alt_name":"Шавник","int_name":"Savnik","name:bg":"Шавник","name:ja":"シャヴニク","name:ka":"შავნიკი","name:ko":"샤브니크","name:lt":"Šavnikas","name:ml":"ഷാവ്‌നിക്ക്","name:sq":"Shavniku","name:uk":"Шавник","name:ur":"شاونیک","name:zh":"沙夫尼克","name:sr-Latn":"Šavnik"},"display_name":"Šavnik, Opština Šavnik, Crna Gora / Црна Гора","address":{"town":"Šavnik","county":"Opština Šavnik","ISO3166-2-lvl6":"ME-18","country":"Crna Gora / Црна Гора","country_code":"me"},"population":570,"osm_type":"way","osm_id":173535433,"type":"town","location":[19.0946043,42.957197],"bbox":[19.0900076,42.9506982,19.1017638,42.9629294]}}
{"name":"Spuž","other_names":{"name:ru":"Спуж","name:sr":"Спуж"},"display_name":"Spuž, Opština Danilovgrad, 81412, Crna Gora / Црна Гора","address":{"town":"Spuž","county":"Opština Danilovgrad","ISO3166-2-lvl6":"ME-07","postcode":"81412","country":"Crna Gora / Црна Гора","country_code":"me"},"population":1696,"osm_type":"node","osm_id":446301675,"type":"town","location":[19.1969185,42.5107033],"bbox":[19.1569185,42.4707033,19.2369185,42.5507033]}
{"name":"Stari Bar","other_names":{"name:it":"Antivari Vecchia","name:ru":"Старый Бар","name:sq":"Tivari i Vjetër","name:sr":"Стари Бар","name:sr-Latn":"Stari Bar"},"display_name":"Stari Bar, Opština Bar, Crna Gora / Црна Гора","address":{"town":"Stari Bar","county":"Opština Bar","ISO3166-2-lvl6":"ME-02","country":"Crna Gora / Црна Гора","country_code":"me"},"population":1864,"osm_type":"node","osm_id":421275620,"type":"town","location":[19.1338353,42.093943],"bbox":[19.0938353,42.053943,19.1738353,42.133943],"border":{"name":"Stari Bar","other_names":{"name:it":"Antivari Vecchia","name:ru":"Старый Бар","name:sr":"Стари Бар","name:sq":"Tivari i Vjetër","name:sr-Latn":"Stari Bar"},"display_name":"Stari Bar, Opština Bar, 85354, Crna Gora / Црна Гора","address":{"town":"Stari Bar","county":"Opština Bar","ISO3166-2-lvl6":"ME-02","postcode":"85354","country":"Crna Gora / Црна Гора","country_code":"me"},"population":1864,"osm_type":"relation","osm_id":10330757,"type":"administrative","location":[19.1338353,42.093943],"bbox":[19.1219574,42.0853764,19.1423813,42.1108681]}}
{"name":"Sutomore","other_names":{"name:it":"Spizza","name:mk":"Сутоморе","name:ml":"സുട്ടോമോറെ","name:ru":"Сутоморе","name:sq":"Spiçi","name:sr":"Сутоморе","name:uk":"Сутоморе","alt_name:it":"Santa Maria degli Ospizi","name:sr-Latn":"Sutomore"},"display_name":"Sutomore, Opština Bar, Crna Gora / Црна Гора","address":{"town":"Sutomore","county":"Opština Bar","ISO3166-2-lvl6":"ME-02","country":"Crna Gora / Црна Гора","country_code":"me"},"population":1827,"osm_type":"node","osm_id":705473322,"type":"town","location":[19.0429902,42.1426733],"bbox":[19.0029902,42.1026733,19.0829902,42.1826733],"border":{"name":"Sutomore","other_names":{"name:it":"Spizza","name:ru":"Сутоморе","name:sr":"Сутоморе","alt_name:it":"Santa Maria degli Ospizi","name:mk":"Сутоморе","name:ml":"സുട്ടോമോറെ","name:sq":"Spiçi","name:uk":"Сутоморе","name:sr-Latn":"Sutomore"},"display_name":"Sutomore, Opština Bar, 85355, Crna Gora / Црна Гора","address":{"town":"Sutomore","county":"Opština Bar","ISO3166-2-lvl6":"ME-02","postcode":"85355","country":"Crna Gora / Црна Гора","country_code":"me"},"population":1827,"osm_type":"relation","osm_id":10362492,"type":"administrative","location":[19.0429902,42.1426733],"bbox":[19.0243737,42.1217322,19.0705333,42.155705]}}
{"name":"Sveti Stefan","other_names":{"name:ar":"سويتي ستيفان","name:bg":"Свети Стефан","name:el":"Σβέτι Στέφαν","name:en":"Sveti Stefan","name:fa":"اسوتی استفان","name:it":"Santo Stefano","name:ja":"スヴェティ・ステファン","name:ka":"სვეტი-სტეფანი","name:ko":"스베티스테판","name:lt":"Sveti Stefanas","name:mk":"Свети Стефан","name:ml":"സ്വെറ്റി സ്റ്റെഫാൻ","name:ru":"Свети-Стефан","name:sq":"Sveti Stefani","name:sr":"Свети Стефан","name:uk":"Светий Стефан","alt_name:el":"Άγιος Στέφανος","alt_name:it":"Santo Stefano di Pastrovicchio","name:sr-Latn":"Sveti Stefan","name:zh-Hans":"圣斯特凡","name:zh-Hant":"聖斯特凡"},"display_name":"Sveti Stefan, Opština Budva, Crna Gora / Црна Гора","address":{"town":"Sveti Stefan","county":"Opština Budva","ISO3166-2-lvl6":"ME-05","country":"Crna Gora / Црна Гора","country_code":"me"},"population":364,"osm_type":"node","osm_id":422867965,"type":"town","location":[18.89695,42.2556515],"bbox":[18.85695,42.2156515,18.93695,42.2956515],"border":{"name":"Sveti Stefan","other_names":{"name:ar":"سويتي ستيفان","name:bg":"Свети Стефан","name:el":"Σβέτι Στέφαν","name:en":"Sveti Stefan","name:fa":"اسوتی استفان","name:it":"Santo Stefano","name:ja":"スヴェティ・ステファン","name:ka":"სვეტი-სტეფანი","name:ko":"스베티스테판","name:lt":"Sveti Stefanas","name:mk":"Свети Стефан","name:ml":"സ്വെറ്റി സ്റ്റെഫാൻ","name:ru":"Свети-Стефан","name:sq":"Sveti Stefani","name:sr":"Свети Стефан","name:uk":"Светий Стефан","alt_name:el":"Άγιος Στέφανος","alt_name:it":"Santo Stefano di Pastrovicchio","name:sr-Latn":"Sveti Stefan","name:zh-Hans":"圣斯特凡","name:zh-Hant":"聖斯特凡"},"display_name":"Sveti Stefan, Opština Budva, 85315, Crna Gora / Црна Гора","address":{"town":"Sveti Stefan","county":"Opština Budva","ISO3166-2-lvl6":"ME-05","postcode":"85315","country":"Crna Gora / Црна Гора","country_code":"me"},"population":364,"osm_type":"relation","osm_id":14861567,"type":"administrative","location":[18.89695,42.2556515],"bbox":[18.8901412,42.2431304,18.9041125,42.2623266]}}
{"name":"Tivat","other_names":{"name:ar":"تيفات","name:be":"Ціват","name:bg":"Тиват","name:el":"Τίβατ","name:en":"Tivat","name:fa":"تیوات","name:he":"טיווט","name:it":"Teodo","name:ja":"ティヴァト","name:ka":"ტივატი","name:ko":"티바트","name:la":"Theudum","name:lt":"Tivatas","name:mk":"Тиват","name:ml":"ടിവാറ്റ്","name:ru":"Тиват","name:sq":"Tivati","name:sr":"Тиват","name:uk":"Тиват","name:ur":"تیوات","name:zh":"蒂瓦特","name:cnr":"Tivat","name:grc":"Θείοδος","alt_name:he":"טאודו","alt_name:la":"Theodum;Teude;Theode","name:sr-Latn":"Tivat"},"display_name":"Tivat, Opština Tivat, Crna Gora / Црна Гора","address":{"town":"Tivat","county":"Opština Tivat","ISO3166-2-lvl6":"ME-19","country":"Crna Gora / Црна Гора","country_code":"me"},"population":9367,"osm_type":"node","osm_id":308687242,"type":"town","location":[18.6988104,42.4303762],"bbox":[18.6588104,42.3903762,18.7388104,42.4703762],"border":{"name":"Tivat","other_names":{"name:it":"Teodo","name:ru":"Тиват","name:sr":"Тиват","name:ar":"تيفات","name:be":"Ціват","name:bg":"Тиват","name:el":"Τίβατ","name:en":"Tivat","name:fa":"تیوات","name:he":"טיווט","name:ja":"ティヴァト","name:ka":"ტივატი","name:ko":"티바트","name:la":"Theudum","name:lt":"Tivatas","name:mk":"Тиват","name:ml":"ടിവാറ്റ്","name:sq":"Tivati","name:uk":"Тиват","name:ur":"تیوات","name:zh":"蒂瓦特","name:cnr":"Tivat","name:grc":"Θείοδος","alt_name:he":"טאודו","alt_name:la":"Theodum;Teude;Theode","name:sr-Latn":"Tivat"},"display_name":"Tivat, Opština Tivat, Crna Gora / Црна Гора","address":{"town":"Tivat","county":"Opština Tivat","ISO3166-2-lvl6":"ME-19","country":"Crna Gora / Црна Гора","country_code":"me"},"population":9367,"osm_type":"relation","osm_id":12492506,"type":"administrative","location":[18.6988104,42.4303762],"bbox":[18.6843677,42.4175175,18.7237014,42.4462072]}}
{"name":"Tuzi","other_names":{"name:bg":"Тузи","name:en":"Tuzi","name:ja":"トゥジ","name:ko":"투지","name:lt":"Tuzai","name:ru":"Тузи","name:sq":"Tuz","name:sr":"Тузи","name:tr":"Tuz","name:uk":"Тузі","name:ur":"توزی","alt_name:ja":"トゥズ","alt_name:sq":"Tuz","name:sr-Latn":"Tuzi","name:zh-Hans":"图齐","name:zh-Hant":"圖齊"},"display_name":"Tuzi, Opština Tuzi, Crna Gora / Црна Гора","address":{"town":"Tuzi","county":"Opština Tuzi","ISO3166-2-lvl6":"ME-24","country":"Crna Gora / Црна Гора","country_code":"me"},"population":4748,"osm_type":"node","osm_id":1693756765,"type":"town","location":[19.3300881,42.3661526],"bbox":[19.2900881,42.3261526,19.3700881,42.4061526],"border":{"name":"Tuzi","other_names":{"name:ru":"Тузи","name:sq":"Tuz","name:sr":"Тузи","name:bg":"Тузи","name:en":"Tuzi","name:ja":"トゥジ","name:ko":"투지","name:lt":"Tuzai","name:tr":"Tuz","name:uk":"Тузі","name:ur":"توزی","alt_name:ja":"トゥズ","alt_name:sq":"Tuz","name:sr-Latn":"Tuzi","name:zh-Hans":"图齐","name:zh-Hant":"圖齊"},"display_name":"Tuzi, Opština Tuzi, 81206, Crna Gora / Црна Гора","address":{"town":"Tuzi","county":"Opština Tuzi","ISO3166-2-lvl6":"ME-24","postcode":"81206","country":"Crna Gora / Црна Гора","country_code":"me"},"population":4748,"osm_type":"relation","osm_id":3750229,"type":"administrative","location":[19.3300881,42.3661526],"bbox":[19.2782241,42.3504967,19.347627,42.3962822]}}
{"name":"Ulcinj - Ulqin","other_names":{"name:ar":"أولسيني","name:az":"Ulsin","name:be":"Улцынь","name:bg":"Улцин","name:bs":"Ulcinj","name:el":"Ούλτσιν","name:fa":"اولتسینی","name:he":"אולצין","name:hr":"Ulcinj","name:it":"Dulcigno","name:ja":"ウルツィニ","name:ka":"ულცინი","name:ko":"울친","name:la":"Ulcinium","name:lt":"Ulcinis","name:lv":"Ulciņa","name:mk":"Улцињ","name:ml":"ഉൽസിൻ","name:ru":"Улцинь","name:sq":"Ulqin","name:sr":"Улцињ","name:tr":"Ülgün","name:uk":"Ульцинь","name:ur":"اولتسینی","name:azb":"اولتسینی","name:grc":"Ὀλκίνιον","alt_name:el":"Ολκίνιο","alt_name:la":"Olcinium;Dulcinia;Dulcinium;Olchinium","alt_name:sq":"Ulqini","alt_name:grc":"Κολχίνιον","name:sr-Latn":"Ulcinj","name:zh-Hans":"乌尔齐尼","name:zh-Hant":"烏爾齊尼","name:be-tarask":"Улцынь"},"display_name":"Ulcinj - Ulqin, Opština Ulcinj - Komuna e Ulqinit, Crna Gora / Црна Гора","address":{"town":"Ulcinj - Ulqin","county":"Opština Ulcinj - Komuna e Ulqinit","ISO3166-2-lvl6":"ME-20","country":"Crna Gora / Црна Гора","country_code":"me"},"population":10707,"osm_type":"node","osm_id":192271967,"type":"town","location":[19.2055563,41.926012],"bbox":[19.1655563,41.886012,19.2455563,41.966012],"border":[{"name":"Opština Ulcinj - Komuna e Ulqinit","other_names":{"name:bg":"Община Ульцинь","name:bs":"Općina Ulcinj","name:cs":"Občina Ulcinj","name:de":"Gemeinde Ulcinj","name:en":"Ulcinj Municipality","name:es":"Municipio de Ulcinj","name:fr":"Municipalité d'Ulcinj","name:hr":"Općina Ulcinj","name:it":"Dulcigno","name:lt":"Ulcinio savivaldybė","name:mk":"Општина Улцињ","name:ro":"Comuna Ulcinj","name:ru":"Община Ульцинь","name:sh":"Opština Ulcinj","name:sk":"Obec Ulcinj","name:sl":"Občina Ulcinj","name:sq":"Komuna e Ulqinit","name:sr":"Општина Улцињ","name:cnr":"Opština Ulcinj","ISO3166-2":"ME-20","name:sr-Latn":"Opština Ulcinj","name:cnr-Cyrl":"Општина Улцињ"},"display_name":"Opština Ulcinj - Komuna e Ulqinit, Crna Gora / Црна Гора","address":{"county":"Opština Ulcinj - Komuna e Ulqinit","ISO3166-2-lvl6":"ME-20","country":"Crna Gora / Црна Гора","country_code":"me"},"osm_type":"relation","osm_id":2319538,"type":"administrative","location":[19.315503962728222,41.96507905],"bbox":[19.1379561,41.8463036,19.3886361,42.0838194]},{"name":"Ulcinj - Ulqin","other_names":{"name:ar":"أولسيني","name:az":"Ulsin","name:be":"Улцынь","name:bg":"Улцин","name:bs":"Ulcinj","name:el":"Ούλτσιν","name:fa":"اولتسینی","name:he":"אולצין","name:hr":"Ulcinj","name:it":"Dulcigno","name:ja":"ウルツィニ","name:ka":"ულცინი","name:ko":"울친","name:la":"Ulcinium","name:lt":"Ulcinis","name:lv":"Ulciņa","name:mk":"Улцињ","name:ru":"Улцинь","name:sq":"Ulqin","name:sr":"Улцињ","name:tr":"Ülgün","name:uk":"Ульцинь","name:ur":"اولتسینی","int_name":"Ulcinj","name:azb":"اولتسینی","name:cnr":"Ulcinj","name:grc":"Ὀλκίνιον","name:sr-Latn":"Ulcinj","name:cnr-Cyrl":"Улцињ","name:ml":"ഉൽസിൻ","name:be-tarask":"Улцынь","alt_name:el":"Ολκίνιο","alt_name:la":"Olcinium;Dulcinia;Dulcinium;Olchinium","alt_name:sq":"Ulqini","alt_name:grc":"Κολχίνιον","name:zh-Hans":"乌尔齐尼","name:zh-Hant":"烏爾齊尼"},"display_name":"Ulcinj - Ulqin, Opština Ulcinj - Komuna e Ulqinit, 85360, Crna Gora / Црна Гора","address":{"town":"Ulcinj - Ulqin","county":"Opština Ulcinj - Komuna e Ulqinit","ISO3166-2-lvl6":"ME-20","postcode":"85360","country":"Crna Gora / Црна Гора","country_code":"me"},"population":10707,"osm_type":"relation","osm_id":18019974,"type":"administrative","location":[19.2055563,41.926012],"bbox":[19.1909223,41.9058433,19.2486262,41.9394778]}]}
{"name":"Virpazar","other_names":{"name:en":"Virpazar","name:it":"Viro","name:ml":"വിർപസാർ","name:ru":"Вирпазар","name:sq":"Viri","name:sr":"Вирпазар","name:sr-Latn":"Virpazar"},"display_name":"Virpazar, Opština Bar, Crna Gora / Црна Гора","address":{"town":"Virpazar","county":"Opština Bar","ISO3166-2-lvl6":"ME-02","country":"Crna Gora / Црна Гора","country_code":"me"},"population":337,"osm_type":"node","osm_id":192272840,"type":"town","location":[19.0906057,42.2462724],"bbox":[19.0506057,42.2062724,19.1306057,42.2862724],"border":{"name":"Virpazar","other_names":{"name:it":"Viro","name:sr":"Вирпазар","name:en":"Virpazar","name:ml":"വിർപസാർ","name:ru":"Вирпазар","name:sq":"Viri","name:sr-Latn":"Virpazar"},"display_name":"Virpazar, Opština Bar, Crna Gora / Црна Гора","address":{"town":"Virpazar","county":"Opština Bar","ISO3166-2-lvl6":"ME-02","country":"Crna Gora / Црна Гора","country_code":"me"},"population":337,"osm_type":"relation","osm_id":10452706,"type":"administrative","location":[19.0906057,42.2462724],"bbox":[19.0785772,42.2378207,19.1075957,42.2553518]}}
{"name":"Žabljak","other_names":{"name:ar":"ژابلیاک","name:be":"Жабляк","name:bg":"Жабляк","name:ce":"Жабляк","name:el":"Ζάμπλιακ","name:ja":"ジャブリャク","name:ka":"ჟაბლიაკი","name:ko":"자블라크","name:lt":"Žabliakas","name:ml":"ജാബ്ല്യാക്ക്","name:ru":"Жабляк","name:sq":"Zhabjaku","name:sr":"Жабљак","name:tr":"Yablak","name:uk":"Жабляк","name:ur":"ژابیاک","alt_name:sq":"Zhabjak","name:zh-Hans":"扎布利亚克","name:zh-Hant":"扎布利亞克"},"display_name":"Žabljak, Opština Žabljak, 84220, Crna Gora / Црна Гора","address":{"town":"Žabljak","county":"Opština Žabljak","ISO3166-2-lvl6":"ME-21","postcode":"84220","country":"Crna Gora / Црна Гора","country_code":"me"},"population":1723,"osm_type":"node","osm_id":289851953,"type":"town","location":[19.1208669,43.1550532],"bbox":[19.0808669,43.1150532,19.1608669,43.1950532],"border":{"name":"Žabljak","other_names":{"name:bg":"Жабляк","name:ru":"Жабляк","name:sq":"Zhabljakut","name:sr":"Жабљак","name:tr":"Yabliyak","name:sr-Latn":"Žabljak","name:ar":"ژابلیاک","name:be":"Жабляк","name:ce":"Жабляк","name:el":"Ζάμπλιακ","name:ja":"ジャブリャク","name:ka":"ჟაბლიაკი","name:ko":"자블라크","name:lt":"Žabliakas","name:ml":"ജാബ്ല്യാക്ക്","name:uk":"Жабляк","name:ur":"ژابیاک","alt_name:sq":"Zhabjak","name:zh-Hans":"扎布利亚克","name:zh-Hant":"扎布利亞克","alt:sq":"Zhabjaku","alt:tr":"Yablak"},"display_name":"Žabljak, Opština Žabljak, 84220, Crna Gora / Црна Гора","address":{"town":"Žabljak","county":"Opština Žabljak","ISO3166-2-lvl6":"ME-21","postcode":"84220","country":"Crna Gora / Црна Гора","country_code":"me"},"population":1723,"osm_type":"way","osm_id":173013401,"type":"town","location":[19.1208669,43.1550532],"bbox":[19.1099779,43.1489472,19.1369404,43.1644877]}}
{"name":"Zelenika","other_names":{"name:en":"Zelenika","name:it":"Zelenica","name:ml":"സെലെനിക്ക","name:ru":"Зеленика","name:sr":"Зеленика","name:uk":"Зеленіка","name:sr-Latn":"Zelenika"},"display_name":"Zelenika, Opština Herceg Novi, Crna Gora / Црна Гора","address":{"town":"Zelenika","county":"Opština Herceg Novi","ISO3166-2-lvl6":"ME-08","country":"Crna Gora / Црна Гора","country_code":"me"},"population":1431,"osm_type":"node","osm_id":428001652,"type":"town","location":[18.5774346,42.4516792],"bbox":[18.5374346,42.4116792,18.6174346,42.4916792],"border":{"name":"Zelenika","other_names":{"name:it":"Zelenica","name:sr":"Зеленика","name:en":"Zelenika","name:ml":"സെലെനിക്ക","name:ru":"Зеленика","name:uk":"Зеленіка","name:sr-Latn":"Zelenika"},"display_name":"Zelenika, Opština Herceg Novi, Crna Gora / Црна Гора","address":{"town":"Zelenika","county":"Opština Herceg Novi","ISO3166-2-lvl6":"ME-08","country":"Crna Gora / Црна Гора","country_code":"me"},"population":1431,"osm_type":"relation","osm_id":2187920,"type":"administrative","location":[18.5774346,42.4516792],"bbox":[18.5710518,42.4461452,18.5901988,42.4587863]}}
{"display_name":"Беране, Opština Berane, 84300, Crna Gora / Црна Гора","address":{"town":"Беране","county":"Opština Berane","ISO3166-2-lvl6":"ME-03","postcode":"84300","country":"Crna Gora / Црна Гора","country_code":"me"},"population":11776,"osm_type":"way","osm_id":172624103,"type":"town","location":[19.873108809892933,42.84169115],"bbox":[19.8391331,42.8157268,19.9025835,42.8699748]}
