{"name":"Adamstown","other_names":{"name:ar":"آدمزتاون","name:az":"Adamstaun","name:bg":"Адамстаун","name:ca":"Adamstown","name:da":"Adamstown","name:de":"Adamstown","name:en":"Adamstown","name:es":"Adamstown","name:et":"Adamstown","name:fr":"Adamstown","name:hr":"Adamstown","name:hu":"Adamstown","name:it":"Adamstown","name:ja":"アダムスタウン","name:ko":"애덤스타운","name:lt":"Adamstaunas","name:mk":"Адамстаун","name:nl":"Adamstown","name:no":"Adamstown","name:pl":"Adamstown","name:pt":"Adamstown","name:ro":"Adamstown","name:ru":"Адамстаун","name:sk":"Adamstown","name:sr":"Адамстаун","name:sv":"Adamstown","name:tr":"Adamstown","name:uk":"Адамстаун","name:zh":"亚当斯敦 / 亞當斯敦","name:pih":"Adamstaun","name:zh-Hans":"亚当斯敦","name:zh-Hant":"亞當斯敦"},"display_name":"Adamstown, Pitkern Ailen","address":{"hamlet":"Adamstown","country":"Pitkern Ailen","country_code":"pn"},"population":50,"osm_type":"node","osm_id":2134592841,"type":"hamlet","location":[-130.100205,-25.066667],"bbox":[-130.120205,-25.086667,-130.080205,-25.046667]}
