{"name":"Ahuachapán","other_names":{"name:es":"Ahuachapán","name:fr":"Ahuachapán","name:hu":"Ahuachapán","name:ru":"Ауачапан"},"display_name":"Ahuachapán, Ahuachapán Centro, Ahuachapán, El Salvador","address":{"city":"Ahuachapán","district":"Ahuachapán","municipality":"Ahuachapán Centro","state":"Ahuachapán","ISO3166-2-lvl4":"SV-AH","country":"El Salvador","country_code":"sv"},"osm_type":"node","osm_id":308198200,"type":"city","location":[-89.8462907,13.9234192],"bbox":[-90.0062907,13.7634192,-89.6862907,14.0834192],"border":{"name":"Ahuachapán","other_names":{"name:es":"Ahuachapán","official_name":"Distrito de Ahuachapán","name:fr":"Ahuachapán","name:hu":"Ahuachapán","name:ru":"Ауачапан"},"display_name":"Ahuachapán, Ahuachapán Centro, Ahuachapán, 2101, El Salvador","address":{"district":"Ahuachapán","municipality":"Ahuachapán Centro","state":"Ahuachapán","ISO3166-2-lvl4":"SV-AH","postcode":"2101","country":"El Salvador","country_code":"sv"},"population":110511,"osm_type":"relation","osm_id":6744515,"type":"administrative","location":[-89.8462907,13.9234192],"bbox":[-89.9715227,13.8799288,-89.755759,14.0496034]}}
{"name":"Chalatenango","display_name":"Chalatenango, 1301, El Salvador","address":{"city":"Chalatenango","state":"Chalatenango","ISO3166-2-lvl4":"SV-CH","postcode":"1301","country":"El Salvador","country_code":"sv"},"population":21102,"osm_type":"node","osm_id":507951907,"type":"city","location":[-88.9394082,14.0413868],"bbox":[-89.0994082,13.8813868,-88.7794082,14.2013868]}
{"name":"Cojutepeque","other_names":{"name:hu":"Cojutepeque","name:ru":"Кохутепеке"},"display_name":"Cojutepeque, Cuscatlán, El Salvador","address":{"city":"Cojutepeque","district":"Cojutepeque","state":"Cuscatlán","ISO3166-2-lvl4":"SV-CU","country":"El Salvador","country_code":"sv"},"osm_type":"node","osm_id":308198839,"type":"city","location":[-88.9345406,13.7217396],"bbox":[-89.0945406,13.5617396,-88.7745406,13.8817396],"border":{"name":"Cojutepeque","other_names":{"name:es":"Cojutepeque","official_name":"Distrito de Cojutepeque","name:hu":"Cojutepeque","name:ru":"Кохутепеке"},"display_name":"Cojutepeque, Cuscatlán, 1401, El Salvador","address":{"district":"Cojutepeque","state":"Cuscatlán","ISO3166-2-lvl4":"SV-CU","postcode":"1401","country":"El Salvador","country_code":"sv"},"osm_type":"relation","osm_id":9222747,"type":"administrative","location":[-88.9345406,13.7217396],"bbox":[-89.0448454,13.6708744,-88.899795,13.7553155]}}
{"display_name":"La Paz, 0816, El Salvador","address":{"state":"La Paz","ISO3166-2-lvl4":"SV-PA","postcode":"0816","country":"El Salvador","country_code":"sv"},"osm_type":"way","osm_id":277609943,"type":"city","location":[-88.92680580054547,13.60176755],"bbox":[-88.9348537,13.5973774,-88.921507,13.6060326]}
{"name":"La Unión","display_name":"La Unión, El Salvador","address":{"city":"La Unión","state":"La Unión","ISO3166-2-lvl4":"SV-UN","country":"El Salvador","country_code":"sv"},"osm_type":"node","osm_id":2807995904,"type":"city","location":[-87.8430528,13.3371546],"bbox":[-88.0030528,13.1771546,-87.6830528,13.4971546],"border":[{"name":"La Unión","other_names":{"name:es":"La Unión","official_name":"Distrito de La Unión"},"display_name":"La Unión, El Salvador","address":{"district":"La Unión","state":"La Unión","ISO3166-2-lvl4":"SV-UN","country":"El Salvador","country_code":"sv"},"osm_type":"relation","osm_id":6553305,"type":"administrative","location":[-87.8430528,13.3371546],"bbox":[-87.9962087,13.1439882,-87.7292974,13.3979329]},{"name":"La Unión","display_name":"La Unión, El Salvador","address":{"city":"La Unión","state":"La Unión","ISO3166-2-lvl4":"SV-UN","country":"El Salvador","country_code":"sv"},"osm_type":"relation","osm_id":6553270,"type":"administrative","location":[-87.8430528,13.3371546],"bbox":[-87.8617045,13.3215526,-87.81169,13.3530723]}]}
{"name":"Lourdes","other_names":{"name:el":"Λούρδη","name:es":"Lourdes"},"display_name":"Lourdes, La Libertad, 0515, El Salvador","address":{"city":"Lourdes","state":"La Libertad","ISO3166-2-lvl4":"SV-LI","postcode":"0515","country":"El Salvador","country_code":"sv"},"osm_type":"node","osm_id":4009876131,"type":"city","location":[-89.3686112,13.7261565],"bbox":[-89.5286112,13.5661565,-89.2086112,13.8861565]}
{"name":"San Francisco Gotera","other_names":{"name:hu":"San Francisco Gotera","name:ru":"Сан-Франсиско-Готера"},"display_name":"San Francisco Gotera, Morazán, El Salvador","address":{"city":"San Francisco Gotera","state":"Morazán","ISO3166-2-lvl4":"SV-MO","country":"El Salvador","country_code":"sv"},"osm_type":"node","osm_id":307974676,"type":"city","location":[-88.1060728,13.6952148],"bbox":[-88.2660728,13.5352148,-87.9460728,13.8552148],"border":[{"name":"San Francisco Gotera","other_names":{"name:es":"San Francisco Gotera","official_name":"Distrito de San Francisco Gotera","name:hu":"San Francisco Gotera","name:ru":"Сан-Франсиско-Готера"},"display_name":"San Francisco Gotera, Morazán, El Salvador","address":{"district":"San Francisco Gotera","state":"Morazán","ISO3166-2-lvl4":"SV-MO","country":"El Salvador","country_code":"sv"},"osm_type":"relation","osm_id":8322749,"type":"administrative","location":[-88.1060728,13.6952148],"bbox":[-88.1432556,13.6356884,-88.0459345,13.7221188]},{"name":"San Francisco Gotera","other_names":{"name:es":"San Francisco Gotera","name:hu":"San Francisco Gotera","name:ru":"Сан-Франсиско-Готера"},"display_name":"San Francisco Gotera, Morazán, El Salvador","address":{"city":"San Francisco Gotera","state":"Morazán","ISO3166-2-lvl4":"SV-MO","country":"El Salvador","country_code":"sv"},"osm_type":"relation","osm_id":8328173,"type":"administrative","location":[-88.1060728,13.6952148],"bbox":[-88.1085991,13.6799594,-88.0907194,13.7049283]}]}
{"name":"San Miguel","other_names":{"name:es":"San Miguel"},"display_name":"San Miguel, 3301, El Salvador","address":{"city":"San Miguel","state":"San Miguel","ISO3166-2-lvl4":"SV-SM","postcode":"3301","country":"El Salvador","country_code":"sv"},"osm_type":"node","osm_id":306151463,"type":"city","location":[-88.17722,13.4803899],"bbox":[-88.33722,13.3203899,-88.01722,13.6403899]}
{"name":"San Salvador","other_names":{"name:am":"ሳን ሳልቫዶር","name:ar":"سان سلفادور","name:be":"Сан-Сальвадор","name:bg":"Сан Салвадор","name:bo":"སན་སལ་ཝ་ཌོར།","name:ca":"San Salvador","name:de":"San Salvador","name:el":"Σαν Σαλβαδόρ","name:en":"San Salvador","name:eo":"San-Salvadoro","name:es":"San Salvador","name:fa":"سان سالوادور","name:fr":"San Salvador","name:he":"סן סלוודור","name:ht":"San Salvadò","name:hu":"San Salvador","name:hy":"Սան Սալվադոր","name:is":"San Salvador","name:ja":"サンサルバドル","name:ka":"სან-სალვადორი","name:ko":"산살바도르","name:la":"Urbs Sancti Salvatoris","name:lt":"San Salvadoras","name:lv":"Sansalvadora","name:mk":"Сан Салвадор","name:mr":"सान साल्व्हाडोर","name:oc":"San Salvador","name:os":"Сан-Сальвадор","name:pl":"San Salvador","name:pt":"São Salvador","name:ru":"Сан-Сальвадор","name:sq":"San Salvadori","name:sr":"Сан Салвадор","name:sv":"San Salvador","name:ta":"சான் சல்வடோர்","name:th":"ซันซัลวาดอร์","name:ug":"سان سالۋادور","name:uk":"Сан-Сальвадор","name:ur":"سان سلواڈور","name:zh":"聖薩爾瓦多","name:sah":"Сан Салвадор","name:be-tarask":"Сан-Сальвадор"},"display_name":"San Salvador, San Salvador Centro, San Salvador, El Salvador","address":{"city":"San Salvador","district":"San Salvador","municipality":"San Salvador Centro","state":"San Salvador","ISO3166-2-lvl4":"SV-SS","country":"El Salvador","country_code":"sv"},"population":316090,"osm_type":"node","osm_id":197701710,"type":"city","location":[-89.1914249,13.6989939],"bbox":[-89.3514249,13.5389939,-89.0314249,13.8589939],"border":{"name":"San Salvador","other_names":{"name:es":"San Salvador","official_name":"Distrito de San Salvador","name:am":"ሳን ሳልቫዶር","name:ar":"سان سلفادور","name:be":"Сан-Сальвадор","name:bg":"Сан Салвадор","name:bo":"སན་སལ་ཝ་ཌོར།","name:ca":"San Salvador","name:de":"San Salvador","name:el":"Σαν Σαλβαδόρ","name:en":"San Salvador","name:eo":"San-Salvadoro","name:fa":"سان سالوادور","name:fr":"San Salvador","name:he":"סן סלוודור","name:ht":"San Salvadò","name:hu":"San Salvador","name:hy":"Սան Սալվադոր","name:is":"San Salvador","name:ja":"サンサルバドル","name:ka":"სან-სალვადორი","name:ko":"산살바도르","name:la":"Urbs Sancti Salvatoris","name:lt":"San Salvadoras","name:lv":"Sansalvadora","name:mk":"Сан Салвадор","name:mr":"सान साल्व्हाडोर","name:oc":"San Salvador","name:os":"Сан-Сальвадор","name:pl":"San Salvador","name:pt":"São Salvador","name:ru":"Сан-Сальвадор","name:sq":"San Salvadori","name:sr":"Сан Салвадор","name:sv":"San Salvador","name:ta":"சான் சல்வடோர்","name:th":"ซันซัลวาดอร์","name:ug":"سان سالۋادور","name:uk":"Сан-Сальвадор","name:ur":"سان سلواڈور","name:zh":"聖薩爾瓦多","name:sah":"Сан Салвадор","name:be-tarask":"Сан-Сальвадор"},"display_name":"San Salvador, San Salvador Centro, San Salvador, El Salvador","address":{"district":"San Salvador","municipality":"San Salvador Centro","state":"San Salvador","ISO3166-2-lvl4":"SV-SS","country":"El Salvador","country_code":"sv"},"population":316090,"osm_type":"relation","osm_id":6462027,"type":"administrative","location":[-89.1914249,13.6989939],"bbox":[-89.27672,13.632618,-89.1629308,13.7459166]}}
{"name":"San Vicente","other_names":{"name:es":"San Vicente","name:hu":"San Vicente","name:ru":"Сан-Висенте-де-Тагуа-Тагуа"},"display_name":"San Vicente, El Salvador","address":{"city":"San Vicente","state":"San Vicente","ISO3166-2-lvl4":"SV-SV","country":"El Salvador","country_code":"sv"},"osm_type":"node","osm_id":308199036,"type":"city","location":[-88.7836392,13.6433169],"bbox":[-88.9436392,13.4833169,-88.6236392,13.8033169]}
{"name":"Santa Ana","other_names":{"name:ru":"Санта-Ана"},"display_name":"Santa Ana, El Salvador","address":{"city":"Santa Ana","state":"Santa Ana","ISO3166-2-lvl4":"SV-SA","country":"El Salvador","country_code":"sv"},"population":167200,"osm_type":"node","osm_id":4113164339,"type":"city","location":[-89.5566069,13.9947753],"bbox":[-89.7166069,13.8347753,-89.3966069,14.1547753],"border":[{"name":"Santa Ana","other_names":{"name:es":"Santa Ana","official_name":"Distrito de Santa Ana","name:ru":"Санта-Ана"},"display_name":"Santa Ana, El Salvador","address":{"district":"Santa Ana","state":"Santa Ana","ISO3166-2-lvl4":"SV-SA","country":"El Salvador","country_code":"sv"},"population":167200,"osm_type":"relation","osm_id":5901411,"type":"administrative","location":[-89.5566069,13.9947753],"bbox":[-89.6527771,13.8115942,-89.3835911,14.1326703]},{"name":"Santa Ana","other_names":{"name:es":"Santa Ana","name:nah":"Cihuatehuahcan","name:Nawat":"Siwatajchiwiacan","name:ru":"Санта-Ана"},"display_name":"Santa Ana, El Salvador","address":{"city":"Santa Ana","state":"Santa Ana","ISO3166-2-lvl4":"SV-SA","country":"El Salvador","country_code":"sv"},"population":167200,"osm_type":"relation","osm_id":6074004,"type":"administrative","location":[-89.5566069,13.9947753],"bbox":[-89.6144312,13.9470034,-89.5109447,14.0353263]}]}
{"name":"Santa Tecla","other_names":{"name:hu":"Santa Tecla","name:ru":"Санта-Текла"},"display_name":"Santa Tecla, La Libertad, El Salvador","address":{"city":"Santa Tecla","district":"Santa Tecla","state":"La Libertad","ISO3166-2-lvl4":"SV-LI","country":"El Salvador","country_code":"sv"},"population":138695,"osm_type":"node","osm_id":446299774,"type":"city","location":[-89.2880412,13.6742985],"bbox":[-89.4480412,13.5142985,-89.1280412,13.8342985],"border":{"name":"Santa Tecla","other_names":{"name:es":"Santa Tecla","official_name":"Distrito de Santa Tecla","name:hu":"Santa Tecla","name:ru":"Санта-Текла"},"display_name":"Santa Tecla, La Libertad, El Salvador","address":{"district":"Santa Tecla","state":"La Libertad","ISO3166-2-lvl4":"SV-LI","country":"El Salvador","country_code":"sv"},"population":138695,"osm_type":"relation","osm_id":8705400,"type":"administrative","location":[-89.2880412,13.6742985],"bbox":[-89.3727932,13.5366902,-89.2624956,13.7470591]}}
{"name":"Sensuntepeque","other_names":{"name:en":"Sensuntepeque","name:ru":"Сенсунтепеке"},"display_name":"Sensuntepeque, Cabañas, El Salvador","address":{"city":"Sensuntepeque","state":"Cabañas","ISO3166-2-lvl4":"SV-CA","country":"El Salvador","country_code":"sv"},"population":41000,"osm_type":"node","osm_id":2512895232,"type":"city","location":[-88.6284918,13.8761841],"bbox":[-88.7884918,13.7161841,-88.4684918,14.0361841],"border":{"name":"Sensuntepeque","other_names":{"name:es":"Sensuntepeque","name:en":"Sensuntepeque","name:ru":"Сенсунтепеке"},"display_name":"Sensuntepeque, Cabañas, El Salvador","address":{"city":"Sensuntepeque","state":"Cabañas","ISO3166-2-lvl4":"SV-CA","country":"El Salvador","country_code":"sv"},"population":41000,"osm_type":"relation","osm_id":10303111,"type":"administrative","location":[-88.6284918,13.8761841],"bbox":[-88.6392428,13.864832,-88.6189214,13.8906299]}}
{"name":"Sonsonate","display_name":"Sonsonate, Sonsonate Centro, Sonsonate, El Salvador","address":{"city":"Sonsonate","municipality":"Sonsonate Centro","state":"Sonsonate","ISO3166-2-lvl4":"SV-SO","country":"El Salvador","country_code":"sv"},"population":110501,"osm_type":"node","osm_id":322789099,"type":"city","location":[-89.7274817,13.7206461],"bbox":[-89.8874817,13.5606461,-89.5674817,13.8806461],"border":[{"name":"Sonsonate","other_names":{"name:es":"Sonsonate","official_name":"Distrito de Sonsonate"},"display_name":"Sonsonate, Sonsonate Centro, Sonsonate, 9601, El Salvador","address":{"district":"Sonsonate","municipality":"Sonsonate Centro","state":"Sonsonate","ISO3166-2-lvl4":"SV-SO","postcode":"9601","country":"El Salvador","country_code":"sv"},"population":110501,"osm_type":"relation","osm_id":13128797,"type":"administrative","location":[-89.7274817,13.7206461],"bbox":[-89.804694,13.5200487,-89.6311117,13.7500833]},{"name":"Sonsonate","display_name":"Sonsonate, Sonsonate Centro, Sonsonate, 9601, El Salvador","address":{"city":"Sonsonate","municipality":"Sonsonate Centro","state":"Sonsonate","ISO3166-2-lvl4":"SV-SO","postcode":"9601","country":"El Salvador","country_code":"sv"},"population":110501,"osm_type":"relation","osm_id":7011532,"type":"administrative","location":[-89.7274817,13.7206461],"bbox":[-89.736668,13.6994836,-89.7115806,13.7447056]}]}
{"name":"Usulután","display_name":"Usulután, 3401, El Salvador","address":{"city":"Usulután","state":"Usulután","ISO3166-2-lvl4":"SV-US","postcode":"3401","country":"El Salvador","country_code":"sv"},"population":73064,"osm_type":"node","osm_id":461959353,"type":"city","location":[-88.4382264,13.3438204],"bbox":[-88.5982264,13.1838204,-88.2782264,13.5038204]}
{"name":"Zacatecoluca","other_names":{"name:es":"Zacatecoluca"},"display_name":"Zacatecoluca, La Paz, CP 1601, El Salvador","address":{"city":"Zacatecoluca","district":"Zacatecoluca","state":"La Paz","ISO3166-2-lvl4":"SV-PA","postcode":"CP 1601","country":"El Salvador","country_code":"sv"},"osm_type":"node","osm_id":412946829,"type":"city","location":[-88.8702064,13.5073161],"bbox":[-89.0302064,13.3473161,-88.7102064,13.6673161],"border":{"name":"Zacatecoluca","other_names":{"name:es":"Zacatecoluca","official_name":"Distrito de Zacatecoluca"},"display_name":"Zacatecoluca, La Paz, 0821, El Salvador","address":{"district":"Zacatecoluca","state":"La Paz","ISO3166-2-lvl4":"SV-PA","postcode":"0821","country":"El Salvador","country_code":"sv"},"osm_type":"relation","osm_id":8434190,"type":"administrative","location":[-88.8702064,13.5073161],"bbox":[-88.9267666,13.2719531,-88.7799966,13.5966071]}}
