{"name":"Ir-Rabat","other_names":{"name:ar":"الرباط","name:en":"Victoria","name:fr":"Rabat (Victoria)","name:it":"Rabat","name:ml":"വിക്ടോറിയ","name:ru":"Виктория","name:uk":"Вікторія","alt_name":"Rabat;Il-Belt Victoria","nat_name":"Rabat","alt_name:ar":"الرابات","alt_name:ml":"റബാത്ത്","old_name:ar":"فكتوريا","old_name:it":"Rabato del Castello"},"display_name":"Ir-Rabat, Għawdex, Malta","address":{"city":"Ir-Rabat","ISO3166-2-lvl8":"MT-45","state":"Għawdex","country":"Malta","country_code":"mt"},"population":6901,"osm_type":"node","osm_id":129953609,"type":"city","location":[14.2398479,36.0428907],"bbox":[14.0798479,35.8828907,14.3998479,36.2028907],"border":{"name":"Ir-Rabat","other_names":{"name:ar":"الرباط","name:en":"Victoria","name:it":"Rabat","alt_name":"Rabat;Il-Belt Victoria","nat_name":"Rabat","ISO3166-2":"MT-45","old_name:it":"Rabato del Castello","name:fr":"Rabat (Victoria)","name:ml":"വിക്ടോറിയ","name:ru":"Виктория","name:uk":"Вікторія","alt_name:ar":"الرابات","alt_name:ml":"റബാത്ത്","old_name:ar":"فكتوريا"},"display_name":"Ir-Rabat, Għawdex, Malta","address":{"city":"Ir-Rabat","ISO3166-2-lvl8":"MT-45","state":"Għawdex","country":"Malta","country_code":"mt"},"population":6901,"osm_type":"relation","osm_id":7508583,"type":"administrative","location":[14.2398479,36.0428907],"bbox":[14.2262564,36.0328322,14.2530749,36.0533278]}}
{"name":"Valletta","other_names":{"name:am":"ቫሌታ","name:ar":"فاليتا","name:ba":"Валлетта","name:be":"Валета","name:bg":"Валета","name:bn":"ভাল্লেত্তা","name:bo":"ཝ་ལེ་ཐ།","name:br":"Valletta","name:ca":"La Valletta","name:ce":"Валлетта","name:co":"A Valetta","name:cv":"Валлетта","name:de":"Valletta","name:el":"Βαλέτα","name:en":"Valletta","name:eo":"La-Valeto","name:es":"La Valeta","name:eu":"Valleta","name:fa":"والتا","name:fr":"La Valette","name:ga":"Vaileite","name:gl":"A Valeta","name:he":"ולטה","name:hi":"वैलेटा","name:ht":"La Valèt","name:hu":"Valetta","name:hy":"Վալետա","name:is":"Valletta","name:it":"La Valletta","name:ja":"バレッタ","name:ka":"ვალეტა","name:kk":"Валлетта","name:kn":"ವಲೆಟ್ಟ","name:ko":"발레타","name:la":"Valetta","name:ln":"Valetta","name:lt":"Valeta","name:lv":"Valleta","name:mk":"Валета","name:ml":"വലെറ്റ","name:mn":"Валлетта","name:mr":"व्हॅलेटा","name:my":"ဗယ်လက်တာမြို့","name:ne":"भलेट","name:no":"Valletta","name:oc":"La Valeta","name:os":"Валлеттæ","name:pa":"ਵਲੈਟਾ","name:pl":"Valletta","name:ps":"والتا","name:pt":"Valeta","name:ro":"Valletta","name:ru":"Валлетта","name:sk":"Valletta","name:sq":"Valeta","name:sr":"Валета","name:sv":"Valletta","name:ta":"வல்லெட்டா","name:tg":"Валлетта","name:th":"วัลเลตตา","name:tl":"Valeta","name:tr":"Valetta","name:tt":"Валлетта","name:uk":"Валлетта","name:ur":"والیٹا","name:wo":"Waleta","name:yi":"וואלעטא","name:zh":"瓦萊塔","alt_name":"Il-Belt","name:arz":"فاليتا","name:ckb":"واڵێتا","name:gag":"Valetta","name:gcf":"Valèt","name:lij":"A Valletta","name:lmo":"La Valeta","name:pms":"La Valëtta","name:pnb":"ولیٹا","name:udm":"Валлетта","name:vep":"Vallett","name:yue":"華列他","old_name":"Humilissima Civitas Valletta","alt_name:ar":"فالتة;لا فاليتا","old_name:it":"Città Umilissima","name:sr-Latn":"Valeta","name:zh-Hans":"瓦莱塔","name:be-tarask":"Валета"},"display_name":"Valletta, Xlokk, Malta","address":{"city":"Valletta","ISO3166-2-lvl8":"MT-60","state":"Xlokk","country":"Malta","country_code":"mt"},"population":5721,"osm_type":"node","osm_id":1501909943,"type":"city","location":[14.5136607,35.8989979],"bbox":[14.3536607,35.7389979,14.6736607,36.0589979],"border":{"name":"Valletta","other_names":{"name:ar":"فاليتا","name:el":"Βαλέτα","name:en":"Valletta","name:eo":"La-Valeto","name:it":"La Valletta","name:oc":"La Valeta","name:pt":"Valeta","alt_name":"Il-Belt","old_name":"Humilissima Civitas Valletta","ISO3166-2":"MT-60","alt_name:ar":"فالتة;لا فاليتا","old_name:it":"Città Umilissima","name:am":"ቫሌታ","name:ba":"Валлетта","name:be":"Валета","name:bg":"Валета","name:bn":"ভাল্লেত্তা","name:bo":"ཝ་ལེ་ཐ།","name:br":"Valletta","name:ca":"La Valletta","name:ce":"Валлетта","name:co":"A Valetta","name:cv":"Валлетта","name:de":"Valletta","name:es":"La Valeta","name:eu":"Valleta","name:fa":"والتا","name:fr":"La Valette","name:ga":"Vaileite","name:gl":"A Valeta","name:he":"ולטה","name:hi":"वैलेटा","name:ht":"La Valèt","name:hu":"Valetta","name:hy":"Վալետա","name:is":"Valletta","name:ja":"バレッタ","name:ka":"ვალეტა","name:kk":"Валлетта","name:kn":"ವಲೆಟ್ಟ","name:ko":"발레타","name:la":"Valetta","name:ln":"Valetta","name:lt":"Valeta","name:lv":"Valleta","name:mk":"Валета","name:ml":"വലെറ്റ","name:mn":"Валлетта","name:mr":"व्हॅलेटा","name:my":"ဗယ်လက်တာမြို့","name:ne":"भलेट","name:no":"Valletta","name:os":"Валлеттæ","name:pa":"ਵਲੈਟਾ","name:pl":"Valletta","name:ps":"والتا","name:ro":"Valletta","name:ru":"Валлетта","name:sk":"Valletta","name:sq":"Valeta","name:sr":"Валета","name:sv":"Valletta","name:ta":"வல்லெட்டா","name:tg":"Валлетта","name:th":"วัลเลตตา","name:tl":"Valeta","name:tr":"Valetta","name:tt":"Валлетта","name:uk":"Валлетта","name:ur":"والیٹا","name:wo":"Waleta","name:yi":"וואלעטא","name:zh":"瓦萊塔","name:arz":"فاليتا","name:ckb":"واڵێتا","name:gag":"Valetta","name:gcf":"Valèt","name:lij":"A Valletta","name:lmo":"La Valeta","name:pms":"La Valëtta","name:pnb":"ولیٹا","name:udm":"Валлетта","name:vep":"Vallett","name:yue":"華列他","name:sr-Latn":"Valeta","name:zh-Hans":"瓦莱塔","name:be-tarask":"Валета"},"display_name":"Valletta, Xlokk, Malta","address":{"city":"Valletta","ISO3166-2-lvl8":"MT-60","state":"Xlokk","country":"Malta","country_code":"mt"},"population":5721,"osm_type":"relation","osm_id":7510580,"type":"administrative","location":[14.5136607,35.8989979],"bbox":[14.5055327,35.8931489,14.5206512,35.903575]}}
