{"name":"Birkirkara","other_names":{"name:ar":"بئر كيركرة","name:en":"Birkirkara","name:it":"Birchircara","name:ml":"ബിർക്കിർക്കര","alt_name:ar":"بيركيركارا","alt_name:en":"B'Kara"},"display_name":"Birkirkara, Ċentrali, Malta","address":{"town":"Birkirkara","ISO3166-2-lvl8":"MT-04","state":"Ċentrali","country":"Malta","country_code":"mt"},"population":22247,"osm_type":"node","osm_id":130878486,"type":"town","location":[14.4649552,35.8994577],"bbox":[14.4249552,35.8594577,14.5049552,35.9394577],"border":{"name":"Birkirkara","other_names":{"name:ar":"بئر كيركرة","name:en":"Birkirkara","name:it":"Birchircara","ISO3166-2":"MT-04","alt_name:ar":"بيركيركارا","alt_name:en":"B'Kara","name:ml":"ബിർക്കിർക്കര"},"display_name":"Birkirkara, Ċentrali, Malta","address":{"town":"Birkirkara","ISO3166-2-lvl8":"MT-04","state":"Ċentrali","country":"Malta","country_code":"mt"},"population":22247,"osm_type":"relation","osm_id":7510585,"type":"administrative","location":[14.4649552,35.8994577],"bbox":[14.4523542,35.8869075,14.478421,35.9046046]}}
{"name":"Birżebbuġa","other_names":{"name:ar":"بئر زبوجة","name:en":"Birzebbugia","name:it":"Birzebbugia","name:ml":"ബിർസെബുജ","name:mt":"Birżebbuġa"},"display_name":"Birżebbuġa, Nofsinhar, Malta","address":{"town":"Birżebbuġa","ISO3166-2-lvl8":"MT-05","state":"Nofsinhar","country":"Malta","country_code":"mt"},"population":9736,"osm_type":"node","osm_id":130891133,"type":"town","location":[14.5274189,35.8269478],"bbox":[14.4874189,35.7869478,14.5674189,35.8669478],"border":{"name":"Birżebbuġa","other_names":{"name:en":"Birżebbuġa","ISO3166-2":"MT-05","name:ar":"بئر زبوجة","name:it":"Birzebbugia","name:ml":"ബിർസെബുജ","name:mt":"Birżebbuġa","alt:en":"Birzebbugia"},"display_name":"Birżebbuġa, Nofsinhar, Malta","address":{"town":"Birżebbuġa","ISO3166-2-lvl8":"MT-05","state":"Nofsinhar","country":"Malta","country_code":"mt"},"population":9736,"osm_type":"relation","osm_id":7510570,"type":"administrative","location":[14.5274189,35.8269478],"bbox":[14.5004929,35.8061415,14.5496936,35.8438468]}}
{"name":"Bormla","other_names":{"name:en":"Cospicua","name:it":"Cospicua","name:ml":"ബിർമുല","alt_name:en":"Bir Mula;Burmola;Bormola;Città Cospicua;Città Cottonera;Civitas Cottonera","alt_name:it":"Burmola"},"display_name":"Bormla, Xlokk, Malta","address":{"town":"Bormla","ISO3166-2-lvl8":"MT-06","state":"Xlokk","country":"Malta","country_code":"mt"},"population":5395,"osm_type":"node","osm_id":130931433,"type":"town","location":[14.522721,35.8825817],"bbox":[14.482721,35.8425817,14.562721,35.9225817],"border":{"name":"Bormla","other_names":{"name:en":"Cospicua","name:it":"Cospicua","ISO3166-2":"MT-06","alt_name:en":"Bir Mula;Burmola;Bormola;Città Cospicua;Città Cottonera;Civitas Cottonera","alt_name:it":"Burmola","name:ml":"ബിർമുല"},"display_name":"Bormla, Xlokk, BML 2064, Malta","address":{"town":"Bormla","ISO3166-2-lvl8":"MT-06","state":"Xlokk","postcode":"BML 2064","country":"Malta","country_code":"mt"},"population":5395,"osm_type":"relation","osm_id":7510576,"type":"administrative","location":[14.522721,35.8825817],"bbox":[14.5123582,35.8756848,14.5296064,35.8894696]}}
{"name":"Ħ'Attard","other_names":{"name:ar":"عطارد","name:en":"Attard","name:it":"Attard","name:mt":"Ħ'Attard","alt_name:ar":"عطار;أتارد","alt_name:it":"Casal Attard"},"display_name":"Ħ'Attard, Ċentrali, Malta","address":{"town":"Ħ'Attard","ISO3166-2-lvl8":"MT-01","state":"Ċentrali","country":"Malta","country_code":"mt"},"population":10650,"osm_type":"node","osm_id":130910723,"type":"town","location":[14.4430093,35.8909172],"bbox":[14.4030093,35.8509172,14.4830093,35.9309172],"border":{"name":"Ħ'Attard","other_names":{"name:ar":"عطارد","name:en":"Attard","name:it":"Attard","ISO3166-2":"MT-01","alt_name:ar":"عطار;أتارد","alt_name:it":"Casal Attard","name:mt":"Ħ'Attard"},"display_name":"Ħ'Attard, Ċentrali, Malta","address":{"town":"Ħ'Attard","ISO3166-2-lvl8":"MT-01","state":"Ċentrali","country":"Malta","country_code":"mt"},"population":10650,"osm_type":"relation","osm_id":7510551,"type":"administrative","location":[14.4430093,35.8909172],"bbox":[14.4088527,35.8810509,14.4581924,35.9019544]}}
{"name":"Ħal Qormi","other_names":{"name:el":"Όρμι","name:en":"Qormi","name:it":"Curmi","name:lt":"Kormis","name:ml":"ഖുർമി","name:mt":"Ħal Qormi","name:ru":"Корми"},"display_name":"Ħal Qormi, Nofsinhar, Malta","address":{"town":"Ħal Qormi","ISO3166-2-lvl8":"MT-43","state":"Nofsinhar","country":"Malta","country_code":"mt"},"population":16779,"osm_type":"node","osm_id":130883184,"type":"town","location":[14.4739598,35.877464],"bbox":[14.4339598,35.837464,14.5139598,35.917464],"border":{"name":"Ħal Qormi","other_names":{"name:el":"Όρμι","name:en":"Qormi","name:it":"Curmi","name:lt":"Kormis","name:ru":"Корми","ISO3166-2":"MT-43","name:ml":"ഖുർമി","name:mt":"Ħal Qormi"},"display_name":"Ħal Qormi, Nofsinhar, Malta","address":{"town":"Ħal Qormi","ISO3166-2-lvl8":"MT-43","state":"Nofsinhar","country":"Malta","country_code":"mt"},"population":16779,"osm_type":"relation","osm_id":7510556,"type":"administrative","location":[14.4739598,35.877464],"bbox":[14.4507514,35.8625708,14.4851827,35.8908245]}}
{"name":"Ħaż-Żabbar","other_names":{"name:ar":"الصبار","name:en":"Zabbar","name:it":"Zabbar","name:ml":"സബ്ബാർ","name:mt":"Ħaż-Żabbar","alt_name":"Città Hompesch;Casal Zabbar","alt_name:ar":"جبار","old_name:it":"Zabbaria"},"display_name":"Ħaż-Żabbar, Xlokk, Malta","address":{"town":"Ħaż-Żabbar","ISO3166-2-lvl8":"MT-64","state":"Xlokk","country":"Malta","country_code":"mt"},"population":15404,"osm_type":"node","osm_id":129953030,"type":"town","location":[14.5374788,35.8753368],"bbox":[14.4974788,35.8353368,14.5774788,35.9153368],"border":{"name":"Ħaż-Żabbar","other_names":{"name:ar":"الصبار","name:en":"Żabbar","name:it":"Zabbar","alt_name":"Città Hompesch;Casal Zabbar","ISO3166-2":"MT-64","alt_name:ar":"جبار","old_name:it":"Zabbaria","name:ml":"സബ്ബാർ","name:mt":"Ħaż-Żabbar","alt:en":"Zabbar"},"display_name":"Ħaż-Żabbar, Xlokk, Malta","address":{"town":"Ħaż-Żabbar","ISO3166-2-lvl8":"MT-64","state":"Xlokk","country":"Malta","country_code":"mt"},"population":15404,"osm_type":"relation","osm_id":7510573,"type":"administrative","location":[14.5374788,35.8753368],"bbox":[14.5264791,35.8637925,14.5646394,35.8871375]}}
{"name":"Ħaż-Żebbuġ","other_names":{"alt_name:ar":"زيباغ","alt_name:it":"Casal Zebbugi","old_name:it":"Città Rohan"},"display_name":"Ħaż-Żebbuġ, Nofsinhar, Malta","address":{"town":"Ħaż-Żebbuġ","ISO3166-2-lvl8":"MT-66","state":"Nofsinhar","country":"Malta","country_code":"mt"},"population":11903,"osm_type":"node","osm_id":130885854,"type":"town","location":[14.4398593,35.8725956],"bbox":[14.3998593,35.8325956,14.4798593,35.9125956],"border":{"name":"Ħaż-Żebbuġ","other_names":{"name:ar":"الزبوج","name:en":"Żebbuġ","name:it":"Żebbuġ","ISO3166-2":"MT-66","alt_name:ar":"زيباغ","alt_name:it":"Casal Zebbugi","old_name:it":"Città Rohan"},"display_name":"Ħaż-Żebbuġ, Nofsinhar, Malta","address":{"town":"Ħaż-Żebbuġ","ISO3166-2-lvl8":"MT-66","state":"Nofsinhar","country":"Malta","country_code":"mt"},"population":11903,"osm_type":"relation","osm_id":7510552,"type":"administrative","location":[14.4398593,35.8725956],"bbox":[14.41189,35.8604442,14.4666709,35.8861675]}}
{"name":"Il-Birgu","other_names":{"name:en":"Birgu","name:it":"Vittoriosa","alt_name":"Vittoriosa;Città Vittoriosa"},"display_name":"Il-Birgu, Xlokk, Malta","address":{"town":"Il-Birgu","ISO3166-2-lvl8":"MT-03","state":"Xlokk","country":"Malta","country_code":"mt"},"population":2629,"osm_type":"node","osm_id":2522930881,"type":"town","location":[14.5238445,35.8881119],"bbox":[14.4838445,35.8481119,14.5638445,35.9281119],"border":{"name":"Il-Birgu","other_names":{"name:en":"Birgu","name:it":"Vittoriosa","alt_name":"Vittoriosa;Città Vittoriosa","ISO3166-2":"MT-03","alt_name:it":"Città Vittoriosa"},"display_name":"Il-Birgu, Xlokk, Malta","address":{"town":"Il-Birgu","ISO3166-2-lvl8":"MT-03","state":"Xlokk","country":"Malta","country_code":"mt"},"population":2629,"osm_type":"relation","osm_id":6172198,"type":"administrative","location":[14.5238445,35.8881119],"bbox":[14.5166388,35.8802052,14.5312147,35.8931184]}}
{"name":"Il-Fgura","other_names":{"name:ar":"فغورا","name:it":"Figura","name:ml":"ഫഗൂറ","alt_name":"Fgura"},"display_name":"Il-Fgura, Xlokk, FGR, Malta","address":{"town":"Il-Fgura","ISO3166-2-lvl8":"MT-08","state":"Xlokk","postcode":"FGR","country":"Malta","country_code":"mt"},"population":11670,"osm_type":"node","osm_id":129953073,"type":"town","location":[14.520799,35.8728325],"bbox":[14.480799,35.8328325,14.560799,35.9128325],"border":{"name":"Il-Fgura","other_names":{"name:en":"Fgura","name:it":"Figura","alt_name":"Fgura","ISO3166-2":"MT-08","name:ar":"فغورا","name:ml":"ഫഗൂറ"},"display_name":"Il-Fgura, Xlokk, Malta","address":{"town":"Il-Fgura","ISO3166-2-lvl8":"MT-08","state":"Xlokk","country":"Malta","country_code":"mt"},"population":11670,"osm_type":"relation","osm_id":7510560,"type":"administrative","location":[14.520799,35.8728325],"bbox":[14.5115042,35.8664086,14.527201,35.8779131]}}
{"name":"Il-Furjana","other_names":{"name:ar":"الفريانة","name:en":"Floriana","name:it":"Floriana","name:ml":"ഫ്ലോറിയാന","name:mt":"Il-Furjana","name:ru":"Флориана","name:tr":"Furyana","alt_name":"Il-Floriana;Borgo Vilhena"},"display_name":"Il-Furjana, Xlokk, Malta","address":{"town":"Il-Furjana","ISO3166-2-lvl8":"MT-09","state":"Xlokk","country":"Malta","country_code":"mt"},"population":2205,"osm_type":"node","osm_id":129953376,"type":"town","location":[14.5052716,35.8929838],"bbox":[14.4652716,35.8529838,14.5452716,35.9329838],"border":{"name":"Il-Furjana","other_names":{"name:en":"Floriana","name:it":"Floriana","name:mt":"Il-Furjana","alt_name":"Il-Floriana;Borgo Vilhena","ISO3166-2":"MT-09","name:ar":"الفريانة","name:ml":"ഫ്ലോറിയാന","name:ru":"Флориана","name:tr":"Furyana"},"display_name":"Il-Furjana, Xlokk, Malta","address":{"town":"Il-Furjana","ISO3166-2-lvl8":"MT-09","state":"Xlokk","country":"Malta","country_code":"mt"},"population":2205,"osm_type":"relation","osm_id":7510581,"type":"administrative","location":[14.5052716,35.8929838],"bbox":[14.4970107,35.8860052,14.5124418,35.8992159]}}
{"name":"Il-Gżira","other_names":{"name:ar":"الجزيرة","name:en":"Gżira","name:it":"Gezira","name:ml":"ജസീറ","name:ru":"Гзира","alt_name:en":"Gzira"},"display_name":"Il-Gżira, Ċentrali, Malta","address":{"town":"Il-Gżira","ISO3166-2-lvl8":"MT-12","state":"Ċentrali","country":"Malta","country_code":"mt"},"population":8029,"osm_type":"node","osm_id":130868022,"type":"town","location":[14.4961247,35.9077803],"bbox":[14.4561247,35.8677803,14.5361247,35.9477803],"border":{"name":"Il-Gżira","other_names":{"name:en":"Gżira","name:it":"Gezira","alt_name":"Gżira","ISO3166-2":"MT-12","alt_name:en":"Gzira","name:ar":"الجزيرة","name:ml":"ജസീറ","name:ru":"Гзира"},"display_name":"Il-Gżira, Ċentrali, Malta","address":{"town":"Il-Gżira","ISO3166-2-lvl8":"MT-12","state":"Ċentrali","country":"Malta","country_code":"mt"},"population":8029,"osm_type":"relation","osm_id":7510588,"type":"administrative","location":[14.4961247,35.9077803],"bbox":[14.4872663,35.9004458,14.5083174,35.9098146]}}
{"name":"Il-Ħamrun","other_names":{"name:en":"Hamrun","name:it":"Ħamrun","name:ml":"ഹാംറൂൺ","alt_name:it":"Hamrun","old_name:it":"Casale San Giuseppe"},"display_name":"Il-Ħamrun, Nofsinhar, Malta","address":{"town":"Il-Ħamrun","ISO3166-2-lvl8":"MT-18","state":"Nofsinhar","country":"Malta","country_code":"mt"},"population":9513,"osm_type":"node","osm_id":130881508,"type":"town","location":[14.4854096,35.8867896],"bbox":[14.4454096,35.8467896,14.5254096,35.9267896],"border":{"name":"Il-Ħamrun","other_names":{"name:en":"Hamrun","name:it":"Ħamrun","ISO3166-2":"MT-18","alt_name:it":"Hamrun","old_name:it":"Casale San Giuseppe","name:ml":"ഹാംറൂൺ"},"display_name":"Il-Ħamrun, Nofsinhar, Malta","address":{"town":"Il-Ħamrun","ISO3166-2-lvl8":"MT-18","state":"Nofsinhar","country":"Malta","country_code":"mt"},"population":9513,"osm_type":"relation","osm_id":7510547,"type":"administrative","location":[14.4854096,35.8867896],"bbox":[14.4796595,35.8812287,14.5004017,35.8924769]}}
{"name":"Il-Mosta","other_names":{"name:ar":"موستا","name:en":"Mosta","name:it":"Musta","name:ml":"മോസ്ത","alt_name":"Mosta","alt_name:it":"Casal Musta"},"display_name":"Il-Mosta, Tramuntana, Malta","address":{"town":"Il-Mosta","ISO3166-2-lvl8":"MT-32","state":"Tramuntana","country":"Malta","country_code":"mt"},"population":20241,"osm_type":"node","osm_id":130878149,"type":"town","location":[14.4241508,35.9079178],"bbox":[14.3841508,35.8679178,14.4641508,35.9479178],"border":{"name":"Il-Mosta","other_names":{"name:ar":"موستا","name:en":"Mosta","name:it":"Musta","alt_name":"Mosta","ISO3166-2":"MT-32","alt_name:it":"Casal Musta","name:ml":"മോസ്ത"},"display_name":"Il-Mosta, Tramuntana, Malta","address":{"town":"Il-Mosta","ISO3166-2-lvl8":"MT-32","state":"Tramuntana","country":"Malta","country_code":"mt"},"population":20241,"osm_type":"relation","osm_id":7510594,"type":"administrative","location":[14.4241508,35.9079178],"bbox":[14.3930066,35.8973738,14.439164,35.9292416]}}
{"name":"In-Naxxar","other_names":{"name:ar":"الناشار","name:en":"Naxxar","name:it":"Nasciaro","name:lt":"Našaras","name:ml":"നാഷാർ","alt_name:ar":"ناكسار"},"display_name":"In-Naxxar, Tramuntana, Malta","address":{"town":"In-Naxxar","ISO3166-2-lvl8":"MT-38","state":"Tramuntana","country":"Malta","country_code":"mt"},"population":13443,"osm_type":"node","osm_id":130877808,"type":"town","location":[14.4432851,35.9133396],"bbox":[14.4032851,35.8733396,14.4832851,35.9533396],"border":{"name":"In-Naxxar","other_names":{"name:ar":"الناشار","name:en":"Naxxar","name:it":"Nasciaro","name:lt":"Našaras","ISO3166-2":"MT-38","alt_name:ar":"ناكسار","alt_name:it":"Naxaro;Casal Naxaro","name:ml":"നാഷാർ"},"display_name":"In-Naxxar, Tramuntana, Malta","address":{"town":"In-Naxxar","ISO3166-2-lvl8":"MT-38","state":"Tramuntana","country":"Malta","country_code":"mt"},"population":13443,"osm_type":"relation","osm_id":7510595,"type":"administrative","location":[14.4432851,35.9133396],"bbox":[14.4188688,35.9046567,14.4639711,35.954861]}}
{"name":"Ir-Rabat","other_names":{"name:ar":"الرباط","name:de":"Rabat","name:el":"Ραμπάτ","name:en":"Rabat","name:es":"Rabat","name:it":"Rabat","name:ml":"റബാത്ത്","name:mt":"Ir-Rabat","name:nl":"Rabat","name:sr":"Рабат","name:uk":"Рабат","name:ur":"ربط","alt_name:ar":"الرابات","alt_name:it":"Rabato della Notabile"},"display_name":"Ir-Rabat, Tramuntana, Malta","address":{"town":"Ir-Rabat","ISO3166-2-lvl8":"MT-46","state":"Tramuntana","country":"Malta","country_code":"mt"},"population":11497,"osm_type":"node","osm_id":130908825,"type":"town","location":[14.3988213,35.8818906],"bbox":[14.3588213,35.8418906,14.4388213,35.9218906],"border":{"name":"Ir-Rabat","other_names":{"name:ar":"الرباط","name:de":"Rabat","name:en":"Rabat","name:es":"Rabat","name:it":"Rabat","name:mt":"Ir-Rabat","name:sr":"Рабат","name:ur":"ربط","ISO3166-2":"MT-46","alt_name:ar":"الرابات","alt_name:it":"Rabato della Notabile","name:el":"Ραμπάτ","name:ml":"റബാത്ത്","name:nl":"Rabat","name:uk":"Рабат"},"display_name":"Ir-Rabat, Tramuntana, Malta","address":{"town":"Ir-Rabat","ISO3166-2-lvl8":"MT-46","state":"Tramuntana","country":"Malta","country_code":"mt"},"population":11497,"osm_type":"relation","osm_id":7510565,"type":"administrative","location":[14.3988213,35.8818906],"bbox":[14.328144,35.8614815,14.4169898,35.9076687]}}
{"name":"Is-Swieqi","other_names":{"name:en":"Swieqi","name:it":"Suiechi","name:ml":"സ്വിയേഖി","name:ru":"Свийи"},"display_name":"Is-Swieqi, Tramuntana, Malta","address":{"town":"Is-Swieqi","ISO3166-2-lvl8":"MT-57","state":"Tramuntana","country":"Malta","country_code":"mt"},"population":7749,"osm_type":"node","osm_id":130875582,"type":"town","location":[14.469548,35.9236256],"bbox":[14.429548,35.8836256,14.509548,35.9636256],"border":{"name":"Is-Swieqi","other_names":{"name:en":"Swieqi","name:it":"Suiechi","name:ru":"Свийи","ISO3166-2":"MT-57","name:ml":"സ്വിയേഖി"},"display_name":"Is-Swieqi, Tramuntana, Malta","address":{"town":"Is-Swieqi","ISO3166-2-lvl8":"MT-57","state":"Tramuntana","country":"Malta","country_code":"mt"},"population":7749,"osm_type":"relation","osm_id":7510591,"type":"administrative","location":[14.469548,35.9236256],"bbox":[14.4549474,35.9126008,14.4869733,35.9335462]}}
{"name":"Iż-Żejtun","other_names":{"name:ar":"الزيتون","name:en":"Żejtun","name:it":"Zeitun","name:ml":"സൈത്തൂൺ","alt_name:en":"Zejtun"},"display_name":"Iż-Żejtun, Xlokk, Malta","address":{"town":"Iż-Żejtun","ISO3166-2-lvl8":"MT-67","state":"Xlokk","country":"Malta","country_code":"mt"},"population":11508,"osm_type":"node","osm_id":130892778,"type":"town","location":[14.5315311,35.8537008],"bbox":[14.4915311,35.8137008,14.5715311,35.8937008],"border":{"name":"Iż-Żejtun","other_names":{"name:ar":"الزيتون","name:en":"Żejtun","name:it":"Zeitun","ISO3166-2":"MT-67","alt_name:en":"Zejtun","name:ml":"സൈത്തൂൺ"},"display_name":"Iż-Żejtun, Xlokk, Malta","address":{"town":"Iż-Żejtun","ISO3166-2-lvl8":"MT-67","state":"Xlokk","country":"Malta","country_code":"mt"},"population":11508,"osm_type":"relation","osm_id":7510561,"type":"administrative","location":[14.5315311,35.8537008],"bbox":[14.5155637,35.8449451,14.5520295,35.8694298]}}
{"name":"Iż-Żurrieq","other_names":{"name:ar":"الزرياق","name:en":"Żurrieq","name:it":"Zurrico","name:ml":"സുറൈഖ്","name:ru":"Зуррик","alt_name:ar":"زرياق","alt_name:en":"Zurrieq"},"display_name":"Iż-Żurrieq, Nofsinhar, Malta","address":{"town":"Iż-Żurrieq","ISO3166-2-lvl8":"MT-68","state":"Nofsinhar","country":"Malta","country_code":"mt"},"population":11823,"osm_type":"node","osm_id":130888701,"type":"town","location":[14.4745172,35.8294676],"bbox":[14.4345172,35.7894676,14.5145172,35.8694676],"border":{"name":"Iż-Żurrieq","other_names":{"name:ar":"الزرياق","name:en":"Żurrieq","name:it":"Zurrico","ISO3166-2":"MT-68","alt_name:ar":"زرياق","alt_name:en":"Zurrieq","name:ml":"സുറൈഖ്","name:ru":"Зуррик"},"display_name":"Iż-Żurrieq, Nofsinhar, Malta","address":{"town":"Iż-Żurrieq","ISO3166-2-lvl8":"MT-68","state":"Nofsinhar","country":"Malta","country_code":"mt"},"population":11823,"osm_type":"relation","osm_id":7510569,"type":"administrative","location":[14.4745172,35.8294676],"bbox":[14.4064182,35.7863396,14.516703,35.8410846]}}
{"name":"L-Imdina","other_names":{"name:ar":"المدينة","name:en":"Mdina","name:it":"Medina","name:uk":"Мдіна","alt_name:ar":"مدينة","alt_name:en":"Città Notabile;Città Vecchia Maleth;Melite;Melita","alt_name:it":"Città Vecchia;Città Notabile"},"display_name":"L-Imdina, Tramuntana, Malta","address":{"town":"L-Imdina","ISO3166-2-lvl8":"MT-29","state":"Tramuntana","country":"Malta","country_code":"mt"},"population":292,"osm_type":"node","osm_id":4224194638,"type":"town","location":[14.4025684,35.8859549],"bbox":[14.3625684,35.8459549,14.4425684,35.9259549],"border":{"name":"L-Imdina","other_names":{"name:ar":"المدينة","name:en":"Mdina","name:it":"Medina","ISO3166-2":"MT-29","alt_name:ar":"مدينة","alt_name:en":"Città Notabile;Città Vecchia Maleth;Melite;Melita","alt_name:it":"Città Vecchia;Città Notabile","name:uk":"Мдіна"},"display_name":"L-Imdina, Tramuntana, Malta","address":{"town":"L-Imdina","ISO3166-2-lvl8":"MT-29","state":"Tramuntana","country":"Malta","country_code":"mt"},"population":292,"osm_type":"relation","osm_id":7510549,"type":"administrative","location":[14.4025684,35.8859549],"bbox":[14.3972796,35.8825482,14.4156786,35.8917965]}}
{"name":"L-Imsida","other_names":{"name:en":"Msida","name:it":"Misida","name:ml":"ലിംസിദ"},"display_name":"L-Imsida, Ċentrali, Malta","address":{"town":"L-Imsida","ISO3166-2-lvl8":"MT-34","state":"Ċentrali","country":"Malta","country_code":"mt"},"population":7623,"osm_type":"node","osm_id":130880844,"type":"town","location":[14.4891829,35.8956943],"bbox":[14.4491829,35.8556943,14.5291829,35.9356943],"border":{"name":"L-Imsida","other_names":{"name:en":"Msida","name:it":"Misida","ISO3166-2":"MT-34","name:ml":"ലിംസിദ"},"display_name":"L-Imsida, Ċentrali, Malta","address":{"town":"L-Imsida","ISO3166-2-lvl8":"MT-34","state":"Ċentrali","country":"Malta","country_code":"mt"},"population":7623,"osm_type":"relation","osm_id":7510584,"type":"administrative","location":[14.4891829,35.8956943],"bbox":[14.4735485,35.8910364,14.4941632,35.9044328]}}
{"name":"L-Isla","other_names":{"name:en":"Senglea","alt_name":"Isla;Città Invicta","int_name":"Senglea","alt_name:en":"Città Invicta;Civitas Invicta","alt_name:it":"Città Senglea"},"display_name":"L-Isla, Xlokk, Malta","address":{"town":"L-Isla","ISO3166-2-lvl8":"MT-20","state":"Xlokk","country":"Malta","country_code":"mt"},"osm_type":"node","osm_id":130931427,"type":"town","location":[14.517307,35.887175],"bbox":[14.477307,35.847175,14.557307,35.927175],"border":{"name":"L-Isla","other_names":{"name:en":"Senglea","name:it":"Senglea","alt_name":"Isla;Città Invicta","ISO3166-2":"MT-20","alt_name:en":"Città Invicta;Civitas Invicta","alt_name:it":"Città Senglea","int_name":"Senglea"},"display_name":"L-Isla, Xlokk, Malta","address":{"town":"L-Isla","ISO3166-2-lvl8":"MT-20","state":"Xlokk","country":"Malta","country_code":"mt"},"osm_type":"relation","osm_id":7510578,"type":"administrative","location":[14.517307,35.887175],"bbox":[14.5135644,35.8837833,14.520176,35.8910491]}}
{"name":"Pembroke","other_names":{"name:ar":"بيمبروك","name:it":"Pembroke","name:ml":"പെംബ്രോക്ക്"},"display_name":"Pembroke, Tramuntana, Malta","address":{"town":"Pembroke","ISO3166-2-lvl8":"MT-40","state":"Tramuntana","country":"Malta","country_code":"mt"},"population":3645,"osm_type":"node","osm_id":130913962,"type":"town","location":[14.4795722,35.9281313],"bbox":[14.4395722,35.8881313,14.5195722,35.9681313],"border":{"name":"Pembroke","other_names":{"name:ar":"بيمبروك","name:en":"Pembroke","name:it":"Pembroke","ISO3166-2":"MT-40","name:ml":"പെംബ്രോക്ക്"},"display_name":"Pembroke, Tramuntana, PBK 1776, Malta","address":{"town":"Pembroke","ISO3166-2-lvl8":"MT-40","state":"Tramuntana","postcode":"PBK 1776","country":"Malta","country_code":"mt"},"population":3645,"osm_type":"relation","osm_id":7510590,"type":"administrative","location":[14.4795722,35.9281313],"bbox":[14.4622686,35.9231603,14.4898184,35.9380008]}}
{"name":"Raħal Ġdid","other_names":{"name:en":"Paola","name:it":"Paola","name:ml":"റാഹൽ ജദീദ്","name:mt":"Raħal Ġdid","alt_name":"Pawla;Paola","alt_name:it":"Casal Paola;Casal Nuovo"},"display_name":"Raħal Ġdid, Xlokk, Malta","address":{"town":"Raħal Ġdid","ISO3166-2-lvl8":"MT-39","state":"Xlokk","country":"Malta","country_code":"mt"},"population":7864,"osm_type":"node","osm_id":130898763,"type":"town","location":[14.5073748,35.8717994],"bbox":[14.4673748,35.8317994,14.5473748,35.9117994],"border":{"name":"Raħal Ġdid","other_names":{"name:en":"Paola","name:it":"Paola","alt_name":"Pawla;Paola","ISO3166-2":"MT-39","alt_name:it":"Casal Paola;Casal Nuovo","name:ml":"റാഹൽ ജദീദ്","name:mt":"Raħal Ġdid"},"display_name":"Raħal Ġdid, Xlokk, Malta","address":{"town":"Raħal Ġdid","ISO3166-2-lvl8":"MT-39","state":"Xlokk","country":"Malta","country_code":"mt"},"population":7864,"osm_type":"relation","osm_id":7510577,"type":"administrative","location":[14.5073748,35.8717994],"bbox":[14.4954883,35.8619922,14.5156875,35.886521]}}
{"name":"San Ġiljan","other_names":{"name:en":"Saint Julian's","name:es":"San Julián","name:it":"San Giuliano","name:ml":"സാൻ ജൂലിയൻ","name:mt":"San Ġiljan","name:ru":"Сан Джулианс","name:gcf":"Sen Jilyàn"},"display_name":"San Ġiljan, Ċentrali, Malta","address":{"town":"San Ġiljan","ISO3166-2-lvl8":"MT-48","state":"Ċentrali","country":"Malta","country_code":"mt"},"population":10232,"osm_type":"node","osm_id":130871200,"type":"town","location":[14.4877119,35.9199225],"bbox":[14.4477119,35.8799225,14.5277119,35.9599225],"border":{"name":"San Ġiljan","other_names":{"name:en":"Saint Julian's","name:es":"San Julián","name:it":"San Giuliano","name:mt":"San Ġiljan","ISO3166-2":"MT-48","name:ml":"സാൻ ജൂലിയൻ","name:ru":"Сан Джулианс","name:gcf":"Sen Jilyàn"},"display_name":"San Ġiljan, Ċentrali, Malta","address":{"town":"San Ġiljan","ISO3166-2-lvl8":"MT-48","state":"Ċentrali","country":"Malta","country_code":"mt"},"population":10232,"osm_type":"relation","osm_id":7510589,"type":"administrative","location":[14.4877119,35.9199225],"bbox":[14.4825127,35.909161,14.4966887,35.9306659]}}
{"name":"San Ġwann","other_names":{"name:it":"San Giovanni","name:ml":"സാൻ ജ്വാൻ"},"display_name":"San Ġwann, Ċentrali, Malta","address":{"town":"San Ġwann","ISO3166-2-lvl8":"MT-49","state":"Ċentrali","country":"Malta","country_code":"mt"},"population":12523,"osm_type":"node","osm_id":130869315,"type":"town","location":[14.4788042,35.9093052],"bbox":[14.4388042,35.8693052,14.5188042,35.9493052],"border":{"name":"San Ġwann","other_names":{"name:en":"San Ġwann","name:it":"San Giovanni","ISO3166-2":"MT-49","alt_name:it":"San Giovanni a Malta","name:ml":"സാൻ ജ്വാൻ"},"display_name":"San Ġwann, Ċentrali, Malta","address":{"town":"San Ġwann","ISO3166-2-lvl8":"MT-49","state":"Ċentrali","country":"Malta","country_code":"mt"},"population":12523,"osm_type":"relation","osm_id":7510587,"type":"administrative","location":[14.4788042,35.9093052],"bbox":[14.4620718,35.9023579,14.4903757,35.9170329]}}
{"name":"San Pawl il-Baħar","other_names":{"name:ar":"البحر القديس بولس","name:cs":"Záliv Sv. Pavla","name:en":"Saint Paul's Bay","name:es":"Bahía de San Pablo","name:it":"Baia di San Paolo","name:ml":"വിശുദ്ധ പൗലോസിന്റെ ഉൾക്കടൽ","name:mt":"San Pawl il-Baħar","name:ru":"Сент-Полс-Бэй"},"display_name":"San Pawl il-Baħar, Tramuntana, Malta","address":{"town":"San Pawl il-Baħar","ISO3166-2-lvl8":"MT-51","state":"Tramuntana","country":"Malta","country_code":"mt"},"population":21046,"osm_type":"node","osm_id":1501825792,"type":"town","location":[14.3973929,35.9480742],"bbox":[14.3573929,35.9080742,14.4373929,35.9880742],"border":{"name":"San Pawl il-Baħar","other_names":{"name:ar":"البحر القديس بولس","name:cs":"Záliv Sv. Pavla","name:en":"Saint Paul's Bay","name:es":"Bahía de San Pablo","name:it":"Baia di San Paolo","name:mt":"San Pawl il-Baħar","name:ru":"Сент-Полс-Бэй","ISO3166-2":"MT-51","name:ml":"വിശുദ്ധ പൗലോസിന്റെ ഉൾക്കടൽ"},"display_name":"San Pawl il-Baħar, Tramuntana, Malta","address":{"town":"San Pawl il-Baħar","ISO3166-2-lvl8":"MT-51","state":"Tramuntana","country":"Malta","country_code":"mt"},"population":21046,"osm_type":"relation","osm_id":7510596,"type":"administrative","location":[14.3973929,35.9480742],"bbox":[14.3684504,35.910314,14.4301625,35.9608954]}}
{"name":"Ta' Xbiex","other_names":{"name:ml":"ടഷ്ബീഷ്","name:ru":"Та-Шбиш"},"display_name":"Ta' Xbiex, Ċentrali, Malta","address":{"town":"Ta' Xbiex","ISO3166-2-lvl8":"MT-58","state":"Ċentrali","country":"Malta","country_code":"mt"},"population":1846,"osm_type":"node","osm_id":130864306,"type":"town","location":[14.4948986,35.8991087],"bbox":[14.4548986,35.8591087,14.5348986,35.9391087],"border":{"name":"Ta' Xbiex","other_names":{"ISO3166-2":"MT-58","name:ml":"ടഷ്ബീഷ്","name:ru":"Та-Шбиш"},"display_name":"Ta' Xbiex, Ċentrali, Malta","address":{"town":"Ta' Xbiex","ISO3166-2-lvl8":"MT-58","state":"Ċentrali","country":"Malta","country_code":"mt"},"population":1846,"osm_type":"relation","osm_id":7510583,"type":"administrative","location":[14.4948986,35.8991087],"bbox":[14.4905561,35.8966196,14.500893,35.9017958]}}
{"name":"Tas-Sliema","other_names":{"name:ar":"سليمة","name:en":"Sliema","name:it":"Sliema","name:ml":"സ്ലീമ","name:ru":"Слима","name:zh":"斯利馬"},"display_name":"Tas-Sliema, Ċentrali, Malta","address":{"town":"Tas-Sliema","ISO3166-2-lvl8":"MT-56","state":"Ċentrali","country":"Malta","country_code":"mt"},"population":16854,"osm_type":"node","osm_id":1501849405,"type":"town","location":[14.5020708,35.9127609],"bbox":[14.4620708,35.8727609,14.5420708,35.9527609],"border":{"name":"Tas-Sliema","other_names":{"name:ar":"سليمة","name:en":"Sliema","name:it":"Sliema","name:ru":"Слима","name:zh":"斯利馬","ISO3166-2":"MT-56","name:ml":"സ്ലീമ"},"display_name":"Tas-Sliema, Ċentrali, Malta","address":{"town":"Tas-Sliema","ISO3166-2-lvl8":"MT-56","state":"Ċentrali","country":"Malta","country_code":"mt"},"population":16854,"osm_type":"relation","osm_id":6172199,"type":"administrative","location":[14.5020708,35.9127609],"bbox":[14.492953,35.9052839,14.5152091,35.9188998]}}
{"name":"Wied il-Għajn","other_names":{"name:ar":"وادي العين","name:en":"Marsascala","name:it":"Marsascala","name:ml":"വിയെദ് ഇൽ-ഐൻ","name:mt":"Wied il-Għajn","alt_name":"Marsaskala","short_name":"M'Skala","alt_name:ar":"مارساسكالا","alt_name:ml":"വാദി അൽ-ഐൻ"},"display_name":"Wied il-Għajn, Xlokk, Malta","address":{"town":"Wied il-Għajn","ISO3166-2-lvl8":"MT-27","state":"Xlokk","country":"Malta","country_code":"mt"},"population":12134,"osm_type":"node","osm_id":130932631,"type":"town","location":[14.5591879,35.8629162],"bbox":[14.5191879,35.8229162,14.5991879,35.9029162],"border":{"name":"Wied il-Għajn","other_names":{"name:ar":"وادي العين","name:en":"Marsascala","name:it":"Marsascala","alt_name":"Marsaskala","ISO3166-2":"MT-27","short_name":"M'Skala","alt_name:ar":"مارساسكالا","name:ml":"വിയെദ് ഇൽ-ഐൻ","name:mt":"Wied il-Għajn","alt_name:ml":"വാദി അൽ-ഐൻ"},"display_name":"Wied il-Għajn, Xlokk, Malta","address":{"town":"Wied il-Għajn","ISO3166-2-lvl8":"MT-27","state":"Xlokk","country":"Malta","country_code":"mt"},"population":12134,"osm_type":"relation","osm_id":7510572,"type":"administrative","location":[14.5591879,35.8629162],"bbox":[14.5447537,35.8444057,14.5764915,35.8775436]}}
