{"name":"Baħar iċ-Ċagħaq","display_name":"Baħar iċ-Ċagħaq, In-Naxxar, Tramuntana, NXR 9038, Malta","address":{"village":"Baħar iċ-Ċagħaq","town":"In-Naxxar","ISO3166-2-lvl8":"MT-38","state":"Tramuntana","postcode":"NXR 9038","country":"Malta","country_code":"mt"},"osm_type":"node","osm_id":263889918,"type":"village","location":[14.4547751,35.9384582],"bbox":[14.4347751,35.9184582,14.4747751,35.9584582]}
{"name":"Buġibba","other_names":{"name:ru":"Буджибба"},"display_name":"Buġibba, San Pawl il-Baħar, Tramuntana, SPB 3015, Malta","address":{"village":"Buġibba","town":"San Pawl il-Baħar","ISO3166-2-lvl8":"MT-51","state":"Tramuntana","postcode":"SPB 3015","country":"Malta","country_code":"mt"},"osm_type":"node","osm_id":291986788,"type":"village","location":[14.4105059,35.9483211],"bbox":[14.3905059,35.9283211,14.4305059,35.9683211]}
{"name":"Għajnsielem","other_names":{"name:ar":"عين السلام","name:en":"Għajnsielem","name:it":"Ghain Sielem","name:ml":"ഐൻസിയെലെം","alt_name:ar":"غاينسييليم","alt_name:it":"Casale Ghain Sielem","alt_name:ml":"ഐൻ അസ്സലാം"},"display_name":"Għajnsielem, Għawdex, Malta","address":{"village":"Għajnsielem","ISO3166-2-lvl8":"MT-13","state":"Għawdex","country":"Malta","country_code":"mt"},"population":3200,"osm_type":"node","osm_id":131729018,"type":"village","location":[14.2871759,36.0288642],"bbox":[14.2671759,36.0088642,14.3071759,36.0488642],"border":{"name":"Għajnsielem","other_names":{"name:ar":"عين السلام","name:en":"Għajnsielem","name:it":"Ghain Sielem","ISO3166-2":"MT-13","alt_name:ar":"غاينسييليم","alt_name:it":"Casale Ghain Sielem","name:ml":"ഐൻസിയെലെം","alt_name:ml":"ഐൻ അസ്സലാം"},"display_name":"Għajnsielem, Għawdex, Malta","address":{"village":"Għajnsielem","ISO3166-2-lvl8":"MT-13","state":"Għawdex","country":"Malta","country_code":"mt"},"population":3200,"osm_type":"relation","osm_id":6311965,"type":"administrative","location":[14.2871759,36.0288642],"bbox":[14.2684546,36.0038005,14.3532981,36.0364962]}}
{"display_name":"Golden Bay, Il-Manikata, Il-Mellieħa, Tramuntana, Malta","address":{"hamlet":"Golden Bay","village":"Il-Manikata","ISO3166-2-lvl8":"MT-30","state":"Tramuntana","country":"Malta","country_code":"mt"},"osm_type":"way","osm_id":23613923,"type":"beach","location":[14.344614201811318,35.933740349999994],"bbox":[14.343562,35.9327751,14.3453193,35.9346917]}
{"name":"Ħad-Dingli","other_names":{"name:el":"Ντίνγκλι","name:en":"Dingli","name:it":"Dingli","name:zh":"丁利"},"display_name":"Ħad-Dingli, Tramuntana, Malta","address":{"village":"Ħad-Dingli","ISO3166-2-lvl8":"MT-07","state":"Tramuntana","country":"Malta","country_code":"mt"},"population":3608,"osm_type":"node","osm_id":585147802,"type":"village","location":[14.3816818,35.8604202],"bbox":[14.3616818,35.8404202,14.4016818,35.8804202],"border":{"name":"Ħad-Dingli","other_names":{"name:el":"Ντίνγκλι","name:en":"Dingli","name:it":"Dingli","name:zh":"丁利","ISO3166-2":"MT-07"},"display_name":"Ħad-Dingli, Tramuntana, Malta","address":{"village":"Ħad-Dingli","ISO3166-2-lvl8":"MT-07","state":"Tramuntana","country":"Malta","country_code":"mt"},"population":3608,"osm_type":"relation","osm_id":7510566,"type":"administrative","location":[14.3816818,35.8604202],"bbox":[14.360156,35.8460074,14.3980812,35.8726995]}}
{"name":"Ħal Balzan","other_names":{"name:en":"Balzan","name:it":"Balzan","alt_name:it":"Casal Balzan"},"display_name":"Ħal Balzan, Ċentrali, Malta","address":{"village":"Ħal Balzan","ISO3166-2-lvl8":"MT-02","state":"Ċentrali","country":"Malta","country_code":"mt"},"population":3869,"osm_type":"node","osm_id":804649276,"type":"village","location":[14.4510172,35.8986113],"bbox":[14.4310172,35.8786113,14.4710172,35.9186113],"border":{"name":"Ħal Balzan","other_names":{"name:en":"Balzan","name:it":"Balzan","ISO3166-2":"MT-02","alt_name:it":"Casal Balzan"},"display_name":"Ħal Balzan, Ċentrali, Malta","address":{"village":"Ħal Balzan","ISO3166-2-lvl8":"MT-02","state":"Ċentrali","country":"Malta","country_code":"mt"},"population":3869,"osm_type":"relation","osm_id":7510550,"type":"administrative","location":[14.4510172,35.8986113],"bbox":[14.4461855,35.8928064,14.4573907,35.9019236]}}
{"name":"Ħal Għargħur","other_names":{"name:en":"Gharghur","name:it":"Gargur","alt_name":"Għargħur","name:gcf":"Gagouy","alt_name:it":"Casal Gargur"},"display_name":"Ħal Għargħur, Tramuntana, Malta","address":{"village":"Ħal Għargħur","ISO3166-2-lvl8":"MT-15","state":"Tramuntana","country":"Malta","country_code":"mt"},"population":2768,"osm_type":"node","osm_id":130913009,"type":"village","location":[14.4531676,35.9240307],"bbox":[14.4331676,35.9040307,14.4731676,35.9440307],"border":{"name":"Ħal Għargħur","other_names":{"name:en":"Għargħur","name:it":"Gargur","alt_name":"Għargħur","ISO3166-2":"MT-15","alt_name:it":"Casal Gargur","name:gcf":"Gagouy","alt:en":"Gharghur"},"display_name":"Ħal Għargħur, Tramuntana, GHR 1305, Malta","address":{"village":"Ħal Għargħur","ISO3166-2-lvl8":"MT-15","state":"Tramuntana","postcode":"GHR 1305","country":"Malta","country_code":"mt"},"population":2768,"osm_type":"relation","osm_id":7510592,"type":"administrative","location":[14.4531676,35.9240307],"bbox":[14.4473453,35.9124231,14.465713,35.9333191]}}
{"name":"Ħal Għaxaq","other_names":{"name:en":"Għaxaq","name:it":"Asciach","name:mt":"Ħal Għaxaq","alt_name:it":"Casal Asciach"},"display_name":"Ħal Għaxaq, Nofsinhar, Malta","address":{"village":"Ħal Għaxaq","ISO3166-2-lvl8":"MT-17","state":"Nofsinhar","country":"Malta","country_code":"mt"},"population":4722,"osm_type":"node","osm_id":130894154,"type":"village","location":[14.5173587,35.8484527],"bbox":[14.4973587,35.8284527,14.5373587,35.8684527],"border":{"name":"Ħal Għaxaq","other_names":{"name:en":"Għaxaq","name:it":"Asciach","ISO3166-2":"MT-17","alt_name:it":"Casal Asciach","name:mt":"Ħal Għaxaq"},"display_name":"Ħal Għaxaq, Nofsinhar, Malta","address":{"village":"Ħal Għaxaq","ISO3166-2-lvl8":"MT-17","state":"Nofsinhar","country":"Malta","country_code":"mt"},"population":4722,"osm_type":"relation","osm_id":7510562,"type":"administrative","location":[14.5173587,35.8484527],"bbox":[14.5044951,35.8314414,14.528096,35.8618098]}}
{"name":"Ħal Kirkop","other_names":{"name:it":"Chircop","int_name":"Kirkop"},"display_name":"Ħal Kirkop, Nofsinhar, Malta","address":{"village":"Ħal Kirkop","ISO3166-2-lvl8":"MT-23","state":"Nofsinhar","country":"Malta","country_code":"mt"},"osm_type":"node","osm_id":147767871,"type":"village","location":[14.4844481,35.8419845],"bbox":[14.4644481,35.8219845,14.5044481,35.8619845],"border":{"name":"Ħal Kirkop","other_names":{"name:en":"Kirkop","name:it":"Chircop","ISO3166-2":"MT-23","int_name":"Kirkop"},"display_name":"Ħal Kirkop, Nofsinhar, Malta","address":{"village":"Ħal Kirkop","ISO3166-2-lvl8":"MT-23","state":"Nofsinhar","country":"Malta","country_code":"mt"},"osm_type":"relation","osm_id":7510554,"type":"administrative","location":[14.4844481,35.8419845],"bbox":[14.4770963,35.8360935,14.4920293,35.8511684]}}
{"name":"Ħal Lija","other_names":{"name:en":"Lija","name:it":"Lia","alt_name:it":"Casal Lia"},"display_name":"Ħal Lija, Ċentrali, Malta","address":{"village":"Ħal Lija","ISO3166-2-lvl8":"MT-24","state":"Ċentrali","country":"Malta","country_code":"mt"},"population":3070,"osm_type":"node","osm_id":3678514908,"type":"village","location":[14.4476136,35.901766],"bbox":[14.4276136,35.881766,14.4676136,35.921766],"border":{"name":"Ħal Lija","other_names":{"name:en":"Lija","name:it":"Lia","ISO3166-2":"MT-24","alt_name:it":"Casal Lia"},"display_name":"Ħal Lija, Ċentrali, Malta","address":{"village":"Ħal Lija","ISO3166-2-lvl8":"MT-24","state":"Ċentrali","country":"Malta","country_code":"mt"},"population":3070,"osm_type":"relation","osm_id":7510593,"type":"administrative","location":[14.4476136,35.901766],"bbox":[14.4340072,35.8967175,14.4523707,35.9054474]}}
{"name":"Ħal Luqa","other_names":{"name:en":"Luqa","name:it":"Luca","name:mt":"Ħal Luqa"},"display_name":"Ħal Luqa, Nofsinhar, Malta","address":{"village":"Ħal Luqa","ISO3166-2-lvl8":"MT-25","state":"Nofsinhar","country":"Malta","country_code":"mt"},"population":6162,"osm_type":"node","osm_id":130903626,"type":"village","location":[14.4892913,35.859653],"bbox":[14.4692913,35.839653,14.5092913,35.879653],"border":{"name":"Ħal Luqa","other_names":{"name:en":"Luqa","name:it":"Luca","ISO3166-2":"MT-25","name:mt":"Ħal Luqa"},"display_name":"Ħal Luqa, Nofsinhar, Malta","address":{"village":"Ħal Luqa","ISO3166-2-lvl8":"MT-25","state":"Nofsinhar","country":"Malta","country_code":"mt"},"population":6162,"osm_type":"relation","osm_id":7510563,"type":"administrative","location":[14.4892913,35.859653],"bbox":[14.4576263,35.8280428,14.513972,35.8756565]}}
{"name":"Ħal Safi","other_names":{"name:en":"Safi","name:it":"Safi","name:mt":"Ħal Safi"},"display_name":"Ħal Safi, Nofsinhar, Malta","address":{"village":"Ħal Safi","ISO3166-2-lvl8":"MT-47","state":"Nofsinhar","country":"Malta","country_code":"mt"},"population":2126,"osm_type":"node","osm_id":130889468,"type":"village","location":[14.4843078,35.8324496],"bbox":[14.4643078,35.8124496,14.5043078,35.8524496],"border":{"name":"Ħal Safi","other_names":{"name:en":"Safi","name:it":"Safi","ISO3166-2":"MT-47","name:mt":"Ħal Safi"},"display_name":"Ħal Safi, Nofsinhar, Malta","address":{"village":"Ħal Safi","ISO3166-2-lvl8":"MT-47","state":"Nofsinhar","country":"Malta","country_code":"mt"},"population":2126,"osm_type":"relation","osm_id":7510553,"type":"administrative","location":[14.4843078,35.8324496],"bbox":[14.4793355,35.8260507,14.505877,35.8436643]}}
{"name":"Ħal Tarxien","other_names":{"name:en":"Tarxien","name:it":"Tarscen","alt_name:it":"Tarxen;Casal Tarxen"},"display_name":"Ħal Tarxien, Xlokk, Malta","address":{"village":"Ħal Tarxien","ISO3166-2-lvl8":"MT-59","state":"Xlokk","country":"Malta","country_code":"mt"},"population":8583,"osm_type":"node","osm_id":599173875,"type":"village","location":[14.5114877,35.8648857],"bbox":[14.4914877,35.8448857,14.5314877,35.8848857],"border":{"name":"Ħal Tarxien","other_names":{"name:en":"Tarxien","name:it":"Tarscen","ISO3166-2":"MT-59","alt_name:it":"Tarxen;Casal Tarxen"},"display_name":"Ħal Tarxien, Xlokk, Malta","address":{"village":"Ħal Tarxien","ISO3166-2-lvl8":"MT-59","state":"Xlokk","country":"Malta","country_code":"mt"},"population":8583,"osm_type":"relation","osm_id":7510559,"type":"administrative","location":[14.5114877,35.8648857],"bbox":[14.505831,35.8615018,14.520604,35.8715597]}}
{"name":"Il-Baħrija","other_names":{"name:ar":"البحرية","name:en":"Baħrija"},"display_name":"Il-Baħrija, Ir-Rabat, Tramuntana, MGR 1502, Malta","address":{"village":"Il-Baħrija","town":"Ir-Rabat","ISO3166-2-lvl8":"MT-46","state":"Tramuntana","postcode":"MGR 1502","country":"Malta","country_code":"mt"},"osm_type":"node","osm_id":12738319122,"type":"village","location":[14.347439,35.8946935],"bbox":[14.327439,35.8746935,14.367439,35.9146935]}
{"name":"Il-Fontana","other_names":{"name:en":"Fontana","name:it":"Fontana","alt_name":"Fontana;It-Triq Tal-Għajn","alt_name:it":"La via della sorgente"},"display_name":"Il-Fontana, Għawdex, Malta","address":{"village":"Il-Fontana","ISO3166-2-lvl8":"MT-10","state":"Għawdex","country":"Malta","country_code":"mt"},"population":985,"osm_type":"node","osm_id":131756121,"type":"village","location":[14.2370014,36.038744],"bbox":[14.2170014,36.018744,14.2570014,36.058744],"border":{"name":"Il-Fontana","other_names":{"name:en":"Fontana","name:it":"Fontana","alt_name":"Fontana;It-Triq Tal-Għajn","ISO3166-2":"MT-10","alt_name:it":"La via della sorgente"},"display_name":"Il-Fontana, Għawdex, Malta","address":{"village":"Il-Fontana","ISO3166-2-lvl8":"MT-10","state":"Għawdex","country":"Malta","country_code":"mt"},"population":985,"osm_type":"relation","osm_id":7508578,"type":"administrative","location":[14.2370014,36.038744],"bbox":[14.2322169,36.032366,14.2399021,36.0423139]}}
{"name":"Il-Gudja","other_names":{"name:en":"Gudja","name:it":"Gudia","alt_name:it":"Casal Gudia"},"display_name":"Il-Gudja, Nofsinhar, Malta","address":{"village":"Il-Gudja","ISO3166-2-lvl8":"MT-11","state":"Nofsinhar","country":"Malta","country_code":"mt"},"population":2997,"osm_type":"node","osm_id":130897442,"type":"village","location":[14.5030882,35.8483258],"bbox":[14.4830882,35.8283258,14.5230882,35.8683258],"border":{"name":"Il-Gudja","other_names":{"name:en":"Gudja","name:it":"Gudia","ISO3166-2":"MT-11","alt_name:it":"Casal Gudia"},"display_name":"Il-Gudja, Nofsinhar, Malta","address":{"village":"Il-Gudja","ISO3166-2-lvl8":"MT-11","state":"Nofsinhar","country":"Malta","country_code":"mt"},"population":2997,"osm_type":"relation","osm_id":7510557,"type":"administrative","location":[14.5030882,35.8483258],"bbox":[14.4945329,35.8387313,14.5119863,35.8591452]}}
{"name":"Il-Kalkara","other_names":{"name:en":"Kalkara","name:it":"Calcara","name:mt":"Il-Kalkara"},"display_name":"Il-Kalkara, Xlokk, Malta","address":{"village":"Il-Kalkara","ISO3166-2-lvl8":"MT-21","state":"Xlokk","country":"Malta","country_code":"mt"},"population":3014,"osm_type":"node","osm_id":130930586,"type":"village","location":[14.5290867,35.8898771],"bbox":[14.5090867,35.8698771,14.5490867,35.9098771],"border":{"name":"Il-Kalkara","other_names":{"name:en":"Kalkara","name:it":"Calcara","ISO3166-2":"MT-21","name:mt":"Il-Kalkara"},"display_name":"Il-Kalkara, Xlokk, Malta","address":{"village":"Il-Kalkara","ISO3166-2-lvl8":"MT-21","state":"Xlokk","country":"Malta","country_code":"mt"},"population":3014,"osm_type":"relation","osm_id":7510575,"type":"administrative","location":[14.5290867,35.8898771],"bbox":[14.5226709,35.8843133,14.5453199,35.8989514]}}
{"name":"Il-Manikata","other_names":{"name:en":"Manikata","alt_name":"Manikata"},"display_name":"Il-Manikata, Il-Mellieħa, Tramuntana, MLH 5530, Malta","address":{"village":"Il-Manikata","ISO3166-2-lvl8":"MT-30","state":"Tramuntana","postcode":"MLH 5530","country":"Malta","country_code":"mt"},"population":539,"osm_type":"node","osm_id":130924028,"type":"village","location":[14.3537646,35.9407206],"bbox":[14.3337646,35.9207206,14.3737646,35.9607206]}
{"name":"Il-Marsa","other_names":{"name:ar":"المرسى","name:en":"Marsa","name:it":"Marsa","name:ru":"Марса","alt_name:ar":"مرسى"},"display_name":"Il-Marsa, Xlokk, Malta","address":{"village":"Il-Marsa","ISO3166-2-lvl8":"MT-26","state":"Xlokk","country":"Malta","country_code":"mt"},"population":4401,"osm_type":"node","osm_id":3776530606,"type":"village","location":[14.4944898,35.882892],"bbox":[14.4744898,35.862892,14.5144898,35.902892],"border":{"name":"Il-Marsa","other_names":{"name:ar":"المرسى","name:en":"Marsa","name:it":"Marsa","ISO3166-2":"MT-26","alt_name:ar":"مرسى","name:ru":"Марса"},"display_name":"Il-Marsa, Xlokk, Malta","address":{"village":"Il-Marsa","ISO3166-2-lvl8":"MT-26","state":"Xlokk","country":"Malta","country_code":"mt"},"population":4401,"osm_type":"relation","osm_id":7510579,"type":"administrative","location":[14.4944898,35.882892],"bbox":[14.4806053,35.8652865,14.505665,35.8880924]}}
{"name":"Il-Mellieħa","other_names":{"name:en":"Mellieha","name:it":"Mellea","name:ru":"Меллиха","alt_name":"Mellieħa","alt_name:it":"Casal Melleha"},"display_name":"Il-Mellieħa, Tramuntana, Malta","address":{"village":"Il-Mellieħa","ISO3166-2-lvl8":"MT-30","state":"Tramuntana","country":"Malta","country_code":"mt"},"population":10087,"osm_type":"node","osm_id":130923717,"type":"village","location":[14.368367,35.9599618],"bbox":[14.348367,35.9399618,14.388367,35.9799618],"border":{"name":"Il-Mellieħa","other_names":{"name:en":"Mellieħa","name:it":"Mellea","name:ru":"Меллиха","alt_name":"Mellieħa","ISO3166-2":"MT-30","alt_name:it":"Casal Melleha","alt:en":"Mellieha"},"display_name":"Il-Mellieħa, Tramuntana, Malta","address":{"village":"Il-Mellieħa","ISO3166-2-lvl8":"MT-30","state":"Tramuntana","country":"Malta","country_code":"mt"},"population":10087,"osm_type":"relation","osm_id":6181422,"type":"administrative","location":[14.368367,35.9599618],"bbox":[14.3189084,35.9306415,14.4077389,35.9982964]}}
{"name":"Il-Munxar","other_names":{"name:en":"Munxar","name:it":"Monsciar","name:mt":"Il-Munxar","alt_name":"Munxar"},"display_name":"Il-Munxar, Għawdex, Malta","address":{"village":"Il-Munxar","ISO3166-2-lvl8":"MT-36","state":"Għawdex","country":"Malta","country_code":"mt"},"population":1454,"osm_type":"node","osm_id":3898922157,"type":"village","location":[14.2347898,36.0306654],"bbox":[14.2147898,36.0106654,14.2547898,36.0506654],"border":{"name":"Il-Munxar","other_names":{"name:en":"Munxar","name:it":"Monsciar","name:mt":"Il-Munxar","alt_name":"Munxar","ISO3166-2":"MT-36"},"display_name":"Il-Munxar, Għawdex, Malta","address":{"village":"Il-Munxar","ISO3166-2-lvl8":"MT-36","state":"Għawdex","country":"Malta","country_code":"mt"},"population":1454,"osm_type":"relation","osm_id":7508589,"type":"administrative","location":[14.2347898,36.0306654],"bbox":[14.2121662,36.0202526,14.2391253,36.0375788]}}
{"name":"Il-Qajjenza","display_name":"Il-Qajjenza, Birżebbuġa, Nofsinhar, BBG 1651, Malta","address":{"village":"Il-Qajjenza","town":"Birżebbuġa","ISO3166-2-lvl8":"MT-05","state":"Nofsinhar","postcode":"BBG 1651","country":"Malta","country_code":"mt"},"osm_type":"node","osm_id":130891753,"type":"village","location":[14.534088,35.8336352],"bbox":[14.514088,35.8136352,14.554088,35.8536352]}
{"name":"Il-Qala","other_names":{"name:en":"Qala","name:it":"La Cala"},"display_name":"Il-Qala, Għawdex, Malta","address":{"village":"Il-Qala","ISO3166-2-lvl8":"MT-42","state":"Għawdex","country":"Malta","country_code":"mt"},"population":2294,"osm_type":"node","osm_id":131731405,"type":"village","location":[14.3103502,36.036291],"bbox":[14.2903502,36.016291,14.3303502,36.056291],"border":{"name":"Il-Qala","other_names":{"name:en":"Qala","name:it":"La Cala","ISO3166-2":"MT-42"},"display_name":"Il-Qala, Għawdex, Malta","address":{"village":"Il-Qala","ISO3166-2-lvl8":"MT-42","state":"Għawdex","country":"Malta","country_code":"mt"},"population":2294,"osm_type":"relation","osm_id":7508586,"type":"administrative","location":[14.3103502,36.036291],"bbox":[14.295239,36.0256782,14.3364252,36.0501911]}}
{"name":"Il-Qawra","other_names":{"name:en":"Qawra","name:it":"Qawra","name:mt":"Il-Qawra","old_name:it":"Casal Caura"},"display_name":"Il-Qawra, San Pawl il-Baħar, Tramuntana, SPB 2404, Malta","address":{"village":"Il-Qawra","town":"San Pawl il-Baħar","ISO3166-2-lvl8":"MT-51","state":"Tramuntana","postcode":"SPB 2404","country":"Malta","country_code":"mt"},"osm_type":"node","osm_id":5044930113,"type":"village","location":[14.4198078,35.9541286],"bbox":[14.3998078,35.9341286,14.4398078,35.9741286]}
{"name":"Il-Qrendi","other_names":{"name:en":"Qrendi","name:it":"Crendi"},"display_name":"Il-Qrendi, Nofsinhar, Malta","address":{"village":"Il-Qrendi","ISO3166-2-lvl8":"MT-44","state":"Nofsinhar","country":"Malta","country_code":"mt"},"population":2752,"osm_type":"node","osm_id":130887975,"type":"village","location":[14.4578698,35.8343586],"bbox":[14.4378698,35.8143586,14.4778698,35.8543586],"border":{"name":"Il-Qrendi","other_names":{"name:en":"Qrendi","name:it":"Crendi","ISO3166-2":"MT-44"},"display_name":"Il-Qrendi, Nofsinhar, QRD 3043, Malta","address":{"village":"Il-Qrendi","ISO3166-2-lvl8":"MT-44","state":"Nofsinhar","postcode":"QRD 3043","country":"Malta","country_code":"mt"},"population":2752,"osm_type":"relation","osm_id":7510568,"type":"administrative","location":[14.4578698,35.8343586],"bbox":[14.4302108,35.8188801,14.4699483,35.8426401]}}
{"name":"In-Nadur","other_names":{"name:ar":"المنظر","name:en":"Nadur","name:it":"Nadur","name:ml":"നാദൂർ"},"display_name":"In-Nadur, Għawdex, Malta","address":{"village":"In-Nadur","ISO3166-2-lvl8":"MT-37","state":"Għawdex","country":"Malta","country_code":"mt"},"population":4509,"osm_type":"node","osm_id":131731120,"type":"village","location":[14.2934514,36.0389956],"bbox":[14.2734514,36.0189956,14.3134514,36.0589956],"border":{"name":"In-Nadur","other_names":{"name:ar":"المنظر","name:en":"Nadur","name:it":"Nadur","ISO3166-2":"MT-37","name:ml":"നാദൂർ"},"display_name":"In-Nadur, Għawdex, NDR 1011, Malta","address":{"village":"In-Nadur","ISO3166-2-lvl8":"MT-37","state":"Għawdex","postcode":"NDR 1011","country":"Malta","country_code":"mt"},"population":4509,"osm_type":"relation","osm_id":7508587,"type":"administrative","location":[14.2934514,36.0389956],"bbox":[14.2772582,36.0338874,14.3180488,36.0657207]}}
{"name":"Is-Siġġiewi","other_names":{"name:en":"Siġġiewi","name:it":"Suggeui","alt_name:en":"Siggiewi;Città Ferdinand"},"display_name":"Is-Siġġiewi, Nofsinhar, Malta","address":{"village":"Is-Siġġiewi","ISO3166-2-lvl8":"MT-55","state":"Nofsinhar","country":"Malta","country_code":"mt"},"population":8367,"osm_type":"node","osm_id":130887108,"type":"village","location":[14.438063,35.8539354],"bbox":[14.418063,35.8339354,14.458063,35.8739354],"border":{"name":"Is-Siġġiewi","other_names":{"name:en":"Siġġiewi","name:it":"Suggeui","ISO3166-2":"MT-55","alt_name:en":"Siggiewi;Città Ferdinand"},"display_name":"Is-Siġġiewi, Nofsinhar, SGW 1071, Malta","address":{"village":"Is-Siġġiewi","ISO3166-2-lvl8":"MT-55","state":"Nofsinhar","postcode":"SGW 1071","country":"Malta","country_code":"mt"},"population":8367,"osm_type":"relation","osm_id":7510567,"type":"administrative","location":[14.438063,35.8539354],"bbox":[14.3895675,35.8260166,14.4724751,35.8685553]}}
{"name":"Ix-Xagħra","other_names":{"name:en":"Xaghra","name:it":"Caccia","name:ml":"ഷാറ","alt_name":"Xagħra","alt_name:it":"Casal Caccia"},"display_name":"Ix-Xagħra, Għawdex, Malta","address":{"village":"Ix-Xagħra","ISO3166-2-lvl8":"MT-61","state":"Għawdex","country":"Malta","country_code":"mt"},"population":4886,"osm_type":"node","osm_id":131739777,"type":"village","location":[14.2648446,36.0502996],"bbox":[14.2448446,36.0302996,14.2848446,36.0702996],"border":{"name":"Ix-Xagħra","other_names":{"name:en":"Xagħra","name:it":"Caccia","alt_name":"Xagħra","ISO3166-2":"MT-61","alt_name:it":"Casal Caccia","name:ml":"ഷാറ","alt:en":"Xaghra"},"display_name":"Ix-Xagħra, Għawdex, Malta","address":{"village":"Ix-Xagħra","ISO3166-2-lvl8":"MT-61","state":"Għawdex","country":"Malta","country_code":"mt"},"population":4886,"osm_type":"relation","osm_id":7508585,"type":"administrative","location":[14.2648446,36.0502996],"bbox":[14.249259,36.0382522,14.2862888,36.0732476]}}
{"name":"Ix-Xemxija","other_names":{"int_name":"Xemxija"},"display_name":"Ix-Xemxija, San Pawl il-Baħar, Tramuntana, SPB 9028, Malta","address":{"village":"Ix-Xemxija","town":"San Pawl il-Baħar","ISO3166-2-lvl8":"MT-51","state":"Tramuntana","postcode":"SPB 9028","country":"Malta","country_code":"mt"},"osm_type":"node","osm_id":383483008,"type":"village","location":[14.3838712,35.9490125],"bbox":[14.3638712,35.9290125,14.4038712,35.9690125]}
{"name":"Ix-Xewkija","other_names":{"name:en":"Xewkija","name:it":"Xeuchia","name:ml":"ഷൗക്കിയ","name:mt":"Ix-Xewkija","alt_name:it":"Casal Xeuchia"},"display_name":"Ix-Xewkija, Għawdex, Malta","address":{"village":"Ix-Xewkija","ISO3166-2-lvl8":"MT-62","state":"Għawdex","country":"Malta","country_code":"mt"},"population":3300,"osm_type":"node","osm_id":131726606,"type":"village","location":[14.2609952,36.0323529],"bbox":[14.2409952,36.0123529,14.2809952,36.0523529],"border":{"name":"Ix-Xewkija","other_names":{"name:en":"Xewkija","name:it":"Xeuchia","ISO3166-2":"MT-62","alt_name:it":"Casal Xeuchia","name:ml":"ഷൗക്കിയ","name:mt":"Ix-Xewkija"},"display_name":"Ix-Xewkija, Għawdex, Malta","address":{"village":"Ix-Xewkija","ISO3166-2-lvl8":"MT-62","state":"Għawdex","country":"Malta","country_code":"mt"},"population":3300,"osm_type":"relation","osm_id":7508588,"type":"administrative","location":[14.2609952,36.0323529],"bbox":[14.2380908,36.0214492,14.2775716,36.0425307]}}
{"name":"Ix-Xgħajra","other_names":{"name:en":"Xgħajra","name:it":"Sciaira","name:lt":"Šgaira"},"display_name":"Ix-Xgħajra, Xlokk, Malta","address":{"village":"Ix-Xgħajra","ISO3166-2-lvl8":"MT-63","state":"Xlokk","country":"Malta","country_code":"mt"},"population":1732,"osm_type":"node","osm_id":130930250,"type":"village","location":[14.5478673,35.8880709],"bbox":[14.5278673,35.8680709,14.5678673,35.9080709],"border":{"name":"Ix-Xgħajra","other_names":{"name:en":"Xgħajra","name:it":"Sciaira","name:lt":"Šgaira","ISO3166-2":"MT-63"},"display_name":"Ix-Xgħajra, Xlokk, Malta","address":{"village":"Ix-Xgħajra","ISO3166-2-lvl8":"MT-63","state":"Xlokk","country":"Malta","country_code":"mt"},"population":1732,"osm_type":"relation","osm_id":7510574,"type":"administrative","location":[14.5478673,35.8880709],"bbox":[14.5407624,35.8792416,14.5573144,35.8906604]}}
{"name":"Ix-Xlendi","other_names":{"name:en":"Xlendi","name:it":"Xlendi"},"display_name":"Ix-Xlendi, Il-Munxar, Għawdex, SNT 9020, Malta","address":{"village":"Ix-Xlendi","ISO3166-2-lvl8":"MT-36","state":"Għawdex","postcode":"SNT 9020","country":"Malta","country_code":"mt"},"osm_type":"node","osm_id":60796220,"type":"village","location":[14.2182656,36.0311977],"bbox":[14.1982656,36.0111977,14.2382656,36.0511977]}
{"name":"Iż-Żebbuġ","other_names":{"name:en":"Żebbuġ","name:it":"Zebbug","name:ml":"സെബുജ്","name:mt":"Iż-Żebbuġ","alt_name:it":"Casal Zebbug"},"display_name":"Iż-Żebbuġ, Għawdex, Malta","address":{"village":"Iż-Żebbuġ","ISO3166-2-lvl8":"MT-65","state":"Għawdex","country":"Malta","country_code":"mt"},"osm_type":"node","osm_id":131744241,"type":"village","location":[14.2370559,36.0732721],"bbox":[14.2170559,36.0532721,14.2570559,36.0932721],"border":{"name":"Iż-Żebbuġ","other_names":{"name:en":"Żebbuġ","name:it":"Zebbug","ISO3166-2":"MT-65","alt_name:it":"Casal Zebbug","name:ml":"സെബുജ്","name:mt":"Iż-Żebbuġ"},"display_name":"Iż-Żebbuġ, Għawdex, Malta","address":{"village":"Iż-Żebbuġ","ISO3166-2-lvl8":"MT-65","state":"Għawdex","country":"Malta","country_code":"mt"},"osm_type":"relation","osm_id":7508584,"type":"administrative","location":[14.2370559,36.0732721],"bbox":[14.2268139,36.0494994,14.2653548,36.0821531]}}
{"name":"L-Għarb","other_names":{"name:ar":"الغرب","name:en":"Għarb","name:it":"Garbo","name:ml":"ഗർബ്","alt_name:en":"Gharb","alt_name:it":"Casal Garbo"},"display_name":"L-Għarb, Għawdex, Malta","address":{"village":"L-Għarb","ISO3166-2-lvl8":"MT-14","state":"Għawdex","country":"Malta","country_code":"mt"},"population":1539,"osm_type":"node","osm_id":131745512,"type":"village","location":[14.209081,36.0598182],"bbox":[14.189081,36.0398182,14.229081,36.0798182],"border":{"name":"L-Għarb","other_names":{"name:ar":"الغرب","name:en":"Għarb","name:it":"Garbo","ISO3166-2":"MT-14","alt_name:en":"Gharb","alt_name:it":"Casal Garbo","name:ml":"ഗർബ്"},"display_name":"L-Għarb, Għawdex, Malta","address":{"village":"L-Għarb","ISO3166-2-lvl8":"MT-14","state":"Għawdex","country":"Malta","country_code":"mt"},"population":1539,"osm_type":"relation","osm_id":7508581,"type":"administrative","location":[14.209081,36.0598182],"bbox":[14.1834654,36.0543721,14.2181964,36.0798011]}}
{"name":"L-Għasri","other_names":{"name:en":"Għasri","name:it":"Ghasri"},"display_name":"L-Għasri, Għawdex, Malta","address":{"village":"L-Għasri","ISO3166-2-lvl8":"MT-16","state":"Għawdex","country":"Malta","country_code":"mt"},"population":525,"osm_type":"node","osm_id":131747333,"type":"village","location":[14.22173,36.0655404],"bbox":[14.20173,36.0455404,14.24173,36.0855404],"border":{"name":"L-Għasri","other_names":{"name:en":"Għasri","name:it":"Ghasri","ISO3166-2":"MT-16","alt_name:en":"Ghasri"},"display_name":"L-Għasri, Għawdex, GSR 1250, Malta","address":{"village":"L-Għasri","ISO3166-2-lvl8":"MT-16","state":"Għawdex","postcode":"GSR 1250","country":"Malta","country_code":"mt"},"population":525,"osm_type":"relation","osm_id":7508582,"type":"administrative","location":[14.22173,36.0655404],"bbox":[14.209208,36.0502855,14.2375096,36.0817867]}}
{"name":"L-Iklin","other_names":{"name:en":"Iklin","name:it":"L'Iclin"},"display_name":"L-Iklin, Ċentrali, Malta","address":{"village":"L-Iklin","ISO3166-2-lvl8":"MT-19","state":"Ċentrali","country":"Malta","country_code":"mt"},"population":3130,"osm_type":"node","osm_id":130915119,"type":"village","location":[14.4521273,35.911112],"bbox":[14.4321273,35.891112,14.4721273,35.931112],"border":{"name":"L-Iklin","other_names":{"name:en":"Iklin","name:it":"L'Iclin","ISO3166-2":"MT-19"},"display_name":"L-Iklin, Ċentrali, Malta","address":{"village":"L-Iklin","ISO3166-2-lvl8":"MT-19","state":"Ċentrali","country":"Malta","country_code":"mt"},"population":3130,"osm_type":"relation","osm_id":7510586,"type":"administrative","location":[14.4521273,35.911112],"bbox":[14.4473039,35.9022166,14.4632469,35.9167793]}}
{"name":"L-Imġarr","other_names":{"name:en":"Mġarr","name:it":"Mugiarro","name:ml":"മഗാർ","alt_name":"Mġarr"},"display_name":"L-Imġarr, Għajnsielem, Għawdex, GHR 1022, Malta","address":{"village":"L-Imġarr","ISO3166-2-lvl8":"MT-13","state":"Għawdex","postcode":"GHR 1022","country":"Malta","country_code":"mt"},"osm_type":"node","osm_id":131729697,"type":"village","location":[14.2964033,36.0245447],"bbox":[14.2764033,36.0045447,14.3164033,36.0445447]}
{"name":"L-Imġarr","other_names":{"name:it":"Mugiarro","name:ru":"Мджарр","alt_name":"Mġarr","old_name":"Mgiarro"},"display_name":"L-Imġarr, Tramuntana, Malta","address":{"village":"L-Imġarr","ISO3166-2-lvl8":"MT-31","state":"Tramuntana","country":"Malta","country_code":"mt"},"population":3629,"osm_type":"node","osm_id":3762432570,"type":"village","location":[14.3665109,35.9194409],"bbox":[14.3465109,35.8994409,14.3865109,35.9394409],"border":{"name":"L-Imġarr","other_names":{"name:en":"Mġarr","name:it":"Mugiarro","name:ru":"Мджарр","alt_name":"Mġarr","old_name":"Mgiarro","ISO3166-2":"MT-31"},"display_name":"L-Imġarr, Tramuntana, MGR 1502, Malta","address":{"village":"L-Imġarr","ISO3166-2-lvl8":"MT-31","state":"Tramuntana","postcode":"MGR 1502","country":"Malta","country_code":"mt"},"population":3629,"osm_type":"relation","osm_id":6172218,"type":"administrative","location":[14.3665109,35.9194409],"bbox":[14.3325167,35.8967644,14.4048029,35.9406793]}}
{"name":"L-Imqabba","other_names":{"name:en":"Mqabba","name:it":"Micabba","alt_name:en":"Micabbiba","alt_name:it":"Casal Micabiba"},"display_name":"L-Imqabba, Nofsinhar, Malta","address":{"village":"L-Imqabba","ISO3166-2-lvl8":"MT-33","state":"Nofsinhar","country":"Malta","country_code":"mt"},"population":3315,"osm_type":"node","osm_id":130887770,"type":"village","location":[14.4666263,35.8456802],"bbox":[14.4466263,35.8256802,14.4866263,35.8656802],"border":{"name":"L-Imqabba","other_names":{"name:en":"Mqabba","name:it":"Micabba","ISO3166-2":"MT-33","alt_name:en":"Micabbiba","alt_name:it":"Casal Micabiba"},"display_name":"L-Imqabba, Nofsinhar, Malta","address":{"village":"L-Imqabba","ISO3166-2-lvl8":"MT-33","state":"Nofsinhar","country":"Malta","country_code":"mt"},"population":3315,"osm_type":"relation","osm_id":7510555,"type":"administrative","location":[14.4666263,35.8456802],"bbox":[14.4505102,35.8387293,14.4819132,35.8527157]}}
{"name":"L-Imtarfa","other_names":{"name:ar":"المطرفة","name:en":"Mtarfa","name:it":"Marfa","alt_name:ar":"مطرفة"},"display_name":"L-Imtarfa, Tramuntana, Malta","address":{"village":"L-Imtarfa","ISO3166-2-lvl8":"MT-35","state":"Tramuntana","country":"Malta","country_code":"mt"},"population":2572,"osm_type":"node","osm_id":130908195,"type":"village","location":[14.3978902,35.8915754],"bbox":[14.3778902,35.8715754,14.4178902,35.9115754],"border":{"name":"L-Imtarfa","other_names":{"name:ar":"المطرفة","name:en":"Mtarfa","name:it":"Marfa","alt_name":"Mtarfa","ISO3166-2":"MT-35","alt_name:ar":"مطرفة"},"display_name":"L-Imtarfa, Tramuntana, Malta","address":{"village":"L-Imtarfa","ISO3166-2-lvl8":"MT-35","state":"Tramuntana","country":"Malta","country_code":"mt"},"population":2572,"osm_type":"relation","osm_id":7510564,"type":"administrative","location":[14.3978902,35.8915754],"bbox":[14.3904191,35.8838097,14.4048554,35.8961557]}}
{"name":"Marsalforn","other_names":{"name:it":"Marsalforn","name:ml":"മാർസൽഫോർൺ","alt_name":"Marsa el-Forn","short_name":"M'Forn","old_name:it":"Marsalfora"},"display_name":"Marsalforn, Iż-Żebbuġ, Għawdex, MFN 1211, Malta","address":{"village":"Marsalforn","ISO3166-2-lvl8":"MT-65","state":"Għawdex","postcode":"MFN 1211","country":"Malta","country_code":"mt"},"osm_type":"node","osm_id":131740645,"type":"village","location":[14.2598063,36.0708915],"bbox":[14.2398063,36.0508915,14.2798063,36.0908915]}
{"name":"Marsaxlokk","other_names":{"name:it":"Marsa Scirocco","name:ml":"മർസഷ്ലോക്ക്","alt_name:it":"Marsaslocca"},"display_name":"Marsaxlokk, Xlokk, Malta","address":{"village":"Marsaxlokk","ISO3166-2-lvl8":"MT-28","state":"Xlokk","country":"Malta","country_code":"mt"},"population":3534,"osm_type":"node","osm_id":265695880,"type":"village","location":[14.5448353,35.8417662],"bbox":[14.5248353,35.8217662,14.5648353,35.8617662],"border":{"name":"Marsaxlokk","other_names":{"name:en":"Marsaxlokk","name:it":"Marsa Scirocco","ISO3166-2":"MT-28","alt_name:it":"Marsaslocca","name:ml":"മർസഷ്ലോക്ക്"},"display_name":"Marsaxlokk, Xlokk, Malta","address":{"village":"Marsaxlokk","ISO3166-2-lvl8":"MT-28","state":"Xlokk","country":"Malta","country_code":"mt"},"population":3534,"osm_type":"relation","osm_id":7510571,"type":"administrative","location":[14.5448353,35.8417662],"bbox":[14.5267385,35.8190123,14.5727358,35.8495268]}}
{"name":"San Blas","display_name":"San Blas, In-Nadur, Għawdex, Malta","address":{"hamlet":"San Blas","village":"In-Nadur","ISO3166-2-lvl8":"MT-37","state":"Għawdex","country":"Malta","country_code":"mt"},"osm_type":"way","osm_id":23863699,"type":"beach","location":[14.300446357316055,36.0570233],"bbox":[14.2999091,36.0567486,14.3011023,36.0573554]}
{"name":"San Lawrenz","other_names":{"name:en":"Saint Lawrence","name:it":"San Lorenzo","name:ru":"Сан Лоренц"},"display_name":"San Lawrenz, Għawdex, Malta","address":{"village":"San Lawrenz","ISO3166-2-lvl8":"MT-50","state":"Għawdex","country":"Malta","country_code":"mt"},"population":748,"osm_type":"node","osm_id":131745085,"type":"village","location":[14.2039503,36.0553005],"bbox":[14.1839503,36.0353005,14.2239503,36.0753005],"border":{"name":"San Lawrenz","other_names":{"name:en":"Saint Lawrence","name:it":"San Lorenzo","name:ru":"Сан Лоренц","ISO3166-2":"MT-50"},"display_name":"San Lawrenz, Għawdex, SLZ 1040, Malta","address":{"village":"San Lawrenz","ISO3166-2-lvl8":"MT-50","state":"Għawdex","postcode":"SLZ 1040","country":"Malta","country_code":"mt"},"population":748,"osm_type":"relation","osm_id":7508580,"type":"administrative","location":[14.2039503,36.0553005],"bbox":[14.1859549,36.033059,14.2095844,36.062875]}}
{"name":"Santa Luċija","other_names":{"name:it":"Santa Lucia","name:ru":"Санта-Лучия"},"display_name":"Santa Luċija, Nofsinhar, Malta","address":{"village":"Santa Luċija","ISO3166-2-lvl8":"MT-53","state":"Nofsinhar","country":"Malta","country_code":"mt"},"population":2997,"osm_type":"node","osm_id":130898149,"type":"village","location":[14.5047695,35.8627784],"bbox":[14.4847695,35.8427784,14.5247695,35.8827784],"border":{"name":"Santa Luċija","other_names":{"name:it":"Santa Lucia","ISO3166-2":"MT-53","name:ru":"Санта-Лучия"},"display_name":"Santa Luċija, Nofsinhar, Malta","address":{"village":"Santa Luċija","ISO3166-2-lvl8":"MT-53","state":"Nofsinhar","country":"Malta","country_code":"mt"},"population":2997,"osm_type":"relation","osm_id":7510558,"type":"administrative","location":[14.5047695,35.8627784],"bbox":[14.4986749,35.8571881,14.5144984,35.8652889]}}
{"name":"Santa Venera","display_name":"Santa Venera, Ċentrali, Malta","address":{"village":"Santa Venera","ISO3166-2-lvl8":"MT-54","state":"Ċentrali","country":"Malta","country_code":"mt"},"osm_type":"node","osm_id":1313975722,"type":"village","location":[14.4802386,35.8897878],"bbox":[14.4602386,35.8697878,14.5002386,35.9097878],"border":{"name":"Santa Venera","other_names":{"ISO3166-2":"MT-54"},"display_name":"Santa Venera, Ċentrali, Malta","address":{"village":"Santa Venera","ISO3166-2-lvl8":"MT-54","state":"Ċentrali","country":"Malta","country_code":"mt"},"osm_type":"relation","osm_id":7510548,"type":"administrative","location":[14.4802386,35.8897878],"bbox":[14.4703366,35.8839945,14.48483,35.8951206]}}
{"name":"Ta' Kerċem","other_names":{"name:en":"Kerċem","name:it":"Chercem","alt_name:en":"Kercem"},"display_name":"Ta' Kerċem, Għawdex, Malta","address":{"village":"Ta' Kerċem","ISO3166-2-lvl8":"MT-22","state":"Għawdex","country":"Malta","country_code":"mt"},"population":1938,"osm_type":"node","osm_id":131748932,"type":"village","location":[14.228056,36.0416854],"bbox":[14.208056,36.0216854,14.248056,36.0616854],"border":{"name":"Ta' Kerċem","other_names":{"name:en":"Kerċem","name:it":"Chercem","ISO3166-2":"MT-22","alt_name:en":"Kercem"},"display_name":"Ta' Kerċem, Għawdex, Malta","address":{"village":"Ta' Kerċem","ISO3166-2-lvl8":"MT-22","state":"Għawdex","country":"Malta","country_code":"mt"},"population":1938,"osm_type":"relation","osm_id":7508579,"type":"administrative","location":[14.228056,36.0416854],"bbox":[14.1932677,36.0306185,14.2337633,36.0555133]}}
{"name":"Ta' Sannat","other_names":{"name:en":"Sannat","name:it":"Sannat","alt_name:it":"Casal Sannat"},"display_name":"Ta' Sannat, Għawdex, Malta","address":{"village":"Ta' Sannat","ISO3166-2-lvl8":"MT-52","state":"Għawdex","country":"Malta","country_code":"mt"},"population":2117,"osm_type":"node","osm_id":131727357,"type":"village","location":[14.2429017,36.0273022],"bbox":[14.2229017,36.0073022,14.2629017,36.0473022],"border":{"name":"Ta' Sannat","other_names":{"name:en":"Sannat","name:it":"Sannat","ISO3166-2":"MT-52","alt_name:it":"Casal Sannat"},"display_name":"Ta' Sannat, Għawdex, Malta","address":{"village":"Ta' Sannat","ISO3166-2-lvl8":"MT-52","state":"Għawdex","country":"Malta","country_code":"mt"},"population":2117,"osm_type":"relation","osm_id":7508590,"type":"administrative","location":[14.2429017,36.0273022],"bbox":[14.2309476,36.0114294,14.272698,36.0304443]}}
{"name":"Tal-Pietà","other_names":{"name:en":"Pietà","name:it":"Pietà","name:ml":"പിയേറ്റ"},"display_name":"Tal-Pietà, Ċentrali, Malta","address":{"village":"Tal-Pietà","ISO3166-2-lvl8":"MT-41","state":"Ċentrali","country":"Malta","country_code":"mt"},"population":4020,"osm_type":"node","osm_id":5060274942,"type":"village","location":[14.4934881,35.892353],"bbox":[14.4734881,35.872353,14.5134881,35.912353],"border":{"name":"Tal-Pietà","other_names":{"name:en":"Pietà","name:it":"Pietà","ISO3166-2":"MT-41","name:ml":"പിയേറ്റ"},"display_name":"Tal-Pietà, Ċentrali, Malta","address":{"village":"Tal-Pietà","ISO3166-2-lvl8":"MT-41","state":"Ċentrali","country":"Malta","country_code":"mt"},"population":4020,"osm_type":"relation","osm_id":7510582,"type":"administrative","location":[14.4934881,35.892353],"bbox":[14.4899338,35.8885413,14.4985153,35.8965616]}}
