{"name":"Stanley","other_names":{"name:ar":"ستانلي","name:az":"Stenli","name:be":"Порт-Стэнлі","name:ca":"Port Stanley","name:de":"Stanley","name:el":"Στάνλεϋ","name:en":"Stanley","name:eo":"Stanlejo","name:es":"Puerto Stanley","name:fr":"Port Stanley","name:gv":"Stanley","name:he":"סטנלי","name:hr":"Stanley","name:hy":"Պորտ Սթենլի","name:ja":"スタンリー","name:ko":"스탠리","name:lv":"Stenli","name:mr":"पोर्ट स्टॅन्ली","name:os":"Порт-Стэнли","name:ru":"Стэнли","name:uk":"Порт-Стенлі","name:ur":"اسٹینلے","name:zh":"斯坦利港","alt_name":"Port Stanley","name:bat-smg":"Port Stenlis","name:be-tarask":"Стэнлі"},"display_name":"Stanley, Falkland Islands","address":{"city":"Stanley","country":"Falkland Islands","country_code":"fk"},"population":2460,"osm_type":"node","osm_id":1791553385,"type":"city","location":[-57.856525,-51.6930616],"bbox":[-58.016525,-51.8530616,-57.696525,-51.5330616],"border":{"name":"Stanley","other_names":{"name:ar":"ستانلي","name:az":"Stenli","name:be":"Порт-Стэнлі","name:bg":"Порт Стенли","name:el":"Στάνλεϋ","name:en":"Stanley","name:eo":"Stanlejo","name:es":"Puerto Stanley","name:fr":"Port Stanley","name:gv":"Stanley","name:he":"סטנלי","name:hr":"Stanley","name:hy":"Պորտ Սթենլի","name:id":"Stanley","name:ja":"スタンリー","name:ko":"스탠리","name:lt":"Stenlis","name:lv":"Stenli","name:mr":"पोर्ट स्टॅन्ली","name:os":"Порт-Стэнли","name:ru":"Стэнли","name:uk":"Порт-Стенлі","name:ur":"اسٹینلے","name:zh":"斯坦利港","alt_name":"Port Stanley","alt_name:en":"Port Stanley","alt_name:es":"Puerto Argentino","name:bat-smg":"Port Stenlis","name:ca":"Port Stanley","name:de":"Stanley","name:be-tarask":"Стэнлі"},"display_name":"Stanley, Falkland Islands","address":{"city":"Stanley","country":"Falkland Islands","country_code":"fk"},"population":2460,"osm_type":"relation","osm_id":12764972,"type":"city","location":[-57.856525,-51.6930616],"bbox":[-57.9134847,-51.7018744,-57.7913046,-51.6861263]}}
