{"name":"Alofi","other_names":{"name:ar":"الوفي (نييوي)","name:az":"Alofi","name:be":"Алофі","name:bg":"Алофи","name:bs":"Alofi","name:ca":"Alofi","name:cs":"Alofi","name:cv":"Алофи","name:da":"Alofi","name:de":"Alofi","name:el":"Αλόφι","name:en":"Alofi","name:eo":"Alofo","name:es":"Alofi","name:et":"Alofi","name:eu":"Alofi","name:fa":"الوفی","name:fi":"Alofi","name:fr":"Alofi","name:ga":"Alofi","name:gd":"Alofi","name:gl":"Alofi","name:he":"אלופי","name:hr":"Alofi","name:hu":"Alofi","name:hy":"Ալոֆի","name:id":"Alofi","name:io":"Alofi","name:is":"Alofi","name:it":"Alofi","name:ja":"アロフィ","name:ka":"ალოფი","name:ko":"알로피","name:lt":"Alofis","name:lv":"Alofi","name:mk":"Алофи","name:ml":"അലാഫി","name:mr":"अलोफी","name:ms":"Alofi","name:nl":"Alofi","name:nn":"Alofi","name:no":"Alofi","name:pl":"Alofi","name:ps":"الوفي","name:pt":"Alofi","name:ro":"Alofi","name:ru":"Алофи","name:sk":"Alofi","name:sl":"Alofi","name:sn":"Alofi","name:so":"Alofi","name:sq":"Alofi","name:sr":"Алофи","name:sv":"Alofi","name:sw":"Alofi","name:ta":"அலோஃபி","name:tg":"Алофи","name:th":"อาโลฟี","name:tr":"Alofi","name:ty":"Alofi","name:uk":"Алофі","name:ur":"الوفی","name:vi":"Alofi","name:zh":"阿洛菲","alt_name":"Alofi Township","name:arz":"الوفى","name:ast":"Alofi","name:cdo":"Alofi","name:ceb":"Alofi","name:ckb":"ئەلۆفی","name:hak":"Alofi","name:lmo":"Alofi","name:nan":"Alofi","name:pih":"Alofi","name:pms":"Alofi","name:szl":"Alofi","name:vro":"Alofi","name:war":"Alofi","name:wuu":"阿洛菲","name:yue":"阿洛菲","name:be-tarask":"Алофі"},"display_name":"Alofi, Niuē","address":{"town":"Alofi","country":"Niuē","country_code":"nu"},"osm_type":"node","osm_id":448768937,"type":"town","location":[-169.919199,-19.0534159],"bbox":[-169.959199,-19.0934159,-169.879199,-19.0134159],"border":[{"name":"Alofi","other_names":{"name:ar":"الوفي (نييوي)","name:az":"Alofi","name:be":"Алофі","name:bg":"Алофи","name:bs":"Alofi","name:ca":"Alofi","name:cs":"Alofi","name:cv":"Алофи","name:da":"Alofi","name:de":"Alofi","name:el":"Αλόφι","name:en":"Alofi","name:eo":"Alofo","name:es":"Alofi","name:et":"Alofi","name:eu":"Alofi","name:fa":"الوفی","name:fi":"Alofi","name:fr":"Alofi","name:ga":"Alofi","name:gd":"Alofi","name:gl":"Alofi","name:he":"אלופי","name:hr":"Alofi","name:hu":"Alofi","name:hy":"Ալոֆի","name:id":"Alofi","name:io":"Alofi","name:is":"Alofi","name:it":"Alofi","name:ja":"アロフィ","name:ka":"ალოფი","name:ko":"알로피","name:lt":"Alofis","name:lv":"Alofi","name:mk":"Алофи","name:ml":"അലാഫി","name:mr":"अलोफी","name:ms":"Alofi","name:nl":"Alofi","name:nn":"Alofi","name:no":"Alofi","name:pl":"Alofi","name:ps":"الوفي","name:pt":"Alofi","name:ro":"Alofi","name:ru":"Алофи","name:sk":"Alofi","name:sl":"Alofi","name:sn":"Alofi","name:so":"Alofi","name:sq":"Alofi","name:sr":"Алофи","name:sv":"Alofi","name:sw":"Alofi","name:ta":"அலோஃபி","name:tg":"Алофи","name:th":"อาโลฟี","name:tr":"Alofi","name:ty":"Alofi","name:uk":"Алофі","name:ur":"الوفی","name:vi":"Alofi","name:zh":"阿洛菲","alt_name":"Alofi Township","name:arz":"الوفى","name:ast":"Alofi","name:cdo":"Alofi","name:ceb":"Alofi","name:ckb":"ئەلۆفی","name:hak":"Alofi","name:lmo":"Alofi","name:nan":"Alofi","name:pih":"Alofi","name:pms":"Alofi","name:szl":"Alofi","name:vro":"Alofi","name:war":"Alofi","name:wuu":"阿洛菲","name:yue":"阿洛菲","name:be-tarask":"Алофі"},"display_name":"Alofi, Niuē","address":{"town":"Alofi","country":"Niuē","country_code":"nu"},"osm_type":"relation","osm_id":1558549,"type":"administrative","location":[-169.919199,-19.0534159],"bbox":[-169.9496922,-19.0900617,-169.8418587,-19.016051]},{"name":"Alofi","other_names":{"name:ru":"Алофи"},"display_name":"Alofi, Niuē","address":{"town":"Alofi","country":"Niuē","country_code":"nu"},"osm_type":"relation","osm_id":3548694,"type":"administrative","location":[-169.9182815774298,-19.05050105],"bbox":[-169.9330341,-19.063833,-169.9160569,-19.0371364]}]}
