{"name":"Bà Rịa","other_names":{"name:en":"Bà Rịa","name:fa":"باژیا","name:fr":"Bà Rịa","name:ja":"バリア","name:ko":"바리어","name:ru":"Бариа","name:vi":"Bà Rịa","name:zh":"巴地市","name:vi-Hani":"婆地","official_name":"Thành phố Bà Rịa","official_name:en":"Ba Ria City","official_name:fr":"Bà Rịa-ville","official_name:vi":"Thành phố Bà Rịa","name:pronunciation":"ɓa̤ː˨˩␣ɹḭʔə˨˩"},"display_name":"Bà Rịa, Phường Bà Rịa, 78107, Việt Nam","address":{"city":"Bà Rịa","county":"Phường Bà Rịa","postcode":"78107","country":"Việt Nam","country_code":"vn"},"osm_type":"node","osm_id":369496665,"type":"city","location":[107.1843016,10.4944528],"bbox":[107.0243016,10.3344528,107.3443016,10.6544528]}
{"name":"Bắc Giang","other_names":{"name:en":"Bắc Giang","name:ja":"バクザン","name:ko":"박장","name:lt":"Bakziangas","name:ru":"Бакзянг","name:uk":"Бакзянґ","name:zh":"北江市","name:lzh":"北江城庯","old_name":"Phủ Lạng Thương","name:vi-Hani":"城庯","name:zh-Hant":"北江市"},"display_name":"Bắc Giang, Phường Bắc Giang, Tỉnh Bắc Ninh, Việt Nam","address":{"city":"Bắc Giang","state":"Tỉnh Bắc Ninh","ISO3166-2-lvl4":"VN-56","country":"Việt Nam","country_code":"vn"},"population":194171,"osm_type":"node","osm_id":369487030,"type":"city","location":[106.1988847,21.2815961],"bbox":[106.0388847,21.1215961,106.3588847,21.4415961],"border":{"name":"Phường Bắc Giang","other_names":{"name:vi":"Phường Bắc Giang","name:en":"Bắc Giang","name:ja":"バクザン","name:ko":"박장","name:lt":"Bakziangas","name:ru":"Бакзянг","name:uk":"Бакзянґ","name:zh":"北江市","name:lzh":"北江城庯","old_name":"Phủ Lạng Thương","name:vi-Hani":"城庯","name:zh-Hant":"北江市","alt":"Bắc Giang"},"display_name":"Phường Bắc Giang, Tỉnh Bắc Ninh, 26000, Việt Nam","address":{"city":"Phường Bắc Giang","state":"Tỉnh Bắc Ninh","ISO3166-2-lvl4":"VN-56","postcode":"26000","country":"Việt Nam","country_code":"vn"},"population":194171,"osm_type":"relation","osm_id":18758357,"type":"administrative","location":[106.1988847,21.2815961],"bbox":[106.1837567,21.26322,106.2559303,21.3127838]}}
{"name":"Bắc Kạn","other_names":{"name:en":"Bắc Kạn","name:ja":"バックカン","name:ko":"박깐","name:lt":"Bakkanas","name:ru":"Баккан","name:th":"บั๊กกั่น","name:vi":"Bắc Kạn","name:zh":"北𣴓市","name:vi-Hani":"城庯北𣴓","name:zh-Hans":"北𣴓市","name:zh-Hant":"北𣴓市","official_name":"Thành phố Bắc Kạn"},"display_name":"Bắc Kạn, Phường Đức Xuân, Tỉnh Thái Nguyên, Việt Nam","address":{"city":"Bắc Kạn","county":"Phường Đức Xuân","state":"Tỉnh Thái Nguyên","ISO3166-2-lvl4":"VN-69","country":"Việt Nam","country_code":"vn"},"population":38510,"osm_type":"node","osm_id":1539810898,"type":"city","location":[105.837248,22.1494915],"bbox":[105.677248,21.9894915,105.997248,22.3094915]}
{"name":"Bạc Liêu","other_names":{"name:en":"Bạc Liêu","name:fa":"باک‌لیئو","name:ja":"バクリエウ","name:ko":"박리에우","name:ru":"Бакльеу","name:th":"บักเลียว","name:vi":"Bạc Liêu","name:zh":"薄寮市","old_name":"Vĩnh Lợi","official_name":"Thành phố Bạc Liêu"},"display_name":"Bạc Liêu, Phường Bạc Liêu, Tỉnh Cà Mau, 97000, Việt Nam","address":{"city":"Bạc Liêu","county":"Phường Bạc Liêu","state":"Tỉnh Cà Mau","ISO3166-2-lvl4":"VN-59","postcode":"97000","country":"Việt Nam","country_code":"vn"},"population":115508,"osm_type":"node","osm_id":369486941,"type":"city","location":[105.723904,9.2855006],"bbox":[105.563904,9.1255006,105.883904,9.4455006]}
{"name":"Bắc Ninh","other_names":{"name:en":"Bac Ninh","name:ja":"バクニン","name:ko":"박닌","name:ru":"Бакнинь","name:vi":"Bắc Ninh","name:zh":"北寧市","name:zh-Hans":"北宁市","name:zh-Hant":"北寧市"},"display_name":"Bắc Ninh, Tỉnh Bắc Ninh, Việt Nam","address":{"city":"Bắc Ninh","state":"Tỉnh Bắc Ninh","ISO3166-2-lvl4":"VN-56","country":"Việt Nam","country_code":"vn"},"population":288766,"osm_type":"node","osm_id":369487046,"type":"city","location":[106.0710078,21.1781515],"bbox":[105.9110078,21.0181515,106.2310078,21.3381515]}
{"name":"Bảo Lộc","other_names":{"name:en":"Bảo Lộc","name:ja":"バオロク","name:ko":"바오록","name:ru":"Баолок","name:th":"บ๋าวหลก","name:uk":"Баолок","name:vi":"Bảo Lộc","name:zh":"保祿市","name:zh-Hans":"保禄市","name:zh-Hant":"保祿市"},"display_name":"Bảo Lộc, Phường 1 Bảo Lộc, Tỉnh Lâm Đồng, Việt Nam","address":{"city":"Bảo Lộc","county":"Phường 1 Bảo Lộc","state":"Tỉnh Lâm Đồng","ISO3166-2-lvl4":"VN-35","country":"Việt Nam","country_code":"vn"},"population":99961,"osm_type":"node","osm_id":369487998,"type":"city","location":[107.8085831,11.5492101],"bbox":[107.6485831,11.3892101,107.9685831,11.7092101]}
{"name":"Bến Cát","display_name":"Bến Cát, Phường Bến Cát, 75900, Việt Nam","address":{"city":"Bến Cát","county":"Phường Bến Cát","postcode":"75900","country":"Việt Nam","country_code":"vn"},"osm_type":"node","osm_id":12925776410,"type":"city","location":[106.6125955,11.1382995],"bbox":[106.4525955,10.9782995,106.7725955,11.2982995]}
{"name":"Bến Tre","other_names":{"name:en":"Bến Tre","name:ja":"ベンチェ","name:ko":"벤째","name:ru":"Бенче","name:vi":"Bến Tre","name:zh":"槟椥市","old_name":"Trúc Giang","name:zh-Hant":"檳椥市"},"display_name":"Bến Tre, Phường Phú Khương, Tỉnh Vĩnh Long, 07584, Việt Nam","address":{"city":"Bến Tre","county":"Phường Phú Khương","state":"Tỉnh Vĩnh Long","ISO3166-2-lvl4":"VN-49","postcode":"07584","country":"Việt Nam","country_code":"vn"},"osm_type":"node","osm_id":369487050,"type":"city","location":[106.3734823,10.2448214],"bbox":[106.2134823,10.0848214,106.5334823,10.4048214]}
{"name":"Biên Hòa","display_name":"Biên Hòa, Phường Trấn Biên, 76107, Việt Nam","address":{"city":"Biên Hòa","county":"Phường Trấn Biên","postcode":"76107","country":"Việt Nam","country_code":"vn"},"osm_type":"node","osm_id":12925785458,"type":"city","location":[106.8221169,10.9507829],"bbox":[106.6621169,10.7907829,106.9821169,11.1107829]}
{"name":"Buôn Ma Thuột","other_names":{"name:ar":"بون ما توت","name:en":"Buôn Ma Thuột","name:fa":"بون ما توت","name:he":"בון מא טאוט","name:ja":"バンメトート","name:ko":"부온마투옷","name:ru":"Буонметхуот","name:th":"บวนมาถ็วต","name:uk":"Буонметхуот","name:vi":"Buôn Ma Thuột","name:zh":"邦美蜀市","alt_name":"Buôn Mê Thuột;Ban Mê Thuột;Buôn Ma Thọt","name:rad":"Buôn Ma Thuột","old_name":"Lạc Giao","old_name:en":"Ban Me Thuot","old_name:vi":"Ban Mê Thuột","name:vi-Hani":"班迷屬","official_name":"Thành phố Buôn Ma Thuột","official_name:vi":"Thành phố Buôn Ma Thuột"},"display_name":"Buôn Ma Thuột, Phường Buôn Ma Thuột, Tỉnh Đắk Lắk, 63119, Việt Nam","address":{"city":"Buôn Ma Thuột","county":"Phường Buôn Ma Thuột","state":"Tỉnh Đắk Lắk","ISO3166-2-lvl4":"VN-33","postcode":"63119","country":"Việt Nam","country_code":"vn"},"population":245951,"osm_type":"node","osm_id":2502425156,"type":"city","location":[108.0447368,12.6796827],"bbox":[107.8847368,12.5196827,108.2047368,12.8396827]}
{"name":"Cà Mau","other_names":{"name:en":"Cà Mau","name:fa":"کاماو","name:ko":"까마우시","name:ru":"Камау","name:vi":"Cà Mau","name:zh":"金甌市","old_name":"Quản Long","name:zh-Hans":"金瓯市","name:zh-Hant":"金甌市","official_name":"Thành phố Cà Mau"},"display_name":"Cà Mau, Phường Tân Thành, Tỉnh Cà Mau, 98100, Việt Nam","address":{"city":"Cà Mau","county":"Phường Tân Thành","state":"Tỉnh Cà Mau","ISO3166-2-lvl4":"VN-59","postcode":"98100","country":"Việt Nam","country_code":"vn"},"osm_type":"node","osm_id":369486925,"type":"city","location":[105.1519707,9.1782047],"bbox":[104.9919707,9.0182047,105.3119707,9.3382047]}
{"name":"Cẩm Phả","other_names":{"name:en":"Cẩm Phả","name:ja":"カムファ","name:ko":"껌파시","name:ru":"Камфа","name:uk":"Камфа","name:zh":"錦普市","name:lzh":"錦普城庯","name:vi-Hani":"錦普","name:zh-Hans":"锦普市","name:zh-Hant":"錦普市"},"display_name":"Cẩm Phả, Phường Cẩm Phả, Tỉnh Quảng Ninh, Việt Nam","address":{"city":"Cẩm Phả","state":"Tỉnh Quảng Ninh","ISO3166-2-lvl4":"VN-13","country":"Việt Nam","country_code":"vn"},"population":182137,"osm_type":"node","osm_id":369491110,"type":"city","location":[107.278029,21.004432],"bbox":[107.118029,20.844432,107.438029,21.164432],"border":{"name":"Phường Cẩm Phả","other_names":{"name:de":"Stadtviertel Cẩm Phả","name:vi":"Phường Cẩm Phả","name:en":"Cẩm Phả","name:ja":"カムファ","name:ko":"껌파시","name:ru":"Камфа","name:uk":"Камфа","name:zh":"錦普市","name:lzh":"錦普城庯","name:vi-Hani":"錦普","name:zh-Hans":"锦普市","name:zh-Hant":"錦普市","alt":"Cẩm Phả"},"display_name":"Phường Cẩm Phả, Tỉnh Quảng Ninh, 01250, Việt Nam","address":{"city":"Phường Cẩm Phả","state":"Tỉnh Quảng Ninh","ISO3166-2-lvl4":"VN-13","postcode":"01250","country":"Việt Nam","country_code":"vn"},"population":182137,"osm_type":"relation","osm_id":19273767,"type":"administrative","location":[107.278029,21.004432],"bbox":[107.265761,20.9903061,107.3117531,21.0482227]}}
{"name":"Cam Ranh","other_names":{"name:en":"Cam Ranh","name:ja":"カムラン","name:ko":"깜라인","name:lt":"Kamranis","name:ru":"Камрань","name:sr":"Кам Ран","name:th":"กามซัญ","name:uk":"Камрань","name:ur":"کام رنھ","name:vi":"Cam Ranh","name:zh":"金蘭市","name:vi-Hani":"柑欞","name:zh-Hant":"金蘭市","official_name":"Thành phố Cam Ranh","official_name:en":"City of Cam Ranh","official_name:vi":"Thành phố Cam Ranh"},"display_name":"Cam Ranh, Phường Cam Linh, Tỉnh Khánh Hòa, Việt Nam","address":{"city":"Cam Ranh","county":"Phường Cam Linh","state":"Tỉnh Khánh Hòa","ISO3166-2-lvl4":"VN-34","country":"Việt Nam","country_code":"vn"},"population":220630,"osm_type":"node","osm_id":1754728286,"type":"city","location":[109.14861,11.9166696],"bbox":[108.98861,11.7566696,109.30861,12.0766696]}
{"name":"Cần Thơ","other_names":{"name:en":"Cần Thơ","name:fa":"کان‌تو","name:ja":"カントー","name:pt":"Can Tho","name:ru":"Кантхо","name:th":"เกิ่นเทอ","name:uk":"Кантхо","name:vi":"Cần Thơ","name:zh":"芹苴市","old_name":"Tây Đô","official_name":"Thành phố Cần Thơ"},"display_name":"Cần Thơ, Thành phố Cần Thơ, Việt Nam","address":{"city":"Cần Thơ","municipality":"Thành phố Cần Thơ","ISO3166-2-lvl4":"VN-CT","country":"Việt Nam","country_code":"vn"},"population":1507187,"osm_type":"node","osm_id":948325197,"type":"city","location":[105.7875821,10.0364634],"bbox":[105.6275821,9.8764634,105.9475821,10.1964634],"border":{"name":"Thành phố Cần Thơ","other_names":{"name:af":"Can Tho","name:ar":"كن تاه","name:bg":"Кан Тхо","name:ce":"Кантхо","name:cs":"Can Tho","name:da":"Can Tho","name:de":"Can Tho","name:en":"Cần Thơ","name:eo":"Can Tho","name:fa":"شهر کان‌تو","name:gl":"Can Tho","name:ja":"カントー","name:kl":"Can Tho","name:km":"ទីក្រុងព្រែកឫស្សី","name:ko":"껀터","name:ky":"Кантхо","name:lt":"Kantas","name:mi":"Can Tho","name:mn":"Кантхо","name:ms":"Can Tho","name:nl":"Cần Thơ","name:no":"Can Tho","name:pt":"Can Tho","name:ru":"Кантхо","name:sr":"Кантхо","name:sv":"Can Tho","name:sw":"Can Tho","name:th":"เกิ่นเทอ","name:tl":"Can Tho","name:vi":"Thành phố Cần Thơ","name:zh":"芹苴市","alt_name":"Cần Thơ","old_name":"Tỉnh Phong Dinh","ISO3166-2":"VN-CT","alt_name:en":"Cantho","name:zh-Hans":"芹苴市","name:zh-Hant":"芹苴市","official_name":"Thành phố Cần Thơ","name:uk":"Кантхо","_place_old_name":"Tây Đô","official_name:en":"Can Tho City","official_name:ko":"껀터시","alt":"Cần Thơ","alt:fa":"کان‌تو","alt:vi":"Cần Thơ"},"display_name":"Thành phố Cần Thơ, Việt Nam","address":{"municipality":"Thành phố Cần Thơ","ISO3166-2-lvl4":"VN-CT","country":"Việt Nam","country_code":"vn"},"population":1258900,"osm_type":"relation","osm_id":1874283,"type":"administrative","location":[105.7875821,10.0364634],"bbox":[105.2256784,8.702505,106.4538443,10.3252088]}}
{"name":"Cao Bằng","other_names":{"name:en":"Cao Bằng","name:ja":"カオバン","name:ko":"까오방","name:lt":"Kaobangas","name:ru":"Каобанг","name:th":"กาวบั่ง","name:uk":"Каобанг","name:vi":"Cao Bằng","name:zh":"高平市"},"display_name":"Cao Bằng, Phường Thục Phán, Tỉnh Cao Bằng, 27000, Việt Nam","address":{"city":"Cao Bằng","county":"Phường Thục Phán","state":"Tỉnh Cao Bằng","ISO3166-2-lvl4":"VN-04","postcode":"27000","country":"Việt Nam","country_code":"vn"},"osm_type":"node","osm_id":369486922,"type":"city","location":[106.2588307,22.6657612],"bbox":[106.0988307,22.5057612,106.4188307,22.8257612]}
{"name":"Cao Lãnh","display_name":"Cao Lãnh, Phường Cao Lãnh, Tỉnh Đồng Tháp, Việt Nam","address":{"city":"Cao Lãnh","county":"Phường Cao Lãnh","state":"Tỉnh Đồng Tháp","ISO3166-2-lvl4":"VN-45","country":"Việt Nam","country_code":"vn"},"osm_type":"node","osm_id":12945891070,"type":"city","location":[105.6386277,10.4579736],"bbox":[105.4786277,10.2979736,105.7986277,10.6179736]}
{"name":"Châu Đốc","other_names":{"name:en":"Châu Đốc","name:fa":"چاودوک","name:ja":"チャウドック","name:km":"ក្រុងមាត់ជ្រូក","name:ko":"쩌우독","name:ru":"Тяудок","name:th":"เจิวด๊ก","name:vi":"Châu Đốc","name:zh":"朱篤市","name:vi-Hani":"朱篤","name:zh-Hans":"朱笃市","name:zh-Hant":"朱篤市"},"display_name":"Châu Đốc, Phường Châu Đốc, Tỉnh An Giang, 89888, Việt Nam","address":{"city":"Châu Đốc","county":"Phường Châu Đốc","state":"Tỉnh An Giang","ISO3166-2-lvl4":"VN-44","postcode":"89888","country":"Việt Nam","country_code":"vn"},"population":157298,"osm_type":"node","osm_id":74099711,"type":"city","location":[105.1188675,10.7101815],"bbox":[104.9588675,10.5501815,105.2788675,10.8701815]}
{"name":"Đà Lạt","other_names":{"name:be":"Горад Далат","name:de":"Dalat","name:el":"Νταλάτ","name:en":"Đà Lạt","name:fa":"دا لات","name:he":"דה לאט","name:id":"Dalat","name:ja":"ダラット","name:ko":"달랏","name:lt":"Dalatas","name:lv":"Dalata","name:mr":"दा लात","name:no":"Dalat","name:ru":"Далат","name:sr":"Да Лат","name:th":"ด่าหลัต","name:uk":"Далат","name:ur":"دا لات","name:vi":"Đà Lạt","name:zh":"大叻市","alt_name:en":"Dalat"},"display_name":"Đà Lạt, Phường Xuân Hương - Đà Lạt, Tỉnh Lâm Đồng, 02633, Việt Nam","address":{"city":"Đà Lạt","county":"Phường Xuân Hương - Đà Lạt","state":"Tỉnh Lâm Đồng","ISO3166-2-lvl4":"VN-35","postcode":"02633","country":"Việt Nam","country_code":"vn"},"osm_type":"node","osm_id":369486906,"type":"city","location":[108.4375758,11.9402416],"bbox":[108.2775758,11.7802416,108.5975758,12.1002416]}
{"name":"Đà Nẵng","other_names":{"name:en":"Da Nang","name:eo":"Danango","name:ja":"ダナン","name:km":"ដាណាំង","name:ko":"다낭","name:pt":"Da Nang","name:ru":"Дананг","name:th":"ดานัง","name:vi":"Đà Nẵng","ISO3166-2":"VN-DN","name:vi-Hani":"沱㶞","name:zh-Hans":"岘港市","name:zh-Hant":"峴港市","official_name":"Thành phố Đà Nẵng","official_name:en":"Da Nang City","official_name:ko":"다낭시","official_name:vi":"Thành phố Đà Nẵng","official_name:zh":"岘港市","old_name:1889-1945":"Tourane","official_name:zh-Hans":"岘港市","official_name:zh-Hant":"峴港市","old_name:en:1889-1945":"Tourane","old_name:fr:1889-1945":"Tourane"},"display_name":"Đà Nẵng, Thành phố Đà Nẵng, Việt Nam","address":{"city":"Đà Nẵng","ISO3166-2-lvl15":"VN-DN","ISO3166-2-lvl4":"VN-DN","country":"Việt Nam","country_code":"vn"},"population":3065628,"osm_type":"node","osm_id":369487028,"type":"city","location":[108.212,16.068],"bbox":[108.052,15.908,108.372,16.228],"border":{"name":"Thành phố Đà Nẵng","other_names":{"name:en":"Đà Nẵng","name:km":"ដាណាំង","name:ko":"다낭","name:th":"ดานัง","name:vi":"Thành phố Đà Nẵng","name:zh":"岘港","old_name":"Tourane","ISO3166-2":"VN-DN","name:vi-Hani":"城庯沱㶞","name:zh-Hans":"岘港","name:zh-Hant":"峴港","official_name":"Thành phố Đà Nẵng","name:eo":"Danango","name:ja":"ダナン","name:pt":"Da Nang","name:ru":"Дананг","official_name:en":"Da Nang City","official_name:ko":"다낭시","official_name:vi":"Thành phố Đà Nẵng","official_name:zh":"岘港市","official_name:zh-Hans":"岘港市","official_name:zh-Hant":"峴港市","old_name:1889-1945":"Tourane","old_name:en:1889-1945":"Tourane","old_name:fr:1889-1945":"Tourane","alt":"Đà Nẵng","alt:en":"Da Nang","alt:vi":"Đà Nẵng","alt:vi-Hani":"沱㶞","alt:zh-Hans":"岘港市","alt:zh-Hant":"峴港市"},"display_name":"Thành phố Đà Nẵng, Việt Nam","address":{"city":"Thành phố Đà Nẵng","ISO3166-2-lvl4":"VN-DN","country":"Việt Nam","country_code":"vn"},"population":3065628,"osm_type":"relation","osm_id":1891418,"type":"administrative","location":[108.212,16.068],"bbox":[107.2109165,14.9513535,109.0235567,16.3340091]}}
{"name":"Dĩ An","display_name":"Dĩ An, Phường Dĩ An, 75207, Việt Nam","address":{"city":"Dĩ An","county":"Phường Dĩ An","postcode":"75207","country":"Việt Nam","country_code":"vn"},"osm_type":"node","osm_id":12925776409,"type":"city","location":[106.7685029,10.9065559],"bbox":[106.6085029,10.7465559,106.9285029,11.0665559]}
{"name":"Điện Biên Phủ","other_names":{"name:en":"Điện Biên Phủ","name:fr":"Điện Biên Phủ","name:ja":"ディエンビエンフー","name:ko":"디엔비엔푸","name:ru":"Дьенбьенфу","name:th":"เดียนเบียนฟู","name:vi":"Điện Biên Phủ","name:zh":"奠边府","short_name":"ĐBP","name:vi-Hani":"奠邊府","name:zh-Hans":"奠边府","name:zh-Hant":"奠邊府","official_name":"Thành phố Điện Biên Phủ","short_name:vi":"ĐBP"},"display_name":"Điện Biên Phủ, Tỉnh Điện Biên, 32000, Việt Nam","address":{"city":"Điện Biên Phủ","state":"Tỉnh Điện Biên","ISO3166-2-lvl4":"VN-71","postcode":"32000","country":"Việt Nam","country_code":"vn"},"population":80366,"osm_type":"node","osm_id":428504674,"type":"city","location":[103.0185,21.3874893],"bbox":[102.8585,21.2274893,103.1785,21.5474893]}
{"name":"Đông Hà","other_names":{"name:cs":"Đông Hà","name:da":"Đông Hà","name:en":"Đông Hà","name:fa":"دونگ‌ها","name:fr":"Dông Hà","name:gl":"Dong Ha","name:ja":"ドンハ","name:ko":"동하","name:nl":"Đông Hà","name:pt":"Dong Ha","name:ru":"Донгха","name:sr":"Донг Ха","name:sv":"Dong Ha","name:th":"ดงห่า","name:uk":"Донгха","name:ur":"دونگ ہا","name:vi":"Đông Hà","name:zh":"东河市","name:zh-Hans":"东河市","name:zh-Hant":"東河市"},"display_name":"Đông Hà, Tỉnh Quảng Trị, Việt Nam","address":{"city":"Đông Hà","state":"Tỉnh Quảng Trị","ISO3166-2-lvl4":"VN-25","country":"Việt Nam","country_code":"vn"},"population":95658,"osm_type":"node","osm_id":369487058,"type":"city","location":[107.1010378,16.8172845],"bbox":[106.9410378,16.6572845,107.2610378,16.9772845]}
{"name":"Đồng Hới","other_names":{"name:ak":"Dong Hoi","name:am":"ዶንግ ሆይ","name:an":"Dong Hoi","name:ar":"دونج هوي","name:av":"Донгхой","name:ay":"Dong Hoi","name:az":"Dong Hoi","name:ba":"Донгхой","name:be":"Горад Дангхоі","name:bg":"Донгхой","name:bi":"Dong Hoi","name:bm":"Dong Hoi","name:ca":"Dong Hoi","name:ch":"Dong Hoi","name:cs":"Dong Hoi","name:cv":"Донгхой","name:da":"Dong Hoi","name:ee":"Dong Hoi","name:el":"Ντονγκ Χόι","name:en":"Đồng Hới","name:eo":"Dong Hoi","name:fa":"دونگ هوی","name:fj":"Dong Hoi","name:fr":"Dong Hoi","name:fy":"Dong Hoi","name:ga":"Dong Hoi","name:gv":"Dong Hoi","name:he":"דונג הוי","name:ht":"Dong Hoi","name:hy":"Դոնգհոյ","name:ia":"Dong Hoi","name:ie":"Dong Hoi","name:ik":"Dong Hoi","name:io":"Dong Hoi","name:it":"Dong Hoi","name:ja":"ドンホイ","name:jv":"Dong Hoi","name:ka":"დონგჰოი","name:ki":"Dong Hoi","name:kk":"Донгхой","name:ko":"동허이","name:kw":"Dong Hoi","name:ky":"Донгхой","name:lg":"Dong Hoi","name:li":"Dong Hoi","name:lo":"ດົງເຮີຍ","name:lt":"Donghojus","name:lv":"Donhoja","name:mi":"Dong Hoi","name:mk":"Донгхоj","name:mn":"Донгхой","name:ms":"Dong Hoi","name:mt":"Dong Hoi","name:my":"ဒေါင်ဟွိုင်း","name:nn":"Dong Hoi","name:no":"Dong Hoi","name:ny":"Dong Hoi","name:oc":"Dong Hoi","name:om":"Dong Hoi","name:os":"Донгхой","name:pa":"ਡੋਂਗ ਹੋਈ","name:pt":"Dong Hoi","name:qu":"Dong Hoi","name:rn":"Dong Hoi","name:ru":"Донгхой","name:rw":"Dong Hoi","name:sc":"Dong Hoi","name:so":"Dong Hoi","name:sq":"Dong Hoi","name:sr":"Донг Хој","name:su":"Dong Hoi","name:sw":"Dong Hoi","name:tg":"Донг Хой","name:th":"ด่งเฮ้ย","name:tk":"Dong Hoi","name:tl":"Dong Hoi","name:tn":"Dong Hoi","name:tt":"Донгхой","name:tw":"Dong Hoi","name:uk":"Донгхой","name:ur":"دونگ ہوئی","name:vi":"P. Đồng Hới","name:vo":"Dong Hoi","name:za":"Dong Hoi","name:zh":"洞海市","name:zu":"Donghoi"},"display_name":"Đồng Hới, Phường Đồng Hới, Tỉnh Quảng Trị, Việt Nam","address":{"city":"Đồng Hới","state":"Tỉnh Quảng Trị","ISO3166-2-lvl4":"VN-25","country":"Việt Nam","country_code":"vn"},"osm_type":"node","osm_id":12909336795,"type":"city","location":[106.6358647,17.4580431],"bbox":[106.4758647,17.2980431,106.7958647,17.6180431],"border":{"name":"Phường Đồng Hới","other_names":{"name:en":"Dong Hoi Ward","name:vi":"Phường Đồng Hới","name:ak":"Dong Hoi","name:am":"ዶንግ ሆይ","name:an":"Dong Hoi","name:ar":"دونج هوي","name:av":"Донгхой","name:ay":"Dong Hoi","name:az":"Dong Hoi","name:ba":"Донгхой","name:be":"Горад Дангхоі","name:bg":"Донгхой","name:bi":"Dong Hoi","name:bm":"Dong Hoi","name:ca":"Dong Hoi","name:ch":"Dong Hoi","name:cs":"Dong Hoi","name:cv":"Донгхой","name:da":"Dong Hoi","name:ee":"Dong Hoi","name:el":"Ντονγκ Χόι","name:eo":"Dong Hoi","name:fa":"دونگ هوی","name:fj":"Dong Hoi","name:fr":"Dong Hoi","name:fy":"Dong Hoi","name:ga":"Dong Hoi","name:gv":"Dong Hoi","name:he":"דונג הוי","name:ht":"Dong Hoi","name:hy":"Դոնգհոյ","name:ia":"Dong Hoi","name:ie":"Dong Hoi","name:ik":"Dong Hoi","name:io":"Dong Hoi","name:it":"Dong Hoi","name:ja":"ドンホイ","name:jv":"Dong Hoi","name:ka":"დონგჰოი","name:ki":"Dong Hoi","name:kk":"Донгхой","name:ko":"동허이","name:kw":"Dong Hoi","name:ky":"Донгхой","name:lg":"Dong Hoi","name:li":"Dong Hoi","name:lo":"ດົງເຮີຍ","name:lt":"Donghojus","name:lv":"Donhoja","name:mi":"Dong Hoi","name:mk":"Донгхоj","name:mn":"Донгхой","name:ms":"Dong Hoi","name:mt":"Dong Hoi","name:my":"ဒေါင်ဟွိုင်း","name:nn":"Dong Hoi","name:no":"Dong Hoi","name:ny":"Dong Hoi","name:oc":"Dong Hoi","name:om":"Dong Hoi","name:os":"Донгхой","name:pa":"ਡੋਂਗ ਹੋਈ","name:pt":"Dong Hoi","name:qu":"Dong Hoi","name:rn":"Dong Hoi","name:ru":"Донгхой","name:rw":"Dong Hoi","name:sc":"Dong Hoi","name:so":"Dong Hoi","name:sq":"Dong Hoi","name:sr":"Донг Хој","name:su":"Dong Hoi","name:sw":"Dong Hoi","name:tg":"Донг Хой","name:th":"ด่งเฮ้ย","name:tk":"Dong Hoi","name:tl":"Dong Hoi","name:tn":"Dong Hoi","name:tt":"Донгхой","name:tw":"Dong Hoi","name:uk":"Донгхой","name:ur":"دونگ ہوئی","name:vo":"Dong Hoi","name:za":"Dong Hoi","name:zh":"洞海市","name:zu":"Donghoi","alt":"Đồng Hới","alt:en":"Đồng Hới","alt:vi":"P. Đồng Hới"},"display_name":"Phường Đồng Hới, Tỉnh Quảng Trị, Việt Nam","address":{"city":"Phường Đồng Hới","state":"Tỉnh Quảng Trị","ISO3166-2-lvl4":"VN-25","country":"Việt Nam","country_code":"vn"},"osm_type":"relation","osm_id":19246058,"type":"administrative","location":[106.6358647,17.4580431],"bbox":[106.5873118,17.4115575,106.6867429,17.5030463]}}
{"name":"Đông Triều","other_names":{"name:en":"Đông Triều","name:ko":"동찌에우","name:vi":"Đông Triều","name:zh":"東潮市社","name:lzh":"東潮市社","name:zh-Hans":"东潮市社","name:zh-Hant":"東潮市社"},"display_name":"Đông Triều, Phường Đông Triều, Tỉnh Quảng Ninh, Việt Nam","address":{"city":"Đông Triều","state":"Tỉnh Quảng Ninh","ISO3166-2-lvl4":"VN-13","country":"Việt Nam","country_code":"vn"},"population":248896,"osm_type":"node","osm_id":369490181,"type":"city","location":[106.5133609,21.0837903],"bbox":[106.3533609,20.9237903,106.6733609,21.2437903],"border":{"name":"Phường Đông Triều","other_names":{"name:de":"Stadtviertel Đông Triều","name:vi":"Phường Đông Triều","name:en":"Đông Triều","name:ko":"동찌에우","name:zh":"東潮市社","name:lzh":"東潮市社","name:zh-Hans":"东潮市社","name:zh-Hant":"東潮市社","alt":"Đông Triều","alt:vi":"Đông Triều"},"display_name":"Phường Đông Triều, Tỉnh Quảng Ninh, Việt Nam","address":{"city":"Phường Đông Triều","state":"Tỉnh Quảng Ninh","ISO3166-2-lvl4":"VN-13","country":"Việt Nam","country_code":"vn"},"population":248896,"osm_type":"relation","osm_id":19272126,"type":"administrative","location":[106.5133609,21.0837903],"bbox":[106.439154,21.0459907,106.5467786,21.1118112]}}
{"name":"Đồng Xoài","display_name":"Đồng Xoài, Phường Bình Phước, 67112, Việt Nam","address":{"city":"Đồng Xoài","county":"Phường Bình Phước","postcode":"67112","country":"Việt Nam","country_code":"vn"},"osm_type":"node","osm_id":12925785447,"type":"city","location":[106.9021759,11.5374781],"bbox":[106.7421759,11.3774781,107.0621759,11.6974781]}
{"name":"Gia Nghĩa","other_names":{"name:en":"Gia Nghĩa","name:ko":"자응이어","name:th":"ซาเหงีย","name:vi":"Gia Nghĩa","name:zh":"嘉義市","name:vi-Hani":"嘉義","name:zh-Hans":"嘉义市","name:zh-Hant":"嘉義市","official_name":"Thành phố Gia Nghĩa"},"display_name":"Gia Nghĩa, Phường Bắc Gia Nghĩa, Tỉnh Lâm Đồng, Việt Nam","address":{"city":"Gia Nghĩa","county":"Phường Bắc Gia Nghĩa","state":"Tỉnh Lâm Đồng","ISO3166-2-lvl4":"VN-35","country":"Việt Nam","country_code":"vn"},"population":61413,"osm_type":"node","osm_id":369487118,"type":"city","location":[107.6832864,12.0023176],"bbox":[107.5232864,11.8423176,107.8432864,12.1623176]}
{"name":"Gò Công","display_name":"Gò Công, Phường Long Thuận, Tỉnh Đồng Tháp, Việt Nam","address":{"city":"Gò Công","county":"Phường Long Thuận","state":"Tỉnh Đồng Tháp","ISO3166-2-lvl4":"VN-45","country":"Việt Nam","country_code":"vn"},"osm_type":"node","osm_id":12945891059,"type":"city","location":[106.6749555,10.359067],"bbox":[106.5149555,10.199067,106.8349555,10.519067],"border":{"name":"Phường Gò Công","other_names":{"name:vi":"Gò Công"},"display_name":"Phường Gò Công, Tỉnh Đồng Tháp, Việt Nam","address":{"county":"Phường Gò Công","state":"Tỉnh Đồng Tháp","ISO3166-2-lvl4":"VN-45","country":"Việt Nam","country_code":"vn"},"osm_type":"relation","osm_id":13483778,"type":"administrative","location":[106.66883282811573,10.35400435],"bbox":[106.6506481,10.3347534,106.6929324,10.3729085]}}
{"name":"Hà Giang","other_names":{"name:en":"Hà Giang","name:ja":"ハザン","name:ko":"하장시","name:ru":"Хазянг","name:th":"ห่าซาง","name:uk":"Хазянґ","name:vi":"Hà Giang","name:zh":"河江市","name:vi-Hani":"河楊"},"display_name":"Hà Giang, Phường Hà Giang 1, Tỉnh Tuyên Quang, 20152, Việt Nam","address":{"city":"Hà Giang","county":"Phường Hà Giang 1","state":"Tỉnh Tuyên Quang","ISO3166-2-lvl4":"VN-07","postcode":"20152","country":"Việt Nam","country_code":"vn"},"population":42962,"osm_type":"node","osm_id":369486903,"type":"city","location":[104.9846342,22.8264592],"bbox":[104.8246342,22.6664592,105.1446342,22.9864592]}
{"name":"Hạ Long","other_names":{"name:en":"Hạ Long","name:ja":"ハロン","name:ko":"할롱","name:lt":"Halongas","name:ru":"Халонг","name:th":"หะล็อง","name:vi":"Hạ Long","name:zh":"下龍市","name:lzh":"下龍城庯","old_name":"Hòn Gai;Hồng Gai","old_name:en":"Hongai","name:vi-Hani":"城庯下龍","name:zh-Hans":"下龙市","name:zh-Hant":"下龍市"},"display_name":"Hạ Long, Tỉnh Quảng Ninh, 01000, Việt Nam","address":{"city":"Hạ Long","state":"Tỉnh Quảng Ninh","ISO3166-2-lvl4":"VN-13","postcode":"01000","country":"Việt Nam","country_code":"vn"},"population":270054,"osm_type":"node","osm_id":369487113,"type":"city","location":[107.0800003,20.9528365],"bbox":[106.9200003,20.7928365,107.2400003,21.1128365],"border":{"name":"Phường Hồng Gai","other_names":{"name:de":"Stadtviertel Hồng Gai","name:vi":"Phường Hồng Gai","name:en":"Hong Gai","name:fr":"Hongay","name:ko":"홍가이","name:zh":"丸荄坊","alt_name":"Hồng Gai","name:lzh":"丸荄坊","alt_name:vi":"Hồng Gai","old_name:vi":"Hòn Gai","official_name":"Phường Hồng Gai","official_name:en":"Hong Gai Ward","official_name:vi":"Phường Hồng Gai","alt":"Hồng Gai","alt:vi":"Hồng Gai"},"display_name":"Phường Hồng Gai, Tỉnh Quảng Ninh, Việt Nam","address":{"suburb":"Phường Hồng Gai","state":"Tỉnh Quảng Ninh","ISO3166-2-lvl4":"VN-13","country":"Việt Nam","country_code":"vn"},"osm_type":"relation","osm_id":19272140,"type":"administrative","location":[107.0747169,20.9506793],"bbox":[107.0671655,20.9339001,107.0992086,20.9669388]}}
{"name":"Hà Nội","other_names":{"name:am":"ሀኖይ","name:ar":"هانوي","name:az":"Hanoy","name:be":"Ханой","name:bg":"Ханой","name:bn":"হ্যানয়","name:bo":"ཧེ་ནོ།","name:br":"Ha Noi","name:ca":"Hanoi","name:cs":"Hanoj","name:cv":"Ханой","name:da":"Hanoi","name:de":"Hanoi","name:el":"Ανόι","name:en":"Hanoi","name:eo":"Hanojo","name:es":"Hanói","name:et":"Hanoi","name:eu":"Hanoi","name:fa":"هانوی","name:fi":"Hanoi","name:fr":"Hanoï","name:ga":"Ha Noi","name:gl":"Hanoi","name:he":"האנוי","name:hi":"हनोई","name:hr":"Hanoi","name:ht":"Anòy","name:hu":"Hanoi","name:hy":"Հանոյ","name:id":"Hanoi","name:is":"Hanoí","name:it":"Hanoi","name:ja":"ハノイ","name:ka":"ჰანოი","name:kk":"Ханой","name:km":"ទីក្រុងហានូយ","name:kn":"ಹಾನೊಯ್","name:ko":"하노이","name:ku":"Hanoi","name:lt":"Hanojus","name:lv":"Hanoja","name:mk":"Ханој","name:ml":"ഹാനോയ്","name:mn":"Ханой","name:mr":"हनोई","name:my":"ဟနွိုင်းမြို့","name:nl":"Hanoi","name:no":"Hanoi","name:oc":"Hanòi","name:os":"Ханой","name:pl":"Hanoi","name:pt":"Hanói","name:qu":"Ha Nui","name:ru":"Ханой","name:si":"හැනෝයි","name:sk":"Hanoj","name:sl":"Hanoj","name:sr":"Ханој","name:sv":"Hanoi","name:ta":"ஹனோய்","name:tg":"Ханой","name:th":"ฮานอย","name:ug":"خانوي","name:uk":"Ханой","name:ur":"ہنوئی","name:vi":"Hà Nội","name:zh":"河内市","name:arz":"هانوى","name:ast":"Hà Nội","name:ckb":"ھانۆی","name:kab":"Hanuy","name:mhr":"Ханой","name:mzn":"هانوی","name:nan":"Hà Nội","name:nds":"Hà Nội","name:pcd":"Hanoï","name:pnb":"ہنوئی","name:sah":"Ханой","name:wuu":"河內市","name:yue":"河內市","old_name":"Thăng Long","ISO3166-2":"VN-HN","name:vi-Hani":"河內","name:zh-Hans":"河内市","name:zh-Hant":"河內市","official_name":"Thành phố Hà Nội","name:be-tarask":"Ханой","official_name:en":"City of Hanoi","official_name:vi":"Thành phố Hà Nội"},"display_name":"Hà Nội, Phường Hoàn Kiếm, 10140, Việt Nam","address":{"city":"Hà Nội","ISO3166-2-lvl4":"VN-HN","county":"Phường Hoàn Kiếm","postcode":"10140","country":"Việt Nam","country_code":"vn"},"population":8587100,"osm_type":"node","osm_id":74132064,"type":"city","location":[105.854041,21.0283334],"bbox":[105.694041,20.8683334,106.014041,21.1883334]}
{"name":"Hà Tiên","other_names":{"name:en":"Hà Tiên","name:fa":"هاتیئن","name:ko":"하띠엔","name:ru":"Хатьен","name:uk":"Хатьєн","name:vi":"Hà Tiên","name:zh":"河仙市","official_name":"Thành phố Hà Tiên"},"display_name":"Hà Tiên, Phường Hà Tiên, Tỉnh An Giang, Việt Nam","address":{"city":"Hà Tiên","county":"Phường Hà Tiên","state":"Tỉnh An Giang","ISO3166-2-lvl4":"VN-44","country":"Việt Nam","country_code":"vn"},"osm_type":"node","osm_id":369496721,"type":"city","location":[104.4859503,10.3828019],"bbox":[104.3259503,10.2228019,104.6459503,10.5428019]}
{"name":"Hà Tĩnh","other_names":{"name:cv":"Хатинь","name:en":"Hà Tĩnh","name:fa":"ها تین","name:ja":"ハティン","name:ko":"하띤시","name:nl":"Hà Tĩnh","name:ru":"Хатинь","name:sr":"Ха Тин","name:sv":"Ha Tinh","name:th":"ห่าติ๋ญ","name:uk":"Хатінь","name:ur":"ہا تنہ","name:vi":"Hà Tĩnh","name:zh":"河靜市","name:zh-Hant":"河靜市"},"display_name":"Hà Tĩnh, Tỉnh Hà Tĩnh, 45100, Việt Nam","address":{"city":"Hà Tĩnh","state":"Tỉnh Hà Tĩnh","ISO3166-2-lvl4":"VN-23","postcode":"45100","country":"Việt Nam","country_code":"vn"},"population":72792,"osm_type":"node","osm_id":369487086,"type":"city","location":[105.9056559,18.3420485],"bbox":[105.7456559,18.1820485,106.0656559,18.5020485]}
{"name":"Hải Phòng","other_names":{"name:de":"Hải Phòng","name:en":"Haiphong","name:fr":"Haïphong","name:ja":"ハイフォン","name:kn":"ಹಾಯ್ ಫೋಂಗ್","name:ko":"하이퐁","name:lt":"Haifongas","name:ml":"ഹായ്ഫോങ്","name:oc":"Hai-Phong","name:ru":"Хайфон","name:th":"ไฮฟอง","name:uk":"Хайфонг","name:vi":"Hải Phòng","name:zh":"海防市","name:vi-Hani":"海防","official_name":"Thành phố Hải Phòng"},"display_name":"Hải Phòng, Thành phố Hải Phòng, Việt Nam","address":{"city":"Hải Phòng","ISO3166-2-lvl4":"VN-HP","country":"Việt Nam","country_code":"vn"},"population":2310280,"osm_type":"node","osm_id":369487083,"type":"city","location":[106.6749591,20.858864],"bbox":[106.5149591,20.698864,106.8349591,21.018864],"border":{"name":"Thành phố Hải Phòng","other_names":{"name:af":"Hai Phong","name:ar":"ها فونغ","name:be":"Горад Хайфон","name:bg":"Хайфонг","name:bn":"হাইফোং","name:ce":"Хайфон","name:cs":"Haiphong","name:cv":"Хайфон","name:da":"Hai Phong","name:el":"Χάι Φονγκ","name:en":"Hải Phòng","name:eo":"Hai Phong","name:eu":"Hai Phong","name:fa":"هایفونگ","name:hy":"Հայֆոն","name:it":"Haiphong","name:ja":"ハイフォン","name:kl":"Hai Phong","name:ko":"하이퐁","name:lt":"Haifongas","name:ml":"ഹൈ ഫോങ്","name:mr":"हाइ फाँग","name:no":"Haiphong","name:pl":"Hajfong","name:pt":"Haiphong","name:ru":"Хайфон","name:sr":"Хајфонг","name:sv":"Hai Phong","name:sw":"Hai Phong","name:th":"ไฮฟอง","name:tr":"Hải Phòng","name:uk":"Хайфонг","name:ur":"ہائیفونگ","name:vi":"Thành phố Hải Phòng","name:zh":"海防市","ISO3166-2":"VN-HP","alt_name:en":"Hai Phong","alt_name:vi":"Đất Cảng","name:vi-Hani":"海防","name:zh-Hans":"海防市","name:zh-Hant":"海防市","official_name":"Thành phố Hải Phòng","name:de":"Hải Phòng","name:fr":"Haïphong","name:kn":"ಹಾಯ್ ಫೋಂಗ್","name:oc":"Hai-Phong","official_name:en":"Hai Phong City","official_name:ko":"하이퐁시","official_name:vi":"Thành phố Hải Phòng","alt":"Hải Phòng","alt:en":"Haiphong","alt:ml":"ഹായ്ഫോങ്","alt:vi":"Hải Phòng"},"display_name":"Thành phố Hải Phòng, Việt Nam","address":{"city":"Thành phố Hải Phòng","ISO3166-2-lvl4":"VN-HP","country":"Việt Nam","country_code":"vn"},"population":2105000,"osm_type":"relation","osm_id":1902682,"type":"administrative","location":[106.6749591,20.858864],"bbox":[106.1242265,19.9177567,107.9518577,21.2369932]}}
{"name":"Hòa Bình","other_names":{"name:en":"Hòa Bình","name:ja":"ホアビン","name:ko":"호아빈","name:ru":"Хоабинь","name:vi":"Hòa Bình","name:zh":"和平市","name:mtq":"Wa̒ Bi̒nh"},"display_name":"Hòa Bình, Tỉnh Phú Thọ, 36107, Việt Nam","address":{"city":"Hòa Bình","state":"Tỉnh Phú Thọ","ISO3166-2-lvl4":"VN-68","postcode":"36107","country":"Việt Nam","country_code":"vn"},"population":181448,"osm_type":"node","osm_id":369487067,"type":"city","location":[105.3431291,20.8252056],"bbox":[105.1831291,20.6652056,105.5031291,20.9852056]}
{"name":"Hoa Lư","other_names":{"name:en":"Hoa Lư","name:vi":"Hoa Lư","old_name":"Ninh Bình"},"display_name":"Hoa Lư, Tỉnh Ninh Bình, 08212, Việt Nam","address":{"city":"Hoa Lư","state":"Tỉnh Ninh Bình","ISO3166-2-lvl4":"VN-18","postcode":"08212","country":"Việt Nam","country_code":"vn"},"osm_type":"node","osm_id":369486919,"type":"city","location":[105.9764854,20.2545421],"bbox":[105.8164854,20.0945421,106.1364854,20.4145421]}
{"name":"Hội An","other_names":{"name:ar":"هوي أن","name:cs":"Hoi An","name:de":"Hoi An","name:en":"Hội An","name:he":"הוי אן","name:ja":"ホイアン","name:ka":"ჰოი-ანი","name:ko":"호이안","name:lt":"Hojanas","name:mn":"Хой Ань","name:ms":"Hoi An","name:ne":"होइ एन प्राचीन सहर","name:nl":"Hội An","name:no":"Hoi An","name:pt":"Hoi An","name:ru":"Хойан","name:sr":"Хој Ан","name:sv":"Hoi An","name:th":"ฮอยอัน","name:uk":"Хоян","name:ur":"ہؤئی آن","name:vi":"Hội An","name:zh":"會安市","old_name":"Faifo","name:zh-Hans":"会安市","name:zh-Hant":"會安市","official_name":"Thành phố Hội An"},"display_name":"Hội An, Thành phố Đà Nẵng, 64000, Việt Nam","address":{"city":"Hội An","ISO3166-2-lvl4":"VN-DN","postcode":"64000","country":"Việt Nam","country_code":"vn"},"population":120000,"osm_type":"node","osm_id":110506070,"type":"city","location":[108.3319406,15.8795863],"bbox":[108.1719406,15.7195863,108.4919406,16.0395863]}
{"name":"Hồng Ngự","display_name":"Hồng Ngự, Phường Hồng Ngự, Tỉnh Đồng Tháp, Việt Nam","address":{"city":"Hồng Ngự","county":"Phường Hồng Ngự","state":"Tỉnh Đồng Tháp","ISO3166-2-lvl4":"VN-45","country":"Việt Nam","country_code":"vn"},"osm_type":"node","osm_id":12945891069,"type":"city","location":[105.3417098,10.8082833],"bbox":[105.1817098,10.6482833,105.5017098,10.9682833]}
{"name":"Huế","other_names":{"name:bg":"Хюе","name:cs":"Hue","name:da":"Hué","name:de":"Hue","name:el":"Χουέ","name:en":"Huế","name:eo":"Hue","name:es":"Hué","name:eu":"Hue","name:fa":"هوئه","name:fr":"Hué","name:ga":"Hué","name:he":"הואה","name:ja":"フエ","name:ka":"ჰუე","name:kl":"Hue","name:ko":"후에","name:lt":"Hujė","name:mk":"Хуе","name:mn":"Хюэ","name:ru":"Хюэ","name:sr":"Хуе","name:th":"เว้","name:uk":"Хюе","name:ur":"ہوائے","name:uz":"Xyue","name:vi":"Huế","name:zh":"順化市","old_name":"Thuận Hóa","name:vi-Hani":"化","name:zh-Hans":"顺化市","name:zh-Hant":"順化市","official_name":"Thành phố Huế"},"display_name":"Huế, Thành phố Huế, 54000, Việt Nam","address":{"city":"Huế","state":"Thành phố Huế","ISO3166-2-lvl4":"VN-26","postcode":"54000","country":"Việt Nam","country_code":"vn"},"population":351456,"osm_type":"node","osm_id":369487099,"type":"city","location":[107.5863388,16.4639321],"bbox":[107.4263388,16.3039321,107.7463388,16.6239321]}
{"name":"Hưng Yên","other_names":{"name:ja":"フンイエン","name:ko":"흥옌시","name:ru":"Хынгйен","name:th":"ฮึงเอียน","name:uk":"Хинґ'єн","name:vi":"Hưng Yên","name:zh":"兴安市","name:zh-Hans":"兴安市","name:zh-Hant":"興安市"},"display_name":"Hưng Yên, Tỉnh Hưng Yên, Việt Nam","address":{"city":"Hưng Yên","state":"Tỉnh Hưng Yên","ISO3166-2-lvl4":"VN-66","country":"Việt Nam","country_code":"vn"},"population":122765,"osm_type":"node","osm_id":369486949,"type":"city","location":[106.054036,20.6568406],"bbox":[105.894036,20.4968406,106.214036,20.8168406]}
{"name":"Kon Tum","other_names":{"name:en":"Kon Tum","name:fa":"کون توم","name:ja":"コントゥム","name:ko":"꼰뚬시","name:nl":"Kon Tum","name:ru":"Контум","name:sr":"Кон Тум","name:tg":"Вилояти Кон Тум","name:th":"กอนตูม","name:ur":"کون تم","name:vi":"Kon Tum","name:zh":"崑嵩市"},"display_name":"Kon Tum, Tỉnh Quảng Ngãi, Việt Nam","address":{"city":"Kon Tum","state":"Tỉnh Quảng Ngãi","ISO3166-2-lvl4":"VN-29","country":"Việt Nam","country_code":"vn"},"population":172712,"osm_type":"node","osm_id":369486909,"type":"city","location":[108.0039102,14.3615256],"bbox":[107.8439102,14.2015256,108.1639102,14.5215256]}
{"name":"Lai Châu","other_names":{"name:en":"Lai Châu","name:ja":"ライチャウ","name:ko":"라이쩌우","name:ru":"Лайтяу","name:th":"ลายเจิว","name:uk":"Лайтяу","name:vi":"Lai Châu","name:zh":"萊州市","name:zh-Hans":"莱州市","name:zh-Hant":"萊州市","official_name":"Thành phố Lai Châu"},"display_name":"Lai Châu, Tỉnh Lai Châu, Việt Nam","address":{"city":"Lai Châu","state":"Tỉnh Lai Châu","ISO3166-2-lvl4":"VN-01","country":"Việt Nam","country_code":"vn"},"population":34474,"osm_type":"node","osm_id":369487061,"type":"city","location":[103.4516882,22.3996612],"bbox":[103.2916882,22.2396612,103.6116882,22.5596612]}
{"name":"Lạng Sơn","other_names":{"name:en":"Lạng Sơn","name:ko":"랑선","name:ru":"Лангшон","name:th":"หลั่งเซิน","name:uk":"Ланґшон","name:vi":"Lạng Sơn","name:zh":"諒山市","name:lzh":"諒山城庯","name:vi-Hani":"諒山","name:zh-Hans":"谅山市","name:zh-Hant":"諒山市","official_name":"Thành phố Lạng Sơn"},"display_name":"Lạng Sơn, Tỉnh Lạng Sơn, 00251, Việt Nam","address":{"city":"Lạng Sơn","state":"Tỉnh Lạng Sơn","ISO3166-2-lvl4":"VN-09","postcode":"00251","country":"Việt Nam","country_code":"vn"},"population":74492,"osm_type":"node","osm_id":4055201266,"type":"city","location":[106.7597458,21.8528759],"bbox":[106.5997458,21.6928759,106.9197458,22.0128759]}
{"name":"Lào Cai","other_names":{"name:en":"Lào Cai","name:ja":"ラオカイ","name:ko":"라오까이","name:lt":"Laokajus","name:ru":"Лаокай","name:th":"หล่าวกาย","name:uk":"Лаокай","name:vi":"Lào Cai","name:zh":"老街市"},"display_name":"Lào Cai, Tỉnh Lào Cai, 31153, Việt Nam","address":{"city":"Lào Cai","state":"Tỉnh Lào Cai","ISO3166-2-lvl4":"VN-02","postcode":"31153","country":"Việt Nam","country_code":"vn"},"population":100017,"osm_type":"node","osm_id":369486930,"type":"city","location":[103.9656924,22.4997452],"bbox":[103.8056924,22.3397452,104.1256924,22.6597452]}
{"name":"Long Khánh","display_name":"Long Khánh, Phường Long Khánh, Việt Nam","address":{"city":"Long Khánh","county":"Phường Long Khánh","country":"Việt Nam","country_code":"vn"},"osm_type":"node","osm_id":12925785457,"type":"city","location":[107.2424367,10.9286698],"bbox":[107.0824367,10.7686698,107.4024367,11.0886698]}
{"name":"Long Xuyên","other_names":{"name:en":"Long Xuyên","name:fa":"لونگ‌سوین","name:ja":"ロンスエン","name:ko":"롱쑤옌","name:ru":"Лонгсюен","name:th":"ล็องเซวียน","name:uk":"Лонгсюєн","name:zh":"龍川市","name:zh-Hans":"龙川市","name:zh-Hant":"龍川市","official_name":"Thành phố Long Xuyên"},"display_name":"Long Xuyên, Thành phố Long Xuyên, Phường Long Xuyên, Tỉnh An Giang, Việt Nam","address":{"city":"Long Xuyên","municipality":"Phường Long Xuyên","state":"Tỉnh An Giang","ISO3166-2-lvl4":"VN-44","country":"Việt Nam","country_code":"vn"},"population":40000,"osm_type":"node","osm_id":369486944,"type":"city","location":[105.4337523,10.3905437],"bbox":[105.2737523,10.2305437,105.5937523,10.5505437]}
{"name":"Móng Cái","other_names":{"name:en":"Móng Cái","name:ja":"モンカイ","name:ko":"몽까이","name:ru":"Монгкай","name:th":"ม้องก๊าย","name:vi":"Móng Cái","name:zh":"芒街市","name:lzh":"硭街城庯","name:vi-Hani":"城庯硭街","name:zh-Hans":"硭街市","name:zh-Hant":"硭街市","official_name":"Thành phố Móng Cái"},"display_name":"Móng Cái, Phường Móng Cái 1, Tỉnh Quảng Ninh, 02033, Việt Nam","address":{"city":"Móng Cái","county":"Phường Móng Cái 1","state":"Tỉnh Quảng Ninh","ISO3166-2-lvl4":"VN-13","postcode":"02033","country":"Việt Nam","country_code":"vn"},"population":108553,"osm_type":"node","osm_id":622293422,"type":"city","location":[107.9691594,21.5290279],"bbox":[107.8091594,21.3690279,108.1291594,21.6890279]}
{"name":"Mỹ Tho","display_name":"Mỹ Tho, Phường Mỹ Tho, Tỉnh Đồng Tháp, 86000, Việt Nam","address":{"city":"Mỹ Tho","county":"Phường Mỹ Tho","state":"Tỉnh Đồng Tháp","ISO3166-2-lvl4":"VN-45","postcode":"86000","country":"Việt Nam","country_code":"vn"},"osm_type":"node","osm_id":12945891060,"type":"city","location":[106.3642994,10.3585287],"bbox":[106.2042994,10.1985287,106.5242994,10.5185287]}
{"name":"Nam Định","other_names":{"name:en":"Nam Định","name:ja":"ナムディン","name:ko":"남딘","name:ru":"Намдинь","name:th":"นามดิ่ญ","name:uk":"Намдін","name:vi":"Nam Định","name:zh":"南定市","name:vi-Hani":"南定"},"display_name":"Nam Định, Tỉnh Ninh Bình, 42000, Việt Nam","address":{"city":"Nam Định","state":"Tỉnh Ninh Bình","ISO3166-2-lvl4":"VN-18","postcode":"42000","country":"Việt Nam","country_code":"vn"},"population":179229,"osm_type":"node","osm_id":369487110,"type":"city","location":[106.1688515,20.4232641],"bbox":[106.0088515,20.2632641,106.3288515,20.5832641]}
{"name":"Ngã Bảy","other_names":{"name:en":"Ngã Bảy","name:fa":"نگابای","name:ko":"응아바이","name:vi":"Ngã Bảy","name:zh":"我罢市"},"display_name":"Ngã Bảy, Thành phố Cần Thơ, Việt Nam","address":{"city":"Ngã Bảy","ISO3166-2-lvl4":"VN-CT","country":"Việt Nam","country_code":"vn"},"osm_type":"node","osm_id":369500682,"type":"city","location":[105.819098,9.8158331],"bbox":[105.659098,9.6558331,105.979098,9.9758331]}
{"name":"Nha Trang","other_names":{"name:am":"ኛ ትራንግ","name:ar":"نها ترانج","name:be":"Горад Нячанг","name:bg":"Ня Чанг","name:de":"Nha Trang","name:el":"Να Τρανγκ","name:en":"Nha Trang","name:fa":"نها ترنگ","name:hi":"ना त्राङ्ग","name:ja":"ニャチャン","name:ko":"냐짱(나트랑)","name:lo":"ຍາຈາງ","name:lt":"Niačangas","name:lv":"Ņačana","name:mn":"Нячанг","name:ru":"Нячанг","name:sr":"Ња Чанг","name:th":"ญาจาง","name:uk":"Нячанґ","name:ur":"نہاترنگ","name:vi":"Nha Trang","name:zh":"芽庄市","name:zu":"INhatrang","name:zh-Hant":"芽莊市"},"display_name":"Nha Trang, Phường Nha Trang, Tỉnh Khánh Hòa, 48058, Việt Nam","address":{"city":"Nha Trang","county":"Phường Nha Trang","state":"Tỉnh Khánh Hòa","ISO3166-2-lvl4":"VN-34","postcode":"48058","country":"Việt Nam","country_code":"vn"},"osm_type":"node","osm_id":369487053,"type":"city","location":[109.1941443,12.2348769],"bbox":[109.0341443,12.0748769,109.3541443,12.3948769]}
{"name":"Phan Rang – Tháp Chàm","other_names":{"name:bg":"Фан Ранг-Тхап Тям","name:en":"Phan Rang – Tháp Chàm","name:fa":"پانگ رانگ–تاپ چام","name:hu":"Phan Rang – Tháp Chàm","name:it":"Phan Rang – Tháp Chàm","name:ja":"ファンラン＝タップチャム","name:ko":"판랑탑짬","name:nl":"Phan Rang – Tháp Chàm","name:pl":"Phan Rang – Tháp Chàm","name:ru":"Фанранг-Тхаптям","name:sr":"Фанранг-Тхаптјам","name:sv":"Phan Rang-Thap Cham","name:th":"ฟานซาง-ท้าปจ่าม","name:ur":"فان رنگ-تھاپ چام","name:vi":"Phan Rang – Tháp Chàm","name:zh":"潘郎-塔占市","alt_name":"Phan Rang","name:vi-Hani":"潘郎塔占"},"display_name":"Phan Rang – Tháp Chàm, Phường Phan Rang, Tỉnh Khánh Hòa, Việt Nam","address":{"city":"Phan Rang – Tháp Chàm","county":"Phường Phan Rang","state":"Tỉnh Khánh Hòa","ISO3166-2-lvl4":"VN-34","country":"Việt Nam","country_code":"vn"},"osm_type":"node","osm_id":369486933,"type":"city","location":[108.9865391,11.5769829],"bbox":[108.8265391,11.4169829,109.1465391,11.7369829]}
{"name":"Phan Thiết","other_names":{"name:en":"Phan Thiết","name:ja":"ファンティエット","name:ko":"판티엣","name:ru":"Фантхьет","name:th":"ฟานเที้ยต","name:vi":"Phan Thiết","name:zh":"藩切市","official_name":"Thành phố Phan Thiết"},"display_name":"Phan Thiết, Phường Phan Thiết, Tỉnh Lâm Đồng, Việt Nam","address":{"city":"Phan Thiết","county":"Phường Phan Thiết","state":"Tỉnh Lâm Đồng","ISO3166-2-lvl4":"VN-35","country":"Việt Nam","country_code":"vn"},"population":255000,"osm_type":"node","osm_id":3140507587,"type":"city","location":[108.1043869,10.9296264],"bbox":[107.9443869,10.7696264,108.2643869,11.0896264]}
{"name":"Phổ Yên","display_name":"Phổ Yên, Tỉnh Thái Nguyên, Việt Nam","address":{"city":"Phổ Yên","state":"Tỉnh Thái Nguyên","ISO3166-2-lvl4":"VN-69","country":"Việt Nam","country_code":"vn"},"population":201020,"osm_type":"node","osm_id":8111649963,"type":"city","location":[105.8721166,21.4155033],"bbox":[105.7121166,21.2555033,106.0321166,21.5755033]}
{"name":"Phủ Lý","other_names":{"name:en":"Phủ Lý","name:ja":"フーリー","name:ko":"풀리","name:ru":"Фули","name:th":"ฝูลี้","name:vi":"Phủ Lý","name:zh":"府里市","official_name":"Thành phố Phủ Lý"},"display_name":"Phủ Lý, Tỉnh Ninh Bình, Việt Nam","address":{"city":"Phủ Lý","state":"Tỉnh Ninh Bình","ISO3166-2-lvl4":"VN-18","country":"Việt Nam","country_code":"vn"},"population":169589,"osm_type":"node","osm_id":369487036,"type":"city","location":[105.9131808,20.5448086],"bbox":[105.7531808,20.3848086,106.0731808,20.7048086]}
{"name":"Phú Mỹ","other_names":{"name:fa":"فومی","name:ja":"プーミー","name:ko":"푸미","name:ru":"Фуми","name:vi":"Phú Mỹ","name:zh":"富美市社"},"display_name":"Phú Mỹ, Phường Phú Mỹ, 78706, Việt Nam","address":{"city":"Phú Mỹ","county":"Phường Phú Mỹ","postcode":"78706","country":"Việt Nam","country_code":"vn"},"osm_type":"node","osm_id":6466622604,"type":"city","location":[107.0546168,10.6234103],"bbox":[106.8946168,10.4634103,107.2146168,10.7834103]}
{"name":"Phú Quốc","other_names":{"name:en":"Phú Quốc","name:fa":"فوکووک","name:fr":"Phú Quốc","name:ja":"フーコック市","name:km":"ក្រុងភូគួច","name:ko":"푸꾸옥시","name:th":"ฟู้โกว๊ก","name:vi":"Phú Quốc","name:zh":"富國市","name:zh-Hans":"富国市","name:zh-Hant":"富國市"},"display_name":"Phú Quốc, Đặc khu Phú Quốc, Tỉnh An Giang, 92500, Việt Nam","address":{"city":"Phú Quốc","county":"Đặc khu Phú Quốc","state":"Tỉnh An Giang","ISO3166-2-lvl4":"VN-44","postcode":"92500","country":"Việt Nam","country_code":"vn"},"population":144460,"osm_type":"node","osm_id":6466270897,"type":"city","location":[103.9590544,10.2170911],"bbox":[103.7990544,10.0570911,104.1190544,10.3770911]}
{"name":"Phúc Yên","other_names":{"name:en":"Phúc Yên","name:ko":"푹옌","name:vi":"Phúc Yên","name:zh":"福安市","name:zh-Hant":"福安市"},"display_name":"Phúc Yên, Tỉnh Phú Thọ, 84211, Việt Nam","address":{"city":"Phúc Yên","state":"Tỉnh Phú Thọ","ISO3166-2-lvl4":"VN-68","postcode":"84211","country":"Việt Nam","country_code":"vn"},"population":112299,"osm_type":"node","osm_id":369503144,"type":"city","location":[105.7035505,21.2332705],"bbox":[105.5435505,21.0732705,105.8635505,21.3932705]}
{"name":"Pleiku","other_names":{"name:en":"Pleiku","name:fa":"پلیکو","name:ja":"プレイク","name:ko":"쁠래이꾸","name:ru":"Плейку","name:sr":"Плеику","name:th":"เปล็ยกู","name:uk":"Плейку","name:ur":"پلیکو","name:vi":"Pleiku","name:zh":"波来古市","alt_name:zh":"坡離俱;波萊古;百里居;比里高","name:vi-Hani":"坡離俱","name:zh-Hant":"波來古市","alt_name:vi-Hani":"坡梨俱"},"display_name":"Pleiku, Tỉnh Gia Lai, 61111, Việt Nam","address":{"city":"Pleiku","state":"Tỉnh Gia Lai","ISO3166-2-lvl4":"VN-30","postcode":"61111","country":"Việt Nam","country_code":"vn"},"population":191684,"osm_type":"node","osm_id":369487091,"type":"city","location":[108.0143597,13.9715982],"bbox":[107.8543597,13.8115982,108.1743597,14.1315982]}
{"name":"Quảng Ngãi","other_names":{"name:en":"Quảng Ngãi","name:fa":"کوانگ نگای","name:ja":"クアンガイ","name:ko":"꽝응아이","name:nl":"Quảng Ngãi","name:ru":"Куангнгай","name:sr":"Кванг Нгај","name:tg":"Вилояти Куанг Нгай","name:uk":"Куанґнґай","name:vi":"Quảng Ngãi","name:zh":"廣義市","name:zh-Hans":"广义市","name:zh-Hant":"廣義市"},"display_name":"Quảng Ngãi, Tỉnh Quảng Ngãi, Việt Nam","address":{"city":"Quảng Ngãi","state":"Tỉnh Quảng Ngãi","ISO3166-2-lvl4":"VN-29","country":"Việt Nam","country_code":"vn"},"osm_type":"node","osm_id":369486914,"type":"city","location":[108.8095598,15.1190037],"bbox":[108.6495598,14.9590037,108.9695598,15.2790037]}
{"name":"Quy Nhơn","other_names":{"name:cs":"Quy Nhon","name:da":"Quy Nhon","name:en":"Quy Nhơn","name:eo":"Qui Nhơn","name:fa":"کوی نون","name:gl":"Quy Nhon","name:id":"Qui Nhơn","name:it":"Qui Nhon","name:ja":"クイニョン","name:kl":"Qui Nhon","name:ko":"꾸이년","name:lt":"Kuinionas","name:no":"Quy Nhon","name:ru":"Куинён","name:sv":"Qui Nhon","name:th":"กวีเญิน","name:uk":"Куїнон","name:ur":"قوئی نھون","name:vi":"Quy Nhơn","name:zh":"归仁市","alt_name":"Qui Nhơn","name:zh-Hant":"歸仁市"},"display_name":"Quy Nhơn, Tỉnh Gia Lai, 55106, Việt Nam","address":{"city":"Quy Nhơn","state":"Tỉnh Gia Lai","ISO3166-2-lvl4":"VN-30","postcode":"55106","country":"Việt Nam","country_code":"vn"},"osm_type":"node","osm_id":369487010,"type":"city","location":[109.2313768,13.7696121],"bbox":[109.0713768,13.6096121,109.3913768,13.9296121]}
{"name":"Rạch Giá","other_names":{"name:en":"Rạch Giá","name:fa":"ژاچ‌جا","name:fr":"Rach Gia","name:he":"ראץ' גיה","name:ja":"ラックザー","name:km":"ក្រុងរាជា","name:ko":"락자","name:lt":"Racža","name:ru":"Ратьзя","name:vi":"Rạch Giá","name:zh":"瀝架市","old_name:km":"ក្រមួនស","name:vi-Hani":"瀝架","official_name":"Thành phố Rạch Giá","official_name:en":"Rach Gia City","official_name:vi":"Thành phố Rạch Giá"},"display_name":"Rạch Giá, Phường Rạch Giá, Tỉnh An Giang, Việt Nam","address":{"city":"Rạch Giá","county":"Phường Rạch Giá","state":"Tỉnh An Giang","ISO3166-2-lvl4":"VN-44","country":"Việt Nam","country_code":"vn"},"osm_type":"node","osm_id":369487039,"type":"city","location":[105.0832623,10.0107104],"bbox":[104.9232623,9.8507104,105.2432623,10.1707104]}
{"name":"Sa Đéc","display_name":"Sa Đéc, Phường Sa Đéc, Tỉnh Đồng Tháp, 81800, Việt Nam","address":{"city":"Sa Đéc","county":"Phường Sa Đéc","state":"Tỉnh Đồng Tháp","ISO3166-2-lvl4":"VN-45","postcode":"81800","country":"Việt Nam","country_code":"vn"},"osm_type":"node","osm_id":12945891068,"type":"city","location":[105.76765,10.2920448],"bbox":[105.60765,10.1320448,105.92765,10.4520448],"border":{"name":"Phường Sa Đéc","other_names":{"name:vi":"Sa Đéc"},"display_name":"Phường Sa Đéc, Tỉnh Đồng Tháp, 81800, Việt Nam","address":{"county":"Phường Sa Đéc","state":"Tỉnh Đồng Tháp","ISO3166-2-lvl4":"VN-45","postcode":"81800","country":"Việt Nam","country_code":"vn"},"osm_type":"relation","osm_id":14722088,"type":"administrative","location":[105.73884246071428,10.330739],"bbox":[105.7038823,10.2782763,105.7834189,10.3831644]}}
{"name":"Sầm Sơn","other_names":{"name:en":"Sầm Sơn","name:ja":"サムソン","name:ko":"섬선","name:th":"เสิ่มเซิน","name:vi":"Sầm Sơn","name:zh":"岑山市","name:zh-Hant":"岑山市"},"display_name":"Sầm Sơn, Tỉnh Thanh Hóa, Việt Nam","address":{"city":"Sầm Sơn","state":"Tỉnh Thanh Hóa","ISO3166-2-lvl4":"VN-21","country":"Việt Nam","country_code":"vn"},"population":109208,"osm_type":"node","osm_id":369493496,"type":"city","location":[105.8989974,19.7364901],"bbox":[105.7389974,19.5764901,106.0589974,19.8964901]}
{"name":"Sóc Trăng","other_names":{"name:en":"Sóc Trăng","name:fa":"سوک‌چانگ","name:ja":"ソクチャン","name:km":"ក្រុងខេត្តឃ្លាំង","name:ko":"속짱시","name:ru":"Шокчанг","name:uk":"Шокчанг","name:vi":"Sóc Trăng","name:zh":"朔庄市","old_name":"Khánh Hưng","name:zh-Hant":"朔莊市","official_name":"Thành phố Sóc Trăng"},"display_name":"Sóc Trăng, Thành phố Cần Thơ, 96113, Việt Nam","address":{"city":"Sóc Trăng","ISO3166-2-lvl4":"VN-CT","postcode":"96113","country":"Việt Nam","country_code":"vn"},"osm_type":"node","osm_id":369487102,"type":"city","location":[105.9733211,9.6026724],"bbox":[105.8133211,9.4426724,106.1333211,9.7626724]}
{"name":"Sơn La","other_names":{"name:en":"Sơn La","name:ja":"ソンラ","name:ko":"선라","name:ru":"Шонла","name:th":"เซินลา","name:uk":"Шонла","name:vi":"Sơn La","name:zh":"山罗市","name:vi-Hani":"山羅","name:zh-Hans":"山罗市","name:zh-Hant":"山羅市"},"display_name":"Sơn La, Tỉnh Sơn La, Việt Nam","address":{"city":"Sơn La","state":"Tỉnh Sơn La","ISO3166-2-lvl4":"VN-05","country":"Việt Nam","country_code":"vn"},"population":70362,"osm_type":"node","osm_id":369487088,"type":"city","location":[103.9151701,21.3274048],"bbox":[103.7551701,21.1674048,104.0751701,21.4874048]}
{"name":"Sông Công","other_names":{"name:en":"Sông Công","name:ko":"송꽁","name:vi":"Sông Công","name:zh":"公河市"},"display_name":"Sông Công, Tỉnh Thái Nguyên, Việt Nam","address":{"city":"Sông Công","state":"Tỉnh Thái Nguyên","ISO3166-2-lvl4":"VN-69","country":"Việt Nam","country_code":"vn"},"population":74584,"osm_type":"node","osm_id":369491404,"type":"city","location":[105.8424243,21.4734139],"bbox":[105.6824243,21.3134139,106.0024243,21.6334139]}
{"name":"Tam Điệp","other_names":{"name:en":"Tam Điệp","name:ko":"땀디엡","name:th":"ตามเดียป","name:vi":"Tam Điệp","name:zh":"三疊市","name:vi-Hani":"城庯三疊","name:zh-Hans":"三叠市","name:zh-Hant":"三疊市"},"display_name":"Tam Điệp, Tỉnh Ninh Bình, Việt Nam","address":{"city":"Tam Điệp","state":"Tỉnh Ninh Bình","ISO3166-2-lvl4":"VN-18","country":"Việt Nam","country_code":"vn"},"population":62866,"osm_type":"node","osm_id":369491358,"type":"city","location":[105.9180352,20.1565628],"bbox":[105.7580352,19.9965628,106.0780352,20.3165628]}
{"name":"Tam Kỳ","other_names":{"name:en":"Tam Kỳ","name:vi":"Tam Kỳ","name:zh":"三岐市","name:zh-Hant":"三岐市","official_name":"Thành phố Tam Kỳ"},"display_name":"Tam Kỳ, Thành phố Đà Nẵng, Việt Nam","address":{"city":"Tam Kỳ","ISO3166-2-lvl4":"VN-DN","country":"Việt Nam","country_code":"vn"},"osm_type":"node","osm_id":8943361645,"type":"city","location":[108.4821856,15.5638139],"bbox":[108.3221856,15.4038139,108.6421856,15.7238139]}
{"name":"Tân An","other_names":{"name:en":"Tân An","name:ja":"タンアン","name:ko":"떤안시","name:ru":"Танан","name:vi":"Tân An","name:zh":"新安市","name:vi-Hani":"新安"},"display_name":"Tân An, Phường Long An, Tỉnh Tây Ninh, Việt Nam","address":{"city":"Tân An","county":"Phường Long An","state":"Tỉnh Tây Ninh","ISO3166-2-lvl4":"VN-37","country":"Việt Nam","country_code":"vn"},"osm_type":"node","osm_id":369487105,"type":"city","location":[106.4099039,10.5364717],"bbox":[106.2499039,10.3764717,106.5699039,10.6964717]}
{"name":"Tân Uyên","display_name":"Tân Uyên, Phường Tân Uyên, Việt Nam","address":{"city":"Tân Uyên","county":"Phường Tân Uyên","country":"Việt Nam","country_code":"vn"},"osm_type":"node","osm_id":12925776408,"type":"city","location":[106.797519,11.060063],"bbox":[106.637519,10.900063,106.957519,11.220063]}
{"name":"Tây Ninh","other_names":{"name:be":"Горад Тэйнінь","name:en":"Tây Ninh","name:fa":"تای نینها","name:fr":"Tây Ninh","name:it":"Tay Ninh","name:ja":"タイニン","name:ko":"떠이닌","name:nl":"Tây Ninh","name:ru":"Тэйнинь","name:sv":"Tay Ninh","name:tg":"Вилояти Тей Нин","name:tr":"Tay Ninh","name:uk":"Тейнінь","name:ur":"تاے ننہ","name:vi":"Tây Ninh","name:zh":"西宁市","name:zh-Hant":"西寧市","official_name":"Thành phố Tây Ninh","official_name:en":"Tây Ninh City","official_name:vi":"Thành phố Tây Ninh"},"display_name":"Tây Ninh, Phường Tân Ninh, Tỉnh Tây Ninh, 80606, Việt Nam","address":{"city":"Tây Ninh","county":"Phường Tân Ninh","state":"Tỉnh Tây Ninh","ISO3166-2-lvl4":"VN-37","postcode":"80606","country":"Việt Nam","country_code":"vn"},"population":137189,"osm_type":"node","osm_id":369487072,"type":"city","location":[106.0966969,11.3136555],"bbox":[105.9366969,11.1536555,106.2566969,11.4736555]}
{"name":"Thái Bình","other_names":{"name:en":"Thái Bình","name:ja":"タイビン","name:ko":"타이빈","name:ru":"Тхайбинь","name:uk":"Тхайбінь","name:vi":"Thái Bình","name:zh":"太平市"},"display_name":"Thái Bình, Tỉnh Hưng Yên, 06118, Việt Nam","address":{"city":"Thái Bình","state":"Tỉnh Hưng Yên","ISO3166-2-lvl4":"VN-66","postcode":"06118","country":"Việt Nam","country_code":"vn"},"population":124332,"osm_type":"node","osm_id":369487012,"type":"city","location":[106.3424893,20.449288],"bbox":[106.1824893,20.289288,106.5024893,20.609288]}
{"name":"Thái Nguyên","other_names":{"name:en":"Thái Nguyên","name:ja":"タイグエン","name:ko":"타이응우옌","name:ru":"Тхайнгуен","name:uk":"Тхайнгуєн","name:vi":"Thái Nguyên","name:zh":"太原市"},"display_name":"Thái Nguyên, Tỉnh Thái Nguyên, Việt Nam","address":{"city":"Thái Nguyên","state":"Tỉnh Thái Nguyên","ISO3166-2-lvl4":"VN-69","country":"Việt Nam","country_code":"vn"},"population":363698,"osm_type":"node","osm_id":369486983,"type":"city","location":[105.8435398,21.592477],"bbox":[105.6835398,21.432477,106.0035398,21.752477]}
{"name":"Thanh Hóa","other_names":{"name:ak":"Thanh Hoa","name:ay":"Thanh Hoa","name:be":"Тханьхаа","name:bg":"Тхан Хоа","name:bi":"Thanh Hoa","name:da":"Thanh Hoa","name:en":"Thanh Hóa","name:eo":"Thanh Hoa","name:eu":"Thanh Hoa","name:fa":"تان هوا","name:ht":"Thanh Hoa","name:ia":"Thanh Hoa","name:ie":"Thanh Hoa","name:ig":"Thanh Hoa","name:ja":"タインホア","name:kl":"Thanh Hoa","name:ko":"타인호아","name:kw":"Thanh Hoa","name:la":"Thanh Hoa","name:lg":"Thanh Hoa","name:li":"Thanh Hoa","name:lt":"Tanhoa","name:lv":"Thaņhoa","name:mi":"Thanh Hoa","name:ms":"Thanh Hoa","name:nl":"Thanh Hóa","name:no":"Thanh Hoa","name:ru":"Тханьхоа","name:rw":"Thanh Hoa","name:sc":"Thanh Hoa","name:sg":"Thanh Hoa","name:sm":"Thanh Hoa","name:sr":"Тањ Хоа","name:sv":"Thanh Hoa","name:sw":"Thanh Hoa","name:tg":"Тан Ноа","name:th":"ทัญฮว้า","name:tl":"Thanh Hoa","name:tw":"Thanh Hoa","name:uk":"Тханхоа","name:ur":"تھان ہوا","name:vi":"Thanh Hóa","name:vo":"Thanh Hoa","name:wa":"Thanh Hoa","name:wo":"Thanh Hoa","name:zh":"清化市","official_name":"Thành phố Thanh Hóa"},"display_name":"Thanh Hóa, Tỉnh Thanh Hóa, 45000, Việt Nam","address":{"city":"Thanh Hóa","state":"Tỉnh Thanh Hóa","ISO3166-2-lvl4":"VN-21","postcode":"45000","country":"Việt Nam","country_code":"vn"},"population":249012,"osm_type":"node","osm_id":369469617,"type":"city","location":[105.7767437,19.8076814],"bbox":[105.6167437,19.6476814,105.9367437,19.9676814]}
{"name":"Thành phố Hồ Chí Minh","other_names":{"ref":"TPHCM","name:ar":"مدينة هو تشي منه","name:cs":"Ho Či Minovo Město","name:de":"Ho-Chi-Minh-Stadt","name:el":"Χο Τσι Μιν","name:en":"Ho Chi Minh City","name:es":"Ciudad Ho Chi Minh","name:et":"Hồ Chí Minh","name:eu":"Ho Chi Minh Hiria","name:fa":"هوشی‌مین","name:fr":"Hô Chi Minh-Ville","name:he":"הו צ'י מין סיטי","name:hr":"Grad Ho Chi Minh","name:id":"Kota Ho Chi Minh","name:it":"Città di Ho Chi Minh","name:ja":"ホーチミン市","name:km":"ទីក្រុង​ហូ​ជី​មិញ","name:ko":"호찌민","name:lv":"Hočimina","name:ml":"ഹോ ചി മിൻ നഗരം","name:ms":"Bandaraya Ho Chi Minh","name:nl":"Ho Chi Minhstad","name:oc":"Hô Chi Minh Vila","name:ru":"Хошимин","name:sk":"Hočiminovo Mesto","name:th":"นครโฮจิมินห์","name:vi":"Thành phố Hồ Chí Minh","name:zh":"胡志明市","alt_name":"Sài Gòn","name:ckb":"هۆشی‌مین","old_name":"Saigon","name:vi-US":"Sài Gòn","short_name":"Tp. HCM;HCM;SG","alt_name:en":"Saigon","alt_name:ko":"사이공","alt_name:zh":"西贡","old_name:cs":"Saigon","old_name:de":"Saigon","old_name:en":"Saigon","old_name:fr":"Saïgon","old_name:hr":"Saigon","old_name:it":"Saigon","old_name:ko":"사이공","old_name:la":"Saigonia","old_name:lv":"Saigona","old_name:ru":"Сайгон","old_name:th":"ไซ่ง่อน","old_name:vi":"Sài Gòn","old_name:zh":"西貢市","name:vi-Hani":"城庯胡志明","name:cjm-Latn":"Madin Hồ Chí Minh","official_name":"Ho Chi Minh City","short_name:en":"HCMC;SG","short_name:vi":"Tp. HCM;HCM;SG","official_name:en":"Ho Chi Minh City","official_name:vi":"Thành phố Hồ Chí Minh","old_name:vi-Hani":"柴棍","old_name:cjm-Latn":"Baigaor","old_name:pronunciation":"ʂaːj˨˩␣ɣɔŋ˨˩"},"display_name":"Thành phố Hồ Chí Minh, 71006, Việt Nam","address":{"city":"Thành phố Hồ Chí Minh","postcode":"71006","country":"Việt Nam","country_code":"vn"},"population":9166800,"osm_type":"node","osm_id":369486734,"type":"city","location":[106.7011391,10.7763897],"bbox":[106.5411391,10.6163897,106.8611391,10.9363897],"border":{"name":"Phường Sài Gòn","other_names":{"name:vi":"Phường Sài Gòn","name:en":"Saigon","name:fr":"Saïgon","name:zh":"西貢","alt":"Sài Gòn","alt:vi":"Sài Gòn"},"display_name":"Phường Sài Gòn, 71006, Việt Nam","address":{"quarter":"Phường Sài Gòn","postcode":"71006","country":"Việt Nam","country_code":"vn"},"osm_type":"relation","osm_id":19260504,"type":"administrative","location":[106.6999282,10.7791966],"bbox":[106.694981,10.767227,106.7151954,10.7926946]}}
{"name":"Thành phố Thủy Nguyên","other_names":{"name:de":"Stadt Thủy Nguyên","name:en":"Thủy Nguyên","name:ko":"투이응우옌","name:vi":"Thành phố Thủy Nguyên","name:zh":"水源市","name:zh-Hans":"水源市","name:zh-Hant":"水源市"},"display_name":"Thành phố Thủy Nguyên, 04340, Việt Nam","address":{"city":"Thành phố Thủy Nguyên","postcode":"04340","country":"Việt Nam","country_code":"vn"},"osm_type":"relation","osm_id":3185687,"type":"historic","location":[106.686346449481,20.9332658],"bbox":[106.5545562,20.8460772,106.7707212,21.0203243]}
{"name":"Thủ Dầu Một","display_name":"Thủ Dầu Một, Phường Thủ Dầu Một, 75106, Việt Nam","address":{"city":"Thủ Dầu Một","county":"Phường Thủ Dầu Một","postcode":"75106","country":"Việt Nam","country_code":"vn"},"osm_type":"node","osm_id":12925776411,"type":"city","location":[106.6537419,10.9808621],"bbox":[106.4937419,10.8208621,106.8137419,11.1408621]}
{"name":"Thủ Đức","display_name":"Thủ Đức, Phường Thủ Đức, 71221, Việt Nam","address":{"city":"Thủ Đức","county":"Phường Thủ Đức","postcode":"71221","country":"Việt Nam","country_code":"vn"},"osm_type":"node","osm_id":12925776412,"type":"city","location":[106.7580932,10.8400974],"bbox":[106.5980932,10.6800974,106.9180932,11.0000974]}
{"name":"Thuận An","display_name":"Thuận An, Phường Lái Thiêu, 75214, Việt Nam","address":{"city":"Thuận An","county":"Phường Lái Thiêu","postcode":"75214","country":"Việt Nam","country_code":"vn"},"osm_type":"node","osm_id":12925776407,"type":"city","location":[106.6999651,10.9048565],"bbox":[106.5399651,10.7448565,106.8599651,11.0648565]}
{"name":"Trà Vinh","other_names":{"name:en":"Trà Vinh","name:fa":"چاوین","name:ko":"짜빈","name:ru":"Чавинь","name:vi":"Trà Vinh","name:zh":"茶荣市","old_name":"Phú Vinh","name:vi-Hani":"茶榮","name:zh-Hans":"茶荣市","name:zh-Hant":"茶榮市"},"display_name":"Trà Vinh, Phường Trà Vinh, Tỉnh Vĩnh Long, Việt Nam","address":{"city":"Trà Vinh","county":"Phường Trà Vinh","state":"Tỉnh Vĩnh Long","ISO3166-2-lvl4":"VN-49","country":"Việt Nam","country_code":"vn"},"osm_type":"node","osm_id":3957750396,"type":"city","location":[106.3397849,9.9355829],"bbox":[106.1797849,9.7755829,106.4997849,10.0955829]}
{"name":"Từ Sơn","other_names":{"name:en":"Tu Son","name:ko":"뚜선","name:ru":"Тысон","name:vi":"Từ Sơn","name:zh":"慈山市"},"display_name":"Từ Sơn, Tỉnh Bắc Ninh, 16300, Việt Nam","address":{"city":"Từ Sơn","state":"Tỉnh Bắc Ninh","ISO3166-2-lvl4":"VN-56","postcode":"16300","country":"Việt Nam","country_code":"vn"},"population":192554,"osm_type":"node","osm_id":369493275,"type":"city","location":[105.9631318,21.1017487],"bbox":[105.8031318,20.9417487,106.1231318,21.2617487]}
{"name":"Tuy Hòa","other_names":{"name:en":"Tuy Hòa","name:fa":"توی هوئا","name:it":"Tuy Hoa","name:ja":"トゥイホア","name:ko":"뚜이호아","name:pt":"Tuy Hoa","name:ru":"Туихоа","name:sr":"Туи Хоа","name:sv":"Tuy Hoa","name:th":"ตวีฮหว่า","name:uk":"Туїхоа","name:ur":"توئے ہوا","name:vi":"Tuy Hòa","name:zh":"綏和市","name:zh-Hant":"綏和市"},"display_name":"Tuy Hòa, Tỉnh Đắk Lắk, Việt Nam","address":{"city":"Tuy Hòa","state":"Tỉnh Đắk Lắk","ISO3166-2-lvl4":"VN-33","country":"Việt Nam","country_code":"vn"},"population":202030,"osm_type":"node","osm_id":369486928,"type":"city","location":[109.2993584,13.0877226],"bbox":[109.1393584,12.9277226,109.4593584,13.2477226]}
{"name":"Tuyên Quang","other_names":{"name:en":"Tuyên Quang","name:fr":"Tuyên-Quang","name:ja":"トゥエンクアン","name:ko":"뚜옌꽝","name:ru":"Туенкуанг","name:uk":"Туєнкуанг","name:vi":"Tuyên Quang","name:zh":"宣光市","name:vi-Hani":"宣光","official_name":"Thành phố Tuyên Quang"},"display_name":"Tuyên Quang, Phường An Tường, Tỉnh Tuyên Quang, Việt Nam","address":{"city":"Tuyên Quang","county":"Phường An Tường","state":"Tỉnh Tuyên Quang","ISO3166-2-lvl4":"VN-07","country":"Việt Nam","country_code":"vn"},"population":62375,"osm_type":"node","osm_id":369486939,"type":"city","location":[105.217387,21.7879695],"bbox":[105.057387,21.6279695,105.377387,21.9479695]}
{"name":"Uông Bí","other_names":{"name:en":"Uông Bí","name:ja":"ウオンビ","name:ko":"우옹비","name:ru":"Уонгби","name:th":"อวงบี๊","name:vi":"Uông Bí","name:zh":"汪秘市","name:lzh":"汪秘城庯","name:vi-Hani":"城庯汪秘","name:zh-Hans":"汪秘市","name:zh-Hant":"汪秘市"},"display_name":"Uông Bí, Tỉnh Quảng Ninh, 02306, Việt Nam","address":{"city":"Uông Bí","state":"Tỉnh Quảng Ninh","ISO3166-2-lvl4":"VN-13","postcode":"02306","country":"Việt Nam","country_code":"vn"},"population":113416,"osm_type":"node","osm_id":369491140,"type":"city","location":[106.7740261,21.0414692],"bbox":[106.6140261,20.8814692,106.9340261,21.2014692],"border":{"name":"Phường Uông Bí","other_names":{"name:de":"Stadtviertel Uông Bí","name:vi":"Phường Uông Bí","alt":"Uông Bí"},"display_name":"Phường Uông Bí, Tỉnh Quảng Ninh, 02306, Việt Nam","address":{"suburb":"Phường Uông Bí","state":"Tỉnh Quảng Ninh","ISO3166-2-lvl4":"VN-13","postcode":"02306","country":"Việt Nam","country_code":"vn"},"osm_type":"relation","osm_id":19272133,"type":"administrative","location":[106.7642456,21.0261128],"bbox":[106.7253316,20.9708774,106.8016801,21.0835099]}}
{"name":"Vị Thanh","other_names":{"name:en":"Vị Thanh","name:fa":"وی‌تان","name:ja":"ヴィータイン市","name:ko":"비타인","name:ru":"Витхань","name:vi":"Vị Thanh","name:zh":"渭清市","official_name:en":"Vi Thanh","official_name:vi":"Vị Thanh"},"display_name":"Vị Thanh, Thành phố Cần Thơ, Việt Nam","address":{"city":"Vị Thanh","ISO3166-2-lvl4":"VN-CT","country":"Việt Nam","country_code":"vn"},"osm_type":"node","osm_id":369487024,"type":"city","location":[105.4670349,9.7832231],"bbox":[105.3070349,9.6232231,105.6270349,9.9432231]}
{"name":"Việt Trì","other_names":{"name:en":"Việt Trì","name:ja":"ベトチ","name:ko":"비엣찌","name:lt":"Vietči","name:ru":"Вьетчи","name:vi":"Việt Trì","name:zh":"越池市","name:vi-Hani":"城庯越池","name:zh-Hans":"越池市","name:zh-Hant":"越池市"},"display_name":"Việt Trì, Tỉnh Phú Thọ, Việt Nam","address":{"city":"Việt Trì","state":"Tỉnh Phú Thọ","ISO3166-2-lvl4":"VN-68","country":"Việt Nam","country_code":"vn"},"population":222131,"osm_type":"node","osm_id":369486936,"type":"city","location":[105.3946301,21.3136067],"bbox":[105.2346301,21.1536067,105.5546301,21.4736067]}
{"name":"Vĩnh Long","other_names":{"name:en":"Vĩnh Long","name:fa":"وین‌لونگ","name:ja":"ヴィンロン","name:ko":"빈롱","name:ru":"Виньлонг","name:vi":"Vĩnh Long","name:zh":"永隆市","name:vi-Hani":"城庯永隆","name:zh-Hans":"永隆市","name:zh-Hant":"永隆市","official_name":"Thành phố Vĩnh Long"},"display_name":"Vĩnh Long, Phường Long Châu, Tỉnh Vĩnh Long, 85040, Việt Nam","address":{"city":"Vĩnh Long","county":"Phường Long Châu","state":"Tỉnh Vĩnh Long","ISO3166-2-lvl4":"VN-49","postcode":"85040","country":"Việt Nam","country_code":"vn"},"population":200120,"osm_type":"node","osm_id":1527965399,"type":"city","location":[105.9735715,10.252039],"bbox":[105.8135715,10.092039,106.1335715,10.412039]}
{"name":"Vĩnh Yên","other_names":{"name:en":"Vĩnh Yên","name:fr":"Vinh-Yên","name:ja":"ヴィンイエン","name:ko":"빈옌","name:ru":"Виньйен","name:vi":"Vĩnh Yên","name:zh":"永安市"},"display_name":"Vĩnh Yên, Tỉnh Phú Thọ, Việt Nam","address":{"city":"Vĩnh Yên","state":"Tỉnh Phú Thọ","ISO3166-2-lvl4":"VN-68","country":"Việt Nam","country_code":"vn"},"population":125858,"osm_type":"node","osm_id":369486946,"type":"city","location":[105.5916322,21.3088479],"bbox":[105.4316322,21.1488479,105.7516322,21.4688479]}
{"name":"Vinh","other_names":{"name:en":"Vinh","name:ja":"ヴィン","name:ko":"빈","name:ru":"Винь","name:th":"วิญ","name:uk":"Вінь","name:vi":"Vinh","name:zh":"荣市","name:vi-Hani":"永","name:zh-Hans":"荣市","name:zh-Hant":"榮市"},"display_name":"Vinh, Tỉnh Nghệ An, Việt Nam","address":{"city":"Vinh","state":"Tỉnh Nghệ An","ISO3166-2-lvl4":"VN-22","country":"Việt Nam","country_code":"vn"},"population":230469,"osm_type":"node","osm_id":369487077,"type":"city","location":[105.6840371,18.6698528],"bbox":[105.5240371,18.5098528,105.8440371,18.8298528]}
{"name":"Vũng Tàu","other_names":{"ref":"VT","name:ar":"نج تاو","name:en":"Vũng Tàu","name:fa":"وونگ‌تاو","name:ja":"ブンタウ","name:km":"វ៉ុងថោ","name:ko":"붕따우","name:ru":"Вунгтау","name:th":"หวุงเต่า","name:uk":"Вунгтау","name:vi":"Vũng Tàu","name:zh":"淎艚市","old_name":"Cap Saint-Jacques","old_name:fr":"Cap Saint-Jacques","old_name:ru":"Мыс Сен-Жака","name:vi-Hani":"淎艚","name:zh-Hans":"头顿市","name:zh-Hant":"頭頓市","official_name":"Thành phố Vũng Tàu","official_name:en":"Vung Tau City","official_name:ru":"Город Вунгтау","official_name:vi":"Thành phố Vũng Tàu","name:pronunciation":"vʊwŋ͡m˦ˀ˥␣taw˧˧"},"display_name":"Vũng Tàu, Phường Tam Thắng, 76666, Việt Nam","address":{"city":"Vũng Tàu","county":"Phường Tam Thắng","postcode":"76666","country":"Việt Nam","country_code":"vn"},"population":380000,"osm_type":"node","osm_id":369487044,"type":"city","location":[107.0867363,10.3535221],"bbox":[106.9267363,10.1935221,107.2467363,10.5135221]}
{"name":"Yên Bái","other_names":{"name:en":"Yên Bái","name:ja":"イエンバイ","name:ko":"옌바이","name:ru":"Йенбай","name:uk":"Єнбай","name:vi":"Yên Bái","name:zh":"安沛市","official_name":"Thành phố Yên Bái","official_name:en":"Yen Bai City"},"display_name":"Yên Bái, Tỉnh Lào Cai, Việt Nam","address":{"city":"Yên Bái","state":"Tỉnh Lào Cai","ISO3166-2-lvl4":"VN-02","country":"Việt Nam","country_code":"vn"},"population":75822,"osm_type":"node","osm_id":369487033,"type":"city","location":[104.8752392,21.69611],"bbox":[104.7152392,21.53611,105.0352392,21.85611]}
