{"name":"إدلب","other_names":{"name:af":"Idlib","name:ar":"إدلب","name:az":"İdlib","name:be":"Ідліб","name:bg":"Идлиб","name:ca":"Idlib","name:cs":"Idlib","name:da":"Idlib","name:de":"Idlib","name:el":"Ιντλίμπ","name:en":"Idlib","name:eo":"Idlibo","name:es":"Idlib","name:et":"Idlib","name:eu":"Idlib","name:fa":"ادلب","name:fi":"Idlib","name:fr":"Idlib","name:he":"אידליב","name:hi":"इड्लिब","name:hr":"Idlib","name:hu":"Idlib","name:hy":"Իդլիբ","name:id":"Idlib","name:is":"Idlib","name:it":"Idlib","name:ja":"イドリブ","name:jv":"Idlib","name:ka":"იდლიბი","name:ko":"이들레브","name:ks":"ادلب","name:ku":"Îdlîb","name:lt":"Idlibas","name:ml":"ഇദ്ലിബ്","name:ms":"Idlib","name:nb":"Idlib","name:nl":"Idlib","name:nn":"Idlib","name:oc":"Idlib","name:os":"Идлиб","name:pl":"Idlib","name:pt":"Idlib","name:ro":"Idlib","name:ru":"Идлиб","name:sq":"Idlib","name:sr":"Идлиб","name:sv":"Idlib","name:ta":"இதுலிபு","name:tg":"Идлиб","name:tr":"İdlib","name:ug":"ئىدلىب","name:uk":"Ідліб","name:ur":"ادلب","name:uz":"Idlib","name:vi":"Idlib","name:zh":"伊德利卜","name:azb":"ادلب","name:ckb":"ئیدلیب","name:he1":"אדלב","name:ota":"ادلب"},"display_name":"إدلب, ناحية مركز إدلب, منطقة إدلب, محافظة إدلب, سوريا","address":{"city":"إدلب","subdistrict":"ناحية مركز إدلب","district":"منطقة إدلب","state":"محافظة إدلب","ISO3166-2-lvl4":"SY-ID","country":"سوريا","country_code":"sy"},"population":98791,"osm_type":"node","osm_id":270488512,"type":"city","location":[36.6352596,35.9301902],"bbox":[36.4752596,35.7701902,36.7952596,36.0901902]}
{"name":"الباب","other_names":{"name:ar":"الباب","name:de":"al-Bab","name:en":"Al-Bab","name:es":"Al-Bab","name:fr":"Al-Bab","name:he":"אל-באב","name:ja":"アル゠バーブ","name:ko":"알바브","name:ku":"Bab","name:ml":"അൽ ബാബ്","name:ru":"Аль-Баб","name:tr":"El-Bab","name:zh":"巴卜","alt_name:ku":"El-Bab"},"display_name":"الباب, ناحية مركز الباب, منطقة الباب, محافظة حلب, سوريا","address":{"city":"الباب","subdistrict":"ناحية مركز الباب","state_district":"منطقة الباب","state":"محافظة حلب","ISO3166-2-lvl4":"SY-HL","country":"سوريا","country_code":"sy"},"population":63069,"osm_type":"node","osm_id":3871242686,"type":"city","location":[37.5143955,36.3711098],"bbox":[37.3543955,36.2111098,37.6743955,36.5311098]}
{"name":"الحجر الأسود","other_names":{"name:ar":"الحجر الأسود","name:de":"al-Hadschar al-Aswad","name:en":"Al-Hajar al-Aswad","name:fr":"Al-Hadjar al-Asouad","name:he":"אל-חג׳ר אל-אסווד","name:ja":"アル゠ハジャル・アル゠アスワド","name:ko":"알하잘알라솨드","name:ml":"അൽ-ഹജർ അൽ-അസ്വദ്","name:ru":"Аль-Хаджар-аль-Асвад"},"display_name":"الحجر الأسود, ناحية الحجر الأسود, منطقة داريا, محافظة ريف دمشق, سوريا","address":{"city":"الحجر الأسود","subdistrict":"ناحية الحجر الأسود","district":"منطقة داريا","state":"محافظة ريف دمشق","ISO3166-2-lvl4":"SY-RD","country":"سوريا","country_code":"sy"},"population":84948,"osm_type":"node","osm_id":4035515320,"type":"city","location":[36.3048058,33.4565281],"bbox":[36.1448058,33.2965281,36.4648058,33.6165281]}
{"name":"الحسكة","other_names":{"name:ar":"الحسكة","name:cs":"Hasaka","name:de":"Hasaka","name:en":"Al-Hasaka","name:es":"Hasaka","name:eu":"Al-Hasaka","name:fa":"حسکه","name:fr":"Hassaké","name:he":"אל-חסכה","name:hi":"हसकाह","name:hu":"Haszaka","name:ja":"ハサカ","name:ko":"하사카","name:ku":"Hesîçe","name:lt":"Hasekė","name:ml":"അൽ-ഹസക്ക","name:pl":"Al-Hasaka","name:ru":"Аль-Хасака","name:tr":"Hasiçi","name:uk":"Аль-Хасаке","name:ur":"الحسکہ","name:zh":"哈塞克","name:ckb":"حەسیچە","alt_name:uk":"Ель-Хасака"},"display_name":"الحسكة, ناحية مركز الحسكة, منطقة الحسكة, محافظة الحسكة, سوريا","address":{"city":"الحسكة","subdistrict":"ناحية مركز الحسكة","district":"منطقة الحسكة","state":"محافظة الحسكة","ISO3166-2-lvl4":"SY-HA","country":"سوريا","country_code":"sy"},"population":188160,"osm_type":"node","osm_id":572568688,"type":"city","location":[40.7469948,36.5013738],"bbox":[40.5869948,36.3413738,40.9069948,36.6613738]}
{"name":"الرقة","other_names":{"name:ar":"الرقة","name:cs":"Rakka","name:de":"Ar-Raqqa","name:el":"Ράκκα","name:en":"Ar-Raqqa","name:es":"Al Raqa","name:et":"Ar-Raqqah","name:eu":"Raqqa","name:fa":"رقه","name:fi":"Rakka","name:fr":"Raqqa","name:he":"א-רקה","name:hi":"अल-रक़्क़ा","name:hu":"Rakka","name:ja":"ラッカ","name:ko":"락까","name:ku":"Reqa","name:la":"Callinicum","name:ml":"റഖ","name:nl":"Raqqa","name:pl":"Ar-Rakka","name:ru":"Ар-Ракка","name:tr":"Rakka","name:uk":"Ар-Ракка","name:ur":"الرقہ","name:zh":"拉卡","alt_name":"العكيرشي","name:azb":"رقه","name:ckb":"ڕەقە","name:grc":"Καλλινικος","old_name":"Nicephorium","alt_name:ar":"العكيرشي","alt_name:uk":"Ракка","name:kk-Arab":"راققا"},"display_name":"الرقة, ناحية مركز الرقة, منطقة الرقة, محافظة الرقة, سوريا","address":{"city":"الرقة","subdistrict":"ناحية مركز الرقة","district":"منطقة الرقة","state":"محافظة الرقة","ISO3166-2-lvl4":"SY-RA","country":"سوريا","country_code":"sy"},"population":220488,"osm_type":"node","osm_id":571225333,"type":"city","location":[39.0089212,35.949678],"bbox":[38.8489212,35.789678,39.1689212,36.109678]}
{"name":"السبينة","other_names":{"name:ar":"السبينة","name:de":"as-Sabina","name:en":"As-Sabina","name:fr":"As-Sabina","name:he":"א-סבינה","name:ja":"アッ゠サビナ","name:ko":"아사비나","name:ml":"സബീന","name:ru":"Ас-Сабина"},"display_name":"السبينة, ناحية ببيلا, منطقة مركز ريف دمشق, محافظة ريف دمشق, سوريا","address":{"city":"السبينة","subdistrict":"ناحية ببيلا","district":"منطقة مركز ريف دمشق","state":"محافظة ريف دمشق","ISO3166-2-lvl4":"SY-RD","country":"سوريا","country_code":"sy"},"population":62509,"osm_type":"node","osm_id":4035515321,"type":"city","location":[36.2805258,33.4401384],"bbox":[36.1205258,33.2801384,36.4405258,33.6001384]}
{"name":"السفيرة","other_names":{"name:ar":"السفيرة","name:de":"as-Safira","name:en":"As-Safira","name:fr":"As-Safira","name:he":"א-ספירה","name:ja":"アッ゠サフィーラ","name:ko":"아사피라","name:ku":"Sefîre","name:ml":"അസ്സഫീറ","name:ru":"Ас-Сафира","name:zh":"塞菲拉"},"display_name":"السفيرة, ناحية مركز السفيرة, منطقة السفيرة, محافظة حلب, سوريا","address":{"city":"السفيرة","subdistrict":"ناحية مركز السفيرة","district":"منطقة السفيرة","state":"محافظة حلب","ISO3166-2-lvl4":"SY-HL","country":"سوريا","country_code":"sy"},"population":63708,"osm_type":"node","osm_id":270483190,"type":"city","location":[37.3728465,36.0791541],"bbox":[37.2128465,35.9191541,37.5328465,36.2391541]}
{"name":"السلمية","other_names":{"name:ar":"السلمية","name:cs":"Salmíja","name:de":"as-Salamija","name:el":"Σαλαμίγια","name:en":"As-Salamiye","name:es":"Salamía","name:et":"Salamīyah","name:fa":"سلمیه","name:fr":"Selemié","name:he":"א-סלמיה","name:hu":"Szalamijja","name:ja":"アッ゠サラミヤ","name:ko":"아살람이예","name:lt":"Salamija","name:ml":"സലമിയ","name:ru":"Ас-Салами́йя","name:uk":"Саламія","name:ur":"سلمیہ","name:azb":"سلمیه","name:ckb":"سەلەمیە","name:mzn":"سلمیه"},"display_name":"السلمية, ناحية مركز السلمية, منطقة السلمية, محافظة حماة, سوريا","address":{"city":"السلمية","subdistrict":"ناحية مركز السلمية","district":"منطقة السلمية","state":"محافظة حماة","ISO3166-2-lvl4":"SY-HM","country":"سوريا","country_code":"sy"},"population":66724,"osm_type":"node","osm_id":270690634,"type":"city","location":[37.0546349,35.011746],"bbox":[36.8946349,34.851746,37.2146349,35.171746]}
{"name":"السويداء","other_names":{"name:ar":"السويداء","name:cs":"Suvajda","name:de":"as-Suweida","name:en":"As-Suweida","name:es":"As-Suwayda","name:et":"As-Suwaydā’","name:eu":"As-Suwayda","name:fa":"سویدا","name:fr":"Soueïda","name:he":"א-סוידא","name:hr":"Suvajda","name:hu":"Szuvajdá","name:ja":"スワイダー","name:ko":"수와이다","name:ku":"Suweyda","name:lt":"Suveida","name:ml":"സുവൈദ","name:pl":"As-Suwajda","name:ru":"Ас-Сувейда","name:tr":"Süveyda","name:uk":"Ас-Сувейда","name:ur":"السویداء","name:zh":"苏韦达","name:grc":"Σουάδα","alt_name:grc":"Διονῡσιάς"},"display_name":"السويداء, ناحية مركز السويداء, منطقة السويداء, محافظة السويداء, سوريا","address":{"city":"السويداء","subdistrict":"ناحية مركز السويداء","district":"منطقة السويداء","state":"محافظة السويداء","ISO3166-2-lvl4":"SY-SU","country":"سوريا","country_code":"sy"},"population":73641,"osm_type":"node","osm_id":567054854,"type":"city","location":[36.5687496,32.7093878],"bbox":[36.4087496,32.5493878,36.7287496,32.8693878]}
{"name":"السيدة زينب","other_names":{"name:ar":"السيدة زينب","name:de":"as-Sajjida Seinab","name:en":"As-Sayyida Zeinab","name:fa":"سیده زینب","name:fr":"As-Sayyida Zeinab","name:he":"א-סיידה זיינב","name:ja":"アッ゠サイーダ・ゼイナブ","name:ko":"사이다자이나브","name:ml":"സയ്യിദ സൈനബ്","name:ru":"Ас-Саийда-Зейнаб","name:ur":"سیدہ زینب","alt_name":"الست زينب","name:pnb":"سیدہ زینب","alt_name:ar":"الست زينب"},"display_name":"السيدة زينب, ناحية ببيلا, منطقة مركز ريف دمشق, محافظة ريف دمشق, سوريا","address":{"city":"السيدة زينب","subdistrict":"ناحية ببيلا","district":"منطقة مركز ريف دمشق","state":"محافظة ريف دمشق","ISO3166-2-lvl4":"SY-RD","country":"سوريا","country_code":"sy"},"population":136427,"osm_type":"node","osm_id":3887032461,"type":"city","location":[36.3362488,33.4464897],"bbox":[36.1762488,33.2864897,36.4962488,33.6064897]}
{"name":"الطبقة","other_names":{"name:ar":"الطبقة","name:cs":"Tabka","name:de":"as-Saura","name:en":"Al-Tabqah","name:es":"Ath Thawrah","name:eu":"Al-Thawrah","name:fa":"الثوره","name:fr":"Ath-Thaoura","name:he":"א-ת׳ורה","name:ja":"アッ゠サウーラ","name:ko":"아사우라","name:ku":"Tebqa","name:ml":"അസ്സൗറ","name:ru":"Ас-Савра","name:tr":"Al-Thawra","name:uk":"Ес-Саура","alt_name":"الطبقة","int_name":"Al-Tabqah","name:ckb":"تەورە","alt_name:ar":"الطبقة","alt_name:de":"at-Tabaka","alt_name:en":"At-Tabaqa","alt_name:fr":"At-Tabaqa","alt_name:he":"א-טבקה","alt_name:ja":"アッ゠タブカ","alt_name:ko":"알타바카","alt_name:ml":"തബ്ഖ","alt_name:ru":"Ат-Табака","alt_name:ckb":"تەبەقە"},"display_name":"الطبقة, ناحية مركز الثورة, منطقة الثورة, محافظة الرقة, سوريا","address":{"city":"الطبقة","subdistrict":"ناحية مركز الثورة","district":"منطقة الثورة","state":"محافظة الرقة","ISO3166-2-lvl4":"SY-RA","country":"سوريا","country_code":"sy"},"population":69425,"osm_type":"node","osm_id":3885116197,"type":"city","location":[38.5438685,35.8311397],"bbox":[38.3838685,35.6711397,38.7038685,35.9911397]}
{"name":"القامشلي","other_names":{"name:ar":"القامشلي","name:ca":"AlQamixli","name:cs":"Kámišlí","name:de":"al-Kamischli","name:en":"Al-Qamishli","name:es":"Qamishli","name:eu":"Qamishli","name:fa":"قامشلی","name:fr":"Kamechli","name:he":"אל-קאמשלי","name:hi":"कामिश्लि","name:hu":"Kámisli","name:hy":"Քամիշլի","name:ja":"カーミシュリー","name:ko":"카므실리","name:ku":"Qamişlo","name:lt":"Kamišlis","name:ml":"ഖാമിഷ്ലി","name:pl":"Kamiszli","name:ru":"Аль-Камишли","name:tr":"Kamışlı","name:uk":"Камишли","name:ur":"قامشلی","name:zh":"卡米什利","alt_name":"قامشلو","name:arc":"ܩܡܫܠܝ","name:ckb":"قامیشلۆ","name:mzn":"قامشلی","name:syc":"ܩܡܫܠܝ","alt_name:ar":"قامشلو","alt_name:en":"Qamishlo","alt_name:arc":"ܩܡܫܠܐ;ܒܝܬ ܙܠܝ̈ܢ;ܒܝܬ ܙܠܝܢ;ܒܝܬ ܙܐܠܝ̈ܢ;ܒܝܬ ܙܐܠܝܢ","alt_name:syc":"ܩܡܫܠܐ;ܒܝܬ ܙܠܝ̈ܢ;ܒܝܬ ܙܠܝܢ;ܒܝܬ ܙܐܠܝ̈ܢ;ܒܝܬ ܙܐܠܝܢ","name:ku-Arab":"قامشلۆ"},"display_name":"القامشلي, ناحية مركز القامشلي, منطقة القامشلي, محافظة الحسكة, سوريا","address":{"city":"القامشلي","subdistrict":"ناحية مركز القامشلي","district":"منطقة القامشلي","state":"محافظة الحسكة","ISO3166-2-lvl4":"SY-HA","country":"سوريا","country_code":"sy"},"population":184231,"osm_type":"node","osm_id":130187624,"type":"city","location":[41.2306547,37.0495912],"bbox":[41.0706547,36.8895912,41.3906547,37.2095912]}
{"name":"القنيطرة","other_names":{"name:ar":"القنيطرة","name:cs":"Kunejtra","name:de":"al-Kuneitra","name:el":"Κουνέιτρα","name:en":"Al-Quneitra","name:fr":"Qouneitra","name:he":"קוניטרה","name:hr":"Kunejtra","name:ja":"アル゠クネイトラ","name:ko":"알쿠네이트라","name:lt":"Kuneitra","name:ml":"ഖുനൈത്ര","name:pl":"Al-Kunajtira","name:ru":"Аль-Кунайтра","name:tr":"Kuneytire","name:uk":"Ель-Кунейтра","name:ur":"قنیطرہ","name:zh":"库奈特拉","alt_name:cs":"Malý Most"},"display_name":"القنيطرة, ناحية مركز القنيطرة, منطقة القنيطرة, محافظة القنيطرة, سوريا","address":{"city":"القنيطرة","subdistrict":"ناحية مركز القنيطرة","district":"منطقة القنيطرة","state":"محافظة القنيطرة","ISO3166-2-lvl4":"SY-QU","country":"سوريا","country_code":"sy"},"population":153,"osm_type":"node","osm_id":567053507,"type":"city","location":[35.8230108,33.1244369],"bbox":[35.6630108,32.9644369,35.9830108,33.2844369]}
{"name":"اللاذقية","other_names":{"name:af":"Latakia","name:ar":"اللاذقية","name:az":"Əl-Laziqiyyə","name:be":"Латакія","name:bg":"Латакия","name:bn":"লাতাকিয়া","name:bs":"Latakija","name:ca":"Latakia","name:cs":"Latákia","name:cy":"Latakia","name:da":"Latakia","name:de":"Latakia","name:el":"Λαοδικεία","name:en":"Latakia","name:eo":"Latakio","name:es":"Latakia","name:et":"Latakia","name:eu":"Latakia","name:fa":"لاذقیه","name:fi":"Lattakia","name:fr":"Lattaquié","name:gl":"Latakia","name:he":"לטקיה","name:hi":"लैतकिया","name:hr":"Latakija","name:hu":"Latakia","name:hy":"Լաթակիա","name:id":"Latakia","name:ie":"Latakia","name:io":"Latakia","name:is":"Latakía","name:it":"Laodicea","name:ja":"ラタキア","name:ka":"ლატაკია","name:ko":"라타키아","name:ku":"Laziqiye","name:ky":"Латакия","name:la":"Laodicea","name:lt":"Latakija","name:lv":"Lādikīja","name:mg":"Latakia","name:ml":"ലത്തക്ക്യ","name:mn":"Латакия","name:ms":"Latakia","name:nb":"Latakia","name:nl":"Latakia","name:nn":"Lattakia","name:os":"Латаки","name:pl":"Latakia","name:pt":"Lataquia","name:ro":"Latakia","name:ru":"Латакия","name:sl":"Latakija","name:sq":"Latakia","name:sr":"Латакија","name:sv":"Latakia","name:tg":"Лозиқия","name:tr":"Lazkiye","name:tt":"Lataqiä","name:ug":"لازىقىيە","name:uk":"Латакія","name:ur":"لاذقیہ","name:uz":"Loziqiya","name:zh":"拉塔基亚","int_name":"al-Lāḏikiyya","name:ckb":"لازقیە","old_name":"Laodicea","alt_name:ar":"لاذقية العرب","alt_name:cs":"Lázikíja","alt_name:he":"א-לאד׳קיה","alt_name:ml":"അൽ-ലാദിഖിയ"},"display_name":"اللاذقية, ناحية مركز اللاذقية, منطقة اللاذقية, محافظة اللاذقية, سوريا","address":{"city":"اللاذقية","subdistrict":"ناحية مركز اللاذقية","district":"منطقة اللاذقية","state":"محافظة اللاذقية","ISO3166-2-lvl4":"SY-LA","country":"سوريا","country_code":"sy"},"population":383786,"osm_type":"node","osm_id":192288043,"type":"city","location":[35.7781044,35.5200185],"bbox":[35.6181044,35.3600185,35.9381044,35.6800185]}
{"name":"اليرموك","other_names":{"name:ar":"اليرموك","name:de":"al-Jarmuk","name:el":"αλ Γιαρμούκ","name:en":"Al-Yarmuk","name:fr":"Yarmouk","name:he":"אל-ירמוך","name:ja":"アル゠ヤルムーク","name:ko":"야르무크","name:ml":"യർമൂക്ക്","name:ru":"Аль-Ярмук","alt_name":"مخيم اليرموك","alt_name:ar":"مخيم اليرموك","alt_name:de":"Mucheijam al-Jarmuk","alt_name:el":"Μουχαγιάμ αλ Γιαρμούκ","alt_name:en":"Mukhayyam al-Yarmuk","alt_name:fr":"Mukhaïam al-Yarmouk","alt_name:ml":"മുഖയ്യം അൽ-യർമൂക്ക്","alt_name:ru":"Мухяйям-эль-Ярмук"},"display_name":"اليرموك, ناحية دمشق, منطقة دمشق, محافظة دمشق, سوريا","address":{"city":"اليرموك","county":"ناحية دمشق","state_district":"منطقة دمشق","state":"محافظة دمشق","ISO3166-2-lvl4":"SY-DI","country":"سوريا","country_code":"sy"},"population":137248,"osm_type":"node","osm_id":567045696,"type":"city","location":[36.3048029,33.4724791],"bbox":[36.1448029,33.3124791,36.4648029,33.6324791],"border":{"name":"اليرموك","other_names":{"name:ar":"اليرموك","name:de":"al-Jarmuk","name:en":"Al-Yarmuk","name:fr":"Yarmouk","name:he":"אל-ירמוך","name:ja":"アル゠ヤルムーク市","name:ko":"야르무크시","name:nn":"Al-Jarmuk","name:no":"Al-Jarmuk","name:ru":"Аль-Ярмук","name:el":"αλ Γιαρμούκ","name:ml":"യർമൂക്ക്","alt_name":"مخيم اليرموك","alt_name:ar":"مخيم اليرموك","alt_name:de":"Mucheijam al-Jarmuk","alt_name:el":"Μουχαγιάμ αλ Γιαρμούκ","alt_name:en":"Mukhayyam al-Yarmuk","alt_name:fr":"Mukhaïam al-Yarmouk","alt_name:ml":"മുഖയ്യം അൽ-യർമൂക്ക്","alt_name:ru":"Мухяйям-эль-Ярмук","alt:ja":"アル゠ヤルムーク","alt:ko":"야르무크"},"display_name":"اليرموك, ناحية دمشق, منطقة دمشق, محافظة دمشق, سوريا","address":{"city":"اليرموك","county":"ناحية دمشق","state_district":"منطقة دمشق","state":"محافظة دمشق","ISO3166-2-lvl4":"SY-DI","country":"سوريا","country_code":"sy"},"population":137248,"osm_type":"relation","osm_id":15045342,"type":"administrative","location":[36.3048029,33.4724791],"bbox":[36.2981543,33.4613789,36.3153688,33.4812578]}}
{"name":"ببيلا","other_names":{"name:ar":"ببيلا","name:de":"Babella","name:en":"Babella","name:fr":"Babella","name:he":"בבילא","name:ja":"バベッラー","name:ko":"바벨라","name:ml":"ബബ്ബില","name:ru":"Бабелла"},"display_name":"ببيلا, ناحية ببيلا, منطقة مركز ريف دمشق, محافظة ريف دمشق, سوريا","address":{"city":"ببيلا","subdistrict":"ناحية ببيلا","district":"منطقة مركز ريف دمشق","state":"محافظة ريف دمشق","ISO3166-2-lvl4":"SY-RD","country":"سوريا","country_code":"sy"},"population":50880,"osm_type":"node","osm_id":3887032462,"type":"city","location":[36.3310508,33.468422],"bbox":[36.1710508,33.308422,36.4910508,33.628422]}
{"name":"بلدية الشاغور","other_names":{"name:ar":"بلدية الشاغور","name:de":"Stadtbezirk asch-Schagur","name:en":"Ash-Shaghour Municipality","name:fr":"Municipalité de Chaghour","name:ja":"アッ゠シャグル区","name:ko":"아샤구르구","name:nn":"Bydel asj-Sjagur","name:no":"Bydel asj-Sjagur","name:ru":"Муниципалитет аш-Шагур"},"display_name":"بلدية الشاغور, ناحية دمشق, منطقة دمشق, محافظة دمشق, سوريا","address":{"city":"بلدية الشاغور","county":"ناحية دمشق","state_district":"منطقة دمشق","state":"محافظة دمشق","ISO3166-2-lvl4":"SY-DI","country":"سوريا","country_code":"sy"},"population":225622,"osm_type":"relation","osm_id":13433886,"type":"administrative","location":[36.31475666785007,33.4887403],"bbox":[36.300388,33.4692877,36.3330911,33.5082052],"inferred_type":"city"}
{"name":"بلدية الصالحية","other_names":{"name:ar":"بلدية الصالحية","name:de":"Stadtbezirk as-Salihije","name:en":"As-Salihiya Municipality","name:fr":"Municipalité de Salihié","name:ja":"アッ=サルヒーエ区","name:ko":"아살리히예구","name:nn":"Bydel as-Salihije","name:no":"Bydel as-Salihije","name:ru":"Муниципалитет ас-Салихийя"},"display_name":"بلدية الصالحية, ناحية دمشق, منطقة دمشق, محافظة دمشق, سوريا","address":{"city":"بلدية الصالحية","county":"ناحية دمشق","state_district":"منطقة دمشق","state":"محافظة دمشق","ISO3166-2-lvl4":"SY-DI","country":"سوريا","country_code":"sy"},"population":72303,"osm_type":"relation","osm_id":13338693,"type":"administrative","location":[36.28684636530927,33.53170145],"bbox":[36.2767377,33.5163491,36.301841,33.5470407],"inferred_type":"city"}
{"name":"بلدية القدم","other_names":{"name:ar":"بلدية القدم","name:de":"Stadtbezirk al-Kadam","name:en":"Al-Qadam Municipality","name:fr":"Municipalité de Qadame","name:ja":"アル゠カダム区","name:ko":"알카담구","name:nn":"Bydel al-Kadam","name:no":"Bydel al-Kadam","name:ru":"Муниципалитет аль-Кадам"},"display_name":"بلدية القدم, ناحية دمشق, منطقة دمشق, محافظة دمشق, سوريا","address":{"city":"بلدية القدم","county":"ناحية دمشق","state_district":"منطقة دمشق","state":"محافظة دمشق","ISO3166-2-lvl4":"SY-DI","country":"سوريا","country_code":"sy"},"population":81634,"osm_type":"relation","osm_id":14043006,"type":"administrative","location":[36.28926310474914,33.474526350000005],"bbox":[36.2774528,33.4586056,36.2990688,33.4901113],"inferred_type":"city"}
{"name":"بلدية القنوات","other_names":{"name:ar":"بلدية القنوات","name:de":"Stadtbezirk al-Kanawat","name:en":"Al-Qanawat Municipality","name:fr":"Municipalité de Qanaouate","name:ja":"アル゠カナワートゥ区","name:ko":"알카나와트구","name:nn":"Bydel al-Kanavat","name:no":"Bydel al-Kanavat","name:ru":"Муниципалитет аль-Канават"},"display_name":"بلدية القنوات, ناحية دمشق, منطقة دمشق, محافظة دمشق, سوريا","address":{"city":"بلدية القنوات","county":"ناحية دمشق","state_district":"منطقة دمشق","state":"محافظة دمشق","ISO3166-2-lvl4":"SY-DI","country":"سوريا","country_code":"sy"},"population":58053,"osm_type":"relation","osm_id":13384159,"type":"administrative","location":[36.29275209362272,33.506426149999996],"bbox":[36.2765621,33.4989192,36.3027401,33.5137766],"inferred_type":"city"}
{"name":"بلدية المزة","other_names":{"name:ar":"بلدية المزة","name:de":"Stadtbezirk al-Masse","name:en":"Al-Mazza Municipality","name:fr":"Municipalité de Mazzé","name:ja":"アル゠マッゼ区","name:ko":"알맞쩨구","name:nn":"Bydel al-Massa","name:no":"Bydel al-Massa","name:ru":"Муниципалитет аль-Маззе"},"display_name":"بلدية المزة, ناحية دمشق, منطقة دمشق, محافظة دمشق, سوريا","address":{"city":"بلدية المزة","county":"ناحية دمشق","state_district":"منطقة دمشق","state":"محافظة دمشق","ISO3166-2-lvl4":"SY-DI","country":"سوريا","country_code":"sy"},"population":123313,"osm_type":"relation","osm_id":13359358,"type":"administrative","location":[36.23955265383211,33.49427305],"bbox":[36.2051293,33.4682715,36.2868223,33.5196812],"inferred_type":"city"}
{"name":"بلدية المهاجرين","other_names":{"name:ar":"بلدية المهاجرين","name:de":"Stadtbezirk al-Muhadscherin","name:en":"Al-Muhajerin Municipality","name:fr":"Municipalité de Muhadjerine","name:ja":"アル゠ムハージェリーン区","name:ko":"알무하제린구","name:nn":"Bydel al-Muhadsjerin","name:no":"Bydel al-Muhadsjerin","name:ru":"Муниципалитет аль-Мухаджерин"},"display_name":"بلدية المهاجرين, ناحية دمشق, منطقة دمشق, محافظة دمشق, سوريا","address":{"city":"بلدية المهاجرين","county":"ناحية دمشق","state_district":"منطقة دمشق","state":"محافظة دمشق","ISO3166-2-lvl4":"SY-DI","country":"سوريا","country_code":"sy"},"population":55492,"osm_type":"relation","osm_id":13288841,"type":"administrative","location":[36.27811045238809,33.5221075],"bbox":[36.2575706,33.5132114,36.2923203,33.5309328],"inferred_type":"city"}
{"name":"بلدية الميدان","other_names":{"name:ar":"بلدية الميدان","name:de":"Stadtbezirk al-Midan","name:en":"Al-Midan Municipality","name:fr":"Municipalité de Midane","name:ja":"アル゠ミーダーン区","name:ko":"알미단구","name:nn":"Bydel al-Midan","name:no":"Bydel al-Midan","name:ru":"Муниципалитет аль-Мидан"},"display_name":"بلدية الميدان, ناحية دمشق, منطقة دمشق, محافظة دمشق, سوريا","address":{"city":"بلدية الميدان","county":"ناحية دمشق","state_district":"منطقة دمشق","state":"محافظة دمشق","ISO3166-2-lvl4":"SY-DI","country":"سوريا","country_code":"sy"},"population":90663,"osm_type":"relation","osm_id":14041958,"type":"administrative","location":[36.29688379804698,33.49035255],"bbox":[36.2878954,33.4800513,36.306326,33.5005978],"inferred_type":"city"}
{"name":"بلدية برزة","other_names":{"name:ar":"بلدية برزة","name:de":"Stadtbezirk Barse","name:en":"Barza Municipality","name:fr":"Municipalité de Barzé","name:ja":"バルゼ区","name:ko":"바르제구","name:nn":"Bydel Barse","name:no":"Bydel Barse","name:ru":"Муниципалитет Барьзе"},"display_name":"بلدية برزة, ناحية دمشق, منطقة دمشق, محافظة دمشق, سوريا","address":{"city":"بلدية برزة","county":"ناحية دمشق","state_district":"منطقة دمشق","state":"محافظة دمشق","ISO3166-2-lvl4":"SY-DI","country":"سوريا","country_code":"sy"},"population":107596,"osm_type":"relation","osm_id":13297125,"type":"administrative","location":[36.315675045451115,33.5487507],"bbox":[36.287896,33.5260678,36.3361677,33.5718338],"inferred_type":"city"}
{"name":"بلدية جوبر","other_names":{"name:ar":"بلدية جوبر","name:de":"Stadtbezirk Dschobar","name:en":"Joubar Municipality","name:fr":"Municipalité de Djoubar","name:ja":"ジョーバル区","name:ko":"조바르구","name:nn":"Bydel Dsjobar","name:no":"Bydel Dsjobar","name:ru":"Муниципалитет Джобар"},"display_name":"بلدية جوبر, ناحية دمشق, منطقة دمشق, محافظة دمشق, سوريا","address":{"city":"بلدية جوبر","county":"ناحية دمشق","state_district":"منطقة دمشق","state":"محافظة دمشق","ISO3166-2-lvl4":"SY-DI","country":"سوريا","country_code":"sy"},"population":83245,"osm_type":"relation","osm_id":13438168,"type":"administrative","location":[36.334950040518834,33.520832],"bbox":[36.3171617,33.5033096,36.3505044,33.5383936],"inferred_type":"city"}
{"name":"بلدية دمر","other_names":{"name:ar":"بلدية دمر","name:de":"Stadtbezirk Dummar","name:en":"Dummar Municipality","name:fr":"Municipalité de Dummar","name:ja":"ドゥッマル区","name:ko":"둠마르구","name:nn":"Bydel Dummar","name:no":"Bydel Dummar","name:ru":"Муниципалитет Думмар"},"display_name":"بلدية دمر, ناحية دمشق, منطقة دمشق, محافظة دمشق, سوريا","address":{"city":"بلدية دمر","county":"ناحية دمشق","state_district":"منطقة دمشق","state":"محافظة دمشق","ISO3166-2-lvl4":"SY-DI","country":"سوريا","country_code":"sy"},"population":96961,"osm_type":"relation","osm_id":13360835,"type":"administrative","location":[36.229665799618346,33.52493685],"bbox":[36.1971499,33.4859491,36.2962491,33.564031],"inferred_type":"city"}
{"name":"بلدية دمشق القديمة","other_names":{"name:ar":"بلدية دمشق القديمة","name:de":"Stadtbezirk Altstadt von Damaskus","name:el":"Παλιά Δαμασκός","name:en":"Ancient City of Damascus Municipality","name:fa":"شهر باستانی دمشق","name:fr":"Municipalité du Vieux Damas","name:ja":"古代都市ダマスカス区","name:ko":"다마스커스 구시가구","name:nn":"Bydel Gamlebyen i Damaskus","name:no":"Bydel Gamlebyen i Damaskus","name:ru":"Муниципалитет Старый город Дамаск","alt_name:en":"Old Damascus Region"},"display_name":"بلدية دمشق القديمة, ناحية دمشق, منطقة دمشق, محافظة دمشق, سوريا","address":{"city":"بلدية دمشق القديمة","county":"ناحية دمشق","state_district":"منطقة دمشق","state":"محافظة دمشق","ISO3166-2-lvl4":"SY-DI","country":"سوريا","country_code":"sy"},"population":24721,"osm_type":"relation","osm_id":13442508,"type":"administrative","location":[36.309509390153295,33.509573],"bbox":[36.3005011,33.5044862,36.3186678,33.5145392],"inferred_type":"city"}
{"name":"بلدية ركن الدين","other_names":{"name:ar":"بلدية ركن الدين","name:de":"Stadtbezirk Rukn ad-Din","name:en":"Rukn ad-Din Municipality","name:fr":"Municipalité de Rukne ad-Dine","name:ja":"ルクン・アッ゠ディーン区","name:ko":"루군앋띤구","name:nn":"Bydel Rukn ad-Din","name:no":"Bydel Rukn ad-Din","name:ru":"Муниципалитет Рукн-ад-Дин"},"display_name":"بلدية ركن الدين, ناحية دمشق, منطقة دمشق, محافظة دمشق, سوريا","address":{"city":"بلدية ركن الدين","county":"ناحية دمشق","state_district":"منطقة دمشق","state":"محافظة دمشق","ISO3166-2-lvl4":"SY-DI","country":"سوريا","country_code":"sy"},"population":92616,"osm_type":"relation","osm_id":13288168,"type":"administrative","location":[36.29721093629032,33.5403127],"bbox":[36.286358,33.5258595,36.3089856,33.5540687],"inferred_type":"city"}
{"name":"بلدية ساروجة","other_names":{"name:ar":"بلدية ساروجة","name:de":"Stadtbezirk Sarudscha","name:en":"Sarouja Municipality","name:fr":"Municipalité de Saroudjé","name:ja":"サールージェ区","name:ko":"사루제구","name:nn":"Bydel Sarudsje","name:no":"Bydel Sarudsje","name:ru":"Муниципалитет Саруджа","alt_name":"منطقة ساروجا","alt_name:ar":"منطقة ساروجا"},"display_name":"بلدية ساروجة, ناحية دمشق, منطقة دمشق, محافظة دمشق, سوريا","address":{"city":"بلدية ساروجة","county":"ناحية دمشق","state_district":"منطقة دمشق","state":"محافظة دمشق","ISO3166-2-lvl4":"SY-DI","country":"سوريا","country_code":"sy"},"population":83814,"osm_type":"relation","osm_id":13338559,"type":"administrative","location":[36.31003566479875,33.523686850000004],"bbox":[36.2916306,33.5120071,36.3246478,33.5355553],"inferred_type":"city"}
{"name":"بلدية كفر سوسة","other_names":{"name:ar":"بلدية كفر سوسة","name:de":"Stadtbezirk Kafr Suse","name:en":"Kafr Sousa Municipality","name:fr":"Municipalité de Kafre Sousé","name:ja":"カフル・スーセ区","name:ko":"카프르수세구","name:nn":"Bydel Kafr Suse","name:no":"Bydel Kafr Suse","name:ru":"Муниципалитет Кафр Сусе"},"display_name":"بلدية كفر سوسة, ناحية دمشق, منطقة دمشق, محافظة دمشق, سوريا","address":{"city":"بلدية كفر سوسة","county":"ناحية دمشق","state_district":"منطقة دمشق","state":"محافظة دمشق","ISO3166-2-lvl4":"SY-DI","country":"سوريا","country_code":"sy"},"population":110362,"osm_type":"relation","osm_id":14041927,"type":"administrative","location":[36.26830997205481,33.48736875],"bbox":[36.2468258,33.4685207,36.2920429,33.5063119],"inferred_type":"city"}
{"name":"تدمر","other_names":{"name:af":"Palmyra","name:ar":"تدمر","name:az":"Palmira","name:ba":"Пальмира","name:be":"Пальміра","name:bg":"Палмира","name:bn":"পালমিরা","name:ca":"Palmira","name:cs":"Palmýra","name:cv":"Пальмира","name:cy":"Palmyra","name:da":"Palmyra","name:de":"Palmyra","name:el":"Παλμύρα","name:en":"Tadmur","name:eo":"Palmira","name:es":"Palmira","name:et":"Palmyra","name:eu":"Palmira","name:fa":"پالمیرا","name:fi":"Palmyra","name:fr":"Palmyre","name:ga":"Palmyra","name:gl":"Palmira","name:he":"תדמור","name:hi":"पलमीरा","name:hr":"Palmira","name:hu":"Tadmur","name:hy":"Պալմիրա","name:id":"Tadmur","name:io":"Palmyra","name:is":"Palmýra","name:it":"Palmira","name:ja":"パルミラ","name:ka":"პალმირა","name:kk":"Пальмира","name:ko":"팔미라","name:ku":"Palmîra","name:la":"Palmyra","name:lb":"Palmyra","name:lt":"Palmyra","name:lv":"Palmīra","name:mg":"Palmyra","name:ml":"പൽമീറ","name:ms":"Tadmur","name:mt":"Palmyra","name:my":"ပါးလ်မိုင်ယာမြို့","name:nb":"Palmyra","name:ne":"पलमेरा","name:nl":"Palmyra","name:nn":"Palmyra","name:oc":"Palmira","name:pa":"ਪਾਲਮੀਰਾ","name:pl":"Palmyra","name:ps":"پالمیرا","name:pt":"Palmira","name:ro":"Palmira","name:ru":"Пальмира","name:sk":"Palmýra","name:sl":"Palmira","name:sq":"Palmira","name:sr":"Палмира","name:sv":"Palmyra","name:ta":"பல்மைரா","name:th":"แพลไมรา","name:tr":"Tedmür","name:tt":"Palmira","name:tw":"Palmyra","name:uk":"Пальміра","name:uz":"Palmira","name:vi":"Palmyra","name:zh":"帕尔米拉","int_name":"Palmira, Palmyre, Tadmor, Tadmur, Tamar, Tedmor, Palmyra","alt_name:de":"Tedmur","alt_name:en":"Tadmur","alt_name:fr":"Tadmor","alt_name:he":"פלמירה","alt_name:hu":"Palmüra","alt_name:ja":"タドモル","alt_name:ko":"타드무르","alt_name:ml":"തദ്മുർ","alt_name:ru":"Тадмор"},"display_name":"تدمر, ناحية مركز تدمر, منطقة تدمر, محافظة حمص, سوريا","address":{"city":"تدمر","subdistrict":"ناحية مركز تدمر","district":"منطقة تدمر","state":"محافظة حمص","ISO3166-2-lvl4":"SY-HI","country":"سوريا","country_code":"sy"},"population":51323,"osm_type":"node","osm_id":573543011,"type":"city","location":[38.2809746,34.5560155],"bbox":[38.1209746,34.3960155,38.4409746,34.7160155]}
{"name":"جبلة","other_names":{"name:ar":"جبلة","name:de":"Dschabla","name:el":"Τζαμπλέ","name:en":"Jable","name:es":"Jableh","name:fa":"جبله","name:fr":"Djablé","name:he":"ג׳בלה","name:hr":"Džabla","name:hy":"Ջաբլե","name:ja":"ジャブレ","name:ko":"자불l에","name:ku":"Ceblê","name:lt":"Džebla","name:ml":"ജബ്ലെ","name:pl":"Dżabla","name:ru":"Джабла","name:sr":"Џабла","name:tr":"Ceble","name:uk":"Джебла","name:ar1":"جبلة"},"display_name":"جبلة, ناحية مركز جبلة, منطقة جبلة, محافظة اللاذقية, سوريا","address":{"city":"جبلة","subdistrict":"ناحية مركز جبلة","district":"منطقة جبلة","state":"محافظة اللاذقية","ISO3166-2-lvl4":"SY-LA","country":"سوريا","country_code":"sy"},"population":53989,"osm_type":"node","osm_id":572553745,"type":"city","location":[35.9235467,35.3611006],"bbox":[35.7635467,35.2011006,36.0835467,35.5211006]}
{"name":"جرمانا","other_names":{"name:ar":"جرمانا","name:de":"Dscharamana","name:el":"Τζερμάνα","name:en":"Jaramana","name:fr":"Djaramana","name:he":"ג׳רמאנא","name:ja":"ジャラマーナー","name:ko":"자라마나","name:ml":"ജറമാന","name:ru":"Джарамана"},"display_name":"جرمانا, ناحية جرمانا, منطقة مركز ريف دمشق, محافظة ريف دمشق, سوريا","address":{"city":"جرمانا","subdistrict":"ناحية جرمانا","district":"منطقة مركز ريف دمشق","state":"محافظة ريف دمشق","ISO3166-2-lvl4":"SY-RD","country":"سوريا","country_code":"sy"},"population":114363,"osm_type":"node","osm_id":573517691,"type":"city","location":[36.3482783,33.4863893],"bbox":[36.1882783,33.3263893,36.5082783,33.6463893]}
{"name":"حرستا","other_names":{"name:ar":"حرستا","name:de":"Harasta","name:en":"Harasta","name:fr":"Harasta","name:he":"חרסתא","name:ja":"ハラスター","name:ko":"하라스타","name:ml":"ഹിറിസ്ത","name:ru":"Хараста"},"display_name":"حرستا, ناحية حرستا, منطقة دوما, محافظة ريف دمشق, سوريا","address":{"city":"حرستا","subdistrict":"ناحية حرستا","district":"منطقة دوما","state":"محافظة ريف دمشق","ISO3166-2-lvl4":"SY-RD","country":"سوريا","country_code":"sy"},"population":68708,"osm_type":"node","osm_id":573518113,"type":"city","location":[36.3668183,33.557736],"bbox":[36.2068183,33.397736,36.5268183,33.717736]}
{"name":"حلب","other_names":{"name:af":"Aleppo","name:am":"ሐለብ","name:ar":"حلب","name:av":"ХӀалаб","name:az":"Hələb","name:ba":"Хәләб","name:be":"Халеб","name:bg":"Халеб","name:bn":"আলেপ্পো","name:br":"Aleppo","name:bs":"Halep","name:ca":"Alep","name:ce":"Хьалаб","name:cs":"Aleppo","name:cv":"Алеппо","name:cy":"Aleppo","name:da":"Aleppo","name:de":"Aleppo","name:el":"Χαλέπι","name:en":"Aleppo","name:eo":"Halepo","name:es":"Alepo","name:et":"Aleppo","name:eu":"Alepo","name:fa":"حلب","name:fi":"Aleppo","name:fr":"Alep","name:fy":"Aleppo","name:ga":"Aleppo","name:gl":"Alepo","name:gn":"Alepo","name:ha":"Aleppo","name:he":"חלב","name:hi":"हलब","name:hr":"Alep","name:hu":"Aleppó","name:hy":"Հալեպ","name:ia":"Aleppo","name:id":"Aleppo","name:ie":"Aleppo","name:io":"Aleppo","name:is":"Aleppó","name:it":"Aleppo","name:ja":"アレッポ","name:jv":"Aleppo","name:ka":"ალეპო","name:kk":"Алеппо","name:kn":"ಹಲಬ","name:ko":"알레포","name:ku":"Heleb","name:ky":"Халеб","name:la":"Halapia","name:li":"Aleppo","name:lt":"Alepas","name:lv":"Haleba","name:mg":"Aleppo","name:ml":"ഹലബ്","name:mn":"Алеппо","name:mr":"हलब","name:ms":"Aleppo","name:mt":"Aleppo","name:my":"အယ်လက်ပိုမြို့","name:nb":"Aleppo","name:nl":"Aleppo","name:nn":"Aleppo","name:nv":"Hókʼą́ą́ʼ Bineʼadziihii","name:oc":"Alèp","name:os":"Алеппо","name:pa":"ਹਲਬ","name:pl":"Aleppo","name:pt":"Alepo","name:qu":"Halap","name:ro":"Alep","name:ru":"Алеппо","name:rw":"Alepo","name:sd":"حلب شهر","name:sk":"Halab","name:sl":"Alep","name:so":"Xalab","name:sq":"Halepi","name:sr":"Алеп","name:sv":"Aleppo","name:sw":"Aleppo","name:ta":"அலெப்போ","name:te":"అలెప్పో","name:tg":"Ҳалаб","name:th":"อะเลปโป","name:tk":"Halap","name:tl":"Aleppo","name:tr":"Halep","name:tt":"Хәлеб","name:ug":"ھەلەب","name:uk":"Халеб","name:ur":"حلب","name:uz":"Halab","name:vi":"Aleppo","name:yi":"ארם צובא","name:zh":"阿勒颇","alt_name":"الشهباء","name:arc":"ܚܠܒ","name:ckb":"حەلەب","name:cnr":"Alep","name:grc":"Χαλιβών","name:syc":"ܚܠܒ","alt_name:ar":"الشهباء","alt_name:de":"Halab","alt_name:en":"Halab","alt_name:fr":"Halab","alt_name:he":"חאלב","alt_name:ja":"ハラブ","alt_name:ko":"할랍","alt_name:ml":"അലെപ്പോ","alt_name:ru":"Халаб","alt_name:grc":"Βέροια"},"display_name":"حلب, ناحية مركز جبل سمعان, منطقة جبل سمعان, محافظة حلب, سوريا","address":{"city":"حلب","subdistrict":"ناحية مركز جبل سمعان","district":"منطقة جبل سمعان","state":"محافظة حلب","ISO3166-2-lvl4":"SY-HL","country":"سوريا","country_code":"sy"},"population":2132100,"osm_type":"node","osm_id":32520143,"type":"city","location":[37.1637253,36.19924],"bbox":[37.0037253,36.03924,37.3237253,36.35924]}
{"name":"حماة","other_names":{"name:am":"ሐማት","name:ar":"حماة","name:az":"Həma","name:be":"Хама","name:bg":"Хама","name:bn":"হামা","name:br":"Hama","name:ca":"Hama","name:cs":"Hamá","name:cy":"Hama","name:da":"Hama","name:de":"Hama","name:el":"Χάμα","name:en":"Hama","name:eo":"Hamao","name:es":"Hama","name:et":"Ḩamāh","name:eu":"Hama","name:fa":"حمات","name:fi":"Hama","name:fr":"Hama","name:he":"חמה","name:hi":"हमा","name:hr":"Hama","name:hu":"Hamá","name:hy":"Համա","name:id":"Hamat","name:ie":"Hama","name:is":"Hama","name:it":"Hama","name:ja":"ハマー","name:ka":"ჰამა","name:ko":"하마","name:ku":"Hema","name:la":"Epiphania","name:lt":"Hama","name:lv":"Hama","name:mg":"Hama","name:ml":"ഹമാ","name:ms":"Hama","name:nb":"Hama","name:nl":"Hama","name:nn":"Hama","name:no":"Hama","name:pl":"Hama","name:ps":"حما","name:pt":"Hama","name:ro":"Hama","name:ru":"Хама","name:rw":"Hama","name:sk":"Hamá","name:sl":"Hama","name:so":"Xamaa","name:sq":"Hama","name:sr":"Хама","name:sv":"Hamah","name:ta":"காமா","name:tg":"Ҳамо","name:th":"ฮะมาฮ์","name:tl":"Hama","name:tr":"Hama","name:ug":"ھەما","name:uk":"Хама","name:ur":"حماہ","name:uz":"Hamo","name:vi":"Hama","name:zh":"哈馬","name:arc":"ܚܡܬ","name:azb":"حماه","name:ckb":"حەما","name:cnr":"Hama","name:he1":"חמת","name:he2":"חמאה","name:he3":"חמאת","name:mzn":"حماه"},"display_name":"حماة, ناحية مركز حماة, منطقة حماة, محافظة حماة, سوريا","address":{"city":"حماة","subdistrict":"ناحية مركز حماة","district":"منطقة حماة","state":"محافظة حماة","ISO3166-2-lvl4":"SY-HM","country":"سوريا","country_code":"sy"},"population":312994,"osm_type":"node","osm_id":572557865,"type":"city","location":[36.7496276,35.1343368],"bbox":[36.5896276,34.9743368,36.9096276,35.2943368],"border":{"name":"حماة","other_names":{"name:am":"ሐማት","name:ar":"حماة","name:cs":"Hamá","name:de":"Hama","name:el":"Χάμα","name:en":"Hama","name:es":"Hama","name:et":"Ḩamāh","name:eu":"Hama","name:fa":"حمات","name:fr":"Hama","name:he":"חמאה","name:hr":"Hama","name:hu":"Hamá","name:it":"Hama","name:ja":"ハマー","name:ko":"하마","name:ku":"Hema","name:la":"Epiphania","name:lt":"Hama","name:ml":"ഹമാ","name:nl":"Hama","name:no":"Hama","name:pl":"Hama","name:pt":"Hama","name:ru":"Хама","name:sv":"Hamah","name:tr":"Hama","name:uk":"Хама","name:ur":"حماہ","name:zh":"哈馬","name:arc":"ܚܡܬ","name:azb":"حماه","name:ckb":"حەما","name:mzn":"حماه","name:az":"Həma","name:be":"Хама","name:bg":"Хама","name:bn":"হামা","name:br":"Hama","name:ca":"Hama","name:cy":"Hama","name:da":"Hama","name:eo":"Hamao","name:fi":"Hama","name:hi":"हमा","name:hy":"Համա","name:id":"Hamat","name:ie":"Hama","name:is":"Hama","name:ka":"ჰამა","name:lv":"Hama","name:mg":"Hama","name:ms":"Hama","name:nb":"Hama","name:nn":"Hama","name:ps":"حما","name:ro":"Hama","name:rw":"Hama","name:sk":"Hamá","name:sl":"Hama","name:so":"Xamaa","name:sq":"Hama","name:sr":"Хама","name:ta":"காமா","name:tg":"Ҳамо","name:th":"ฮะมาฮ์","name:tl":"Hama","name:ug":"ھەما","name:uz":"Hamo","name:vi":"Hama","name:cnr":"Hama","name:he1":"חמת","name:he2":"חמאה","name:he3":"חמאת","alt:he":"חמה"},"display_name":"حماة, ناحية مركز حماة, منطقة حماة, محافظة حماة, سوريا","address":{"city":"حماة","subdistrict":"ناحية مركز حماة","district":"منطقة حماة","state":"محافظة حماة","ISO3166-2-lvl4":"SY-HM","country":"سوريا","country_code":"sy"},"population":312994,"osm_type":"relation","osm_id":18354844,"type":"city","location":[36.7496276,35.1343368],"bbox":[36.6887966,35.0982339,36.8164671,35.1851798]}}
{"name":"حمص","other_names":{"name:af":"Homs","name:ar":"حمص","name:av":"ХӀумс","name:az":"Hüms","name:be":"Хомс","name:bg":"Хомс","name:bn":"হিমস","name:br":"Homs","name:bs":"Homs","name:ca":"Homs","name:ce":"Хьимс","name:cs":"Homs","name:cv":"Хомс","name:cy":"Homs","name:da":"Homs","name:de":"Homs","name:el":"Χομς","name:en":"Homs","name:eo":"Homs","name:es":"Homs","name:et":"Homs","name:eu":"Homs","name:fa":"حمص","name:fi":"Homs","name:fr":"Homs","name:ga":"Homs","name:he":"חומס","name:hi":"हौम्स","name:hr":"Homs","name:hu":"Homsz","name:hy":"Հոմս","name:id":"Homs","name:ie":"Homs","name:io":"Homs","name:is":"Homs","name:it":"Homs","name:ja":"ホムス","name:jv":"Homs","name:ka":"ჰომსი","name:kk":"Хомс","name:ko":"호므스","name:ku":"Hims","name:la":"Emesa","name:lb":"Homs","name:li":"Homs","name:lt":"Homsas","name:lv":"Himsa","name:mg":"Homs","name:ml":"ഹൊംസ്","name:mn":"Хомс","name:ms":"Homs","name:nb":"Homs","name:nl":"Homs","name:nn":"Homs","name:os":"Хомс","name:pa":"ਹੋਮਸ","name:pl":"Hims","name:pt":"Homs","name:ro":"Homs","name:ru":"Хомс","name:sk":"Homs","name:sl":"Homs","name:so":"Ximsa","name:sq":"Homsi","name:sr":"Хомс","name:sv":"Homs","name:sw":"Homs","name:ta":"உம்சு","name:te":"హమ్స్","name:tg":"Ҳимс","name:th":"ฮอมส์","name:tl":"Homs","name:tr":"Humus","name:ug":"ھىمس","name:uk":"Хомс","name:ur":"حمص","name:uz":"Hims","name:vi":"Homs","name:zh":"霍姆斯","name:arc":"ܚܡܨ","name:azb":"حمص","name:ckb":"حومس","name:cnr":"Homs","name:grc":"Ἔμεσα","name:syc":"ܚܡܨ","old_name":"Emesa","old_name:el":"Έμεσα","old_name:fr":"Émèse","old_name:la":"Emesa"},"display_name":"حمص, ناحية مركز حمص, منطقة حمص, محافظة حمص, سوريا","address":{"city":"حمص","subdistrict":"ناحية مركز حمص","district":"منطقة حمص","state":"محافظة حمص","ISO3166-2-lvl4":"SY-HI","country":"سوريا","country_code":"sy"},"population":652609,"osm_type":"node","osm_id":572549095,"type":"city","location":[36.7166667,34.7333334],"bbox":[36.5566667,34.5733334,36.8766667,34.8933334],"border":{"name":"حمص","other_names":{"name:ar":"حمص","name:cs":"Homs","name:da":"Homs","name:de":"Homs","name:el":"Χομς","name:en":"Homs","name:es":"Homs","name:et":"Homs","name:eu":"Homs","name:fr":"Homs","name:he":"חומס","name:hi":"हौम्स","name:hr":"Homs","name:hu":"Homsz","name:ja":"ホムス","name:ko":"호므스","name:ku":"Hims","name:lt":"Homsas","name:ml":"ഹൊംസ്","name:pa":"ਹੋਮਸ","name:ru":"Хомс","name:sk":"Homs","name:sv":"Homs","name:te":"హమ్స్","name:tr":"Humus","name:uk":"Хомс","name:ur":"حمص","name:zh":"霍姆斯","name:arc":"ܚܡܨ","name:azb":"حمص","name:ckb":"حومس","name:grc":"Ἔμεσα","name:syc":"ܚܡܨ","old_name":"Emesa","old_name:el":"Έμεσα","old_name:fr":"Émèse","old_name:la":"Emesa","name:af":"Homs","name:av":"ХӀумс","name:az":"Hüms","name:be":"Хомс","name:bg":"Хомс","name:bn":"হিমস","name:br":"Homs","name:bs":"Homs","name:ca":"Homs","name:ce":"Хьимс","name:cv":"Хомс","name:cy":"Homs","name:eo":"Homs","name:fa":"حمص","name:fi":"Homs","name:ga":"Homs","name:hy":"Հոմս","name:id":"Homs","name:ie":"Homs","name:io":"Homs","name:is":"Homs","name:it":"Homs","name:jv":"Homs","name:ka":"ჰომსი","name:kk":"Хомс","name:la":"Emesa","name:lb":"Homs","name:li":"Homs","name:lv":"Himsa","name:mg":"Homs","name:mn":"Хомс","name:ms":"Homs","name:nb":"Homs","name:nl":"Homs","name:nn":"Homs","name:os":"Хомс","name:pl":"Hims","name:pt":"Homs","name:ro":"Homs","name:sl":"Homs","name:so":"Ximsa","name:sq":"Homsi","name:sr":"Хомс","name:sw":"Homs","name:ta":"உம்சு","name:tg":"Ҳимс","name:th":"ฮอมส์","name:tl":"Homs","name:ug":"ھىمس","name:uz":"Hims","name:vi":"Homs","name:cnr":"Homs"},"display_name":"حمص, ناحية مركز حمص, منطقة حمص, محافظة حمص, سوريا","address":{"city":"حمص","subdistrict":"ناحية مركز حمص","district":"منطقة حمص","state":"محافظة حمص","ISO3166-2-lvl4":"SY-HI","country":"سوريا","country_code":"sy"},"population":652609,"osm_type":"relation","osm_id":18373200,"type":"city","location":[36.7166667,34.7333334],"bbox":[36.6478504,34.6583304,36.7757381,34.7932486]}}
{"name":"داريا","other_names":{"name:ar":"داريا","name:de":"Dareija","name:en":"Darayya","name:fr":"Daraïa","name:he":"דארייא","name:ja":"ダライヤ","name:ko":"다라이야","name:lt":"Daraja","name:ml":"ദാറയ്യ","name:ru":"Дарайя"},"display_name":"داريا, ناحية مركز داريا, منطقة داريا, محافظة ريف دمشق, سوريا","address":{"city":"داريا","subdistrict":"ناحية مركز داريا","district":"منطقة داريا","state":"محافظة ريف دمشق","ISO3166-2-lvl4":"SY-RD","country":"سوريا","country_code":"sy"},"population":78763,"osm_type":"node","osm_id":567045909,"type":"city","location":[36.2388458,33.4587911],"bbox":[36.0788458,33.2987911,36.3988458,33.6187911]}
{"name":"درعا","other_names":{"name:ar":"درعا","name:az":"Dəra","name:cs":"Dar'á","name:de":"Daraa","name:el":"Νταράα","name:en":"Dar'a","name:es":"Daraa","name:et":"Darʿā","name:fa":"درعا","name:fr":"Deraa","name:he":"דרעא","name:hr":"Dara","name:hu":"Dara","name:hy":"Դառաա","name:ja":"ダルアー","name:ko":"다라아","name:ku":"Der’a","name:lt":"Dara","name:ml":"ദറാ","name:nl":"Daraa","name:pl":"Dara","name:ru":"Даръа","name:sr":"Дара","name:tr":"Dera","name:uk":"Дара","name:zh":"德拉","name:arc":"ܕܪܥܐ","name:ckb":"دەرعا","name:grc":"Ἀδράα"},"display_name":"درعا, ناحية مركز درعا, منطقة درعا, محافظة درعا, سوريا","address":{"city":"درعا","subdistrict":"ناحية مركز درعا","district":"منطقة درعا","state":"محافظة درعا","ISO3166-2-lvl4":"SY-DR","country":"سوريا","country_code":"sy"},"population":97969,"osm_type":"node","osm_id":573516235,"type":"city","location":[36.1067639,32.6227776],"bbox":[35.9467639,32.4627776,36.2667639,32.7827776]}
{"name":"دمشق","other_names":{"name:af":"Damaskus","name:am":"ደማስቆ","name:an":"Domás","name:ar":"دمشق","name:as":"ডামাস্কাছ","name:av":"Димишкъ","name:az":"Dəməşq","name:ba":"Дамаск","name:be":"Дамаск","name:bg":"Дамаск","name:bn":"দামেস্ক","name:bo":"དྷ་མ་སི་ཁོ་སི།","name:br":"Damask","name:bs":"Damask","name:ca":"Damasc","name:ce":"Димашкъ","name:cs":"Damašek","name:cu":"Дамаскъ","name:cv":"Дамаск","name:cy":"Damascus","name:da":"Damaskus","name:de":"Damaskus","name:dv":"ދިމިޝްޤު","name:el":"Δαμασκός","name:en":"Damascus","name:eo":"Damasko","name:es":"Damasco","name:et":"Damaskus","name:eu":"Damasko","name:fa":"دمشق","name:fi":"Damaskos","name:fr":"Damas","name:fy":"Damaskus","name:ga":"An Damaisc","name:gd":"Damascas","name:gl":"Damasco","name:gn":"Ndamáko","name:ha":"Damascus","name:he":"דמשק","name:hi":"दमिश्क","name:hr":"Damask","name:ht":"Damas","name:hu":"Damaszkusz","name:hy":"Դամասկոս","name:ia":"Damasco","name:id":"Damaskus","name:ie":"Damascus","name:io":"Damascus","name:is":"Damaskus","name:it":"Damasco","name:ja":"ダマスカス","name:jv":"Damaskus","name:ka":"დამასკი","name:ki":"Damascus","name:kk":"Дамаск","name:kl":"Damascus","name:kn":"ದಮಿಶ್ಕ್","name:ko":"다마스쿠스","name:ku":"Şam","name:kw":"Damask","name:ky":"Дамаск","name:la":"Damascus","name:lb":"Damaskus","name:li":"Damascus","name:ln":"Damas","name:lt":"Damaskas","name:lv":"Damaska","name:mg":"Damaskosy","name:mi":"Ramaiku","name:mk":"Дамаск","name:ml":"ദമാസ്കസ്","name:mn":"Дамаск","name:mr":"दमास्कस","name:ms":"Damsyik","name:mt":"Damasku","name:my":"ဒမားစကပ်မြို့","name:nb":"Damaskus","name:ne":"दमास्कस","name:nl":"Damascus","name:nn":"Damaskus","name:no":"Damaskus","name:nv":"Tóniyęęshí","name:ny":"Damascus","name:oc":"Damasc","name:or":"ଡାମାସକସ","name:os":"Дамаск","name:pa":"ਦਮਸ਼ਕ","name:pl":"Damaszek","name:ps":"دمشق","name:pt":"Damasco","name:qu":"Dimashq","name:ro":"Damasc","name:ru":"Дамаск","name:rw":"Damasiko","name:sc":"Damasco","name:sh":"Damask","name:si":"දමස්කස්","name:sk":"Damask","name:sl":"Damask","name:sn":"Damascus","name:so":"Dimishiq","name:sq":"Damasku","name:sr":"Дамаск","name:su":"Damaskus","name:sv":"Damaskus","name:sw":"Dameski","name:ta":"திமிஷ்கு","name:te":"డమాస్కస్","name:tg":"Димишқ","name:th":"ดามัสกัส","name:tk":"Damask","name:tl":"Damascus","name:tr":"Şam","name:tt":"Димәшкъ","name:tw":"Damaskɔs","name:ug":"دەمەشىق","name:uk":"Дамаск","name:ur":"دمشق","name:uz":"Damashq","name:vi":"Damas","name:vo":"Dimäjk","name:yi":"דמשק","name:yo":"Dàmáskù","name:zh":"大马士革 / 大馬士革","alt_name":"الشام","name:arc":"ܕܪܡܣܘܩ","name:arz":"دمشق","name:bjn":"Damsyik","name:ckb":"دیمەشق","name:cnr":"Damask","name:ext":"Damascu","name:frp":"Damas","name:grc":"Δαμασκός","name:haw":"Kamakeko","name:hif":"Damascus","name:hsb":"Damask","name:ilo":"Damascus","name:kab":"Dimecq","name:lad":"Damask","name:lij":"Damasco","name:lmo":"Damasch","name:mhr":"Дамаск","name:nan":"Damascus","name:pms":"Damasch","name:pnb":"دمشق","name:pnt":"Δαμασκός","name:rue":"Дамаск","name:sah":"Дамаскус","name:scn":"Damascu","name:sco":"Damascus","name:syc":"ܕܪܡܣܘܩ","name:war":"Damascus","name:yue":"大馬士革","alt_name:ar":"الشام","alt_name:de":"Dimaschk","alt_name:en":"Dimashq","alt_name:fr":"Dimach","alt_name:gd":"Damascus","alt_name:ja":"ディマシュク","alt_name:ko":"디마슈쿠","alt_name:ku":"Dimeşq;Demişq","alt_name:ml":"അഷ്-ഷാം","alt_name:ru":"Димашк","alt_name:tr":"Dımaşk","alt_name:vi":"Đa-mát","name:simple":"Damascus","name:bat-smg":"Damaskos","name:zh-Hans":"大马士革","name:zh-Hant":"大馬士革","name:roa-tara":"Damasche","name:be-tarask":"Дамаск"},"display_name":"دمشق, بلدية دمشق القديمة, ناحية دمشق, منطقة دمشق, محافظة دمشق, سوريا","address":{"city":"دمشق","county":"ناحية دمشق","state_district":"منطقة دمشق","state":"محافظة دمشق","ISO3166-2-lvl4":"SY-DI","country":"سوريا","country_code":"sy"},"population":1414913,"osm_type":"node","osm_id":1091272140,"type":"city","location":[36.3095814,33.5130695],"bbox":[36.1495814,33.3530695,36.4695814,33.6730695],"border":{"name":"ناحية دمشق","other_names":{"name:ar":"ناحية دمشق","name:de":"Unterdistrikt Damaskus","name:en":"Damascus Subdistrict","name:fr":"Sous-district de Damas","name:he":"גוש דמשק","name:nn":"Damaskus-underdistriktet","name:no":"Damaskus-underdistriktet","name:ru":"Дамаск нахия","name:sk":"Damask"},"display_name":"ناحية دمشق, منطقة دمشق, محافظة دمشق, سوريا","address":{"county":"ناحية دمشق","state_district":"منطقة دمشق","state":"محافظة دمشق","ISO3166-2-lvl4":"SY-DI","country":"سوريا","country_code":"sy"},"osm_type":"relation","osm_id":15897746,"type":"administrative","location":[36.273751791334604,33.515523849999994],"bbox":[36.1971499,33.4586056,36.3559257,33.5718338]}}
{"name":"دوما","other_names":{"name:ar":"دوما","name:cs":"Dúmá","name:de":"Duma","name:el":"Ντούμα","name:en":"Duma","name:es":"Duma","name:fa":"دوما","name:fr":"Douma","name:he":"דומא","name:hy":"Դումա","name:ja":"ドゥーマー","name:ko":"두마","name:ks":"دوما","name:la":"Dūmā","name:lt":"Dūma","name:ml":"ദൂമ","name:pt":"Dūmā","name:ru":"Дума","name:uk":"Дума","name:ur":"دوما","name:zh":"杜馬","name:azb":"دوما"},"display_name":"دوما, ناحية مركز دوما, منطقة دوما, محافظة ريف دمشق, سوريا","address":{"city":"دوما","subdistrict":"ناحية مركز دوما","district":"منطقة دوما","state":"محافظة ريف دمشق","ISO3166-2-lvl4":"SY-RD","country":"سوريا","country_code":"sy"},"population":110893,"osm_type":"node","osm_id":567044303,"type":"city","location":[36.4012933,33.5696629],"bbox":[36.2412933,33.4096629,36.5612933,33.7296629]}
{"name":"دير الزور","other_names":{"name:ar":"دير الزور","name:az":"Deyr əz-Zor","name:cs":"Dajr az-Zaur","name:de":"Deir-es-Sor","name:el":"Ντέιρ αλ-Ζορ","name:en":"Deir ez-Zor","name:es":"Deir ez-Zor","name:et":"Dayr az-Zawr","name:eu":"Deir ez-Zor","name:fa":"دیرالزور","name:fr":"Deïr ez-Zôr","name:he":"דיר א-זור","name:hi":"दीर एज़ ज़ोर","name:hr":"Deir ez-Zor","name:hu":"Dajr ez-Zaur","name:hy":"Դեր Զոր","name:ja":"デリゾール","name:ko":"데이르아쪼르","name:ku":"Dêrazor","name:lt":"Deir ez Zoras","name:ml":"ദെയ്ർ എസ്സോർ","name:ru":"Дейр-эз-Зор","name:sr":"Дајр ез Заур","name:tr":"Deyrizor","name:tt":"Дәйр-әз-Зәүр","name:uk":"Дайр-ез-Заур","name:zh":"代尔祖尔","name:ckb":"دێرەزوور","name:cnr":"Dajr ez Zaur","alt_name:de":"Deir Ezzor","alt_name:fr":"Deir-Ezzor","alt_name:uk":"Дейр-ез-Зор","name:zh-Hans":"代尔祖尔","name:zh-Hant":"代爾祖爾"},"display_name":"دير الزور, ناحية مركز دير الزور, منطقة دير الزور, محافظة دير الزور, سوريا","address":{"city":"دير الزور","subdistrict":"ناحية مركز دير الزور","district":"منطقة دير الزور","state":"محافظة دير الزور","ISO3166-2-lvl4":"SY-DY","country":"سوريا","country_code":"sy"},"population":211857,"osm_type":"node","osm_id":573457897,"type":"city","location":[40.1499999,35.3333335],"bbox":[39.9899999,35.1733335,40.3099999,35.4933335],"border":{"name":"دير الزور","other_names":{"name:ar":"دير الزور","name:cs":"Dajr az-Zaur","name:de":"Deir-es-Sor","name:en":"Deir ez-Zor","name:es":"Deir ez-Zor","name:et":"Dayr az-Zawr","name:eu":"Deir ez-Zor","name:fr":"Deïr ez-Zôr","name:he":"דיר א-זור","name:hi":"दीर एज़ ज़ोर","name:hu":"Dajr ez-Zaur","name:hy":"Դեր Զոր","name:ja":"デリゾール","name:ko":"데이르아쪼르","name:ku":"Dêrazor","name:lt":"Deir ez Zoras","name:ml":"ദെയ്ർ എസ്സോർ","name:ru":"Дейр-эз-Зор","name:tr":"Deyrizor","name:tt":"Дәйр-әз-Зәүр","name:uk":"Дайр-ез-Заур","name:zh":"代尔祖尔","name:ckb":"دێرەزوور","name:cnr":"Dajr ez Zaur","alt_name:de":"Deir Ezzor","alt_name:fr":"Deir-Ezzor","alt_name:uk":"Дейр-ез-Зор","name:zh-Hans":"代尔祖尔","name:zh-Hant":"代爾祖爾","name:az":"Deyr əz-Zor","name:el":"Ντέιρ αλ-Ζορ","name:fa":"دیرالزور","name:hr":"Deir ez-Zor","name:sr":"Дајр ез Заур"},"display_name":"دير الزور, ناحية مركز دير الزور, منطقة دير الزور, محافظة دير الزور, سوريا","address":{"city":"دير الزور","subdistrict":"ناحية مركز دير الزور","district":"منطقة دير الزور","state":"محافظة دير الزور","ISO3166-2-lvl4":"SY-DY","country":"سوريا","country_code":"sy"},"population":211857,"osm_type":"relation","osm_id":18373249,"type":"city","location":[40.1499999,35.3333335],"bbox":[40.0776879,35.3013985,40.1950238,35.3631989]}}
{"name":"رحية الصغيرة","other_names":{"name:ar":"رحية الصغيرة","name:fr":"Rhayé","name:uk":"Рахія"},"display_name":"رحية الصغيرة, ناحية مركز القامشلي, منطقة القامشلي, محافظة الحسكة, سوريا","address":{"city":"رحية الصغيرة","subdistrict":"ناحية مركز القامشلي","district":"منطقة القامشلي","state":"محافظة الحسكة","ISO3166-2-lvl4":"SY-HA","country":"سوريا","country_code":"sy"},"osm_type":"way","osm_id":133434819,"type":"city","location":[41.35997354561589,36.93621945],"bbox":[41.3571104,36.9345275,41.3624415,36.9378874]}
{"name":"صرين","display_name":"صرين, ناحية صرين, منطقة عين العرب, محافظة حلب, سوريا","address":{"city":"صرين","subdistrict":"ناحية صرين","state_district":"منطقة عين العرب","state":"محافظة حلب","ISO3166-2-lvl4":"SY-HL","country":"سوريا","country_code":"sy"},"osm_type":"way","osm_id":379397294,"type":"city","location":[38.30512564109584,36.572896799999995],"bbox":[38.3037805,36.5715841,38.3068704,36.5734778]}
{"name":"صرين","display_name":"صرين, ناحية صرين, منطقة عين العرب, محافظة حلب, سوريا","address":{"city":"صرين","subdistrict":"ناحية صرين","state_district":"منطقة عين العرب","state":"محافظة حلب","ISO3166-2-lvl4":"SY-HL","country":"سوريا","country_code":"sy"},"osm_type":"way","osm_id":370412243,"type":"city","location":[38.30051739493787,36.57215085],"bbox":[38.2982445,36.5705999,38.3032247,36.5734433]}
{"name":"طرطوس","other_names":{"name:ar":"طرطوس","name:az":"Tərtus","name:ba":"Тартус","name:be":"Тартус","name:bg":"Тартус","name:ca":"Tartús","name:cs":"Tartús","name:da":"Tartus","name:de":"Tartus","name:el":"Ταρτούς","name:en":"Tartus","name:eo":"Tartus","name:es":"Tartús","name:et":"Ţarţūs","name:eu":"Tartus","name:fa":"طرطوس","name:fi":"Tartus","name:fr":"Tartous","name:he":"טרטוס","name:hi":"टर्तुस","name:hr":"Tartus","name:hu":"Tartúsz","name:hy":"Տարտուս","name:id":"Tartus","name:is":"Tartus","name:it":"Tartus","name:ja":"タルトゥース","name:ka":"ტარტუსი","name:kk":"Тартус","name:ko":"타르투스","name:ks":"طرطوس","name:ku":"Tartûs","name:la":"Antaradus;Tortosa","name:lt":"Tartusas","name:lv":"Tartūsa","name:ml":"തർത്തൂസ്","name:ms":"Tartus","name:nb":"Tartus","name:nl":"Tartous","name:nn":"Tartus","name:os":"Тартус","name:pl":"Tartus","name:pt":"Tartus","name:ro":"Tartus","name:ru":"Тартус","name:sq":"Tartus","name:sr":"Тартус","name:sv":"Tartus","name:tg":"Тартус","name:tr":"Tartus","name:ug":"تەرتۇس","name:uk":"Тартус","name:ur":"طرطوس","name:uz":"Tartus","name:zh":"塔尔图斯","name:ckb":"تەرتووس","name:mzn":"طرطوس","alt_name:ml":"ആൻ്റി-അറാഡോസ്"},"display_name":"طرطوس, ناحية مركز طرطوس, منطقة طرطوس, محافظة طرطوس, سوريا","address":{"city":"طرطوس","subdistrict":"ناحية مركز طرطوس","district":"منطقة طرطوس","state":"محافظة طرطوس","ISO3166-2-lvl4":"SY-TA","country":"سوريا","country_code":"sy"},"population":115769,"osm_type":"node","osm_id":192296363,"type":"city","location":[35.885167,34.8936225],"bbox":[35.725167,34.7336225,36.045167,35.0536225]}
{"name":"معرة النعمان","other_names":{"name:ar":"معرة النعمان","name:cs":"Ma'arat an-Numán","name:de":"Maarrat an-Numan","name:en":"Ma'arrat an-Nu'man","name:es":"Maarat an-Numan","name:fa":"معره نعمان","name:fr":"Maarrat an-Numane","name:he":"מערת א-נועמאן","name:hu":"Maarrat an-Numán","name:ja":"マアッラト・アン゠ヌウマーン","name:ko":"마아라트아누우만","name:lt":"Maarat an Numanas","name:ml":"മാറത്ത് അന്നുമാൻ","name:ru":"Мааррат-ан-Нуман","name:tr":"Maarretünnu'mân","name:uk":"Мааррет-ен-Нууман","name:zh":"邁阿賴努阿曼","old_name":"Arra, La Marre"},"display_name":"معرة النعمان, ناحية مركز معرة النعمان, منطقة معرة النعمان, محافظة إدلب, سوريا","address":{"city":"معرة النعمان","subdistrict":"ناحية مركز معرة النعمان","district":"منطقة معرة النعمان","state":"محافظة إدلب","ISO3166-2-lvl4":"SY-ID","country":"سوريا","country_code":"sy"},"population":58008,"osm_type":"node","osm_id":191842691,"type":"city","location":[36.6777062,35.6470788],"bbox":[36.5177062,35.4870788,36.8377062,35.8070788]}
{"name":"معضمية الشام","other_names":{"name:ar":"معضمية الشام","name:de":"Muadammijat asch-Scham","name:en":"Mu'adammiyat ash-Sham","name:fr":"Muadammiyat ach-Cham","name:he":"מעדמיה א-שאם","name:ja":"ムアッダッミーヤトゥ・アッ゠シャーム","name:ko":"무아따미야트아샤므","name:ml":"മുഅദ്ദമിയ്യത്ത് അഷ്-ഷെയ്ഖ്","name:ru":"Муадамми́йят-аш-Шам"},"display_name":"معضمية الشام, ناحية مركز داريا, منطقة داريا, محافظة ريف دمشق, سوريا","address":{"city":"معضمية الشام","subdistrict":"ناحية مركز داريا","district":"منطقة داريا","state":"محافظة ريف دمشق","ISO3166-2-lvl4":"SY-RD","country":"سوريا","country_code":"sy"},"population":52738,"osm_type":"node","osm_id":567045908,"type":"city","location":[36.1983105,33.4615876],"bbox":[36.0383105,33.3015876,36.3583105,33.6215876]}
{"name":"منبج","other_names":{"name:ar":"منبج","name:cs":"Manbidž","name:de":"Manbidsch","name:el":"Μεμβίτζ","name:en":"Manbij","name:es":"Manbij","name:eu":"Manbij","name:fa":"منبج","name:fr":"Menbidj","name:he":"מנביג'","name:hi":"मनबिज","name:hy":"Մանբիջ","name:ja":"マンビジ","name:ko":"만비즈","name:ku":"Minbic","name:ml":"മൻബിജ്","name:ru":"Манбидж","name:tr":"Menbiç","name:uk":"Манбідж","name:zh":"曼比季","name:ckb":"منبج","old_name":"Mabbog;Hiérapolis Bambyce","alt_name:tr":"Münbiç"},"display_name":"منبج, ناحية مركز منبج, منطقة منبج, محافظة حلب, سوريا","address":{"city":"منبج","subdistrict":"ناحية مركز منبج","state_district":"منطقة منبج","state":"محافظة حلب","ISO3166-2-lvl4":"SY-HL","country":"سوريا","country_code":"sy"},"population":99497,"osm_type":"node","osm_id":248154948,"type":"city","location":[37.9559288,36.5269242],"bbox":[37.7959288,36.3669242,38.1159288,36.6869242]}
