{"name":"18 de Mayo","display_name":"18 de Mayo, Progreso, Municipio de Las Piedras, Canelones, 90300, Uruguay","address":{"city":"18 de Mayo","municipality":"Municipio de Las Piedras","state":"Canelones","ISO3166-2-lvl4":"UY-CA","postcode":"90300","country":"Uruguay","country_code":"uy"},"osm_type":"node","osm_id":9975030399,"type":"city","location":[-56.220872,-34.6933845],"bbox":[-56.380872,-34.8533845,-56.060872,-34.5333845]}
{"name":"Artigas","other_names":{"name:lt":"Artigasas","name:pt":"Artigas","name:ru":"Артигас","name:uk":"Артиґас"},"display_name":"Artigas, Uruguay","address":{"city":"Artigas","state":"Artigas","ISO3166-2-lvl4":"UY-AR","country":"Uruguay","country_code":"uy"},"population":40658,"osm_type":"node","osm_id":416470120,"type":"city","location":[-56.4638078,-30.3984136],"bbox":[-56.6238078,-30.5584136,-56.3038078,-30.2384136],"border":{"name":"Artigas","other_names":{"name:es":"Artigas","name:lt":"Artigasas","name:pt":"Artigas","name:ru":"Артигас","name:uk":"Артиґас"},"display_name":"Artigas, 55000, Uruguay","address":{"city":"Artigas","state":"Artigas","ISO3166-2-lvl4":"UY-AR","postcode":"55000","country":"Uruguay","country_code":"uy"},"population":40658,"osm_type":"relation","osm_id":3443435,"type":"administrative","location":[-56.4638078,-30.3984136],"bbox":[-56.4984245,-30.4304385,-56.4447498,-30.3852536]}}
{"name":"Barros Blancos","other_names":{"old_name":"Juan Antonio Artigas"},"display_name":"Barros Blancos, Canelones, Uruguay","address":{"city":"Barros Blancos","state":"Canelones","ISO3166-2-lvl4":"UY-CA","country":"Uruguay","country_code":"uy"},"population":31650,"osm_type":"node","osm_id":1296548565,"type":"city","location":[-56.0002807,-34.7520226],"bbox":[-56.1602807,-34.9120226,-55.8402807,-34.5920226],"border":{"name":"Barros Blancos","other_names":{"name:es":"Barros Blancos","old_name":"Juan Antonio Artigas"},"display_name":"Barros Blancos, Canelones, 91001, Uruguay","address":{"city":"Barros Blancos","state":"Canelones","ISO3166-2-lvl4":"UY-CA","postcode":"91001","country":"Uruguay","country_code":"uy"},"population":31650,"osm_type":"relation","osm_id":2564867,"type":"administrative","location":[-56.0002807,-34.7520226],"bbox":[-56.0373005,-34.7828053,-55.953217,-34.7239324]}}
{"name":"Bella Unión","display_name":"Bella Unión, Artigas, Uruguay","address":{"city":"Bella Unión","state":"Artigas","ISO3166-2-lvl4":"UY-AR","country":"Uruguay","country_code":"uy"},"population":12200,"osm_type":"node","osm_id":415689707,"type":"city","location":[-57.6059002,-30.2612301],"bbox":[-57.7659002,-30.4212301,-57.4459002,-30.1012301],"border":{"name":"Bella Unión","display_name":"Bella Unión, Artigas, 55100, Uruguay","address":{"city":"Bella Unión","state":"Artigas","ISO3166-2-lvl4":"UY-AR","postcode":"55100","country":"Uruguay","country_code":"uy"},"population":12200,"osm_type":"relation","osm_id":3456707,"type":"administrative","location":[-57.6059002,-30.2612301],"bbox":[-57.6159592,-30.2779957,-57.5829477,-30.2419465]}}
{"name":"Canelones","display_name":"Canelones, Uruguay","address":{"city":"Canelones","state":"Canelones","ISO3166-2-lvl4":"UY-CA","country":"Uruguay","country_code":"uy"},"population":19865,"osm_type":"node","osm_id":302610933,"type":"city","location":[-56.2817519,-34.5242373],"bbox":[-56.4417519,-34.6842373,-56.1217519,-34.3642373],"border":{"name":"Canelones","display_name":"Canelones, 90000, Uruguay","address":{"city":"Canelones","state":"Canelones","ISO3166-2-lvl4":"UY-CA","postcode":"90000","country":"Uruguay","country_code":"uy"},"population":19865,"osm_type":"relation","osm_id":2574897,"type":"administrative","location":[-56.2817519,-34.5242373],"bbox":[-56.2988564,-34.5531722,-56.2636899,-34.4964244]}}
{"name":"Carmelo","other_names":{"name:ru":"Кармело"},"display_name":"Carmelo, Colonia, Uruguay","address":{"city":"Carmelo","state":"Colonia","ISO3166-2-lvl4":"UY-CO","country":"Uruguay","country_code":"uy"},"population":18041,"osm_type":"node","osm_id":332605466,"type":"city","location":[-58.2836485,-33.9967827],"bbox":[-58.4436485,-34.1567827,-58.1236485,-33.8367827],"border":{"name":"Carmelo","other_names":{"name:es":"Carmelo","name:ru":"Кармело"},"display_name":"Carmelo, Colonia, 70100, Uruguay","address":{"city":"Carmelo","state":"Colonia","ISO3166-2-lvl4":"UY-CO","postcode":"70100","country":"Uruguay","country_code":"uy"},"population":18041,"osm_type":"relation","osm_id":2757912,"type":"administrative","location":[-58.2836485,-33.9967827],"bbox":[-58.3066037,-34.0203035,-58.2590901,-33.9725815]}}
{"name":"Ciudad de la Costa","display_name":"Ciudad de la Costa, Canelones, Uruguay","address":{"city":"Ciudad de la Costa","state":"Canelones","ISO3166-2-lvl4":"UY-CA","country":"Uruguay","country_code":"uy"},"population":112449,"osm_type":"node","osm_id":1987919961,"type":"city","location":[-55.958956,-34.8255833],"bbox":[-56.118956,-34.9855833,-55.798956,-34.6655833],"border":{"name":"Ciudad de la Costa","display_name":"Ciudad de la Costa, Canelones, 15800, Uruguay","address":{"city":"Ciudad de la Costa","state":"Canelones","ISO3166-2-lvl4":"UY-CA","postcode":"15800","country":"Uruguay","country_code":"uy"},"population":112449,"osm_type":"relation","osm_id":2535097,"type":"administrative","location":[-55.958956,-34.8255833],"bbox":[-56.0408559,-34.8796424,-55.8618523,-34.775461]}}
{"name":"Ciudad del Plata","display_name":"Ciudad del Plata, San José, Uruguay","address":{"city":"Ciudad del Plata","state":"San José","ISO3166-2-lvl4":"UY-SJ","country":"Uruguay","country_code":"uy"},"population":31146,"osm_type":"node","osm_id":2102107935,"type":"city","location":[-56.4205752,-34.7515308],"bbox":[-56.5805752,-34.9115308,-56.2605752,-34.5915308],"border":[{"name":"Ciudad del Plata","display_name":"Ciudad del Plata, San José, 80500, Uruguay","address":{"city":"Ciudad del Plata","state":"San José","ISO3166-2-lvl4":"UY-SJ","postcode":"80500","country":"Uruguay","country_code":"uy"},"population":31146,"osm_type":"relation","osm_id":2690564,"type":"administrative","location":[-56.4205752,-34.7515308],"bbox":[-56.4679753,-34.7832134,-56.3476374,-34.7243528]},{"name":"Ciudad del Plata","display_name":"Ciudad del Plata, San José, 80001, Uruguay","address":{"suburb":"Ciudad del Plata","city":"Ciudad del Plata","state":"San José","ISO3166-2-lvl4":"UY-SJ","postcode":"80001","country":"Uruguay","country_code":"uy"},"osm_type":"relation","osm_id":2690079,"type":"administrative","location":[-56.39539717897878,-34.760896200000005],"bbox":[-56.4500763,-34.7832134,-56.3476374,-34.7385894]}]}
{"name":"Colonia del Sacramento","other_names":{"name:pt":"Colônia do Sacramento","name:abbreviation":"Colonia"},"display_name":"Colonia del Sacramento, Colonia, Uruguay","address":{"city":"Colonia del Sacramento","state":"Colonia","ISO3166-2-lvl4":"UY-CO","country":"Uruguay","country_code":"uy"},"population":26231,"osm_type":"node","osm_id":1382089438,"type":"city","location":[-57.8433679,-34.4698592],"bbox":[-58.0033679,-34.6298592,-57.6833679,-34.3098592],"border":{"name":"Colonia del Sacramento","other_names":{"name:es":"Colonia del Sacramento","name:ru":"Колония-дель-Сакраменто","name:pt":"Colônia do Sacramento","name:abbreviation":"Colonia"},"display_name":"Colonia del Sacramento, Colonia, 70000, Uruguay","address":{"city":"Colonia del Sacramento","state":"Colonia","ISO3166-2-lvl4":"UY-CO","postcode":"70000","country":"Uruguay","country_code":"uy"},"population":26231,"osm_type":"relation","osm_id":2862754,"type":"administrative","location":[-57.8433679,-34.4698592],"bbox":[-57.8893007,-34.4762335,-57.7885295,-34.4233325]}}
{"name":"Dolores","display_name":"Dolores, Soriano, Uruguay","address":{"city":"Dolores","state":"Soriano","ISO3166-2-lvl4":"UY-SO","country":"Uruguay","country_code":"uy"},"population":17174,"osm_type":"node","osm_id":332601915,"type":"city","location":[-58.2170674,-33.5300696],"bbox":[-58.3770674,-33.6900696,-58.0570674,-33.3700696],"border":{"name":"Dolores","display_name":"Dolores, Soriano, 75100, Uruguay","address":{"city":"Dolores","state":"Soriano","ISO3166-2-lvl4":"UY-SO","postcode":"75100","country":"Uruguay","country_code":"uy"},"population":17174,"osm_type":"relation","osm_id":3287661,"type":"administrative","location":[-58.2170674,-33.5300696],"bbox":[-58.2344099,-33.5494994,-58.1991635,-33.5168661]}}
{"name":"Durazno","display_name":"Durazno, Uruguay","address":{"city":"Durazno","state":"Durazno","ISO3166-2-lvl4":"UY-DU","country":"Uruguay","country_code":"uy"},"population":34372,"osm_type":"node","osm_id":416492912,"type":"city","location":[-56.5224986,-33.3801247],"bbox":[-56.6824986,-33.5401247,-56.3624986,-33.2201247],"border":{"name":"Durazno","display_name":"Durazno, 97000, Uruguay","address":{"city":"Durazno","state":"Durazno","ISO3166-2-lvl4":"UY-DU","postcode":"97000","country":"Uruguay","country_code":"uy"},"population":34372,"osm_type":"relation","osm_id":3245362,"type":"administrative","location":[-56.5224986,-33.3801247],"bbox":[-56.5519094,-33.4038226,-56.4919533,-33.3583978]}}
{"name":"Florida","display_name":"Florida, Uruguay","address":{"city":"Florida","state":"Florida","ISO3166-2-lvl4":"UY-FD","country":"Uruguay","country_code":"uy"},"population":33640,"osm_type":"node","osm_id":1324391734,"type":"city","location":[-56.214752,-34.101363],"bbox":[-56.374752,-34.261363,-56.054752,-33.941363],"border":{"name":"Florida","display_name":"Florida, 94000, Uruguay","address":{"city":"Florida","state":"Florida","ISO3166-2-lvl4":"UY-FD","postcode":"94000","country":"Uruguay","country_code":"uy"},"population":33640,"osm_type":"relation","osm_id":3228120,"type":"administrative","location":[-56.214752,-34.101363],"bbox":[-56.2431392,-34.1154515,-56.2027493,-34.0763711]}}
{"name":"Fray Bentos","other_names":{"name:es":"Fray Bentos","old_name":"Independencia"},"display_name":"Fray Bentos, Río Negro, Uruguay","address":{"city":"Fray Bentos","state":"Río Negro","ISO3166-2-lvl4":"UY-RN","country":"Uruguay","country_code":"uy"},"population":24406,"osm_type":"node","osm_id":313943603,"type":"city","location":[-58.3130977,-33.1165167],"bbox":[-58.4730977,-33.2765167,-58.1530977,-32.9565167],"border":{"name":"Fray Bentos","other_names":{"name:es":"Fray Bentos","old_name":"Independencia"},"display_name":"Fray Bentos, Río Negro, 65000, Uruguay","address":{"city":"Fray Bentos","state":"Río Negro","ISO3166-2-lvl4":"UY-RN","postcode":"65000","country":"Uruguay","country_code":"uy"},"population":24406,"osm_type":"relation","osm_id":2734922,"type":"administrative","location":[-58.3130977,-33.1165167],"bbox":[-58.3220547,-33.1455398,-58.2758135,-33.1080437]}}
{"name":"General Liber Seregni","display_name":"General Liber Seregni, General Líber Seregni, Canelones, Uruguay","address":{"city":"General Liber Seregni","state":"Canelones","ISO3166-2-lvl4":"UY-CA","country":"Uruguay","country_code":"uy"},"osm_type":"node","osm_id":5356903787,"type":"city","location":[-56.007987,-34.8198677],"bbox":[-56.167987,-34.9798677,-55.847987,-34.6598677],"border":{"name":"General Líber Seregni","other_names":{"name:es":"General Líber Seregni","alt":"General Liber Seregni"},"display_name":"General Líber Seregni, Canelones, Uruguay","address":{"city":"General Líber Seregni","state":"Canelones","ISO3166-2-lvl4":"UY-CA","country":"Uruguay","country_code":"uy"},"osm_type":"relation","osm_id":7928095,"type":"administrative","location":[-56.007987,-34.8198677],"bbox":[-56.0550518,-34.8408778,-55.9656634,-34.7519836]}}
{"name":"Juan Lacaze","display_name":"Juan Lacaze, Colonia, Uruguay","address":{"city":"Juan Lacaze","state":"Colonia","ISO3166-2-lvl4":"UY-CO","country":"Uruguay","country_code":"uy"},"population":12816,"osm_type":"node","osm_id":429019695,"type":"city","location":[-57.4380432,-34.434266],"bbox":[-57.5980432,-34.594266,-57.2780432,-34.274266],"border":{"name":"Juan Lacaze","display_name":"Juan Lacaze, Colonia, 70001, Uruguay","address":{"city":"Juan Lacaze","state":"Colonia","ISO3166-2-lvl4":"UY-CO","postcode":"70001","country":"Uruguay","country_code":"uy"},"population":12816,"osm_type":"relation","osm_id":2746010,"type":"administrative","location":[-57.4380432,-34.434266],"bbox":[-57.4610978,-34.4425361,-57.4286208,-34.4040784]}}
{"name":"La Paz","display_name":"La Paz, Canelones, Uruguay","address":{"city":"La Paz","state":"Canelones","ISO3166-2-lvl4":"UY-CA","country":"Uruguay","country_code":"uy"},"population":20526,"osm_type":"node","osm_id":427239178,"type":"city","location":[-56.2236965,-34.7632648],"bbox":[-56.3836965,-34.9232648,-56.0636965,-34.6032648],"border":{"name":"La Paz","display_name":"La Paz, Canelones, 90100, Uruguay","address":{"city":"La Paz","state":"Canelones","ISO3166-2-lvl4":"UY-CA","postcode":"90100","country":"Uruguay","country_code":"uy"},"population":20526,"osm_type":"relation","osm_id":2586184,"type":"administrative","location":[-56.2236965,-34.7632648],"bbox":[-56.2413164,-34.7701017,-56.2147085,-34.7387192]}}
{"name":"Las Piedras","other_names":{"name:lt":"Las Piedrasas","name:ru":"Лас-Пьедрас"},"display_name":"Las Piedras, Canelones, Uruguay","address":{"city":"Las Piedras","state":"Canelones","ISO3166-2-lvl4":"UY-CA","country":"Uruguay","country_code":"uy"},"population":71268,"osm_type":"node","osm_id":422918346,"type":"city","location":[-56.2164982,-34.7274904],"bbox":[-56.3764982,-34.8874904,-56.0564982,-34.5674904],"border":{"name":"Las Piedras","other_names":{"name:es":"Las Piedras","name:lt":"Las Piedrasas","name:ru":"Лас-Пьедрас"},"display_name":"Las Piedras, Canelones, 90200, Uruguay","address":{"city":"Las Piedras","state":"Canelones","ISO3166-2-lvl4":"UY-CA","postcode":"90200","country":"Uruguay","country_code":"uy"},"population":71268,"osm_type":"relation","osm_id":2586358,"type":"administrative","location":[-56.2164982,-34.7274904],"bbox":[-56.249489,-34.7497549,-56.1815801,-34.7043473]}}
{"name":"Libertad","display_name":"Libertad, San José, Uruguay","address":{"city":"Libertad","state":"San José","ISO3166-2-lvl4":"UY-SJ","country":"Uruguay","country_code":"uy"},"population":10166,"osm_type":"node","osm_id":470781780,"type":"city","location":[-56.6164899,-34.6310156],"bbox":[-56.7764899,-34.7910156,-56.4564899,-34.4710156],"border":{"name":"Libertad","display_name":"Libertad, San José, 80100, Uruguay","address":{"city":"Libertad","state":"San José","ISO3166-2-lvl4":"UY-SJ","postcode":"80100","country":"Uruguay","country_code":"uy"},"population":10166,"osm_type":"relation","osm_id":2620713,"type":"administrative","location":[-56.6164899,-34.6310156],"bbox":[-56.6423104,-34.6523026,-56.5997826,-34.6194834]}}
{"name":"Maldonado","display_name":"Maldonado, Uruguay","address":{"city":"Maldonado","state":"Maldonado","ISO3166-2-lvl4":"UY-MA","country":"Uruguay","country_code":"uy"},"population":62592,"osm_type":"node","osm_id":302611004,"type":"city","location":[-54.9582718,-34.9087162],"bbox":[-55.1182718,-35.0687162,-54.7982718,-34.7487162],"border":{"name":"Maldonado","display_name":"Maldonado, 20000, Uruguay","address":{"city":"Maldonado","state":"Maldonado","ISO3166-2-lvl4":"UY-MA","postcode":"20000","country":"Uruguay","country_code":"uy"},"population":62592,"osm_type":"relation","osm_id":2473675,"type":"administrative","location":[-54.9582718,-34.9087162],"bbox":[-54.9733371,-34.9151756,-54.9212538,-34.8732721]}}
{"name":"Melo","display_name":"Melo, Cerro Largo, 37000, Uruguay","address":{"city":"Melo","state":"Cerro Largo","ISO3166-2-lvl4":"UY-CL","postcode":"37000","country":"Uruguay","country_code":"uy"},"population":51830,"osm_type":"node","osm_id":617428620,"type":"city","location":[-54.1697146,-32.3680849],"bbox":[-54.3297146,-32.5280849,-54.0097146,-32.2080849],"border":{"name":"Melo","display_name":"Melo, Cerro Largo, 37000, Uruguay","address":{"city":"Melo","state":"Cerro Largo","ISO3166-2-lvl4":"UY-CL","postcode":"37000","country":"Uruguay","country_code":"uy"},"population":51830,"osm_type":"relation","osm_id":4095068,"type":"administrative","location":[-54.1697146,-32.3680849],"bbox":[-54.201019,-32.3935153,-54.1359772,-32.3415815]}}
{"name":"Mercedes","other_names":{"name:es":"Mercedes"},"display_name":"Mercedes, Soriano, Uruguay","address":{"city":"Mercedes","state":"Soriano","ISO3166-2-lvl4":"UY-SO","country":"Uruguay","country_code":"uy"},"population":41975,"osm_type":"node","osm_id":332598161,"type":"city","location":[-58.0298671,-33.2484204],"bbox":[-58.1898671,-33.4084204,-57.8698671,-33.0884204],"border":{"name":"Mercedes","other_names":{"name:es":"Mercedes"},"display_name":"Mercedes, Soriano, 75000, Uruguay","address":{"city":"Mercedes","state":"Soriano","ISO3166-2-lvl4":"UY-SO","postcode":"75000","country":"Uruguay","country_code":"uy"},"population":41975,"osm_type":"relation","osm_id":3291658,"type":"administrative","location":[-58.0298671,-33.2484204],"bbox":[-58.0585878,-33.2724146,-58.0024153,-33.2378756]}}
{"name":"Minas","other_names":{"name:ru":"Минас"},"display_name":"Minas, Lavalleja, Uruguay","address":{"city":"Minas","state":"Lavalleja","ISO3166-2-lvl4":"UY-LA","country":"Uruguay","country_code":"uy"},"population":38446,"osm_type":"node","osm_id":347693883,"type":"city","location":[-55.2382144,-34.3773987],"bbox":[-55.3982144,-34.5373987,-55.0782144,-34.2173987],"border":{"name":"Minas","other_names":{"name:es":"Minas","name:ru":"Минас"},"display_name":"Minas, Lavalleja, 30000, Uruguay","address":{"city":"Minas","state":"Lavalleja","ISO3166-2-lvl4":"UY-LA","postcode":"30000","country":"Uruguay","country_code":"uy"},"population":38446,"osm_type":"relation","osm_id":2559279,"type":"administrative","location":[-55.2382144,-34.3773987],"bbox":[-55.2832166,-34.4035131,-55.2047995,-34.3495183]}}
{"name":"Montevideo","other_names":{"name:ab":"Монтевидео","name:am":"ሞንቴቪዴዎ","name:ar":"مونتيفيديو","name:ay":"Muntividëw","name:be":"Мантэвідэа","name:bg":"Монтевидео","name:bn":"মোন্তেবিদেও","name:bo":"མཱོན་ཊི་ཝི་ཌོ།","name:br":"Montevideo","name:ca":"Montevideo","name:de":"Montevideo","name:el":"Μοντεβιδέο","name:en":"Montevideo","name:es":"Montevideo","name:fa":"مونته‌ویدئو","name:fr":"Montevideo","name:gl":"Montevideo","name:he":"מונטווידאו","name:hi":"मोण्टेवीडियो","name:hu":"Montevideo","name:hy":"Մոնտեվիդեո","name:is":"Montevídeó","name:it":"Montevideo","name:ja":"モンテビデオ","name:ka":"მონტევიდეო","name:ko":"몬테비데오","name:ku":"Montevideo","name:la":"Monsvideus","name:lt":"Montevidėjas","name:mk":"Монтевидео","name:ml":"മൊണ്ടേവീഡിയോ","name:mr":"मोन्तेविदेओ","name:my":"မွန်တီဗစ်ဒီအိုမြို့","name:nl":"Montevideo","name:no":"Montevideo","name:oc":"Montevideo","name:os":"Монтевидео","name:pa":"ਮੋਂਤੇਵੀਦਿਓ","name:pl":"Montevideo","name:pt":"Montevidéu","name:ru":"Монтевидео","name:sk":"Montevideo","name:sr":"Монтевидео","name:sv":"Montevideo","name:ta":"மொண்டிவிடியோ","name:th":"มอนเตวิเดโอ","name:tr":"Montevideo","name:ug":"مونتېۋىدېئو","name:uk":"Монтевідео","name:ur":"مونٹیویڈیو","name:yi":"מאנטעווידעא","name:zh":"蒙得維的亞","name:ckb":"مۆنتێڤیدیۆ","name:pap":"Montevidéu","name:scn":"Muntividèu","name:tet":"Montevideu","name:xmf":"მონტევიდეო","old_name":"San Felipe y Santiago de Montevideo","name:bat-smg":"Montevidiejos","name:cbk-zam":"Montevideo ciudad","official_name":"San Felipe y Santiago de Montevideo","name:be-tarask":"Мантэвідэо"},"display_name":"Montevideo, Uruguay","address":{"city":"Montevideo","state":"Montevideo","ISO3166-2-lvl4":"UY-MO","country":"Uruguay","country_code":"uy"},"population":1319108,"osm_type":"node","osm_id":296140043,"type":"city","location":[-56.1913095,-34.9058916],"bbox":[-56.3513095,-35.0658916,-56.0313095,-34.7458916],"border":{"name":"Montevideo","other_names":{"name:eo":"Montevideo","name:es":"Montevideo","name:gl":"Montevideo","name:pt":"Montevidéu","name:ru":"Монтевидео","name:ab":"Монтевидео","name:am":"ሞንቴቪዴዎ","name:ar":"مونتيفيديو","name:ay":"Muntividëw","name:be":"Мантэвідэа","name:bg":"Монтевидео","name:bn":"মোন্তেবিদেও","name:bo":"མཱོན་ཊི་ཝི་ཌོ།","name:br":"Montevideo","name:ca":"Montevideo","name:de":"Montevideo","name:el":"Μοντεβιδέο","name:en":"Montevideo","name:fa":"مونته‌ویدئو","name:fr":"Montevideo","name:he":"מונטווידאו","name:hi":"मोण्टेवीडियो","name:hu":"Montevideo","name:hy":"Մոնտեվիդեո","name:is":"Montevídeó","name:it":"Montevideo","name:ja":"モンテビデオ","name:ka":"მონტევიდეო","name:ko":"몬테비데오","name:ku":"Montevideo","name:la":"Monsvideus","name:lt":"Montevidėjas","name:mk":"Монтевидео","name:ml":"മൊണ്ടേവീഡിയോ","name:mr":"मोन्तेविदेओ","name:my":"မွန်တီဗစ်ဒီအိုမြို့","name:nl":"Montevideo","name:no":"Montevideo","name:oc":"Montevideo","name:os":"Монтевидео","name:pa":"ਮੋਂਤੇਵੀਦਿਓ","name:pl":"Montevideo","name:sk":"Montevideo","name:sr":"Монтевидео","name:sv":"Montevideo","name:ta":"மொண்டிவிடியோ","name:th":"มอนเตวิเดโอ","name:tr":"Montevideo","name:ug":"مونتېۋىدېئو","name:uk":"Монтевідео","name:ur":"مونٹیویڈیو","name:yi":"מאנטעווידעא","name:zh":"蒙得維的亞","name:ckb":"مۆنتێڤیدیۆ","name:pap":"Montevidéu","name:scn":"Muntividèu","name:tet":"Montevideu","name:xmf":"მონტევიდეო","old_name":"San Felipe y Santiago de Montevideo","name:bat-smg":"Montevidiejos","name:cbk-zam":"Montevideo ciudad","official_name":"San Felipe y Santiago de Montevideo","name:be-tarask":"Мантэвідэо"},"display_name":"Montevideo, Uruguay","address":{"city":"Montevideo","state":"Montevideo","ISO3166-2-lvl4":"UY-MO","country":"Uruguay","country_code":"uy"},"population":1319108,"osm_type":"relation","osm_id":2929054,"type":"administrative","location":[-56.1913095,-34.9058916],"bbox":[-56.4313997,-34.938056,-56.0225006,-34.7018526]}}
{"name":"Nueva Helvecia","display_name":"Nueva Helvecia, Colonia, Uruguay","address":{"city":"Nueva Helvecia","state":"Colonia","ISO3166-2-lvl4":"UY-CO","country":"Uruguay","country_code":"uy"},"population":10630,"osm_type":"node","osm_id":429019682,"type":"city","location":[-57.2336726,-34.2849689],"bbox":[-57.3936726,-34.4449689,-57.0736726,-34.1249689],"border":{"name":"Nueva Helvecia","display_name":"Nueva Helvecia, Colonia, 70201, Uruguay","address":{"city":"Nueva Helvecia","state":"Colonia","ISO3166-2-lvl4":"UY-CO","postcode":"70201","country":"Uruguay","country_code":"uy"},"population":10630,"osm_type":"relation","osm_id":2870068,"type":"administrative","location":[-57.2336726,-34.2849689],"bbox":[-57.259338,-34.3217407,-57.2153806,-34.2724567]}}
{"name":"Pando","display_name":"Pando, Canelones, Uruguay","address":{"city":"Pando","state":"Canelones","ISO3166-2-lvl4":"UY-CA","country":"Uruguay","country_code":"uy"},"population":25949,"osm_type":"node","osm_id":445968232,"type":"city","location":[-55.959447,-34.721323],"bbox":[-56.119447,-34.881323,-55.799447,-34.561323],"border":{"name":"Pando","display_name":"Pando, Canelones, 91000, Uruguay","address":{"city":"Pando","state":"Canelones","ISO3166-2-lvl4":"UY-CA","postcode":"91000","country":"Uruguay","country_code":"uy"},"population":25949,"osm_type":"relation","osm_id":2586519,"type":"administrative","location":[-55.959447,-34.721323],"bbox":[-55.9967633,-34.7437965,-55.9368532,-34.7028496]}}
{"name":"Paso Carrasco","other_names":{"name:ru":"Пасо-Карраско","alt_name":"Paso de Carrasco"},"display_name":"Paso Carrasco, Canelones, Uruguay","address":{"city":"Paso Carrasco","state":"Canelones","ISO3166-2-lvl4":"UY-CA","country":"Uruguay","country_code":"uy"},"population":15908,"osm_type":"node","osm_id":429627866,"type":"city","location":[-56.0525006,-34.8621152],"bbox":[-56.2125006,-35.0221152,-55.8925006,-34.7021152],"border":{"name":"Paso Carrasco","other_names":{"name:es":"Paso Carrasco","alt_name":"Paso de Carrasco","name:ru":"Пасо-Карраско"},"display_name":"Paso Carrasco, Canelones, 15000, Uruguay","address":{"city":"Paso Carrasco","state":"Canelones","ISO3166-2-lvl4":"UY-CA","postcode":"15000","country":"Uruguay","country_code":"uy"},"population":15908,"osm_type":"relation","osm_id":2535038,"type":"administrative","location":[-56.0525006,-34.8621152],"bbox":[-56.0607789,-34.8704338,-56.022979,-34.8449763]}}
{"name":"Paso de los Toros","display_name":"Paso de los Toros, Tacuarembó, Uruguay","address":{"city":"Paso de los Toros","state":"Tacuarembó","ISO3166-2-lvl4":"UY-TA","country":"Uruguay","country_code":"uy"},"population":12985,"osm_type":"node","osm_id":671778599,"type":"city","location":[-56.5174948,-32.8108095],"bbox":[-56.6774948,-32.9708095,-56.3574948,-32.6508095],"border":{"name":"Paso de los Toros","other_names":{"name:es":"Paso de los Toros","name:ru":"Пасо-де-лос-Торос"},"display_name":"Paso de los Toros, Tacuarembó, 45100, Uruguay","address":{"city":"Paso de los Toros","state":"Tacuarembó","ISO3166-2-lvl4":"UY-TA","postcode":"45100","country":"Uruguay","country_code":"uy"},"population":12985,"osm_type":"relation","osm_id":3572216,"type":"administrative","location":[-56.5174948,-32.8108095],"bbox":[-56.5406683,-32.8224894,-56.4949645,-32.7878387]}}
{"name":"Paysandú","other_names":{"name:en":"Paysandú","name:es":"Paysandú","name:ru":"Пайсанду","name:uk":"Пайсанду"},"display_name":"Paysandú, Uruguay","address":{"city":"Paysandú","state":"Paysandú","ISO3166-2-lvl4":"UY-PA","country":"Uruguay","country_code":"uy"},"population":76429,"osm_type":"node","osm_id":302608039,"type":"city","location":[-58.0892136,-32.3217257],"bbox":[-58.2492136,-32.4817257,-57.9292136,-32.1617257],"border":{"name":"Paysandú","other_names":{"name:es":"Paysandú","name:en":"Paysandú","name:ru":"Пайсанду","name:uk":"Пайсанду"},"display_name":"Paysandú, 60000, Uruguay","address":{"city":"Paysandú","state":"Paysandú","ISO3166-2-lvl4":"UY-PA","postcode":"60000","country":"Uruguay","country_code":"uy"},"population":76429,"osm_type":"relation","osm_id":3333909,"type":"administrative","location":[-58.0892136,-32.3217257],"bbox":[-58.1078455,-32.3473331,-58.0503588,-32.2900282]}}
{"name":"Progreso","other_names":{"name:lt":"Progresas","name:ru":"Прогресо"},"display_name":"Progreso, Canelones, 90300, Uruguay","address":{"city":"Progreso","state":"Canelones","ISO3166-2-lvl4":"UY-CA","postcode":"90300","country":"Uruguay","country_code":"uy"},"population":16244,"osm_type":"node","osm_id":415635916,"type":"city","location":[-56.2154727,-34.6798644],"bbox":[-56.3754727,-34.8398644,-56.0554727,-34.5198644],"border":{"name":"Progreso","other_names":{"name:es":"Progreso","name:lt":"Progresas","name:ru":"Прогресо"},"display_name":"Progreso, Canelones, 90300, Uruguay","address":{"city":"Progreso","state":"Canelones","ISO3166-2-lvl4":"UY-CA","postcode":"90300","country":"Uruguay","country_code":"uy"},"population":16244,"osm_type":"relation","osm_id":2589684,"type":"administrative","location":[-56.2154727,-34.6798644],"bbox":[-56.2402797,-34.6982622,-56.1996958,-34.6505742]}}
{"name":"Río Branco","other_names":{"name:es":"Río Branco","name:fa":"ریو برانکو","name:ur":"ریو برانکو"},"display_name":"Río Branco, Cerro Largo, Uruguay","address":{"city":"Río Branco","state":"Cerro Largo","ISO3166-2-lvl4":"UY-CL","country":"Uruguay","country_code":"uy"},"population":14604,"osm_type":"node","osm_id":1377855698,"type":"city","location":[-53.3780831,-32.588689],"bbox":[-53.5380831,-32.748689,-53.2180831,-32.428689],"border":{"name":"Río Branco","other_names":{"name:es":"Río Branco","name:fa":"ریو برانکو","name:ur":"ریو برانکو"},"display_name":"Río Branco, Cerro Largo, 37100, Uruguay","address":{"city":"Río Branco","state":"Cerro Largo","ISO3166-2-lvl4":"UY-CL","postcode":"37100","country":"Uruguay","country_code":"uy"},"population":14604,"osm_type":"relation","osm_id":3851138,"type":"administrative","location":[-53.3780831,-32.588689],"bbox":[-53.4044473,-32.6134054,-53.3606779,-32.5711131]}}
{"name":"Rivera","display_name":"Rivera, Uruguay","address":{"city":"Rivera","state":"Rivera","ISO3166-2-lvl4":"UY-RV","country":"Uruguay","country_code":"uy"},"population":64485,"osm_type":"node","osm_id":886601234,"type":"city","location":[-55.5408151,-30.900058],"bbox":[-55.7008151,-31.060058,-55.3808151,-30.740058],"border":{"name":"Rivera","display_name":"Rivera, 40000, Uruguay","address":{"city":"Rivera","state":"Rivera","ISO3166-2-lvl4":"UY-RV","postcode":"40000","country":"Uruguay","country_code":"uy"},"population":64485,"osm_type":"relation","osm_id":4162486,"type":"administrative","location":[-55.5408151,-30.900058],"bbox":[-55.5994839,-30.9268826,-55.5079869,-30.8692159]}}
{"name":"Rocha","other_names":{"name:en":"Rocha","name:ru":"Роча","name:uk":"Роча"},"display_name":"Rocha, Uruguay","address":{"city":"Rocha","state":"Rocha","ISO3166-2-lvl4":"UY-RO","country":"Uruguay","country_code":"uy"},"population":25422,"osm_type":"node","osm_id":321555078,"type":"city","location":[-54.3365608,-34.4810095],"bbox":[-54.4965608,-34.6410095,-54.1765608,-34.3210095],"border":{"name":"Rocha","other_names":{"name:es":"Rocha","name:en":"Rocha","name:ru":"Роча","name:uk":"Роча"},"display_name":"Rocha, 27000, Uruguay","address":{"city":"Rocha","state":"Rocha","ISO3166-2-lvl4":"UY-RO","postcode":"27000","country":"Uruguay","country_code":"uy"},"population":25422,"osm_type":"relation","osm_id":2615970,"type":"administrative","location":[-54.3365608,-34.4810095],"bbox":[-54.3576862,-34.5040776,-54.2942306,-34.4550738]}}
{"name":"Rosario","display_name":"Rosario, Colonia, Uruguay","address":{"city":"Rosario","state":"Colonia","ISO3166-2-lvl4":"UY-CO","country":"Uruguay","country_code":"uy"},"population":10085,"osm_type":"node","osm_id":415719961,"type":"city","location":[-57.3512918,-34.3115588],"bbox":[-57.5112918,-34.4715588,-57.1912918,-34.1515588],"border":{"name":"Rosario","display_name":"Rosario, Colonia, 70200, Uruguay","address":{"city":"Rosario","state":"Colonia","ISO3166-2-lvl4":"UY-CO","postcode":"70200","country":"Uruguay","country_code":"uy"},"population":10085,"osm_type":"relation","osm_id":3105552,"type":"administrative","location":[-57.3512918,-34.3115588],"bbox":[-57.3673087,-34.3397553,-57.3340284,-34.2973384]}}
{"name":"Salto","other_names":{"name:en":"Salto","name:fr":"Salto","name:ru":"Салту"},"display_name":"Salto, Uruguay","address":{"city":"Salto","state":"Salto","ISO3166-2-lvl4":"UY-SA","country":"Uruguay","country_code":"uy"},"population":104028,"osm_type":"node","osm_id":332268980,"type":"city","location":[-57.9608876,-31.38889],"bbox":[-58.1208876,-31.54889,-57.8008876,-31.22889],"border":{"name":"Salto","other_names":{"name:es":"Salto","name:en":"Salto","name:fr":"Salto","name:ru":"Салту"},"display_name":"Salto, 50000, Uruguay","address":{"city":"Salto","state":"Salto","ISO3166-2-lvl4":"UY-SA","postcode":"50000","country":"Uruguay","country_code":"uy"},"population":104028,"osm_type":"relation","osm_id":3414038,"type":"administrative","location":[-57.9608876,-31.38889],"bbox":[-57.996522,-31.4161694,-57.8791764,-31.3629022]}}
{"name":"San Carlos","display_name":"San Carlos, Maldonado, Uruguay","address":{"city":"San Carlos","state":"Maldonado","ISO3166-2-lvl4":"UY-MA","country":"Uruguay","country_code":"uy"},"population":27471,"osm_type":"node","osm_id":321555240,"type":"city","location":[-54.9207502,-34.7920447],"bbox":[-55.0807502,-34.9520447,-54.7607502,-34.6320447],"border":{"name":"San Carlos","display_name":"San Carlos, Maldonado, 20400, Uruguay","address":{"city":"San Carlos","state":"Maldonado","ISO3166-2-lvl4":"UY-MA","postcode":"20400","country":"Uruguay","country_code":"uy"},"population":27471,"osm_type":"relation","osm_id":2506638,"type":"administrative","location":[-54.9207502,-34.7920447],"bbox":[-54.9380913,-34.8076192,-54.9010255,-34.7689823]}}
{"name":"San José","other_names":{"name:ru":"Сан-Хосе-де-Майо","official_name":"San José de Mayo"},"display_name":"San José, Uruguay","address":{"city":"San José","state":"San José","ISO3166-2-lvl4":"UY-SJ","country":"Uruguay","country_code":"uy"},"population":36747,"osm_type":"node","osm_id":302608868,"type":"city","location":[-56.7143155,-34.3396521],"bbox":[-56.8743155,-34.4996521,-56.5543155,-34.1796521],"border":{"name":"San José","other_names":{"name:es":"San José","official_name":"San José de Mayo","name:ru":"Сан-Хосе-де-Майо","name:abbreviation":"San José"},"display_name":"San José, 80000, Uruguay","address":{"city":"San José","state":"San José","ISO3166-2-lvl4":"UY-SJ","postcode":"80000","country":"Uruguay","country_code":"uy"},"population":36747,"osm_type":"relation","osm_id":2679983,"type":"administrative","location":[-56.7143155,-34.3396521],"bbox":[-56.7393015,-34.3616327,-56.6869764,-34.3150241]}}
{"name":"Santa Lucía","other_names":{"name:es":"Santa Lucía","name:lt":"Santa Lusija","name:ru":"Санта-Лусия"},"display_name":"Santa Lucía, Canelones, Uruguay","address":{"city":"Santa Lucía","state":"Canelones","ISO3166-2-lvl4":"UY-CA","country":"Uruguay","country_code":"uy"},"population":16742,"osm_type":"node","osm_id":302610183,"type":"city","location":[-56.3893012,-34.4550929],"bbox":[-56.5493012,-34.6150929,-56.2293012,-34.2950929],"border":{"name":"Santa Lucía","other_names":{"name:es":"Santa Lucía","name:lt":"Santa Lusija","name:ru":"Санта-Лусия"},"display_name":"Santa Lucía, Canelones, 90700, Uruguay","address":{"city":"Santa Lucía","state":"Canelones","ISO3166-2-lvl4":"UY-CA","postcode":"90700","country":"Uruguay","country_code":"uy"},"population":16742,"osm_type":"relation","osm_id":2592498,"type":"administrative","location":[-56.3893012,-34.4550929],"bbox":[-56.4195297,-34.5089316,-56.342965,-34.4082977]}}
{"name":"Tacuarembó","display_name":"Tacuarembó, 45000, Uruguay","address":{"city":"Tacuarembó","state":"Tacuarembó","ISO3166-2-lvl4":"UY-TA","postcode":"45000","country":"Uruguay","country_code":"uy"},"population":54757,"osm_type":"node","osm_id":302666274,"type":"city","location":[-55.9788762,-31.7110183],"bbox":[-56.1388762,-31.8710183,-55.8188762,-31.5510183],"border":{"name":"Tacuarembó","display_name":"Tacuarembó, 45000, Uruguay","address":{"city":"Tacuarembó","state":"Tacuarembó","ISO3166-2-lvl4":"UY-TA","postcode":"45000","country":"Uruguay","country_code":"uy"},"population":54757,"osm_type":"relation","osm_id":3569171,"type":"administrative","location":[-55.9788762,-31.7110183],"bbox":[-56.0320771,-31.7510536,-55.9323324,-31.6822809]}}
{"name":"Treinta y Tres","other_names":{"name:lt":"Treinta i Tresas","name:ru":"Трейнта-и-Трес","name:uk":"Трейнта-і-Трес","name:zh":"三十三人城"},"display_name":"Treinta y Tres, Uruguay","address":{"city":"Treinta y Tres","state":"Treinta y Tres","ISO3166-2-lvl4":"UY-TT","country":"Uruguay","country_code":"uy"},"population":32259,"osm_type":"node","osm_id":1374267802,"type":"city","location":[-54.3862595,-33.2315713],"bbox":[-54.5462595,-33.3915713,-54.2262595,-33.0715713],"border":{"name":"Treinta y Tres","other_names":{"name:es":"Treinta y Tres","name:lt":"Treinta i Tresas","name:ru":"Трейнта-и-Трес","name:uk":"Трейнта-і-Трес","name:zh":"三十三人城"},"display_name":"Treinta y Tres, 33000, Uruguay","address":{"city":"Treinta y Tres","state":"Treinta y Tres","ISO3166-2-lvl4":"UY-TT","postcode":"33000","country":"Uruguay","country_code":"uy"},"population":32259,"osm_type":"relation","osm_id":3256072,"type":"administrative","location":[-54.3862595,-33.2315713],"bbox":[-54.4091147,-33.2653902,-54.3356548,-33.1964781]}}
{"name":"Trinidad","display_name":"Trinidad, Flores, Uruguay","address":{"city":"Trinidad","state":"Flores","ISO3166-2-lvl4":"UY-FS","country":"Uruguay","country_code":"uy"},"population":21429,"osm_type":"node","osm_id":302608615,"type":"city","location":[-56.8979718,-33.5173479],"bbox":[-57.0579718,-33.6773479,-56.7379718,-33.3573479],"border":{"name":"Trinidad","display_name":"Trinidad, Flores, 85000, Uruguay","address":{"city":"Trinidad","state":"Flores","ISO3166-2-lvl4":"UY-FS","postcode":"85000","country":"Uruguay","country_code":"uy"},"population":21429,"osm_type":"relation","osm_id":2643800,"type":"administrative","location":[-56.8979718,-33.5173479],"bbox":[-56.9138743,-33.536635,-56.885186,-33.5025695]}}
{"name":"Young","display_name":"Young, Río Negro, Uruguay","address":{"city":"Young","state":"Río Negro","ISO3166-2-lvl4":"UY-RN","country":"Uruguay","country_code":"uy"},"population":16756,"osm_type":"node","osm_id":302608467,"type":"city","location":[-57.6341992,-32.6995318],"bbox":[-57.7941992,-32.8595318,-57.4741992,-32.5395318],"border":{"name":"Young","display_name":"Young, Río Negro, 65100, Uruguay","address":{"city":"Young","state":"Río Negro","ISO3166-2-lvl4":"UY-RN","postcode":"65100","country":"Uruguay","country_code":"uy"},"population":16756,"osm_type":"relation","osm_id":2705120,"type":"administrative","location":[-57.6341992,-32.6995318],"bbox":[-57.6658925,-32.7226121,-57.6159498,-32.6846988]}}
