{"name":"Koror","other_names":{"name:ar":"كورور","name:es":"Koror","name:ru":"Корор"},"display_name":"Koror, Belau","address":{"town":"Koror","state":"Koror","ISO3166-2-lvl4":"PW-150","country":"Belau","country_code":"pw"},"osm_type":"node","osm_id":21447751,"type":"town","location":[134.4766767,7.343275],"bbox":[134.4366767,7.303275,134.5166767,7.383275]}
{"name":"Melekeok","other_names":{"name:ar":"ميلكيوك","name:be":"Мелекеок","name:bg":"Мелекеок","name:el":"Μελεκέοκ","name:en":"Melekeok","name:eo":"Melekeoko","name:fa":"ملکئوک","name:fr":"Melekeok","name:ja":"マルキョク","name:ka":"მელეკეოკი","name:ko":"멜레케오크","name:ku":"Melekeok","name:la":"Meleceocum","name:lt":"Melekeokas","name:mk":"Мелекеок","name:os":"Мелекеок","name:pt":"Melequeoque","name:ru":"Мелекеок","name:sr":"Мелекеок","name:sv":"Melekeok","name:ta":"மெலெகெயோக்","name:th":"เมเลเคอ็อก","name:uk":"Мелекеок","name:zh":"梅萊凱奧克","name:zh-Hans":"梅莱凯奥克","name:be-tarask":"Мэлекеок"},"display_name":"Melekeok, Belau","address":{"town":"Melekeok","state":"Melekeok","ISO3166-2-lvl4":"PW-212","country":"Belau","country_code":"pw"},"population":271,"osm_type":"node","osm_id":703928722,"type":"town","location":[134.636753,7.4954144],"bbox":[134.596753,7.4554144,134.676753,7.5354144]}
{"name":"Ngereklmadel","display_name":"Ngereklmadel, Ngatpang, Belau","address":{"town":"Ngereklmadel","state":"Ngatpang","ISO3166-2-lvl4":"PW-224","country":"Belau","country_code":"pw"},"osm_type":"node","osm_id":12048007640,"type":"town","location":[134.4845794,7.4881551],"bbox":[134.4445794,7.4481551,134.5245794,7.5281551]}
