{"name":"Alor Gajah","other_names":{"name:ar":"ألور قاجه","name:en":"Alor Gajah","name:ms":"Alor Gajah","name:zh":"亚罗牙也","alt_name:ar":"ألور قاجاه;ألور غاجاه;ألور غاجه;ألور كاجاه;ألور كاجه"},"display_name":"Alor Gajah, Melaka, 78000, Malaysia","address":{"city":"Alor Gajah","district":"Alor Gajah","state":"Melaka","ISO3166-2-lvl4":"MY-04","postcode":"78000","country":"Malaysia","country_code":"my"},"population":219210,"osm_type":"node","osm_id":254074196,"type":"city","location":[102.2149996,2.3861261],"bbox":[102.0549996,2.2261261,102.3749996,2.5461261],"border":{"name":"Alor Gajah","other_names":{"name:ar":"ألور قاجه","name:en":"Alor Gajah","name:ja":"アロー・ガジャ","name:ms":"Alor Gajah","name:zh":"亚罗牙也县","alt_name:ar":"ألور قاجاه;ألور غاجاه;ألور غاجه;ألور كاجاه;ألور كاجه","official_name":"Daerah Alor Gajah"},"display_name":"Alor Gajah, Melaka, Malaysia","address":{"district":"Alor Gajah","state":"Melaka","ISO3166-2-lvl4":"MY-04","country":"Malaysia","country_code":"my"},"osm_type":"relation","osm_id":4463193,"type":"administrative","location":[102.2107805,2.3834528],"bbox":[101.8451725,2.269469,102.3675908,2.4990483]}}
{"name":"Alor Setar","other_names":{"name:ar":"ألور ستار","name:el":"Αλόρ Σετάρ","name:en":"Alor Setar","name:fa":"الور ستار","name:hi":"अलोर सेतार","name:ja":"アロースター","name:ko":"알로르스타르","name:ml":"അലോർ സെറ്റാർ","name:ms":"Alor Setar","name:ru":"Алор-Сетар","name:ta":"அலோர் ஸ்டார்","name:th":"อาโลร์เซอตาร์","name:ur":"الور سیتار","name:zh":"亚罗士打","name:zh-Hans":"亚罗士打","name:zh-Hant":"亞羅士打"},"display_name":"Alor Setar, Kota Setar, Kedah, 05100, Malaysia","address":{"city":"Alor Setar","district":"Kota Setar","state":"Kedah","ISO3166-2-lvl4":"MY-02","postcode":"05100","country":"Malaysia","country_code":"my"},"population":423868,"osm_type":"node","osm_id":295037382,"type":"city","location":[100.3683962,6.1231908],"bbox":[100.2083962,5.9631908,100.5283962,6.2831908]}
{"name":"Ampang Jaya","other_names":{"name:ar":"أمبانق جايا","name:en":"Ampang Jaya","name:ja":"アンパン","name:ms":"Ampang Jaya","name:zh":"安邦再也","alt_name:ar":"أمبانغ جايا;أمبانج جايا;أمفغ جايا;أمفغ","name:ms-Arab":"امڤڠ جاي"},"display_name":"Ampang Jaya, Majlis Perbandaran Ampang Jaya, Hulu Langat, Selangor, Malaysia","address":{"city":"Ampang Jaya","district":"Hulu Langat","state":"Selangor","ISO3166-2-lvl4":"MY-10","country":"Malaysia","country_code":"my"},"population":531904,"osm_type":"node","osm_id":254073391,"type":"city","location":[101.7538639,3.1276087],"bbox":[101.5938639,2.9676087,101.9138639,3.2876087],"border":{"name":"Majlis Perbandaran Ampang Jaya","other_names":{"name:en":"Ampang Jaya Municipal Council","name:ms":"Majlis Perbandaran Ampang Jaya","short_name":"MPAJ","name:ms-Arab":"مجليس ڤربندرن امڤڠ جاي","name:ar":"أمبانق جايا","name:ja":"アンパン","name:zh":"安邦再也","alt_name:ar":"أمبانغ جايا;أمبانج جايا;أمفغ جايا;أمفغ","alt":"Ampang Jaya","alt:en":"Ampang Jaya","alt:ms":"Ampang Jaya","alt:ms-Arab":"امڤڠ جاي"},"display_name":"Majlis Perbandaran Ampang Jaya, Hulu Langat, Selangor, 55300, Malaysia","address":{"city":"Majlis Perbandaran Ampang Jaya","district":"Hulu Langat","state":"Selangor","ISO3166-2-lvl4":"MY-10","postcode":"55300","country":"Malaysia","country_code":"my"},"population":531904,"osm_type":"relation","osm_id":10743276,"type":"administrative","location":[101.7538639,3.1276087],"bbox":[101.7310515,3.0819501,101.8536932,3.2918603]}}
{"name":"Bandar Victoria","other_names":{"name:ar":"بندر لابوان","name:en":"Victoria","name:ms":"Bandar Victoria","name:zh":"纳闽市","alt_name":"Bandar Labuan"},"display_name":"Bandar Victoria, Labuan, 87009, Malaysia","address":{"city":"Bandar Victoria","state":"Labuan","ISO3166-2-lvl4":"MY-15","postcode":"87009","country":"Malaysia","country_code":"my"},"population":95120,"osm_type":"node","osm_id":317714066,"type":"city","location":[115.2433556,5.2769876],"bbox":[115.0833556,5.1169876,115.4033556,5.4369876]}
{"name":"Bandaraya Melaka","other_names":{"name:ar":"ملقا","name:de":"Malakka-Stadt","name:en":"Malacca City","name:es":"Ciudad de Melaka","name:fr":"Malacca-Ville","name:ja":"ムラカ","name:kn":"ಮೆಲಕ್ಕ","name:ms":"Bandaraya Melaka","name:nl":"Malakka-Stad","name:pl":"Malakka-Miasto","name:pt":"Malacca-Cidade","name:ru":"Малакка","name:th":"มะละกา","name:uk":"Малакка","name:zh":"马六甲市","old_name":"Melaka","old_name:en":"Malacca","official_name":"Bandar raya Melaka"},"display_name":"Bandaraya Melaka, Melaka Tengah, Melaka, 75100, Malaysia","address":{"city":"Bandaraya Melaka","district":"Melaka Tengah","state":"Melaka","ISO3166-2-lvl4":"MY-04","postcode":"75100","country":"Malaysia","country_code":"my"},"population":453904,"osm_type":"node","osm_id":321322622,"type":"city","location":[102.2486651,2.1942647],"bbox":[102.0886651,2.0342647,102.4086651,2.3542647]}
{"name":"Banting","other_names":{"name:ar":"بنتينق","name:en":"Banting","name:ms":"Banting","name:zh":"万津","alt_name:ar":"بانتينق;بانتينج"},"display_name":"Banting, Kuala Langat, Selangor, 42700, Malaysia","address":{"city":"Banting","district":"Kuala Langat","state":"Selangor","ISO3166-2-lvl4":"MY-10","postcode":"42700","country":"Malaysia","country_code":"my"},"population":281717,"osm_type":"node","osm_id":197013994,"type":"city","location":[101.4956767,2.8027574],"bbox":[101.3356767,2.6427574,101.6556767,2.9627574]}
{"name":"Batu Pahat","other_names":{"name:ar":"باتو باهات","name:fa":"باتو پاهات","name:ja":"バトゥ・パハッ","name:ko":"바투파핫","name:ms":"Bandar Penggaram","name:ru":"Бату-Пахат","name:ta":"பத்து பகாட்","name:th":"บาตูปาฮัต","name:ur":"باتو پاہت","name:zh":"峇株巴辖","alt_name":"Bandar Penggaram","name:pnb":"ضلع باتو پاہٹ","alt_name:zh":"帆加兰;峇株"},"display_name":"Batu Pahat, Johor, 83000, Malaysia","address":{"city":"Batu Pahat","district":"Batu Pahat","state":"Johor","ISO3166-2-lvl4":"MY-01","postcode":"83000","country":"Malaysia","country_code":"my"},"population":401210,"osm_type":"node","osm_id":254074228,"type":"city","location":[102.9346697,1.8472584],"bbox":[102.7746697,1.6872584,103.0946697,2.0072584],"border":{"name":"Batu Pahat","other_names":{"name:en":"Batu Pahat","name:ms":"Batu Pahat","name:ta":"பத்து பகாட்","name:th":"อำเภอบาตูปาฮัต","name:zh":"峇株巴辖县"},"display_name":"Batu Pahat, Johor, Malaysia","address":{"district":"Batu Pahat","state":"Johor","ISO3166-2-lvl4":"MY-01","country":"Malaysia","country_code":"my"},"osm_type":"relation","osm_id":12306081,"type":"administrative","location":[103,1.933333],"bbox":[102.7741691,1.6222193,103.2540536,2.2005014]}}
{"name":"Bentong","other_names":{"name:ar":"بنتونق","name:en":"Bentong","name:fa":"بنتونگ","name:ms":"Bentong","name:ta":"பெந்தோங்","name:zh":"文冬","alt_name:ar":"بينتونق;بينتونج;بينتونغ","name:zh-Hans":"文冬","name:zh-Hant":"文冬"},"display_name":"Bentong, Pahang, 29700, Malaysia","address":{"city":"Bentong","district":"Bentong","state":"Pahang","ISO3166-2-lvl4":"MY-06","postcode":"29700","country":"Malaysia","country_code":"my"},"population":116799,"osm_type":"node","osm_id":254072818,"type":"city","location":[101.9133469,3.5196355],"bbox":[101.7533469,3.3596355,102.0733469,3.6796355],"border":{"name":"Bentong","other_names":{"name:ar":"بنتونق","name:ms":"Bentong","name:ta":"பெந்தோங்","name:zh":"文冬县","alt_name:ar":"بينتونق;بينتونج;بينتونغ"},"display_name":"Bentong, Pahang, Malaysia","address":{"district":"Bentong","state":"Pahang","ISO3166-2-lvl4":"MY-06","country":"Malaysia","country_code":"my"},"osm_type":"relation","osm_id":10744362,"type":"administrative","location":[102.0172675,3.3624708],"bbox":[101.759733,3.13826,102.342119,3.695868]}}
{"name":"Beriah","other_names":{"name:ms":"Beriah"},"display_name":"Beriah, Kerian, Perak, 34310, Malaysia","address":{"city":"Beriah","district":"Kerian","state":"Perak","ISO3166-2-lvl4":"MY-08","postcode":"34310","country":"Malaysia","country_code":"my"},"osm_type":"relation","osm_id":18220550,"type":"administrative","location":[100.64213201912025,5.0767029],"bbox":[100.5646595,5.0119857,100.720288,5.1417374],"inferred_type":"city"}
{"name":"Betong","other_names":{"name:ar":"بيتونق","name:ms":"Betong","name:zh":"木中","alt_name:ar":"بيتونج"},"display_name":"Betong, Bahagian Betong, Sarawak, Malaysia","address":{"city":"Betong","county":"Betong","region":"Bahagian Betong","state":"Sarawak","ISO3166-2-lvl4":"MY-13","country":"Malaysia","country_code":"my"},"population":55860,"osm_type":"node","osm_id":2442245169,"type":"city","location":[111.5280962,1.4115918],"bbox":[111.3680962,1.2515918,111.6880962,1.5715918],"border":{"name":"Betong","other_names":{"name:ar":"بيتونق","name:ms":"Betong","name:zh":"木中","alt_name:ar":"بيتونج"},"display_name":"Betong, Bahagian Betong, Sarawak, 95600, Malaysia","address":{"county":"Betong","region":"Bahagian Betong","state":"Sarawak","ISO3166-2-lvl4":"MY-13","postcode":"95600","country":"Malaysia","country_code":"my"},"osm_type":"relation","osm_id":15971400,"type":"administrative","location":[111.47478700618396,1.47972915],"bbox":[111.1874951,1.2690543,111.7792487,1.6901046]}}
{"name":"Bintulu","other_names":{"name:ar":"بينتولو","name:en":"Bintulu","name:ja":"ビントゥル","name:ms":"Bintulu","name:zh":"民都鲁"},"display_name":"Bintulu, Bahagian Bintulu, Sarawak, 97000, Malaysia","address":{"city":"Bintulu","county":"Bintulu","region":"Bahagian Bintulu","state":"Sarawak","ISO3166-2-lvl4":"MY-13","postcode":"97000","country":"Malaysia","country_code":"my"},"population":240172,"osm_type":"node","osm_id":304981440,"type":"city","location":[113.0472803,3.1874261],"bbox":[112.8872803,3.0274261,113.2072803,3.3474261],"border":{"name":"Bintulu","other_names":{"name:ar":"بينتولو","name:ms":"Bintulu","name:zh":"民都鲁"},"display_name":"Bintulu, Bahagian Bintulu, Sarawak, Malaysia","address":{"county":"Bintulu","region":"Bahagian Bintulu","state":"Sarawak","ISO3166-2-lvl4":"MY-13","country":"Malaysia","country_code":"my"},"osm_type":"relation","osm_id":15974648,"type":"administrative","location":[113.25790702857483,3.3084511],"bbox":[112.8764319,2.9114795,113.5290501,3.7052198]}}
{"name":"Bukit Mertajam","other_names":{"name:ar":"بوكيت مرتجم","name:fa":"بوکیت میرتاجم","name:hi":"बुकिट मेरताजम","name:ja":"ブキッ・ムルタジャム","name:ko":"부킷 메르타잠","name:ta":"புக்கிட் மெர்தாஜாம்","name:ur":"بوکیت میرتاجام","name:zh":"大山脚","alt_name:ar":"بُوكِت مِرْتَجَم;بوكيت ميرتاجام;بوكيت ميرتجم;بوكيت مرتاجام;بوكيت ميرتاجم","name:zh-Hans":"大山脚","name:zh-Hant":"大山腳"},"display_name":"Bukit Mertajam, Seberang Perai Tengah, Seberang Perai, Pulau Pinang, 14000, Malaysia","address":{"city":"Bukit Mertajam","suburb":"Bukit Mertajam","district":"Seberang Perai Tengah","state_district":"Seberang Perai","state":"Pulau Pinang","ISO3166-2-lvl4":"MY-07","postcode":"14000","country":"Malaysia","country_code":"my"},"population":422985,"osm_type":"node","osm_id":605217805,"type":"city","location":[100.4609867,5.3642519],"bbox":[100.3009867,5.2042519,100.6209867,5.5242519],"border":{"name":"Bukit Mertajam","other_names":{"name:ar":"بوكيت مرتجم","name:ms":"Bukit Mertajam","name:zh":"大山脚","name:fa":"بوکیت میرتاجم","name:hi":"बुकिट मेरताजम","name:ja":"ブキッ・ムルタジャム","name:ko":"부킷 메르타잠","name:ta":"புக்கிட் மெர்தாஜாம்","name:ur":"بوکیت میرتاجام","alt_name:ar":"بُوكِت مِرْتَجَم;بوكيت ميرتاجام;بوكيت ميرتجم;بوكيت مرتاجام;بوكيت ميرتاجم","name:zh-Hans":"大山脚","name:zh-Hant":"大山腳"},"display_name":"Bukit Mertajam, Seberang Perai Tengah, Seberang Perai, Pulau Pinang, Malaysia","address":{"suburb":"Bukit Mertajam","district":"Seberang Perai Tengah","state_district":"Seberang Perai","state":"Pulau Pinang","ISO3166-2-lvl4":"MY-07","country":"Malaysia","country_code":"my"},"population":422985,"osm_type":"relation","osm_id":7013106,"type":"administrative","location":[100.4609867,5.3642519],"bbox":[100.4486328,5.3497798,100.4787487,5.3775009]}}
{"name":"Butterworth","other_names":{"name:en":"Butterworth","name:ja":"バターワース","name:ms":"Butterworth","name:ru":"Баттеруэрт","name:th":"บัตเตอร์เวิร์ธ","name:zh":"北海","name:zh-Hans":"北海","name:zh-Hant":"北海"},"display_name":"Butterworth, Bandar Butterworth, Seberang Perai Utara, Seberang Perai, Pulau Pinang, Malaysia","address":{"city":"Butterworth","district":"Seberang Perai Utara","state_district":"Seberang Perai","state":"Pulau Pinang","ISO3166-2-lvl4":"MY-07","country":"Malaysia","country_code":"my"},"population":339132,"osm_type":"node","osm_id":205623582,"type":"city","location":[100.3697208,5.4082015],"bbox":[100.2097208,5.2482015,100.5297208,5.5682015],"border":{"name":"Bandar Butterworth","other_names":{"name:ms":"Bandar Butterworth","name:zh":"北海","name:en":"Butterworth","name:ja":"バターワース","name:ru":"Баттеруэрт","name:th":"บัตเตอร์เวิร์ธ","name:zh-Hans":"北海","name:zh-Hant":"北海","alt":"Butterworth","alt:ms":"Butterworth"},"display_name":"Bandar Butterworth, Seberang Perai Utara, Seberang Perai, Pulau Pinang, Malaysia","address":{"city":"Bandar Butterworth","district":"Seberang Perai Utara","state_district":"Seberang Perai","state":"Pulau Pinang","ISO3166-2-lvl4":"MY-07","country":"Malaysia","country_code":"my"},"population":339132,"osm_type":"relation","osm_id":9531532,"type":"administrative","location":[100.3697208,5.4082015],"bbox":[100.3631714,5.3836896,100.4047508,5.4459239]}}
{"name":"Chukai","other_names":{"name:ar":"تشوكاي","name:en":"Chukai","name:ja":"チュカイ","name:ms":"Chukai","name:zh":"朱盖","alt_name":"Cukai;Kemaman","alt_name:ar":"تشيوكاي","name:zh-Hans":"朱盖","name:zh-Hant":"朱蓋"},"display_name":"Chukai, Kemaman, Terengganu, 24000, Malaysia","address":{"city":"Chukai","county":"Kemaman","state":"Terengganu","ISO3166-2-lvl4":"MY-11","postcode":"24000","country":"Malaysia","country_code":"my"},"population":215582,"osm_type":"node","osm_id":254074007,"type":"city","location":[103.4225158,4.2193065],"bbox":[103.2625158,4.0593065,103.5825158,4.3793065],"border":{"name":"Kemaman","other_names":{"name:ar":"منطقة كمامان","name:en":"Kemaman District","name:ms":"Kemaman","name:ta":"கேமாமன்","name:th":"อำเภอเกอมามัน","name:ur":"کیمامان ضلع","name:zh":"甘马挽县","official_name":"Daerah Kemaman"},"display_name":"Kemaman, Terengganu, Malaysia","address":{"county":"Kemaman","state":"Terengganu","ISO3166-2-lvl4":"MY-11","country":"Malaysia","country_code":"my"},"osm_type":"relation","osm_id":6663537,"type":"administrative","location":[103.19126066080871,4.2395837499999995],"bbox":[102.891474,3.8812993,103.492316,4.5979208]}}
{"name":"Dungun","other_names":{"name:ar":"دونقون","name:en":"Dungun","name:ms":"Dungun","name:ta":"டுங்குங்","name:zh":"龙运","alt_name":"Kuala Dungun","name:zh-Hans":"龙运","name:zh-Hant":"龍運"},"display_name":"Dungun, Terengganu, Malaysia","address":{"city":"Dungun","state":"Terengganu","ISO3166-2-lvl4":"MY-11","country":"Malaysia","country_code":"my"},"population":158128,"osm_type":"node","osm_id":254073413,"type":"city","location":[103.4184463,4.7643972],"bbox":[103.2584463,4.6043972,103.5784463,4.9243972],"border":{"name":"Dungun","other_names":{"name:ar":"دونقون","name:ms":"Dungun","name:th":"อำเภอดูงุน","name:zh":"龙运县","name:en":"Dungun","name:ta":"டுங்குங்","alt_name":"Kuala Dungun","name:zh-Hans":"龙运","name:zh-Hant":"龍運","alt:zh":"龙运"},"display_name":"Dungun, Terengganu, Malaysia","address":{"city":"Dungun","state":"Terengganu","ISO3166-2-lvl4":"MY-11","country":"Malaysia","country_code":"my"},"population":158128,"osm_type":"relation","osm_id":12583173,"type":"administrative","location":[103.4184463,4.7643972],"bbox":[102.838007,4.4155599,103.6906117,4.956505]}}
{"name":"George Town","other_names":{"name:ar":"جورج تاون","name:en":"George Town","name:ja":"ジョージタウン","name:ru":"Джорджтаун","name:ta":"ஜோர்ஜ் டவுன்","name:th":"จอร์จทาวน์","name:uk":"Джорджтаун","name:zh":"乔治市","old_name":"Tanjung Penaga","alt_name:ar":"جورج تون;جورجتون;جورجتاون;تانجونج بينانج;تانقونق بينانق"},"display_name":"George Town, Pulau Pinang, Malaysia","address":{"city":"George Town","state":"Pulau Pinang","ISO3166-2-lvl4":"MY-07","country":"Malaysia","country_code":"my"},"population":794313,"osm_type":"node","osm_id":205620850,"type":"city","location":[100.3287352,5.4141619],"bbox":[100.1687352,5.2541619,100.4887352,5.5741619],"border":{"name":"George Town","other_names":{"name:ar":"جورج تاون","name:ms":"George Town","name:th":"จอร์จทาวน์","name:zh":"乔治市","name:en":"George Town","name:ja":"ジョージタウン","name:ru":"Джорджтаун","name:ta":"ஜோர்ஜ் டவுன்","name:uk":"Джорджтаун","old_name":"Tanjung Penaga","alt_name:ar":"جورج تون;جورجتون;جورجتاون;تانجونج بينانج;تانقونق بينانق"},"display_name":"George Town, Pulau Pinang, Malaysia","address":{"city":"George Town","state":"Pulau Pinang","ISO3166-2-lvl4":"MY-07","country":"Malaysia","country_code":"my"},"population":794313,"osm_type":"relation","osm_id":11203697,"type":"administrative","location":[100.3287352,5.4141619],"bbox":[100.1749755,5.2249977,100.3466325,5.4829097]}}
{"name":"Hulu Bernam Barat","other_names":{"name:ms":"Hulu Bernam Barat","alt_name":"Ulu Bernam Barat"},"display_name":"Hulu Bernam Barat, Muallim, Perak, Malaysia","address":{"city":"Hulu Bernam Barat","district":"Muallim","state":"Perak","ISO3166-2-lvl4":"MY-08","country":"Malaysia","country_code":"my"},"osm_type":"relation","osm_id":12499931,"type":"administrative","location":[101.28798799902603,3.75673365],"bbox":[101.243875,3.6675429,101.3548328,3.846254],"inferred_type":"city"}
{"name":"Ipoh","other_names":{"name:ar":"إيبوه","name:bn":"ইপোহ","name:en":"Ipoh","name:es":"Ipoh","name:fa":"ایپوه","name:he":"איפוה","name:hi":"इपोह","name:ja":"イポー","name:ko":"이포","name:ml":"ഇപ്പോഹ്","name:my":"အီပိုးမြို့","name:ru":"Ипох","name:ta":"ஈப்போ","name:th":"อีโปะฮ์","name:ur":"ایپو","name:zh":"怡保","name:ko-Hani":"怡保"},"display_name":"Ipoh, Majlis Bandaraya Ipoh, Kinta, Perak, Malaysia","address":{"city":"Ipoh","district":"Kinta","state":"Perak","ISO3166-2-lvl4":"MY-08","country":"Malaysia","country_code":"my"},"population":759952,"osm_type":"node","osm_id":294039311,"type":"city","location":[101.0900236,4.5986817],"bbox":[100.9300236,4.4386817,101.2500236,4.7586817],"border":{"name":"Majlis Bandaraya Ipoh","other_names":{"name:ms":"Majlis Bandaraya Ipoh","name:ar":"إيبوه","name:bn":"ইপোহ","name:en":"Ipoh","name:es":"Ipoh","name:fa":"ایپوه","name:he":"איפוה","name:hi":"इपोह","name:ja":"イポー","name:ko":"이포","name:ml":"ഇപ്പോഹ്","name:my":"အီပိုးမြို့","name:ru":"Ипох","name:ta":"ஈப்போ","name:th":"อีโปะฮ์","name:ur":"ایپو","name:zh":"怡保","name:ko-Hani":"怡保","alt":"Ipoh"},"display_name":"Majlis Bandaraya Ipoh, Kinta, Perak, Malaysia","address":{"city":"Majlis Bandaraya Ipoh","district":"Kinta","state":"Perak","ISO3166-2-lvl4":"MY-08","country":"Malaysia","country_code":"my"},"population":759952,"osm_type":"relation","osm_id":18225051,"type":"administrative","location":[101.0900236,4.5986817],"bbox":[100.9973945,4.5125369,101.3654305,4.7840614]}}
{"name":"Iskandar Puteri","other_names":{"name:ar":"إسكندر بوتري","name:en":"Iskandar Puteri","name:ms":"Iskandar Puteri","name:zh":"依斯干达公主城"},"display_name":"Iskandar Puteri, Johor Bahru, Johor, Malaysia","address":{"city":"Iskandar Puteri","district":"Johor Bahru","state":"Johor","ISO3166-2-lvl4":"MY-01","country":"Malaysia","country_code":"my"},"population":575977,"osm_type":"node","osm_id":1911019511,"type":"city","location":[103.6144729,1.4522711],"bbox":[103.4544729,1.2922711,103.7744729,1.6122711],"border":{"name":"Iskandar Puteri","other_names":{"name:ar":"إسكندر بوتري","name:en":"Iskandar Puteri","name:ms":"Iskandar Puteri","name:zh":"依斯干达公主城"},"display_name":"Iskandar Puteri, Johor Bahru, Johor, Malaysia","address":{"city":"Iskandar Puteri","district":"Johor Bahru","state":"Johor","ISO3166-2-lvl4":"MY-01","country":"Malaysia","country_code":"my"},"population":575977,"osm_type":"relation","osm_id":12337490,"type":"administrative","location":[103.6144729,1.4522711],"bbox":[103.5355497,1.3293552,103.7211009,1.6002945]}}
{"name":"Jasin","other_names":{"name:ar":"جاسين","name:en":"Jasin","name:ms":"Jasin","name:zh":"野新"},"display_name":"Jasin, Melaka, 77000, Malaysia","address":{"city":"Jasin","district":"Jasin","state":"Melaka","ISO3166-2-lvl4":"MY-04","postcode":"77000","country":"Malaysia","country_code":"my"},"population":136457,"osm_type":"node","osm_id":254074465,"type":"city","location":[102.4303382,2.3081946],"bbox":[102.2703382,2.1481946,102.5903382,2.4681946],"border":{"name":"Jasin","other_names":{"name:ar":"جاسين","name:de":"Jasin","name:en":"Jasin District","name:ja":"ジャシン","name:ms":"Jasin","name:zh":"野新县","official_name":"Daerah Jasin"},"display_name":"Jasin, Melaka, Malaysia","address":{"district":"Jasin","state":"Melaka","ISO3166-2-lvl4":"MY-04","country":"Malaysia","country_code":"my"},"osm_type":"relation","osm_id":4463195,"type":"administrative","location":[102.422339,2.3058097],"bbox":[102.3126542,2.0974158,102.5943828,2.4899091]}}
{"name":"Jitra","other_names":{"name:ar":"جيترا","name:ms":"Jitra","name:ta":"ஜித்ரா","name:th":"จีตรา","name:zh":"日得拉"},"display_name":"Jitra, Kubang Pasu, Kedah, 06000, Malaysia","address":{"city":"Jitra","district":"Kubang Pasu","state":"Kedah","ISO3166-2-lvl4":"MY-02","postcode":"06000","country":"Malaysia","country_code":"my"},"population":237759,"osm_type":"node","osm_id":254073898,"type":"city","location":[100.4197465,6.2667849],"bbox":[100.2597465,6.1067849,100.5797465,6.4267849]}
{"name":"Johor Bahru","other_names":{"name:ar":"جوهر بهرو","name:el":"Τζοχόρ Μπάχρου","name:en":"Johor Bahru","name:fa":"جوهور بهرو","name:id":"Johor Bahru","name:ja":"ジョホールバル","name:ko":"조호르바루","name:lt":"Džohor Baru","name:ms":"Johor Bahru","name:ru":"Джохор-Бару","name:ta":"ஜொகூர் பாரு","name:th":"โจโฮร์บะฮ์รู","name:uk":"Джохор-Бару","name:ur":"جوھر بھرو ضلع","name:zh":"新山","short_name":"JB","alt_name:ar":"جوهور بهرو;جوهور بارو;جوهر بحرو;جوهر بحر","name:zh-Hans":"新山","name:zh-Hant":"新山","name:zh-Latn-pinyin":"Xīnshān"},"display_name":"Johor Bahru, Johor, 80730, Malaysia","address":{"city":"Johor Bahru","district":"Johor Bahru","state":"Johor","ISO3166-2-lvl4":"MY-01","postcode":"80730","country":"Malaysia","country_code":"my"},"population":858118,"osm_type":"node","osm_id":254237831,"type":"city","location":[103.7649059,1.4581986],"bbox":[103.6049059,1.2981986,103.9249059,1.6181986],"border":{"name":"Johor Bahru","other_names":{"name:en":"Johor Bahru","name:fa":"منطقه جوهور بهرو","name:ms":"Johor Bahru","name:th":"อำเภอโจโฮร์บะฮ์รู","name:ur":"جوھر بھرو ضلع","name:zh":"新山县"},"display_name":"Johor Bahru, Johor, Malaysia","address":{"district":"Johor Bahru","state":"Johor","ISO3166-2-lvl4":"MY-01","country":"Malaysia","country_code":"my"},"osm_type":"relation","osm_id":12306920,"type":"administrative","location":[103.7205556,1.5366667],"bbox":[103.5355497,1.3293552,104.0233064,1.6718625]}}
{"name":"Kajang","other_names":{"name:en":"Kajang","name:ja":"カジャン","name:ms":"Kajang","name:ta":"காஜாங்","name:zh":"加影","name:ms-Arab":"کاجڠ‎"},"display_name":"Kajang, Majlis Perbandaran Kajang, Hulu Langat, Selangor, Malaysia","address":{"city":"Kajang","district":"Hulu Langat","state":"Selangor","ISO3166-2-lvl4":"MY-10","country":"Malaysia","country_code":"my"},"population":1047356,"osm_type":"node","osm_id":140022516,"type":"city","location":[101.7896595,2.9948437],"bbox":[101.6296595,2.8348437,101.9496595,3.1548437],"border":{"name":"Majlis Perbandaran Kajang","other_names":{"name:en":"Kajang Municipal Council","name:ms":"Majlis Perbandaran Kajang","name:ja":"カジャン","name:ta":"காஜாங்","name:zh":"加影","name:ms-Arab":"کاجڠ‎","alt":"Kajang","alt:en":"Kajang","alt:ms":"Kajang"},"display_name":"Majlis Perbandaran Kajang, Hulu Langat, Selangor, Malaysia","address":{"city":"Majlis Perbandaran Kajang","district":"Hulu Langat","state":"Selangor","ISO3166-2-lvl4":"MY-10","country":"Malaysia","country_code":"my"},"population":1047356,"osm_type":"relation","osm_id":10743339,"type":"administrative","location":[101.7896595,2.9948437],"bbox":[101.7208771,2.8660988,101.9698147,3.2757966]}}
{"name":"Kangar","other_names":{"name:ar":"كانجار","name:ja":"カンガー","name:ms":"Kangar","name:ta":"கங்கார்","name:th":"กางาร์","name:zh":"加央","alt_name:ar":"كانغار"},"display_name":"Kangar, Perlis, 01000, Malaysia","address":{"city":"Kangar","state":"Perlis","ISO3166-2-lvl4":"MY-09","postcode":"01000","country":"Malaysia","country_code":"my"},"population":284853,"osm_type":"node","osm_id":2610748548,"type":"city","location":[100.1944838,6.4389312],"bbox":[100.0344838,6.2789312,100.3544838,6.5989312]}
{"name":"Kapit","other_names":{"name:ar":"كابيت","name:en":"Kapit","name:ms":"Kapit","name:zh":"加帛","name:zh-Hans":"加帛","name:zh-Hant":"加帛"},"display_name":"Kapit, Bahagian Kapit, Sarawak, 96800, Malaysia","address":{"city":"Kapit","county":"Kapit","region":"Bahagian Kapit","state":"Sarawak","ISO3166-2-lvl4":"MY-13","postcode":"96800","country":"Malaysia","country_code":"my"},"population":78648,"osm_type":"node","osm_id":2442172568,"type":"city","location":[112.9356766,2.0139027],"bbox":[112.7756766,1.8539027,113.0956766,2.1739027],"border":{"name":"Kapit","other_names":{"name:ar":"كابيت","name:ms":"Kapit","name:zh":"加帛"},"display_name":"Kapit, Bahagian Kapit, Sarawak, 96800, Malaysia","address":{"county":"Kapit","region":"Bahagian Kapit","state":"Sarawak","ISO3166-2-lvl4":"MY-13","postcode":"96800","country":"Malaysia","country_code":"my"},"osm_type":"relation","osm_id":15974647,"type":"administrative","location":[113.08547597682843,2.17549965],"bbox":[112.6511367,1.7609094,113.7197474,2.5903457]}}
{"name":"Keningau","other_names":{"name:ar":"كنينقاو","name:ja":"クニンガウ","name:ms":"Keningau","name:zh":"根地咬"},"display_name":"Keningau, Bahagian Pedalaman, Sabah, 88900, Malaysia","address":{"city":"Keningau","county":"Keningau","region":"Bahagian Pedalaman","state":"Sabah","ISO3166-2-lvl4":"MY-12","postcode":"88900","country":"Malaysia","country_code":"my"},"population":150927,"osm_type":"node","osm_id":369496714,"type":"city","location":[116.1523241,5.3316751],"bbox":[115.9923241,5.1716751,116.3123241,5.4916751],"border":{"name":"Keningau","other_names":{"name:ar":"كنينقاو","name:ms":"Keningau","name:zh":"根地咬"},"display_name":"Keningau, Bahagian Pedalaman, Sabah, Malaysia","address":{"county":"Keningau","region":"Bahagian Pedalaman","state":"Sabah","ISO3166-2-lvl4":"MY-12","country":"Malaysia","country_code":"my"},"osm_type":"relation","osm_id":15974723,"type":"administrative","location":[116.24631487880697,5.2179477],"bbox":[115.9868714,4.81729,116.6741363,5.623638]}}
{"name":"Klang","other_names":{"name:ar":"كلانق","name:en":"Klang","name:ja":"クラン","name:ms":"Klang","name:ru":"Кланг","name:ta":"கிள்ளான்","name:uk":"Кланг","name:zh":"巴生","alt_name:ar":"كلانغ;كلانج;كلاغ","name:ms-Arab":"کلڠ","official_name:en":"Royal City of Klang","official_name:ms":"Bandaraya Diraja Klang","official_name:zh":"巴生皇城","official_name:ms-Arab":"بندر راي دراج کلڠ"},"display_name":"Klang, Bandaraya Klang, Klang, Selangor, Malaysia","address":{"city":"Klang","district":"Klang","state":"Selangor","ISO3166-2-lvl4":"MY-10","country":"Malaysia","country_code":"my"},"population":902025,"osm_type":"node","osm_id":207539494,"type":"city","location":[101.4447363,3.0448394],"bbox":[101.2847363,2.8848394,101.6047363,3.2048394],"border":[{"name":"Klang","other_names":{"name:ar":"كلانق","name:en":"Klang","name:ja":"クラン","name:ms":"Klang","name:ta":"கிள்ளான்","name:ur":"ضلع کلانگ","name:zh":"巴生县","alt_name:ar":"كلانغ;كلانج;كلاغ","name:ms-Arab":"کلڠ","official_name":"Daerah Klang"},"display_name":"Klang, Selangor, Malaysia","address":{"district":"Klang","state":"Selangor","ISO3166-2-lvl4":"MY-10","country":"Malaysia","country_code":"my"},"osm_type":"relation","osm_id":12391135,"type":"administrative","location":[101.416667,3.083333],"bbox":[101.2168262,2.8848424,101.5723205,3.192016]},{"name":"Bandaraya Klang","other_names":{"name:ar":"كلانق","name:en":"Klang City","name:ms":"Klang City","name:zh":"巴生市","alt_name:ar":"كلانغ;كلانج;كلاغ","name:ms-Arab":"بندارايا كلاڠ","official_name":"Bandaraya Diraja Klang","name:ja":"クラン","name:ru":"Кланг","name:ta":"கிள்ளான்","name:uk":"Кланг","official_name:en":"Royal City of Klang","official_name:zh":"巴生皇城","official_name:ms":"Bandaraya Diraja Klang","official_name:ms-Arab":"بندر راي دراج کلڠ","alt":"Klang","alt:en":"Klang","alt:ms":"Klang","alt:zh":"巴生","alt:ms-Arab":"کلڠ"},"display_name":"Bandaraya Klang, Klang, Selangor, Malaysia","address":{"city":"Bandaraya Klang","district":"Klang","state":"Selangor","ISO3166-2-lvl4":"MY-10","country":"Malaysia","country_code":"my"},"population":902025,"osm_type":"relation","osm_id":10715532,"type":"administrative","location":[101.4447363,3.0448394],"bbox":[101.2168262,2.8848424,101.5240545,3.192016]}]}
{"name":"Kluang","other_names":{"name:fa":"کلانگ","name:ja":"クルアン","name:ko":"클루앙","name:ms":"Kluang","name:ta":"குளுவாங்","name:ur":"کلوانگ","name:zh":"居銮","name:zh-Hans":"居銮","name:zh-Hant":"居鑾"},"display_name":"Kluang, Johor, 86000, Malaysia","address":{"city":"Kluang","district":"Kluang","state":"Johor","ISO3166-2-lvl4":"MY-01","postcode":"86000","country":"Malaysia","country_code":"my"},"population":235715,"osm_type":"node","osm_id":254072975,"type":"city","location":[103.3190922,2.0322421],"bbox":[103.1590922,1.8722421,103.4790922,2.1922421],"border":{"name":"Kluang","other_names":{"name:en":"Kluang","name:ms":"Kluang","name:ta":"குளுவாங்","name:zh":"居銮县","official_name":"Daerah Kluang","official_name:en":"Kluang District"},"display_name":"Kluang, Johor, Malaysia","address":{"district":"Kluang","state":"Johor","ISO3166-2-lvl4":"MY-01","country":"Malaysia","country_code":"my"},"osm_type":"relation","osm_id":12306916,"type":"administrative","location":[103.3190766,2.0323472],"bbox":[103.1065176,1.70962,103.6417843,2.3932378]}}
{"name":"Kota Bharu","other_names":{"name:ar":"كوتا بحرو","name:en":"Kota Bharu","name:ja":"コタバル","name:ru":"Кота-Бару","name:ta":"கோத்தா பாரு","name:th":"โกตาบารู","name:uk":"Кота-Бару","name:zh":"哥打峇鲁","alt_name:ar":"كوتا بهرو;كوتا بهارو"},"display_name":"Kota Bharu, Kelantan, Malaysia","address":{"city":"Kota Bharu","district":"Kota Bharu","state":"Kelantan","ISO3166-2-lvl4":"MY-03","country":"Malaysia","country_code":"my"},"population":396193,"osm_type":"node","osm_id":207539450,"type":"city","location":[102.2378065,6.1247911],"bbox":[102.0778065,5.9647911,102.3978065,6.2847911],"border":[{"name":"Kota Bharu","other_names":{"name:ar":"كوتا بحرو","name:ms":"Kota Bharu","name:th":"อำเภอโกตาบารู","name:zh":"哥打峇鲁县","alt_name:ar":"كوتا بهرو;كوتا بهارو","name:en":"Kota Bharu"},"display_name":"Kota Bharu, Kelantan, Malaysia","address":{"district":"Kota Bharu","state":"Kelantan","ISO3166-2-lvl4":"MY-03","country":"Malaysia","country_code":"my"},"osm_type":"relation","osm_id":6311590,"type":"administrative","location":[102.2588546,6.0389924],"bbox":[102.1444295,5.8870974,102.3477427,6.2230491]},{"name":"Kota Bharu","other_names":{"name:ar":"كوتا بحرو","name:en":"Kota Bharu","name:ms":"Kota Bharu","name:th":"โกตาบารู","alt_name:ar":"كوتا بهرو;كوتا بهارو","name:ja":"コタバル","name:ru":"Кота-Бару","name:ta":"கோத்தா பாரு","name:uk":"Кота-Бару","name:zh":"哥打峇鲁"},"display_name":"Kota Bharu, Kelantan, Malaysia","address":{"city":"Kota Bharu","district":"Kota Bharu","state":"Kelantan","ISO3166-2-lvl4":"MY-03","country":"Malaysia","country_code":"my"},"population":396193,"osm_type":"relation","osm_id":18811907,"type":"administrative","location":[102.2378065,6.1247911],"bbox":[102.2236472,6.103279,102.2620061,6.151198]}]}
{"name":"Kota Kinabalu","other_names":{"name:ar":"كوتا كينابالو","name:en":"Kota Kinabalu","name:ja":"コタキナバル","name:kn":"ಕೊತ ಕಿನಾಬಲು","name:ko":"코타키나발루（야비）","name:ms":"Kota Kinabalu","name:ru":"Кота-Кинабалу","name:ta":"கோத்தா கினபாலு","name:th":"โกตากีนาบาลู","name:tr":"Kota Kinabalu","name:uk":"Кота-Кінабалу","name:vi":"Kota Kinabalu","name:zh":"亚庇","old_name":"Jesselton","short_name":"KK","alt_name:zh":"哥打京那巴鲁"},"display_name":"Kota Kinabalu, Bahagian Pantai Barat, Sabah, 88000, Malaysia","address":{"city":"Kota Kinabalu","district":"Kota Kinabalu","state_district":"Bahagian Pantai Barat","state":"Sabah","ISO3166-2-lvl4":"MY-12","postcode":"88000","country":"Malaysia","country_code":"my"},"population":500425,"osm_type":"node","osm_id":303545829,"type":"city","location":[116.0728988,5.9780066],"bbox":[115.9128988,5.8180066,116.2328988,6.1380066],"border":{"name":"Kota Kinabalu","other_names":{"name:ar":"كوتا كينابالو","name:ms":"Kota Kinabalu","name:zh":"亚庇","alt_name:zh":"哥打京那巴鲁","alt":"Kota Kinabalu District","alt:ms":"Daerah Kota Kinabalu"},"display_name":"Kota Kinabalu, Bahagian Pantai Barat, Sabah, Malaysia","address":{"district":"Kota Kinabalu","state_district":"Bahagian Pantai Barat","state":"Sabah","ISO3166-2-lvl4":"MY-12","country":"Malaysia","country_code":"my"},"osm_type":"relation","osm_id":15975929,"type":"administrative","location":[116.144027,5.9500468],"bbox":[115.9916031,5.8577685,116.283245,6.1390774]}}
{"name":"Kota Samarahan","other_names":{"name:ar":"كوتا سمراهان","name:en":"Kota Samarahan","name:ms":"Kota Samarahan","name:zh":"哥打三马拉汉","old_name":"Muara Tuang","alt_name:ar":"كوتا سامراهان"},"display_name":"Kota Samarahan, Samarahan, Bahagian Samarahan, Sarawak, Malaysia","address":{"city":"Kota Samarahan","county":"Samarahan","region":"Bahagian Samarahan","state":"Sarawak","ISO3166-2-lvl4":"MY-13","country":"Malaysia","country_code":"my"},"population":161890,"osm_type":"node","osm_id":2700998611,"type":"city","location":[110.4954562,1.4596157],"bbox":[110.3354562,1.2996157,110.6554562,1.6196157]}
{"name":"Kuala Kangsar","other_names":{"name:ar":"كوالا كنقسر","name:fa":"کوالا کنگسر","name:ko":"쿠알라캉사르","name:ms":"Kuala Kangsar","name:ta":"கோலாகங்சார்","name:th":"กัวลากังซาร์","name:zh":"江沙","alt_name:ar":"كوالا كنغسر;كوالا كنجسر;كوالا كنقسار;كوالا كنغسار;كوالا كنجسار","name:ms-Arab":"كوالا كڠسر","official_name":"Bandar Diraja Kuala Kangsar"},"display_name":"Kuala Kangsar, Perak, 33000, Malaysia","address":{"city":"Kuala Kangsar","district":"Kuala Kangsar","state":"Perak","ISO3166-2-lvl4":"MY-08","postcode":"33000","country":"Malaysia","country_code":"my"},"population":125999,"osm_type":"node","osm_id":254072894,"type":"city","location":[100.9408776,4.7720713],"bbox":[100.7808776,4.6120713,101.1008776,4.9320713],"border":{"name":"Kuala Kangsar","other_names":{"name:ar":"كوالا كنقسر","name:ms":"Kuala Kangsar","name:ta":"கோலாகங்சார்","name:zh":"江沙县","alt_name:ar":"كوالا كنغسر;كوالا كنجسر;كوالا كنقسار;كوالا كنغسار;كوالا كنجسار","name:ms-Arab":"كوالا كڠسر"},"display_name":"Kuala Kangsar, Perak, Malaysia","address":{"district":"Kuala Kangsar","state":"Perak","ISO3166-2-lvl4":"MY-08","country":"Malaysia","country_code":"my"},"osm_type":"relation","osm_id":12508550,"type":"administrative","location":[100.9166667,4.75],"bbox":[100.7387608,4.5220904,101.4551707,5.0755281]}}
{"name":"Kuala Kubu Bharu","other_names":{"name:ar":"كوالا كوبو بهارو","name:en":"Kuala Kubu Bharu","name:ms":"Kuala Kubu Bharu","name:zh":"新古毛","name:ms-Arab":"كوالا كوبو بهارو","name:zh-Hans":"新古毛","name:zh-Hant":"新古毛"},"display_name":"Kuala Kubu Bharu, Hulu Selangor, Selangor, 44000, Malaysia","address":{"city":"Kuala Kubu Bharu","district":"Hulu Selangor","state":"Selangor","ISO3166-2-lvl4":"MY-10","postcode":"44000","country":"Malaysia","country_code":"my"},"population":241932,"osm_type":"node","osm_id":254073428,"type":"city","location":[101.6607105,3.5632608],"bbox":[101.5007105,3.4032608,101.8207105,3.7232608]}
{"name":"Kuala Lumpur","other_names":{"name:am":"ኩዋላ ሉምፑር","name:ar":"كوالا لمبور","name:be":"Куала-Лумпур","name:bg":"Куала Лумпур","name:bn":"কুয়ালালামপুর","name:bo":"ཁལ་ལུང་ཕུ།","name:ca":"Kuala Lumpur","name:de":"Kuala Lumpur","name:el":"Κουάλα Λουμπούρ","name:en":"Kuala Lumpur","name:eo":"Kuala-Lumpuro","name:es":"Kuala Lumpur","name:fa":"کوالالامپور","name:fr":"Kuala Lumpur","name:he":"קואלה לומפור","name:hi":"कुआ लालम्पुर","name:ht":"Kouala Loumpou","name:hu":"Kuala Lumpur","name:hy":"Կուալա Լումպուր","name:is":"Kúala Lúmpúr","name:ja":"クアラルンプール","name:ka":"კუალა-ლუმპური","name:kk":"Куала Лумпур","name:kn":"ಕ್ವಾಲ ಲುಂಪುರ್","name:ko":"쿠알라룸푸르","name:lt":"Kvala Lumpūras","name:lv":"Kualalumpūra","name:mk":"Куала Лумпур","name:ml":"കോലാലമ്പൂർ","name:mn":"Куала Лумпур","name:mr":"क्वालालंपूर","name:ms":"Kuala Lumpur","name:my":"ကွာလာလမ်ပူမြို့","name:ne":"क्वालालम्पुर","name:nl":"Kuala Lumpur","name:oc":"Kuala Lumpur","name:os":"Куалæ-Лумпур","name:pl":"Kuala Lumpur","name:ps":"کوالالامپور","name:pt":"Kuala Lumpur","name:ru":"Куала-Лумпур","name:sr":"Куала Лумпур","name:sv":"Kuala Lumpur","name:ta":"கோலாலம்பூர்","name:th":"กัวลาลัมเปอร์","name:ug":"كۇئالالۇمپۇر","name:uk":"Куала-Лумпур","name:ur":"کوالالمپور","name:zh":"吉隆坡","name:arz":"كوالا لامبور","name:ckb":"کوالالومپور","name:nan":"Kuala Lumpur","name:pnb":"کوالا لمپور","name:sah":"Куала Лумпур","name:yue":"吉隆坡","name:pt-PT":"Kuala Lumpur","short_name":"KL","alt_name:ar":"كوالالمبور","name:ms-Arab":"ولايه ڤرسكوتوان كوالا لومڤور","name:zh-Hans":"吉隆坡","name:zh-Hant":"吉隆坡","name:be-tarask":"Куала Лумпур","name:zh-Latn-pinyin":"Jílóngpō"},"display_name":"Kuala Lumpur, 50100, Malaysia","address":{"city":"Kuala Lumpur","state":"Kuala Lumpur","ISO3166-2-lvl4":"MY-14","postcode":"50100","country":"Malaysia","country_code":"my"},"population":1982112,"osm_type":"node","osm_id":1889910974,"type":"city","location":[101.6942371,3.1516964],"bbox":[101.5342371,2.9916964,101.8542371,3.3116964]}
{"name":"Kuala Selangor","other_names":{"name:ar":"كوالا سلانقور","name:ms":"Kuala Selangor","name:zh":"瓜拉雪兰莪","alt_name:ar":"كوالا سلانجور;كوالا سيلانقور;كوالا سيلانجور"},"display_name":"Kuala Selangor, Selangor, 45000, Malaysia","address":{"city":"Kuala Selangor","district":"Kuala Selangor","state":"Selangor","ISO3166-2-lvl4":"MY-10","postcode":"45000","country":"Malaysia","country_code":"my"},"population":281717,"osm_type":"node","osm_id":4745820722,"type":"city","location":[101.2513058,3.3314558],"bbox":[101.0913058,3.1714558,101.4113058,3.4914558],"border":{"name":"Kuala Selangor","other_names":{"name:ar":"كوالا سلانقور","name:ms":"Kuala Selangor","name:zh":"瓜拉雪兰莪县","alt_name:ar":"كوالا سلانجور;كوالا سيلانقور;كوالا سيلانجور","name:ms-Arab":"کوالا سلاڠور‎","official_name":"Daerah Kuala Selangor"},"display_name":"Kuala Selangor, Selangor, Malaysia","address":{"district":"Kuala Selangor","state":"Selangor","ISO3166-2-lvl4":"MY-10","country":"Malaysia","country_code":"my"},"osm_type":"relation","osm_id":10714137,"type":"administrative","location":[101.3455503,3.3621022],"bbox":[101.10081,3.1591089,101.4929757,3.5988885]}}
{"name":"Kuala Terengganu","other_names":{"name:ar":"كوالا ترنقانو","name:en":"Kuala Terengganu","name:ja":"クアラトレンガヌ","name:ms":"Kuala Terengganu","name:ru":"Куала-Тренгану","name:ta":"கோலா திரங்கானு","name:th":"กัวลาเตอเริงกานู","name:zh":"瓜拉登嘉楼","alt_name:ar":"كوالا ترنجانو;كوالا ترنغانو","name:ms-Arab":"كوالا ترڠڬانو"},"display_name":"Kuala Terengganu, Terengganu, 20300, Malaysia","address":{"city":"Kuala Terengganu","county":"Kuala Terengganu","state":"Terengganu","ISO3166-2-lvl4":"MY-11","postcode":"20300","country":"Malaysia","country_code":"my"},"population":375424,"osm_type":"node","osm_id":369488213,"type":"city","location":[103.1383265,5.3296461],"bbox":[102.9783265,5.1696461,103.2983265,5.4896461],"border":{"name":"Kuala Terengganu","other_names":{"name:ar":"كوالا ترنقانو","name:ms":"Kuala Terengganu","name:ta":"கோலா திரங்கானு","name:th":"อำเภอกัวลาเตอเริงกานู","name:zh":"瓜拉登嘉楼县"},"display_name":"Kuala Terengganu, Terengganu, Malaysia","address":{"county":"Kuala Terengganu","state":"Terengganu","ISO3166-2-lvl4":"MY-11","country":"Malaysia","country_code":"my"},"osm_type":"relation","osm_id":12570056,"type":"administrative","location":[103.08378111026474,5.2797084000000005],"bbox":[102.9780929,5.2093521,103.1864907,5.3501371]}}
{"name":"Kuantan","other_names":{"name:ar":"كوانتان","name:en":"Kuantan","name:ja":"クアンタン","name:ru":"Куантан","name:ta":"குவாந்தான்","name:th":"กวนตัน","name:uk":"Куантан","name:zh":"关丹"},"display_name":"Kuantan, Pahang, Malaysia","address":{"city":"Kuantan","district":"Kuantan","state":"Pahang","ISO3166-2-lvl4":"MY-06","country":"Malaysia","country_code":"my"},"population":548014,"osm_type":"node","osm_id":698789558,"type":"city","location":[103.32199,3.7985637],"bbox":[103.16199,3.6385637,103.48199,3.9585637],"border":[{"name":"Kuantan","other_names":{"name:en":"Kuantan","name:ja":"クアンタン","name:ms":"Kuantan","name:ru":"Куантан","name:ta":"குவாந்தான்","name:th":"กวนตัน","name:uk":"Куантан","name:zh":"关丹","name:zh-Hans":"关丹","name:zh-Hant":"關丹","name:ar":"كوانتان"},"display_name":"Kuantan, Pahang, Malaysia","address":{"city":"Kuantan","district":"Kuantan","state":"Pahang","ISO3166-2-lvl4":"MY-06","country":"Malaysia","country_code":"my"},"population":548014,"osm_type":"relation","osm_id":11763121,"type":"city","location":[103.32199,3.7985637],"bbox":[103.2983943,3.7827658,103.3724273,3.8466265]},{"name":"Kuantan","other_names":{"name:ar":"كوانتان","name:ms":"Kuantan","name:ta":"குவாந்தான்","name:zh":"关丹县","official_name":"Daerah Kuantan"},"display_name":"Kuantan, Pahang, Malaysia","address":{"district":"Kuantan","state":"Pahang","ISO3166-2-lvl4":"MY-06","country":"Malaysia","country_code":"my"},"osm_type":"relation","osm_id":10744343,"type":"administrative","location":[103.039502,3.8560694],"bbox":[102.707936,3.59841,103.4466646,4.194194]}]}
{"name":"Kuching","other_names":{"name:ar":"كوشينق","name:de":"Kuching","name:en":"Kuching","name:es":"Kuching","name:fr":"Kuching","name:hi":"कुचिंग","name:id":"Kuching","name:it":"Kuching","name:ja":"クチン","name:ko":"쿠칭","name:ms":"Kuching","name:my":"ကူချင်းမြို့","name:ru":"Кучинг","name:th":"กูชิง","name:uk":"Кучинґ","name:vi":"Kuching","name:zh":"古晋","alt_name:ar":"كوتشينج;كوشنج;كوتشينق;كوشنق"},"display_name":"Kuching, Bahagian Kuching, Sarawak, 93000, Malaysia","address":{"city":"Kuching","county":"Kuching","region":"Bahagian Kuching","state":"Sarawak","ISO3166-2-lvl4":"MY-13","postcode":"93000","country":"Malaysia","country_code":"my"},"population":349147,"osm_type":"node","osm_id":4834272899,"type":"city","location":[110.345397,1.5597561],"bbox":[110.185397,1.3997561,110.505397,1.7197561],"border":{"name":"Kuching","other_names":{"name:ar":"كوشينق","name:ms":"Kuching","name:zh":"古晋","alt_name:ar":"كوتشينج;كوشنج;كوتشينق;كوشنق"},"display_name":"Kuching, Bahagian Kuching, Sarawak, Malaysia","address":{"county":"Kuching","region":"Bahagian Kuching","state":"Sarawak","ISO3166-2-lvl4":"MY-13","country":"Malaysia","country_code":"my"},"osm_type":"relation","osm_id":15971408,"type":"administrative","location":[110.30237533664601,1.4250354500000002],"bbox":[110.1144393,1.0445241,110.5372652,1.8061672]}}
{"name":"Kudat","other_names":{"name:ar":"كودات","name:ms":"Kudat","name:zh":"古达"},"display_name":"Kudat, Bahagian Kudat, Sabah, 89058, Malaysia","address":{"city":"Kudat","county":"Kudat","region":"Bahagian Kudat","state":"Sabah","ISO3166-2-lvl4":"MY-12","postcode":"89058","country":"Malaysia","country_code":"my"},"population":86410,"osm_type":"node","osm_id":369497486,"type":"city","location":[116.8494435,6.8824598],"bbox":[116.6894435,6.7224598,117.0094435,7.0424598],"border":{"name":"Kudat","other_names":{"name:ar":"كودات","name:ms":"Kudat","name:zh":"古达"},"display_name":"Kudat, Bahagian Kudat, Sabah, Malaysia","address":{"county":"Kudat","region":"Bahagian Kudat","state":"Sabah","ISO3166-2-lvl4":"MY-12","country":"Malaysia","country_code":"my"},"osm_type":"relation","osm_id":15977039,"type":"administrative","location":[117.17115617369186,7.23164545],"bbox":[116.5978816,6.6439951,117.4819547,7.3793847]}}
{"name":"Kulai","other_names":{"name:ar":"كولاي","name:en":"Kulai","name:fa":"کولای","name:ms":"Kulai","name:ta":"கூலாய்","name:th":"กูไล","name:ur":"کولائی","name:zh":"古来"},"display_name":"Kulai, Johor, 81000, Malaysia","address":{"city":"Kulai","district":"Kulai","state":"Johor","ISO3166-2-lvl4":"MY-01","postcode":"81000","country":"Malaysia","country_code":"my"},"population":294156,"osm_type":"node","osm_id":254073418,"type":"city","location":[103.605879,1.656937],"bbox":[103.445879,1.496937,103.765879,1.816937],"border":{"name":"Kulai","other_names":{"name:en":"Kulai","name:ms":"Kulai","name:ta":"கூலாய்","name:th":"อำเภอกูไล","name:zh":"古来县","alt_name":"Kulaijaya","alt_name:zh":"古来再也","official_name":"Daerah Kulai","official_name:en":"Kulai District"},"display_name":"Kulai, Johor, Malaysia","address":{"district":"Kulai","state":"Johor","ISO3166-2-lvl4":"MY-01","country":"Malaysia","country_code":"my"},"osm_type":"relation","osm_id":12306919,"type":"administrative","location":[103.6,1.6666667],"bbox":[103.3629132,1.5231221,103.7382276,1.8053874]}}
{"name":"Kulim","other_names":{"name:ar":"كوليم","name:ja":"クリム","name:ms":"Kulim","name:ta":"கூலிம்","name:zh":"居林","alt_name:ar":"كولم"},"display_name":"Kulim, Kedah, 09000, Malaysia","address":{"city":"Kulim","district":"Kulim","state":"Kedah","ISO3166-2-lvl4":"MY-02","postcode":"09000","country":"Malaysia","country_code":"my"},"population":319056,"osm_type":"node","osm_id":648755642,"type":"city","location":[100.5525705,5.3663769],"bbox":[100.3925705,5.2063769,100.7125705,5.5263769],"border":{"name":"Kulim","other_names":{"name:ar":"كوليم","name:ms":"Kulim","name:ta":"கூலிம்","name:ur":"کولیم ضلع","name:zh":"居林县","alt_name:ar":"كولم","official_name":"Daerah Kulim"},"display_name":"Kulim, Kedah, Malaysia","address":{"district":"Kulim","state":"Kedah","ISO3166-2-lvl4":"MY-02","country":"Malaysia","country_code":"my"},"osm_type":"relation","osm_id":6166150,"type":"administrative","location":[100.6172071,5.3707128],"bbox":[100.5241038,5.2390238,100.866398,5.5667169]}}
{"name":"Limbang","other_names":{"name:ar":"ليمبانق","name:en":"Limbang","name:ja":"リンバン","name:ms":"Limbang","name:zh":"林梦","alt_name:ar":"ليمبانج"},"display_name":"Limbang, Bahagian Limbang, Sarawak, 98708, Malaysia","address":{"city":"Limbang","county":"Limbang","region":"Bahagian Limbang","state":"Sarawak","ISO3166-2-lvl4":"MY-13","postcode":"98708","country":"Malaysia","country_code":"my"},"population":45061,"osm_type":"node","osm_id":369495900,"type":"city","location":[115.0093036,4.7534355],"bbox":[114.8493036,4.5934355,115.1693036,4.9134355],"border":{"name":"Limbang","other_names":{"name:ar":"ليمبانق","name:ms":"Limbang","name:zh":"林梦","alt_name:ar":"ليمبانج"},"display_name":"Limbang, Bahagian Limbang, Sarawak, Malaysia","address":{"county":"Limbang","region":"Bahagian Limbang","state":"Sarawak","ISO3166-2-lvl4":"MY-13","country":"Malaysia","country_code":"my"},"osm_type":"relation","osm_id":15974638,"type":"administrative","location":[115.06024165665087,4.3519985],"bbox":[114.76964,3.8080321,115.5176353,4.8966082]}}
{"name":"Miri","other_names":{"name:ar":"ميري","name:ms":"Miri","name:zh":"美里"},"display_name":"Miri, Bahagian Miri, Sarawak, 98000, Malaysia","address":{"city":"Miri","county":"Miri","region":"Bahagian Miri","state":"Sarawak","ISO3166-2-lvl4":"MY-13","postcode":"98000","country":"Malaysia","country_code":"my"},"population":248877,"osm_type":"node","osm_id":3696517558,"type":"city","location":[113.9880199,4.3940102],"bbox":[113.8280199,4.2340102,114.1480199,4.5540102],"border":{"name":"Miri","other_names":{"name:ar":"ميري","name:ms":"Miri","name:zh":"美里"},"display_name":"Miri, Bahagian Miri, Sarawak, Malaysia","address":{"county":"Miri","region":"Bahagian Miri","state":"Sarawak","ISO3166-2-lvl4":"MY-13","country":"Malaysia","country_code":"my"},"osm_type":"relation","osm_id":15974642,"type":"administrative","location":[115.3647030381035,3.527697],"bbox":[113.8024297,2.973734,115.65222,4.5971455]}}
{"name":"Muar","other_names":{"name:ar":"موار","name:fa":"موار","name:hi":"मुआर","name:ja":"ムアル","name:ko":"무아르","name:ms":"Bandar Maharani","name:ta":"மூவார்","name:th":"มัวร์","name:zh":"麻坡","alt_name":"Bandar Maharani","alt_name:zh":"香妃城"},"display_name":"Muar, Johor, 84000, Malaysia","address":{"city":"Muar","district":"Muar","state":"Johor","ISO3166-2-lvl4":"MY-01","postcode":"84000","country":"Malaysia","country_code":"my"},"population":314776,"osm_type":"node","osm_id":254072813,"type":"city","location":[102.5658852,2.0425046],"bbox":[102.4058852,1.8825046,102.7258852,2.2025046],"border":{"name":"Muar","other_names":{"name:ar":"مديرية موار","name:en":"Muar","name:fa":"دایره موار","name:ms":"Muar","name:ta":"மூவார்","name:th":"อำเภอมัวร์","name:zh":"麻坡县","alt:ar":"موار"},"display_name":"Muar, Johor, Malaysia","address":{"district":"Muar","state":"Johor","ISO3166-2-lvl4":"MY-01","country":"Malaysia","country_code":"my"},"osm_type":"relation","osm_id":12306080,"type":"administrative","location":[102.5666667,2.05],"bbox":[102.5410651,1.8525043,103.0266951,2.4121596]}}
{"name":"Mukah","other_names":{"name:ar":"موكه","name:en":"Mukah","name:ms":"Mukah","name:ru":"Муках","name:uk":"Муках","name:zh":"沐胶","alt_name:ar":"موكاه;مكاه","name:zh-Hans":"沐胶","name:zh-Hant":"沐膠"},"display_name":"Mukah, Bahagian Mukah, Sarawak, 96400, Malaysia","address":{"city":"Mukah","county":"Mukah","region":"Bahagian Mukah","state":"Sarawak","ISO3166-2-lvl4":"MY-13","postcode":"96400","country":"Malaysia","country_code":"my"},"population":63422,"osm_type":"node","osm_id":2463526604,"type":"city","location":[112.0913318,2.8929774],"bbox":[111.9313318,2.7329774,112.2513318,3.0529774],"border":{"name":"Mukah","other_names":{"name:ar":"موكه","name:ms":"Mukah","name:zh":"沐胶","alt_name:ar":"موكاه;مكاه"},"display_name":"Mukah, Bahagian Mukah, Sarawak, 96400, Malaysia","address":{"county":"Mukah","region":"Bahagian Mukah","state":"Sarawak","ISO3166-2-lvl4":"MY-13","postcode":"96400","country":"Malaysia","country_code":"my"},"osm_type":"relation","osm_id":15974651,"type":"administrative","location":[112.29120603563291,2.8118528],"bbox":[111.9703817,2.555994,112.723825,3.0643084]}}
{"name":"Mukim 16","other_names":{"name:ms":"Mukim 16","alt_name":"Mukim 16, Seberang Perai Selatan;Mukim Enam Belas"},"display_name":"Mukim 16, Seberang Perai Selatan, Pulau Pinang, Malaysia","address":{"city":"Mukim 16","district":"Seberang Perai Selatan","state":"Pulau Pinang","ISO3166-2-lvl4":"MY-07","country":"Malaysia","country_code":"my"},"osm_type":"relation","osm_id":12226928,"type":"administrative","location":[100.38816401127798,5.26300215],"bbox":[100.3840146,5.2564741,100.3922809,5.2861581],"inferred_type":"city"}
{"name":"Pasir Gudang","other_names":{"name:en":"Pasir Gudang","name:ms":"Pasir Gudang","name:zh":"巴西古当"},"display_name":"Pasir Gudang, Johor Bahru, Johor, 81700, Malaysia","address":{"city":"Pasir Gudang","district":"Johor Bahru","state":"Johor","ISO3166-2-lvl4":"MY-01","postcode":"81700","country":"Malaysia","country_code":"my"},"population":312437,"osm_type":"node","osm_id":5317908677,"type":"city","location":[103.9207048,1.4953437],"bbox":[103.7607048,1.3353437,104.0807048,1.6553437]}
{"name":"Pekan","other_names":{"name:ar":"بكان","name:en":"Pekan","name:fa":"پکان","name:hi":"पेकन","name:ms":"Pekan","name:ta":"பெக்கான்","name:th":"เปอกัน","name:zh":"北根"},"display_name":"Pekan, Pahang, 26600, Malaysia","address":{"city":"Pekan","district":"Pekan","state":"Pahang","ISO3166-2-lvl4":"MY-06","postcode":"26600","country":"Malaysia","country_code":"my"},"population":121158,"osm_type":"node","osm_id":254074193,"type":"city","location":[103.390396,3.4895509],"bbox":[103.230396,3.3295509,103.550396,3.6495509],"border":{"name":"Pekan","other_names":{"name:ar":"بكان","name:ms":"Pekan","name:ta":"பெக்கான்","name:zh":"北根县"},"display_name":"Pekan, Pahang, Malaysia","address":{"district":"Pekan","state":"Pahang","ISO3166-2-lvl4":"MY-06","country":"Malaysia","country_code":"my"},"osm_type":"relation","osm_id":10744375,"type":"administrative","location":[103.2096122,3.3781961],"bbox":[102.772203,2.947529,103.4744632,3.658613]}}
{"name":"Petaling Jaya","other_names":{"name:ar":"بيتالينق جايا","name:ja":"プタリン・ジャヤ","name:ms":"Petaling Jaya","name:my":"ပီတလင်း ဂျာယားမြို့","name:ta":"பெடாலிங் ஜெயா","name:th":"เปอตาลิงจายา","name:zh":"八打灵再也","alt_name:ar":"بيتالينغ جايا;بيتالينج جايا","name:ms-Arab":"ڤتاليڠ جاي"},"display_name":"Petaling Jaya, Petaling, Selangor, Malaysia","address":{"city":"Petaling Jaya","municipality":"Petaling Jaya","district":"Petaling","state":"Selangor","ISO3166-2-lvl4":"MY-10","country":"Malaysia","country_code":"my"},"population":771687,"osm_type":"node","osm_id":254073469,"type":"city","location":[101.6454202,3.0988792],"bbox":[101.4854202,2.9388792,101.8054202,3.2588792],"border":{"name":"Petaling Jaya","other_names":{"name:ar":"بيتالينق جايا","name:ms":"Petaling Jaya","name:zh":"八打灵再也","short_name":"PJ","alt_name:ar":"بيتالينغ جايا;بيتالينج جايا","name:ms-Arab":"ڤتاليڠ جاي","name:ja":"プタリン・ジャヤ","name:my":"ပီတလင်း ဂျာယားမြို့","name:ta":"பெடாலிங் ஜெயா","name:th":"เปอตาลิงจายา"},"display_name":"Petaling Jaya, Petaling, Selangor, Malaysia","address":{"municipality":"Petaling Jaya","district":"Petaling","state":"Selangor","ISO3166-2-lvl4":"MY-10","country":"Malaysia","country_code":"my"},"population":771687,"osm_type":"relation","osm_id":8347386,"type":"administrative","location":[101.6454202,3.0988792],"bbox":[101.5515232,3.069699,101.6636942,3.2087684]}}
{"name":"Pontian","other_names":{"name:ms":"Pontian","name:zh":"笨珍"},"display_name":"Pontian, Johor, 82000, Malaysia","address":{"city":"Pontian","district":"Pontian","state":"Johor","ISO3166-2-lvl4":"MY-01","postcode":"82000","country":"Malaysia","country_code":"my"},"population":173318,"osm_type":"node","osm_id":254074259,"type":"city","location":[103.3884296,1.4867387],"bbox":[103.2284296,1.3267387,103.5484296,1.6467387],"border":{"name":"Pontian","other_names":{"name:en":"Pontian","name:fa":"پونتیان کچیل","name:ms":"Pontian","name:ta":"பொந்தியான்","name:zh":"笨珍县"},"display_name":"Pontian, Johor, Malaysia","address":{"district":"Pontian","state":"Johor","ISO3166-2-lvl4":"MY-01","country":"Malaysia","country_code":"my"},"osm_type":"relation","osm_id":12306918,"type":"administrative","location":[103.5,1.5],"bbox":[103.1869841,1.2656905,103.5803962,1.766944]}}
{"name":"Port Dickson","other_names":{"name:ar":"بورت ديكسون","name:en":"Port Dickson","name:ja":"ポート・ディクソン","name:ms":"Port Dickson","name:zh":"波德申","short_name":"PD","alt_name:ar":"بورت دكسون","name:zh-Hans":"波德申","name:zh-Hant":"波德申"},"display_name":"Port Dickson, Negeri Sembilan, 71000, Malaysia","address":{"city":"Port Dickson","district":"Port Dickson","state":"Negeri Sembilan","ISO3166-2-lvl4":"MY-05","postcode":"71000","country":"Malaysia","country_code":"my"},"population":113738,"osm_type":"node","osm_id":254073634,"type":"city","location":[101.8106156,2.5262491],"bbox":[101.6506156,2.3662491,101.9706156,2.6862491],"border":{"name":"Port Dickson","other_names":{"name:ar":"بورت ديكسون","name:ms":"Port Dickson","name:zh":"波德申县","alt_name:ar":"بورت دكسون","official_name":"Daerah Port Dickson"},"display_name":"Port Dickson, Negeri Sembilan, Malaysia","address":{"district":"Port Dickson","state":"Negeri Sembilan","ISO3166-2-lvl4":"MY-05","country":"Malaysia","country_code":"my"},"osm_type":"relation","osm_id":10976196,"type":"administrative","location":[101.8996104,2.5152478],"bbox":[101.7024461,2.3899876,102.0319794,2.7227446]}}
{"name":"Pulau Redang","other_names":{"name:ar":"بولاو ردنق","name:ms":"Pulau Redang"},"display_name":"Pulau Redang, Kuala Nerus, Terengganu, Malaysia","address":{"city":"Pulau Redang","district":"Kuala Nerus","state":"Terengganu","ISO3166-2-lvl4":"MY-11","country":"Malaysia","country_code":"my"},"osm_type":"relation","osm_id":12573878,"type":"administrative","location":[103.01407561560251,5.78341625],"bbox":[102.8889752,5.5956071,103.1622756,5.8181714],"inferred_type":"city"}
{"name":"Putrajaya","other_names":{"name:af":"Putrajaya","name:ar":"بوتراجايا","name:ca":"Putrajaya","name:el":"Πουτρατζάγια","name:en":"Putrajaya","name:he":"פוטרג'איה","name:hi":"पुत्रजय","name:id":"Putrajaya","name:ja":"プトラジャヤ","name:ko":"푸트라자야","name:ms":"Putrajaya","name:ne":"पुत्रजय","name:ru":"Путраджая","name:ta":"புத்ராஜாயா","name:th":"ปูตราจายา","name:tr":"Putrajaya","name:uk":"Путраджая","name:ur":"پتراجایا","name:vi":"Putrajaya","name:zh":"布城","alt_name:ar":"بوتراجاي","name:ms-Arab":"ڤوتراجاي","name:zh-Hans":"布城","name:zh-Hant":"布城"},"display_name":"Putrajaya, 62618, Malaysia","address":{"city":"Putrajaya","state":"Putrajaya","ISO3166-2-lvl4":"MY-16","postcode":"62618","country":"Malaysia","country_code":"my"},"population":109202,"osm_type":"node","osm_id":2872238032,"type":"city","location":[101.6840801,2.9179726],"bbox":[101.5240801,2.7579726,101.8440801,3.0779726]}
{"name":"Sandakan","other_names":{"name:ar":"سنداكن","name:en":"Sandakan","name:ja":"サンダカン","name:ms":"Sandakan","name:ru":"Сандакан","name:zh":"山打根","old_name":"Elopura","alt_name:ar":"سنداكان","name:ms-Arab":"سنداکن"},"display_name":"Sandakan, Sandakan District, Bahagian Sandakan, Sabah, 90008, Malaysia","address":{"city":"Sandakan","county":"Sandakan District","region":"Bahagian Sandakan","state":"Sabah","ISO3166-2-lvl4":"MY-12","postcode":"90008","country":"Malaysia","country_code":"my"},"population":439050,"osm_type":"node","osm_id":974358366,"type":"city","location":[118.1158598,5.8391274],"bbox":[117.9558598,5.6791274,118.2758598,5.9991274],"border":{"name":"Sandakan District","other_names":{"name:ar":"سنداكن","name:ms":"Daerah Sandakan","name:zh":"山打根县","alt_name:ar":"سنداكان"},"display_name":"Sandakan District, Bahagian Sandakan, Sabah, Malaysia","address":{"county":"Sandakan District","region":"Bahagian Sandakan","state":"Sabah","ISO3166-2-lvl4":"MY-12","country":"Malaysia","country_code":"my"},"osm_type":"relation","osm_id":11292731,"type":"administrative","location":[117.99410622203065,5.8889788],"bbox":[117.6271826,5.5007336,118.3521642,6.2833333]}}
{"name":"Sarikei","other_names":{"name:ar":"سريكي","name:ms":"Sarikei","name:zh":"泗里街","alt_name:ar":"ساريكي"},"display_name":"Sarikei, Bahagian Sarikei, Sarawak, 96107, Malaysia","address":{"city":"Sarikei","county":"Sarikei","region":"Bahagian Sarikei","state":"Sarawak","ISO3166-2-lvl4":"MY-13","postcode":"96107","country":"Malaysia","country_code":"my"},"population":44039,"osm_type":"node","osm_id":2436437136,"type":"city","location":[111.5230586,2.1294846],"bbox":[111.3630586,1.9694846,111.6830586,2.2894846],"border":{"name":"Sarikei","other_names":{"name:ar":"سريكي","name:ms":"Sarikei","name:zh":"泗里街","alt_name:ar":"ساريكي"},"display_name":"Sarikei, Bahagian Sarikei, Sarawak, Malaysia","address":{"county":"Sarikei","region":"Bahagian Sarikei","state":"Sarawak","ISO3166-2-lvl4":"MY-13","country":"Malaysia","country_code":"my"},"osm_type":"relation","osm_id":15974661,"type":"administrative","location":[111.41760002691811,2.0507707],"bbox":[111.2029052,1.885656,111.6312639,2.2152536]}}
{"name":"Segamat","other_names":{"name:ar":"سقامات","name:en":"Segamat","name:fa":"سگامات","name:ko":"스가맛","name:ms":"Segamat","name:ta":"சிகாமட்","name:zh":"昔加末","alt_name:ar":"سيغمات;سغمات;سيغامات;سغامات","name:zh-Hans":"昔加末","name:zh-Hant":"昔加末"},"display_name":"Segamat, Johor, 85000, Malaysia","address":{"city":"Segamat","district":"Segamat","state":"Johor","ISO3166-2-lvl4":"MY-01","postcode":"85000","country":"Malaysia","country_code":"my"},"population":152458,"osm_type":"node","osm_id":168607410,"type":"city","location":[102.8137391,2.5124036],"bbox":[102.6537391,2.3524036,102.9737391,2.6724036],"border":{"name":"Segamat","other_names":{"name:en":"Segamat","name:fa":"سگامات","name:ko":"스가맛","name:ms":"Segamat","name:ta":"சிகாமட்","name:zh":"昔加末县","official_name":"Daerah Segamat","official_name:en":"Segamat District","alt":"Daerah Segamat","alt:en":"Segamat District"},"display_name":"Segamat, Johor, Malaysia","address":{"district":"Segamat","state":"Johor","ISO3166-2-lvl4":"MY-01","country":"Malaysia","country_code":"my"},"osm_type":"relation","osm_id":12306079,"type":"administrative","location":[102.8450367,2.4922852],"bbox":[102.6066801,2.1653361,103.3788625,2.834641]}}
{"name":"Selayang","other_names":{"name:en":"Selayang","name:ja":"スラヤン","name:ms":"Selayang","name:zh":"士拉央","name:zh-Hans":"士拉央","name:zh-Hant":"士拉央"},"display_name":"Selayang, Majlis Perbandaran Selayang, Gombak, Selangor, Malaysia","address":{"city":"Selayang","district":"Gombak","state":"Selangor","ISO3166-2-lvl4":"MY-10","country":"Malaysia","country_code":"my"},"population":764327,"osm_type":"node","osm_id":275083336,"type":"city","location":[101.6539012,3.2537121],"bbox":[101.4939012,3.0937121,101.8139012,3.4137121],"border":{"name":"Majlis Perbandaran Selayang","other_names":{"name:en":"Selayang Municipal Council","name:ms":"Majlis Perbandaran Selayang","name:ja":"スラヤン","name:zh":"士拉央","name:zh-Hans":"士拉央","name:zh-Hant":"士拉央","alt":"Selayang","alt:en":"Selayang","alt:ms":"Selayang"},"display_name":"Majlis Perbandaran Selayang, Gombak, Selangor, Malaysia","address":{"city":"Majlis Perbandaran Selayang","district":"Gombak","state":"Selangor","ISO3166-2-lvl4":"MY-10","country":"Malaysia","country_code":"my"},"population":764327,"osm_type":"relation","osm_id":10715467,"type":"administrative","location":[101.6539012,3.2537121],"bbox":[101.4305076,3.1995604,101.8297531,3.4022506]}}
{"name":"Sepang","other_names":{"name:ar":"سيبانق","name:ja":"セパン","name:ko":"스팡","name:ru":"Сепанг","name:ta":"சிப்பாங்","name:zh":"雪邦","alt_name:ar":"سيبانغ"},"display_name":"Sepang, Selangor, Malaysia","address":{"city":"Sepang","state":"Selangor","ISO3166-2-lvl4":"MY-10","country":"Malaysia","country_code":"my"},"population":324585,"osm_type":"node","osm_id":7245983668,"type":"city","location":[101.7094012,2.8008619],"bbox":[101.5494012,2.6408619,101.8694012,2.9608619],"border":{"name":"Sepang","other_names":{"name:ar":"سيبانق","name:ja":"セパン","name:ko":"스팡","name:ms":"Sepang","name:ru":"Сепанг","name:ta":"சிப்பாங்","name:zh":"雪邦县","alt_name:ar":"سيبانغ","name:ms-Arab":"سڤاڠ","alt:zh":"雪邦"},"display_name":"Sepang, Selangor, Malaysia","address":{"city":"Sepang","state":"Selangor","ISO3166-2-lvl4":"MY-10","country":"Malaysia","country_code":"my"},"population":324585,"osm_type":"relation","osm_id":10743315,"type":"administrative","location":[101.7094012,2.8008619],"bbox":[101.5756689,2.5938538,101.7896043,3.0117648]}}
{"name":"Seremban","other_names":{"name:ar":"سرمبان","name:en":"Seremban","name:ja":"スレンバン","name:ms":"Seremban","name:ru":"Серембан","name:th":"เซอเริมบัน","name:uk":"Серембан","name:zh":"芙蓉","alt_name:ar":"سرمبن;سيرمبان;سيرمبن;سيريمبان;سريمبان;سريمبن"},"display_name":"Seremban, Negeri Sembilan, 70000, Malaysia","address":{"city":"Seremban","district":"Seremban","state":"Negeri Sembilan","ISO3166-2-lvl4":"MY-05","postcode":"70000","country":"Malaysia","country_code":"my"},"population":681541,"osm_type":"node","osm_id":422445949,"type":"city","location":[101.9400601,2.723099],"bbox":[101.7800601,2.563099,102.1000601,2.883099],"border":{"name":"Seremban","other_names":{"name:ar":"سرمبان","name:ms":"Seremban","name:zh":"芙蓉县","official_name":"Daerah Seremban"},"display_name":"Seremban, Negeri Sembilan, Malaysia","address":{"district":"Seremban","state":"Negeri Sembilan","ISO3166-2-lvl4":"MY-05","country":"Malaysia","country_code":"my"},"osm_type":"relation","osm_id":10976198,"type":"administrative","location":[101.9264418,2.7442928],"bbox":[101.7512034,2.5409042,102.0683269,2.9687072]}}
{"name":"Serian","other_names":{"name:ar":"سريان","name:ms":"Serian","name:zh":"西连","alt_name:ar":"سيريان"},"display_name":"Serian, Bahagian Serian, Sarawak, 94700, Malaysia","address":{"city":"Serian","county":"Serian","region":"Bahagian Serian","state":"Sarawak","ISO3166-2-lvl4":"MY-13","postcode":"94700","country":"Malaysia","country_code":"my"},"population":110577,"osm_type":"node","osm_id":2272255914,"type":"city","location":[110.5689799,1.1692688],"bbox":[110.4089799,1.0092688,110.7289799,1.3292688],"border":{"name":"Serian","other_names":{"name:ar":"سريان","name:ms":"Serian","name:zh":"西连","alt_name:ar":"سيريان"},"display_name":"Serian, Bahagian Serian, Sarawak, Malaysia","address":{"county":"Serian","region":"Bahagian Serian","state":"Sarawak","ISO3166-2-lvl4":"MY-13","country":"Malaysia","country_code":"my"},"osm_type":"relation","osm_id":15971404,"type":"administrative","location":[110.61822106921089,1.1136159],"bbox":[110.4065213,0.8632939,110.8670988,1.3637222]}}
{"name":"Shah Alam","other_names":{"name:ar":"شاه علم","name:en":"Shah Alam","name:ja":"シャー・アラム","name:ko":"샤알람","name:ms":"Shah Alam","name:my":"ရှားအလမ်မြို့","name:ru":"Шах-Алам","name:ta":"ஷா ஆலாம்","name:th":"ชะฮ์อาลัม","name:zh":"莎亚南","alt_name:ar":"شاه عالم;شاه علام","alt_name:zh":"沙亚南","name:ms-Arab":"شاه عالم","official_name:zh":"沙阿南"},"display_name":"Shah Alam, Petaling, Selangor, Malaysia","address":{"city":"Shah Alam","district":"Petaling","state":"Selangor","ISO3166-2-lvl4":"MY-10","country":"Malaysia","country_code":"my"},"population":812327,"osm_type":"node","osm_id":142457861,"type":"city","location":[101.5185278,3.0739429],"bbox":[101.3585278,2.9139429,101.6785278,3.2339429],"border":{"name":"Shah Alam","other_names":{"name:en":"Shah Alam","name:ms":"Shah Alam","name:zh":"莎亚南","short_name":"SA","name:ms-Arab":"شاه عالم","name:ar":"شاه علم","name:ja":"シャー・アラム","name:ko":"샤알람","name:my":"ရှားအလမ်မြို့","name:ru":"Шах-Алам","name:ta":"ஷா ஆலாம்","name:th":"ชะฮ์อาลัม","alt_name:ar":"شاه عالم;شاه علام","alt_name:zh":"沙亚南","official_name:zh":"沙阿南"},"display_name":"Shah Alam, Petaling, Selangor, Malaysia","address":{"city":"Shah Alam","district":"Petaling","state":"Selangor","ISO3166-2-lvl4":"MY-10","country":"Malaysia","country_code":"my"},"population":812327,"osm_type":"relation","osm_id":8347577,"type":"administrative","location":[101.5185278,3.0739429],"bbox":[101.4277331,2.9496181,101.5913878,3.2297212]}}
{"name":"Sibu","other_names":{"name:ar":"سيبو","name:en":"Sibu","name:ja":"シブ","name:ms":"Sibu","name:ru":"Сибу","name:ta":"சிபு","name:uk":"Сібу","name:zh":"诗巫","name:zh-Hans":"诗巫","name:zh-Hant":"詩巫"},"display_name":"Sibu, Bahagian Sibu, Sarawak, 96000, Malaysia","address":{"city":"Sibu","county":"Sibu","region":"Bahagian Sibu","state":"Sarawak","ISO3166-2-lvl4":"MY-13","postcode":"96000","country":"Malaysia","country_code":"my"},"population":170404,"osm_type":"node","osm_id":2065923003,"type":"city","location":[111.8256158,2.2906434],"bbox":[111.6656158,2.1306434,111.9856158,2.4506434],"border":{"name":"Sibu","other_names":{"name:ar":"سيبو","name:ms":"Sibu","name:zh":"诗巫"},"display_name":"Sibu, Bahagian Sibu, Sarawak, 96000, Malaysia","address":{"county":"Sibu","region":"Bahagian Sibu","state":"Sarawak","ISO3166-2-lvl4":"MY-13","postcode":"96000","country":"Malaysia","country_code":"my"},"osm_type":"relation","osm_id":15974654,"type":"administrative","location":[111.87658661205317,2.29220955],"bbox":[111.5775143,2.0443017,112.1549614,2.5404302]}}
{"name":"Simanggang","other_names":{"name:ar":"سيمنقانق","name:ms":"Simanggang","name:zh":"成邦江","alt_name":"Bandar Simanggang","old_name":"Sri Aman"},"display_name":"Simanggang, Sri Aman, Bahagian Sri Aman, Sarawak, 95000, Malaysia","address":{"city":"Simanggang","county":"Sri Aman","region":"Bahagian Sri Aman","state":"Sarawak","ISO3166-2-lvl4":"MY-13","postcode":"95000","country":"Malaysia","country_code":"my"},"population":61238,"osm_type":"node","osm_id":2443861389,"type":"city","location":[111.462148,1.2376156],"bbox":[111.302148,1.0776156,111.622148,1.3976156],"border":{"name":"Sri Aman","other_names":{"name:ar":"سري أمان","name:ms":"Sri Aman","name:zh":"斯里阿曼"},"display_name":"Sri Aman, Bahagian Sri Aman, Sarawak, 95000, Malaysia","address":{"county":"Sri Aman","region":"Bahagian Sri Aman","state":"Sarawak","ISO3166-2-lvl4":"MY-13","postcode":"95000","country":"Malaysia","country_code":"my"},"osm_type":"relation","osm_id":15971402,"type":"administrative","location":[111.28660915557279,1.2097123],"bbox":[110.9379878,0.9471635,111.6663791,1.4723134]}}
{"name":"Sitiawan","other_names":{"name:ar":"سيتياوان","name:ja":"シティアワン","name:ms":"Sitiawan","name:ta":"சிதியாவான்","name:zh":"实兆远"},"display_name":"Sitiawan, Manjung, Perak, 32000, Malaysia","address":{"city":"Sitiawan","district":"Manjung","state":"Perak","ISO3166-2-lvl4":"MY-08","postcode":"32000","country":"Malaysia","country_code":"my"},"population":246978,"osm_type":"node","osm_id":254074191,"type":"city","location":[100.6951901,4.2162318],"bbox":[100.5351901,4.0562318,100.8551901,4.3762318]}
{"name":"Subang Jaya","other_names":{"name:ja":"スバン・ジャヤ","name:ta":"சுபாங் ஜெயா","name:zh":"梳邦再也"},"display_name":"Subang Jaya, Majlis Bandaraya Subang Jaya, Petaling, Selangor, Malaysia","address":{"city":"Subang Jaya","district":"Petaling","state":"Selangor","ISO3166-2-lvl4":"MY-10","country":"Malaysia","country_code":"my"},"population":902086,"osm_type":"node","osm_id":368878591,"type":"city","location":[101.5823339,3.051487],"bbox":[101.4223339,2.891487,101.7423339,3.211487],"border":{"name":"Majlis Bandaraya Subang Jaya","other_names":{"name:ar":"سوبانق جايا","name:en":"Subang Jaya City Council","name:ms":"Majlis Bandaraya Subang Jaya","name:zh":"梳邦再也","short_name":"MBSJ","alt_name:ar":"سوبانغ جايا;سوبانج جايا","name:ms-Arab":"سوبڠ جاي","name:ja":"スバン・ジャヤ","name:ta":"சுபாங் ஜெயா","alt":"Subang Jaya"},"display_name":"Majlis Bandaraya Subang Jaya, Petaling, Selangor, Malaysia","address":{"city":"Majlis Bandaraya Subang Jaya","district":"Petaling","state":"Selangor","ISO3166-2-lvl4":"MY-10","country":"Malaysia","country_code":"my"},"population":902086,"osm_type":"relation","osm_id":10743361,"type":"administrative","location":[101.5823339,3.051487],"bbox":[101.5489213,2.9759871,101.730941,3.0849951]}}
{"name":"Sungai Petani","other_names":{"name:ar":"سونقاي بيتاني","name:de":"Sungai Petani","name:en":"Sungai Petani","name:ja":"スンガイ プタニ","name:ms":"Sungai Petani","name:ru":"Сунгай Петани","name:ta":"சுங்கை பட்டாணி","name:th":"ซูไงเปอตานี","name:uk":"Сунгай Петані","name:zh":"双溪大年","short_name":"SP;S Petani;Sg Petani","alt_name:ar":"سونغاي بيتاني;سونجاي بيتاني"},"display_name":"Sungai Petani, Kuala Muda, Kedah, 08000, Malaysia","address":{"city":"Sungai Petani","district":"Kuala Muda","state":"Kedah","ISO3166-2-lvl4":"MY-02","postcode":"08000","country":"Malaysia","country_code":"my"},"population":545053,"osm_type":"node","osm_id":254072891,"type":"city","location":[100.4869513,5.6435195],"bbox":[100.3269513,5.4835195,100.6469513,5.8035195]}
{"name":"Taiping","other_names":{"name:ar":"تايبينق","name:en":"Taiping","name:fa":"تایپینگ","name:ja":"タイピン","name:ko":"태평","name:ms":"Taiping","name:ru":"Тайпинг","name:ta":"தைப்பிங்","name:th":"ไตปิง","name:ur":"تایپنگ","name:zh":"太平","name:nan":"Thài-pêng","alt_name:ar":"تايبينج;تايبينغ","name:ko-Hani":"太平"},"display_name":"Taiping, Larut, Matang dan Selama, Perak, 34000, Malaysia","address":{"city":"Taiping","district":"Larut, Matang dan Selama","state":"Perak","ISO3166-2-lvl4":"MY-08","postcode":"34000","country":"Malaysia","country_code":"my"},"population":241517,"osm_type":"node","osm_id":254074065,"type":"city","location":[100.7438831,4.8546772],"bbox":[100.5838831,4.6946772,100.9038831,5.0146772]}
{"name":"Tawau","other_names":{"name:ar":"تاوو","name:en":"Tawau","name:ja":"タワウ","name:ko":"타와우","name:ms":"Tawau","name:ru":"Тавау","name:uk":"Тавау","name:zh":"斗湖","alt_name:ar":"تاواو;طاوو"},"display_name":"Tawau, Bahagian Tawau, Sabah, 91007, Malaysia","address":{"city":"Tawau","county":"Tawau","region":"Bahagian Tawau","state":"Sabah","ISO3166-2-lvl4":"MY-12","postcode":"91007","country":"Malaysia","country_code":"my"},"population":420806,"osm_type":"node","osm_id":676458200,"type":"city","location":[117.885331,4.2435206],"bbox":[117.725331,4.0835206,118.045331,4.4035206],"border":{"name":"Tawau","other_names":{"name:ar":"تاوو","name:ms":"Tawau","name:zh":"斗湖"},"display_name":"Tawau, Bahagian Tawau, Sabah, Malaysia","address":{"county":"Tawau","region":"Bahagian Tawau","state":"Sabah","ISO3166-2-lvl4":"MY-12","country":"Malaysia","country_code":"my"},"osm_type":"relation","osm_id":15974768,"type":"administrative","location":[117.979440919267,4.433616499999999],"bbox":[117.699096,4.2214633,118.3604188,4.6459535]}}
{"name":"Teluk Intan","other_names":{"name:ar":"تيلوك إنتان","name:ms":"Teluk Intan","name:ta":"தெலுக் இந்தான்","name:zh":"安顺","old_name":"Telok Anson"},"display_name":"Teluk Intan, Hilir Perak, Perak, 36000, Malaysia","address":{"city":"Teluk Intan","district":"Hilir Perak","state":"Perak","ISO3166-2-lvl4":"MY-08","postcode":"36000","country":"Malaysia","country_code":"my"},"population":172505,"osm_type":"node","osm_id":254073451,"type":"city","location":[101.026184,4.023176],"bbox":[100.866184,3.863176,101.186184,4.183176]}
{"name":"Temerloh","other_names":{"name:en":"Temerloh","name:fa":"تمرلوح","name:ja":"テメルロー","name:ms":"Temerloh","name:ta":"தெமர்லோ","name:ur":"تیمیرلوہ","name:zh":"淡马鲁"},"display_name":"Temerloh, Pahang, 28000, Malaysia","address":{"city":"Temerloh","district":"Temerloh","state":"Pahang","ISO3166-2-lvl4":"MY-06","postcode":"28000","country":"Malaysia","country_code":"my"},"population":169023,"osm_type":"node","osm_id":254073111,"type":"city","location":[102.4190974,3.4505701],"bbox":[102.2590974,3.2905701,102.5790974,3.6105701],"border":{"name":"Temerloh","other_names":{"name:ar":"تمرلوه","name:ms":"Temerloh","name:ta":"தெமர்லோ","name:zh":"淡马鲁县","alt_name:ar":"تيمرلوه","official_name":"Daerah Temerloh"},"display_name":"Temerloh, Pahang, Malaysia","address":{"district":"Temerloh","state":"Pahang","ISO3166-2-lvl4":"MY-06","country":"Malaysia","country_code":"my"},"osm_type":"relation","osm_id":10744351,"type":"administrative","location":[102.2566818,3.6124468],"bbox":[102.015679,3.345288,102.505496,3.888504]}}
{"name":"Tioman","other_names":{"name:ms":"Tioman","official_name":"Mukim Tioman"},"display_name":"Tioman, Rompin, Pahang, Malaysia","address":{"city":"Tioman","district":"Rompin","state":"Pahang","ISO3166-2-lvl4":"MY-06","country":"Malaysia","country_code":"my"},"osm_type":"relation","osm_id":12333027,"type":"administrative","location":[104.17213290217393,2.806509],"bbox":[103.7629258,2.6575568,104.223339,2.9344764],"inferred_type":"city"}
