{"name":"Fuglafjørður","other_names":{"name:da":"Fuglefjord"},"display_name":"Fuglafjørður, Fuglafjarðar kommuna, Eysturoyar sýsla, Føroyar","address":{"town":"Fuglafjørður","municipality":"Fuglafjarðar kommuna","region":"Eysturoyar sýsla","country":"Føroyar","country_code":"fo"},"population":1603,"osm_type":"node","osm_id":29023736,"type":"town","location":[-6.8133219,62.2438445],"bbox":[-6.8533219,62.2038445,-6.7733219,62.2838445],"border":{"name":"Fuglafjørður","other_names":{"name:da":"Fuglefjord"},"display_name":"Fuglafjørður, Fuglafjarðar kommuna, Eysturoyar sýsla, 695, Føroyar","address":{"town":"Fuglafjørður","municipality":"Fuglafjarðar kommuna","region":"Eysturoyar sýsla","postcode":"695","country":"Føroyar","country_code":"fo"},"population":1603,"osm_type":"relation","osm_id":18396705,"type":"administrative","location":[-6.8133219,62.2438445],"bbox":[-6.8787962,62.2090166,-6.764329,62.2702319]}}
{"name":"Klaksvík","other_names":{"name:da":"Klaksvig","name:is":"Klakksvík"},"display_name":"Klaksvík, Klaksvíkar kommuna, Norðoya sýsla, Føroyar","address":{"town":"Klaksvík","municipality":"Klaksvíkar kommuna","region":"Norðoya sýsla","country":"Føroyar","country_code":"fo"},"population":5116,"osm_type":"node","osm_id":29023761,"type":"town","location":[-6.5837755,62.2254921],"bbox":[-6.6237755,62.1854921,-6.5437755,62.2654921],"border":{"name":"Klaksvík","other_names":{"name:da":"Klaksvig","name:is":"Klakksvík"},"display_name":"Klaksvík, Klaksvíkar kommuna, Norðoya sýsla, Føroyar","address":{"town":"Klaksvík","municipality":"Klaksvíkar kommuna","region":"Norðoya sýsla","country":"Føroyar","country_code":"fo"},"population":5116,"osm_type":"relation","osm_id":2359149,"type":"administrative","location":[-6.5837755,62.2254921],"bbox":[-6.6290027,62.1674454,-6.4476875,62.2551596]}}
{"name":"Tórshavn","other_names":{"name:ar":"تورسهافن","name:az":"Torshavn","name:be":"Торсхаўн","name:bg":"Торсхавн","name:ca":"Tórshavn","name:da":"Thorshavn","name:de":"Thorshaven","name:el":"Τόρσχαβν","name:en":"Tórshavn","name:es":"Tórshavn","name:fa":"توشهاون","name:fo":"Tórshavn","name:fr":"Torshavn","name:he":"טורסהאבן","name:hr":"Tórshavn","name:hu":"Tórshavn","name:hy":"Տորսհավն","name:is":"Þórshöfn","name:it":"Tórshavn","name:ja":"トースハウン","name:ka":"ტორსჰავნი","name:kk":"Торшгавн","name:ko":"토르스하운","name:kv":"Торшхавн","name:la":"Thori Portus","name:lt":"Torshaunas","name:lv":"Touršhavna","name:os":"Торсхавн","name:pl":"Thorshavn","name:ru":"Торсхавн","name:sl":"Tórshavn","name:sr":"Торсхавн","name:sv":"Torshamn","name:th":"ทอร์สเฮาน์","name:uk":"Торсгавн","name:ur":"تورشھاون","name:zh":"托尔斯港","name:ang":"Þunreshæfen","name:ckb":"تۆسھاون","name:gsw":"Thorshauen","name:udm":"Торсхавн","name:be-tarask":"Торсгаўн"},"display_name":"Tórshavn, Tórshavnar kommuna, Streymoyar sýsla, Føroyar","address":{"town":"Tórshavn","municipality":"Tórshavnar kommuna","region":"Streymoyar sýsla","country":"Føroyar","country_code":"fo"},"population":14145,"osm_type":"node","osm_id":29023813,"type":"town","location":[-6.7715709,62.0101396],"bbox":[-6.8115709,61.9701396,-6.7315709,62.0501396],"border":{"name":"Tórshavn","other_names":{"name:ar":"تورسهافن","name:az":"Torshavn","name:be":"Торсхаўн","name:bg":"Торсхавн","name:ca":"Tórshavn","name:da":"Thorshavn","name:de":"Thorshaven","name:el":"Τόρσχαβν","name:en":"Tórshavn","name:es":"Tórshavn","name:fa":"توشهاون","name:fo":"Tórshavn","name:fr":"Torshavn","name:he":"טורסהאבן","name:hr":"Tórshavn","name:hu":"Tórshavn","name:hy":"Տորսհավն","name:is":"Þórshöfn","name:it":"Tórshavn","name:ja":"トースハウン","name:ka":"ტორსჰავნი","name:kk":"Торшгавн","name:ko":"토르스하운","name:kv":"Торшхавн","name:la":"Thori Portus","name:lt":"Torshaunas","name:lv":"Touršhavna","name:os":"Торсхавн","name:pl":"Thorshavn","name:ru":"Торсхавн","name:sl":"Tórshavn","name:sr":"Торсхавн","name:sv":"Torshamn","name:th":"ทอร์สเฮาน์","name:uk":"Торсгавн","name:ur":"تورشھاون","name:zh":"托尔斯港","name:ang":"Þunreshæfen","name:ckb":"تۆسھاون","name:gsw":"Thorshauen","name:udm":"Торсхавн","name:be-tarask":"Торсгаўн"},"display_name":"Tórshavn, Tórshavnar kommuna, Streymoyar sýsla, 100, Føroyar","address":{"town":"Tórshavn","municipality":"Tórshavnar kommuna","region":"Streymoyar sýsla","postcode":"100","country":"Føroyar","country_code":"fo"},"population":14145,"osm_type":"relation","osm_id":18413216,"type":"administrative","location":[-6.7715709,62.0101396],"bbox":[-6.8595237,61.9963801,-6.7526868,62.0331501]}}
{"name":"Tvøroyri","other_names":{"name:da":"Tværå","name:is":"Þvereyri"},"display_name":"Tvøroyri, Froðba, Tvøroyrar kommuna, Suðuroyar sýsla, 800, Føroyar","address":{"town":"Tvøroyri","village":"Froðba","municipality":"Tvøroyrar kommuna","region":"Suðuroyar sýsla","postcode":"800","country":"Føroyar","country_code":"fo"},"population":871,"osm_type":"node","osm_id":29023814,"type":"town","location":[-6.8046823,61.5553294],"bbox":[-6.8446823,61.5153294,-6.7646823,61.5953294]}
