{"name":"Cockburn Harbour","display_name":"Cockburn Harbour, East Caicos, Turks and Caicos Islands","address":{"town":"Cockburn Harbour","island":"East Caicos","country":"Turks and Caicos Islands","country_code":"tc"},"osm_type":"node","osm_id":296255850,"type":"town","location":[-71.5296449,21.498342],"bbox":[-71.5696449,21.458342,-71.4896449,21.538342]}
{"name":"Cockburn Town","other_names":{"name:ar":"كوكبرن تاون","name:az":"Kobərn Taun","name:be":"Коберн-Таўн","name:bg":"Кокбърн Таун","name:br":"Cockburn Town","name:ca":"Cockburn Town","name:cv":"Коберн-Таун","name:de":"Cockburn Town","name:el":"Κόκμπερν Τάουν","name:en":"Cockburn Town","name:eo":"Kokburno","name:es":"Cockburn Town","name:fr":"Cockburn Town","name:he":"קוקבורן טאון","name:hu":"Cockburn Town","name:it":"Cockburn Town","name:ja":"コックバーンタウン","name:ka":"კოკბერნ-ტაუნი","name:ko":"코크번타운","name:lt":"Kobern Taunas","name:mr":"कॉकबर्न टाउन","name:nl":"Cockburn Town","name:no":"Cockburn Town","name:pl":"Cockburn Town","name:pt":"Cockburn Town","name:ru":"Коберн-Таун","name:sr":"Коберн Таун","name:sv":"Cockburn Town","name:tr":"Cockburn Town","name:uk":"Коберн-Таун","name:zh":"科伯恩城","name:be-tarask":"Кокбэрн Таўн"},"display_name":"Cockburn Town, Grand Turk, Turks and Caicos Islands","address":{"town":"Cockburn Town","county":"Grand Turk","country":"Turks and Caicos Islands","country_code":"tc"},"population":3700,"osm_type":"node","osm_id":296255680,"type":"town","location":[-71.1399956,21.4607723],"bbox":[-71.1799956,21.4207723,-71.0999956,21.5007723]}
{"name":"Providenciales","display_name":"Providenciales, Turks and Caicos Islands","address":{"town":"Providenciales","county":"Providenciales","country":"Turks and Caicos Islands","country_code":"tc"},"osm_type":"node","osm_id":3482621890,"type":"town","location":[-72.2611584,21.7778015],"bbox":[-72.3011584,21.7378015,-72.2211584,21.8178015],"border":{"name":"Providenciales","display_name":"Providenciales, TKCA 1ZZ, Turks and Caicos Islands","address":{"county":"Providenciales","postcode":"TKCA 1ZZ","country":"Turks and Caicos Islands","country_code":"tc"},"osm_type":"relation","osm_id":4027467,"type":"administrative","location":[-72.30044556984475,21.8020614],"bbox":[-72.4828255,21.6224291,-72.1289107,21.8654784]}}
{"name":"Yankee Town","display_name":"Yankee Town, Providenciales, Turks and Caicos Islands","address":{"town":"Yankee Town","county":"Providenciales","country":"Turks and Caicos Islands","country_code":"tc"},"population":0,"osm_type":"node","osm_id":296261547,"type":"town","location":[-72.4623032,21.64438],"bbox":[-72.5023032,21.60438,-72.4223032,21.68438]}
