{"name":"Kaunas","other_names":{"name:am":"ካውናስ","name:ar":"كاوناس","name:ay":"Kawnas","name:be":"Каўнас","name:bg":"Каунас","name:ce":"Каунас","name:cs":"Kaunas","name:cu":"Ковьно","name:cv":"Каунас","name:cy":"Cawnas","name:de":"Kaunas","name:el":"Κάουνας","name:en":"Kaunas","name:eo":"Kaŭno","name:es":"Kaunas","name:eu":"Kaunas","name:fa":"کاوناس","name:fr":"Kaunas","name:he":"קובנה","name:hr":"Kaunas","name:hu":"Kaunas","name:hy":"Կաունաս","name:iu":"ᑯᓇᔅ","name:ja":"カウナス","name:ka":"კაუნასი","name:ko":"카우나스","name:ky":"Каунас","name:la":"Couna","name:lt":"Kaunas","name:lv":"Kauņa","name:mk":"Каунас","name:ml":"കൗനാസ്","name:mn":"Каунас","name:mr":"कॉनास","name:os":"Каунас","name:pl":"Kowno","name:ps":"کاوناس","name:pt":"Caunas","name:ru":"Каунас","name:sr":"Каунас","name:th":"เคานัส","name:tt":"Каунас","name:uk":"Каунас","name:ur":"کاوناس","name:yi":"קאוונע","name:zh":"考那斯","name:ltg":"Kaune","name:mhr":"Каунас","name:pnb":"کاؤناس","old_name":"Kovno","alt_name:eo":"Kovno","old_name:cs":"Kovno","old_name:de":"Kauen","old_name:hr":"Kovno","name:bat-smg":"Kauns","name:iu-Latn":"kunas","name:be-tarask":"Коўна"},"display_name":"Kaunas, Kauno miesto savivaldybė, Kauno apskritis, Lietuva","address":{"city":"Kaunas","state_district":"Kauno miesto savivaldybė","ISO3166-2-lvl5":"LT-15","state":"Kauno apskritis","ISO3166-2-lvl4":"LT-KU","country":"Lietuva","country_code":"lt"},"population":315993,"osm_type":"node","osm_id":27193090,"type":"city","location":[23.9044817,54.8982139],"bbox":[23.7444817,54.7382139,24.0644817,55.0582139],"border":{"name":"Kaunas","other_names":{"name:de":"Kaunas","name:la":"Couna","name:lt":"Kaunas","name:pl":"Kowno","name:ru":"Каунас","name:th":"เกานัส","name:uk":"Каунас","old_name:de":"Kauen","name:am":"ካውናስ","name:ar":"كاوناس","name:ay":"Kawnas","name:be":"Каўнас","name:bg":"Каунас","name:ce":"Каунас","name:cs":"Kaunas","name:cu":"Ковьно","name:cv":"Каунас","name:cy":"Cawnas","name:el":"Κάουνας","name:en":"Kaunas","name:eo":"Kaŭno","name:es":"Kaunas","name:eu":"Kaunas","name:fa":"کاوناس","name:fr":"Kaunas","name:he":"קובנה","name:hr":"Kaunas","name:hu":"Kaunas","name:hy":"Կաունաս","name:iu":"ᑯᓇᔅ","name:ja":"カウナス","name:ka":"კაუნასი","name:ko":"카우나스","name:ky":"Каунас","name:lv":"Kauņa","name:mk":"Каунас","name:ml":"കൗനാസ്","name:mn":"Каунас","name:mr":"कॉनास","name:os":"Каунас","name:ps":"کاوناس","name:pt":"Caunas","name:sr":"Каунас","name:tt":"Каунас","name:ur":"کاوناس","name:yi":"קאוונע","name:zh":"考那斯","name:ltg":"Kaune","name:mhr":"Каунас","name:pnb":"کاؤناس","old_name":"Kovno","alt_name:eo":"Kovno","old_name:cs":"Kovno","old_name:hr":"Kovno","name:bat-smg":"Kauns","name:iu-Latn":"kunas","name:be-tarask":"Коўна","alt:th":"เคานัส"},"display_name":"Kaunas, Kauno miesto savivaldybė, Kauno apskritis, Lietuva","address":{"city":"Kaunas","state_district":"Kauno miesto savivaldybė","ISO3166-2-lvl5":"LT-15","state":"Kauno apskritis","ISO3166-2-lvl4":"LT-KU","country":"Lietuva","country_code":"lt"},"population":315993,"osm_type":"relation","osm_id":1567544,"type":"administrative","location":[23.9044817,54.8982139],"bbox":[23.7535259,54.8207445,24.1002844,54.9595608]}}
{"name":"Klaipėda","other_names":{"name:am":"ክላይፔዳ","name:ar":"كلايبيدا","name:ay":"Klaypida","name:az":"Klаypеdа","name:be":"Клайпеда","name:bg":"Клайпеда","name:ce":"Клайпеда","name:cv":"Клайпеда","name:el":"Κλαϊπέντα","name:en":"Klaipėda","name:eu":"Klaipeda","name:fa":"کلایپدا","name:fr":"Klaipeda","name:fy":"Klaipeda","name:gl":"Klaipeda","name:he":"קלייפדה","name:hr":"Klaipėda","name:hu":"Klaipėda","name:hy":"Կլայպեդա","name:io":"Klaipeda","name:iu":"ᒃᓚᐊᐱᑕ","name:ja":"クライペダ","name:ka":"კლაიპედა","name:kk":"Клайпеда","name:ko":"클라이페다","name:ky":"Клайпеда","name:la":"Memela","name:lt":"Klaipėda","name:lv":"Klaipēda","name:mk":"Клајпеда","name:ml":"ക്ലൈപ്പേഡ","name:mn":"Клейпеда","name:mr":"क्लीपेदा","name:nl":"Klaipėda","name:oc":"Klaipeda","name:os":"Клайпедæ","name:pl":"Kłajpeda","name:ps":"کلایپدا","name:ru":"Клайпеда","name:sl":"Klajpeda","name:sr":"Клајпеда","name:su":"Klaipéda","name:th":"ไคลเปดา","name:tl":"Klaipėda","name:tt":"Клайпеда","name:uk":"Клайпеда","name:ur":"کلائپیدا","name:uz":"Klaypeda","name:wa":"Klaipeda","name:zh":"克莱佩达","name:als":"Klaipeda","name:azb":"کلایپدا","name:bar":"Memel","name:csb":"Kłajpéda","name:jbo":"tcadrklaipeda","name:ltg":"Klaipieda","name:mhr":"Клайпеде","name:nds":"Memel","name:pnb":"کلائیپیدا","name:pnt":"Κλαϊπέντα","name:scn":"Klaipeda","old_name:de":"Memel","old_name:fr":"Memel","old_name:hr":"Memel;Klajpeda","old_name:zh":"梅梅尔","name:bat-smg":"Klaipieda","name:iu-Latn":"klaipita","name:zh-Hans":"克莱佩达","name:zh-Hant":"克萊佩達","name:be-tarask":"Клайпеда","old_name:zh-Hans":"梅梅尔","old_name:zh-Hant":"梅默爾"},"display_name":"Klaipėda, Klaipėdos miesto savivaldybė, Klaipėdos apskritis, Lietuva","address":{"city":"Klaipėda","state_district":"Klaipėdos miesto savivaldybė","ISO3166-2-lvl5":"LT-20","state":"Klaipėdos apskritis","ISO3166-2-lvl4":"LT-KL","country":"Lietuva","country_code":"lt"},"population":162360,"osm_type":"node","osm_id":27193094,"type":"city","location":[21.1350469,55.7127529],"bbox":[20.9750469,55.5527529,21.2950469,55.8727529],"border":{"name":"Klaipėda","other_names":{"name:be":"Клайпеда","name:fr":"Klaipeda","name:lt":"Klaipėda","name:pl":"Kłajpeda","name:ru":"Клайпеда","name:sr":"Клајпеда","name:th":"เกล็ยเปดา","name:uk":"Клайпеда","name:ur":"کلائپیدا","name:azb":"کلایپدا","old_name:de":"Memel","old_name:fr":"Memel","name:am":"ክላይፔዳ","name:ar":"كلايبيدا","name:ay":"Klaypida","name:az":"Klаypеdа","name:bg":"Клайпеда","name:ce":"Клайпеда","name:cv":"Клайпеда","name:el":"Κλαϊπέντα","name:en":"Klaipėda","name:eu":"Klaipeda","name:fa":"کلایپدا","name:fy":"Klaipeda","name:gl":"Klaipeda","name:he":"קלייפדה","name:hr":"Klaipėda","name:hu":"Klaipėda","name:hy":"Կլայպեդա","name:io":"Klaipeda","name:iu":"ᒃᓚᐊᐱᑕ","name:ja":"クライペダ","name:ka":"კლაიპედა","name:kk":"Клайпеда","name:ko":"클라이페다","name:ky":"Клайпеда","name:la":"Memela","name:lv":"Klaipēda","name:mk":"Клајпеда","name:ml":"ക്ലൈപ്പേഡ","name:mn":"Клейпеда","name:mr":"क्लीपेदा","name:nl":"Klaipėda","name:oc":"Klaipeda","name:os":"Клайпедæ","name:ps":"کلایپدا","name:sl":"Klajpeda","name:su":"Klaipéda","name:tl":"Klaipėda","name:tt":"Клайпеда","name:uz":"Klaypeda","name:wa":"Klaipeda","name:zh":"克莱佩达","name:be-tarask":"Клайпеда","name:als":"Klaipeda","name:bar":"Memel","name:csb":"Kłajpéda","name:jbo":"tcadrklaipeda","name:ltg":"Klaipieda","name:mhr":"Клайпеде","name:nds":"Memel","name:pnb":"کلائیپیدا","name:pnt":"Κλαϊπέντα","name:scn":"Klaipeda","old_name:hr":"Memel;Klajpeda","old_name:zh":"梅梅尔","name:bat-smg":"Klaipieda","name:iu-Latn":"klaipita","name:zh-Hans":"克莱佩达","name:zh-Hant":"克萊佩達","old_name:zh-Hans":"梅梅尔","old_name:zh-Hant":"梅默爾","alt:th":"ไคลเปดา"},"display_name":"Klaipėda, Klaipėdos miesto savivaldybė, Klaipėdos apskritis, Lietuva","address":{"city":"Klaipėda","state_district":"Klaipėdos miesto savivaldybė","ISO3166-2-lvl5":"LT-20","state":"Klaipėdos apskritis","ISO3166-2-lvl4":"LT-KL","country":"Lietuva","country_code":"lt"},"population":162360,"osm_type":"relation","osm_id":1713458,"type":"administrative","location":[21.1350469,55.7127529],"bbox":[21.0750828,55.6127871,21.2403273,55.7965694]}}
{"name":"Panevėžys","other_names":{"name:ar":"بانيفيزيس","name:az":"Panavejis","name:be":"Панявежыс","name:bg":"Паневежис","name:de":"Ponewiesch","name:el":"Πανεβεζίς","name:en":"Panevėžys","name:es":"Panevėžys","name:fa":"پانه‌وژیس","name:fr":"Panevėžys","name:he":"פוניבז'","name:hr":"Panevėžys","name:hy":"Պանևեժիս","name:ja":"パネヴェジース","name:ka":"პანევეჟისი","name:ko":"파네베지스","name:lt":"Panevėžys","name:lv":"Paņevēža","name:mk":"Паневежис","name:ml":"പനെവേജീസ്","name:mn":"Паневежис","name:pl":"Poniewież","name:ru":"Паневежис","name:sh":"Panevėžis","name:sr":"Паневежис","name:th":"ปาเนียเวจีส","name:tt":"Паневежис","name:uk":"Панявежис","name:ur":"پانیویژیس","name:zh":"帕內韋日斯","name:csb":"Panevezys","name:pnb":"پینیویژیس","name:vep":"Panevežis","alt_name:de":"Ponewesch","alt_name:ru":"Панявежис","name:bat-smg":"Paneviežis"},"display_name":"Panevėžys, Panevėžio miesto savivaldybė, Panevėžio apskritis, Lietuva","address":{"city":"Panevėžys","state_district":"Panevėžio miesto savivaldybė","ISO3166-2-lvl5":"LT-32","state":"Panevėžio apskritis","ISO3166-2-lvl4":"LT-PN","country":"Lietuva","country_code":"lt"},"population":99690,"osm_type":"node","osm_id":33187331,"type":"city","location":[24.3578055,55.7344985],"bbox":[24.1978055,55.5744985,24.5178055,55.8944985],"border":{"name":"Panevėžys","other_names":{"name:be":"Панявеж","name:lt":"Panevėžys","name:lv":"Paņevēža","name:pl":"Poniewież","name:ru":"Паневежис","name:th":"ปาเนเวฌีส","name:uk":"Паневежис","alt_name:ru":"Панявежис","name:ar":"بانيفيزيس","name:az":"Panavejis","name:bg":"Паневежис","name:de":"Ponewiesch","name:el":"Πανεβεζίς","name:en":"Panevėžys","name:es":"Panevėžys","name:fa":"پانه‌وژیس","name:fr":"Panevėžys","name:he":"פוניבז'","name:hr":"Panevėžys","name:hy":"Պանևեժիս","name:ja":"パネヴェジース","name:ka":"პანევეჟისი","name:ko":"파네베지스","name:mk":"Паневежис","name:ml":"പനെവേജീസ്","name:mn":"Паневежис","name:sh":"Panevėžis","name:sr":"Паневежис","name:tt":"Паневежис","name:ur":"پانیویژیس","name:zh":"帕內韋日斯","name:csb":"Panevezys","name:pnb":"پینیویژیس","name:vep":"Panevežis","alt_name:de":"Ponewesch","name:bat-smg":"Paneviežis","alt:be":"Панявежыс","alt:th":"ปาเนียเวจีส","alt:uk":"Панявежис"},"display_name":"Panevėžys, Panevėžio miesto savivaldybė, Panevėžio apskritis, Lietuva","address":{"city":"Panevėžys","state_district":"Panevėžio miesto savivaldybė","ISO3166-2-lvl5":"LT-32","state":"Panevėžio apskritis","ISO3166-2-lvl4":"LT-PN","country":"Lietuva","country_code":"lt"},"population":99690,"osm_type":"relation","osm_id":1567531,"type":"administrative","location":[24.3578055,55.7344985],"bbox":[24.2356189,55.6890797,24.4300235,55.7719464]}}
{"name":"Šiauliai","other_names":{"name:ar":"شياولياي","name:ay":"Shawllay","name:az":"Şyaulyay","name:be":"Шаўляй","name:bg":"Шяуляй","name:de":"Schaulen","name:el":"Σιαουλιάι","name:en":"Šiauliai","name:es":"Šiauliai","name:fa":"شاولیای","name:fr":"Šiauliai","name:he":"שאולאי","name:hr":"Šiauliai","name:ja":"シャウレイ","name:ka":"შიაულიაი","name:ko":"샤울랴이","name:lt":"Šiauliai","name:lv":"Šauļi","name:ml":"ഷൗലയ്","name:mn":"Шяуляй","name:mo":"Шяуляй","name:pl":"Szawle","name:ru":"Шяуляй","name:sr":"Шјауљај","name:th":"เชาเล","name:uk":"Шяуляй","name:ur":"شئولئی","name:uz":"Shyaulyay","name:yi":"שאַװל","name:zh":"希奥利艾","loc_name":"Saulės miestas","name:ltg":"Šauli","name:mhr":"Шяуляй","name:pnb":"شیاؤلیائی","name:sgs":"Šiaulē","name:vep":"Šäuläi","alt_name:ru":"Шауляй","old_name:be":"Шаўлі","old_name:hr":"Šavli","old_name:lt":"Saule"},"display_name":"Šiauliai, Šiaulių miesto savivaldybė, Šiaulių apskritis, Lietuva","address":{"city":"Šiauliai","state_district":"Šiaulių miesto savivaldybė","ISO3166-2-lvl5":"LT-43","state":"Šiaulių apskritis","ISO3166-2-lvl4":"LT-SA","country":"Lietuva","country_code":"lt"},"population":109328,"osm_type":"node","osm_id":27193269,"type":"city","location":[23.3157775,55.9340823],"bbox":[23.1557775,55.7740823,23.4757775,56.0940823],"border":{"name":"Šiauliai","other_names":{"name:be":"Шаўляй","name:de":"Šiauliai","name:en":"Šiauliai","name:lt":"Šiauliai","name:lv":"Šauļi","name:pl":"Szawle","name:ru":"Шяуляй","name:th":"เช็วเลย์","name:uk":"Шяуляй","name:yi":"שאַװל","old_name:be":"Шаўлі","old_name:de":"Schaulen","old_name:lt":"Saule","old_name:ru":"Шавли","name:ar":"شياولياي","name:ay":"Shawllay","name:az":"Şyaulyay","name:bg":"Шяуляй","name:el":"Σιαουλιάι","name:es":"Šiauliai","name:fa":"شاولیای","name:fr":"Šiauliai","name:he":"שאולאי","name:hr":"Šiauliai","name:ja":"シャウレイ","name:ka":"შიაულიაი","name:ko":"샤울랴이","name:ml":"ഷൗലയ്","name:mn":"Шяуляй","name:mo":"Шяуляй","name:sr":"Шјауљај","name:ur":"شئولئی","name:uz":"Shyaulyay","name:zh":"希奥利艾","loc_name":"Saulės miestas","name:ltg":"Šauli","name:mhr":"Шяуляй","name:pnb":"شیاؤلیائی","name:sgs":"Šiaulē","name:vep":"Šäuläi","alt_name:ru":"Шауляй","old_name:hr":"Šavli","alt:de":"Schaulen","alt:th":"เชาเล"},"display_name":"Šiauliai, Šiaulių miesto savivaldybė, Šiaulių apskritis, Lietuva","address":{"city":"Šiauliai","state_district":"Šiaulių miesto savivaldybė","ISO3166-2-lvl5":"LT-43","state":"Šiaulių apskritis","ISO3166-2-lvl4":"LT-SA","country":"Lietuva","country_code":"lt"},"population":109328,"osm_type":"relation","osm_id":1714886,"type":"administrative","location":[23.3157775,55.9340823],"bbox":[23.2280326,55.8408308,23.4290094,55.9712623]}}
{"name":"Vilnius","other_names":{"name:ab":"Вилниус","name:am":"ቪልኒውስ","name:an":"Vilna","name:ar":"فيلنيوس","name:av":"Вильнюс","name:ay":"Wilñus","name:az":"Vilnüs","name:ba":"Вильнюс","name:be":"Вільня","name:bg":"Вилнюс","name:bn":"ভিলনিউস","name:bo":"ལྦེ་ནི་སུ་ནི།","name:br":"Vilnius","name:ca":"Vílnius","name:ce":"Вильнюс","name:cs":"Vilnius","name:cu":"Вилн҄ь","name:cv":"Вилнӳс","name:de":"Vilnius","name:el":"Βίλνιους","name:en":"Vilnius","name:eo":"Vilno","name:es":"Vilna","name:eu":"Vilnius","name:fa":"ویلنیوس","name:fi":"Vilna","name:fr":"Vilnius","name:fy":"Vilnjûs","name:ga":"Vilnias","name:he":"וילנה","name:hi":"विल्नुस","name:hr":"Vilnius","name:ht":"Vilnis","name:hu":"Vilnius","name:hy":"Վիլնյուս","name:is":"Vilníus","name:it":"Vilnius","name:iu":"ᕕᓪᓂᐅᔅ","name:ja":"ヴィリニュス","name:ka":"ვილნიუსი","name:kk":"Вильнюс","name:ko":"빌뉴스","name:ku":"Vîlnûs","name:kv":"Вильнюс","name:ky":"Вильнюс","name:la":"Vilna","name:ln":"Wilna","name:lt":"Vilnius","name:lv":"Viļņa","name:mk":"Вилнус","name:ml":"വിൽനുസ്","name:mn":"Вильнюс","name:mo":"Вильнюс","name:mr":"व्हिल्नियस","name:nl":"Vilnius","name:no":"Vilnius","name:nv":"Tó Doolkʼoolí","name:oc":"Vílnius","name:os":"Вильнюс","name:pa":"ਵਿਲਨਸ","name:pl":"Wilno","name:ps":"ویلنیوس","name:ro":"Vilnius","name:ru":"Вильнюс","name:sa":"विल्नियस्","name:sc":"Vìlnius","name:sd":"ولنيئس","name:sk":"Vilnius","name:sl":"Vilna","name:sq":"Vilniusi","name:sr":"Вилњус","name:sv":"Vilnius","name:ta":"வில்னியஸ்","name:tg":"Вилнюс","name:th":"วิลนีอุส","name:tl":"Vilna","name:tr":"Vilnius","name:uk":"Вільнюс","name:ur":"ولنیس","name:uz":"Vilnyus","name:wo":"Wilniyus","name:yi":"ווילנע","name:yo":"Filnius","name:zh":"维尔纽斯","name:zu":"IVilnyusi","alt_name":"Vilna","int_name":"Vilnius","name:arz":"فيلنيوس","name:ast":"Vilnius","name:ckb":"ڤیلنیوس","name:crh":"Vilnüs","name:csb":"Wilna","name:diq":"Vilniyus","name:gag":"Vilnüs","name:lad":"Vilna","name:lrc":"ویلینوس","name:ltg":"Viļne","name:mdf":"Вильнюс","name:mhr":"Вильнюс","name:mrj":"Вильнюс","name:myv":"Вильнюс","name:nds":"Wilne","name:pnb":"ولنیس","name:sah":"Вильнюс","name:szl":"Wilno","name:udm":"Вильнюс","name:vec":"Vilna","name:vep":"Vil'nüs","name:yue":"維爾紐斯","alt_name:be":"Вільнюс","alt_name:de":"Wilna","old_name:de":"Wilna","old_name:en":"Vilna","old_name:hr":"Vilna","old_name:it":"Vilna","old_name:sk":"Vilno","name:bat-smg":"Vėlnios","name:iu-Latn":"vilnius","name:zh-Hans":"维尔纽斯","name:zh-Hant":"維爾紐斯","name:be-tarask":"Вільня"},"display_name":"Vilnius, Vilniaus miesto savivaldybė, Vilniaus apskritis, Lietuva","address":{"city":"Vilnius","state_district":"Vilniaus miesto savivaldybė","ISO3166-2-lvl5":"LT-57","state":"Vilniaus apskritis","ISO3166-2-lvl4":"LT-VL","country":"Lietuva","country_code":"lt"},"population":581475,"osm_type":"node","osm_id":27193093,"type":"city","location":[25.2829111,54.6870458],"bbox":[25.1229111,54.5270458,25.4429111,54.8470458],"border":{"name":"Vilnius","other_names":{"name:be":"Вільнюс","name:bg":"Вилнюс","name:cs":"Vilno","name:de":"Vilnius","name:en":"Vilnius","name:es":"Vilna","name:fy":"Vilnjûs","name:hr":"Vilnius","name:it":"Vilnius","name:lt":"Vilnius","name:lv":"Viļņa","name:mk":"Вилнус","name:pl":"Wilno","name:ru":"Вильнюс","name:sh":"Viljnus","name:sk":"Vilno","name:sr":"Вилњус","name:th":"วิลนีอัส","name:uk":"Вільнюс","name:ltg":"Viļne","old_name:de":"Wilna","old_name:it":"Vilna","name:bat-smg":"Vėlnios","name:ab":"Вилниус","name:am":"ቪልኒውስ","name:an":"Vilna","name:ar":"فيلنيوس","name:av":"Вильнюс","name:ay":"Wilñus","name:az":"Vilnüs","name:ba":"Вильнюс","name:bn":"ভিলনিউস","name:bo":"ལྦེ་ནི་སུ་ནི།","name:br":"Vilnius","name:ca":"Vílnius","name:ce":"Вильнюс","name:cu":"Вилн҄ь","name:cv":"Вилнӳс","name:el":"Βίλνιους","name:eo":"Vilno","name:eu":"Vilnius","name:fa":"ویلنیوس","name:fi":"Vilna","name:fr":"Vilnius","name:ga":"Vilnias","name:he":"וילנה","name:hi":"विल्नुस","name:ht":"Vilnis","name:hu":"Vilnius","name:hy":"Վիլնյուս","name:is":"Vilníus","name:iu":"ᕕᓪᓂᐅᔅ","name:ja":"ヴィリニュス","name:ka":"ვილნიუსი","name:kk":"Вильнюс","name:ko":"빌뉴스","name:ku":"Vîlnûs","name:kv":"Вильнюс","name:ky":"Вильнюс","name:la":"Vilna","name:ln":"Wilna","name:ml":"വിൽനുസ്","name:mn":"Вильнюс","name:mo":"Вильнюс","name:mr":"व्हिल्नियस","name:nl":"Vilnius","name:no":"Vilnius","name:nv":"Tó Doolkʼoolí","name:oc":"Vílnius","name:os":"Вильнюс","name:pa":"ਵਿਲਨਸ","name:ps":"ویلنیوس","name:ro":"Vilnius","name:sa":"विल्नियस्","name:sc":"Vìlnius","name:sd":"ولنيئس","name:sl":"Vilna","name:sq":"Vilniusi","name:sv":"Vilnius","name:ta":"வில்னியஸ்","name:tg":"Вилнюс","name:tl":"Vilna","name:tr":"Vilnius","name:ur":"ولنیس","name:uz":"Vilnyus","name:wo":"Wilniyus","name:yi":"ווילנע","name:yo":"Filnius","name:zh":"维尔纽斯","name:zu":"IVilnyusi","name:be-tarask":"Вільня","alt_name":"Vilna","int_name":"Vilnius","name:arz":"فيلنيوس","name:ast":"Vilnius","name:ckb":"ڤیلنیوس","name:crh":"Vilnüs","name:csb":"Wilna","name:diq":"Vilniyus","name:gag":"Vilnüs","name:lad":"Vilna","name:lrc":"ویلینوس","name:mdf":"Вильнюс","name:mhr":"Вильнюс","name:mrj":"Вильнюс","name:myv":"Вильнюс","name:nds":"Wilne","name:pnb":"ولنیس","name:sah":"Вильнюс","name:szl":"Wilno","name:udm":"Вильнюс","name:vec":"Vilna","name:vep":"Vil'nüs","name:yue":"維爾紐斯","alt_name:be":"Вільнюс","alt_name:de":"Wilna","old_name:en":"Vilna","old_name:hr":"Vilna","old_name:sk":"Vilno","name:iu-Latn":"vilnius","name:zh-Hans":"维尔纽斯","name:zh-Hant":"維爾紐斯","alt:be":"Вільня","alt:cs":"Vilnius","alt:sk":"Vilnius","alt:th":"วิลนีอุส"},"display_name":"Vilnius, Vilniaus miesto savivaldybė, Vilniaus apskritis, Lietuva","address":{"city":"Vilnius","state_district":"Vilniaus miesto savivaldybė","ISO3166-2-lvl5":"LT-57","state":"Vilniaus apskritis","ISO3166-2-lvl4":"LT-VL","country":"Lietuva","country_code":"lt"},"population":581475,"osm_type":"relation","osm_id":1529146,"type":"administrative","location":[25.2829111,54.6870458],"bbox":[25.0245351,54.5689058,25.4814574,54.83232]}}
