{"name":"嘉義市","other_names":{"name:ar":"شيا يي","name:cs":"Ťia-i","name:de":"Chiayi","name:en":"Chiayi","name:es":"Chiayi","name:et":"Chia-i","name:eu":"Chiayi","name:fr":"Chiayi","name:id":"Kota Chiayi","name:it":"Chiayi","name:ja":"嘉義市","name:ko":"자이시","name:pl":"Jiayi","name:ru":"Цзяи","name:th":"เจียอี้","name:vi":"Gia Nghĩa","name:zh":"嘉義市","name:cdo":"Gă-ngiê","name:ceb":"Chiayi","name:hak":"Kâ-ngi-sṳ","name:nan":"Ka-gī-chhī","name:yue":"嘉義市","name:zh-Bopo":"ㄐㄧㄚ ㄧˋ ㄕˋ","name:nan-Hant":"嘉義市","name:nan-Latn-tailo":"Ka-gī-tshī","name:zh-Latn-pinyin":"Jiāyì Shì","name:nan-Latn-pehoeji":"Ka-gī-chhī","name:zh-Latn-tongyong":"Jiayì Shìh"},"display_name":"嘉義市, 600, 臺灣","address":{"city":"嘉義市","ISO3166-2-lvl4":"TW-CYI","postcode":"600","country":"臺灣","country_code":"tw"},"population":269874,"osm_type":"node","osm_id":60655922,"type":"city","location":[120.4535412,23.4811089],"bbox":[120.2935412,23.3211089,120.6135412,23.6411089],"border":{"name":"嘉義市","other_names":{"name:ar":"شيا يي","name:cs":"Ťia-i","name:de":"Chiayi","name:en":"Chiayi","name:fr":"Chiayi","name:id":"Kota Chiayi","name:it":"Chiayi","name:ja":"嘉義市","name:ko":"자이 시","name:pl":"Jiayi","name:ru":"Цзяи","name:th":"เจียอี้","name:zh":"嘉義市","nat_ref":"10020","name:cdo":"Gă-ngiê","name:ceb":"Chiayi","name:hak":"Kâ-ngi-sṳ","name:nan":"Ka-gī-chhī","name:yue":"嘉義市","ISO3166-2":"TW-CYI","name:zh-Bopo":"ㄐㄧㄚ ㄧˋ ㄕˋ","name:zh-Hans":"嘉义市","name:zh-Hant":"嘉義市","name:zh-hant":"嘉義市","name:nan-Hant":"嘉義市","name:es":"Chiayi","name:et":"Chia-i","name:eu":"Chiayi","name:vi":"Gia Nghĩa","name:nan-Latn-tailo":"Ka-gī-tshī","name:zh-Latn-pinyin":"Jiāyì Shì","name:nan-Latn-pehoeji":"Ka-gī-chhī","name:zh-Latn-tongyong":"Jiayì Shìh","alt:ko":"자이시"},"display_name":"嘉義市, 臺灣","address":{"city":"嘉義市","ISO3166-2-lvl4":"TW-CYI","country":"臺灣","country_code":"tw"},"population":269874,"osm_type":"relation","osm_id":2790418,"type":"administrative","location":[120.4535412,23.4811089],"bbox":[120.3891572,23.4395803,120.5093696,23.5183307]}}
{"name":"基隆市","other_names":{"name:ar":"كيلونغ","name:az":"Kiilunq","name:cs":"Ťi-lung","name:de":"Keelung","name:en":"Keelung","name:eo":"Ĉilun","name:es":"Keelung","name:et":"Keelung","name:eu":"Keelung","name:fa":"کیلونگ","name:fi":"Keelung","name:fr":"Keelung","name:he":"ג'ילונג (טאיוואן)","name:id":"Kota Keelung","name:it":"Keelung","name:ja":"基隆市","name:ko":"지룽시","name:lt":"Dzilongas","name:mn":"Жилун","name:nl":"Keelung","name:no":"Chilung","name:pl":"Keelung","name:pt":"Keelung","name:ru":"Цзилун","name:sv":"Chilung","name:th":"จีหลง","name:tr":"Keelung","name:uk":"Цзілун","name:ur":"کیلونگ","name:vi":"Cơ Long","name:zh":"基隆市","alt_name":"基隆","name:arz":"كيلونج","name:ast":"Keelung","name:cdo":"Giĕ-lè̤ng","name:ceb":"Keelung","name:hak":"Kî-lùng-sṳ","name:nan":"Ke-lâng-chhī","name:sco":"Keelung","name:war":"Keelung","name:wuu":"基隆","name:yue":"基隆","name:zh-Bopo":"ㄐㄧ ㄌㄨㄥˊ ㄕˋ","name:zh-Hans":"基隆市","name:zh-Hant":"基隆市","name:nan-Hant":"基隆市","name:nan-Latn-tailo":"Ke-lâng-tshī","name:zh-Latn-pinyin":"Jīlóng Shì","name:nan-Latn-pehoeji":"Ke-lâng-chhī","name:zh-Latn-tongyong":"Jilóng-Shìh"},"display_name":"基隆市, 臺灣","address":{"city":"基隆市","ISO3166-2-lvl4":"TW-KEE","country":"臺灣","country_code":"tw"},"population":372100,"osm_type":"node","osm_id":2543492706,"type":"city","location":[121.744652,25.1317232],"bbox":[121.584652,24.9717232,121.904652,25.2917232],"border":{"name":"基隆市","other_names":{"name:ar":"كيلونغ","name:az":"Kiilunq","name:cs":"Ťi-lung","name:de":"Keelung","name:en":"Keelung","name:eo":"Ĉilun","name:es":"Keelung","name:eu":"Keelung","name:fa":"کیلونگ","name:fi":"Keelung","name:fr":"Keelung","name:he":"ג'ילונג (טאיוואן)","name:id":"Kota Keelung","name:it":"Keelung","name:ja":"基隆市","name:ko":"지룽시","name:lt":"Dzilongas","name:mn":"Жилун","name:nl":"Keelung","name:no":"Chilung","name:pl":"Keelung","name:pt":"Keelung","name:ru":"Цзилун","name:sv":"Chilung","name:th":"จีหลง","name:tr":"Keelung","name:uk":"Цзілун","name:ur":"کیلونگ","name:vi":"Cơ Long","name:zh":"基隆市","nat_ref":"10017","name:arz":"كيلونج","name:ast":"Keelung","name:cdo":"Giĕ-lè̤ng","name:ceb":"Keelung","name:hak":"Kî-lùng-sṳ","name:nan":"Ke-lâng-chhī","name:sco":"Keelung","name:war":"Keelung","name:wuu":"基隆","name:yue":"基隆","ISO3166-2":"TW-KEE","name:zh-Bopo":"ㄐㄧ ㄌㄨㄥˊ ㄕˋ","name:zh-Hans":"基隆市","name:zh-Hant":"基隆市","name:zh-hant":"基隆市","name:nan-Hant":"基隆市","name:et":"Keelung","alt_name":"基隆","name:nan-Latn-tailo":"Ke-lâng-tshī","name:zh-Latn-pinyin":"Jīlóng Shì","name:nan-Latn-pehoeji":"Ke-lâng-chhī","name:zh-Latn-tongyong":"Jilóng Shìh","alt:zh-Latn-tongyong":"Jilóng-Shìh"},"display_name":"基隆市, 臺灣","address":{"city":"基隆市","ISO3166-2-lvl4":"TW-KEE","country":"臺灣","country_code":"tw"},"population":372100,"osm_type":"relation","osm_id":1296154,"type":"administrative","location":[121.744652,25.1317232],"bbox":[121.6267923,25.0524727,122.10916,25.6333576]}}
{"name":"新北市","other_names":{"name:ar":"تايبيه الجديدة","name:cs":"Nová Tchaj-pej","name:de":"Neu-Taipeh","name:el":"Νέα Ταϊπέι","name:en":"New Taipei","name:es":"Nuevo Taipéi","name:et":"Xinbei","name:eu":"Taipei Berria","name:fr":"Nouveau Taipei","name:hr":"Novi Taipei","name:id":"Kota Taipei Baru","name:it":"Nuova Taipei","name:ja":"新北市","name:ko":"신베이시","name:nl":"Nieuw Taipei","name:pl":"Nowe Tajpej","name:pt":"Nova Taipé","name:ru":"Нью-Тайбэй","name:sl":"Novi Tajpej","name:sr":"Нови Тајпеј","name:th":"ซินเป่ย์","name:tr":"Yeni Taipei","name:uk":"Новий Тайбей","name:vi":"Tân Bắc","name:zh":"新北市","name:cdo":"Sĭng-báe̤k","name:ceb":"Taipei (lalawigan)","name:hak":"Sîn-pet-sṳ","name:nan":"Sin-pak-chhī","name:wuu":"新北市","name:yue":"新北市","old_name":"台北縣 (Taipei County)","old_name:en":"Taipei County","old_name:vi":"Đài Bắc","old_name:zh":"台北縣","name:zh-Bopo":"ㄒㄧㄣ ㄅㄟˇ ㄕˋ","name:zh-Hans":"新北市","name:zh-Hant":"新北市","name:nan-Hant":"新北市","old_name:nan-Hant":"台北縣","name:nan-Latn-tailo":"Sin-pak-tshī","name:zh-Latn-pinyin":"Xīnběi Shì","name:nan-Latn-pehoeji":"Sin-pak-chhī","name:zh-Latn-tongyong":"Sinběi-Shìh","old_name:nan-Latn-tailo":"Tâi-pak-kuān","old_name:nan-Latn-pehoeji":"Tâi-pak-koān"},"display_name":"新北市, 臺灣","address":{"city":"新北市","ISO3166-2-lvl4":"TW-NWT","country":"臺灣","country_code":"tw"},"population":3979208,"osm_type":"node","osm_id":60655699,"type":"city","location":[121.4656619,25.011997],"bbox":[121.3056619,24.851997,121.6256619,25.171997],"border":{"name":"新北市","other_names":{"name:ar":"تايبيه الجديدة","name:cs":"Nová Tchaj-pej","name:de":"Neu-Taipeh","name:en":"New Taipei","name:es":"Nuevo Taipéi","name:fr":"Nouveau Taipei","name:he":"טאיפיי החדשה","name:id":"Kota Taipei Baru","name:it":"Nuova Taipei","name:ja":"新北市","name:ko":"신베이 시","name:ru":"Новый Тайбэй","name:th":"ซินเป่ย์","name:uk":"Новий Тайбей","name:vi":"Tân Bắc","name:zh":"新北市","nat_ref":"65000010","name:cdo":"Sĭng-báe̤k","name:ceb":"Taipei (lalawigan)","name:hak":"Sîn-pet-sṳ","name:nan":"Sin-pak-chhī","name:wuu":"新北市","name:yue":"新北市","old_name":"台北縣","ISO3166-2":"TW-NWT","old_name:cs":"okres Tchaj-pej","old_name:en":"Taipei County","old_name:vi":"Đài Bắc","old_name:zh":"台北縣","name:zh-Bopo":"ㄒㄧㄣ ㄅㄟˇ ㄕˋ","name:zh-Hans":"新北市","name:zh-Hant":"新北市","name:zh-hant":"新北市","old_name:nan":"Tâi-pak-koān","name:nan-Hant":"新北市","name:el":"Νέα Ταϊπέι","name:et":"Xinbei","name:eu":"Taipei Berria","name:hr":"Novi Taipei","name:nl":"Nieuw Taipei","name:pl":"Nowe Tajpej","name:pt":"Nova Taipé","name:sl":"Novi Tajpej","name:sr":"Нови Тајпеј","name:tr":"Yeni Taipei","_place_old_name":"台北縣 (Taipei County)","old_name:nan-Hant":"台北縣","name:nan-Latn-tailo":"Sin-pak-tshī","name:zh-Latn-pinyin":"Xīnběi Shì","name:nan-Latn-pehoeji":"Sin-pak-chhī","name:zh-Latn-tongyong":"Sinběi Shìh","old_name:nan-Latn-tailo":"Tâi-pak-kuān","old_name:nan-Latn-pehoeji":"Tâi-pak-koān","alt:ko":"신베이시","alt:ru":"Нью-Тайбэй","alt:zh-Latn-tongyong":"Sinběi-Shìh"},"display_name":"新北市, 臺灣","address":{"city":"新北市","ISO3166-2-lvl4":"TW-NWT","country":"臺灣","country_code":"tw"},"population":3979208,"osm_type":"relation","osm_id":1527220,"type":"administrative","location":[121.4656619,25.011997],"bbox":[121.2826336,24.6731646,122.0070799,25.2997353]}}
{"name":"新竹市","other_names":{"name:ar":"سين شو","name:bg":"Хсинчу","name:bo":"ཞིག་ཀྲུའུ།","name:cs":"Sin-ču","name:de":"Hsinchu","name:en":"Hsinchu","name:eo":"Hsinĉu","name:es":"Hsinchu","name:et":"Hsinchu","name:eu":"Hsinchu","name:fa":"سینچو","name:fi":"Hsinchu","name:fr":"Hsinchu","name:he":"שינג'ו","name:hr":"Hsinchu","name:id":"Kota Hsinchu","name:it":"Hsinchu","name:ja":"新竹市","name:kk":"Синьчжу","name:ko":"신주시","name:lt":"Sindžu","name:mn":"Шиньжү","name:nl":"Hsinchu","name:no":"Hsinchu","name:pl":"Xinzhu","name:pt":"Hsinchu","name:ru":"Синьчжу","name:sv":"Hsinchu","name:th":"ซินจู๋","name:tr":"Hsinchu","name:uk":"Сіньчжу","name:ur":"ہسینچو","name:vi":"Tân Trúc","name:za":"Sinhcuz","name:zh":"新竹市","name:cdo":"Sĭng-dé̤ṳk","name:ceb":"Hsinchu","name:hak":"Sîn-chuk-sṳ","name:nan":"Sin-tek-chhī","name:sco":"Hsinchu","name:syn":"shw","name:war":"Hsinchu","name:wuu":"新竹市","name:yue":"新竹市","name:zh-Bopo":"ㄒㄧㄣ ㄓㄨˊ ㄕˋ","name:zh-Hans":"新竹市","name:zh-Hant":"新竹市","name:nan-Hant":"新竹市","name:nan-Latn-tailo":"Sin-tik-tshī","name:zh-Latn-pinyin":"Xīnzhú ShÌ","name:nan-Latn-pehoeji":"Sin-tek-chhī","name:zh-Latn-tongyong":"Sinjhú ShÌh"},"display_name":"新竹市, 300, 臺灣","address":{"city":"新竹市","ISO3166-2-lvl4":"TW-HSZ","postcode":"300","country":"臺灣","country_code":"tw"},"population":453120,"osm_type":"node","osm_id":60656019,"type":"city","location":[120.9686833,24.8066333],"bbox":[120.8086833,24.6466333,121.1286833,24.9666333],"border":{"name":"新竹市","other_names":{"name:ar":"سين شو","name:bo":"ཞིག་ཀྲུའུ།","name:cs":"Sin-ču","name:de":"Hsinchu","name:en":"Hsinchu","name:eo":"Hsinĉu","name:es":"Hsinchu","name:fa":"سینچو","name:fi":"Hsinchu","name:fr":"Hsinchu","name:he":"שינג'ו","name:id":"Kota Hsinchu","name:it":"Hsinchu","name:ja":"新竹市","name:kk":"Синьчжу","name:ko":"신주시","name:lt":"Sindžu","name:mn":"Шиньжү","name:nl":"Hsinchu","name:no":"Hsinchu","name:pl":"Xinzhu","name:pt":"Hsinchu","name:ru":"Синьчжу","name:sv":"Hsinchu","name:th":"ซินจู๋","name:tr":"Hsinchu","name:uk":"Сіньчжу","name:ur":"ہسینچو","name:vi":"Tân Trúc","name:za":"Sinhcuz","name:zh":"新竹市","nat_ref":"10018","name:cdo":"Sĭng-dé̤ṳk","name:ceb":"Hsinchu","name:hak":"Sîn-chuk-sṳ","name:nan":"Sin-tek-chhī","name:sco":"Hsinchu","name:syn":"shw","name:war":"Hsinchu","name:wuu":"新竹市","name:yue":"新竹市","ISO3166-2":"TW-HSZ","name:zh-Bopo":"ㄒㄧㄣ ㄓㄨˊ ㄕˋ","name:zh-Hans":"新竹市","name:zh-Hant":"新竹市","name:zh-hant":"新竹市","name:nan-Hant":"新竹市","name:bg":"Хсинчу","name:et":"Hsinchu","name:eu":"Hsinchu","name:hr":"Hsinchu","name:nan-Latn-tailo":"Sin-tik-tshī","name:zh-Latn-pinyin":"Xīnzhú ShÌ","name:nan-Latn-pehoeji":"Sin-tek-chhī","name:zh-Latn-tongyong":"Sinjhú ShÌh"},"display_name":"新竹市, 臺灣","address":{"city":"新竹市","ISO3166-2-lvl4":"TW-HSZ","country":"臺灣","country_code":"tw"},"population":453120,"osm_type":"relation","osm_id":2849488,"type":"administrative","location":[120.9686833,24.8066333],"bbox":[120.8794247,24.712573,121.0335407,24.8532113]}}
{"name":"桃園市","other_names":{"name:ar":"تاو يوان","name:cs":"okres Tchao-jüan","name:de":"Taoyuan","name:en":"Taoyuan","name:es":"Taoyuan","name:et":"Taoyuan","name:fr":"Taoyuan","name:id":"Kota Taoyuan","name:ja":"桃園市","name:ko":"타오위안시","name:ru":"Таоюань","name:th":"เถาหยวน","name:vi":"Đào Viên","name:zh":"桃園市","name:cdo":"Tò̤-huòng","name:ceb":"Taoyuan","name:hak":"Thò-yèn-sṳ","name:nan":"Thô-hn̂g-chhī","name:wuu":"桃園市","name:yue":"桃園市","old_name":"桃園縣","old_name:en":"Taoyuan County","old_name:zh":"桃園縣","name:zh-Bopo":"ㄊㄠˊ ㄩㄢˊ ㄕˋ","name:zh-Hans":"桃园市","name:zh-Hant":"桃園市","old_name:nan":"Thô-hn̂g-koān","name:nan-Hant":"桃園市","old_name:nan-Hant":"桃園縣","name:nan-Latn-tailo":"Thô-hn̂g-tshī","name:zh-Latn-pinyin":"Táoyuán Shì","name:nan-Latn-pehoeji":"Thô-hn̂g-chhī","name:zh-Latn-tongyong":"Táoyuán Shìh","old_name:nan-Latn-tailo":"Thô-hn̂g-kuān","old_name:nan-Latn-pehoeji":"Thô-hn̂g-koān"},"display_name":"桃園市, 臺灣","address":{"city":"桃園市","ISO3166-2-lvl4":"TW-TAO","country":"臺灣","country_code":"tw"},"population":2147763,"osm_type":"node","osm_id":60655687,"type":"city","location":[121.3010003,24.9929995],"bbox":[121.1410003,24.8329995,121.4610003,25.1529995],"border":{"name":"桃園市","other_names":{"name:ar":"تاو يوان","name:cs":"okres Tchao-jüan","name:de":"Taoyuan","name:en":"Taoyuan City","name:es":"Taoyuan","name:fr":"Taoyuan","name:hu":"Taojüan megye","name:id":"Kota Taoyuan","name:it":"Taoyuan","name:ja":"桃園市","name:ko":"타오위안 시","name:mn":"Таоюань","name:ru":"Таоюань","name:th":"เถา-ยฺเหวียน","name:zh":"桃園市","nat_ref":"68","name:cdo":"Tò̤-huòng","name:ceb":"Taoyuan","name:hak":"Thò-yèn-sṳ","name:nan":"Thô-hn̂g-chhī","name:wuu":"桃園市","name:yue":"桃園市","old_name":"桃園縣","ISO3166-2":"TW-TAO","old_name:en":"Taoyuan County","old_name:zh":"桃園縣","name:zh-Bopo":"ㄊㄠˊ ㄩㄢˊ ㄕˋ","name:zh-Hans":"桃园市","name:zh-Hant":"桃園市","name:zh-hant":"桃園市","old_name:nan":"Thô-hn̂g-koān","name:nan-Hant":"桃園市","name:et":"Taoyuan","name:vi":"Đào Viên","old_name:nan-Hant":"桃園縣","name:nan-Latn-tailo":"Thô-hn̂g-tshī","name:zh-Latn-pinyin":"Táoyuán Shì","name:nan-Latn-pehoeji":"Thô-hn̂g-chhī","name:zh-Latn-tongyong":"Táoyuán Shìh","old_name:nan-Latn-tailo":"Thô-hn̂g-kuān","old_name:nan-Latn-pehoeji":"Thô-hn̂g-koān","alt:en":"Taoyuan","alt:ko":"타오위안시","alt:th":"เถาหยวน"},"display_name":"桃園市, 臺灣","address":{"city":"桃園市","ISO3166-2-lvl4":"TW-TAO","country":"臺灣","country_code":"tw"},"population":2147763,"osm_type":"relation","osm_id":2770986,"type":"administrative","location":[121.3010003,24.9929995],"bbox":[120.9858116,24.5864468,121.4798532,25.1221146]}}
{"name":"臺中市","other_names":{"name:af":"Taichung","name:ar":"تاي شانغ","name:be":"Тайчжун","name:ce":"Тайчжун","name:cs":"Tchaj-čung","name:de":"Taichung","name:en":"Taichung","name:eo":"Tajĉung","name:es":"Taichung","name:et":"Taichung","name:fa":"تایچونگ","name:fi":"Taichung","name:fr":"Taichung","name:ga":"Taichung","name:he":"טאיג'ונג","name:hi":"ताइचुंग","name:hr":"Taichung","name:id":"Kota Taichung","name:it":"Taichung","name:ja":"台中市","name:ko":"타이중시","name:ky":"Тайчжун","name:lt":"Taičungas","name:lv":"Taidžuna","name:mn":"Тайжун","name:nl":"Taichung","name:no":"Taichung","name:pl":"Taizhong","name:pt":"Taichung","name:qu":"T'aychun","name:ro":"Taichung","name:ru":"Тайчжун","name:sl":"Tajčung","name:sr":"Тајучунг","name:sv":"Taichung","name:th":"ไถจง","name:tr":"Taichung","name:ug":"Teyjong shehiri","name:uk":"Тайчжун","name:ur":"تائچونگ","name:vi":"Đài Trung","name:za":"Daizcungh","name:zh":"臺中市","name:ast":"Taichung","name:cdo":"Dài-dṳ̆ng","name:gan":"臺中市","name:hak":"Thòi-chûng-sṳ","name:nan":"Tâi-tiong-chhī","name:sco":"Taichung","name:szl":"Taizhong","name:tay":"shangh","name:war":"Taichung","name:wuu":"臺中市","name:yue":"臺中市","name:zh-Bopo":"ㄊㄞˊ ㄓㄨㄥ ㄕˋ","name:zh-Hans":"台中市","name:zh-Hant":"臺中市","name:nan-Hant":"臺中市","name:nan-Latn-tailo":"Tâi-tiong-tshī","name:zh-Latn-pinyin":"Táizhōng Shì","name:nan-Latn-pehoeji":"Tâi-tiong-chhī","name:zh-Latn-tongyong":"Táijhong Shìh"},"display_name":"臺中市, 臺灣","address":{"city":"臺中市","ISO3166-2-lvl4":"TW-TXG","country":"臺灣","country_code":"tw"},"population":2767239,"osm_type":"node","osm_id":60655918,"type":"city","location":[120.6478282,24.163162],"bbox":[120.4878282,24.003162,120.8078282,24.323162],"border":{"name":"臺中市","other_names":{"name:af":"Taichung","name:ar":"تاي شانغ","name:ce":"Тайчжун","name:cs":"Tchaj-čung","name:de":"Taichung","name:en":"Taichung","name:eo":"Tajĉung","name:es":"Taichung","name:fa":"تایچونگ","name:fi":"Taichung","name:fr":"Taichung","name:ga":"Taichung","name:he":"טאיג'ונג","name:hi":"ताइचुंग","name:id":"Kota Taichung","name:it":"Taichung","name:ja":"台中市","name:ko":"타이중 시","name:ky":"Тайчжун","name:lt":"Taičungas","name:lv":"Taidžuna","name:mn":"Тайжун","name:nl":"Taichung","name:no":"Taichung","name:pl":"Taizhong","name:pt":"Taichung","name:qu":"T'aychun","name:ro":"Taichung","name:ru":"Тайчжун","name:sv":"Taichung","name:th":"ไถจง","name:tr":"Taichung","name:ug":"Teyjong shehiri","name:uk":"Тайчжун","name:ur":"تائچونگ","name:vi":"Đài Trung","name:za":"Daizcungh","name:zh":"臺中市","nat_ref":"66","name:ast":"Taichung","name:cdo":"Dài-dṳ̆ng","name:gan":"臺中市","name:hak":"Thòi-chûng-sṳ","name:nan":"Tâi-tiong-chhī","name:sco":"Taichung","name:szl":"Taizhong","name:tay":"shangh","name:war":"Taichung","name:wuu":"臺中市","name:yue":"臺中市","ISO3166-2":"TW-TXG","name:zh-Bopo":"ㄊㄞˊ ㄓㄨㄥ ㄕˋ","name:zh-Hans":"台中市","name:zh-Hant":"臺中市","name:zh-hant":"臺中市","name:nan-Hant":"臺中市","name:be":"Тайчжун","name:et":"Taichung","name:hr":"Taichung","name:sl":"Tajčung","name:sr":"Тајучунг","name:nan-Latn-tailo":"Tâi-tiong-tshī","name:zh-Latn-pinyin":"Táizhōng Shì","name:nan-Latn-pehoeji":"Tâi-tiong-chhī","name:zh-Latn-tongyong":"Táijhong Shìh","alt:ko":"타이중시"},"display_name":"臺中市, 臺灣","address":{"city":"臺中市","ISO3166-2-lvl4":"TW-TXG","country":"臺灣","country_code":"tw"},"population":2767239,"osm_type":"relation","osm_id":2921154,"type":"administrative","location":[120.6478282,24.163162],"bbox":[120.4565596,23.99856,121.45096,24.44151]}}
{"name":"臺北市","other_names":{"name:af":"Taipei","name:am":"ታይፔ","name:an":"Taipei","name:ar":"تايبيه","name:az":"Taybey","name:ba":"Тайбэй","name:be":"Тайбэй","name:bg":"Тайпе","name:bn":"তাইপে","name:bo":"ཐའེ་པེ","name:br":"Taipei","name:bs":"Taipei","name:ca":"Taipei","name:ce":"Тайбэй","name:cs":"Tchaj-pej","name:cv":"Тайбэй","name:cy":"Taipei","name:da":"Taipei","name:de":"Taipeh","name:el":"Ταϊπέι","name:en":"Taipei","name:eo":"Tajpeo","name:es":"Taipéi","name:et":"Taipei","name:eu":"Taipei","name:fa":"تایپه","name:fi":"Taipei","name:fj":"Taipeh","name:fo":"Taipei","name:fr":"Taipei","name:fy":"Taipei","name:ga":"Taipei","name:gd":"Taipei","name:gl":"Taipei","name:gn":"Taipéi","name:ha":"Taipei","name:he":"טאיפיי","name:hi":"ताइपे","name:hr":"Taipei","name:ht":"Taypè","name:hu":"Tajpej","name:hy":"Թայբեյ","name:ia":"Taipei","name:id":"Taipei","name:ie":"Taipei","name:io":"Taipei","name:is":"Taípei","name:it":"Taipei","name:ja":"台北市","name:jv":"Taipei","name:ka":"ტაიბეი","name:kk":"Тайбэй","name:km":"តៃប៉ិ","name:kn":"ತೈಪೆ","name:ko":"타이베이시","name:ky":"Тайбэй","name:la":"Taipeia","name:lb":"Taipeh","name:li":"Taipei","name:lo":"ໄທເປ","name:lt":"Taipėjus","name:lv":"Taipeja","name:mg":"Taipei","name:mk":"Тајпеј","name:ml":"തായ്‌പെയ്","name:mn":"Тайбэй","name:mr":"ताइपेइ","name:ms":"Taipei","name:mt":"Tajpej","name:my":"ထိုင်ပေမြို့","name:nb":"Taipei","name:ne":"ताइपेइ","name:nl":"Taipei","name:nn":"Taipei","name:no":"Taipei","name:oc":"Taipei","name:or":"ତାଇପେ","name:os":"Тайбэй","name:pa":"ਤਾਈਪੇ","name:pl":"Tajpej","name:ps":"تایپي","name:pt":"Taipé","name:qu":"T'aypik","name:ro":"Taipei","name:ru":"Тайбэй","name:rw":"Tayipeyi","name:sc":"Taipei","name:sh":"Taipei","name:si":"තායිපේ","name:sk":"Tchaj-pej","name:sl":"Tajpej","name:sn":"Taipei","name:so":"Taipei","name:sq":"Taipei","name:sr":"Тајпеј","name:sv":"Taipei","name:sw":"Taipei","name:ta":"தாய்பெய்","name:tg":"Тайпей","name:th":"ไทเป","name:tl":"Taipei","name:tr":"Taipei","name:tt":"Taybey","name:ug":"تەيبېي شەھىرى","name:uk":"Тайбей","name:ur":"تائپے","name:uz":"Taypey","name:vi":"Đài Bắc","name:vo":"Táiběi","name:yi":"טאיפעי","name:yo":"Taipei","name:za":"Daizbaek","name:zh":"臺北市","alt_name":"台北","name:ace":"Taipéi","name:als":"Taipeh","name:arz":"تايبيه","name:ast":"Taipéi","name:azb":"تایپه","name:bcl":"Taipei","name:bxr":"Тайбэй","name:cdo":"Dài-báe̤k","name:ceb":"Taipei","name:ckb":"تایپێ","name:cnr":"Taipei","name:diq":"Taipei","name:frp":"Tayipèh","name:gan":"臺北市","name:hak":"Thòi-pet-sṳ","name:hif":"Taipei","name:hyw":"Թայբէյ","name:ilo":"Taipei","name:jam":"Taipei","name:kab":"Taypey","name:lad":"Taipei","name:lij":"Taipei","name:lmo":"Taipei","name:lzh":"臺北市","name:nan":"Tâi-pak-chhī","name:new":"ताइपेइ","name:nov":"Taipei","name:pam":"Taipei","name:pap":"Taipei","name:pms":"Taipei","name:pnb":"ٹاۓپی","name:sah":"Тайпэй","name:scn":"Taipei","name:sco":"Taipei","name:szl":"Tajpej","name:tpi":"Taipei","name:vec":"Taipei","name:vep":"Taibei","name:war":"Taipei","name:wuu":"臺北市","name:yue":"臺北市","name:zea":"Taipei","name:zh-Bopo":"ㄊㄞˊ ㄅㄟˇ ㄕˋ","name:zh-Hans":"台北市","name:zh-Hant":"臺北市","name:nan-Hant":"臺北市","name:be-tarask":"Тайбэй","name:nan-Latn-tailo":"Tâi-pak-tshī","name:nan-Latn-pehoeji":"Tâi-pak-chhī","name:zh-Latn-tongyong":"Táiběi Shìh","name:zh-Latn-CN-pinyin":"Táiběi Shì","name:zh-Latn-TW-pinyin":"Táiběi Shì"},"display_name":"臺北市, 臺灣","address":{"city":"臺北市","ISO3166-2-lvl4":"TW-TPE","country":"臺灣","country_code":"tw"},"population":2695704,"osm_type":"node","osm_id":1147314253,"type":"city","location":[121.5636796,25.0375198],"bbox":[121.4036796,24.8775198,121.7236796,25.1975198],"border":{"name":"臺北市","other_names":{"name:af":"Taipei","name:am":"ታይፔ","name:ar":"تايبيه","name:az":"Taybey","name:be":"Тайбэй","name:bg":"Тайпе","name:bn":"তাইপে","name:bo":"ཐའེ་པེ","name:br":"Taipei","name:bs":"Taipei","name:ca":"Taipei","name:ce":"Тайбэй","name:cs":"Tchaj-pej","name:cy":"Taipei","name:da":"Taipei","name:de":"Taipeh","name:el":"Ταϊπέι","name:en":"Taipei","name:eo":"Tajpeo","name:es":"Taipéi","name:et":"Taipei","name:eu":"Taipei","name:fa":"تایپه","name:fi":"Taipei","name:fj":"Taipeh","name:fo":"Taipei","name:fr":"Taipei","name:fy":"Taipei","name:ga":"Taipei","name:gd":"Taipei","name:gl":"Taipei","name:ha":"Taipei","name:he":"טאיפיי","name:hi":"ताइपे","name:hr":"Taipei","name:ht":"Taypè","name:hu":"Tajpej","name:hy":"Թայբեյ","name:ia":"Taipei","name:id":"Taipei","name:ie":"Taipei","name:io":"Taipei","name:is":"Taípei","name:it":"Taipei","name:ja":"台北市","name:jv":"Taipei","name:ka":"ტაიბეი","name:kk":"Тайбэй","name:kn":"ತೈಪೆ","name:ko":"타이베이시","name:ky":"Тайбэй","name:la":"Taipeia","name:lb":"Taipeh","name:lt":"Taipėjus","name:lv":"Taipeja","name:mg":"Taipei","name:mk":"Тајпеј","name:ml":"തായ്‌പെയ്","name:mn":"Тайбэй","name:mr":"ताइपेइ","name:ms":"Taipei","name:my":"ထိုင်ပေမြို့","name:ne":"ताइपेइ","name:nl":"Taipei","name:nn":"Taipei","name:no":"Taipei","name:oc":"Taipei","name:or":"ତାଇପେ","name:os":"Тайбэй","name:pa":"ਤਾਈਪੇ","name:pl":"Tajpej","name:pt":"Taipé","name:qu":"T'aypik","name:ro":"Taipei","name:ru":"Тайбэй","name:rw":"Tayipeyi","name:sh":"Taipei","name:si":"තායිපේ","name:sk":"Tchaj-pej","name:sl":"Tajpej","name:sn":"Taipei","name:so":"Taipei","name:sq":"Taipei","name:sr":"Тајпеј","name:sv":"Taipei","name:sw":"Taipei","name:ta":"தாய்பெய்","name:tg":"Тайпей","name:th":"ไทเป","name:tl":"Taipei","name:tr":"Taipei","name:tt":"Taybey","name:ug":"تەيبېي شەھىرى","name:uk":"Тайбей","name:ur":"تائپے","name:uz":"Taypey","name:vi":"Đài Bắc","name:yo":"Taipei","name:za":"Daizbaek","name:zh":"臺北市","nat_ref":"63","alt_name":"台北市","name:ace":"Taipéi","name:als":"Taipeh","name:arz":"تايبيه","name:ast":"Taipéi","name:azb":"تایپه","name:bcl":"Taipei","name:bxr":"Тайбэй","name:cdo":"Dài-báe̤k","name:ceb":"Taipei","name:ckb":"تایپێ","name:cnr":"Taipei","name:diq":"Taipei","name:frp":"Tayipèh","name:gan":"臺北市","name:hak":"Thòi-pet-sṳ","name:hif":"Taipei","name:hyw":"Թայբէյ","name:ilo":"Taipei","name:jam":"Taipei","name:lad":"Taipei","name:lij":"Taipei","name:lmo":"Taipei","name:nan":"Tâi-pak-chhī","name:new":"ताइपेइ","name:nov":"Taipei","name:pam":"Taipei","name:pap":"Taipei","name:pms":"Taipei","name:pnb":"ٹاۓپی","name:sah":"Тайпэй","name:scn":"Taipei","name:sco":"Taipei","name:szl":"Tajpej","name:tpi":"Taipei","name:vec":"Taipei","name:vep":"Taibei","name:war":"Taipei","name:wuu":"臺北市","name:yue":"臺北市","name:zea":"Taipei","ISO3166-2":"TW-TPE","name:zh-Bopo":"ㄊㄞˊ ㄅㄟˇ ㄕˋ","name:zh-Hans":"台北市","name:zh-Hant":"臺北市","name:zh-hant":"臺北市","name:nan-Hant":"臺北市","name:an":"Taipei","name:ba":"Тайбэй","name:cv":"Тайбэй","name:gn":"Taipéi","name:km":"តៃប៉ិ","name:li":"Taipei","name:lo":"ໄທເປ","name:mt":"Tajpej","name:nb":"Taipei","name:ps":"تایپي","name:sc":"Taipei","name:vo":"Táiběi","name:yi":"טאיפעי","name:be-tarask":"Тайбэй","_place_alt_name":"台北","name:kab":"Taypey","name:lzh":"臺北市","name:nan-Latn-tailo":"Tâi-pak-tshī","name:zh-Latn-pinyin":"Táiběi Shì","name:nan-Latn-pehoeji":"Tâi-pak-chhī","name:zh-Latn-tongyong":"Táiběi Shìh","name:zh-Latn-CN-pinyin":"Táiběi Shì","name:zh-Latn-TW-pinyin":"Táiběi Shì"},"display_name":"臺北市, 臺灣","address":{"city":"臺北市","ISO3166-2-lvl4":"TW-TPE","country":"臺灣","country_code":"tw"},"population":2635286,"osm_type":"relation","osm_id":1293250,"type":"administrative","location":[121.5636796,25.0375198],"bbox":[121.4571436,24.9605158,121.6659425,25.2102357]}}
{"name":"臺南市","other_names":{"name:ar":"تاينان","name:da":"Tainan","name:de":"Tainan","name:en":"Tainan","name:et":"Tainan","name:eu":"Tainan","name:fr":"Tainan","name:hr":"Tainan","name:id":"Kota Tainan","name:it":"Tainan","name:ja":"台南市","name:ko":"타이난시","name:pl":"Tainan","name:pt":"Tainan","name:ru":"Тайнань","name:th":"ไถหนาน","name:vi":"Đài Nam","name:zh":"臺南市","int_name":"Tainan","name:cdo":"Dài-nàng","name:hak":"Thòi-nàm-sṳ","name:nan":"Tâi-lâm-chhī","name:wuu":"台南市","name:yue":"臺南","name:zh-Bopo":"ㄊㄞˊ ㄋㄢˊ ㄕˋ","name:zh-Hans":"台南市","name:zh-Hant":"臺南市","name:nan-Hant":"臺南市","name:nan-Latn-tailo":"Tâi-lâm-tshī","name:zh-Latn-pinyin":"Táinán Shì","name:nan-Latn-pehoeji":"Tâi-lâm-chhī","name:zh-Latn-tongyong":"Táinán Shìh"},"display_name":"臺南市, 臺灣","address":{"city":"臺南市","ISO3166-2-lvl4":"TW-TNN","country":"臺灣","country_code":"tw"},"population":1886033,"osm_type":"node","osm_id":3014041771,"type":"city","location":[120.184982,22.9912348],"bbox":[120.024982,22.8312348,120.344982,23.1512348],"border":{"name":"臺南市","other_names":{"name:ar":"تاينان","name:cs":"Tchaj-nan","name:da":"Tainan","name:de":"Tainan","name:en":"Tainan","name:et":"Tainan","name:fr":"Tainan","name:hr":"Tainan","name:id":"Kota Tainan","name:it":"Tainan","name:ja":"台南市","name:ko":"타이난 시","name:pl":"Tainan","name:pt":"Tainan","name:ru":"Тайнань","name:th":"ไถหนาน","name:vi":"Đài Nam","name:zh":"臺南市","nat_ref":"67","name:cdo":"Dài-nàng","name:hak":"Thòi-nàm-sṳ","name:nan":"Tâi-lâm-chhī","name:wuu":"台南市","name:yue":"臺南","ISO3166-2":"TW-TNN","name:zh-Bopo":"ㄊㄞˊ ㄋㄢˊ ㄕˋ","name:zh-Hans":"台南市","name:zh-Hant":"臺南市","name:zh-hant":"臺南市","name:nan-Hant":"臺南市","name:eu":"Tainan","int_name":"Tainan","name:nan-Latn-tailo":"Tâi-lâm-tshī","name:zh-Latn-pinyin":"Táinán Shì","name:nan-Latn-pehoeji":"Tâi-lâm-chhī","name:zh-Latn-tongyong":"Táinán Shìh","alt:ko":"타이난시"},"display_name":"臺南市, 臺灣","address":{"city":"臺南市","ISO3166-2-lvl4":"TW-TNN","country":"臺灣","country_code":"tw"},"population":1886033,"osm_type":"relation","osm_id":2418506,"type":"administrative","location":[120.184982,22.9912348],"bbox":[120.0347671,22.8875061,120.6562638,23.41371]}}
{"name":"高雄市","other_names":{"name:af":"Kaohsiung","name:ar":"كاوهسيونغ","name:bg":"Гаосюн","name:bo":"ཀའོ་ཞུང་གྲོང་ཁྱེར།","name:ca":"Kaohsiung","name:ce":"Гаосюн","name:cs":"Kao-siung","name:de":"Kaohsiung","name:el":"Καοσιούνγκ","name:en":"Kaohsiung","name:eo":"Kaoŝiungo","name:es":"Kaohsiung","name:et":"Kaohsiung","name:eu":"Kaohsiung","name:fa":"کائوهسیونگ","name:fi":"Kaohsiung","name:fr":"Kaohsiung","name:gl":"Kaohsiung","name:he":"גאושיונג","name:hi":"कौश्यींग","name:hr":"Kaohsiung","name:hu":"Kaohsziung","name:hy":"Գաոսյուն","name:id":"Kota Kaohsiung","name:ie":"Kaohsiung","name:it":"Kaohsiung","name:ja":"高雄市","name:ko":"가오슝시","name:ky":"Гаосун","name:lt":"Gaosiongas","name:ml":"കൗഷ്യിംഗ്","name:mn":"Гаошюн","name:ms":"Kaohsiung","name:my":"ကောင်းရှုံမြို့","name:nl":"Kaohsiung","name:nn":"Kaohsiung","name:no":"Kaohsiung","name:oc":"Gaoxiong","name:pa":"ਕਾਓਸੀਅੰਗ","name:pl":"Kaohsiung","name:pt":"Kaohsiung","name:qu":"Kau-hiyun","name:ro":"Kaohsiung","name:ru":"Гаосюн","name:sk":"Kao-siung","name:sv":"Kaohsiung","name:sw":"Kaohsiung","name:th":"เกาสฺยง","name:tl":"Kaohsiung","name:tr":"Kaohsiung","name:ug":"گاۋشيۇڭ","name:uk":"Гаосюн","name:ur":"کائوسیونگ شہر","name:vi":"Cao Hùng","name:za":"Gauhyungz","name:zh":"高雄市","name:cdo":"Gŏ̤-hṳ̀ng","name:ceb":"Kaohsiung","name:gan":"高雄市","name:hak":"Kô-hiùng-sṳ","name:nan":"Ko-hiông-chhī","name:sco":"Kaohsiung","name:szy":"Takaw","name:war":"Kaohsiung","name:wuu":"高雄市","name:yue":"高雄市","alt_name:uk":"Хаосюн","name:ja_kana":"たかおし","name:zh-Bopo":"ㄍㄠ ㄒㄩㄥˊ ㄕˋ","name:zh-Hans":"高雄市","name:zh-Hant":"高雄市","name:nan-Hant":"高雄市","name:nan-Latn-tailo":"Ko-hiông-tshī","name:zh-Latn-pinyin":"Gāoxióng Shì","name:nan-Latn-pehoeji":"Ko-hiông-chhī","name:zh-Latn-tongyong":"Gaosyóng Shìh"},"display_name":"高雄市, 臺灣","address":{"city":"高雄市","ISO3166-2-lvl4":"TW-KHH","country":"臺灣","country_code":"tw"},"population":2779371,"osm_type":"node","osm_id":60655691,"type":"city","location":[120.3120375,22.6203348],"bbox":[120.1520375,22.4603348,120.4720375,22.7803348],"border":{"name":"高雄市","other_names":{"name:af":"Kaohsiung","name:ar":"كاوهسيونغ","name:bg":"Гаосюн","name:bo":"ཀའོ་ཞུང་གྲོང་ཁྱེར།","name:ca":"Kaohsiung","name:ce":"Гаосюн","name:cs":"Kao-siung","name:de":"Kaohsiung","name:el":"Καοσιούνγκ","name:en":"Kaohsiung","name:eo":"Kaoŝiungo","name:es":"Kaohsiung","name:eu":"Kaohsiung","name:fa":"کائوهسیونگ","name:fi":"Kaohsiung","name:fr":"Kaohsiung","name:gl":"Kaohsiung","name:he":"גאושיונג","name:hu":"Kaohsziung","name:hy":"Գաոսյուն","name:id":"Kota Kaohsiung","name:ie":"Kaohsiung","name:it":"Kaohsiung","name:ja":"高雄市","name:ko":"가오슝시","name:ky":"Гаосун","name:lt":"Gaosiongas","name:ml":"കൗഷ്യിംഗ്","name:mn":"Гаошюн","name:ms":"Kaohsiung","name:my":"ကောင်းရှုံမြို့","name:nl":"Kaohsiung","name:nn":"Kaohsiung","name:no":"Kaohsiung","name:pa":"ਕਾਓਸੀਅੰਗ","name:pl":"Kaohsiung","name:pt":"Kaohsiung","name:qu":"Kau-hiyun","name:ro":"Kaohsiung","name:ru":"Гаосюн","name:sk":"Kao-siung","name:sv":"Kaohsiung","name:sw":"Kaohsiung","name:th":"เกาสฺยง","name:tl":"Kaohsiung","name:tr":"Kaohsiung","name:ug":"گاۋشيۇڭ","name:uk":"Гаосюн","name:ur":"کائوسیونگ شہر","name:vi":"Cao Hùng","name:za":"Gauhyungz","name:zh":"高雄市","nat_ref":"64","name:cdo":"Gŏ̤-hṳ̀ng","name:ceb":"Kaohsiung","name:gan":"高雄市","name:hak":"Kô-hiùng-sṳ","name:nan":"Ko-hiông-chhī","name:sco":"Kaohsiung","name:szy":"Takaw","name:war":"Kaohsiung","name:wuu":"高雄市","name:yue":"高雄市","ISO3166-2":"TW-KHH","alt_name:uk":"Хаосюн","name:ja_kana":"たかおし","name:zh-Bopo":"ㄍㄠ ㄒㄩㄥˊ ㄕˋ","name:zh-Hans":"高雄市","name:zh-Hant":"高雄市","name:zh-hant":"高雄市","name:nan-Hant":"高雄市","name:et":"Kaohsiung","name:hi":"कौश्यींग","name:hr":"Kaohsiung","name:oc":"Gaoxiong","name:nan-Latn-tailo":"Ko-hiông-tshī","name:zh-Latn-pinyin":"Gāoxióng Shì","name:nan-Latn-pehoeji":"Ko-hiông-chhī","name:zh-Latn-tongyong":"Gaosyóng Shìh"},"display_name":"高雄市, 臺灣","address":{"city":"高雄市","ISO3166-2-lvl4":"TW-KHH","country":"臺灣","country_code":"tw"},"population":2777873,"osm_type":"relation","osm_id":2127079,"type":"administrative","location":[120.3120375,22.6203348],"bbox":[114.3072222,10.3447222,121.0490355,23.4716871]}}
