{"name":"Chaguanas","other_names":{"name:lt":"Čaguanasas","name:uk":"Чагуанас"},"display_name":"Chaguanas, Trinidad and Tobago","address":{"city":"Chaguanas","ISO3166-2-lvl4":"TT-CHA","country":"Trinidad and Tobago","country_code":"tt"},"population":83489,"osm_type":"node","osm_id":1824462523,"type":"city","location":[-61.4076757,10.5147394],"bbox":[-61.5676757,10.3547394,-61.2476757,10.6747394],"border":[{"name":"Chaguanas","display_name":"Chaguanas, Trinidad and Tobago","address":{"city":"Chaguanas","country":"Trinidad and Tobago","country_code":"tt"},"osm_type":"way","osm_id":372176948,"type":"city","location":[-61.407164537036806,10.532168949999999],"bbox":[-61.4423686,10.4940134,-61.3650776,10.5698689]},{"name":"Chaguanas","other_names":{"name:en":"Chaguanas","name:ru":"Чагуанас","ISO3166-2":"TT-CHA","name:lt":"Čaguanasas","name:uk":"Чагуанас"},"display_name":"Chaguanas, Trinidad and Tobago","address":{"city":"Chaguanas","ISO3166-2-lvl4":"TT-CHA","country":"Trinidad and Tobago","country_code":"tt"},"population":83489,"osm_type":"relation","osm_id":7363641,"type":"administrative","location":[-61.4076757,10.5147394],"bbox":[-61.4682953,10.5031318,-61.3644917,10.5662804]}]}
{"name":"Port of Spain","other_names":{"name:be":"Порт-оф-Спейн","name:br":"Port of Spain","name:ca":"Port-of-Spain","name:en":"Port of Spain","name:es":"Puerto España","name:fr":"Port-d'Espagne","name:hu":"Port of Spain","name:ja":"ポートオブスペイン","name:mr":"स्पेनचा बंदर्गा","name:oc":"Port of Spain","name:pa":"ਪੋਰਟ ਆਫ਼ ਸਪੇਨ","name:pl":"Port of Spain","name:pt":"Porto Espanha","name:ru":"Порт-оф-Спейн","name:sr":"Порт ов Спејн","name:sv":"Port-of-Spain","name:ta":"போர்ட் ஆஃப் ஸ்பெயின்","name:uk":"Порт-оф-Спейн","name:ur":"پورٹ آف اسپین","name:zh":"西班牙港","name:azb":"پورت آو اسپاین","name:gcf":"Pòt o spèn","name:grc":"Ἱσπανολιμήν","name:be-tarask":"Порт-оф-Спэйн"},"display_name":"Port of Spain, Trinidad and Tobago","address":{"city":"Port of Spain","ISO3166-2-lvl4":"TT-POS","country":"Trinidad and Tobago","country_code":"tt"},"population":37074,"osm_type":"node","osm_id":2718091147,"type":"city","location":[-61.5180173,10.6572678],"bbox":[-61.6780173,10.4972678,-61.3580173,10.8172678],"border":{"name":"Port of Spain","other_names":{"name:be":"Порт-оф-Спейн","name:en":"Port of Spain","name:es":"Puerto España","name:ja":"ポートオブスペイン","name:pa":"ਪੋਰਟ ਆਫ਼ ਸਪੇਨ","name:ru":"Порт-оф-Спейн","name:sr":"Порт ов Спејн","name:ur":"پورٹ آف اسپین","name:azb":"پورت آو اسپاین","name:grc":"Ἱσπανολιμήν","ISO3166-2":"TT-POS","name:br":"Port of Spain","name:ca":"Port-of-Spain","name:fr":"Port-d'Espagne","name:hu":"Port of Spain","name:mr":"स्पेनचा बंदर्गा","name:oc":"Port of Spain","name:pl":"Port of Spain","name:pt":"Porto Espanha","name:sv":"Port-of-Spain","name:ta":"போர்ட் ஆஃப் ஸ்பெயின்","name:uk":"Порт-оф-Спейн","name:zh":"西班牙港","name:be-tarask":"Порт-оф-Спэйн","name:gcf":"Pòt o spèn"},"display_name":"Port of Spain, Trinidad and Tobago","address":{"city":"Port of Spain","ISO3166-2-lvl4":"TT-POS","country":"Trinidad and Tobago","country_code":"tt"},"population":37074,"osm_type":"relation","osm_id":7363637,"type":"administrative","location":[-61.5180173,10.6572678],"bbox":[-61.5481359,10.635395,-61.4941448,10.6810521]}}
{"name":"San Fernando","other_names":{"name:ru":"Сан-Фернандо"},"display_name":"San Fernando, Trinidad and Tobago","address":{"city":"San Fernando","ISO3166-2-lvl4":"TT-SFO","country":"Trinidad and Tobago","country_code":"tt"},"population":55419,"osm_type":"node","osm_id":1110779940,"type":"city","location":[-61.4645896,10.2807069],"bbox":[-61.6245896,10.1207069,-61.3045896,10.4407069],"border":{"name":"San Fernando","other_names":{"name:en":"San Fernando","name:ru":"Сан-Фернандо","ISO3166-2":"TT-SFO"},"display_name":"San Fernando, Trinidad and Tobago","address":{"city":"San Fernando","ISO3166-2-lvl4":"TT-SFO","country":"Trinidad and Tobago","country_code":"tt"},"population":55419,"osm_type":"relation","osm_id":7363416,"type":"administrative","location":[-61.4645896,10.2807069],"bbox":[-61.5018095,10.245889,-61.4328029,10.3146523]}}
{"name":"Scarborough","other_names":{"name:en":"Scarborough","name:ja":"スカボロー","name:lt":"Skarboras","name:ru":"Скарборо"},"display_name":"Scarborough, Tobago, Trinidad and Tobago","address":{"city":"Scarborough","island":"Tobago","ISO3166-2-lvl4":"TT-TOB","country":"Trinidad and Tobago","country_code":"tt"},"population":17000,"osm_type":"node","osm_id":1816584304,"type":"city","location":[-60.735024,11.1852893],"bbox":[-60.895024,11.0252893,-60.575024,11.3452893]}
{"display_name":"Trinidad and Tobago","address":{"country":"Trinidad and Tobago","country_code":"tt"},"osm_type":"way","osm_id":866227181,"type":"city","location":[-61.43770008471645,10.549785100000001],"bbox":[-61.4396228,10.5451912,-61.432262,10.552687]}
{"display_name":"Trinidad and Tobago","address":{"country":"Trinidad and Tobago","country_code":"tt"},"osm_type":"way","osm_id":866227179,"type":"city","location":[-61.4392225026248,10.5548896],"bbox":[-61.4438331,10.5508144,-61.4330545,10.5587341]}
