{"name":"Ishlag Mudaraat","display_name":"Ishlag Mudaraat, الخرطوم, السودان","address":{"city":"Ishlag Mudaraat","state":"الخرطوم","ISO3166-2-lvl4":"SD-KH","country":"السودان","country_code":"sd"},"osm_type":"way","osm_id":178127899,"type":"city","location":[32.50474749872585,15.53550045],"bbox":[32.5021625,15.5332212,32.5076548,15.5407813]}
{"name":"Krinding","other_names":{"name:ar":"كريندق"},"display_name":"Krinding, Al Geneina, سلطنة دار المساليت, 01300, السودان","address":{"city":"Krinding","county":"Al Geneina","state":"سلطنة دار المساليت","ISO3166-2-lvl4":"SD-DW","postcode":"01300","country":"السودان","country_code":"sd"},"osm_type":"node","osm_id":10949121490,"type":"city","location":[22.4771523,13.4281858],"bbox":[22.3171523,13.2681858,22.6371523,13.5881858]}
{"name":"أبو جبيهة","other_names":{"name:ar":"أبو جبيهة","name:en":"Abu Jibeha","name:fr":"Abu Jibeha","name:ml":"അബു ജിബേഹ","name:ru":"Абу-Губейха","alt_name":"Abu-Gebeiha;Abu Jibeha;Abu Jubayhah;Abu Gibeyah;Abu Gubeiha;Abū Jubayhah;Abu Jubeiha;Abu Jibeiha"},"display_name":"أبو جبيهة, Abu Jubaiyah, ولاية جنوب كردفان, السودان","address":{"city":"أبو جبيهة","county":"Abu Jubaiyah","state":"ولاية جنوب كردفان","ISO3166-2-lvl4":"SD-KS","country":"السودان","country_code":"sd"},"osm_type":"node","osm_id":1895967608,"type":"city","location":[31.2339838,11.4646721],"bbox":[31.0739838,11.3046721,31.3939838,11.6246721]}
{"name":"أم درمان","other_names":{"name:ar":"أم درمان","name:az":"Omdurman","name:be":"Амдурман","name:bg":"Омдурман","name:cs":"Omdurmán","name:de":"Omdurman","name:el":"Ομντουρμάν","name:en":"Omdurman","name:es":"Omdurmán","name:et":"Umm Durmān","name:fr":"Omdourman","name:he":"אומדורמאן","name:hr":"Omdurman","name:hy":"Օմդուրման","name:ko":"옴두르만","name:ml":"ഉംദുർമാൻ","name:pl":"Omdurman","name:pt":"Ondurmã","name:ru":"Омдурман","name:sl":"Omdurman","name:sr":"Омдурман","name:tr":"Omdurman","name:uk":"Омдурман","name:vi":"Omdurman","name:zh":"恩图曼"},"display_name":"أم درمان, امدرمان, الخرطوم, السودان","address":{"city":"أم درمان","state":"الخرطوم","ISO3166-2-lvl4":"SD-KH","country":"السودان","country_code":"sd"},"population":2395159,"osm_type":"node","osm_id":1980789690,"type":"city","location":[32.4777311,15.6445536],"bbox":[32.3177311,15.4845536,32.6377311,15.8045536],"border":{"name":"امدرمان","other_names":{"name:ar":"امدرمان","name:cs":"Omdurmán","name:en":"Omdurman","name:tr":"Omdurman","name:az":"Omdurman","name:be":"Амдурман","name:bg":"Омдурман","name:de":"Omdurman","name:el":"Ομντουρμάν","name:es":"Omdurmán","name:et":"Umm Durmān","name:fr":"Omdourman","name:he":"אומדורמאן","name:hr":"Omdurman","name:hy":"Օմդուրման","name:ko":"옴두르만","name:ml":"ഉംദുർമാൻ","name:pl":"Omdurman","name:pt":"Ondurmã","name:ru":"Омдурман","name:sl":"Omdurman","name:sr":"Омдурман","name:uk":"Омдурман","name:vi":"Omdurman","name:zh":"恩图曼","alt":"أم درمان","alt:ar":"أم درمان"},"display_name":"امدرمان, الخرطوم, 14417, السودان","address":{"city":"امدرمان","state":"الخرطوم","ISO3166-2-lvl4":"SD-KH","postcode":"14417","country":"السودان","country_code":"sd"},"population":2395159,"osm_type":"relation","osm_id":13156416,"type":"administrative","location":[32.4777311,15.6445536],"bbox":[32.3018645,15.4770083,32.5326633,15.7538452]}}
{"name":"أم روابة","other_names":{"name:ar":"أم روابة","name:de":"Um Rawaba","name:en":"Umm Ruwaba","name:es":"Um Rawaba","name:fr":"Um Rawaba","name:ml":"ഉം റുവാബ","alt_name":"Umm Ruwabah;Um Ruaba;Umm Ruwābah;أم روّاب","alt_name:ar":"أمّ روابة;أم رأب;أم روّاب"},"display_name":"أم روابة, Um Rawaba, ولاية شمال كردفان, السودان","address":{"city":"أم روابة","county":"Um Rawaba","state":"ولاية شمال كردفان","ISO3166-2-lvl4":"SD-KN","country":"السودان","country_code":"sd"},"osm_type":"node","osm_id":248948675,"type":"city","location":[31.2147916,12.905825],"bbox":[31.0547916,12.745825,31.3747916,13.065825],"border":{"name":"Um Rawaba","display_name":"Um Rawaba, ولاية شمال كردفان, السودان","address":{"county":"Um Rawaba","state":"ولاية شمال كردفان","ISO3166-2-lvl4":"SD-KN","country":"السودان","country_code":"sd"},"osm_type":"relation","osm_id":8539337,"type":"administrative","location":[31.284646340412756,13.19406985],"bbox":[30.3236103,12.2392197,32.0748901,14.0963202]}}
{"name":"اقدي","other_names":{"name:ar":"اقدي","name:en":"Agadi","name:fr":"Agadi","alt_name":"أقد","alt_name:ar":"أقد","alt_name:en":"Aqadi"},"display_name":"اقدي, الدمازين, النيل الأزرق, السودان","address":{"city":"اقدي","state":"النيل الأزرق","ISO3166-2-lvl4":"SD-NB","country":"السودان","country_code":"sd"},"osm_type":"node","osm_id":2655669549,"type":"city","location":[34.0754246,11.8056389],"bbox":[33.9154246,11.6456389,34.2354246,11.9656389]}
{"name":"الأبيض","other_names":{"name:ar":"الأبيض","name:en":"Al-Ubayyid","name:et":"Al-Ubayyiḑ","name:eu":"Al-Ubayyid","name:fr":"El Obeid","name:ko":"엘오베이드","name:ml":"അൽ ഉബയ്യിദ്","name:ru":"Эль-Обейд","alt_name":"الأبيّض;الوبيّد;الأبيد;الابيض","alt_name:ar":"الأبيّض;الوبيّد;الأبيد;الابيض","alt_name:en":"‘Ubêd;`Ubed;Al Ubayd;Al-‘Obêd;Al-`Obed;El Ubeiyad;Al Obayyid"},"display_name":"الأبيض, بارا, ولاية شمال كردفان, السودان","address":{"city":"الأبيض","county":"بارا","state":"ولاية شمال كردفان","ISO3166-2-lvl4":"SD-KN","country":"السودان","country_code":"sd"},"population":429000,"osm_type":"node","osm_id":248948689,"type":"city","location":[30.222559,13.183366],"bbox":[30.062559,13.023366,30.382559,13.343366]}
{"name":"البطانة","other_names":{"name:ar":"البطانة","name:de":"Butana","name:en":"Butana","int_name":"Butana"},"display_name":"البطانة, كسلا, السودان","address":{"city":"البطانة","state":"كسلا","ISO3166-2-lvl4":"SD-KA","country":"السودان","country_code":"sd"},"osm_type":"relation","osm_id":4669990,"type":"administrative","location":[34.86714745553257,15.68080005],"bbox":[34.2594299,14.9087562,36.0017259,16.4425089],"inferred_type":"city"}
{"name":"الجبلين","other_names":{"name:ar":"الجبلين","name:en":"Al Jabalayn","name:fr":"Al Jabalayn","name:it":"El Jebelein","name:ml":"അൽ ജബലൈൻ","alt_name":"Aj Jabalen;Al Jabalayn;El Jebelein;Jebelein","alt_name:en":"Aj Jabalen"},"display_name":"الجبلين, النيل الأبيض, السودان","address":{"city":"الجبلين","county":"الجبلين","state":"النيل الأبيض","ISO3166-2-lvl4":"SD-NW","country":"السودان","country_code":"sd"},"osm_type":"node","osm_id":3992374366,"type":"city","location":[32.8088318,12.5949867],"bbox":[32.6488318,12.4349867,32.9688318,12.7549867],"border":{"name":"الجبلين","other_names":{"name:ar":"الجبلين","name:en":"Al Jabalian","name:fr":"Al Jabalian","alt":"Al Jabalian"},"display_name":"الجبلين, النيل الأبيض, السودان","address":{"county":"الجبلين","state":"النيل الأبيض","ISO3166-2-lvl4":"SD-NW","country":"السودان","country_code":"sd"},"osm_type":"relation","osm_id":8539318,"type":"administrative","location":[32.9727145,12.8466182],"bbox":[32.5843887,12.2199219,33.2501132,13.5907202]}}
{"name":"الجنينة","other_names":{"name:ar":"الجنينة","name:de":"Al-Dschunaina","name:en":"El Geneina","name:es":"El Geneina","name:et":"Al-Junaynah","name:eu":"Geneina","name:fa":"الجنینه","name:fr":"Al-Genaïna","name:ja":"ジュナイナ","name:ml":"എൽ ജെനീന","name:ru":"Эль-Генейна","name:ur":"جنینہ","alt_name":"Al-Junaynah;Al Jinēna;Al Jinena;Aj Jinēna;Aj Jinena;Geneina;Al-Jinayna;Al Geneina;Al Jeneina;Geneina Fort","name:azb":"الجنینه","alt_name:ml":"അൽ ജുനൈന","name:az-Arab":"الجنینه"},"display_name":"الجنينة, Al Geneina, سلطنة دار المساليت, 00078, السودان","address":{"city":"الجنينة","county":"Al Geneina","state":"سلطنة دار المساليت","ISO3166-2-lvl4":"SD-DW","postcode":"00078","country":"السودان","country_code":"sd"},"population":252744,"osm_type":"node","osm_id":2826053972,"type":"city","location":[22.4459786,13.4420205],"bbox":[22.2859786,13.2820205,22.6059786,13.6020205],"border":{"name":"Al Geneina","other_names":{"name:ar":"محلية الجنينة"},"display_name":"Al Geneina, سلطنة دار المساليت, السودان","address":{"county":"Al Geneina","state":"سلطنة دار المساليت","ISO3166-2-lvl4":"SD-DW","country":"السودان","country_code":"sd"},"osm_type":"relation","osm_id":15803605,"type":"administrative","location":[22.415316523559873,13.334567849999999],"bbox":[22.1446514,13.0517451,22.619549,13.6165026]}}
{"name":"الحواتة","other_names":{"name:ar":"الحواتة","name:en":"El Hawata","name:fr":"El Hawata","name:ml":"എൽ ഹവാത്ത","name:ru":"Эль-Хавата","name:uk":"Ель-Хавата","alt_name":"Al Hawatah;El Hawata;Al Hawwata;Al Ḩawātah","alt_name:ar":"الهوّت","alt_name:en":"Al Hawatah"},"display_name":"الحواتة, القضارفي, القضارف, السودان","address":{"city":"الحواتة","state":"القضارف","ISO3166-2-lvl4":"SD-GD","country":"السودان","country_code":"sd"},"osm_type":"node","osm_id":3121562429,"type":"city","location":[34.6336766,13.4176259],"bbox":[34.4736766,13.2576259,34.7936766,13.5776259],"border":{"name":"الحواتة","other_names":{"name:en":"El Hawata","alt_name":"Al Hawatah","alt_name_1":"Al Hawwata","alt_name_2":"Al Ḩawātah","name:ar":"الحواتة","name:fr":"El Hawata","name:ml":"എൽ ഹവാത്ത","name:ru":"Эль-Хавата","name:uk":"Ель-Хавата","_place_alt_name":"Al Hawatah;El Hawata;Al Hawwata;Al Ḩawātah","alt_name:ar":"الهوّت","alt_name:en":"Al Hawatah"},"display_name":"الحواتة, القضارفي, القضارف, السودان","address":{"city":"الحواتة","state":"القضارف","ISO3166-2-lvl4":"SD-GD","country":"السودان","country_code":"sd"},"population":24513,"osm_type":"relation","osm_id":4308429,"type":"administrative","location":[34.6336766,13.4176259],"bbox":[34.6143617,13.3988415,34.6536982,13.4390366]}}
{"name":"الخرطوم","other_names":{"name:af":"Khartoem","name:ak":"Khartoum","name:am":"ካርቱም","name:ar":"الخرطوم","name:az":"Xartum","name:be":"Хартум","name:bg":"Хартум","name:bo":"ཁར་ཏུམ།","name:br":"C'hartoum","name:bs":"Kartum","name:ca":"Khartum","name:ce":"Хартум","name:co":"Khartoum","name:cs":"Chartúm","name:cv":"Хартум","name:cy":"Khartoum","name:da":"Khartoum","name:de":"Khartum","name:el":"Χαρτούμ","name:en":"Khartoum","name:eo":"Ĥartumo","name:es":"Jartum","name:et":"Hartum","name:eu":"Khartum","name:fa":"خارطوم","name:fi":"Khartum","name:fo":"Khartoum","name:fr":"Khartoum","name:fy":"Kartûm","name:ga":"Cartúm","name:gd":"Khartoum","name:gl":"Khartún - الخرطوم","name:ha":"Khartoum","name:he":"חרטום","name:hi":"खार्तूम","name:hr":"Kartum","name:ht":"Kartoum","name:hu":"Kartúm","name:hy":"Խարթում","name:ia":"Khartum","name:id":"Khartoum","name:ie":"Cartum","name:io":"Khartoum","name:is":"Kartúm","name:it":"Khartum","name:ja":"ハルツーム","name:jv":"Khartoum","name:ka":"ხარტუმი","name:kg":"Khartoum","name:kn":"ಖಾರ್ತೂಮ್","name:ko":"하르툼","name:ku":"Xertûm","name:ky":"Хартум","name:la":"Khartumensis Urbs","name:lb":"Khartum","name:lt":"Chartumas","name:lv":"Hartūma","name:mg":"Khartoum","name:mk":"Картум","name:ml":"ഖർത്തൂം","name:mr":"खार्टूम","name:ms":"Khartoum","name:my":"ခါတွမ်းမြို့","name:nl":"Khartoem","name:nn":"Khartoum","name:no":"Khartoum","name:nv":"Ahidiilíinii","name:oc":"Khartom","name:om":"Kaartum","name:os":"Хартум","name:pa":"ਖ਼ਰਤੂਮ","name:pl":"Chartum","name:ps":"خرطوم","name:pt":"Cartum","name:qu":"Khartum","name:ro":"Khartoum","name:ru":"Хартум","name:sc":"Khartum","name:sh":"Kartum","name:sk":"Chartúm","name:sl":"Kartum","name:sn":"Khartoum","name:so":"Khartuum","name:sq":"Hartum","name:sr":"Картум","name:sv":"Khartoum","name:sw":"Khartoum","name:ta":"கர்த்தூம்","name:tg":"Хартум","name:th":"คาร์ทูม","name:tl":"Khartoum","name:tr":"Hartum","name:tt":"Хартум","name:ug":"خارتۇم","name:uk":"Хартум","name:ur":"خرطوم","name:uz":"Xartum","name:vi":"Khartoum","name:wo":"Xartum","name:yo":"Khartoum","name:zh":"喀土穆","name:zu":"Khartoum","alt_name":"العيلفون شرق النيل","name:ace":"Khartoum","name:arz":"الخرطوم","name:ast":"Ḥartum","name:avk":"Khartoum","name:bcl":"Khartoum","name:ceb":"Khartoum","name:ckb":"خەرتووم","name:din":"Kaartuɔ̈m","name:frr":"Chartuum","name:hak":"Khartoum","name:hif":"Khartoum","name:kab":"Xerṭum","name:lfn":"Khartoum","name:lij":"Khartum","name:lmo":"Khartum","name:mrj":"Хартум","name:nah":"Cartun","name:nan":"Khartoum","name:nds":"Khartum","name:nov":"Kartum","name:pap":"Kartum","name:pms":"Khartoum","name:pnb":"خرطوم","name:sco":"Khartoum","name:smn":"Khartum","name:szl":"Chartům","name:udm":"Хартум","name:vec":"Khartoum","name:vep":"Hartum","name:war":"Khartoum","name:wuu":"Al-Khartoum","name:xmf":"ხარტუმი","name:simple":"Khartoum","alt_name:din":"Khartoum"},"display_name":"الخرطوم, السودان","address":{"city":"الخرطوم","state":"الخرطوم","ISO3166-2-lvl4":"SD-KH","country":"السودان","country_code":"sd"},"population":2682431,"osm_type":"node","osm_id":27565117,"type":"city","location":[32.5349123,15.5635972],"bbox":[32.3749123,15.4035972,32.6949123,15.7235972],"border":{"name":"الخرطوم","other_names":{"name:ar":"الخرطوم","name:cs":"Chartúm","name:de":"Khartoum","name:en":"Khartoum","name:ku":"Xertûm","name:sk":"Chartúm","name:af":"Khartoem","name:ak":"Khartoum","name:am":"ካርቱም","name:az":"Xartum","name:be":"Хартум","name:bg":"Хартум","name:bo":"ཁར་ཏུམ།","name:br":"C'hartoum","name:bs":"Kartum","name:ca":"Khartum","name:ce":"Хартум","name:co":"Khartoum","name:cv":"Хартум","name:cy":"Khartoum","name:da":"Khartoum","name:el":"Χαρτούμ","name:eo":"Ĥartumo","name:es":"Jartum","name:et":"Hartum","name:eu":"Khartum","name:fa":"خارطوم","name:fi":"Khartum","name:fo":"Khartoum","name:fr":"Khartoum","name:fy":"Kartûm","name:ga":"Cartúm","name:gd":"Khartoum","name:gl":"Khartún - الخرطوم","name:ha":"Khartoum","name:he":"חרטום","name:hi":"खार्तूम","name:hr":"Kartum","name:ht":"Kartoum","name:hu":"Kartúm","name:hy":"Խարթում","name:ia":"Khartum","name:id":"Khartoum","name:ie":"Cartum","name:io":"Khartoum","name:is":"Kartúm","name:it":"Khartum","name:ja":"ハルツーム","name:jv":"Khartoum","name:ka":"ხარტუმი","name:kg":"Khartoum","name:kn":"ಖಾರ್ತೂಮ್","name:ko":"하르툼","name:ky":"Хартум","name:la":"Khartumensis Urbs","name:lb":"Khartum","name:lt":"Chartumas","name:lv":"Hartūma","name:mg":"Khartoum","name:mk":"Картум","name:ml":"ഖർത്തൂം","name:mr":"खार्टूम","name:ms":"Khartoum","name:my":"ခါတွမ်းမြို့","name:nl":"Khartoem","name:nn":"Khartoum","name:no":"Khartoum","name:nv":"Ahidiilíinii","name:oc":"Khartom","name:om":"Kaartum","name:os":"Хартум","name:pa":"ਖ਼ਰਤੂਮ","name:pl":"Chartum","name:ps":"خرطوم","name:pt":"Cartum","name:qu":"Khartum","name:ro":"Khartoum","name:ru":"Хартум","name:sc":"Khartum","name:sh":"Kartum","name:sl":"Kartum","name:sn":"Khartoum","name:so":"Khartuum","name:sq":"Hartum","name:sr":"Картум","name:sv":"Khartoum","name:sw":"Khartoum","name:ta":"கர்த்தூம்","name:tg":"Хартум","name:th":"คาร์ทูม","name:tl":"Khartoum","name:tr":"Hartum","name:tt":"Хартум","name:ug":"خارتۇم","name:uk":"Хартум","name:ur":"خرطوم","name:uz":"Xartum","name:vi":"Khartoum","name:wo":"Xartum","name:yo":"Khartoum","name:zh":"喀土穆","name:zu":"Khartoum","alt_name":"العيلفون شرق النيل","name:ace":"Khartoum","name:arz":"الخرطوم","name:ast":"Ḥartum","name:avk":"Khartoum","name:bcl":"Khartoum","name:ceb":"Khartoum","name:ckb":"خەرتووم","name:din":"Kaartuɔ̈m","name:frr":"Chartuum","name:hak":"Khartoum","name:hif":"Khartoum","name:kab":"Xerṭum","name:lfn":"Khartoum","name:lij":"Khartum","name:lmo":"Khartum","name:mrj":"Хартум","name:nah":"Cartun","name:nan":"Khartoum","name:nds":"Khartum","name:nov":"Kartum","name:pap":"Kartum","name:pms":"Khartoum","name:pnb":"خرطوم","name:sco":"Khartoum","name:smn":"Khartum","name:szl":"Chartům","name:udm":"Хартум","name:vec":"Khartoum","name:vep":"Hartum","name:war":"Khartoum","name:wuu":"Al-Khartoum","name:xmf":"ხარტუმი","name:simple":"Khartoum","alt_name:din":"Khartoum","alt:de":"Khartum"},"display_name":"الخرطوم, السودان","address":{"city":"الخرطوم","state":"الخرطوم","ISO3166-2-lvl4":"SD-KH","country":"السودان","country_code":"sd"},"population":2682431,"osm_type":"relation","osm_id":3851428,"type":"administrative","location":[32.5349123,15.5635972],"bbox":[32.4591493,15.3876532,32.7122581,15.6168028]}}
{"display_name":"الخرطوم, السودان","address":{"city":"الخرطوم","state":"الخرطوم","ISO3166-2-lvl4":"SD-KH","country":"السودان","country_code":"sd"},"osm_type":"way","osm_id":1356247994,"type":"city","location":[32.50710794350056,15.53081795],"bbox":[32.5015459,15.5275514,32.5125591,15.5335986]}
{"name":"الدالي","other_names":{"name:ar":"الدالي","name:en":"Ad Dali","name:fr":"Ad Dali","name:ml":"അദ്ദാലി","alt_name":"Ad Dāli;الدال","alt_name:ar":"الدال"},"display_name":"الدالي, سنجة, سنار, السودان","address":{"city":"الدالي","state":"سنار","ISO3166-2-lvl4":"SD-SI","country":"السودان","country_code":"sd"},"osm_type":"node","osm_id":3992349935,"type":"city","location":[33.4133374,12.866116],"bbox":[33.2533374,12.706116,33.5733374,13.026116]}
{"name":"الدبة","other_names":{"name:ar":"الدبة","name:de":"Ad-Dabba","name:en":"Al Dabbah","name:es":"Al Dabbah","name:fr":"Al Dabbah","name:ml":"അൽ ദബ്ബ","name:tr":"Al Dabbah","alt_name":"El Debba;Debbeh;Debbat el Muaskar;Ad Dabba;Dabbah;Ed Debba;Al Dabbah;Debba;Ad Dabbah","alt_name:ar":"الدبّ;دبّة;الدبّة","alt_name:en":"Ad Dabbah"},"display_name":"الدبة, الولاية الشمالية, السودان","address":{"city":"الدبة","state":"الولاية الشمالية","ISO3166-2-lvl4":"SD-NO","country":"السودان","country_code":"sd"},"population":52000,"osm_type":"node","osm_id":75561491,"type":"city","location":[30.95119,18.043988],"bbox":[30.79119,17.883988,31.11119,18.203988]}
{"name":"الدبيبات","other_names":{"name:ar":"الدبيبات","name:en":"Dibebad","alt_name":"Debibad;al-Dibaybat;Dibaybat;Debeibat;Ed Dubeibat;Dubeibat"},"display_name":"الدبيبات, Debeibat, Dilling, ولاية جنوب كردفان, السودان","address":{"city":"الدبيبات","municipality":"Debeibat","county":"Dilling","state":"ولاية جنوب كردفان","ISO3166-2-lvl4":"SD-KS","country":"السودان","country_code":"sd"},"osm_type":"node","osm_id":2082551810,"type":"city","location":[29.8010117,12.5096217],"bbox":[29.6410117,12.3496217,29.9610117,12.6696217],"border":{"name":"Debeibat","display_name":"Debeibat, Dilling, ولاية جنوب كردفان, السودان","address":{"municipality":"Debeibat","county":"Dilling","state":"ولاية جنوب كردفان","ISO3166-2-lvl4":"SD-KS","country":"السودان","country_code":"sd"},"osm_type":"relation","osm_id":8539509,"type":"administrative","location":[29.747630930476063,12.387535100000001],"bbox":[29.4757099,12.0361996,30.0540505,12.7533903]}}
{"name":"الدلنج","other_names":{"name:ar":"الدانج","name:en":"Dilling","name:fr":"Dalang","alt_name":"Ad Dalanj;Delling;Diling;Dalang","alt_name:ar":"الدلنج;دلّنغ"},"display_name":"الدلنج, Salara, Dilling, ولاية جنوب كردفان, السودان","address":{"city":"الدلنج","municipality":"Salara","county":"Dilling","state":"ولاية جنوب كردفان","ISO3166-2-lvl4":"SD-KS","country":"السودان","country_code":"sd"},"population":59089,"osm_type":"node","osm_id":576348786,"type":"city","location":[29.6516649,12.0315831],"bbox":[29.4916649,11.8715831,29.8116649,12.1915831],"border":{"name":"Dilling","other_names":{"alt_name":"Delling"},"display_name":"Dilling, ولاية جنوب كردفان, السودان","address":{"county":"Dilling","state":"ولاية جنوب كردفان","ISO3166-2-lvl4":"SD-KS","country":"السودان","country_code":"sd"},"osm_type":"relation","osm_id":8539346,"type":"administrative","location":[29.9761908,11.9318577],"bbox":[29.1919899,11.2755899,30.7268791,12.7533903]}}
{"name":"الدمازين","other_names":{"name:ar":"الدمازين","name:cs":"Damázín","name:en":"Ad-Damazin","name:et":"Ad-Damāzīn","name:fr":"Ad-Damazin","name:hu":"Ad-Damazin","name:ml":"ദമാസീൻ","name:ru":"Эд-Дамазин","alt_name":"Damazin;Al-Damazeen","alt_name:ar":"دمزن","alt_name:cs":"ad-Damázín","alt_name:en":"Ed Damazin"},"display_name":"الدمازين, النيل الأزرق, السودان","address":{"city":"الدمازين","state":"النيل الأزرق","ISO3166-2-lvl4":"SD-NB","country":"السودان","country_code":"sd"},"population":213000,"osm_type":"node","osm_id":300077759,"type":"city","location":[34.3656298,11.8073636],"bbox":[34.2056298,11.6473636,34.5256298,11.9673636],"border":{"name":"الدمازين","other_names":{"name:de":"ad Damazin","name:en":"Ad Damazin","int_name":"Ad Damazin","name:ar":"الدمازين","name:cs":"Damázín","name:et":"Ad-Damāzīn","name:fr":"Ad-Damazin","name:hu":"Ad-Damazin","name:ml":"ദമാസീൻ","name:ru":"Эд-Дамазин","alt_name":"Damazin;Al-Damazeen","alt_name:ar":"دمزن","alt_name:cs":"ad-Damázín","alt_name:en":"Ed Damazin","alt:en":"Ad-Damazin"},"display_name":"الدمازين, النيل الأزرق, السودان","address":{"city":"الدمازين","state":"النيل الأزرق","ISO3166-2-lvl4":"SD-NB","country":"السودان","country_code":"sd"},"population":213000,"osm_type":"relation","osm_id":4680124,"type":"administrative","location":[34.3656298,11.8073636],"bbox":[33.1383225,10.827894,34.5784466,12.3121264]}}
{"name":"الدندر ,القويسي","other_names":{"name:ar":"الدندر القويسي","name:en":"Al Quwaysi","name:fr":"Al Quwaysi","alt_name":"El Quwaysi;Al Quwaysi;El Qweisi;El Gueisi;Al Quwaysī","alt_name:ar":"القويسي"},"display_name":"الدندر ,القويسي, الدندر, سنار, السودان","address":{"city":"الدندر ,القويسي","town":"الدندر","state":"سنار","ISO3166-2-lvl4":"SD-SI","country":"السودان","country_code":"sd"},"osm_type":"node","osm_id":3313281455,"type":"city","location":[34.0869653,13.3342503],"bbox":[33.9269653,13.1742503,34.2469653,13.4942503]}
{"name":"الدويم","other_names":{"name:ar":"الدويم","name:en":"Ed Dueim","name:es":"Ed Dueim","name:fr":"Ed Dueim","name:ml":"എദ്ദുവീം","alt_name":"Ad Diwem;Ad Duwem;Ad Duwaym;Ed Dueim;Dueim;Ad Duwēm","alt_name:en":"Ad Diwem"},"display_name":"الدويم, Ad Douiem, النيل الأبيض, السودان","address":{"city":"الدويم","county":"Ad Douiem","state":"النيل الأبيض","ISO3166-2-lvl4":"SD-NW","country":"السودان","country_code":"sd"},"osm_type":"node","osm_id":1977780575,"type":"city","location":[32.30946,13.997187],"bbox":[32.14946,13.837187,32.46946,14.157187]}
{"name":"السوكي","other_names":{"name:ar":"السوكي","name:en":"El Suki","name:fr":"El Suki","name:ml":"എൽ സൂക്കി","alt_name":"As Suki;Es Suki;As Sūkī","alt_name:en":"As Suki"},"display_name":"السوكي, الدندر, سنار, السودان","address":{"city":"السوكي","town":"الدندر","state":"سنار","ISO3166-2-lvl4":"SD-SI","country":"السودان","country_code":"sd"},"osm_type":"node","osm_id":3310640105,"type":"city","location":[33.8904559,13.3246176],"bbox":[33.7304559,13.1646176,34.0504559,13.4846176]}
{"name":"الشجرة","display_name":"الشجرة, الدوحة جبرة, جبرة شمال, الخرطوم, السودان","address":{"city":"الشجرة","neighbourhood":"الدوحة جبرة","suburb":"جبرة شمال","state":"الخرطوم","ISO3166-2-lvl4":"SD-KH","country":"السودان","country_code":"sd"},"osm_type":"way","osm_id":1356247993,"type":"city","location":[32.50949519136529,15.535451649999999],"bbox":[32.5071201,15.5326106,32.5120313,15.5384389]}
{"name":"الضعين","other_names":{"name:ar":"الضعين","name:de":"Ad-Du’ain","name:en":"Ad Da'ein","name:et":"Aḑ-Ḑu‘ayn","name:fr":"Ed Daein","alt_name":"El Daein;Ad Da`ayn;Ad Da‘en;Ad Da`en;Al-Diayn;Ed Dueim;Aḑ Ḑa‘ayn","alt_name:ar":"الدعين","alt_name:en":"Ed Da‘ein;Ed Da`ein;Ed Daein"},"display_name":"الضعين, ولاية شرق دارفور, السودان","address":{"city":"الضعين","state":"ولاية شرق دارفور","ISO3166-2-lvl4":"SD-DE","country":"السودان","country_code":"sd"},"population":240000,"osm_type":"node","osm_id":300076998,"type":"city","location":[26.1310939,11.4611731],"bbox":[25.9710939,11.3011731,26.2910939,11.6211731]}
{"name":"الفاشر","other_names":{"name:ar":"الفاشر","name:cs":"Fášir","name:de":"Al-Faschir","name:en":"Al-Fashir","name:es":"El Fasher","name:et":"Al-Fāshir","name:eu":"Al-Fashir","name:fa":"الفاشر","name:fr":"El Fasher","name:ja":"エル＝ファーシル","name:ko":"알파시르","name:ks":"الفاشر","name:ml":"അൽ ഫാഷിർ","name:ru":"Эль-Фашир","name:ur":"الفاشر","alt_name":"Tendelti;El-Fashir","name:azb":"الفاشر","alt_name:cs":"al-Fášir","alt_name:en":"El Fasher"},"display_name":"الفاشر, Al Fasher, ولاية شمال دارفور, السودان","address":{"city":"الفاشر","county":"Al Fasher","state":"ولاية شمال دارفور","ISO3166-2-lvl4":"SD-DN","country":"السودان","country_code":"sd"},"population":277000,"osm_type":"node","osm_id":300074306,"type":"city","location":[25.3555559,13.6238244],"bbox":[25.1955559,13.4638244,25.5155559,13.7838244]}
{"name":"الفاو","other_names":{"name:en":"Al Fao","name:fr":"Al Fao","name:ml":"അൽ ഫാവ്"},"display_name":"الفاو, القضارفي, القضارف, السودان","address":{"city":"الفاو","state":"القضارف","ISO3166-2-lvl4":"SD-GD","country":"السودان","country_code":"sd"},"osm_type":"node","osm_id":5434620573,"type":"city","location":[34.091813,14.1075532],"bbox":[33.931813,13.9475532,34.251813,14.2675532],"border":{"name":"الفاو","other_names":{"name:ar":"الفاو","name:de":"al Faw","name:en":"al Faw"},"display_name":"الفاو, القضارف, السودان","address":{"city":"الفاو","state":"القضارف","ISO3166-2-lvl4":"SD-GD","country":"السودان","country_code":"sd"},"osm_type":"relation","osm_id":4670700,"type":"administrative","location":[34.646139757670426,14.92598245],"bbox":[33.4313192,14.0710862,35.7997144,15.787501]}}
{"display_name":"الفشقة, القضارف, السودان","address":{"city":"الفشقة","state":"القضارف","ISO3166-2-lvl4":"SD-GD","country":"السودان","country_code":"sd"},"osm_type":"way","osm_id":192705236,"type":"city","location":[35.342555084374695,14.03285705],"bbox":[35.3300739,13.9928021,35.4342027,14.072968]}
{"name":"الفشقة","other_names":{"name:de":"al Fuschqa","name:en":"Al Fushqa","int_name":"Al Fushqa"},"display_name":"الفشقة, القضارف, السودان","address":{"city":"الفشقة","state":"القضارف","ISO3166-2-lvl4":"SD-GD","country":"السودان","country_code":"sd"},"osm_type":"relation","osm_id":4671551,"type":"administrative","location":[35.22069932718209,13.9018699],"bbox":[34.7899912,13.6352755,35.660374,14.1906625],"inferred_type":"city"}
{"name":"الفولة","other_names":{"name:ar":"الفولة","name:de":"Al-Fula","name:en":"Al-Fula","name:fr":"Al-Fulah","name:ml":"അൽ ഫൂല","alt_name":"Al-Fula","alt_name:en":"El Fula"},"display_name":"الفولة, السلام, ولاية غرب كردفان, السودان","address":{"city":"الفولة","county":"السلام","state":"ولاية غرب كردفان","ISO3166-2-lvl4":"SD-GK","country":"السودان","country_code":"sd"},"population":8721,"osm_type":"node","osm_id":5838095352,"type":"city","location":[28.3448982,11.7104852],"bbox":[28.1848982,11.5504852,28.5048982,11.8704852]}
{"name":"القاش","other_names":{"name:ar":"القاش","name:de":"al Gasch","name:en":"Al Gash"},"display_name":"القاش, كسلا, السودان","address":{"city":"القاش","state":"كسلا","ISO3166-2-lvl4":"SD-KA","country":"السودان","country_code":"sd"},"osm_type":"relation","osm_id":4669951,"type":"administrative","location":[35.96960496400116,16.3128006],"bbox":[35.3035358,15.3683566,36.7254816,17.1187137],"inferred_type":"city"}
{"name":"القرابين","other_names":{"name:ar":"القرابين","name:en":"Garabin","name:fr":"Garabin","name:ml":"ഗറാബീൻ","alt_name:en":"Al Qarabin"},"display_name":"القرابين, سنجة, سنار, السودان","address":{"city":"القرابين","state":"سنار","ISO3166-2-lvl4":"SD-SI","country":"السودان","country_code":"sd"},"osm_type":"node","osm_id":2655669439,"type":"city","location":[33.8163017,12.1159815],"bbox":[33.6563017,11.9559815,33.9763017,12.2759815]}
{"name":"القضارف","other_names":{"name:ar":"القضارف","name:de":"al Qadarif","name:en":"Al-Qadarif","name:et":"Al-Qaḑārif","name:eu":"Al-Qadarif","name:fr":"Al-Qadarif","name:it":"Gadaref","name:ml":"അൽ ഖദാറിഫ്","name:ru":"Гедареф","name:uk":"Гедареф","alt_name":"Gedaref;Al-Gadarif;El Gedaref","int_name":"Al Quadarif","alt_name:en":"El-Gadarif","alt_name:ml":"ഗദാറിഫ്"},"display_name":"القضارف, القضارفي /Al-Qadarif, القضارف, السودان","address":{"city":"القضارف","state":"القضارف","ISO3166-2-lvl4":"SD-GD","country":"السودان","country_code":"sd"},"population":354598,"osm_type":"node","osm_id":294865520,"type":"city","location":[35.398832,14.040941],"bbox":[35.238832,13.880941,35.558832,14.200941],"border":[{"name":"القضارفي","other_names":{"name:de":"Al Qadarif","name:en":"Al Qadarif","int_name":"Al Quadarif"},"display_name":"القضارفي, القضارف, السودان","address":{"city":"القضارفي","state":"القضارف","ISO3166-2-lvl4":"SD-GD","country":"السودان","country_code":"sd"},"osm_type":"relation","osm_id":4674985,"type":"administrative","location":[34.71543152059718,13.5326652],"bbox":[33.9346295,12.7883585,35.4443777,14.3004774]},{"name":"القضارفي /Al-Qadarif","other_names":{"name:ar":"القضارف","name:en":"Al-Qadarif","name:fr":"Al-Qadarif","name:ru":"Гедареф","alt_name":"Gedaref","name:de":"al Qadarif","name:et":"Al-Qaḑārif","name:eu":"Al-Qadarif","name:it":"Gadaref","name:ml":"അൽ ഖദാറിഫ്","name:uk":"Гедареф","_place_alt_name":"Gedaref;Al-Gadarif;El Gedaref","int_name":"Al Quadarif","alt_name:en":"El-Gadarif","alt_name:ml":"ഗദാറിഫ്","alt":"القضارف"},"display_name":"القضارفي /Al-Qadarif, القضارف, السودان","address":{"city":"القضارفي /Al-Qadarif","state":"القضارف","ISO3166-2-lvl4":"SD-GD","country":"السودان","country_code":"sd"},"population":354598,"osm_type":"relation","osm_id":4421085,"type":"administrative","location":[35.398832,14.040941],"bbox":[35.3291026,13.993133,35.4347666,14.0747469]}]}
{"name":"القولد","other_names":{"name:ar":"القولد","name:en":"Al Goled","name:fr":"Al Goled","name:ml":"അൽ ഗോലെദ്","alt_name":"Al Qulayd Bahri;Goled Bahri;El Goled Bahri;Al Qolid Bahri;El Guleid Bahri;Al Qulayd Baḩrī","alt_name:ar":"القولد بهر;القليد بحري","alt_name:en":"Al Qulayd Bahri","alt_name:ml":"അൽ ഖുലൈദ് ബഹ്രി"},"display_name":"القولد, الولاية الشمالية, السودان","address":{"city":"القولد","state":"الولاية الشمالية","ISO3166-2-lvl4":"SD-NO","country":"السودان","country_code":"sd"},"osm_type":"node","osm_id":4116845005,"type":"city","location":[30.6330833,18.5046499],"bbox":[30.4730833,18.3446499,30.7930833,18.6646499]}
{"name":"المجلد","other_names":{"name:de":"Muglad","name:en":"Muglad","name:es":"Muglad","name:fr":"Muglad","alt_name":"Al Mujlad"},"display_name":"المجلد, أبيي, ولاية غرب كردفان, السودان","address":{"city":"المجلد","county":"أبيي","state":"ولاية غرب كردفان","ISO3166-2-lvl4":"SD-GK","country":"السودان","country_code":"sd"},"osm_type":"node","osm_id":321503273,"type":"city","location":[27.7545176,11.0323699],"bbox":[27.5945176,10.8723699,27.9145176,11.1923699]}
{"name":"المزموم","other_names":{"name:ar":"المزموم","name:en":"Al Mazmūm","name:fr":"Jabal Al Mazmum","name:ml":"അൽ മസ്മൂം","alt_name:en":"Al Mazmum"},"display_name":"المزموم, سنجة, سنار, السودان","address":{"city":"المزموم","state":"سنار","ISO3166-2-lvl4":"SD-SI","country":"السودان","country_code":"sd"},"osm_type":"node","osm_id":2655669111,"type":"city","location":[33.5408281,12.2724838],"bbox":[33.3808281,12.1124838,33.7008281,12.4324838]}
{"name":"المناقل","other_names":{"name:ar":"المناقل","name:en":"Al Managil","name:et":"Al-Manāqil","name:fr":"Al Manaqil","name:hu":"Al Managil","name:ml":"അൽ മനാഖിൽ","name:ru":"Эль-Менакил","alt_name":"al Manaqil;Manaqil;El Manāqil;El Manaqil;El Managil","alt_name:ar":"منقل","alt_name:en":"Al Manaqil"},"display_name":"المناقل, الجزيرة, السودان","address":{"city":"المناقل","state":"الجزيرة","ISO3166-2-lvl4":"SD-GZ","country":"السودان","country_code":"sd"},"population":128000,"osm_type":"node","osm_id":2116631186,"type":"city","location":[32.9858537,14.2467437],"bbox":[32.8258537,14.0867437,33.1458537,14.4067437]}
{"name":"المنصورة","other_names":{"name:ar":"المنصورة","name:en":"Almansora"},"display_name":"المنصورة, كسلا, السودان","address":{"city":"المنصورة","state":"كسلا","ISO3166-2-lvl4":"SD-KA","country":"السودان","country_code":"sd"},"osm_type":"node","osm_id":6881073938,"type":"city","location":[35.8678483,14.5930475],"bbox":[35.7078483,14.4330475,36.0278483,14.7530475]}
{"name":"النهود","other_names":{"name:ar":"النهود","name:de":"An-Nahud","name:en":"En Nahud","name:es":"En Nahud","name:fr":"En Nahud","name:ml":"എന്നഹൂദ്","name:ru":"Эн-Нахуд","alt_name":"An Nuhud;An Nahūd;An Nahud;Nahad;En Nahūd;En Nahud;An Nuhūd","alt_name:ar":"نهد","alt_name:en":"An Nuhud"},"display_name":"النهود, En Nuhud, ولاية غرب كردفان, السودان","address":{"city":"النهود","county":"En Nuhud","state":"ولاية غرب كردفان","ISO3166-2-lvl4":"SD-GK","country":"السودان","country_code":"sd"},"osm_type":"node","osm_id":2373597402,"type":"city","location":[28.422103,12.692159],"bbox":[28.262103,12.532159,28.582103,12.852159]}
{"name":"بابنوسة","other_names":{"name:ar":"بابنوسة","name:en":"Babanusah","name:fr":"Babanusa","alt_name":"Babanusah;Babanusa;Babanūsah","alt_name:ar":"ببنس;ببنوسة"},"display_name":"بابنوسة, أبيي, ولاية غرب كردفان, السودان","address":{"city":"بابنوسة","county":"أبيي","state":"ولاية غرب كردفان","ISO3166-2-lvl4":"SD-GK","country":"السودان","country_code":"sd"},"osm_type":"node","osm_id":321502878,"type":"city","location":[27.8095803,11.3305456],"bbox":[27.6495803,11.1705456,27.9695803,11.4905456]}
{"name":"بارا","other_names":{"name:ar":"بارا","name:de":"Barah","name:en":"Barah","name:es":"Barah","name:fr":"Barah","alt_name":"Barah;Bāra;Bara;Bārah","alt_name:ar":"بار;بارة"},"display_name":"بارا, Sheikan, ولاية شمال كردفان, السودان","address":{"city":"بارا","county":"Sheikan","state":"ولاية شمال كردفان","ISO3166-2-lvl4":"SD-KN","country":"السودان","country_code":"sd"},"osm_type":"node","osm_id":2374654672,"type":"city","location":[30.3703697,13.6968325],"bbox":[30.2103697,13.5368325,30.5303697,13.8568325]}
{"name":"بحري","other_names":{"name:ar":"بحري","name:bg":"Бахри","name:de":"Bahri","name:en":"Bahri","name:es":"Jartum Norte","name:fr":"Bahri","name:hr":"Bahri","name:ml":"ബഹ്രി","name:ru":"Северный Хартум","name:sl":"Bahri","name:sr":"Бархи","name:tr":"Kuzey Hartum","name:uk":"Північний Хартум","name:zh":"北喀土穆","alt_name":"الخرطوم بحري","alt_name:ar":"الخرطوم بحري","alt_name:de":"Khartum Nord","alt_name:en":"Khartoum North","alt_name:fr":"Khartoum Nord","alt_name:hr":"Sjeverni Kartum","alt_name:sl":"Severni Kartum","alt_name:sr":"Северни Картум"},"display_name":"بحري, الخرطوم, السودان","address":{"city":"بحري","state":"الخرطوم","ISO3166-2-lvl4":"SD-KH","country":"السودان","country_code":"sd"},"population":1184000,"osm_type":"node","osm_id":8815796190,"type":"city","location":[32.5345797,15.6478476],"bbox":[32.3745797,15.4878476,32.6945797,15.8078476],"border":{"name":"بحري","other_names":{"name:ar":"بحري","name:en":"Bahri","name:bg":"Бахри","name:de":"Bahri","name:es":"Jartum Norte","name:fr":"Bahri","name:hr":"Bahri","name:ml":"ബഹ്രി","name:ru":"Северный Хартум","name:sl":"Bahri","name:sr":"Бархи","name:tr":"Kuzey Hartum","name:uk":"Північний Хартум","name:zh":"北喀土穆","alt_name":"الخرطوم بحري","alt_name:ar":"الخرطوم بحري","alt_name:de":"Khartum Nord","alt_name:en":"Khartoum North","alt_name:fr":"Khartoum Nord","alt_name:hr":"Sjeverni Kartum","alt_name:sl":"Severni Kartum","alt_name:sr":"Северни Картум"},"display_name":"بحري, الخرطوم, السودان","address":{"city":"بحري","state":"الخرطوم","ISO3166-2-lvl4":"SD-KH","country":"السودان","country_code":"sd"},"population":1184000,"osm_type":"relation","osm_id":13172285,"type":"administrative","location":[32.5345797,15.6478476],"bbox":[32.5073432,15.6155974,32.6417538,15.7489714]}}
{"display_name":"بربر, نهر النيل, السودان","address":{"town":"بربر","state":"نهر النيل","ISO3166-2-lvl4":"SD-NR","country":"السودان","country_code":"sd"},"osm_type":"way","osm_id":381539099,"type":"city","location":[33.96167643422352,17.88110815],"bbox":[33.9567501,17.8736477,33.9660087,17.8887461]}
{"name":"بورام","other_names":{"name:ar":"بورام","name:en":"Buram","name:fr":"Buram","name:ml":"ബൂറാം"},"display_name":"بورام, جنوب دارفور, السودان","address":{"city":"بورام","county":"بورام","state":"جنوب دارفور","ISO3166-2-lvl4":"SD-DS","country":"السودان","country_code":"sd"},"osm_type":"node","osm_id":2574072000,"type":"city","location":[25.1583291,10.8616617],"bbox":[24.9983291,10.7016617,25.3183291,11.0216617],"border":{"name":"بورام","other_names":{"name:ar":"بورام","name:en":"Buram","name:fr":"Buram"},"display_name":"بورام, جنوب دارفور, السودان","address":{"county":"بورام","state":"جنوب دارفور","ISO3166-2-lvl4":"SD-DS","country":"السودان","country_code":"sd"},"osm_type":"relation","osm_id":8539333,"type":"administrative","location":[24.4432054,10.2446558],"bbox":[23.447778,8.685278,25.84902,11.3309898]}}
{"name":"بورتسودان","other_names":{"name:ar":"بورتسودان","name:de":"Bur Sudan","name:en":"Port Sudan","name:et":"Port Sudan","name:eu":"Port Sudan","name:fa":"بور سودان","name:fr":"Port-Soudan","name:it":"Porto Sudàn","name:ja":"ポート・スーダン","name:ko":"포트수단","name:ml":"പോർട്ട് സുഡാൻ","name:pt":"Porto Sudão","name:ro":"Port Sudan","name:ru":"Порт-Судан","name:ur":"پورٹ سوڈان","alt_name":"بورسودان;بورت سودان;بور سودان;Bur Tsudan;Sheikh Barghūth;Sheikh Barghuth;Shaikh Barghūth;Shaikh Barghuth;New Sawâkin;New Sawakin;Shaykh Burghūth;Shaykh Burghuth;Būr Tsūdān","name:azb":"بور سودان","alt_name:ar":"بورسودان;بورت سودان;بور سودان;بورة سودان;بور تسودان;شإخ برغوث;شيخ برغوث"},"display_name":"بورتسودان, البحر الأحمر, السودان","address":{"city":"بورتسودان","state":"البحر الأحمر","ISO3166-2-lvl4":"SD-RS","country":"السودان","country_code":"sd"},"population":489000,"osm_type":"node","osm_id":288510602,"type":"city","location":[37.211709,19.619217],"bbox":[37.051709,19.459217,37.371709,19.779217],"border":[{"name":"بورتسودان","other_names":{"name:ar":"بورتسودان","name:fa":"بور سودان","name:ur":"پورٹ سوڈان","alt_name":"بورسودان;بورت سودان;بور سودان","name:azb":"بور سودان","alt_name:ar":"بورسودان;بورت سودان;بور سودان","official_name":"محلية بورتسودان","name:de":"Bur Sudan","name:en":"Port Sudan","name:et":"Port Sudan","name:eu":"Port Sudan","name:fr":"Port-Soudan","name:it":"Porto Sudàn","name:ja":"ポート・スーダン","name:ko":"포트수단","name:ml":"പോർട്ട് സുഡാൻ","name:pt":"Porto Sudão","name:ro":"Port Sudan","name:ru":"Порт-Судан","_place_alt_name":"بورسودان;بورت سودان;بور سودان;Bur Tsudan;Sheikh Barghūth;Sheikh Barghuth;Shaikh Barghūth;Shaikh Barghuth;New Sawâkin;New Sawakin;Shaykh Burghūth;Shaykh Burghuth;Būr Tsūdān","official_name:ar":"محلية بورتسودان","official_name:de":"Bur Sudan Landkreis","official_name:en":"Port Sudan Distrikt","_place_alt_name:ar":"بورسودان;بورت سودان;بور سودان;بورة سودان;بور تسودان;شإخ برغوث;شيخ برغوث"},"display_name":"بورتسودان, البحر الأحمر, 79800, السودان","address":{"city":"بورتسودان","state":"البحر الأحمر","ISO3166-2-lvl4":"SD-RS","postcode":"79800","country":"السودان","country_code":"sd"},"population":489000,"osm_type":"relation","osm_id":3922829,"type":"administrative","location":[37.211709,19.619217],"bbox":[33.2524821,19.0097906,37.555062,21.121448]},{"name":"بورتسودان","other_names":{"name:ar":"بورتسودان","name:de":"Bur Sudan","name:en":"Port Sudan","name:fa":"بور سودان","name:ur":"پورٹ سوڈان","alt_name":"بورسودان;بورت سودان;بور سودان","name:azb":"بور سودان","alt_name:ar":"بورسودان;بورت سودان;بور سودان"},"display_name":"بورتسودان, البحر الأحمر, 79800, السودان","address":{"city_district":"بورتسودان","city":"بورتسودان","state":"البحر الأحمر","ISO3166-2-lvl4":"SD-RS","postcode":"79800","country":"السودان","country_code":"sd"},"osm_type":"relation","osm_id":3897892,"type":"administrative","location":[37.22456778905553,19.55339805],"bbox":[36.9257787,19.0097906,37.555062,20.1131695]}]}
{"name":"بوط","other_names":{"name:ar":"بوط","name:de":"But","name:en":"But","name:fr":"Bout","name:ml":"ബൂത്ത്","alt_name":"بت","alt_name:ar":"بت"},"display_name":"بوط, الدمازين, النيل الأزرق, السودان","address":{"city":"بوط","state":"النيل الأزرق","ISO3166-2-lvl4":"SD-NB","country":"السودان","country_code":"sd"},"osm_type":"node","osm_id":2597933459,"type":"city","location":[33.385474,11.4210555],"bbox":[33.225474,11.2610555,33.545474,11.5810555]}
{"name":"تلودي","other_names":{"name:ar":"تلودي","name:de":"Talodi","name:en":"Talodi","name:es":"Talodi","name:fr":"Talodi","alt_name":"Talawdi"},"display_name":"تلودي, ولاية جنوب كردفان, السودان","address":{"city":"تلودي","county":"تلودي","state":"ولاية جنوب كردفان","ISO3166-2-lvl4":"SD-KS","country":"السودان","country_code":"sd"},"osm_type":"node","osm_id":2146406946,"type":"city","location":[30.3793795,10.6326436],"bbox":[30.2193795,10.4726436,30.5393795,10.7926436],"border":{"name":"تلودي","other_names":{"name:ar":"تلودي","name:en":"Talodi","name:fr":"Talodi","alt_name":"Talawdi","alt":"Talodi"},"display_name":"تلودي, ولاية جنوب كردفان, السودان","address":{"county":"تلودي","state":"ولاية جنوب كردفان","ISO3166-2-lvl4":"SD-KS","country":"السودان","country_code":"sd"},"osm_type":"relation","osm_id":8539348,"type":"administrative","location":[30.8001654,10.3743673],"bbox":[29.9137707,9.711747,31.5131302,11.2889795]}}
{"name":"تمبول","other_names":{"name:ar":"تمبول","name:en":"Tambool","name:fr":"Tamboul","name:ml":"തമ്പൂൽ","alt_name:en":"Tambul"},"display_name":"تمبول, الجزيرة, السودان","address":{"city":"تمبول","state":"الجزيرة","ISO3166-2-lvl4":"SD-GZ","country":"السودان","country_code":"sd"},"osm_type":"node","osm_id":2955411569,"type":"city","location":[33.422566,14.9267897],"bbox":[33.262566,14.7667897,33.582566,15.0867897]}
{"name":"تندلتي","other_names":{"name:ar":"تندلتي","name:de":"Tandalti","name:en":"Tandalti","name:es":"Tandalti","name:fr":"Tandalti","name:ml":"തന്ദൽത്തി","alt_name":"Tandalti;Tendelti;Tandaltī"},"display_name":"تندلتي, كوستي, النيل الأبيض, السودان","address":{"city":"تندلتي","county":"كوستي","state":"النيل الأبيض","ISO3166-2-lvl4":"SD-NW","country":"السودان","country_code":"sd"},"osm_type":"node","osm_id":248948657,"type":"city","location":[31.8663916,13.0091979],"bbox":[31.7063916,12.8491979,32.0263916,13.1691979]}
{"name":"حلايب","other_names":{"name:ar":"حلايب","name:de":"Hala'ib Landkreis","name:en":"Halayeb Distrikt","name:fr":"Hala'ib","int_name":"Halayeb"},"display_name":"حلايب, البحر الأحمر, السودان","address":{"city":"حلايب","state":"البحر الأحمر","ISO3166-2-lvl4":"SD-RS","country":"السودان","country_code":"sd"},"osm_type":"relation","osm_id":3922875,"type":"administrative","location":[35.370684905672675,21.2844195],"bbox":[33.2524821,20.5585448,37.5531093,22.0056734],"inferred_type":"city"}
{"name":"دنقلا","other_names":{"name:ar":"دنقلا","name:de":"Dongola","name:en":"Dongola","name:es":"Dongola","name:fr":"Dongola","name:ko":"동골라","name:ml":"ദുൻഖുല","name:ru":"Донгола","name:tr":"Dongola","name:uk":"Донгола","alt_name":"Dunqulah;Dunqula;Donkola;Dunkula;Donqola","old_name":"Al 'Urdi","alt_name:ar":"دونقول;دنقلة;دونكول;دنكل"},"display_name":"دنقلا, الولاية الشمالية, السودان","address":{"city":"دنقلا","state":"الولاية الشمالية","ISO3166-2-lvl4":"SD-NO","country":"السودان","country_code":"sd"},"population":56167,"osm_type":"node","osm_id":75562621,"type":"city","location":[30.4731589,19.1728506],"bbox":[30.3131589,19.0128506,30.6331589,19.3328506]}
{"name":"ربك","other_names":{"name:ar":"ربك","name:en":"Rabak","name:et":"Rabak","name:fr":"Rabak","name:ko":"라박","name:ml":"റബക്ക്","alt_name":"Rabaq","alt_name:ar":"ربق"},"display_name":"ربك, الجبلين, النيل الأبيض, السودان","address":{"city":"ربك","county":"الجبلين","state":"النيل الأبيض","ISO3166-2-lvl4":"SD-NW","country":"السودان","country_code":"sd"},"population":152711,"osm_type":"node","osm_id":321439793,"type":"city","location":[32.7398062,13.1844655],"bbox":[32.5798062,13.0244655,32.8998062,13.3444655]}
{"name":"رفاعة","other_names":{"name:ar":"رفاعة","name:en":"Rufaah","name:fr":"Rufaa","name:ml":"റുഫാ","alt_name":"Rufa`ah;Rufā‘ah;رفاع","alt_name:ar":"رفاعة;رفاع","alt_name:en":"Rufa`a"},"display_name":"رفاعة, الجزيرة, السودان","address":{"city":"رفاعة","state":"الجزيرة","ISO3166-2-lvl4":"SD-GZ","country":"السودان","country_code":"sd"},"osm_type":"node","osm_id":90187942,"type":"city","location":[33.3659991,14.7677692],"bbox":[33.2059991,14.6077692,33.5259991,14.9277692]}
{"name":"زالنجي","other_names":{"name:ar":"زالنجي","name:en":"Zalingei","name:fr":"Zalingei","name:ja":"ザリンゲイ","name:ml":"സാലിഞ്ജി","alt_name":"Zalinje;Zalinji","alt_name:ar":"زلنج"},"display_name":"زالنجي, Zalingei, ولاية وسط دارفور, السودان","address":{"city":"زالنجي","county":"Zalingei","state":"ولاية وسط دارفور","ISO3166-2-lvl4":"SD-DC","country":"السودان","country_code":"sd"},"population":27258,"osm_type":"node","osm_id":321481872,"type":"city","location":[23.4738132,12.9134096],"bbox":[23.3138132,12.7534096,23.6338132,13.0734096],"border":{"name":"Zalingei","other_names":{"name:en":"Zalingei","name:ru":"Залингей"},"display_name":"Zalingei, ولاية وسط دارفور, السودان","address":{"county":"Zalingei","state":"ولاية وسط دارفور","ISO3166-2-lvl4":"SD-DC","country":"السودان","country_code":"sd"},"osm_type":"relation","osm_id":8539327,"type":"administrative","location":[23.6837741,13.066104],"bbox":[22.6835234,12.5999803,24.7287197,13.5637496]}}
{"name":"سنار","other_names":{"name:ar":"سنار","name:cs":"Sennár","name:en":"Sennar","name:et":"Sinnār","name:fr":"Sennar","name:ko":"센나르","name:ml":"സെന്നാർ","name:ru":"Сеннар","name:uk":"Сеннар","alt_name":"Sinja;Sennar al-Madina","old_name":"Mok-waar"},"display_name":"سنار, السودان","address":{"city":"سنار","state":"سنار","ISO3166-2-lvl4":"SD-SI","country":"السودان","country_code":"sd"},"population":135581,"osm_type":"node","osm_id":321438810,"type":"city","location":[33.6103555,13.5424054],"bbox":[33.4503555,13.3824054,33.7703555,13.7024054],"border":{"name":"سنار","other_names":{"name:ar":"سنار","name:cs":"Sennár","name:de":"Sannar","name:en":"Sennar","int_name":"Sennar","name:et":"Sinnār","name:fr":"Sennar","name:ko":"센나르","name:ml":"സെന്നാർ","name:ru":"Сеннар","name:uk":"Сеннар","alt_name":"Sinja;Sennar al-Madina","old_name":"Mok-waar"},"display_name":"سنار, السودان","address":{"city":"سنار","state":"سنار","ISO3166-2-lvl4":"SD-SI","country":"السودان","country_code":"sd"},"population":135581,"osm_type":"relation","osm_id":4701029,"type":"administrative","location":[33.6103555,13.5424054],"bbox":[32.9432602,13.0016203,34.3024025,14.0697794]}}
{"name":"سنجة","other_names":{"name:ar":"سنجة","name:de":"Sindscha","name:en":"Singa","name:es":"Singa","name:fr":"Singa","name:ml":"സിങ്ക","alt_name":"Senga;Sinja","alt_name:ar":"سِنْجَة;سنج"},"display_name":"سنجة, سنار, السودان","address":{"city":"سنجة","state":"سنار","ISO3166-2-lvl4":"SD-SI","country":"السودان","country_code":"sd"},"osm_type":"node","osm_id":3313215531,"type":"city","location":[33.9283527,13.1440522],"bbox":[33.7683527,12.9840522,34.0883527,13.3040522],"border":{"name":"سنجة","other_names":{"name:ar":"سنجة","name:de":"Sindscha","name:en":"Singa","int_name":"Singa","alt_name:ar":"سِنْجَة","name:es":"Singa","name:fr":"Singa","name:ml":"സിങ്ക","alt_name":"Senga;Sinja","_place_alt_name:ar":"سِنْجَة;سنج"},"display_name":"سنجة, سنار, السودان","address":{"city":"سنجة","state":"سنار","ISO3166-2-lvl4":"SD-SI","country":"السودان","country_code":"sd"},"osm_type":"relation","osm_id":4709724,"type":"administrative","location":[33.9283527,13.1440522],"bbox":[33.0820389,11.674535,34.3423312,13.3611034]}}
{"name":"سنكات","other_names":{"name:ar":"سنكات","name:en":"Sinkāt","name:fr":"Sinkat","name:ml":"സിൻകാത്ത്","alt_name":"سنكت","alt_name:ar":"سنكت","alt_name:en":"Sinkat"},"display_name":"سنكات, البحر الأحمر, السودان","address":{"city":"سنكات","state":"البحر الأحمر","ISO3166-2-lvl4":"SD-RS","country":"السودان","country_code":"sd"},"osm_type":"node","osm_id":2983364451,"type":"city","location":[36.8364825,18.8379764],"bbox":[36.6764825,18.6779764,36.9964825,18.9979764],"border":[{"name":"سنكات","other_names":{"name:ar":"سنكات","name:de":"Sinkat Landkreis","name:en":"Sinkat District","int_name":"Sinkat District","name:fr":"Sinkat","name:ml":"സിൻകാത്ത്","alt_name":"سنكت","alt_name:ar":"سنكت","alt_name:en":"Sinkat","alt:en":"Sinkāt"},"display_name":"سنكات, البحر الأحمر, السودان","address":{"city":"سنكات","state":"البحر الأحمر","ISO3166-2-lvl4":"SD-RS","country":"السودان","country_code":"sd"},"osm_type":"relation","osm_id":3922866,"type":"administrative","location":[36.8364825,18.8379764],"bbox":[33.7976051,16.9852703,37.0752638,19.4574287]},{"name":"سنكات","other_names":{"name:ar":"سنكات","name:en":"Sinkat"},"display_name":"سنكات, البحر الأحمر, السودان","address":{"city_district":"سنكات","city":"سنكات","state":"البحر الأحمر","ISO3166-2-lvl4":"SD-RS","country":"السودان","country_code":"sd"},"osm_type":"relation","osm_id":3916883,"type":"administrative","location":[36.830512385627884,18.80525275],"bbox":[36.751851,18.7366018,36.9118622,18.8850251]}]}
{"display_name":"سنكات, البحر الأحمر, السودان","address":{"city":"سنكات","state":"البحر الأحمر","ISO3166-2-lvl4":"SD-RS","country":"السودان","country_code":"sd"},"osm_type":"way","osm_id":381546030,"type":"city","location":[35.594214473149364,18.7131525],"bbox":[35.5838478,18.7075922,35.597833,18.7185124]}
{"name":"سواكن","other_names":{"name:ar":"سواكن","name:de":"Sawakin","name:en":"Sawakin","name:es":"Suakin","name:fr":"Suakin","name:ml":"സവാക്കിൻ","alt_name":"Suakin","alt_name:ar":"سأكن"},"display_name":"سواكن, بورتسودان, البحر الأحمر, السودان","address":{"city":"سواكن","state":"البحر الأحمر","ISO3166-2-lvl4":"SD-RS","country":"السودان","country_code":"sd"},"population":40000,"osm_type":"node","osm_id":288512635,"type":"city","location":[37.331236,19.103071],"bbox":[37.171236,18.943071,37.491236,19.263071],"border":{"name":"Sawakin","other_names":{"name:ar":"سواكن","name:en":"Sawakin"},"display_name":"Sawakin, طوكر, البحر الأحمر, السودان","address":{"city_district":"Sawakin","town":"طوكر","state":"البحر الأحمر","ISO3166-2-lvl4":"SD-RS","country":"السودان","country_code":"sd"},"osm_type":"relation","osm_id":3898649,"type":"administrative","location":[37.336795699659184,18.9721642],"bbox":[37.073431,18.7690327,37.6047366,19.2203189]}}
{"name":"سودري","other_names":{"name:ar":"سودري","name:en":"Sawdiri","name:fr":"Sudri","name:ml":"സൗദിറി","alt_name":"Sawdiri;Sodiri;Soderi;Sodari;Sawdirī","alt_name:ar":"سودر"},"display_name":"سودري, Sowdari, ولاية شمال كردفان, السودان","address":{"city":"سودري","county":"Sowdari","state":"ولاية شمال كردفان","ISO3166-2-lvl4":"SD-KN","country":"السودان","country_code":"sd"},"osm_type":"node","osm_id":4676946085,"type":"city","location":[29.1026158,14.4122976],"bbox":[28.9426158,14.2522976,29.2626158,14.5722976]}
{"name":"شرق النيل","other_names":{"name:ar":"شرق النيل","name:en":"East Nile","name:ml":"കിഴക്കൻ നൈൽ"},"display_name":"شرق النيل, الخرطوم, السودان","address":{"city":"شرق النيل","state_district":"شرق النيل","state":"الخرطوم","ISO3166-2-lvl4":"SD-KH","country":"السودان","country_code":"sd"},"osm_type":"node","osm_id":9057481709,"type":"city","location":[32.6361298,15.6210436],"bbox":[32.4761298,15.4610436,32.7961298,15.7810436]}
{"name":"شندي","other_names":{"name:ar":"شندي","name:de":"Schandi","name:en":"Shendi","name:fa":"شندی","name:fr":"Chendi","name:ks":"شندی","name:ml":"ഷെന്ദി","name:ur":"شندی","alt_name":"Shendi;Shindî;Shindi;Shandi","int_name":"Shendi","name:azb":"شندی","name:ota":"شندی","alt_name:ar":"شند"},"display_name":"شندي, نهر النيل, السودان","address":{"city":"شندي","state":"نهر النيل","ISO3166-2-lvl4":"SD-NR","country":"السودان","country_code":"sd"},"osm_type":"node","osm_id":90112925,"type":"city","location":[33.432286,16.6884963],"bbox":[33.272286,16.5284963,33.592286,16.8484963],"border":{"name":"شندي","other_names":{"name:ar":"شندي","name:de":"Schandi","name:en":"Shendi","name:fa":"شندی","name:ks":"شندی","name:ur":"شندی","name:azb":"شندی","name:ota":"شندی","name:fr":"Chendi","name:ml":"ഷെന്ദി","alt_name":"Shendi;Shindî;Shindi;Shandi","int_name":"Shendi","alt_name:ar":"شند"},"display_name":"شندي, نهر النيل, السودان","address":{"city":"شندي","state":"نهر النيل","ISO3166-2-lvl4":"SD-NR","country":"السودان","country_code":"sd"},"osm_type":"relation","osm_id":4667997,"type":"administrative","location":[33.432286,16.6884963],"bbox":[32.748357,16.0329851,35.3035358,17.327201]}}
{"name":"عبري","other_names":{"name:ar":"عبري","name:de":"Abri","name:en":"Abri","name:es":"Abri","name:fr":"Abri","name:ml":"അബ്രി","alt_name":"`Abri;Sukkot;‘Abrī","alt_name:ar":"سكّوت","alt_name:en":"`Abri"},"display_name":"عبري, الولاية الشمالية, السودان","address":{"city":"عبري","state":"الولاية الشمالية","ISO3166-2-lvl4":"SD-NO","country":"السودان","country_code":"sd"},"population":40000,"osm_type":"node","osm_id":1958038093,"type":"city","location":[30.3406751,20.7930384],"bbox":[30.1806751,20.6330384,30.5006751,20.9530384]}
{"name":"عطبرة","other_names":{"name:ar":"عطبرة","name:de":"Atbara","name:en":"Atbara","name:es":"Atbara","name:et":"‘Aţbarah","name:fr":"Atbara","name:ml":"അത്ബറ","name:ru":"Атбара","name:uk":"Атбара","alt_name":"Madent Atbara;‘Aţbarah;`Atbarah;Atbara","int_name":"Atbarah","alt_name:ar":"عطبرة;أتبر","alt_name:en":"Madent Atbara"},"display_name":"عطبرة, نهر النيل, السودان","address":{"city":"عطبرة","state":"نهر النيل","ISO3166-2-lvl4":"SD-NR","country":"السودان","country_code":"sd"},"population":111399,"osm_type":"node","osm_id":90135276,"type":"city","location":[33.98073,17.690719],"bbox":[33.82073,17.530719,34.14073,17.850719],"border":{"name":"عطبرة","other_names":{"name:ar":"عطبرة","name:de":"Atbarah","name:en":"Atbarah","name:es":"Atbara","name:et":"‘Aţbarah","name:fr":"Atbara","name:ml":"അത്ബറ","name:ru":"Атбара","name:uk":"Атбара","alt_name":"Madent Atbara;‘Aţbarah;`Atbarah;Atbara","int_name":"Atbarah","alt_name:ar":"عطبرة;أتبر","alt_name:en":"Madent Atbara","alt:de":"Atbara","alt:en":"Atbara"},"display_name":"عطبرة, نهر النيل, السودان","address":{"city":"عطبرة","state":"نهر النيل","ISO3166-2-lvl4":"SD-NR","country":"السودان","country_code":"sd"},"population":111399,"osm_type":"relation","osm_id":4667777,"type":"administrative","location":[33.98073,17.690719],"bbox":[33.9127901,16.4308607,35.7097549,17.9031782]}}
{"name":"كادوقلي‎","other_names":{"name:ar":"كادوقلي‎","name:cs":"Káduklí","name:de":"Kaduqli","name:en":"Kadugli","name:fr":"Kadougli","name:ru":"Кадугли","name:uk":"Кадуглі","alt_name":"كادقلي","alt_name:ar":"كادقلي","alt_name:en":"Kaduqli;Kadougli"},"display_name":"كادوقلي‎, Kadugli, ولاية جنوب كردفان, السودان","address":{"city":"كادوقلي‎","municipality":"Kadugli","county":"Kadugli","state":"ولاية جنوب كردفان","ISO3166-2-lvl4":"SD-KS","country":"السودان","country_code":"sd"},"population":92674,"osm_type":"node","osm_id":210360300,"type":"city","location":[29.7155751,11.0085934],"bbox":[29.5555751,10.8485934,29.8755751,11.1685934],"border":[{"name":"Kadugli","display_name":"Kadugli, ولاية جنوب كردفان, السودان","address":{"county":"Kadugli","state":"ولاية جنوب كردفان","ISO3166-2-lvl4":"SD-KS","country":"السودان","country_code":"sd"},"osm_type":"relation","osm_id":8539347,"type":"administrative","location":[30.0366156,10.9573767],"bbox":[29.3000908,10.2943497,30.8021698,11.4441204]},{"name":"Kadugli","other_names":{"name:es":"Kordofán del Sur"},"display_name":"Kadugli, ولاية جنوب كردفان, السودان","address":{"municipality":"Kadugli","county":"Kadugli","state":"ولاية جنوب كردفان","ISO3166-2-lvl4":"SD-KS","country":"السودان","country_code":"sd"},"osm_type":"relation","osm_id":8539518,"type":"administrative","location":[29.60101162674514,11.07259465],"bbox":[29.3000908,10.7946596,30.2817192,11.3527803]}]}
{"name":"كرمة","other_names":{"name:ar":"كرمة","name:de":"Kerma","name:en":"Kerma","name:es":"Kerma","name:fr":"Kerma","name:ml":"കെർമ"},"display_name":"كرمة, الولاية الشمالية, السودان","address":{"city":"كرمة","state":"الولاية الشمالية","ISO3166-2-lvl4":"SD-NO","country":"السودان","country_code":"sd"},"osm_type":"node","osm_id":1958047978,"type":"city","location":[30.4091017,19.593098],"bbox":[30.2491017,19.433098,30.5691017,19.753098]}
{"name":"كسلا","other_names":{"name:ar":"كسلا","name:cs":"Kassala","name:de":"Kassala","name:en":"Kassala","name:es":"Kasala","name:et":"Kassalā","name:eu":"Kassala","name:fa":"کسلا","name:fr":"Kassala","name:ko":"카살라","name:ks":"کسلا","name:ml":"കസ്സല","name:ru":"Кассала","name:tr":"Keselâ","name:uk":"Кассала","name:ur":"کسلا","alt_name":"Cassala;Kasala","name:azb":"کسلا","alt_name:ar":"كسّلا;كسل"},"display_name":"كسلا, السودان","address":{"city":"كسلا","state":"كسلا","ISO3166-2-lvl4":"SD-KA","country":"السودان","country_code":"sd"},"population":436000,"osm_type":"node","osm_id":300066939,"type":"city","location":[36.3770699,15.452011],"bbox":[36.2170699,15.292011,36.5370699,15.612011],"border":{"name":"كسلا","other_names":{"name:ar":"كسلا","name:cs":"Kassala","name:de":"Kassala","name:en":"Kassala","name:es":"Kasala","name:fa":"کسلا","name:ks":"کسلا","name:ur":"کسلا","name:azb":"کسلا","name:et":"Kassalā","name:eu":"Kassala","name:fr":"Kassala","name:ko":"카살라","name:ml":"കസ്സല","name:ru":"Кассала","name:tr":"Keselâ","name:uk":"Кассала","alt_name":"Cassala;Kasala","alt_name:ar":"كسّلا;كسل"},"display_name":"كسلا, السودان","address":{"city":"كسلا","state":"كسلا","ISO3166-2-lvl4":"SD-KA","country":"السودان","country_code":"sd"},"population":436000,"osm_type":"relation","osm_id":4669808,"type":"administrative","location":[36.3770699,15.452011],"bbox":[36.0017259,15.0086502,36.7254816,15.776262]}}
{"name":"كوستي","other_names":{"name:ar":"كوستي","name:en":"Kosti","name:et":"Kūstī","name:eu":"Kosti","name:fr":"Kosti","name:ml":"കോസ്തി","name:ru":"Кости","name:uk":"Кості","alt_name":"Costi"},"display_name":"كوستي, النيل الأبيض, السودان","address":{"city":"كوستي","county":"كوستي","state":"النيل الأبيض","ISO3166-2-lvl4":"SD-NW","country":"السودان","country_code":"sd"},"population":384000,"osm_type":"node","osm_id":248948488,"type":"city","location":[32.6725113,13.1521864],"bbox":[32.5125113,12.9921864,32.8325113,13.3121864],"border":{"name":"كوستي","other_names":{"name:ar":"كوستي","name:en":"Kosti","name:fr":"Kosti","alt":"Kosti"},"display_name":"كوستي, النيل الأبيض, السودان","address":{"county":"كوستي","state":"النيل الأبيض","ISO3166-2-lvl4":"SD-NW","country":"السودان","country_code":"sd"},"osm_type":"relation","osm_id":8539319,"type":"administrative","location":[32.2338812,12.6457036],"bbox":[31.6466408,11.95105,32.8241959,13.6957598]}}
{"name":"مروي","other_names":{"name:ar":"مروي","name:de":"Merowe","name:en":"Merowe","name:es":"Merowe","name:fr":"Merowe","name:ml":"മറവി","alt_name":"Marawi;Merowe;Merawi;Marawī","alt_name:en":"Marawi"},"display_name":"مروي, الولاية الشمالية, السودان","address":{"city":"مروي","state":"الولاية الشمالية","ISO3166-2-lvl4":"SD-NO","country":"السودان","country_code":"sd"},"population":10000,"osm_type":"node","osm_id":1620604084,"type":"city","location":[31.8171688,18.4811972],"bbox":[31.6571688,18.3211972,31.9771688,18.6411972]}
{"name":"نهر عطبرة","other_names":{"name:ar":"نهر عطبرة","name:de":"Nahr Atbara","name:en":"Nahr Atbara","int_name":"Nahr Atbara"},"display_name":"نهر عطبرة, كسلا, السودان","address":{"city":"نهر عطبرة","state":"كسلا","ISO3166-2-lvl4":"SD-KA","country":"السودان","country_code":"sd"},"osm_type":"relation","osm_id":4669991,"type":"administrative","location":[35.626453674394135,15.72135815],"bbox":[35.1603436,15.0086502,36.2542231,16.4339794],"inferred_type":"city"}
{"name":"نيالا","other_names":{"name:ar":"نيالا","name:cs":"Njala","name:de":"Nyala","name:en":"Nyala","name:es":"Nyala","name:et":"Nyala","name:eu":"Nyala","name:fa":"نیاله","name:fr":"Nyala","name:ja":"ニャラ","name:ko":"니알라","name:ml":"ന്യാല","name:ru":"Ньяла","name:uk":"Ньяла","name:ur":"نیالا","alt_name":"نيال Nyala","name:azb":"نیاله","alt_name:ar":"نيال;نّا-لا","alt_name:en":"Nyala;Nyāla"},"display_name":"نيالا, جنوب دارفور, السودان","address":{"city":"نيالا","county":"نيالا","state":"جنوب دارفور","ISO3166-2-lvl4":"SD-DS","country":"السودان","country_code":"sd"},"population":566000,"osm_type":"node","osm_id":291449779,"type":"city","location":[24.8795115,12.0505098],"bbox":[24.7195115,11.8905098,25.0395115,12.2105098],"border":{"name":"نيالا","other_names":{"name:ar":"نيالا","name:en":"Nyala","name:fr":"Nyala","name:ru":"Ньяла"},"display_name":"نيالا, جنوب دارفور, السودان","address":{"county":"نيالا","state":"جنوب دارفور","ISO3166-2-lvl4":"SD-DS","country":"السودان","country_code":"sd"},"osm_type":"relation","osm_id":8539330,"type":"administrative","location":[24.7741672,12.2809691],"bbox":[24.3251305,11.2536802,25.7229004,13.1330204]}}
{"name":"هبيلا","other_names":{"name:ar":"هبيلا","name:en":"Habila","alt_name":"هبيلا"},"display_name":"هبيلا, Habeila, Dilling, ولاية جنوب كردفان, السودان","address":{"city":"هبيلا","municipality":"Habeila","county":"Dilling","state":"ولاية جنوب كردفان","ISO3166-2-lvl4":"SD-KS","country":"السودان","country_code":"sd"},"osm_type":"node","osm_id":2146403256,"type":"city","location":[30.0198347,11.9507788],"bbox":[29.8598347,11.7907788,30.1798347,12.1107788]}
{"name":"همشكوريب","other_names":{"name:ar":"همشكوريب","name:de":"Hamaschkorieb","name:en":"Hamashkorieb"},"display_name":"همشكوريب, كسلا, السودان","address":{"city":"همشكوريب","state":"كسلا","ISO3166-2-lvl4":"SD-KA","country":"السودان","country_code":"sd"},"osm_type":"relation","osm_id":4669807,"type":"administrative","location":[36.72488613467919,16.4222225],"bbox":[36.3152997,15.776262,37.022778,17.0691584],"inferred_type":"city"}
{"name":"وادي حلفا","other_names":{"name:ar":"وادي حلفا","name:de":"Wadi Halfa","name:en":"Wadi Halfa","name:es":"Wadi Halfa","name:fa":"وادی حلفا","name:fr":"Wadi Halfa","name:ko":"와디할파","name:ml":"വാദി ഹൽഫ","name:ru":"Вади-Хальфа","alt_name":"وادي حلفاء","name:azb":"وادی حلفا","alt_name:ar":"وادي حلفاء","alt_name:en":"Wadi Halfa';Wadi Halfa';Wādī Ḩalfā’"},"display_name":"وادي حلفا, الولاية الشمالية, السودان","address":{"city":"وادي حلفا","state":"الولاية الشمالية","ISO3166-2-lvl4":"SD-NO","country":"السودان","country_code":"sd"},"population":15725,"osm_type":"node","osm_id":100013911,"type":"city","location":[31.350737,21.8005],"bbox":[31.190737,21.6405,31.510737,21.9605]}
{"name":"ود النيل","other_names":{"name:ar":"ود النيل","name:en":"Wad an Nail","name:fr":"Wad en Nail","name:ml":"വദ് അന്നൈൽ","alt_name":"Wad an Nayal;Wad an Nail;Wad en Nail;Wad an Nayāl;ود النيّل","alt_name:ar":"ود النيال;ود النإل;ود النيّل","alt_name:en":"Wad an Nayyal"},"display_name":"ود النيل, سنجة, سنار, السودان","address":{"city":"ود النيل","state":"سنار","ISO3166-2-lvl4":"SD-SI","country":"السودان","country_code":"sd"},"osm_type":"node","osm_id":3313277604,"type":"city","location":[34.1123314,12.513909],"bbox":[33.9523314,12.353909,34.2723314,12.673909]}
{"name":"ود بندة","other_names":{"name:ar":"ود بندة","name:de":"Wad Banda","name:en":"Wad Banda","name:es":"Wad Banda","name:fr":"Wad Banda","alt_name":"Wad Banda;Wad Bandah","alt_name:ar":"ود بند","alt_name:en":"Wad Bandah"},"display_name":"ود بندة, En Nuhud, ولاية غرب كردفان, السودان","address":{"city":"ود بندة","county":"En Nuhud","state":"ولاية غرب كردفان","ISO3166-2-lvl4":"SD-GK","country":"السودان","country_code":"sd"},"osm_type":"node","osm_id":2373597639,"type":"city","location":[27.9432003,13.0930993],"bbox":[27.7832003,12.9330993,28.1032003,13.2530993]}
{"name":"ود مدني","other_names":{"name:ar":"ود مدني","name:en":"Wad Madanī","name:et":"Wad Madanī","name:eu":"Wad Madani","name:fr":"Wad Madani","name:ko":"와드마다니","name:ml":"വദ് മദനി","name:ru":"Вад-Медани","alt_name":"Medani;Wad Madani","alt_name:ar":"مدني;ود مدن","alt_name:en":"Wad Medani"},"display_name":"ود مدني, الجزيرة, السودان","address":{"city":"ود مدني","state":"الجزيرة","ISO3166-2-lvl4":"SD-GZ","country":"السودان","country_code":"sd"},"population":369733,"osm_type":"node","osm_id":300069794,"type":"city","location":[33.5309561,14.3965781],"bbox":[33.3709561,14.2365781,33.6909561,14.5565781]}
