{"name":"Dili","other_names":{"name:ca":"Dili","name:en":"Dili","name:fr":"Dili","name:hu":"Dili","name:pl":"Dili","name:pt":"Díli","name:sk":"Dili","name:sv":"Dili","name:uk":"Ділі"},"display_name":"Dili, Vera Cruz, Dili, Timor-Leste","address":{"city":"Dili","state_district":"Vera Cruz","state":"Dili","ISO3166-2-lvl4":"TL-DI","country":"Timor-Leste","country_code":"tl"},"population":222323,"osm_type":"node","osm_id":262310617,"type":"city","location":[125.5784093,-8.5536809],"bbox":[125.4184093,-8.7136809,125.7384093,-8.3936809]}
{"name":"Gleno","other_names":{"name:ja":"グレノ","name:lt":"Glenas"},"display_name":"Gleno, Ermera, Timor-Leste","address":{"city":"Gleno","state_district":"Ermera","state":"Ermera","ISO3166-2-lvl4":"TL-ER","country":"Timor-Leste","country_code":"tl"},"population":8133,"osm_type":"node","osm_id":910495998,"type":"city","location":[125.4358593,-8.721148],"bbox":[125.2758593,-8.881148,125.5958593,-8.561148]}
{"name":"Likisá","other_names":{"name:ar":"ليكويسا","name:de":"Vila de Liquiçá","name:en":"Liquiçá","name:fa":"لیکوئیسا","name:ja":"リキシャ","name:ko":"리키사","name:ru":"Ликиса","name:uk":"Ликіса","name:ur":"لیکیسا","name:zh":"利逵薩"},"display_name":"Likisá, Bazartete, Likisá, Timor-Leste","address":{"city":"Likisá","state_district":"Bazartete","state":"Likisá","ISO3166-2-lvl4":"TL-LI","country":"Timor-Leste","country_code":"tl"},"osm_type":"node","osm_id":699640686,"type":"city","location":[125.34209,-8.58767],"bbox":[125.18209,-8.74767,125.50209,-8.42767]}
{"name":"Pante-Macassar","other_names":{"name:en":"Pante-Macassar","name:he":"פנטה מקאסאר","name:ja":"パンテ・マカッサル","name:ko":"판트마카사르","name:lt":"Pante Makasaras","name:pt":"Pante-Macassar","name:ru":"Панте-Макассар","name:ur":"پانتے ماکاسار","name:zh":"潘特馬卡薩"},"display_name":"Pante-Macassar, Oé-Cussi-Ambeno, Pante Macassar, Oe-Cusse Ambeno, Timor-Leste","address":{"city":"Pante-Macassar","county":"Oé-Cussi-Ambeno","state_district":"Pante Macassar","state":"Oe-Cusse Ambeno","ISO3166-2-lvl4":"TL-OE","country":"Timor-Leste","country_code":"tl"},"population":4730,"osm_type":"node","osm_id":1785382787,"type":"city","location":[124.3702378,-9.2017507],"bbox":[124.2102378,-9.3617507,124.5302378,-9.0417507]}
