{"name":"!Kheis Local Municipality","other_names":{"ref":"NC084"},"display_name":"!Kheis Local Municipality, ZF Mgcawu District Municipality, Northern Cape, 8850, South Africa","address":{"city":"!Kheis Local Municipality","county":"ZF Mgcawu District Municipality","state":"Northern Cape","ISO3166-2-lvl4":"ZA-NC","postcode":"8850","country":"South Africa","country_code":"za"},"osm_type":"relation","osm_id":82051,"type":"administrative","location":[21.582574416376307,-29.213234999999997],"bbox":[21.12577,-30.04441,22.217939,-28.38274],"inferred_type":"city"}
{"name":"Abaqulusi Local Municipality","other_names":{"ref":"KZN263"},"display_name":"Abaqulusi Local Municipality, Zululand District Municipality, KwaZulu-Natal, 3100, South Africa","address":{"city":"Abaqulusi Local Municipality","county":"Zululand District Municipality","state":"KwaZulu-Natal","ISO3166-2-lvl4":"ZA-KZN","postcode":"3100","country":"South Africa","country_code":"za"},"osm_type":"relation","osm_id":611108,"type":"administrative","location":[31.05536675721047,-27.83162],"bbox":[30.5788999,-28.1717699,31.5707799,-27.4914299],"inferred_type":"city"}
{"name":"Aganang Local Municipality","other_names":{"ref":"LIM352"},"display_name":"Aganang Local Municipality, Capricorn District Municipality, Limpopo, South Africa","address":{"city":"Aganang Local Municipality","county":"Capricorn District Municipality","state":"Limpopo","ISO3166-2-lvl4":"ZA-LP","country":"South Africa","country_code":"za"},"osm_type":"relation","osm_id":114783,"type":"administrative","location":[29.044555590197838,-23.6854635],"bbox":[28.8432,-23.99646,29.36366,-23.3706493],"inferred_type":"city"}
{"name":"Albert Luthuli Local Municipality","other_names":{"ref":"MP301","name:de":"Albert Luthuli","name:en":"Albert Luthuli Local Municipality","name:it":"Municipalità locale di Albert Luthuli","name:nl":"Albert Luthuli","name:pl":"Albert Luthuli","name:ru":"Альберт Лутхули"},"display_name":"Albert Luthuli Local Municipality, Gert Sibande, Mpumalanga, South Africa","address":{"city":"Albert Luthuli Local Municipality","county":"Gert Sibande","state":"Mpumalanga","ISO3166-2-lvl4":"ZA-MP","country":"South Africa","country_code":"za"},"osm_type":"relation","osm_id":611632,"type":"administrative","location":[30.42901304261865,-26.10851055],"bbox":[29.800581,-26.50406,31.12657,-25.7118],"inferred_type":"city"}
{"name":"Amahlathi Local Municipality","other_names":{"ref":"EC124","name:de":"Amahlathi","name:en":"Amahlathi Local Municipality","name:es":"Amahlathi","name:fr":"Amahlathi","name:it":"Municipalità locale di Amahlathi","name:nl":"Amahlathi","name:pl":"Amahlathi"},"display_name":"Amahlathi Local Municipality, Amathole District Municipality, Eastern Cape, 5670, South Africa","address":{"city":"Amahlathi Local Municipality","county":"Amathole District Municipality","state":"Eastern Cape","ISO3166-2-lvl4":"ZA-EC","postcode":"5670","country":"South Africa","country_code":"za"},"osm_type":"relation","osm_id":88187,"type":"administrative","location":[27.354045097446615,-32.46797],"bbox":[26.77578,-32.84199,27.92641,-32.09437],"inferred_type":"city"}
{"name":"Ba-Phalaborwa Local Municipality","other_names":{"ref":"LIM334"},"display_name":"Ba-Phalaborwa Local Municipality, Mopani District Municipality, Limpopo, South Africa","address":{"city":"Ba-Phalaborwa Local Municipality","county":"Mopani District Municipality","state":"Limpopo","ISO3166-2-lvl4":"ZA-LP","country":"South Africa","country_code":"za"},"osm_type":"relation","osm_id":611428,"type":"administrative","location":[31.330515721034644,-23.680574999999997],"bbox":[30.48012,-24.145978,31.8843926,-23.2151794],"inferred_type":"city"}
{"name":"Baviaans Local Municipality","other_names":{"ref":"EC107"},"display_name":"Baviaans Local Municipality, Sarah Baartman District Municipality, Eastern Cape, South Africa","address":{"city":"Baviaans Local Municipality","county":"Sarah Baartman District Municipality","state":"Eastern Cape","ISO3166-2-lvl4":"ZA-EC","country":"South Africa","country_code":"za"},"osm_type":"relation","osm_id":88163,"type":"administrative","location":[23.790349482123574,-33.256735000000006],"bbox":[22.73574,-33.7784549,24.84303,-32.727586],"inferred_type":"city"}
{"name":"Beaufort West Local Municipality","other_names":{"ref":"WC053"},"display_name":"Beaufort West Local Municipality, Central Karoo District Municipality, Western Cape, South Africa","address":{"city":"Beaufort West Local Municipality","county":"Central Karoo District Municipality","state":"Western Cape","ISO3166-2-lvl4":"ZA-WC","country":"South Africa","country_code":"za"},"osm_type":"relation","osm_id":79810,"type":"administrative","location":[22.60888942544414,-32.307385],"bbox":[21.18755,-33.03774,24.22241,-31.58346],"inferred_type":"city"}
{"name":"Bela Bela Local Municipality","other_names":{"ref":"LIM366"},"display_name":"Bela Bela Local Municipality, Waterberg District Municipality, Limpopo, South Africa","address":{"city":"Bela Bela Local Municipality","county":"Waterberg District Municipality","state":"Limpopo","ISO3166-2-lvl4":"ZA-LP","country":"South Africa","country_code":"za"},"osm_type":"relation","osm_id":611541,"type":"administrative","location":[28.349226034706547,-24.950129],"bbox":[27.82674,-25.32243,28.71378,-24.58268],"inferred_type":"city"}
{"name":"Bergrivier Local Municipality","other_names":{"ref":"WC013"},"display_name":"Bergrivier Local Municipality, West Coast District Municipality, Western Cape, South Africa","address":{"city":"Bergrivier Local Municipality","county":"West Coast District Municipality","state":"Western Cape","ISO3166-2-lvl4":"ZA-WC","country":"South Africa","country_code":"za"},"osm_type":"relation","osm_id":79631,"type":"administrative","location":[18.584996791967356,-32.81110715],"bbox":[18.10101,-33.19668,19.18615,-32.42551],"inferred_type":"city"}
{"name":"Bloemfontein","other_names":{"name:ar":"بلومفونتين","name:ca":"Bloemfontein","name:de":"Bloemfontein","name:en":"Bloemfontein","name:es":"Bloemfontein","name:fr":"Bloemfontein","name:hu":"Bloemfontein","name:is":"Bloemfontein","name:it":"Bloemfontein","name:ko":"블룸폰테인","name:ml":"ബ്ലൂംഫോണ്ടെയ്ൻ","name:mr":"ब्लोईमफोंटेन","name:nl":"Bloemfontein","name:no":"Bloemfontein","name:pl":"Bloemfontein","name:pt":"Bloemfontein","name:ru":"Блумфонтейн","name:sv":"Bloemfontein","name:ta":"புளொம்பொண்டீன்","name:tr":"Bloemfontein","name:zh":"布隆方丹"},"display_name":"Bloemfontein, Mangaung Metropolitan Municipality, Free State, 9310, South Africa","address":{"city":"Bloemfontein","county":"Mangaung Metropolitan Municipality","state":"Free State","ISO3166-2-lvl4":"ZA-FS","postcode":"9310","country":"South Africa","country_code":"za"},"population":370000,"osm_type":"node","osm_id":26938845,"type":"city","location":[26.215496,-29.116395],"bbox":[26.055496,-29.276395,26.375496,-28.956395]}
{"name":"Blue Crane Route Local Municipality","other_names":{"ref":"EC102"},"display_name":"Blue Crane Route Local Municipality, Sarah Baartman District Municipality, Eastern Cape, South Africa","address":{"city":"Blue Crane Route Local Municipality","county":"Sarah Baartman District Municipality","state":"Eastern Cape","ISO3166-2-lvl4":"ZA-EC","country":"South Africa","country_code":"za"},"osm_type":"relation","osm_id":88160,"type":"administrative","location":[25.48800829680789,-32.77422],"bbox":[24.41368,-33.31533,26.28508,-32.24118],"inferred_type":"city"}
{"name":"Botshabelo","display_name":"Botshabelo, Mangaung Metropolitan Municipality, Free State, 9781, South Africa","address":{"city":"Botshabelo","county":"Mangaung Metropolitan Municipality","state":"Free State","ISO3166-2-lvl4":"ZA-FS","postcode":"9781","country":"South Africa","country_code":"za"},"population":181712,"osm_type":"node","osm_id":30670036,"type":"city","location":[26.733255,-29.232412],"bbox":[26.573255,-29.392412,26.893255,-29.072412]}
{"name":"Breede Valley Local Municipality","other_names":{"ref":"WC025"},"display_name":"Breede Valley Local Municipality, Cape Winelands District Municipality, Western Cape, South Africa","address":{"city":"Breede Valley Local Municipality","county":"Cape Winelands District Municipality","state":"Western Cape","ISO3166-2-lvl4":"ZA-WC","country":"South Africa","country_code":"za"},"osm_type":"relation","osm_id":79656,"type":"administrative","location":[19.510920055768494,-33.5844533],"bbox":[19.10196,-33.99988,20.42755,-33.17011],"inferred_type":"city"}
{"name":"Camdeboo Local Municipality","other_names":{"ref":"EC101"},"display_name":"Camdeboo Local Municipality, Sarah Baartman District Municipality, Eastern Cape, South Africa","address":{"city":"Camdeboo Local Municipality","county":"Sarah Baartman District Municipality","state":"Eastern Cape","ISO3166-2-lvl4":"ZA-EC","country":"South Africa","country_code":"za"},"osm_type":"relation","osm_id":88159,"type":"administrative","location":[24.047622884716336,-32.37606],"bbox":[23.22161,-33.06338,24.96712,-31.68851],"inferred_type":"city"}
{"name":"Cape Agulhas Local Municipality","other_names":{"ref":"WC033"},"display_name":"Cape Agulhas Local Municipality, Overberg District Municipality, Western Cape, South Africa","address":{"city":"Cape Agulhas Local Municipality","county":"Overberg District Municipality","state":"Western Cape","ISO3166-2-lvl4":"ZA-WC","country":"South Africa","country_code":"za"},"osm_type":"relation","osm_id":79678,"type":"administrative","location":[20.06207190999537,-34.51867],"bbox":[19.61721,-34.8335451,20.87139,-34.2036],"inferred_type":"city"}
{"name":"Cape Town","other_names":{"name:af":"Kaapstad","name:am":"ኬፕ ታውን","name:an":"Ciudat d'o Cabo","name:ar":"كيب تون","name:az":"Keyptaun","name:ba":"Кейптаун","name:be":"Кейптаўн","name:bg":"Кейптаўн","name:bn":"কেপ টাউন","name:br":"Ar C'hab","name:bs":"Cape Town","name:ca":"Ciutat del Cap","name:ce":"Кейптаун","name:co":"Cità di u Capu","name:cs":"Kapské město","name:cy":"Tref y Penrhyn","name:da":"Kapstaden","name:de":"Kapstadt","name:el":"Κέιπ Τάουν","name:en":"Cape Town","name:eo":"Kaburbo","name:es":"Ciudad del Cabo","name:et":"Kaplinn","name:eu":"Lurmutur Hiria","name:fa":"کیپ تاون","name:fi":"Kapkaupunki","name:fo":"Cape Town","name:fr":"Le Cap","name:fy":"Kaapstêd","name:ga":"Cape Town","name:gd":"Baile a' Chip","name:gl":"Cidade do Cabo","name:gn":"Yvy akua Táva","name:gu":"કેપ ટાઉન","name:ha":"Cape Town","name:he":"קייפטאון","name:hi":"केपटाउन","name:hr":"Kaapstad","name:ht":"Li Kap","name:hu":"Fokváros","name:hy":"Քեյփթաուն","name:ia":"Citate del Capo","name:id":"Cape Town","name:io":"Kab-urbo","name:is":"Höfðaborg","name:it":"Città del Capo","name:ja":"ケープ タウン","name:jv":"Cape Town","name:ka":"კეიპტაუნი","name:kk":"Кейптаун","name:kn":"ಕೇಪ್ಟೌನ್","name:ko":"케이프타운","name:kw":"Cape Town","name:ky":"Кейптаун","name:la":"Civitas Capitis","name:lb":"Kapstad","name:lt":"Keiptaunas","name:lv":"Keiptauna","name:mg":"Cape Town","name:mi":"Kēpa Tāone","name:mk":"Кејптаун","name:ml":"കേപ് ടൗൺ","name:mn":"Кейптаун","name:mr":"केप टाउन","name:ms":"Cape Town","name:my":"ကိပ်တောင်းမြို့","name:ne":"केप टाउन","name:nl":"Kaapstad","name:no":"Cape Town","name:nv":"Taahííʼą́ągi Kin Haalʼá","name:ny":"Cape Town","name:oc":"Lo Cap","name:or":"କେପ ଟାଉନ","name:os":"Кейптаун","name:pa":"ਕੇਪਟਾਊਨ","name:pl":"Kapsztad","name:ps":"کیپ ټاون","name:pt":"Cidade do Cabo","name:ro":"Cape Town","name:ru":"Кейптаун","name:sc":"Tzitade de su Cabu","name:se":"Cape Town","name:sh":"Cape Town","name:sk":"Kapské mesto","name:sl":"Cape Town","name:sn":"Cape Town","name:so":"Kab town","name:sq":"Kapshtad","name:sr":"Кејптаун","name:sv":"Kapstaden","name:sw":"Cape Town","name:ta":"கேப் டவுன்","name:tg":"Кейптаун","name:th":"เคปทาวน์","name:tk":"Keýptaun","name:tl":"Cape Town","name:tn":"Cape Town","name:tr":"Cape Town","name:tt":"Keyptawn","name:ug":"Kapétown","name:uk":"Кейптаун","name:ur":"کیپ ٹاؤن","name:uz":"Keyptaun","name:ve":"Cape Town","name:vi":"Cape Town","name:vo":"Cape Town","name:xh":"iKapa","name:yi":"קאפשטאט","name:yo":"Cape Town","name:zh":"開普敦/开普敦","name:zu":"IKapa","name:ang":"Næssburg","name:ast":"Ciudá del Cabu","name:avk":"Kaapstad","name:ceb":"Cape Town","name:ckb":"کەیپ تاون","name:ext":"Ciá del Cabu","name:frp":"Lo Cap","name:frr":"Kapsteed","name:hak":"Cape Town","name:hif":"Cape Town","name:hsb":"Kapstadt","name:ilo":"Cape Town","name:inh":"Кейптаун","name:kaa":"Keyptaun","name:kab":"Cape Town","name:lad":"Sivdad del Kabo","name:lij":"Çittæ do Cavo","name:lmo":"Cità del Cap","name:myv":"Кейптаун ош","name:nso":"Cape Town","name:pms":"Sità dël Cap","name:rue":"Капске Місто","name:sah":"Кейптаун","name:sat":"ᱠᱮᱯ ᱴᱟᱣᱩᱱ","name:scn":"Citati dû Capu","name:sco":"Cape Toun","name:smn":"Kapkaavpug","name:szl":"Kapsztad","name:vec":"Sità del Cao","name:vep":"Keiptaun","name:war":"Cape Town","name:wuu":"开普敦","name:xmf":"კეიპტაუნი","name:zea":"Kaepstad","alt_name:ar":"كيب تاون","name:zh-Hans":"开普敦","name:zh-Hant":"開普敦"},"display_name":"Cape Town, City of Cape Town, Western Cape, 8001, South Africa","address":{"city":"Cape Town","county":"City of Cape Town","state":"Western Cape","ISO3166-2-lvl4":"ZA-WC","postcode":"8001","country":"South Africa","country_code":"za"},"population":3740026,"osm_type":"node","osm_id":32675806,"type":"city","location":[18.4172197,-33.9288301],"bbox":[18.2572197,-34.0888301,18.5772197,-33.7688301],"border":{"name":"City of Cape Town","other_names":{"ref":"CPT","name:af":"Stad Kaapstad","name:de":"Kapstadt","name:lt":"Keiptauno miestas","name:nl":"Stad Kaapstad"},"display_name":"City of Cape Town, Western Cape, South Africa","address":{"county":"City of Cape Town","state":"Western Cape","ISO3166-2-lvl4":"ZA-WC","country":"South Africa","country_code":"za"},"osm_type":"relation","osm_id":79604,"type":"administrative","location":[18.548646481249435,-33.91479835],"bbox":[18.30722,-34.35834,19.0053382,-33.471276]}}
{"name":"Cederberg Local Municipality","other_names":{"ref":"WC012"},"display_name":"Cederberg Local Municipality, West Coast District Municipality, Western Cape, South Africa","address":{"city":"Cederberg Local Municipality","county":"West Coast District Municipality","state":"Western Cape","ISO3166-2-lvl4":"ZA-WC","country":"South Africa","country_code":"za"},"osm_type":"relation","osm_id":79630,"type":"administrative","location":[18.876110931257344,-32.361265],"bbox":[18.290267,-32.87912,19.5159118,-31.84382],"inferred_type":"city"}
{"name":"Dannhauser Local Municipality","other_names":{"ref":"KZN254"},"display_name":"Dannhauser Local Municipality, Amajuba District Municipality, KwaZulu-Natal, South Africa","address":{"city":"Dannhauser Local Municipality","county":"Amajuba District Municipality","state":"KwaZulu-Natal","ISO3166-2-lvl4":"ZA-KZN","country":"South Africa","country_code":"za"},"osm_type":"relation","osm_id":611070,"type":"administrative","location":[30.081775110089374,-27.98914],"bbox":[29.616862,-28.1897799,30.3161199,-27.7883599],"inferred_type":"city"}
{"name":"Dihlabeng Local Municipality","other_names":{"ref":"FS192"},"display_name":"Dihlabeng Local Municipality, Thabo Mofutsanyana District Municipality, Free State, South Africa","address":{"city":"Dihlabeng Local Municipality","county":"Thabo Mofutsanyana District Municipality","state":"Free State","ISO3166-2-lvl4":"ZA-FS","country":"South Africa","country_code":"za"},"osm_type":"relation","osm_id":593832,"type":"administrative","location":[28.24895110441767,-28.37078],"bbox":[27.78866,-28.7672811,28.80475,-27.9761],"inferred_type":"city"}
{"name":"Dikgatlong Local Municipality","other_names":{"ref":"NC092","name:af":"Dikgatlong Plaaslike Munisipaliteit","name:de":"Dikgatlong","name:en":"Dikgatlong Local Municipality","name:it":"Municipalità locale di Dikgatlong","name:nl":"Dikgatlong","name:pl":"Dikgatlong","name:zu":"Dikgatlong Local Municipality","name:ceb":"Dikgatlong","name:nov":"Dikgatlong Komunie, Sud Afrika","name:nso":"Mmušôgaê wa Dikgatlong"},"display_name":"Dikgatlong Local Municipality, Frances Baard District Municipality, Northern Cape, South Africa","address":{"city":"Dikgatlong Local Municipality","county":"Frances Baard District Municipality","state":"Northern Cape","ISO3166-2-lvl4":"ZA-NC","country":"South Africa","country_code":"za"},"osm_type":"relation","osm_id":86696,"type":"administrative","location":[24.254820628415303,-28.1964],"bbox":[23.58093,-28.7137,24.73646,-27.68118],"inferred_type":"city"}
{"name":"Dipaleseng Local Municipality","other_names":{"ref":"MP306","name:de":"Dipaleseng","name:en":"Dipaleseng Local Municipality","name:it":"Municipalità locale di Dipaleseng","name:nl":"Dipaleseng","name:pl":"Dipaleseng","name:ru":"Дипалесенг"},"display_name":"Dipaleseng Local Municipality, Gert Sibande, Mpumalanga, 2415, South Africa","address":{"city":"Dipaleseng Local Municipality","county":"Gert Sibande","state":"Mpumalanga","ISO3166-2-lvl4":"ZA-MP","postcode":"2415","country":"South Africa","country_code":"za"},"osm_type":"relation","osm_id":611628,"type":"administrative","location":[28.625633367346936,-26.78351],"bbox":[28.243465,-27.06696,28.98796,-26.50089],"inferred_type":"city"}
{"name":"Ditsobotla Local Municipality","other_names":{"ref":"NW384"},"display_name":"Ditsobotla Local Municipality, Ngaka Modiri Molema District Municipality, North West, South Africa","address":{"city":"Ditsobotla Local Municipality","county":"Ngaka Modiri Molema District Municipality","state":"North West","ISO3166-2-lvl4":"ZA-NW","country":"South Africa","country_code":"za"},"osm_type":"relation","osm_id":611665,"type":"administrative","location":[26.19215965517241,-26.113815000000002],"bbox":[25.71293,-26.58782,26.80708,-25.64413],"inferred_type":"city"}
{"name":"Dr JS Moroka Local Municipality","other_names":{"ref":"MP316"},"display_name":"Dr JS Moroka Local Municipality, Nkangala, Mpumalanga, South Africa","address":{"city":"Dr JS Moroka Local Municipality","county":"Nkangala","state":"Mpumalanga","ISO3166-2-lvl4":"ZA-MP","country":"South Africa","country_code":"za"},"osm_type":"relation","osm_id":611634,"type":"administrative","location":[28.936121506726128,-25.1145068],"bbox":[28.37926,-25.32834,29.12843,-24.90153],"inferred_type":"city"}
{"name":"Drakenstein Local Municipality","other_names":{"ref":"WC023"},"display_name":"Drakenstein Local Municipality, Cape Winelands District Municipality, Western Cape, South Africa","address":{"city":"Drakenstein Local Municipality","county":"Cape Winelands District Municipality","state":"Western Cape","ISO3166-2-lvl4":"ZA-WC","country":"South Africa","country_code":"za"},"osm_type":"relation","osm_id":79654,"type":"administrative","location":[19.02349151531932,-33.503505000000004],"bbox":[18.7844275,-33.87908,19.214049,-33.12766],"inferred_type":"city"}
{"name":"Durban","other_names":{"name:af":"Durban","name:am":"ደርባን","name:ar":"ديربان","name:az":"Durban","name:ba":"Дурбан","name:be":"Дурбан","name:bg":"Дърбан","name:bn":"ডারবান","name:ce":"Дурбан","name:de":"Durban","name:el":"Ντέρμπαν","name:en":"Durban","name:eo":"Durbano","name:es":"Durban","name:fa":"دوربان","name:fr":"Durban","name:fy":"Durban","name:he":"דרבן","name:hi":"डरबन","name:hr":"Durban","name:hy":"Դուրբան","name:ja":"ダーバン","name:ka":"დურბანი","name:kk":"Дурбан","name:kn":"ಡರ್ಬನ್","name:ko":"더반","name:la":"Durbanum","name:lt":"Durbanas","name:lv":"Durbana","name:mk":"Дурбан","name:ml":"ഡർബൻ","name:mr":"डरबन","name:my":"ဒါဘန်မြို့","name:nl":"Durban","name:oc":"Durban","name:os":"Дурбан","name:pa":"ਡਰਬਨ","name:ru":"Дурбан","name:sr":"Дурбан","name:st":"Thekong","name:ta":"டர்பன்","name:te":"డర్బన్","name:th":"เดอร์บัน","name:uk":"Дурбан","name:ur":"ڈربن","name:xh":"EThekwini","name:zh":"德班","name:zu":"eThekwini","name:ckb":"دوربان","old_name":"Port Natal"},"display_name":"Durban, eThekwini Metropolitan Municipality, KwaZulu-Natal, 4057, South Africa","address":{"city":"Durban","county":"eThekwini Metropolitan Municipality","state":"KwaZulu-Natal","ISO3166-2-lvl4":"ZA-KZN","postcode":"4057","country":"South Africa","country_code":"za"},"population":3442361,"osm_type":"node","osm_id":27564996,"type":"city","location":[31.009909,-29.861825],"bbox":[30.849909,-30.021825,31.169909,-29.701825]}
{"name":"East London","other_names":{"name:af":"Oos-Londen","name:en":"East London","name:ja":"イースト・ロンドン","name:kn":"ಪೂರ್ವ ಲಂಡನ್","name:ko":"이스트런던","name:ru":"Ист-Лондон","name:xh":"eMonti"},"display_name":"East London, Buffalo City Metropolitan Municipality, Eastern Cape, 5201, South Africa","address":{"city":"East London","county":"Buffalo City Metropolitan Municipality","state":"Eastern Cape","ISO3166-2-lvl4":"ZA-EC","postcode":"5201","country":"South Africa","country_code":"za"},"population":267007,"osm_type":"node","osm_id":30211383,"type":"city","location":[27.8998573,-33.0191604],"bbox":[27.7398573,-33.1791604,28.0598573,-32.8591604]}
{"name":"eDumbe Local Municipality","other_names":{"ref":"KZN261"},"display_name":"eDumbe Local Municipality, Zululand District Municipality, KwaZulu-Natal, 3180, South Africa","address":{"city":"eDumbe Local Municipality","county":"Zululand District Municipality","state":"KwaZulu-Natal","ISO3166-2-lvl4":"ZA-KZN","postcode":"3180","country":"South Africa","country_code":"za"},"osm_type":"relation","osm_id":611106,"type":"administrative","location":[30.84254684965161,-27.4840886],"bbox":[30.4446799,-27.6848299,31.2089251,-27.28329],"inferred_type":"city"}
{"name":"Elias Motsoaledi Local Municipality","other_names":{"ref":"LIM472","name:de":"Elias Motsoaledi","name:en":"Elias Motsoaledi Local Municipality","name:nl":"Elias Motsoaledi","name:pl":"Elias Motsoaledi","name:ru":"Элиас Мотсоаледи"},"display_name":"Elias Motsoaledi Local Municipality, Sekhukhune District Municipality, Limpopo, South Africa","address":{"city":"Elias Motsoaledi Local Municipality","county":"Sekhukhune District Municipality","state":"Limpopo","ISO3166-2-lvl4":"ZA-LP","country":"South Africa","country_code":"za"},"osm_type":"relation","osm_id":611576,"type":"administrative","location":[29.525208147751606,-25.170285],"bbox":[29.03184,-25.4228375,30.0129,-24.91546],"inferred_type":"city"}
{"name":"Elundini Local Municipality","other_names":{"ref":"EC141"},"display_name":"Elundini Local Municipality, Joe Gqabi District Municipality, Eastern Cape, South Africa","address":{"city":"Elundini Local Municipality","county":"Joe Gqabi District Municipality","state":"Eastern Cape","ISO3166-2-lvl4":"ZA-EC","country":"South Africa","country_code":"za"},"osm_type":"relation","osm_id":88481,"type":"administrative","location":[28.34363648461035,-30.926592],"bbox":[27.931252,-31.48064,28.69813,-30.37256],"inferred_type":"city"}
{"name":"eMadlangeni Local Municipality","other_names":{"ref":"KZN253","name:de":"eMadlangeni","name:en":"eMadlangeni Local Municipality","name:it":"Municipalità locale di Emadlangeni","name:nl":"eMadlangeni","name:pl":"eMadlangeni","old_name":"Utrecht Local Municipality"},"display_name":"eMadlangeni Local Municipality, Amajuba District Municipality, KwaZulu-Natal, South Africa","address":{"city":"eMadlangeni Local Municipality","county":"Amajuba District Municipality","state":"KwaZulu-Natal","ISO3166-2-lvl4":"ZA-KZN","country":"South Africa","country_code":"za"},"osm_type":"relation","osm_id":611071,"type":"administrative","location":[30.305086371566276,-27.638194900000002],"bbox":[29.8978899,-28.0089501,30.6999399,-27.26743],"inferred_type":"city"}
{"name":"Emakhazeni Local Municipality","other_names":{"ref":"MP314","old_name":"Highlands Local Municipality"},"display_name":"Emakhazeni Local Municipality, Nkangala, Mpumalanga, South Africa","address":{"city":"Emakhazeni Local Municipality","county":"Nkangala","state":"Mpumalanga","ISO3166-2-lvl4":"ZA-MP","country":"South Africa","country_code":"za"},"osm_type":"relation","osm_id":611626,"type":"administrative","location":[30.13107046879174,-25.5693925],"bbox":[29.4973486,-25.92638,30.66562,-25.21232],"inferred_type":"city"}
{"name":"Emalahleni Local Municipality","other_names":{"ref":"EC136"},"display_name":"Emalahleni Local Municipality, Chris Hani District Municipality, Eastern Cape, South Africa","address":{"city":"Emalahleni Local Municipality","county":"Chris Hani District Municipality","state":"Eastern Cape","ISO3166-2-lvl4":"ZA-EC","country":"South Africa","country_code":"za"},"osm_type":"relation","osm_id":88474,"type":"administrative","location":[27.136564089595375,-31.58633],"bbox":[26.76965,-31.96217,27.62902,-31.20909],"inferred_type":"city"}
{"name":"Emalahleni Local Municipality","other_names":{"ref":"MP312"},"display_name":"Emalahleni Local Municipality, Nkangala, Mpumalanga, South Africa","address":{"city":"Emalahleni Local Municipality","county":"Nkangala","state":"Mpumalanga","ISO3166-2-lvl4":"ZA-MP","country":"South Africa","country_code":"za"},"osm_type":"relation","osm_id":611629,"type":"administrative","location":[29.160674714230915,-26.0183],"bbox":[28.919584,-26.38429,29.40704,-25.6565],"inferred_type":"city"}
{"name":"eMalahleni","other_names":{"name:af":"Witbank","name:ko":"윗뱅크","name:ml":"എമലഹ്ലെനി","name:ru":"Эмалахлени","alt_name":"Witbank","old_name":"Witbank"},"display_name":"eMalahleni, Emalahleni Local Municipality, Nkangala, Mpumalanga, 1038, South Africa","address":{"city":"eMalahleni","county":"Nkangala","state":"Mpumalanga","ISO3166-2-lvl4":"ZA-MP","postcode":"1038","country":"South Africa","country_code":"za"},"population":108673,"osm_type":"node","osm_id":30324159,"type":"city","location":[29.2099962,-25.8762409],"bbox":[29.0499962,-26.0362409,29.3699962,-25.7162409]}
{"name":"Emfuleni Local Municipality","other_names":{"ref":"GT421"},"display_name":"Emfuleni Local Municipality, Sedibeng District Municipality, Gauteng, South Africa","address":{"city":"Emfuleni Local Municipality","county":"Sedibeng District Municipality","state":"Gauteng","ISO3166-2-lvl4":"ZA-GP","country":"South Africa","country_code":"za"},"osm_type":"relation","osm_id":599257,"type":"administrative","location":[27.824607496874158,-26.609125],"bbox":[27.56909,-26.79929,28.02492,-26.41898],"inferred_type":"city"}
{"name":"Emnambithi/Ladysmith Local Municipality","other_names":{"ref":"KZN232"},"display_name":"Emnambithi/Ladysmith Local Municipality, Uthukela District Municipality, KwaZulu-Natal, South Africa","address":{"city":"Emnambithi/Ladysmith Local Municipality","county":"Uthukela District Municipality","state":"KwaZulu-Natal","ISO3166-2-lvl4":"ZA-KZN","country":"South Africa","country_code":"za"},"osm_type":"relation","osm_id":610998,"type":"administrative","location":[29.77237971267258,-28.422395],"bbox":[29.37556,-28.7705999,30.0785899,-28.0744889],"inferred_type":"city"}
{"name":"Emthanjeni Local Municipality","other_names":{"ref":"NC073"},"display_name":"Emthanjeni Local Municipality, Pixley ka Seme District Municipality, Northern Cape, South Africa","address":{"city":"Emthanjeni Local Municipality","county":"Pixley ka Seme District Municipality","state":"Northern Cape","ISO3166-2-lvl4":"ZA-NC","country":"South Africa","country_code":"za"},"osm_type":"relation","osm_id":82030,"type":"administrative","location":[23.761903426733834,-30.69181],"bbox":[22.95919,-31.47864,24.84727,-29.90196],"inferred_type":"city"}
{"name":"Endumeni Local Municipality","other_names":{"ref":"KZN241"},"display_name":"Endumeni Local Municipality, Umzinyathi District Municipality, KwaZulu-Natal, South Africa","address":{"city":"Endumeni Local Municipality","county":"Umzinyathi District Municipality","state":"KwaZulu-Natal","ISO3166-2-lvl4":"ZA-KZN","country":"South Africa","country_code":"za"},"osm_type":"relation","osm_id":611025,"type":"administrative","location":[30.26047576343576,-28.185125],"bbox":[29.9767939,-28.4396629,30.5797899,-27.9305599],"inferred_type":"city"}
{"name":"Engcobo Local Municipality","other_names":{"ref":"EC137"},"display_name":"Engcobo Local Municipality, Chris Hani District Municipality, Eastern Cape, 5050, South Africa","address":{"city":"Engcobo Local Municipality","county":"Chris Hani District Municipality","state":"Eastern Cape","ISO3166-2-lvl4":"ZA-EC","postcode":"5050","country":"South Africa","country_code":"za"},"osm_type":"relation","osm_id":88475,"type":"administrative","location":[28.06409302631579,-31.70686],"bbox":[27.72563,-32.0431813,28.38245,-31.37044],"inferred_type":"city"}
{"name":"Ephraim Mogale Local Municipality","other_names":{"ref":"LIM471","old_name":"Greater Marble Hall Local Municipality"},"display_name":"Ephraim Mogale Local Municipality, Sekhukhune District Municipality, Limpopo, 0450, South Africa","address":{"city":"Ephraim Mogale Local Municipality","county":"Sekhukhune District Municipality","state":"Limpopo","ISO3166-2-lvl4":"ZA-LP","postcode":"0450","country":"South Africa","country_code":"za"},"osm_type":"relation","osm_id":611578,"type":"administrative","location":[29.458482887699297,-24.856745],"bbox":[28.89162,-25.1135001,29.7734399,-24.59873],"inferred_type":"city"}
{"name":"Ezinqoleni Local Municipality","other_names":{"ref":"KZN215"},"display_name":"Ezinqoleni Local Municipality, Ugu District Municipality, KwaZulu-Natal, South Africa","address":{"city":"Ezinqoleni Local Municipality","county":"Ugu District Municipality","state":"KwaZulu-Natal","ISO3166-2-lvl4":"ZA-KZN","country":"South Africa","country_code":"za"},"osm_type":"relation","osm_id":610724,"type":"administrative","location":[30.14941811678564,-30.7586599],"bbox":[29.9580735,-30.9066099,30.3990599,-30.6106301],"inferred_type":"city"}
{"name":"Fetakgomo Local Municipality","other_names":{"ref":"LIM474"},"display_name":"Fetakgomo Local Municipality, Sekhukhune District Municipality, Limpopo, South Africa","address":{"city":"Fetakgomo Local Municipality","county":"Sekhukhune District Municipality","state":"Limpopo","ISO3166-2-lvl4":"ZA-LP","country":"South Africa","country_code":"za"},"osm_type":"relation","osm_id":611574,"type":"administrative","location":[29.85502259394805,-24.415309999999998],"bbox":[29.69656,-24.62604,30.07649,-24.20403],"inferred_type":"city"}
{"name":"Ga-Segonyana Local Municipality","other_names":{"ref":"NC452"},"display_name":"Ga-Segonyana Local Municipality, John Taolo Gaetsewe District Municipality, Northern Cape, South Africa","address":{"city":"Ga-Segonyana Local Municipality","county":"John Taolo Gaetsewe District Municipality","state":"Northern Cape","ISO3166-2-lvl4":"ZA-NC","country":"South Africa","country_code":"za"},"osm_type":"relation","osm_id":86703,"type":"administrative","location":[23.513156004049755,-27.549262499999998],"bbox":[23.08548,-27.96282,24.11862,-27.135831],"inferred_type":"city"}
{"name":"Gamagara Local Municipality","other_names":{"ref":"NC453"},"display_name":"Gamagara Local Municipality, John Taolo Gaetsewe District Municipality, Northern Cape, 8446, South Africa","address":{"city":"Gamagara Local Municipality","county":"John Taolo Gaetsewe District Municipality","state":"Northern Cape","ISO3166-2-lvl4":"ZA-NC","postcode":"8446","country":"South Africa","country_code":"za"},"osm_type":"relation","osm_id":86704,"type":"administrative","location":[22.97884311707906,-27.67219],"bbox":[22.64242,-27.98787,23.372724,-27.35191],"inferred_type":"city"}
{"name":"Gariep Local Municipality","other_names":{"ref":"EC144"},"display_name":"Gariep Local Municipality, Joe Gqabi District Municipality, Eastern Cape, South Africa","address":{"city":"Gariep Local Municipality","county":"Joe Gqabi District Municipality","state":"Eastern Cape","ISO3166-2-lvl4":"ZA-EC","country":"South Africa","country_code":"za"},"osm_type":"relation","osm_id":88484,"type":"administrative","location":[26.057627772406008,-30.984465],"bbox":[25.37782,-31.48531,26.77497,-30.48338],"inferred_type":"city"}
{"name":"George","other_names":{"name:en":"George","name:ml":"ജോർജ്ജ്","name:ru":"Джордж","name:uk":"Джордж"},"display_name":"George, Garden Route District Municipality, Western Cape, South Africa","address":{"city":"George","state":"Western Cape","ISO3166-2-lvl4":"ZA-WC","country":"South Africa","country_code":"za"},"osm_type":"node","osm_id":25928788,"type":"city","location":[22.4587148,-33.9597212],"bbox":[22.2987148,-34.1197212,22.6187148,-33.7997212],"border":{"name":"Garden Route District Municipality","other_names":{"ref":"DC4","name:en":"George","name:ml":"ജോർജ്ജ്","name:ru":"Джордж","name:uk":"Джордж","old_name:2000-2018":"Eden District Municipality","alt":"George"},"display_name":"Garden Route District Municipality, Western Cape, South Africa","address":{"city":"Garden Route District Municipality","state":"Western Cape","ISO3166-2-lvl4":"ZA-WC","country":"South Africa","country_code":"za"},"osm_type":"relation","osm_id":79797,"type":"administrative","location":[22.4587148,-33.9597212],"bbox":[20.50315,-34.43906,23.7033,-33.31496]}}
{"name":"Govan Mbeki","other_names":{"ref":"MP307","name:de":"Govan Mbeki","name:en":"Govan Mbeki Local Municipality","name:it":"Municipalità locale di Govan Mbeki","name:nl":"Govan Mbeki","name:pl":"Govan Mbeki","name:ru":"Гован Мбеки"},"display_name":"Govan Mbeki, Gert Sibande, Mpumalanga, South Africa","address":{"city":"Govan Mbeki","county":"Gert Sibande","state":"Mpumalanga","ISO3166-2-lvl4":"ZA-MP","country":"South Africa","country_code":"za"},"osm_type":"relation","osm_id":611619,"type":"administrative","location":[29.196399986696868,-26.452245],"bbox":[28.76292,-26.7376,29.62911,-26.16955],"inferred_type":"city"}
{"name":"Gqeberha","other_names":{"name:af":"Die Baai","name:ar":"بورت إليزابيث","name:de":"Gqeberha","name:en":"Gqeberha","name:es":"Gqeberha","name:fr":"Gqeberha","name:id":"Gqeberha","name:it":"Gqeberha","name:ja":"ポートエリザベス","name:ko":"포트엘리자베스","name:nl":"Gqeberha","name:pl":"Gqeberha","name:pt":"Gqeberha","name:ru":"Гцгебеха","name:sv":"Gqeberha","name:xh":"iBhayi","name:zh":"伊利沙伯港","alt_name":"Port Elizabeth","old_name":"Port Elizabeth","official_name":"Gqeberha","name:zh-Hans-CN":"伊莉莎白港"},"display_name":"Gqeberha, Nelson Mandela Bay Metropolitan Municipality, Eastern Cape, 6006, South Africa","address":{"city":"Gqeberha","county":"Nelson Mandela Bay Metropolitan Municipality","state":"Eastern Cape","ISO3166-2-lvl4":"ZA-EC","postcode":"6006","country":"South Africa","country_code":"za"},"population":1050000,"osm_type":"node","osm_id":25470100,"type":"city","location":[25.6186512,-33.9618359],"bbox":[25.4586512,-34.1218359,25.7786512,-33.8018359]}
{"name":"Great Kei Local Municipality","other_names":{"ref":"EC123","name:de":"Great Kei","name:en":"Great Kei Local Municipality","name:es":"Great Kei","name:fr":"Great Kei","name:it":"Municipalità locale di Great Kei","name:nl":"Groot Kei","name:pl":"Great Kei"},"display_name":"Great Kei Local Municipality, Amathole District Municipality, Eastern Cape, South Africa","address":{"city":"Great Kei Local Municipality","county":"Amathole District Municipality","state":"Eastern Cape","ISO3166-2-lvl4":"ZA-EC","country":"South Africa","country_code":"za"},"osm_type":"relation","osm_id":88184,"type":"administrative","location":[28.051326908774783,-32.68178285],"bbox":[27.66631,-32.90782,28.3870825,-32.45577],"inferred_type":"city"}
{"name":"Greater Giyani Local Municipality","other_names":{"ref":"LIM331"},"display_name":"Greater Giyani Local Municipality, Mopani District Municipality, Limpopo, 0826, South Africa","address":{"city":"Greater Giyani Local Municipality","county":"Mopani District Municipality","state":"Limpopo","ISO3166-2-lvl4":"ZA-LP","postcode":"0826","country":"South Africa","country_code":"za"},"osm_type":"relation","osm_id":611426,"type":"administrative","location":[30.838615786901713,-23.386344],"bbox":[30.29402,-23.7008519,31.5614232,-23.07221],"inferred_type":"city"}
{"name":"Greater Kokstad Local Municipality","other_names":{"ref":"KZN433"},"display_name":"Greater Kokstad Local Municipality, Sisonke District Municipality, KwaZulu-Natal, South Africa","address":{"city":"Greater Kokstad Local Municipality","county":"Sisonke District Municipality","state":"KwaZulu-Natal","ISO3166-2-lvl4":"ZA-KZN","country":"South Africa","country_code":"za"},"osm_type":"relation","osm_id":611316,"type":"administrative","location":[29.385971639766908,-30.28823],"bbox":[29.01474,-30.67173,29.6406399,-29.9048001],"inferred_type":"city"}
{"name":"Greater Letaba Local Municipality","other_names":{"ref":"LIM332"},"display_name":"Greater Letaba Local Municipality, Mopani District Municipality, Limpopo, South Africa","address":{"city":"Greater Letaba Local Municipality","county":"Mopani District Municipality","state":"Limpopo","ISO3166-2-lvl4":"ZA-LP","country":"South Africa","country_code":"za"},"osm_type":"relation","osm_id":611423,"type":"administrative","location":[30.22760522132375,-23.53437305],"bbox":[29.94788,-23.76077,30.68891,-23.30845],"inferred_type":"city"}
{"name":"Greater Taung Local Municipality","other_names":{"ref":"NW394"},"display_name":"Greater Taung Local Municipality, Dr Ruth Segomotsi Mompati District Municipality, North West, South Africa","address":{"city":"Greater Taung Local Municipality","county":"Dr Ruth Segomotsi Mompati District Municipality","state":"North West","ISO3166-2-lvl4":"ZA-NW","country":"South Africa","country_code":"za"},"osm_type":"relation","osm_id":611658,"type":"administrative","location":[24.53200344642073,-27.549754999999998],"bbox":[23.89647,-28.09211,25.08784,-27.0119],"inferred_type":"city"}
{"name":"Greater Tubatse Local Municipality","other_names":{"ref":"LIM475"},"display_name":"Greater Tubatse Local Municipality, Sekhukhune District Municipality, Limpopo, South Africa","address":{"city":"Greater Tubatse Local Municipality","county":"Sekhukhune District Municipality","state":"Limpopo","ISO3166-2-lvl4":"ZA-LP","country":"South Africa","country_code":"za"},"osm_type":"relation","osm_id":611573,"type":"administrative","location":[30.411203261520292,-24.6764795],"bbox":[29.89595,-25.1255,30.75898,-24.23713],"inferred_type":"city"}
{"name":"Greater Tzaneen Local Municipality","other_names":{"ref":"LIM333"},"display_name":"Greater Tzaneen Local Municipality, Mopani District Municipality, Limpopo, South Africa","address":{"city":"Greater Tzaneen Local Municipality","county":"Mopani District Municipality","state":"Limpopo","ISO3166-2-lvl4":"ZA-LP","country":"South Africa","country_code":"za"},"osm_type":"relation","osm_id":611424,"type":"administrative","location":[30.214005744654045,-23.85933165],"bbox":[29.85444,-24.19551,30.68743,-23.52139],"inferred_type":"city"}
{"name":"Hantam Local Municipality","other_names":{"ref":"NC065"},"display_name":"Hantam Local Municipality, Namakwa District Municipality, Northern Cape, South Africa","address":{"city":"Hantam Local Municipality","county":"Namakwa District Municipality","state":"Northern Cape","ISO3166-2-lvl4":"ZA-NC","country":"South Africa","country_code":"za"},"osm_type":"relation","osm_id":81970,"type":"administrative","location":[19.66310544332365,-31.136155],"bbox":[18.87539,-32.67324,21.30526,-29.60377],"inferred_type":"city"}
{"name":"Hibiscus Coast Local Municipality","other_names":{"ref":"KZN216"},"display_name":"Hibiscus Coast Local Municipality, Ugu District Municipality, KwaZulu-Natal, South Africa","address":{"city":"Hibiscus Coast Local Municipality","county":"Ugu District Municipality","state":"KwaZulu-Natal","ISO3166-2-lvl4":"ZA-KZN","country":"South Africa","country_code":"za"},"osm_type":"relation","osm_id":610726,"type":"administrative","location":[30.330827532155972,-30.8101837],"bbox":[30.12002,-31.0830388,30.5846799,-30.5373899],"inferred_type":"city"}
{"name":"Hlabisa Local Municipality","other_names":{"ref":"KZN274"},"display_name":"Hlabisa Local Municipality, Umkhanyakude District Municipality, KwaZulu-Natal, 3997, South Africa","address":{"city":"Hlabisa Local Municipality","county":"Umkhanyakude District Municipality","state":"KwaZulu-Natal","ISO3166-2-lvl4":"ZA-KZN","postcode":"3997","country":"South Africa","country_code":"za"},"osm_type":"relation","osm_id":610709,"type":"administrative","location":[31.933605260778634,-28.174095],"bbox":[31.697902,-28.4334601,32.2079799,-27.9146499],"inferred_type":"city"}
{"name":"Ikwezi Local Municipality","other_names":{"ref":"EC103"},"display_name":"Ikwezi Local Municipality, Sarah Baartman District Municipality, Eastern Cape, South Africa","address":{"city":"Ikwezi Local Municipality","county":"Sarah Baartman District Municipality","state":"Eastern Cape","ISO3166-2-lvl4":"ZA-EC","country":"South Africa","country_code":"za"},"osm_type":"relation","osm_id":88161,"type":"administrative","location":[24.559736406137596,-33.038955],"bbox":[23.97422,-33.38707,25.17826,-32.69168],"inferred_type":"city"}
{"name":"Imbabazane Local Municipality","other_names":{"ref":"KZN236"},"display_name":"Imbabazane Local Municipality, Uthukela District Municipality, KwaZulu-Natal, South Africa","address":{"city":"Imbabazane Local Municipality","county":"Uthukela District Municipality","state":"KwaZulu-Natal","ISO3166-2-lvl4":"ZA-KZN","country":"South Africa","country_code":"za"},"osm_type":"relation","osm_id":611000,"type":"administrative","location":[29.64182826080532,-29.093379900000002],"bbox":[29.3439001,-29.3513401,29.8231901,-28.8353599],"inferred_type":"city"}
{"name":"Impendle Local Municipality","other_names":{"ref":"KZN224"},"display_name":"Impendle Local Municipality, uMgungundlovu District Municipality, KwaZulu-Natal, South Africa","address":{"city":"Impendle Local Municipality","county":"uMgungundlovu District Municipality","state":"KwaZulu-Natal","ISO3166-2-lvl4":"ZA-KZN","country":"South Africa","country_code":"za"},"osm_type":"relation","osm_id":610735,"type":"administrative","location":[29.67724034993407,-29.5344305],"bbox":[29.2931801,-29.7290501,30.1073299,-29.33978],"inferred_type":"city"}
{"name":"Indaka Local Municipality","other_names":{"ref":"KZN233"},"display_name":"Indaka Local Municipality, Uthukela District Municipality, KwaZulu-Natal, South Africa","address":{"city":"Indaka Local Municipality","county":"Uthukela District Municipality","state":"KwaZulu-Natal","ISO3166-2-lvl4":"ZA-KZN","country":"South Africa","country_code":"za"},"osm_type":"relation","osm_id":610999,"type":"administrative","location":[30.109836566123604,-28.5524965],"bbox":[29.9707899,-28.7646299,30.3378399,-28.3405299],"inferred_type":"city"}
{"name":"Ingquza Hill Local Municipality","other_names":{"ref":"EC153","old_name":"Qaukeni Local Municipality"},"display_name":"Ingquza Hill Local Municipality, O.R. Tambo District Municipality, Eastern Cape, South Africa","address":{"city":"Ingquza Hill Local Municipality","county":"O.R. Tambo District Municipality","state":"Eastern Cape","ISO3166-2-lvl4":"ZA-EC","country":"South Africa","country_code":"za"},"osm_type":"relation","osm_id":88491,"type":"administrative","location":[29.620992496052637,-31.2181871],"bbox":[29.19573,-31.523068,30.0481063,-30.91338],"inferred_type":"city"}
{"name":"Ingwe Local Municipality","other_names":{"ref":"KZN431"},"display_name":"Ingwe Local Municipality, Sisonke District Municipality, KwaZulu-Natal, South Africa","address":{"city":"Ingwe Local Municipality","county":"Sisonke District Municipality","state":"KwaZulu-Natal","ISO3166-2-lvl4":"ZA-KZN","country":"South Africa","country_code":"za"},"osm_type":"relation","osm_id":611317,"type":"administrative","location":[29.857962797319743,-29.8717399],"bbox":[29.4794449,-30.1176399,30.1191299,-29.6258799],"inferred_type":"city"}
{"name":"Inkwanca Local Municipality","other_names":{"ref":"EC133"},"display_name":"Inkwanca Local Municipality, Chris Hani District Municipality, Eastern Cape, South Africa","address":{"city":"Inkwanca Local Municipality","county":"Chris Hani District Municipality","state":"Eastern Cape","ISO3166-2-lvl4":"ZA-EC","country":"South Africa","country_code":"za"},"osm_type":"relation","osm_id":88471,"type":"administrative","location":[26.48145329575597,-31.516750000000002],"bbox":[26.03319,-31.84967,26.891714,-31.18367],"inferred_type":"city"}
{"name":"Intsika Yethu Local Municipality","other_names":{"ref":"EC135"},"display_name":"Intsika Yethu Local Municipality, Chris Hani District Municipality, Eastern Cape, South Africa","address":{"city":"Intsika Yethu Local Municipality","county":"Chris Hani District Municipality","state":"Eastern Cape","ISO3166-2-lvl4":"ZA-EC","country":"South Africa","country_code":"za"},"osm_type":"relation","osm_id":88473,"type":"administrative","location":[27.616761944018116,-31.9455998],"bbox":[27.112059,-32.23826,28.0168724,-31.65259],"inferred_type":"city"}
{"name":"Inxuba Yethemba Local Municipality","other_names":{"ref":"EC131"},"display_name":"Inxuba Yethemba Local Municipality, Chris Hani District Municipality, Eastern Cape, 5880, South Africa","address":{"city":"Inxuba Yethemba Local Municipality","county":"Chris Hani District Municipality","state":"Eastern Cape","ISO3166-2-lvl4":"ZA-EC","postcode":"5880","country":"South Africa","country_code":"za"},"osm_type":"relation","osm_id":88469,"type":"administrative","location":[25.271338836746366,-31.86402],"bbox":[24.50391,-32.53792,26.20689,-31.19041],"inferred_type":"city"}
{"name":"Joe Morolong Local Municipality","other_names":{"ref":"NC451","old_name":"Moshaweng Local Municipality"},"display_name":"Joe Morolong Local Municipality, John Taolo Gaetsewe District Municipality, Northern Cape, South Africa","address":{"city":"Joe Morolong Local Municipality","county":"John Taolo Gaetsewe District Municipality","state":"Northern Cape","ISO3166-2-lvl4":"ZA-NC","country":"South Africa","country_code":"za"},"osm_type":"relation","osm_id":86702,"type":"administrative","location":[22.671897269772117,-26.76791565],"bbox":[21.7690976,-27.55324,24.03745,-25.98256],"inferred_type":"city"}
{"name":"Johannesburg","other_names":{"name:am":"ጆሃንስበርግ","name:an":"Johannesburgo","name:ar":"جوهانسبرغ","name:az":"Yohannesburq","name:ba":"Йоханнесбург","name:be":"Яганэсбург","name:bg":"Йоханесбург","name:bn":"জোহানেসবার্গ","name:br":"Johannesburg","name:bs":"Johannesburg","name:ca":"Johannesburg","name:ce":"Йоханнесбург","name:cs":"Johannesburg","name:cv":"Йоханнесбург","name:cy":"Johannesburg","name:da":"Johannesburg","name:de":"Johannesburg","name:el":"Γιοχάνεσμπουργκ","name:en":"Johannesburg","name:eo":"Johanesburgo","name:es":"Johannesburgo","name:et":"Johannesburg","name:eu":"Johannesburg","name:fa":"ژوهانسبورگ","name:fi":"Johannesburg","name:fo":"Johannesburg","name:fr":"Johannesbourg","name:fy":"Jehannesburch","name:ga":"Johannesburg","name:gd":"Johannesburg","name:gl":"Xohanesburgo","name:gn":"Johannesburgo","name:ha":"Johannesburg","name:he":"יוהנסבורג","name:hi":"जोहान्सबर्ग","name:hr":"Johannesburg","name:hu":"Johannesburg","name:hy":"Յոհաննեսբուրգ","name:ia":"Johannesburg","name:id":"Johannesburg","name:ie":"Johannesburg","name:io":"Johannesburg","name:is":"Jóhannesarborg","name:it":"Johannesburg","name:ja":"ヨハネスブルグ","name:jv":"Johannesburg","name:ka":"იოჰანესბურგი","name:kk":"Йоханнесбург","name:kn":"ಜೊಹಣೆಸ್ಬೆರ್ಗ್","name:ko":"요하네스버그","name:ky":"Йоханнесбург","name:la":"Ioannesburgum","name:lb":"Johannesbuerg","name:ln":"Johannesburg","name:lt":"Johanesburgas","name:lv":"Johannesburga","name:mg":"Johannesburg","name:mi":"Hoanipāka","name:mk":"Јоханесбург","name:ml":"ജൊഹാനസ്‌ബർഗ്","name:mn":"Йоханнесбург","name:mr":"जोहान्सबर्ग","name:ms":"Johannesburg","name:my":"ဂျိုဟန္နက်စဗတ်မြို့","name:nl":"Johannesburg","name:no":"Johannesburg","name:nv":"Óola Haagééd","name:ny":"Johannesburg","name:oc":"Johannesburg","name:os":"Йоханнесбург","name:pa":"ਜੋਹਾਨਿਸਬਰਗ","name:pl":"Johannesburg","name:pt":"Joanesburgo","name:ro":"Johannesburg","name:ru":"Йоханнесбург","name:sc":"Johannesburg","name:sd":"جوهانسبرگ","name:sh":"Johannesburg","name:sk":"Johannesburg","name:sl":"Johannesburg","name:sn":"Johannesburg","name:so":"Johannesburg","name:sq":"Johannesburg","name:sr":"Јоханезбург","name:ss":"Johannesburg","name:sv":"Johannesburg","name:sw":"Johannesburg","name:ta":"ஜோகானஸ்பேர்க்","name:tg":"Йоҳаннесбург","name:th":"โจฮันเนสเบิร์ก","name:tl":"Johannesburg","name:tn":"Johannesburg","name:tr":"Johannesburg","name:ts":"Joni","name:tt":"Yohannesburg","name:ug":"Yohannésburg","name:uk":"Йоханнесбург","name:ur":"جوہانسبرگ","name:uz":"Yoxannesburg","name:ve":"Johannesburg","name:vi":"Johannesburg","name:vo":"Johannesburg","name:xh":"EGoli","name:yi":"יאהאנעסבורג","name:yo":"Johannesburg","name:zh":"约翰内斯堡/約翰内斯堡","name:zu":"iGoli","loc_name":"Joburg;Jozi;JHB","name:arz":"جوهانسبيرج","name:ast":"Johannesburgu","name:azb":"ژوهانسبورق","name:ceb":"Johannesburg","name:ckb":"جۆھانسبێرگ","name:frp":"J·ohanesbôrg","name:frr":"Johannesburg","name:got":"𐌹𐍉𐌷𐌰𐌽𐌽𐌹𐍃𐌱𐌰𐌿𐍂𐌲𐍃","name:hak":"Johannesburg","name:hif":"Johannesburg","name:hyw":"Ճոհանեսպուրկ","name:kbp":"Yowanɛsɩbuuri","name:lez":"Йогьаннесбург","name:mhr":"Йоханнесбург","name:mzn":"ژوهانسبورگ","name:new":"जोहन्नेस्बर्ग","name:nov":"Johannesburg","name:nso":"Johannesburg","name:pam":"Johannesburg","name:pdc":"Johannesburg","name:pnb":"یوہانس برگ","name:sah":"Йоханнесбург","name:sat":"ᱡᱚᱦᱟᱱᱥᱵᱟᱨᱜᱽ","name:scn":"Johannesburg","name:sco":"Johannesburg","name:smn":"Johannesburg","name:szl":"Johannesburg","name:vep":"Johannesburg","name:war":"Johannesburg","name:wuu":"约翰内斯堡","name:zea":"Johannesburg","alt_name:be":"Іаганесбург","name:zh-Hans":"约翰内斯堡","name:zh-Hant":"約翰内斯堡"},"display_name":"Johannesburg, City of Johannesburg Metropolitan Municipality, Gauteng, 2001, South Africa","address":{"city":"Johannesburg","municipality":"City of Johannesburg Metropolitan Municipality","county":"City of Johannesburg Metropolitan Municipality","state":"Gauteng","ISO3166-2-lvl4":"ZA-GP","postcode":"2001","country":"South Africa","country_code":"za"},"population":4434827,"osm_type":"node","osm_id":261833893,"type":"city","location":[28.049722,-26.205],"bbox":[27.889722,-26.365,28.209722,-26.045],"border":{"name":"City of Johannesburg Metropolitan Municipality","other_names":{"ref":"JHB","name:es":"Municipio Metropolitano de la Ciudad de Johannesburgo","name:fr":"Municipalité métropolitaine de la ville de Johannesburg","name:zh":"约翰内斯堡都市圈自治市","name:zh-Hans":"约翰内斯堡都市圈自治市","name:zh-Hant":"約翰內斯堡市大都會自治市"},"display_name":"City of Johannesburg Metropolitan Municipality, Gauteng, South Africa","address":{"county":"City of Johannesburg Metropolitan Municipality","state":"Gauteng","ISO3166-2-lvl4":"ZA-GP","country":"South Africa","country_code":"za"},"osm_type":"relation","osm_id":594508,"type":"administrative","location":[27.919477916666665,-26.214795000000002],"bbox":[27.71427,-26.52629,28.21446,-25.90283]}}
{"name":"Jozini Local Municipality","other_names":{"ref":"KZN272"},"display_name":"Jozini Local Municipality, Umkhanyakude District Municipality, KwaZulu-Natal, South Africa","address":{"city":"Jozini Local Municipality","county":"Umkhanyakude District Municipality","state":"KwaZulu-Natal","ISO3166-2-lvl4":"ZA-KZN","country":"South Africa","country_code":"za"},"osm_type":"relation","osm_id":610710,"type":"administrative","location":[32.1176485119712,-27.364895],"bbox":[31.9513299,-27.9296944,32.4368551,-26.8044199],"inferred_type":"city"}
{"name":"Kagisano-Molopo Local Municipality","other_names":{"ref":"NW397"},"display_name":"Kagisano-Molopo Local Municipality, Dr Ruth Segomotsi Mompati District Municipality, North West, South Africa","address":{"city":"Kagisano-Molopo Local Municipality","county":"Dr Ruth Segomotsi Mompati District Municipality","state":"North West","ISO3166-2-lvl4":"ZA-NW","country":"South Africa","country_code":"za"},"osm_type":"relation","osm_id":1802556,"type":"administrative","location":[24.04015529713279,-26.19943],"bbox":[22.6289771,-27.12529,24.81708,-25.27325],"inferred_type":"city"}
{"name":"Kai !Garib Local Municipality","other_names":{"ref":"NC082"},"display_name":"Kai !Garib Local Municipality, ZF Mgcawu District Municipality, Northern Cape, South Africa","address":{"city":"Kai !Garib Local Municipality","county":"ZF Mgcawu District Municipality","state":"Northern Cape","ISO3166-2-lvl4":"ZA-NC","country":"South Africa","country_code":"za"},"osm_type":"relation","osm_id":82048,"type":"administrative","location":[20.472392330623304,-28.881265],"bbox":[19.50929,-29.99113,21.30891,-27.7738207],"inferred_type":"city"}
{"name":"Kamiesberg Local Municipality","other_names":{"ref":"NC064"},"display_name":"Kamiesberg Local Municipality, Namakwa District Municipality, Northern Cape, South Africa","address":{"city":"Kamiesberg Local Municipality","county":"Namakwa District Municipality","state":"Northern Cape","ISO3166-2-lvl4":"ZA-NC","country":"South Africa","country_code":"za"},"osm_type":"relation","osm_id":81969,"type":"administrative","location":[17.889710754257905,-30.50414],"bbox":[17.17981,-31.17652,19.0913105,-29.8316708],"inferred_type":"city"}
{"name":"Kareeberg Local Municipality","other_names":{"ref":"NC074"},"display_name":"Kareeberg Local Municipality, Pixley ka Seme District Municipality, Northern Cape, 8925, South Africa","address":{"city":"Kareeberg Local Municipality","county":"Pixley ka Seme District Municipality","state":"Northern Cape","ISO3166-2-lvl4":"ZA-NC","postcode":"8925","country":"South Africa","country_code":"za"},"osm_type":"relation","osm_id":82031,"type":"administrative","location":[22.19182066837257,-30.60958],"bbox":[21.07291,-31.21626,23.24253,-29.98638],"inferred_type":"city"}
{"name":"Karoo Hoogland Local Municipality","other_names":{"ref":"NC066"},"display_name":"Karoo Hoogland Local Municipality, Namakwa District Municipality, Northern Cape, South Africa","address":{"city":"Karoo Hoogland Local Municipality","county":"Namakwa District Municipality","state":"Northern Cape","ISO3166-2-lvl4":"ZA-NC","country":"South Africa","country_code":"za"},"osm_type":"relation","osm_id":81971,"type":"administrative","location":[21.27258581983207,-31.59588],"bbox":[20.0801816,-32.944995,22.20628,-30.246981],"inferred_type":"city"}
{"name":"Kgatelopele Local Municipality","other_names":{"ref":"NC086"},"display_name":"Kgatelopele Local Municipality, ZF Mgcawu District Municipality, Northern Cape, South Africa","address":{"city":"Kgatelopele Local Municipality","county":"ZF Mgcawu District Municipality","state":"Northern Cape","ISO3166-2-lvl4":"ZA-NC","country":"South Africa","country_code":"za"},"osm_type":"relation","osm_id":82053,"type":"administrative","location":[23.639770203323003,-28.23308],"bbox":[23.36225,-28.58789,23.89142,-27.87931],"inferred_type":"city"}
{"name":"Kgetleng River Local Municipality","other_names":{"ref":"NW374"},"display_name":"Kgetleng River Local Municipality, Bojanala Platinum District Municipality, North West, South Africa","address":{"city":"Kgetleng River Local Municipality","county":"Bojanala Platinum District Municipality","state":"North West","ISO3166-2-lvl4":"ZA-NW","country":"South Africa","country_code":"za"},"osm_type":"relation","osm_id":611678,"type":"administrative","location":[26.80501840207632,-25.75102],"bbox":[26.46237,-26.14289,27.20817,-25.3582],"inferred_type":"city"}
{"name":"Khâi-Ma Local Municipality","other_names":{"ref":"NC067"},"display_name":"Khâi-Ma Local Municipality, Namakwa District Municipality, Northern Cape, 8890, South Africa","address":{"city":"Khâi-Ma Local Municipality","county":"Namakwa District Municipality","state":"Northern Cape","ISO3166-2-lvl4":"ZA-NC","postcode":"8890","country":"South Africa","country_code":"za"},"osm_type":"relation","osm_id":81972,"type":"administrative","location":[19.267076309891912,-29.49539],"bbox":[18.51208,-30.3942,20.114075,-28.59654],"inferred_type":"city"}
{"name":"Kimberley","other_names":{"name:en":"Kimberley","name:ko":"킴벌리"},"display_name":"Kimberley, Frances Baard District Municipality, Northern Cape, 8301, South Africa","address":{"city":"Kimberley","county":"Frances Baard District Municipality","state":"Northern Cape","ISO3166-2-lvl4":"ZA-NC","postcode":"8301","country":"South Africa","country_code":"za"},"population":225160,"osm_type":"node","osm_id":3691546096,"type":"city","location":[24.7642251,-28.7383012],"bbox":[24.6042251,-28.8983012,24.9242251,-28.5783012]}
{"name":"King Sabata Dalindyebo Local Municipality","other_names":{"ref":"EC157"},"display_name":"King Sabata Dalindyebo Local Municipality, O.R. Tambo District Municipality, Eastern Cape, South Africa","address":{"city":"King Sabata Dalindyebo Local Municipality","county":"O.R. Tambo District Municipality","state":"Eastern Cape","ISO3166-2-lvl4":"ZA-EC","country":"South Africa","country_code":"za"},"osm_type":"relation","osm_id":88542,"type":"administrative","location":[28.6262210375,-31.748535],"bbox":[28.30203,-32.05935,29.1849276,-31.43777],"inferred_type":"city"}
{"name":"Klerksdorp","other_names":{"name:en":"Klerksdorp","name:ru":"Клерксдорп"},"display_name":"Klerksdorp, Matlosana Local Municipality, Dr Kenneth Kaunda District Municipality, North West, 2571, South Africa","address":{"city":"Klerksdorp","county":"Dr Kenneth Kaunda District Municipality","state":"North West","ISO3166-2-lvl4":"ZA-NW","postcode":"2571","country":"South Africa","country_code":"za"},"population":186515,"osm_type":"node","osm_id":59965613,"type":"city","location":[26.6656814,-26.8625383],"bbox":[26.5056814,-27.0225383,26.8256814,-26.7025383]}
{"name":"Kopanong Local Municipality","other_names":{"ref":"FS162"},"display_name":"Kopanong Local Municipality, Xhariep District Municipality, Free State, South Africa","address":{"city":"Kopanong Local Municipality","county":"Xhariep District Municipality","state":"Free State","ISO3166-2-lvl4":"ZA-FS","country":"South Africa","country_code":"za"},"osm_type":"relation","osm_id":593805,"type":"administrative","location":[25.541391080916434,-29.94521],"bbox":[24.79616,-30.68865,26.42431,-29.2061],"inferred_type":"city"}
{"name":"Kou-Kamma Local Municipality","other_names":{"ref":"EC109"},"display_name":"Kou-Kamma Local Municipality, Sarah Baartman District Municipality, Eastern Cape, South Africa","address":{"city":"Kou-Kamma Local Municipality","county":"Sarah Baartman District Municipality","state":"Eastern Cape","ISO3166-2-lvl4":"ZA-EC","country":"South Africa","country_code":"za"},"osm_type":"relation","osm_id":88107,"type":"administrative","location":[24.14772071542292,-33.85131],"bbox":[23.39504,-34.14359,24.66186,-33.57024],"inferred_type":"city"}
{"name":"Kouga Local Municipality","other_names":{"ref":"EC108"},"display_name":"Kouga Local Municipality, Sarah Baartman District Municipality, Eastern Cape, South Africa","address":{"city":"Kouga Local Municipality","county":"Sarah Baartman District Municipality","state":"Eastern Cape","ISO3166-2-lvl4":"ZA-EC","country":"South Africa","country_code":"za"},"osm_type":"relation","osm_id":88116,"type":"administrative","location":[24.849838971038388,-33.91290705],"bbox":[24.44495,-34.21386,25.24692,-33.61089],"inferred_type":"city"}
{"name":"Krugersdorp","display_name":"Krugersdorp, Mogale City Local Municipality, West Rand District Municipality, Gauteng, 1733, South Africa","address":{"city":"Krugersdorp","county":"West Rand District Municipality","state":"Gauteng","ISO3166-2-lvl4":"ZA-GP","postcode":"1733","country":"South Africa","country_code":"za"},"population":275000,"osm_type":"node","osm_id":60034262,"type":"city","location":[27.775556,-26.095556],"bbox":[27.615556,-26.255556,27.935556,-25.935556]}
{"name":"Kwa Sani Local Municipality","other_names":{"ref":"KZN432"},"display_name":"Kwa Sani Local Municipality, Sisonke District Municipality, KwaZulu-Natal, South Africa","address":{"city":"Kwa Sani Local Municipality","county":"Sisonke District Municipality","state":"KwaZulu-Natal","ISO3166-2-lvl4":"ZA-KZN","country":"South Africa","country_code":"za"},"osm_type":"relation","osm_id":611318,"type":"administrative","location":[29.398358055539454,-29.7373049],"bbox":[29.1011499,-29.9780401,29.6872401,-29.4965763],"inferred_type":"city"}
{"name":"KwaDukuza Local Municipality","other_names":{"ref":"KZN292"},"display_name":"KwaDukuza Local Municipality, iLembe District Municipality, KwaZulu-Natal, South Africa","address":{"city":"KwaDukuza Local Municipality","county":"iLembe District Municipality","state":"KwaZulu-Natal","ISO3166-2-lvl4":"ZA-KZN","country":"South Africa","country_code":"za"},"osm_type":"relation","osm_id":611249,"type":"administrative","location":[31.279635953979856,-29.353826400000003],"bbox":[31.0483699,-29.5717849,31.4747699,-29.13588],"inferred_type":"city"}
{"name":"Ladysmith","other_names":{"name:en":"Ladysmith","name:ko":"레이디스미스","name:ru":"Ледисмит"},"display_name":"Ladysmith, Emnambithi/Ladysmith Local Municipality, Uthukela District Municipality, KwaZulu-Natal, 3058, South Africa","address":{"city":"Ladysmith","county":"Uthukela District Municipality","state":"KwaZulu-Natal","ISO3166-2-lvl4":"ZA-KZN","postcode":"3058","country":"South Africa","country_code":"za"},"population":64855,"osm_type":"node","osm_id":51745922,"type":"city","location":[29.7825044,-28.5587291],"bbox":[29.6225044,-28.7187291,29.9425044,-28.3987291]}
{"name":"Laingsburg Local Municipality","other_names":{"ref":"WC051"},"display_name":"Laingsburg Local Municipality, Central Karoo District Municipality, Western Cape, South Africa","address":{"city":"Laingsburg Local Municipality","county":"Central Karoo District Municipality","state":"Western Cape","ISO3166-2-lvl4":"ZA-WC","country":"South Africa","country_code":"za"},"osm_type":"relation","osm_id":79808,"type":"administrative","location":[20.93728650037439,-33.015585],"bbox":[20.20218,-33.52778,21.69711,-32.50305],"inferred_type":"city"}
{"name":"Langeberg Local Municipality","other_names":{"ref":"WC026","old_name":"Breede River/Winelands Local Municipality"},"display_name":"Langeberg Local Municipality, Cape Winelands District Municipality, Western Cape, South Africa","address":{"city":"Langeberg Local Municipality","county":"Cape Winelands District Municipality","state":"Western Cape","ISO3166-2-lvl4":"ZA-WC","country":"South Africa","country_code":"za"},"osm_type":"relation","osm_id":79657,"type":"administrative","location":[20.081535596473028,-33.790915],"bbox":[19.50689,-34.11726,20.57713,-33.46387],"inferred_type":"city"}
{"name":"Lekwa Local Municipality","other_names":{"ref":"MP305"},"display_name":"Lekwa Local Municipality, Gert Sibande, Mpumalanga, South Africa","address":{"city":"Lekwa Local Municipality","county":"Gert Sibande","state":"Mpumalanga","ISO3166-2-lvl4":"ZA-MP","country":"South Africa","country_code":"za"},"osm_type":"relation","osm_id":611617,"type":"administrative","location":[29.27043292535152,-26.8956],"bbox":[28.82819,-27.26455,29.86991,-26.52668],"inferred_type":"city"}
{"name":"Lekwa-Teemane Local Municipality","other_names":{"ref":"NW396"},"display_name":"Lekwa-Teemane Local Municipality, Dr Ruth Segomotsi Mompati District Municipality, North West, South Africa","address":{"city":"Lekwa-Teemane Local Municipality","county":"Dr Ruth Segomotsi Mompati District Municipality","state":"North West","ISO3166-2-lvl4":"ZA-NW","country":"South Africa","country_code":"za"},"osm_type":"relation","osm_id":611661,"type":"administrative","location":[25.375513742819727,-27.637819999999998],"bbox":[24.82984,-28.113209,25.83482,-27.16221],"inferred_type":"city"}
{"name":"Lepelle-Nkumpi Local Municipality","other_names":{"ref":"LIM355"},"display_name":"Lepelle-Nkumpi Local Municipality, Capricorn District Municipality, Limpopo, South Africa","address":{"city":"Lepelle-Nkumpi Local Municipality","county":"Capricorn District Municipality","state":"Limpopo","ISO3166-2-lvl4":"ZA-LP","country":"South Africa","country_code":"za"},"osm_type":"relation","osm_id":611508,"type":"administrative","location":[29.549823802436386,-24.29232],"bbox":[29.03204,-24.640615,30.366215,-23.94379],"inferred_type":"city"}
{"name":"Lephalale Local Municipality","other_names":{"ref":"LIM362"},"display_name":"Lephalale Local Municipality, Waterberg District Municipality, Limpopo, South Africa","address":{"city":"Lephalale Local Municipality","county":"Waterberg District Municipality","state":"Limpopo","ISO3166-2-lvl4":"ZA-LP","country":"South Africa","country_code":"za"},"osm_type":"relation","osm_id":611540,"type":"administrative","location":[27.61839542195122,-23.633999250000002],"bbox":[26.9877892,-24.4559355,28.59661,-22.811517],"inferred_type":"city"}
{"name":"Lesedi Local Municipality","other_names":{"ref":"GT423"},"display_name":"Lesedi Local Municipality, Sedibeng District Municipality, Gauteng, South Africa","address":{"city":"Lesedi Local Municipality","county":"Sedibeng District Municipality","state":"Gauteng","ISO3166-2-lvl4":"ZA-GP","country":"South Africa","country_code":"za"},"osm_type":"relation","osm_id":599214,"type":"administrative","location":[28.656453171163257,-26.424185],"bbox":[28.17947,-26.67601,28.86129,-26.17224],"inferred_type":"city"}
{"name":"Letsemeng Local Municipality","other_names":{"ref":"FS161"},"display_name":"Letsemeng Local Municipality, Xhariep District Municipality, Free State, South Africa","address":{"city":"Letsemeng Local Municipality","county":"Xhariep District Municipality","state":"Free State","ISO3166-2-lvl4":"ZA-FS","country":"South Africa","country_code":"za"},"osm_type":"relation","osm_id":593806,"type":"administrative","location":[25.00058615799913,-29.430729999999997],"bbox":[24.34662,-30.0341701,25.77162,-28.828258],"inferred_type":"city"}
{"name":"Louis Trichardt","other_names":{"name:en":"Louis Trichardt","name:ru":"Луис-Тричард","alt_name":"Makhado"},"display_name":"Louis Trichardt, Makhado Local Municipality, Vhembe District Municipality, Limpopo, 0920, South Africa","address":{"city":"Louis Trichardt","county":"Vhembe District Municipality","state":"Limpopo","ISO3166-2-lvl4":"ZA-LP","postcode":"0920","country":"South Africa","country_code":"za"},"population":25360,"osm_type":"node","osm_id":30391852,"type":"city","location":[29.906665,-23.038326],"bbox":[29.746665,-23.198326,30.066665,-22.878326]}
{"name":"Lukhanji Local Municipality","other_names":{"ref":"EC134","alt_name":"Lukanji Local Municipality"},"display_name":"Lukhanji Local Municipality, Chris Hani District Municipality, Eastern Cape, South Africa","address":{"city":"Lukhanji Local Municipality","county":"Chris Hani District Municipality","state":"Eastern Cape","ISO3166-2-lvl4":"ZA-EC","country":"South Africa","country_code":"za"},"osm_type":"relation","osm_id":88472,"type":"administrative","location":[26.959905386666666,-32.05994],"bbox":[26.49801,-32.42793,27.51436,-31.69183],"inferred_type":"city"}
{"name":"Madibeng Local Municipality","other_names":{"ref":"NW372"},"display_name":"Madibeng Local Municipality, Bojanala Platinum District Municipality, North West, South Africa","address":{"city":"Madibeng Local Municipality","county":"Bojanala Platinum District Municipality","state":"North West","ISO3166-2-lvl4":"ZA-NW","country":"South Africa","country_code":"za"},"osm_type":"relation","osm_id":611656,"type":"administrative","location":[27.77371251724138,-25.430574999999997],"bbox":[27.424235,-25.89462,28.0524,-24.96652],"inferred_type":"city"}
{"name":"Mafube Local Municipality","other_names":{"ref":"FS205"},"display_name":"Mafube Local Municipality, Fezile Dabi District Municipality, Free State, South Africa","address":{"city":"Mafube Local Municipality","county":"Fezile Dabi District Municipality","state":"Free State","ISO3166-2-lvl4":"ZA-FS","country":"South Africa","country_code":"za"},"osm_type":"relation","osm_id":593827,"type":"administrative","location":[28.59995306107598,-27.2814001],"bbox":[28.22736,-27.61143,29.0151418,-26.95014],"inferred_type":"city"}
{"name":"Magareng Local Municipality","other_names":{"ref":"NC093"},"display_name":"Magareng Local Municipality, Frances Baard District Municipality, Northern Cape, 8530, South Africa","address":{"city":"Magareng Local Municipality","county":"Frances Baard District Municipality","state":"Northern Cape","ISO3166-2-lvl4":"ZA-NC","postcode":"8530","country":"South Africa","country_code":"za"},"osm_type":"relation","osm_id":86697,"type":"administrative","location":[24.80420193087058,-28.175195000000002],"bbox":[24.534639,-28.45212,25.02808,-27.89758],"inferred_type":"city"}
{"name":"Mahikeng Local Municipality","other_names":{"ref":"NW383","old_name":"Mafikeng Local Municipality"},"display_name":"Mahikeng Local Municipality, Ngaka Modiri Molema District Municipality, North West, South Africa","address":{"city":"Mahikeng Local Municipality","county":"Ngaka Modiri Molema District Municipality","state":"North West","ISO3166-2-lvl4":"ZA-NW","country":"South Africa","country_code":"za"},"osm_type":"relation","osm_id":611673,"type":"administrative","location":[25.599527738885,-25.9469695],"bbox":[25.265906,-26.38011,26.15386,-25.51385],"inferred_type":"city"}
{"name":"Mahikeng","other_names":{"name:de":"Mahikeng","name:en":"Mahikeng","name:es":"Mahikeng","name:fr":"Mahikeng","name:it":"Mahikeng","name:ko":"마피켕","name:nl":"Mahikeng","name:pl":"Mahikeng","name:pt":"Mahikeng","name:ru":"Мафикенг","name:sv":"Mahikeng","alt_name":"Mafikeng","old_name":"Mafeking"},"display_name":"Mahikeng, Mahikeng Local Municipality, Ngaka Modiri Molema District Municipality, North West, 2745, South Africa","address":{"city":"Mahikeng","county":"Ngaka Modiri Molema District Municipality","state":"North West","ISO3166-2-lvl4":"ZA-NW","postcode":"2745","country":"South Africa","country_code":"za"},"population":15117,"osm_type":"node","osm_id":59953738,"type":"city","location":[25.658611,-25.863611],"bbox":[25.498611,-26.023611,25.818611,-25.703611]}
{"name":"Makana Local Municipality","other_names":{"ref":"EC104"},"display_name":"Makana Local Municipality, Sarah Baartman District Municipality, Eastern Cape, South Africa","address":{"city":"Makana Local Municipality","county":"Sarah Baartman District Municipality","state":"Eastern Cape","ISO3166-2-lvl4":"ZA-EC","country":"South Africa","country_code":"za"},"osm_type":"relation","osm_id":88162,"type":"administrative","location":[26.51236853206413,-33.25233],"bbox":[25.94819,-33.57268,27.00898,-32.93213],"inferred_type":"city"}
{"name":"Makhado Local Municipality","other_names":{"ref":"LIM344"},"display_name":"Makhado Local Municipality, Vhembe District Municipality, Limpopo, South Africa","address":{"city":"Makhado Local Municipality","county":"Vhembe District Municipality","state":"Limpopo","ISO3166-2-lvl4":"ZA-LP","country":"South Africa","country_code":"za"},"osm_type":"relation","osm_id":611440,"type":"administrative","location":[29.804263166087637,-23.0196701],"bbox":[29.1669699,-23.43741,30.5635259,-22.5996101],"inferred_type":"city"}
{"name":"Makhanda","other_names":{"name:af":"Makhanda","name:ja":"グラハムズタウン","name:ko":"그레이엄스타운","name:ru":"Грэхэмстаун","name:xh":"iRhini","old_name":"Grahamstown"},"display_name":"Makhanda, Makana Local Municipality, Sarah Baartman District Municipality, Eastern Cape, 6139, South Africa","address":{"city":"Makhanda","county":"Sarah Baartman District Municipality","state":"Eastern Cape","ISO3166-2-lvl4":"ZA-EC","postcode":"6139","country":"South Africa","country_code":"za"},"population":67264,"osm_type":"node","osm_id":30229877,"type":"city","location":[26.5272648,-33.3070589],"bbox":[26.3672648,-33.4670589,26.6872648,-33.1470589]}
{"name":"Makhuduthamaga Local Municipality","other_names":{"ref":"LIM473"},"display_name":"Makhuduthamaga Local Municipality, Sekhukhune District Municipality, Limpopo, South Africa","address":{"city":"Makhuduthamaga Local Municipality","county":"Sekhukhune District Municipality","state":"Limpopo","ISO3166-2-lvl4":"ZA-LP","country":"South Africa","country_code":"za"},"osm_type":"relation","osm_id":611575,"type":"administrative","location":[29.798784942044673,-24.736940099999998],"bbox":[29.4340599,-25.01544,30.11978,-24.45947],"inferred_type":"city"}
{"name":"Maletswai Local Municipality","other_names":{"ref":"EC143"},"display_name":"Maletswai Local Municipality, Joe Gqabi District Municipality, Eastern Cape, South Africa","address":{"city":"Maletswai Local Municipality","county":"Joe Gqabi District Municipality","state":"Eastern Cape","ISO3166-2-lvl4":"ZA-EC","country":"South Africa","country_code":"za"},"osm_type":"relation","osm_id":88483,"type":"administrative","location":[26.922480794165313,-31.02565],"bbox":[26.42134,-31.45525,27.29755,-30.59457],"inferred_type":"city"}
{"name":"Maluti-a-Phofung Local Municipality","other_names":{"ref":"FS194"},"display_name":"Maluti-a-Phofung Local Municipality, Thabo Mofutsanyana District Municipality, Free State, South Africa","address":{"city":"Maluti-a-Phofung Local Municipality","county":"Thabo Mofutsanyana District Municipality","state":"Free State","ISO3166-2-lvl4":"ZA-FS","country":"South Africa","country_code":"za"},"osm_type":"relation","osm_id":593837,"type":"administrative","location":[29.00709000860585,-28.37434],"bbox":[28.57961,-28.77573,29.564,-27.972852],"inferred_type":"city"}
{"name":"Mamusa Local Municipality","other_names":{"ref":"NW393"},"display_name":"Mamusa Local Municipality, Dr Ruth Segomotsi Mompati District Municipality, North West, South Africa","address":{"city":"Mamusa Local Municipality","county":"Dr Ruth Segomotsi Mompati District Municipality","state":"North West","ISO3166-2-lvl4":"ZA-NW","country":"South Africa","country_code":"za"},"osm_type":"relation","osm_id":611659,"type":"administrative","location":[25.36002293048397,-27.200325],"bbox":[24.77495,-27.54542,25.68711,-26.85529],"inferred_type":"city"}
{"name":"Mandeni Local Municipality","other_names":{"ref":"KZN291"},"display_name":"Mandeni Local Municipality, iLembe District Municipality, KwaZulu-Natal, 4490, South Africa","address":{"city":"Mandeni Local Municipality","county":"iLembe District Municipality","state":"KwaZulu-Natal","ISO3166-2-lvl4":"ZA-KZN","postcode":"4490","country":"South Africa","country_code":"za"},"osm_type":"relation","osm_id":611251,"type":"administrative","location":[31.47444164883251,-29.119965],"bbox":[31.3172301,-29.25796,31.6753169,-28.9816901],"inferred_type":"city"}
{"name":"Mantsopa Local Municipality","other_names":{"ref":"FS196","old_ref":"FS173"},"display_name":"Mantsopa Local Municipality, Thabo Mofutsanyana District Municipality, Free State, South Africa","address":{"city":"Mantsopa Local Municipality","county":"Thabo Mofutsanyana District Municipality","state":"Free State","ISO3166-2-lvl4":"ZA-FS","country":"South Africa","country_code":"za"},"osm_type":"relation","osm_id":593813,"type":"administrative","location":[27.28880440670554,-29.150182100000002],"bbox":[26.81813,-29.57538,27.6497935,-28.72523],"inferred_type":"city"}
{"name":"Maphumulo Local Municipality","other_names":{"ref":"KZN294"},"display_name":"Maphumulo Local Municipality, iLembe District Municipality, KwaZulu-Natal, South Africa","address":{"city":"Maphumulo Local Municipality","county":"iLembe District Municipality","state":"KwaZulu-Natal","ISO3166-2-lvl4":"ZA-KZN","country":"South Africa","country_code":"za"},"osm_type":"relation","osm_id":611248,"type":"administrative","location":[31.059574394599757,-29.1046425],"bbox":[30.8510199,-29.3547429,31.2983999,-28.8545502],"inferred_type":"city"}
{"name":"Maquassi Hills Local Municipality","other_names":{"ref":"NW404"},"display_name":"Maquassi Hills Local Municipality, Dr Kenneth Kaunda District Municipality, North West, 2630, South Africa","address":{"city":"Maquassi Hills Local Municipality","county":"Dr Kenneth Kaunda District Municipality","state":"North West","ISO3166-2-lvl4":"ZA-NW","postcode":"2630","country":"South Africa","country_code":"za"},"osm_type":"relation","osm_id":611671,"type":"administrative","location":[26.145289231520678,-27.28568],"bbox":[25.61015,-27.73677,26.51426,-26.83426],"inferred_type":"city"}
{"name":"Maruleng Local Municipality","other_names":{"ref":"LIM335"},"display_name":"Maruleng Local Municipality, Mopani District Municipality, Limpopo, South Africa","address":{"city":"Maruleng Local Municipality","county":"Mopani District Municipality","state":"Limpopo","ISO3166-2-lvl4":"ZA-LP","country":"South Africa","country_code":"za"},"osm_type":"relation","osm_id":611427,"type":"administrative","location":[30.71936665774625,-24.30008315],"bbox":[30.27533,-24.58207,31.2538643,-24.0259181],"inferred_type":"city"}
{"name":"Masilonyana Local Municipality","other_names":{"ref":"FS181"},"display_name":"Masilonyana Local Municipality, Lejweleputswa District Municipality, Free State, South Africa","address":{"city":"Masilonyana Local Municipality","county":"Lejweleputswa District Municipality","state":"Free State","ISO3166-2-lvl4":"ZA-FS","country":"South Africa","country_code":"za"},"osm_type":"relation","osm_id":593829,"type":"administrative","location":[26.590087861523322,-28.62742],"bbox":[25.87853,-29.09024,27.21895,-28.16412],"inferred_type":"city"}
{"name":"Matatiele Local Municipality","other_names":{"ref":"EC441"},"display_name":"Matatiele Local Municipality, Alfred Nzo District Municipality, Eastern Cape, 4470, South Africa","address":{"city":"Matatiele Local Municipality","county":"Alfred Nzo District Municipality","state":"Eastern Cape","ISO3166-2-lvl4":"ZA-EC","postcode":"4470","country":"South Africa","country_code":"za"},"osm_type":"relation","osm_id":88564,"type":"administrative","location":[28.78005599144737,-30.348745100000002],"bbox":[28.2067688,-30.695218,29.30501,-30.0018],"inferred_type":"city"}
{"name":"Matjhabeng Local Municipality","other_names":{"ref":"FS184"},"display_name":"Matjhabeng Local Municipality, Lejweleputswa District Municipality, Free State, South Africa","address":{"city":"Matjhabeng Local Municipality","county":"Lejweleputswa District Municipality","state":"Free State","ISO3166-2-lvl4":"ZA-FS","country":"South Africa","country_code":"za"},"osm_type":"relation","osm_id":593823,"type":"administrative","location":[26.935952554583086,-27.961145000000002],"bbox":[26.39595,-28.40714,27.4718,-27.516071],"inferred_type":"city"}
{"name":"Matlosana Local Municipality","other_names":{"ref":"NW403"},"display_name":"Matlosana Local Municipality, Dr Kenneth Kaunda District Municipality, North West, South Africa","address":{"city":"Matlosana Local Municipality","county":"Dr Kenneth Kaunda District Municipality","state":"North West","ISO3166-2-lvl4":"ZA-NW","country":"South Africa","country_code":"za"},"osm_type":"relation","osm_id":611667,"type":"administrative","location":[26.4960024137931,-26.831895],"bbox":[26.07676,-27.180885,26.89799,-26.4835],"inferred_type":"city"}
{"name":"Matzikama Local Municipality","other_names":{"ref":"WC011"},"display_name":"Matzikama Local Municipality, West Coast District Municipality, Western Cape, South Africa","address":{"city":"Matzikama Local Municipality","county":"West Coast District Municipality","state":"Western Cape","ISO3166-2-lvl4":"ZA-WC","country":"South Africa","country_code":"za"},"osm_type":"relation","osm_id":79629,"type":"administrative","location":[18.38209731069042,-31.21846],"bbox":[17.75735,-32.006653,19.09466,-30.43026],"inferred_type":"city"}
{"name":"Mbhashe Local Municipality","other_names":{"ref":"EC121"},"display_name":"Mbhashe Local Municipality, Amathole District Municipality, Eastern Cape, South Africa","address":{"city":"Mbhashe Local Municipality","county":"Amathole District Municipality","state":"Eastern Cape","ISO3166-2-lvl4":"ZA-EC","country":"South Africa","country_code":"za"},"osm_type":"relation","osm_id":88173,"type":"administrative","location":[28.641625044594598,-32.11796745],"bbox":[28.0188489,-32.44861,29.09485,-31.78706],"inferred_type":"city"}
{"name":"Mbizana Local Municipality","other_names":{"ref":"EC151"},"display_name":"Mbizana Local Municipality, Alfred Nzo District Municipality, Eastern Cape, 4800, South Africa","address":{"city":"Mbizana Local Municipality","county":"Alfred Nzo District Municipality","state":"Eastern Cape","ISO3166-2-lvl4":"ZA-EC","postcode":"4800","country":"South Africa","country_code":"za"},"osm_type":"relation","osm_id":88487,"type":"administrative","location":[29.847264045786172,-30.947125],"bbox":[29.50662,-31.2468101,30.1945605,-30.64754],"inferred_type":"city"}
{"name":"Mbombela (Nelspruit)","other_names":{"name:ar":"نيلسبرويت","name:de":"Mbombela","name:en":"Mbombela","name:es":"Mbombela","name:fr":"Nelspruit","name:it":"Nelspruit","name:ko":"음봄벨라","name:ru":"Мбомбела","old_name":"Nelspruit","old_name:ko":"넬스프루이트","old_name:ru":"Нелспрёйт"},"display_name":"Mbombela (Nelspruit), Mbombela, Ehlanzeni, Mpumalanga, 1201, South Africa","address":{"city":"Mbombela (Nelspruit)","county":"Ehlanzeni","state":"Mpumalanga","ISO3166-2-lvl4":"ZA-MP","postcode":"1201","country":"South Africa","country_code":"za"},"population":110159,"osm_type":"node","osm_id":30211883,"type":"city","location":[30.9772719,-25.4729094],"bbox":[30.8172719,-25.6329094,31.1372719,-25.3129094],"border":{"name":"Mbombela","other_names":{"ref":"MP322"},"display_name":"Mbombela, Ehlanzeni, Mpumalanga, South Africa","address":{"city":"Mbombela","county":"Ehlanzeni","state":"Mpumalanga","ISO3166-2-lvl4":"ZA-MP","country":"South Africa","country_code":"za"},"osm_type":"relation","osm_id":611615,"type":"administrative","location":[31.25925876091336,-25.35033975],"bbox":[30.44243,-25.74135,31.6275406,-24.960392]}}
{"name":"Merafong City Local Municipality","other_names":{"ref":"GT484"},"display_name":"Merafong City Local Municipality, West Rand District Municipality, Gauteng, South Africa","address":{"city":"Merafong City Local Municipality","county":"West Rand District Municipality","state":"Gauteng","ISO3166-2-lvl4":"ZA-GP","country":"South Africa","country_code":"za"},"osm_type":"relation","osm_id":599242,"type":"administrative","location":[27.37410410469289,-26.36937],"bbox":[27.15634,-26.649468,27.629908,-26.08917],"inferred_type":"city"}
{"name":"Metsimaholo Local Municipality","other_names":{"ref":"FS204"},"display_name":"Metsimaholo Local Municipality, Fezile Dabi District Municipality, Free State, South Africa","address":{"city":"Metsimaholo Local Municipality","county":"Fezile Dabi District Municipality","state":"Free State","ISO3166-2-lvl4":"ZA-FS","country":"South Africa","country_code":"za"},"osm_type":"relation","osm_id":593825,"type":"administrative","location":[28.030928933592904,-26.927574999999997],"bbox":[27.68047,-27.18622,28.42905,-26.66874],"inferred_type":"city"}
{"name":"Mhlontlo Local Municipality","other_names":{"ref":"EC156"},"display_name":"Mhlontlo Local Municipality, O.R. Tambo District Municipality, Eastern Cape, South Africa","address":{"city":"Mhlontlo Local Municipality","county":"O.R. Tambo District Municipality","state":"Eastern Cape","ISO3166-2-lvl4":"ZA-EC","country":"South Africa","country_code":"za"},"osm_type":"relation","osm_id":88541,"type":"administrative","location":[28.93364147368421,-31.16873],"bbox":[28.38221,-31.50783,29.2076,-30.82962],"inferred_type":"city"}
{"name":"Midvaal Local Municipality","other_names":{"ref":"GT422","name:zh":"米德瓦地方自治市","name:zh-Hans":"米德瓦地方自治市","name:zh-Hant":"米德瓦地方自治市"},"display_name":"Midvaal Local Municipality, Sedibeng District Municipality, Gauteng, South Africa","address":{"city":"Midvaal Local Municipality","county":"Sedibeng District Municipality","state":"Gauteng","ISO3166-2-lvl4":"ZA-GP","country":"South Africa","country_code":"za"},"osm_type":"relation","osm_id":599232,"type":"administrative","location":[28.08942685185185,-26.629495],"bbox":[27.869075,-26.92383,28.40685,-26.33516],"inferred_type":"city"}
{"name":"Mier Local Municipality","other_names":{"ref":"NC081"},"display_name":"Mier Local Municipality, ZF Mgcawu District Municipality, Northern Cape, South Africa","address":{"city":"Mier Local Municipality","county":"ZF Mgcawu District Municipality","state":"Northern Cape","ISO3166-2-lvl4":"ZA-NC","country":"South Africa","country_code":"za"},"osm_type":"relation","osm_id":82047,"type":"administrative","location":[20.357956302188356,-26.339344349999998],"bbox":[19.9983702,-27.9148903,21.02646,-24.7637515],"inferred_type":"city"}
{"name":"Mkhambathini Local Municipality","other_names":{"ref":"KZN226"},"display_name":"Mkhambathini Local Municipality, uMgungundlovu District Municipality, KwaZulu-Natal, South Africa","address":{"city":"Mkhambathini Local Municipality","county":"uMgungundlovu District Municipality","state":"KwaZulu-Natal","ISO3166-2-lvl4":"ZA-KZN","country":"South Africa","country_code":"za"},"osm_type":"relation","osm_id":610732,"type":"administrative","location":[30.52365449625038,-29.84561],"bbox":[30.3964401,-30.1447199,30.7007554,-29.5465393],"inferred_type":"city"}
{"name":"Mkhondo","other_names":{"ref":"MP303","name:af":"Mkhondo Plaaslike Munisipaliteit","name:de":"Gemeinde Mkhondo","name:en":"Mkhondo Local Municipality","name:it":"Municipalità locale di Mkhondo","name:pl":"gmina Mkhondo","name:uk":"Мкхондо місцевий муніципалітет"},"display_name":"Mkhondo, Gert Sibande, Mpumalanga, South Africa","address":{"city":"Mkhondo","county":"Gert Sibande","state":"Mpumalanga","ISO3166-2-lvl4":"ZA-MP","country":"South Africa","country_code":"za"},"osm_type":"relation","osm_id":611630,"type":"administrative","location":[30.62093925,-26.92682],"bbox":[30.2437,-27.36852,31.27479,-26.48579],"inferred_type":"city"}
{"name":"Mnquma Local Municipality","other_names":{"ref":"EC122"},"display_name":"Mnquma Local Municipality, Amathole District Municipality, Eastern Cape, South Africa","address":{"city":"Mnquma Local Municipality","county":"Amathole District Municipality","state":"Eastern Cape","ISO3166-2-lvl4":"ZA-EC","country":"South Africa","country_code":"za"},"osm_type":"relation","osm_id":88177,"type":"administrative","location":[28.135098459925445,-32.352215],"bbox":[27.71072,-32.6784622,28.67557,-32.02584],"inferred_type":"city"}
{"name":"Modimolle Local Municipality","other_names":{"ref":"LIM365"},"display_name":"Modimolle Local Municipality, Waterberg District Municipality, Limpopo, South Africa","address":{"city":"Modimolle Local Municipality","county":"Waterberg District Municipality","state":"Limpopo","ISO3166-2-lvl4":"ZA-LP","country":"South Africa","country_code":"za"},"osm_type":"relation","osm_id":611542,"type":"administrative","location":[28.016547895080148,-24.43247995],"bbox":[27.56405,-24.88232,28.63566,-23.99001],"inferred_type":"city"}
{"name":"Mogalakwena Local Municipality","other_names":{"ref":"LIM367"},"display_name":"Mogalakwena Local Municipality, Waterberg District Municipality, Limpopo, South Africa","address":{"city":"Mogalakwena Local Municipality","county":"Waterberg District Municipality","state":"Limpopo","ISO3166-2-lvl4":"ZA-LP","country":"South Africa","country_code":"za"},"osm_type":"relation","osm_id":611543,"type":"administrative","location":[28.652996047197625,-23.872844999999998],"bbox":[28.11351,-24.41478,29.23419,-23.33091],"inferred_type":"city"}
{"name":"Mogale City Local Municipality","other_names":{"ref":"GT481"},"display_name":"Mogale City Local Municipality, West Rand District Municipality, Gauteng, South Africa","address":{"city":"Mogale City Local Municipality","county":"West Rand District Municipality","state":"Gauteng","ISO3166-2-lvl4":"ZA-GP","country":"South Africa","country_code":"za"},"osm_type":"relation","osm_id":599228,"type":"administrative","location":[27.687026489859594,-26.003745000000002],"bbox":[27.42522,-26.21321,27.94085,-25.79592],"inferred_type":"city"}
{"name":"Mohokare Local Municipality","other_names":{"ref":"FS163"},"display_name":"Mohokare Local Municipality, Xhariep District Municipality, Free State, South Africa","address":{"city":"Mohokare Local Municipality","county":"Xhariep District Municipality","state":"Free State","ISO3166-2-lvl4":"ZA-FS","country":"South Africa","country_code":"za"},"osm_type":"relation","osm_id":593807,"type":"administrative","location":[26.74102784552239,-30.1299625],"bbox":[26.141251,-30.69408,27.41033,-29.56875],"inferred_type":"city"}
{"name":"Mokopane","other_names":{"name:ru":"Мокопане","old_name":"Potgietersrus"},"display_name":"Mokopane, Mogalakwena Local Municipality, Waterberg District Municipality, Limpopo, 0728, South Africa","address":{"city":"Mokopane","county":"Waterberg District Municipality","state":"Limpopo","ISO3166-2-lvl4":"ZA-LP","postcode":"0728","country":"South Africa","country_code":"za"},"population":30151,"osm_type":"node","osm_id":52132483,"type":"city","location":[29.016667,-24.183333],"bbox":[28.856667,-24.343333,29.176667,-24.023333]}
{"name":"Molemole Local Municipality","other_names":{"ref":"LIM353"},"display_name":"Molemole Local Municipality, Capricorn District Municipality, Limpopo, South Africa","address":{"city":"Molemole Local Municipality","county":"Capricorn District Municipality","state":"Limpopo","ISO3166-2-lvl4":"ZA-LP","country":"South Africa","country_code":"za"},"osm_type":"relation","osm_id":611506,"type":"administrative","location":[29.667192618373214,-23.5246808],"bbox":[29.02628,-23.81136,30.047347,-23.2344901],"inferred_type":"city"}
{"name":"Mookgopong Local Municipality","other_names":{"ref":"LIM364"},"display_name":"Mookgopong Local Municipality, Waterberg District Municipality, Limpopo, South Africa","address":{"city":"Mookgopong Local Municipality","county":"Waterberg District Municipality","state":"Limpopo","ISO3166-2-lvl4":"ZA-LP","country":"South Africa","country_code":"za"},"osm_type":"relation","osm_id":611545,"type":"administrative","location":[28.914219381426527,-24.504055],"bbox":[28.3638802,-24.9812099,29.40049,-24.02533],"inferred_type":"city"}
{"name":"Moqhaka Local Municipality","other_names":{"ref":"FS201"},"display_name":"Moqhaka Local Municipality, Fezile Dabi District Municipality, Free State, South Africa","address":{"city":"Moqhaka Local Municipality","county":"Fezile Dabi District Municipality","state":"Free State","ISO3166-2-lvl4":"ZA-FS","country":"South Africa","country_code":"za"},"osm_type":"relation","osm_id":593836,"type":"administrative","location":[27.205343477860715,-27.568365],"bbox":[26.52162,-28.28424,27.8726,-26.85265],"inferred_type":"city"}
{"name":"Moretele Local Municipality","other_names":{"ref":"NW371"},"display_name":"Moretele Local Municipality, Bojanala Platinum District Municipality, North West, 0404, South Africa","address":{"city":"Moretele Local Municipality","county":"Bojanala Platinum District Municipality","state":"North West","ISO3166-2-lvl4":"ZA-NW","postcode":"0404","country":"South Africa","country_code":"za"},"osm_type":"relation","osm_id":611677,"type":"administrative","location":[28.00261296582734,-25.18072],"bbox":[27.80484,-25.40174,28.29835,-24.95785],"inferred_type":"city"}
{"name":"Moses Kotane Local Municipality","other_names":{"ref":"NW375"},"display_name":"Moses Kotane Local Municipality, Bojanala Platinum District Municipality, North West, South Africa","address":{"city":"Moses Kotane Local Municipality","county":"Bojanala Platinum District Municipality","state":"North West","ISO3166-2-lvl4":"ZA-NW","country":"South Africa","country_code":"za"},"osm_type":"relation","osm_id":611657,"type":"administrative","location":[26.952462624023106,-25.12145],"bbox":[26.38498,-25.52438,27.50988,-24.71863],"inferred_type":"city"}
{"name":"Mpofana Local Municipality","other_names":{"ref":"KZN223"},"display_name":"Mpofana Local Municipality, uMgungundlovu District Municipality, KwaZulu-Natal, South Africa","address":{"city":"Mpofana Local Municipality","county":"uMgungundlovu District Municipality","state":"KwaZulu-Natal","ISO3166-2-lvl4":"ZA-KZN","country":"South Africa","country_code":"za"},"osm_type":"relation","osm_id":610731,"type":"administrative","location":[30.112179729840975,-29.165045],"bbox":[29.5068,-29.4154399,30.3741299,-28.9148999],"inferred_type":"city"}
{"name":"Msinga Local Municipality","other_names":{"ref":"KZN244"},"display_name":"Msinga Local Municipality, Umzinyathi District Municipality, KwaZulu-Natal, 3010, South Africa","address":{"city":"Msinga Local Municipality","county":"Umzinyathi District Municipality","state":"KwaZulu-Natal","ISO3166-2-lvl4":"ZA-KZN","postcode":"3010","country":"South Africa","country_code":"za"},"osm_type":"relation","osm_id":611024,"type":"administrative","location":[30.424286298072495,-28.6044799],"bbox":[30.2207299,-28.9473699,30.7651299,-28.2617201],"inferred_type":"city"}
{"name":"Msukaligwa","other_names":{"ref":"MP302"},"display_name":"Msukaligwa, Gert Sibande, Mpumalanga, South Africa","address":{"city":"Msukaligwa","county":"Gert Sibande","state":"Mpumalanga","ISO3166-2-lvl4":"ZA-MP","country":"South Africa","country_code":"za"},"osm_type":"relation","osm_id":611616,"type":"administrative","location":[30.083282942043844,-26.515320000000003],"bbox":[29.46867,-26.85981,30.76824,-26.17069],"inferred_type":"city"}
{"name":"Msunduzi Local Municipality","other_names":{"ref":"KZN225"},"display_name":"Msunduzi Local Municipality, uMgungundlovu District Municipality, KwaZulu-Natal, South Africa","address":{"city":"Msunduzi Local Municipality","county":"uMgungundlovu District Municipality","state":"KwaZulu-Natal","ISO3166-2-lvl4":"ZA-KZN","country":"South Africa","country_code":"za"},"osm_type":"relation","osm_id":610736,"type":"administrative","location":[30.29989404746116,-29.634635],"bbox":[30.0771499,-29.7520199,30.5438799,-29.5173999],"inferred_type":"city"}
{"name":"Mthatha","other_names":{"name:ru":"Умтата","name:old":"Umtata","old_name":"Umtata"},"display_name":"Mthatha, King Sabata Dalindyebo Local Municipality, O.R. Tambo District Municipality, Eastern Cape, 7142, South Africa","address":{"city":"Mthatha","county":"O.R. Tambo District Municipality","state":"Eastern Cape","ISO3166-2-lvl4":"ZA-EC","postcode":"7142","country":"South Africa","country_code":"za"},"population":210783,"osm_type":"node","osm_id":262722333,"type":"city","location":[28.789145,-31.589075],"bbox":[28.629145,-31.749075,28.949145,-31.429075]}
{"name":"Mthonjaneni Local Municipality","other_names":{"ref":"KZN285"},"display_name":"Mthonjaneni Local Municipality, King Cetswayo District Municipality, KwaZulu-Natal, 3835, South Africa","address":{"city":"Mthonjaneni Local Municipality","county":"King Cetswayo District Municipality","state":"KwaZulu-Natal","ISO3166-2-lvl4":"ZA-KZN","postcode":"3835","country":"South Africa","country_code":"za"},"osm_type":"relation","osm_id":611178,"type":"administrative","location":[31.327016849315072,-28.576275000000003],"bbox":[31.1569699,-28.7781401,31.5952699,-28.3744099],"inferred_type":"city"}
{"name":"Mtubatuba Local Municipality","other_names":{"ref":"KZN275"},"display_name":"Mtubatuba Local Municipality, Umkhanyakude District Municipality, KwaZulu-Natal, South Africa","address":{"city":"Mtubatuba Local Municipality","county":"Umkhanyakude District Municipality","state":"KwaZulu-Natal","ISO3166-2-lvl4":"ZA-KZN","country":"South Africa","country_code":"za"},"osm_type":"relation","osm_id":610711,"type":"administrative","location":[32.24588858069187,-28.280012650000003],"bbox":[31.9812595,-28.5202301,32.5600903,-28.0395131],"inferred_type":"city"}
{"name":"Musina Local Municipality","other_names":{"ref":"LIM341"},"display_name":"Musina Local Municipality, Vhembe District Municipality, Limpopo, 0900, South Africa","address":{"city":"Musina Local Municipality","county":"Vhembe District Municipality","state":"Limpopo","ISO3166-2-lvl4":"ZA-LP","postcode":"0900","country":"South Africa","country_code":"za"},"population":42678,"osm_type":"relation","osm_id":611439,"type":"administrative","location":[29.76557233926829,-22.4443035],"bbox":[28.90197,-22.7580701,30.6554999,-22.1250301],"inferred_type":"city"}
{"name":"Musina","other_names":{"name:en":"Musina","name:ru":"Мусина","name:uk":"Мусіна","old_name":"Messina"},"display_name":"Musina, Musina Local Municipality, Vhembe District Municipality, Limpopo, 0900, South Africa","address":{"city":"Musina","county":"Vhembe District Municipality","state":"Limpopo","ISO3166-2-lvl4":"ZA-LP","postcode":"0900","country":"South Africa","country_code":"za"},"population":42678,"osm_type":"node","osm_id":48912418,"type":"city","location":[30.0268526,-22.3453519],"bbox":[29.8668526,-22.5053519,30.1868526,-22.1853519]}
{"name":"Mutale Local Municipality","other_names":{"ref":"LIM342"},"display_name":"Mutale Local Municipality, Vhembe District Municipality, Limpopo, South Africa","address":{"city":"Mutale Local Municipality","county":"Vhembe District Municipality","state":"Limpopo","ISO3166-2-lvl4":"ZA-LP","country":"South Africa","country_code":"za"},"osm_type":"relation","osm_id":611436,"type":"administrative","location":[30.859488703956874,-22.576740100000002],"bbox":[30.2041599,-22.8609401,31.344357,-22.29196],"inferred_type":"city"}
{"name":"Nala Local Municipality","other_names":{"ref":"FS185"},"display_name":"Nala Local Municipality, Lejweleputswa District Municipality, Free State, South Africa","address":{"city":"Nala Local Municipality","county":"Lejweleputswa District Municipality","state":"Free State","ISO3166-2-lvl4":"ZA-FS","country":"South Africa","country_code":"za"},"osm_type":"relation","osm_id":593826,"type":"administrative","location":[26.468273084980822,-27.601305],"bbox":[26.05465,-28.09841,26.85771,-27.10439],"inferred_type":"city"}
{"name":"Naledi Local Municipality","other_names":{"ref":"NW392"},"display_name":"Naledi Local Municipality, Dr Ruth Segomotsi Mompati District Municipality, North West, South Africa","address":{"city":"Naledi Local Municipality","county":"Dr Ruth Segomotsi Mompati District Municipality","state":"North West","ISO3166-2-lvl4":"ZA-NW","country":"South Africa","country_code":"za"},"osm_type":"relation","osm_id":611663,"type":"administrative","location":[24.762475258511977,-26.81452],"bbox":[24.26585,-27.42442,25.42154,-26.20525],"inferred_type":"city"}
{"name":"Naledi Local Municipality","other_names":{"ref":"FS164","old_ref":"FS171"},"display_name":"Naledi Local Municipality, Xhariep District Municipality, Free State, South Africa","address":{"city":"Naledi Local Municipality","county":"Xhariep District Municipality","state":"Free State","ISO3166-2-lvl4":"ZA-FS","country":"South Africa","country_code":"za"},"osm_type":"relation","osm_id":593814,"type":"administrative","location":[26.884979517409548,-29.697725],"bbox":[26.20932,-30.11185,27.21636,-29.28133],"inferred_type":"city"}
{"name":"Nama Khoi Local Municipality","other_names":{"ref":"NC062"},"display_name":"Nama Khoi Local Municipality, Namakwa District Municipality, Northern Cape, South Africa","address":{"city":"Nama Khoi Local Municipality","county":"Namakwa District Municipality","state":"Northern Cape","ISO3166-2-lvl4":"ZA-NC","country":"South Africa","country_code":"za"},"osm_type":"relation","osm_id":81968,"type":"administrative","location":[18.101967701908958,-29.390525],"bbox":[16.99257,-30.09503,18.8084507,-28.68556],"inferred_type":"city"}
{"name":"Ndlambe Local Municipality","other_names":{"ref":"EC105"},"display_name":"Ndlambe Local Municipality, Sarah Baartman District Municipality, Eastern Cape, South Africa","address":{"city":"Ndlambe Local Municipality","county":"Sarah Baartman District Municipality","state":"Eastern Cape","ISO3166-2-lvl4":"ZA-EC","country":"South Africa","country_code":"za"},"osm_type":"relation","osm_id":88135,"type":"administrative","location":[26.85254747351594,-33.5103056],"bbox":[26.33185,-33.75659,27.1355747,-33.26424],"inferred_type":"city"}
{"name":"Ndwedwe Local Municipality","other_names":{"ref":"KZN293"},"display_name":"Ndwedwe Local Municipality, iLembe District Municipality, KwaZulu-Natal, 3248, South Africa","address":{"city":"Ndwedwe Local Municipality","county":"iLembe District Municipality","state":"KwaZulu-Natal","ISO3166-2-lvl4":"ZA-KZN","postcode":"3248","country":"South Africa","country_code":"za"},"osm_type":"relation","osm_id":611250,"type":"administrative","location":[31.026527372790117,-29.4021449],"bbox":[30.7025199,-29.6275899,31.2639899,-29.1767099],"inferred_type":"city"}
{"name":"Newcastle Local Municipality","other_names":{"ref":"KZN252"},"display_name":"Newcastle Local Municipality, Amajuba District Municipality, KwaZulu-Natal, South Africa","address":{"city":"Newcastle Local Municipality","county":"Amajuba District Municipality","state":"KwaZulu-Natal","ISO3166-2-lvl4":"ZA-KZN","country":"South Africa","country_code":"za"},"osm_type":"relation","osm_id":611072,"type":"administrative","location":[29.87331505,-27.6965601],"bbox":[29.6538,-28.0164799,30.2130499,-27.37653],"inferred_type":"city"}
{"name":"Newcastle","other_names":{"name:en":"Newcastle","name:ru":"Ньюкасл"},"display_name":"Newcastle, Newcastle Local Municipality, Amajuba District Municipality, KwaZulu-Natal, 2940, South Africa","address":{"city":"Newcastle","county":"Amajuba District Municipality","state":"KwaZulu-Natal","ISO3166-2-lvl4":"ZA-KZN","postcode":"2940","country":"South Africa","country_code":"za"},"population":363236,"osm_type":"node","osm_id":30670039,"type":"city","location":[29.932561,-27.7544581],"bbox":[29.772561,-27.9144581,30.092561,-27.5944581]}
{"name":"Ngqushwa Local Municipality","other_names":{"ref":"EC126"},"display_name":"Ngqushwa Local Municipality, Amathole District Municipality, Eastern Cape, South Africa","address":{"city":"Ngqushwa Local Municipality","county":"Amathole District Municipality","state":"Eastern Cape","ISO3166-2-lvl4":"ZA-EC","country":"South Africa","country_code":"za"},"osm_type":"relation","osm_id":88220,"type":"administrative","location":[27.18190305418721,-33.192980000000006],"bbox":[26.82036,-33.4962643,27.50391,-32.88969],"inferred_type":"city"}
{"name":"Ngwathe Local Municipality","other_names":{"ref":"FS203"},"display_name":"Ngwathe Local Municipality, Fezile Dabi District Municipality, Free State, South Africa","address":{"city":"Ngwathe Local Municipality","county":"Fezile Dabi District Municipality","state":"Free State","ISO3166-2-lvl4":"ZA-FS","country":"South Africa","country_code":"za"},"osm_type":"relation","osm_id":593828,"type":"administrative","location":[27.808402150392155,-27.28164],"bbox":[27.129146,-27.830751,28.28988,-26.73235],"inferred_type":"city"}
{"name":"Nkandla Local Municipality","other_names":{"ref":"KZN286"},"display_name":"Nkandla Local Municipality, King Cetswayo District Municipality, KwaZulu-Natal, South Africa","address":{"city":"Nkandla Local Municipality","county":"King Cetswayo District Municipality","state":"KwaZulu-Natal","ISO3166-2-lvl4":"ZA-KZN","country":"South Africa","country_code":"za"},"osm_type":"relation","osm_id":611179,"type":"administrative","location":[30.964310982656585,-28.64692],"bbox":[30.6206775,-28.9010979,31.3487699,-28.3927599],"inferred_type":"city"}
{"name":"Nketoana Local Municipality","other_names":{"ref":"FS193"},"display_name":"Nketoana Local Municipality, Thabo Mofutsanyana District Municipality, Free State, 9810, South Africa","address":{"city":"Nketoana Local Municipality","county":"Thabo Mofutsanyana District Municipality","state":"Free State","ISO3166-2-lvl4":"ZA-FS","postcode":"9810","country":"South Africa","country_code":"za"},"osm_type":"relation","osm_id":593831,"type":"administrative","location":[28.324857998963193,-27.865180000000002],"bbox":[27.69537,-28.247981,28.80773,-27.48178],"inferred_type":"city"}
{"name":"Nkomazi","other_names":{"ref":"MP324"},"display_name":"Nkomazi, Ehlanzeni, Mpumalanga, South Africa","address":{"city":"Nkomazi","county":"Ehlanzeni","state":"Mpumalanga","ISO3166-2-lvl4":"ZA-MP","country":"South Africa","country_code":"za"},"osm_type":"relation","osm_id":611625,"type":"administrative","location":[31.747513502141224,-25.475614999999998],"bbox":[31.25716,-25.9996,32.0318083,-24.953233],"inferred_type":"city"}
{"name":"Nkonkobe Local Municipality","other_names":{"ref":"EC127"},"display_name":"Nkonkobe Local Municipality, Amathole District Municipality, Eastern Cape, South Africa","address":{"city":"Nkonkobe Local Municipality","county":"Amathole District Municipality","state":"Eastern Cape","ISO3166-2-lvl4":"ZA-EC","country":"South Africa","country_code":"za"},"osm_type":"relation","osm_id":88251,"type":"administrative","location":[26.714310211251703,-32.7263],"bbox":[26.40143,-33.12489,27.23377,-32.32739],"inferred_type":"city"}
{"name":"Nongoma Local Municipality","other_names":{"ref":"KZN265"},"display_name":"Nongoma Local Municipality, Zululand District Municipality, KwaZulu-Natal, 3950, South Africa","address":{"city":"Nongoma Local Municipality","county":"Zululand District Municipality","state":"KwaZulu-Natal","ISO3166-2-lvl4":"ZA-KZN","postcode":"3950","country":"South Africa","country_code":"za"},"osm_type":"relation","osm_id":611109,"type":"administrative","location":[31.744663134598547,-27.9063801],"bbox":[31.4561599,-28.2330801,32.0318799,-27.5796399],"inferred_type":"city"}
{"name":"Nquthu Local Municipality","other_names":{"ref":"KZN242"},"display_name":"Nquthu Local Municipality, Umzinyathi District Municipality, KwaZulu-Natal, 3135, South Africa","address":{"city":"Nquthu Local Municipality","county":"Umzinyathi District Municipality","state":"KwaZulu-Natal","ISO3166-2-lvl4":"ZA-KZN","postcode":"3135","country":"South Africa","country_code":"za"},"osm_type":"relation","osm_id":611023,"type":"administrative","location":[30.742279710360997,-28.2981299],"bbox":[30.4956599,-28.6651999,31.0475649,-27.9314399],"inferred_type":"city"}
{"name":"Ntabankulu Local Municipality","other_names":{"ref":"EC152"},"display_name":"Ntabankulu Local Municipality, Alfred Nzo District Municipality, Eastern Cape, South Africa","address":{"city":"Ntabankulu Local Municipality","county":"Alfred Nzo District Municipality","state":"Eastern Cape","ISO3166-2-lvl4":"ZA-EC","country":"South Africa","country_code":"za"},"osm_type":"relation","osm_id":88490,"type":"administrative","location":[29.279422925333332,-30.99606515],"bbox":[29.05711,-31.29833,29.5623,-30.69387],"inferred_type":"city"}
{"name":"Ntambanana Local Municipality","other_names":{"ref":"KZN283"},"display_name":"Ntambanana Local Municipality, King Cetswayo District Municipality, KwaZulu-Natal, South Africa","address":{"city":"Ntambanana Local Municipality","county":"King Cetswayo District Municipality","state":"KwaZulu-Natal","ISO3166-2-lvl4":"ZA-KZN","country":"South Africa","country_code":"za"},"osm_type":"relation","osm_id":611182,"type":"administrative","location":[31.690571492179707,-28.5641051],"bbox":[31.4876499,-28.7588201,31.9180799,-28.3685299],"inferred_type":"city"}
{"name":"Nxuba Local Municipality","other_names":{"ref":"EC128"},"display_name":"Nxuba Local Municipality, Amathole District Municipality, Eastern Cape, South Africa","address":{"city":"Nxuba Local Municipality","county":"Amathole District Municipality","state":"Eastern Cape","ISO3166-2-lvl4":"ZA-EC","country":"South Africa","country_code":"za"},"osm_type":"relation","osm_id":88257,"type":"administrative","location":[26.30634982956876,-32.622045],"bbox":[25.88731,-32.973389,26.64443,-32.271745],"inferred_type":"city"}
{"name":"Nyandeni Local Municipality","other_names":{"ref":"EC155"},"display_name":"Nyandeni Local Municipality, O.R. Tambo District Municipality, Eastern Cape, 5160, South Africa","address":{"city":"Nyandeni Local Municipality","county":"O.R. Tambo District Municipality","state":"Eastern Cape","ISO3166-2-lvl4":"ZA-EC","postcode":"5160","country":"South Africa","country_code":"za"},"osm_type":"relation","osm_id":88540,"type":"administrative","location":[29.051823981435646,-31.610375],"bbox":[28.75468,-31.9506725,29.3275376,-31.270052],"inferred_type":"city"}
{"name":"Okhahlamba Local Municipality","other_names":{"ref":"KZN235","name:de":"Okhahlamba","name:en":"Okhahlamba Local Municipality","name:it":"Municipalità locale di Okhahlamba","name:nl":"Okhahlamba","name:pl":"Okhahlamba"},"display_name":"Okhahlamba Local Municipality, Uthukela District Municipality, KwaZulu-Natal, South Africa","address":{"city":"Okhahlamba Local Municipality","county":"Uthukela District Municipality","state":"KwaZulu-Natal","ISO3166-2-lvl4":"ZA-KZN","country":"South Africa","country_code":"za"},"osm_type":"relation","osm_id":611002,"type":"administrative","location":[29.336990164322252,-28.7605199],"bbox":[28.8734799,-29.1492062,29.7619399,-28.3719],"inferred_type":"city"}
{"name":"Overstrand Local Municipality","other_names":{"ref":"WC032"},"display_name":"Overstrand Local Municipality, Overberg District Municipality, Western Cape, South Africa","address":{"city":"Overstrand Local Municipality","county":"Overberg District Municipality","state":"Western Cape","ISO3166-2-lvl4":"ZA-WC","country":"South Africa","country_code":"za"},"osm_type":"relation","osm_id":79677,"type":"administrative","location":[19.530757657142857,-34.49458],"bbox":[18.80954,-34.7853734,19.74,-34.2035279],"inferred_type":"city"}
{"name":"Paarl","other_names":{"name:ml":"പാർൾ"},"display_name":"Paarl, Drakenstein Local Municipality, Cape Winelands District Municipality, Western Cape, 7622, South Africa","address":{"city":"Paarl","county":"Cape Winelands District Municipality","state":"Western Cape","ISO3166-2-lvl4":"ZA-WC","postcode":"7622","country":"South Africa","country_code":"za"},"population":112045,"osm_type":"node","osm_id":30670037,"type":"city","location":[18.9642117,-33.7310282],"bbox":[18.8042117,-33.8910282,19.1242117,-33.5710282]}
{"name":"Phokwane Local Municipality","other_names":{"ref":"NC094"},"display_name":"Phokwane Local Municipality, Frances Baard District Municipality, Northern Cape, South Africa","address":{"city":"Phokwane Local Municipality","county":"Frances Baard District Municipality","state":"Northern Cape","ISO3166-2-lvl4":"ZA-NC","country":"South Africa","country_code":"za"},"osm_type":"relation","osm_id":86698,"type":"administrative","location":[24.81065480584416,-27.7985459],"bbox":[24.61552,-27.99482,25.04791,-27.60464],"inferred_type":"city"}
{"name":"Phumelela Local Municipality","other_names":{"ref":"FS195"},"display_name":"Phumelela Local Municipality, Thabo Mofutsanyana District Municipality, Free State, South Africa","address":{"city":"Phumelela Local Municipality","county":"Thabo Mofutsanyana District Municipality","state":"Free State","ISO3166-2-lvl4":"ZA-FS","country":"South Africa","country_code":"za"},"osm_type":"relation","osm_id":593824,"type":"administrative","location":[29.222879290450933,-27.63487],"bbox":[28.71599,-28.2654399,29.78513,-27.00383],"inferred_type":"city"}
{"name":"Pietermaritzburg","other_names":{"name:en":"Pietermaritzburg","name:ko":"피터마리츠버그","name:ru":"Питермарицбург","name:uk":"Пітермаріцбург"},"display_name":"Pietermaritzburg, Msunduzi Local Municipality, uMgungundlovu District Municipality, KwaZulu-Natal, 3201, South Africa","address":{"city":"Pietermaritzburg","county":"uMgungundlovu District Municipality","state":"KwaZulu-Natal","ISO3166-2-lvl4":"ZA-KZN","postcode":"3201","country":"South Africa","country_code":"za"},"population":618536,"osm_type":"node","osm_id":30211844,"type":"city","location":[30.3788889,-29.6],"bbox":[30.2188889,-29.76,30.5388889,-29.44]}
{"name":"Pixley Ka Seme Local Municipality","other_names":{"ref":"MP304"},"display_name":"Pixley Ka Seme Local Municipality, Gert Sibande, Mpumalanga, South Africa","address":{"city":"Pixley Ka Seme Local Municipality","county":"Gert Sibande","state":"Mpumalanga","ISO3166-2-lvl4":"ZA-MP","country":"South Africa","country_code":"za"},"osm_type":"relation","osm_id":611618,"type":"administrative","location":[29.994453997975718,-27.102449999999997],"bbox":[29.41886,-27.50615,30.56691,-26.69772],"inferred_type":"city"}
{"name":"Polokwane Local Municipality","other_names":{"ref":"LIM354"},"display_name":"Polokwane Local Municipality, Capricorn District Municipality, Limpopo, South Africa","address":{"city":"Polokwane Local Municipality","county":"Capricorn District Municipality","state":"Limpopo","ISO3166-2-lvl4":"ZA-LP","country":"South Africa","country_code":"za"},"osm_type":"relation","osm_id":611505,"type":"administrative","location":[29.50253538988313,-23.960504999999998],"bbox":[29.12004,-24.29691,29.92818,-23.61248],"inferred_type":"city"}
{"name":"Polokwane","other_names":{"name:de":"Polokwane","name:en":"Polokwane","name:ko":"폴로콰네","name:ru":"Полокване","old_name":"Pietersburg"},"display_name":"Polokwane, Polokwane Local Municipality, Capricorn District Municipality, Limpopo, 0699, South Africa","address":{"city":"Polokwane","county":"Capricorn District Municipality","state":"Limpopo","ISO3166-2-lvl4":"ZA-LP","postcode":"0699","country":"South Africa","country_code":"za"},"population":628999,"osm_type":"node","osm_id":304577692,"type":"city","location":[29.4613889,-23.9058333],"bbox":[29.3013889,-24.0658333,29.6213889,-23.7458333]}
{"name":"Port St Johns Local Municipality","other_names":{"ref":"EC154"},"display_name":"Port St Johns Local Municipality, O.R. Tambo District Municipality, Eastern Cape, 5120, South Africa","address":{"city":"Port St Johns Local Municipality","county":"O.R. Tambo District Municipality","state":"Eastern Cape","ISO3166-2-lvl4":"ZA-EC","postcode":"5120","country":"South Africa","country_code":"za"},"osm_type":"relation","osm_id":88527,"type":"administrative","location":[29.471735340909092,-31.551195],"bbox":[29.24657,-31.808206,29.6896875,-31.29421],"inferred_type":"city"}
{"name":"Potchefstroom","other_names":{"name:en":"Potchefstroom","name:ru":"Почефетрум"},"display_name":"Potchefstroom, Tlokwe Local Municipality, Dr Kenneth Kaunda District Municipality, North West, 2520, South Africa","address":{"city":"Potchefstroom","county":"Dr Kenneth Kaunda District Municipality","state":"North West","ISO3166-2-lvl4":"ZA-NW","postcode":"2520","country":"South Africa","country_code":"za"},"population":43448,"osm_type":"node","osm_id":262721949,"type":"city","location":[27.095833,-26.707778],"bbox":[26.935833,-26.867778,27.255833,-26.547778],"border":{"name":"Potchefstroom","display_name":"Potchefstroom, North West, South Africa","address":{"county":"Potchefstroom","state":"North West","ISO3166-2-lvl4":"ZA-NW","country":"South Africa","country_code":"za"},"osm_type":"way","osm_id":128124419,"type":"administrative","location":[27.102079799860878,-26.7041526],"bbox":[27.0689872,-26.7461798,27.1319955,-26.6621494]}}
{"name":"Pretoria","other_names":{"name:af":"Pretoria","name:am":"ፕሪቶሪያ","name:an":"Pretoria","name:ar":"بريتوريا","name:az":"Pretoriya","name:be":"Прэторыя","name:bg":"Претория","name:bn":"প্রিটোরিয়া","name:bo":"ཕི་རི་ཐོ་རི་ཡ།","name:br":"Pretoria","name:bs":"Pretoria","name:ca":"Pretòria","name:ce":"Претори","name:cs":"Pretoria","name:cy":"Pretoria","name:da":"Pretoria","name:de":"Pretoria","name:el":"Πρετόρια","name:en":"Pretoria","name:eo":"Pretorio","name:es":"Pretoria","name:et":"Pretoria","name:eu":"Pretoria","name:fa":"پرتوریا","name:fi":"Pretoria","name:fr":"Pretoria","name:fy":"Pretoria","name:ga":"Pretoria","name:gd":"Pretoria","name:gl":"Pretoria","name:gn":"Pretoria","name:ha":"Pretoria","name:he":"פרטוריה","name:hi":"प्रॆटोर्य","name:hr":"Pretoria","name:ht":"Pretoria","name:hu":"Pretoria","name:hy":"Պրետորիա","name:ia":"Pretoria","name:id":"Pretoria","name:ie":"Pretoria","name:io":"Pretoria","name:is":"Pretoría","name:it":"Pretoria","name:ja":"プレトリア","name:jv":"Pretoria","name:ka":"პრეტორია","name:kg":"Pretoria","name:kk":"Претория","name:kn":"ಪ್ರೆಟೋರ್ಯ","name:ko":"프리토리아","name:ku":"Pretoria","name:kw":"Pretoria","name:ky":"Претория","name:la":"Prætoria","name:lb":"Pretoria","name:ln":"Pretoria","name:lt":"Pretorija","name:lv":"Pretorija","name:mg":"Pretoria","name:mi":"Piritōria","name:mk":"Преторија","name:ml":"പ്രിട്ടോറിയ","name:mr":"प्रिटोरिया","name:ms":"Pretoria","name:ne":"प्रिटोरीया","name:nl":"Pretoria","name:no":"Pretoria","name:ny":"Pretoria","name:oc":"Pretòria","name:os":"Претори","name:pa":"ਪ੍ਰਿਟੋਰੀਆ","name:pl":"Pretoria","name:ps":"پرتوریا","name:pt":"Pretória","name:qu":"Priturya","name:rm":"Pretoria","name:ro":"Pretoria","name:ru":"Претория","name:sc":"Pretòria","name:se":"Pretoria","name:sh":"Pretoria","name:sk":"Pretória","name:sl":"Pretorija","name:sn":"Pretoria","name:so":"Pretoria","name:sq":"Pretoria","name:sr":"Преторија","name:ss":"IPitoli","name:sv":"Pretoria","name:sw":"Pretoria","name:ta":"பிரிட்டோரியா","name:te":"ప్రిటోరియా","name:tg":"Претория","name:th":"พริทอเรีย","name:tl":"Pretoria","name:tr":"Pretoria","name:ts":"Pitori","name:tt":"Pretoriä","name:ug":"Prétoriye","name:uk":"Преторія","name:ur":"پریٹوریا","name:uz":"Pretoriya","name:ve":"Pretoria","name:vi":"Pretoria","name:vo":"Pretoria","name:xh":"E-Pitoli","name:yo":"Pretoria","name:zh":"比勒陀利亞","name:zu":"iPitoli","name:ast":"Pretoria","name:avk":"Pretoria","name:ceb":"Pretoria","name:ckb":"پرێتۆریا","name:frp":"Pretoria","name:frr":"Pretoria","name:hak":"Pretoria","name:hif":"Pretoria","name:hsb":"Pretoria","name:kab":"Pretoria","name:lfn":"Pretoria","name:lij":"Pretoria","name:lmo":"Pretoria","name:mdf":"Претория","name:nan":"Tshwane","name:nov":"Pretoria","name:nso":"Pretoria","name:pdc":"Pretoria","name:pms":"Pretoria","name:pnb":"پریٹوریا","name:scn":"Pretoria","name:sco":"Pretoria","name:szl":"Pretoria","name:udm":"Претория","name:vec":"Pretoria","name:vep":"Pretorii","name:war":"Pretoria","name:wuu":"比勒陀利亚","name:xmf":"პრეტორია","name:zea":"Pretoria","name:be-tarask":"Прэторыя"},"display_name":"Pretoria, City of Tshwane Metropolitan Municipality, Gauteng, 0142, South Africa","address":{"city":"Pretoria","county":"City of Tshwane Metropolitan Municipality","state":"Gauteng","ISO3166-2-lvl4":"ZA-GP","postcode":"0142","country":"South Africa","country_code":"za"},"population":741651,"osm_type":"node","osm_id":25503669,"type":"city","location":[28.1879101,-25.7459277],"bbox":[28.0279101,-25.9059277,28.3479101,-25.5859277]}
{"name":"Prince Albert Local Municipality","other_names":{"ref":"WC052"},"display_name":"Prince Albert Local Municipality, Central Karoo District Municipality, Western Cape, South Africa","address":{"city":"Prince Albert Local Municipality","county":"Central Karoo District Municipality","state":"Western Cape","ISO3166-2-lvl4":"ZA-WC","country":"South Africa","country_code":"za"},"osm_type":"relation","osm_id":79809,"type":"administrative","location":[22.122002242948916,-32.992925],"bbox":[21.39593,-33.41974,22.95785,-32.55493],"inferred_type":"city"}
{"name":"Ramotshere Moiloa Local Municipality","other_names":{"ref":"NW385"},"display_name":"Ramotshere Moiloa Local Municipality, Ngaka Modiri Molema District Municipality, North West, South Africa","address":{"city":"Ramotshere Moiloa Local Municipality","county":"Ngaka Modiri Molema District Municipality","state":"North West","ISO3166-2-lvl4":"ZA-NW","country":"South Africa","country_code":"za"},"osm_type":"relation","osm_id":611668,"type":"administrative","location":[26.082297577658487,-25.20335],"bbox":[25.6222696,-25.76997,26.51312,-24.6367508],"inferred_type":"city"}
{"name":"Randburg","other_names":{"name:ar":"راندبورغ","name:en":"Randburg"},"display_name":"Randburg, City of Johannesburg Metropolitan Municipality, Gauteng, 2194, South Africa","address":{"city":"Randburg","county":"City of Johannesburg Metropolitan Municipality","state":"Gauteng","ISO3166-2-lvl4":"ZA-GP","postcode":"2194","country":"South Africa","country_code":"za"},"population":335000,"osm_type":"node","osm_id":12173793246,"type":"city","location":[28.0020276,-26.0915852],"bbox":[27.8420276,-26.2515852,28.1620276,-25.9315852]}
{"name":"Randburg","other_names":{"name:ar":"راندبورغ","name:en":"Randburg"},"display_name":"Randburg, City of Johannesburg Metropolitan Municipality, Gauteng, 2194, South Africa","address":{"city":"Randburg","county":"City of Johannesburg Metropolitan Municipality","state":"Gauteng","ISO3166-2-lvl4":"ZA-GP","postcode":"2194","country":"South Africa","country_code":"za"},"population":335000,"osm_type":"node","osm_id":262721987,"type":"city","location":[28.002109,-26.0913588],"bbox":[27.842109,-26.2513588,28.162109,-25.9313588]}
{"name":"Randfontein Local Municipality","other_names":{"ref":"GT482"},"display_name":"Randfontein Local Municipality, West Rand District Municipality, Gauteng, South Africa","address":{"city":"Randfontein Local Municipality","county":"West Rand District Municipality","state":"Gauteng","ISO3166-2-lvl4":"ZA-GP","country":"South Africa","country_code":"za"},"osm_type":"relation","osm_id":599235,"type":"administrative","location":[27.61131947212376,-26.176965],"bbox":[27.46589,-26.30307,27.75348,-26.0511],"inferred_type":"city"}
{"name":"Ratlou Local Municipality","other_names":{"ref":"NW381"},"display_name":"Ratlou Local Municipality, Ngaka Modiri Molema District Municipality, North West, South Africa","address":{"city":"Ratlou Local Municipality","county":"Ngaka Modiri Molema District Municipality","state":"North West","ISO3166-2-lvl4":"ZA-NW","country":"South Africa","country_code":"za"},"osm_type":"relation","osm_id":611664,"type":"administrative","location":[25.116015330914365,-26.137465],"bbox":[24.46507,-26.550295,25.51015,-25.7214188],"inferred_type":"city"}
{"name":"Renosterberg Local Municipality","other_names":{"ref":"NC075"},"display_name":"Renosterberg Local Municipality, Pixley ka Seme District Municipality, Northern Cape, 8795, South Africa","address":{"city":"Renosterberg Local Municipality","county":"Pixley ka Seme District Municipality","state":"Northern Cape","ISO3166-2-lvl4":"ZA-NC","postcode":"8795","country":"South Africa","country_code":"za"},"osm_type":"relation","osm_id":82032,"type":"administrative","location":[24.407740124403546,-30.28705],"bbox":[23.84208,-30.75996,24.950169,-29.81178],"inferred_type":"city"}
{"name":"Richards Bay","other_names":{"name:af":"Richardsbaai","name:en":"Richards Bay","name:ru":"Ричардс-Бей"},"display_name":"Richards Bay, uMhlathuze Local Municipality, King Cetswayo District Municipality, KwaZulu-Natal, 3900, South Africa","address":{"city":"Richards Bay","county":"King Cetswayo District Municipality","state":"KwaZulu-Natal","ISO3166-2-lvl4":"ZA-KZN","postcode":"3900","country":"South Africa","country_code":"za"},"population":57387,"osm_type":"node","osm_id":30225789,"type":"city","location":[32.0577775,-28.7707857],"bbox":[31.8977775,-28.9307857,32.2177775,-28.6107857]}
{"name":"Richmond Local Municipality","other_names":{"ref":"KZN227"},"display_name":"Richmond Local Municipality, uMgungundlovu District Municipality, KwaZulu-Natal, 3780, South Africa","address":{"city":"Richmond Local Municipality","county":"uMgungundlovu District Municipality","state":"KwaZulu-Natal","ISO3166-2-lvl4":"ZA-KZN","postcode":"3780","country":"South Africa","country_code":"za"},"osm_type":"relation","osm_id":610730,"type":"administrative","location":[30.29086409191919,-29.9181399],"bbox":[30.0360599,-30.1134299,30.5254499,-29.7214301],"inferred_type":"city"}
{"name":"Richtersveld Local Municipality","other_names":{"ref":"NC061"},"display_name":"Richtersveld Local Municipality, Namakwa District Municipality, Northern Cape, 8280, South Africa","address":{"city":"Richtersveld Local Municipality","county":"Namakwa District Municipality","state":"Northern Cape","ISO3166-2-lvl4":"ZA-NC","postcode":"8280","country":"South Africa","country_code":"za"},"osm_type":"relation","osm_id":81967,"type":"administrative","location":[16.97106756019435,-28.77385],"bbox":[16.45194,-29.5150047,17.56534,-28.0326748],"inferred_type":"city"}
{"name":"Roodepoort","display_name":"Roodepoort, City of Johannesburg Metropolitan Municipality, Gauteng, 2191, South Africa","address":{"city":"Roodepoort","county":"City of Johannesburg Metropolitan Municipality","state":"Gauteng","ISO3166-2-lvl4":"ZA-GP","postcode":"2191","country":"South Africa","country_code":"za"},"population":325000,"osm_type":"node","osm_id":26417322,"type":"city","location":[27.8858333,-26.1563889],"bbox":[27.7258333,-26.3163889,28.0458333,-25.9963889],"border":{"name":"Roodepoort","display_name":"Roodepoort, City of Johannesburg Metropolitan Municipality, Gauteng, South Africa","address":{"city":"Roodepoort","county":"City of Johannesburg Metropolitan Municipality","state":"Gauteng","ISO3166-2-lvl4":"ZA-GP","country":"South Africa","country_code":"za"},"population":325000,"osm_type":"way","osm_id":692749598,"type":"city","location":[27.8858333,-26.1563889],"bbox":[27.8142109,-26.1977797,27.95614,-25.997732]}}
{"name":"Rustenburg Local Municipality","other_names":{"ref":"NW373"},"display_name":"Rustenburg Local Municipality, Bojanala Platinum District Municipality, North West, South Africa","address":{"city":"Rustenburg Local Municipality","county":"Bojanala Platinum District Municipality","state":"North West","ISO3166-2-lvl4":"ZA-NW","country":"South Africa","country_code":"za"},"osm_type":"relation","osm_id":611672,"type":"administrative","location":[27.333366638709677,-25.70249],"bbox":[27.00158,-26.1175,27.64652,-25.28663],"inferred_type":"city"}
{"name":"Rustenburg","other_names":{"name:bg":"Рустенбург","name:en":"Rustenburg","name:eo":"Rustenburgo","name:ko":"루스텐버그","name:pt":"Rustemburgo","name:ru":"Рюстенбург","name:uk":"Рустенбург"},"display_name":"Rustenburg, Rustenburg Local Municipality, Bojanala Platinum District Municipality, North West, 2999, South Africa","address":{"city":"Rustenburg","county":"Bojanala Platinum District Municipality","state":"North West","ISO3166-2-lvl4":"ZA-NW","postcode":"2999","country":"South Africa","country_code":"za"},"population":549575,"osm_type":"node","osm_id":30391973,"type":"city","location":[27.241448,-25.665655],"bbox":[27.081448,-25.825655,27.401448,-25.505655]}
{"name":"Sakhisizwe Local Municipality","other_names":{"ref":"EC138"},"display_name":"Sakhisizwe Local Municipality, Chris Hani District Municipality, Eastern Cape, 5460, South Africa","address":{"city":"Sakhisizwe Local Municipality","county":"Chris Hani District Municipality","state":"Eastern Cape","ISO3166-2-lvl4":"ZA-EC","postcode":"5460","country":"South Africa","country_code":"za"},"osm_type":"relation","osm_id":88476,"type":"administrative","location":[27.78439848906561,-31.467815],"bbox":[27.41596,-31.73221,28.2607,-31.20296],"inferred_type":"city"}
{"name":"Saldanha Bay Local Municipality","other_names":{"ref":"WC014"},"display_name":"Saldanha Bay Local Municipality, West Coast District Municipality, Western Cape, South Africa","address":{"city":"Saldanha Bay Local Municipality","county":"West Coast District Municipality","state":"Western Cape","ISO3166-2-lvl4":"ZA-WC","country":"South Africa","country_code":"za"},"osm_type":"relation","osm_id":79632,"type":"administrative","location":[18.273183881194342,-33.01047],"bbox":[17.84384,-33.3203506,18.53855,-32.70041],"inferred_type":"city"}
{"name":"Sandton","display_name":"Sandton, City of Johannesburg Metropolitan Municipality, Gauteng, 2146, South Africa","address":{"city":"Sandton","county":"City of Johannesburg Metropolitan Municipality","state":"Gauteng","ISO3166-2-lvl4":"ZA-GP","postcode":"2146","country":"South Africa","country_code":"za"},"population":222415,"osm_type":"node","osm_id":5283928101,"type":"city","location":[28.0545147,-26.1045525],"bbox":[27.8945147,-26.2645525,28.2145147,-25.9445525]}
{"name":"Secunda","other_names":{"name:ru":"Секунда"},"display_name":"Secunda, Govan Mbeki, Gert Sibande, Mpumalanga, 2302, South Africa","address":{"city":"Secunda","county":"Gert Sibande","state":"Mpumalanga","ISO3166-2-lvl4":"ZA-MP","postcode":"2302","country":"South Africa","country_code":"za"},"population":40198,"osm_type":"node","osm_id":28385456,"type":"city","location":[29.202778,-26.516111],"bbox":[29.042778,-26.676111,29.362778,-26.356111]}
{"name":"Senqu Local Municipality","other_names":{"ref":"EC142"},"display_name":"Senqu Local Municipality, Joe Gqabi District Municipality, Eastern Cape, South Africa","address":{"city":"Senqu Local Municipality","county":"Joe Gqabi District Municipality","state":"Eastern Cape","ISO3166-2-lvl4":"ZA-EC","country":"South Africa","country_code":"za"},"osm_type":"relation","osm_id":88482,"type":"administrative","location":[27.628231194877884,-30.866365000000002],"bbox":[26.99808,-31.4223,28.16229,-30.3130221],"inferred_type":"city"}
{"name":"Setsoto Local Municipality","other_names":{"ref":"FS191"},"display_name":"Setsoto Local Municipality, Thabo Mofutsanyana District Municipality, Free State, South Africa","address":{"city":"Setsoto Local Municipality","county":"Thabo Mofutsanyana District Municipality","state":"Free State","ISO3166-2-lvl4":"ZA-FS","country":"South Africa","country_code":"za"},"osm_type":"relation","osm_id":593830,"type":"administrative","location":[27.52886936764706,-28.56969],"bbox":[27.03721,-29.110185,28.1016473,-28.02925],"inferred_type":"city"}
{"name":"Siyancuma Local Municipality","other_names":{"ref":"NC078"},"display_name":"Siyancuma Local Municipality, Pixley ka Seme District Municipality, Northern Cape, South Africa","address":{"city":"Siyancuma Local Municipality","county":"Pixley ka Seme District Municipality","state":"Northern Cape","ISO3166-2-lvl4":"ZA-NC","country":"South Africa","country_code":"za"},"osm_type":"relation","osm_id":82035,"type":"administrative","location":[23.4446295213124,-29.052025],"bbox":[22.04187,-29.66158,24.69178,-28.44446],"inferred_type":"city"}
{"name":"Siyathemba Local Municipality","other_names":{"ref":"NC077"},"display_name":"Siyathemba Local Municipality, Pixley ka Seme District Municipality, Northern Cape, South Africa","address":{"city":"Siyathemba Local Municipality","county":"Pixley ka Seme District Municipality","state":"Northern Cape","ISO3166-2-lvl4":"ZA-NC","country":"South Africa","country_code":"za"},"osm_type":"relation","osm_id":82034,"type":"administrative","location":[22.52017633268437,-29.59172],"bbox":[21.72161,-30.23813,23.3499374,-28.94607],"inferred_type":"city"}
{"name":"Sol Plaatje Local Municipality","other_names":{"ref":"NC091"},"display_name":"Sol Plaatje Local Municipality, Frances Baard District Municipality, Northern Cape, South Africa","address":{"city":"Sol Plaatje Local Municipality","county":"Frances Baard District Municipality","state":"Northern Cape","ISO3166-2-lvl4":"ZA-NC","country":"South Africa","country_code":"za"},"osm_type":"relation","osm_id":86695,"type":"administrative","location":[24.46556575640674,-28.73743255],"bbox":[24.0577325,-29.05099,24.90184,-28.42235],"inferred_type":"city"}
{"name":"Soweto","other_names":{"name:he":"סווטו","name:ko":"소웨토"},"display_name":"Soweto, City of Johannesburg Metropolitan Municipality, Gauteng, 1852, South Africa","address":{"city":"Soweto","county":"City of Johannesburg Metropolitan Municipality","state":"Gauteng","ISO3166-2-lvl4":"ZA-GP","postcode":"1852","country":"South Africa","country_code":"za"},"population":1270000,"osm_type":"node","osm_id":27565050,"type":"city","location":[27.89,-26.2227778],"bbox":[27.73,-26.3827778,28.05,-26.0627778]}
{"name":"Stellenbosch Local Municipality","other_names":{"ref":"WC024","name:es":"Municipio local de Stellenbosch"},"display_name":"Stellenbosch Local Municipality, Cape Winelands District Municipality, Western Cape, South Africa","address":{"city":"Stellenbosch Local Municipality","county":"Cape Winelands District Municipality","state":"Western Cape","ISO3166-2-lvl4":"ZA-WC","country":"South Africa","country_code":"za"},"osm_type":"relation","osm_id":79655,"type":"administrative","location":[18.976749775255854,-33.9277345],"bbox":[18.70833,-34.06339,19.2438,-33.79336],"inferred_type":"city"}
{"name":"Steve Tshwete","other_names":{"ref":"MP313","name:de":"Steve Tshwete","name:en":"Steve Tshwete Local Municipality","name:it":"Municipalità locale di Steve Tshwete","name:nl":"Steve Tshwete","name:pl":"Steve Tshwete","name:ru":"Стив Тшвете"},"display_name":"Steve Tshwete, Nkangala, Mpumalanga, South Africa","address":{"city":"Steve Tshwete","county":"Nkangala","state":"Mpumalanga","ISO3166-2-lvl4":"ZA-MP","country":"South Africa","country_code":"za"},"osm_type":"relation","osm_id":611633,"type":"administrative","location":[29.557796377857887,-25.830873699999998],"bbox":[29.1681,-26.25388,29.87696,-25.40652],"inferred_type":"city"}
{"name":"Sundays River Valley Local Municipality","other_names":{"ref":"EC106"},"display_name":"Sundays River Valley Local Municipality, Sarah Baartman District Municipality, Eastern Cape, South Africa","address":{"city":"Sundays River Valley Local Municipality","county":"Sarah Baartman District Municipality","state":"Eastern Cape","ISO3166-2-lvl4":"ZA-EC","country":"South Africa","country_code":"za"},"osm_type":"relation","osm_id":88121,"type":"administrative","location":[25.520632058927866,-33.543215000000004],"bbox":[24.63419,-33.8369,26.53005,-33.2502],"inferred_type":"city"}
{"name":"Swartland Local Municipality","other_names":{"ref":"WC015"},"display_name":"Swartland Local Municipality, West Coast District Municipality, Western Cape, South Africa","address":{"city":"Swartland Local Municipality","county":"West Coast District Municipality","state":"Western Cape","ISO3166-2-lvl4":"ZA-WC","country":"South Africa","country_code":"za"},"osm_type":"relation","osm_id":79633,"type":"administrative","location":[18.599382501779992,-33.29356],"bbox":[18.07214,-33.68703,18.99742,-32.9000204],"inferred_type":"city"}
{"name":"Swellendam Local Municipality","other_names":{"ref":"WC034"},"display_name":"Swellendam Local Municipality, Overberg District Municipality, Western Cape, South Africa","address":{"city":"Swellendam Local Municipality","county":"Overberg District Municipality","state":"Western Cape","ISO3166-2-lvl4":"ZA-WC","country":"South Africa","country_code":"za"},"osm_type":"relation","osm_id":79679,"type":"administrative","location":[20.497241002760326,-34.03721],"bbox":[19.8808538,-34.45244,21.01034,-33.62197],"inferred_type":"city"}
{"name":"Thaba Chweu Local Municipality","other_names":{"ref":"MP321"},"display_name":"Thaba Chweu Local Municipality, Ehlanzeni, Mpumalanga, South Africa","address":{"city":"Thaba Chweu Local Municipality","county":"Ehlanzeni","state":"Mpumalanga","ISO3166-2-lvl4":"ZA-MP","country":"South Africa","country_code":"za"},"osm_type":"relation","osm_id":611623,"type":"administrative","location":[30.60120906653249,-24.97478],"bbox":[29.97895,-25.49248,31.03159,-24.46022],"inferred_type":"city"}
{"name":"Thaba Nchu","display_name":"Thaba Nchu, Mangaung Metropolitan Municipality, Free State, 9783, South Africa","address":{"city":"Thaba Nchu","county":"Mangaung Metropolitan Municipality","state":"Free State","ISO3166-2-lvl4":"ZA-FS","postcode":"9783","country":"South Africa","country_code":"za"},"population":70118,"osm_type":"node","osm_id":1375502866,"type":"city","location":[26.832217,-29.197875],"bbox":[26.672217,-29.357875,26.992217,-29.037875]}
{"name":"Thabazimbi Local Municipality","other_names":{"ref":"LIM361"},"display_name":"Thabazimbi Local Municipality, Waterberg District Municipality, Limpopo, South Africa","address":{"city":"Thabazimbi Local Municipality","county":"Waterberg District Municipality","state":"Limpopo","ISO3166-2-lvl4":"ZA-LP","country":"South Africa","country_code":"za"},"osm_type":"relation","osm_id":611539,"type":"administrative","location":[27.068959033758205,-24.39373475],"bbox":[26.40754,-25.09798,27.99216,-23.6893349],"inferred_type":"city"}
{"name":"The Big Five False Bay Local Municipality","other_names":{"ref":"KZN273"},"display_name":"The Big Five False Bay Local Municipality, Umkhanyakude District Municipality, KwaZulu-Natal, 3960, South Africa","address":{"city":"The Big Five False Bay Local Municipality","county":"Umkhanyakude District Municipality","state":"KwaZulu-Natal","ISO3166-2-lvl4":"ZA-KZN","postcode":"3960","country":"South Africa","country_code":"za"},"osm_type":"relation","osm_id":610713,"type":"administrative","location":[32.38387484868156,-27.849499899999998],"bbox":[32.0327931,-28.1531799,32.6790985,-27.5458396],"inferred_type":"city"}
{"name":"Theewaterskloof Local Municipality","other_names":{"ref":"WC031"},"display_name":"Theewaterskloof Local Municipality, Overberg District Municipality, Western Cape, South Africa","address":{"city":"Theewaterskloof Local Municipality","county":"Overberg District Municipality","state":"Western Cape","ISO3166-2-lvl4":"ZA-WC","country":"South Africa","country_code":"za"},"osm_type":"relation","osm_id":79676,"type":"administrative","location":[19.479585472328232,-34.154129999999995],"bbox":[18.9290698,-34.42969,20.00746,-33.879455],"inferred_type":"city"}
{"name":"Thembelihle Local Municipality","other_names":{"ref":"NC076"},"display_name":"Thembelihle Local Municipality, Pixley ka Seme District Municipality, Northern Cape, South Africa","address":{"city":"Thembelihle Local Municipality","county":"Pixley ka Seme District Municipality","state":"Northern Cape","ISO3166-2-lvl4":"ZA-NC","country":"South Africa","country_code":"za"},"osm_type":"relation","osm_id":82033,"type":"administrative","location":[23.782349021084336,-29.641375],"bbox":[23.2278023,-30.21026,24.47002,-29.07254],"inferred_type":"city"}
{"name":"Thembisile Hani Local Municipality","other_names":{"ref":"MP315","name:de":"Thembisile Hani","name:en":"Thembisile Hani Local Municipality","name:it":"Municipalità locale di Thembisile","name:nl":"Thembisile","name:pl":"Thembisile","name:ru":"Тхембисиле Хани"},"display_name":"Thembisile Hani Local Municipality, Nkangala, Mpumalanga, South Africa","address":{"city":"Thembisile Hani Local Municipality","county":"Nkangala","state":"Mpumalanga","ISO3166-2-lvl4":"ZA-MP","country":"South Africa","country_code":"za"},"osm_type":"relation","osm_id":611635,"type":"administrative","location":[28.936740984848484,-25.490009999999998],"bbox":[28.6154,-25.74536,29.36246,-25.23503],"inferred_type":"city"}
{"name":"Thulamela Local Municipality","other_names":{"ref":"LIM343"},"display_name":"Thulamela Local Municipality, Vhembe District Municipality, Limpopo, South Africa","address":{"city":"Thulamela Local Municipality","county":"Vhembe District Municipality","state":"Limpopo","ISO3166-2-lvl4":"ZA-LP","country":"South Africa","country_code":"za"},"osm_type":"relation","osm_id":611437,"type":"administrative","location":[30.823494543594144,-22.875965100000002],"bbox":[30.1647999,-23.2242828,31.5636,-22.5349097],"inferred_type":"city"}
{"name":"Tlokwe Local Municipality","other_names":{"ref":"NW402","old_name":"Potchefstroom Local Municipality"},"display_name":"Tlokwe Local Municipality, Dr Kenneth Kaunda District Municipality, North West, South Africa","address":{"city":"Tlokwe Local Municipality","county":"Dr Kenneth Kaunda District Municipality","state":"North West","ISO3166-2-lvl4":"ZA-NW","country":"South Africa","country_code":"za"},"osm_type":"relation","osm_id":611660,"type":"administrative","location":[27.18356332713755,-26.749380000000002],"bbox":[26.76466,-26.98049,27.60284,-26.5185527],"inferred_type":"city"}
{"name":"Tokologo Local Municipality","other_names":{"ref":"FS182"},"display_name":"Tokologo Local Municipality, Lejweleputswa District Municipality, Free State, 8340, South Africa","address":{"city":"Tokologo Local Municipality","county":"Lejweleputswa District Municipality","state":"Free State","ISO3166-2-lvl4":"ZA-FS","postcode":"8340","country":"South Africa","country_code":"za"},"osm_type":"relation","osm_id":593835,"type":"administrative","location":[25.326943460367985,-28.375485],"bbox":[24.7977,-28.96537,26.0634,-27.79318],"inferred_type":"city"}
{"name":"Tsantsabane Local Municipality","other_names":{"ref":"NC085"},"display_name":"Tsantsabane Local Municipality, ZF Mgcawu District Municipality, Northern Cape, 8420, South Africa","address":{"city":"Tsantsabane Local Municipality","county":"ZF Mgcawu District Municipality","state":"Northern Cape","ISO3166-2-lvl4":"ZA-NC","postcode":"8420","country":"South Africa","country_code":"za"},"osm_type":"relation","osm_id":82052,"type":"administrative","location":[22.33633775908168,-27.867243000000002],"bbox":[21.6812592,-28.76674,23.70697,-26.9761],"inferred_type":"city"}
{"name":"Tsolwana Local Municipality","other_names":{"ref":"EC132"},"display_name":"Tsolwana Local Municipality, Chris Hani District Municipality, Eastern Cape, 5370, South Africa","address":{"city":"Tsolwana Local Municipality","county":"Chris Hani District Municipality","state":"Eastern Cape","ISO3166-2-lvl4":"ZA-EC","postcode":"5370","country":"South Africa","country_code":"za"},"osm_type":"relation","osm_id":88470,"type":"administrative","location":[26.148639651289308,-31.851585],"bbox":[25.36037,-32.37601,26.70043,-31.32671],"inferred_type":"city"}
{"name":"Tswaing Local Municipality","other_names":{"ref":"NW382"},"display_name":"Tswaing Local Municipality, Ngaka Modiri Molema District Municipality, North West, South Africa","address":{"city":"Tswaing Local Municipality","county":"Ngaka Modiri Molema District Municipality","state":"North West","ISO3166-2-lvl4":"ZA-NW","country":"South Africa","country_code":"za"},"osm_type":"relation","osm_id":611662,"type":"administrative","location":[25.659422435734776,-26.58417],"bbox":[25.09383,-26.96774,26.27579,-26.20036],"inferred_type":"city"}
{"name":"Tswelopele Local Municipality","other_names":{"ref":"FS183"},"display_name":"Tswelopele Local Municipality, Lejweleputswa District Municipality, Free State, South Africa","address":{"city":"Tswelopele Local Municipality","county":"Lejweleputswa District Municipality","state":"Free State","ISO3166-2-lvl4":"ZA-FS","country":"South Africa","country_code":"za"},"osm_type":"relation","osm_id":593833,"type":"administrative","location":[25.974144790626042,-28.077444999999997],"bbox":[25.32353,-28.58895,26.46819,-27.56618],"inferred_type":"city"}
{"name":"Ubuhlebezwe Local Municipality","other_names":{"ref":"KZN434"},"display_name":"Ubuhlebezwe Local Municipality, Sisonke District Municipality, KwaZulu-Natal, South Africa","address":{"city":"Ubuhlebezwe Local Municipality","county":"Sisonke District Municipality","state":"KwaZulu-Natal","ISO3166-2-lvl4":"ZA-KZN","country":"South Africa","country_code":"za"},"osm_type":"relation","osm_id":611320,"type":"administrative","location":[30.166887052,-30.188775],"bbox":[29.8523769,-30.4028999,30.4454899,-29.9746499],"inferred_type":"city"}
{"name":"Ubuntu Local Municipality","other_names":{"ref":"NC071"},"display_name":"Ubuntu Local Municipality, Pixley ka Seme District Municipality, Northern Cape, South Africa","address":{"city":"Ubuntu Local Municipality","county":"Pixley ka Seme District Municipality","state":"Northern Cape","ISO3166-2-lvl4":"ZA-NC","country":"South Africa","country_code":"za"},"osm_type":"relation","osm_id":82028,"type":"administrative","location":[23.140803346693385,-31.40215],"bbox":[21.60824,-31.9777,24.56763,-30.82821],"inferred_type":"city"}
{"name":"Ulundi Local Municipality","other_names":{"ref":"KZN266"},"display_name":"Ulundi Local Municipality, Zululand District Municipality, KwaZulu-Natal, South Africa","address":{"city":"Ulundi Local Municipality","county":"Zululand District Municipality","state":"KwaZulu-Natal","ISO3166-2-lvl4":"ZA-KZN","country":"South Africa","country_code":"za"},"population":29132,"osm_type":"relation","osm_id":611107,"type":"administrative","location":[31.336935491363178,-28.2051549],"bbox":[30.9207299,-28.5525999,31.7424199,-27.8577099],"inferred_type":"city"}
{"name":"uMdoni Local Municipality","other_names":{"ref":"KZN212"},"display_name":"uMdoni Local Municipality, Ugu District Municipality, KwaZulu-Natal, South Africa","address":{"city":"uMdoni Local Municipality","county":"Ugu District Municipality","state":"KwaZulu-Natal","ISO3166-2-lvl4":"ZA-KZN","country":"South Africa","country_code":"za"},"osm_type":"relation","osm_id":610722,"type":"administrative","location":[30.67661776878453,-30.35076],"bbox":[30.5626899,-30.5030377,30.7642829,-30.1985479],"inferred_type":"city"}
{"name":"uMfolozi Local Municipality","other_names":{"ref":"KZN281","old_name":"Mbonambi Local Municipality"},"display_name":"uMfolozi Local Municipality, King Cetswayo District Municipality, KwaZulu-Natal, South Africa","address":{"city":"uMfolozi Local Municipality","county":"King Cetswayo District Municipality","state":"KwaZulu-Natal","ISO3166-2-lvl4":"ZA-KZN","country":"South Africa","country_code":"za"},"osm_type":"relation","osm_id":611177,"type":"administrative","location":[32.131215616641285,-28.5556349],"bbox":[31.8357699,-28.7610909,32.4149197,-28.3504199],"inferred_type":"city"}
{"name":"uMgeni Local Municipality","other_names":{"ref":"KZN222"},"display_name":"uMgeni Local Municipality, uMgungundlovu District Municipality, KwaZulu-Natal, South Africa","address":{"city":"uMgeni Local Municipality","county":"uMgungundlovu District Municipality","state":"KwaZulu-Natal","ISO3166-2-lvl4":"ZA-KZN","country":"South Africa","country_code":"za"},"osm_type":"relation","osm_id":610734,"type":"administrative","location":[30.066310591348195,-29.4424749],"bbox":[29.6899159,-29.6398399,30.4068499,-29.2451099],"inferred_type":"city"}
{"name":"uMhlabuyalingana Local Municipality","other_names":{"ref":"KZN271"},"display_name":"uMhlabuyalingana Local Municipality, Umkhanyakude District Municipality, KwaZulu-Natal, South Africa","address":{"city":"uMhlabuyalingana Local Municipality","county":"Umkhanyakude District Municipality","state":"KwaZulu-Natal","ISO3166-2-lvl4":"ZA-KZN","country":"South Africa","country_code":"za"},"osm_type":"relation","osm_id":610708,"type":"administrative","location":[32.51288575607965,-27.22096625],"bbox":[32.2099101,-27.5868491,32.8914437,-26.8553842],"inferred_type":"city"}
{"name":"uMhlathuze Local Municipality","other_names":{"ref":"KZN282"},"display_name":"uMhlathuze Local Municipality, King Cetswayo District Municipality, KwaZulu-Natal, South Africa","address":{"city":"uMhlathuze Local Municipality","county":"King Cetswayo District Municipality","state":"KwaZulu-Natal","ISO3166-2-lvl4":"ZA-KZN","country":"South Africa","country_code":"za"},"osm_type":"relation","osm_id":611183,"type":"administrative","location":[31.965813017844248,-28.7886787],"bbox":[31.7057799,-28.9553599,32.1542999,-28.6219761],"inferred_type":"city"}
{"name":"Umjindi Local Municipality","other_names":{"ref":"MP323"},"display_name":"Umjindi Local Municipality, Ehlanzeni, Mpumalanga, 1300, South Africa","address":{"city":"Umjindi Local Municipality","county":"Ehlanzeni","state":"Mpumalanga","ISO3166-2-lvl4":"ZA-MP","postcode":"1300","country":"South Africa","country_code":"za"},"osm_type":"relation","osm_id":611621,"type":"administrative","location":[31.01159754054362,-25.742195000000002],"bbox":[30.72509,-25.93476,31.33078,-25.55113],"inferred_type":"city"}
{"name":"uMlalazi Local Municipality","other_names":{"ref":"KZN284"},"display_name":"uMlalazi Local Municipality, King Cetswayo District Municipality, KwaZulu-Natal, South Africa","address":{"city":"uMlalazi Local Municipality","county":"King Cetswayo District Municipality","state":"KwaZulu-Natal","ISO3166-2-lvl4":"ZA-KZN","country":"South Africa","country_code":"za"},"osm_type":"relation","osm_id":611180,"type":"administrative","location":[31.40687634746184,-28.935850000000002],"bbox":[31.0299464,-29.1747957,31.8345799,-28.6970199],"inferred_type":"city"}
{"name":"uMshwathi Local Municipality","other_names":{"ref":"KZN221"},"display_name":"uMshwathi Local Municipality, uMgungundlovu District Municipality, KwaZulu-Natal, South Africa","address":{"city":"uMshwathi Local Municipality","county":"uMgungundlovu District Municipality","state":"KwaZulu-Natal","ISO3166-2-lvl4":"ZA-KZN","country":"South Africa","country_code":"za"},"osm_type":"relation","osm_id":610733,"type":"administrative","location":[30.612487319444444,-29.394565],"bbox":[30.2762999,-29.6253399,30.9194899,-29.1638501],"inferred_type":"city"}
{"name":"Umsobomvu Local Municipality","other_names":{"ref":"NC072"},"display_name":"Umsobomvu Local Municipality, Pixley ka Seme District Municipality, Northern Cape, South Africa","address":{"city":"Umsobomvu Local Municipality","county":"Pixley ka Seme District Municipality","state":"Northern Cape","ISO3166-2-lvl4":"ZA-NC","country":"South Africa","country_code":"za"},"osm_type":"relation","osm_id":82029,"type":"administrative","location":[25.078547455002646,-30.82325],"bbox":[24.52174,-31.41864,25.54933,-30.22484],"inferred_type":"city"}
{"name":"Umtshezi Local Municipality","other_names":{"ref":"KZN234"},"display_name":"Umtshezi Local Municipality, Uthukela District Municipality, KwaZulu-Natal, 3310, South Africa","address":{"city":"Umtshezi Local Municipality","county":"Uthukela District Municipality","state":"KwaZulu-Natal","ISO3166-2-lvl4":"ZA-KZN","postcode":"3310","country":"South Africa","country_code":"za"},"osm_type":"relation","osm_id":611003,"type":"administrative","location":[30.02797661570893,-28.929209999999998],"bbox":[29.70916,-29.2197701,30.2874699,-28.6411399],"inferred_type":"city"}
{"name":"uMuziwabantu Local Municipality","other_names":{"ref":"KZN215"},"display_name":"uMuziwabantu Local Municipality, Ugu District Municipality, KwaZulu-Natal, South Africa","address":{"city":"uMuziwabantu Local Municipality","county":"Ugu District Municipality","state":"KwaZulu-Natal","ISO3166-2-lvl4":"ZA-KZN","country":"South Africa","country_code":"za"},"osm_type":"relation","osm_id":610728,"type":"administrative","location":[29.79771239080271,-30.647739899999998],"bbox":[29.57128,-30.8280701,30.1724699,-30.4673499],"inferred_type":"city"}
{"name":"Umvoti Local Municipality","other_names":{"ref":"KZN245"},"display_name":"Umvoti Local Municipality, Umzinyathi District Municipality, KwaZulu-Natal, South Africa","address":{"city":"Umvoti Local Municipality","county":"Umzinyathi District Municipality","state":"KwaZulu-Natal","ISO3166-2-lvl4":"ZA-KZN","country":"South Africa","country_code":"za"},"osm_type":"relation","osm_id":611027,"type":"administrative","location":[30.66757215304989,-29.005245000000002],"bbox":[30.3252799,-29.2901699,31.0237799,-28.7217799],"inferred_type":"city"}
{"name":"Umzimkhulu Local Municipality","other_names":{"ref":"KZN435"},"display_name":"Umzimkhulu Local Municipality, Sisonke District Municipality, KwaZulu-Natal, South Africa","address":{"city":"Umzimkhulu Local Municipality","county":"Sisonke District Municipality","state":"KwaZulu-Natal","ISO3166-2-lvl4":"ZA-KZN","country":"South Africa","country_code":"za"},"osm_type":"relation","osm_id":611319,"type":"administrative","location":[29.72310725722342,-30.2746899],"bbox":[29.3880299,-30.5859999,30.1206799,-29.9633899],"inferred_type":"city"}
{"name":"Umzimvubu Local Municipality","other_names":{"ref":"EC442"},"display_name":"Umzimvubu Local Municipality, Alfred Nzo District Municipality, Eastern Cape, South Africa","address":{"city":"Umzimvubu Local Municipality","county":"Alfred Nzo District Municipality","state":"Eastern Cape","ISO3166-2-lvl4":"ZA-EC","country":"South Africa","country_code":"za"},"osm_type":"relation","osm_id":88565,"type":"administrative","location":[28.92177617804983,-30.82491],"bbox":[28.541952,-31.07771,29.54468,-30.5722193],"inferred_type":"city"}
{"name":"Umzumbe Local Municipality","other_names":{"ref":"KZN213"},"display_name":"Umzumbe Local Municipality, Ugu District Municipality, KwaZulu-Natal, South Africa","address":{"city":"Umzumbe Local Municipality","county":"Ugu District Municipality","state":"KwaZulu-Natal","ISO3166-2-lvl4":"ZA-KZN","country":"South Africa","country_code":"za"},"osm_type":"relation","osm_id":610725,"type":"administrative","location":[30.353395052485133,-30.4859199],"bbox":[30.0358599,-30.6554099,30.6294034,-30.3165699],"inferred_type":"city"}
{"name":"uPhongolo Local Municipality","other_names":{"ref":"KZN262"},"display_name":"uPhongolo Local Municipality, Zululand District Municipality, KwaZulu-Natal, 3170, South Africa","address":{"city":"uPhongolo Local Municipality","county":"Zululand District Municipality","state":"KwaZulu-Natal","ISO3166-2-lvl4":"ZA-KZN","postcode":"3170","country":"South Africa","country_code":"za"},"osm_type":"relation","osm_id":611110,"type":"administrative","location":[31.708150986443734,-27.540554999999998],"bbox":[31.0324199,-27.8382341,32.0501399,-27.24317],"inferred_type":"city"}
{"name":"Upington","other_names":{"name:en":"Upington","name:ko":"어핑턴","name:ru":"Апингтон","name:uk":"Апінгтон","name:ckb":"ئاپینگتن"},"display_name":"Upington, ǁKhara Hais Local Municipality, ZF Mgcawu District Municipality, Northern Cape, 8815, South Africa","address":{"city":"Upington","county":"ZF Mgcawu District Municipality","state":"Northern Cape","ISO3166-2-lvl4":"ZA-NC","postcode":"8815","country":"South Africa","country_code":"za"},"population":74834,"osm_type":"node","osm_id":33364951,"type":"city","location":[21.241867,-28.456325],"bbox":[21.081867,-28.616325,21.401867,-28.296325]}
{"name":"Ventersdorp Local Municipality","other_names":{"ref":"NW401"},"display_name":"Ventersdorp Local Municipality, Dr Kenneth Kaunda District Municipality, North West, 2710, South Africa","address":{"city":"Ventersdorp Local Municipality","county":"Dr Kenneth Kaunda District Municipality","state":"North West","ISO3166-2-lvl4":"ZA-NW","postcode":"2710","country":"South Africa","country_code":"za"},"osm_type":"relation","osm_id":611669,"type":"administrative","location":[26.90913995151771,-26.320875],"bbox":[26.45844,-26.61248,27.36172,-26.03163],"inferred_type":"city"}
{"name":"Vereeniging","other_names":{"name:ar":"فيرينخن","name:en":"Vereeniging","name:ko":"페레이니힝","name:ml":"വെരിനിഗിംഗ്","name:ru":"Феринихинг","name:uk":"Ферінігінг","alt_name:ar":"فيرينجنغ"},"display_name":"Vereeniging, Emfuleni Local Municipality, Sedibeng District Municipality, Gauteng, 1939, South Africa","address":{"city":"Vereeniging","county":"Sedibeng District Municipality","state":"Gauteng","ISO3166-2-lvl4":"ZA-GP","postcode":"1939","country":"South Africa","country_code":"za"},"population":100000,"osm_type":"node","osm_id":35960525,"type":"city","location":[27.9261111,-26.6747222],"bbox":[27.7661111,-26.8347222,28.0861111,-26.5147222]}
{"name":"Victor Khanye Local Municipality","other_names":{"ref":"MP311","old_name":"Delmas Local Municipality"},"display_name":"Victor Khanye Local Municipality, Nkangala, Mpumalanga, 2210, South Africa","address":{"city":"Victor Khanye Local Municipality","county":"Nkangala","state":"Mpumalanga","ISO3166-2-lvl4":"ZA-MP","postcode":"2210","country":"South Africa","country_code":"za"},"osm_type":"relation","osm_id":611624,"type":"administrative","location":[28.71998556728972,-26.10633],"bbox":[28.4905,-26.34572,29.02671,-25.86973],"inferred_type":"city"}
{"name":"Vulamehlo Local Municipality","other_names":{"ref":"KZN211"},"display_name":"Vulamehlo Local Municipality, Ugu District Municipality, KwaZulu-Natal, South Africa","address":{"city":"Vulamehlo Local Municipality","county":"Ugu District Municipality","state":"KwaZulu-Natal","ISO3166-2-lvl4":"ZA-KZN","country":"South Africa","country_code":"za"},"osm_type":"relation","osm_id":610727,"type":"administrative","location":[30.52117931966916,-30.213026900000003],"bbox":[30.3241399,-30.4150899,30.8287099,-30.0109683],"inferred_type":"city"}
{"name":"Welkom","other_names":{"name:en":"Welkom","name:ko":"벨콤","name:ru":"Велком","name:uk":"Велком"},"display_name":"Welkom, Matjhabeng Local Municipality, Lejweleputswa District Municipality, Free State, 9460, South Africa","address":{"city":"Welkom","county":"Lejweleputswa District Municipality","state":"Free State","ISO3166-2-lvl4":"ZA-FS","postcode":"9460","country":"South Africa","country_code":"za"},"population":64130,"osm_type":"node","osm_id":2269464860,"type":"city","location":[26.737969,-27.982298],"bbox":[26.577969,-28.142298,26.897969,-27.822298]}
{"name":"Westonaria Local Municipality","other_names":{"ref":"GT483"},"display_name":"Westonaria Local Municipality, West Rand District Municipality, Gauteng, South Africa","address":{"city":"Westonaria Local Municipality","county":"West Rand District Municipality","state":"Gauteng","ISO3166-2-lvl4":"ZA-GP","country":"South Africa","country_code":"za"},"osm_type":"relation","osm_id":599253,"type":"administrative","location":[27.642159862293397,-26.430275],"bbox":[27.52521,-26.61774,27.82447,-26.2425938],"inferred_type":"city"}
{"name":"Witzenberg Local Municipality","other_names":{"ref":"WC022"},"display_name":"Witzenberg Local Municipality, Cape Winelands District Municipality, Western Cape, South Africa","address":{"city":"Witzenberg Local Municipality","county":"Cape Winelands District Municipality","state":"Western Cape","ISO3166-2-lvl4":"ZA-WC","country":"South Africa","country_code":"za"},"osm_type":"relation","osm_id":79653,"type":"administrative","location":[19.770018435018986,-32.90383],"bbox":[19.05767,-33.62401,20.4386,-32.18449],"inferred_type":"city"}
{"name":"ǁKhara Hais Local Municipality","other_names":{"ref":"NC083","alt_name":"//Khara Hais Local Municipality"},"display_name":"ǁKhara Hais Local Municipality, ZF Mgcawu District Municipality, Northern Cape, South Africa","address":{"city":"ǁKhara Hais Local Municipality","county":"ZF Mgcawu District Municipality","state":"Northern Cape","ISO3166-2-lvl4":"ZA-NC","country":"South Africa","country_code":"za"},"osm_type":"relation","osm_id":82050,"type":"administrative","location":[21.227564941739324,-27.7328854],"bbox":[20.3895397,-28.71148,21.9997196,-26.7707244],"inferred_type":"city"}
