{"name":"Берово","other_names":{"name:de":"Berovo","name:el":"Μπέροβο","name:en":"Berovo","name:fr":"Berovo","name:hr":"Berovo","name:mk":"Берово","name:pl":"Berowo","name:ru":"Берово","name:sq":"Berova","name:tr":"Berova","int_name":"Berovo"},"display_name":"Берово, Општина Берово, Северна Македонија","address":{"town":"Берово","municipality":"Општина Берово","ISO3166-2-lvl7":"MK-201","country":"Северна Македонија","country_code":"mk"},"population":6490,"osm_type":"node","osm_id":417729806,"type":"town","location":[22.8535559,41.706668],"bbox":[22.8135559,41.666668,22.8935559,41.746668],"border":{"name":"Берово","other_names":{"name:de":"Berovo","name:en":"Berovo","name:fr":"Berovo","name:mk":"Берово","name:pl":"Berowo","name:ru":"Берово","name:sq":"Berova","name:tr":"Berova","int_name":"Berovo","name:el":"Μπέροβο","name:hr":"Berovo"},"display_name":"Берово, Општина Берово, Северна Македонија","address":{"town":"Берово","municipality":"Општина Берово","ISO3166-2-lvl7":"MK-201","country":"Северна Македонија","country_code":"mk"},"population":7002,"osm_type":"relation","osm_id":6866295,"type":"administrative","location":[22.8535559,41.706668],"bbox":[22.8165559,41.6070036,23.01346,41.7368953]}}
{"name":"Богданци","other_names":{"name:ar":"بوغدانتسي","name:bg":"Богданци","name:ce":"Богданци","name:el":"Βογδάντσα","name:en":"Bogdanci","name:hr":"Bogdanci","name:ka":"ბოგდანცი","name:ko":"보그단치","name:lt":"Bogdancai","name:mk":"Богданци","name:ru":"Богданци","name:sq":"Bogdanca","name:sr":"Богданци","name:tr":"Bogdantsi","name:uk":"Богданці","int_name":"Bogdanci","alt_name:el":"Μπογκντάντσι","alt_name:fr":"Bogdantsi","alt_name:sq":"Bogdancë","name:sr-Latn":"Bogdanci","name:zh-Hans":"波格丹齐","name:zh-Hant":"波格丹齊"},"display_name":"Богданци, Општина Богданци, Северна Македонија","address":{"town":"Богданци","municipality":"Општина Богданци","ISO3166-2-lvl7":"MK-401","country":"Северна Македонија","country_code":"mk"},"population":8707,"osm_type":"node","osm_id":417730262,"type":"town","location":[22.577652,41.201607],"bbox":[22.537652,41.161607,22.617652,41.241607],"border":{"name":"Богданци","other_names":{"name:el":"Βογδάντσα","name:en":"Bogdanci","name:mk":"Богданци","name:ru":"Богданци","int_name":"Bogdanci","name:ar":"بوغدانتسي","name:bg":"Богданци","name:ce":"Богданци","name:hr":"Bogdanci","name:ka":"ბოგდანცი","name:ko":"보그단치","name:lt":"Bogdancai","name:sq":"Bogdanca","name:sr":"Богданци","name:tr":"Bogdantsi","name:uk":"Богданці","alt_name:el":"Μπογκντάντσι","alt_name:fr":"Bogdantsi","alt_name:sq":"Bogdancë","name:sr-Latn":"Bogdanci","name:zh-Hans":"波格丹齐","name:zh-Hant":"波格丹齊"},"display_name":"Богданци, Општина Богданци, 1484, Северна Македонија","address":{"town":"Богданци","municipality":"Општина Богданци","ISO3166-2-lvl7":"MK-401","postcode":"1484","country":"Северна Македонија","country_code":"mk"},"population":8707,"osm_type":"relation","osm_id":6882535,"type":"administrative","location":[22.577652,41.201607],"bbox":[22.5301695,41.1706752,22.670846,41.2587772]}}
{"name":"Валандово","other_names":{"name:ar":"فالاندوفو","name:bg":"Валандово","name:ce":"Валандово","name:el":"Βαλάντοβο","name:en":"Valandovo","name:fa":"فالاندوفو","name:hr":"Valandovo","name:ka":"ვალანდოვო","name:kk":"Валандово","name:ko":"발란도보","name:lt":"Valandovas","name:lv":"Valandova","name:mk":"Валандово","name:pl":"Wałandowo","name:ps":"فالاندوفو","name:ru":"Валандово","name:sq":"Vallandova","name:sr":"Валандово","name:tr":"Valandova","name:uk":"Валандово","int_name":"Valandovo","alt_name:sq":"Vallandovë","name:sr-Latn":"Valandovo","name:zh-Hans":"瓦兰多沃","name:zh-Hant":"瓦蘭多沃"},"display_name":"Валандово, Општина Валандово, Северна Македонија","address":{"town":"Валандово","municipality":"Општина Валандово","ISO3166-2-lvl7":"MK-403","country":"Северна Македонија","country_code":"mk"},"osm_type":"node","osm_id":412192203,"type":"town","location":[22.5619765,41.3173419],"bbox":[22.5219765,41.2773419,22.6019765,41.3573419],"border":{"name":"Валандово","other_names":{"name:el":"Βαλάντοβο","name:en":"Valandovo","name:mk":"Валандово","name:ru":"Валандово","int_name":"Valandovo","name:ar":"فالاندوفو","name:bg":"Валандово","name:ce":"Валандово","name:fa":"فالاندوفو","name:hr":"Valandovo","name:ka":"ვალანდოვო","name:kk":"Валандово","name:ko":"발란도보","name:lt":"Valandovas","name:lv":"Valandova","name:pl":"Wałandowo","name:ps":"فالاندوفو","name:sq":"Vallandova","name:sr":"Валандово","name:tr":"Valandova","name:uk":"Валандово","alt_name:sq":"Vallandovë","name:sr-Latn":"Valandovo","name:zh-Hans":"瓦兰多沃","name:zh-Hant":"瓦蘭多沃"},"display_name":"Валандово, Општина Валандово, 2460, Северна Македонија","address":{"town":"Валандово","municipality":"Општина Валандово","ISO3166-2-lvl7":"MK-403","postcode":"2460","country":"Северна Македонија","country_code":"mk"},"osm_type":"relation","osm_id":6506279,"type":"administrative","location":[22.5619765,41.3173419],"bbox":[22.5289142,41.2722267,22.5754881,41.3433735]}}
{"name":"Виница","other_names":{"name:el":"Βίνιτσα","name:en":"Vinica","name:hr":"Vinica","name:mk":"Виница","name:ru":"Виница","name:sr":"Виница","name:tr":"Vinica","int_name":"Vinica"},"display_name":"Виница, Општина Виница, Северна Македонија","address":{"town":"Виница","municipality":"Општина Виница","ISO3166-2-lvl7":"MK-202","country":"Северна Македонија","country_code":"mk"},"population":10590,"osm_type":"node","osm_id":418352424,"type":"town","location":[22.5044468,41.8847356],"bbox":[22.4644468,41.8447356,22.5444468,41.9247356],"border":{"name":"Виница","other_names":{"name:en":"Vinica","name:mk":"Виница","name:ru":"Виница","name:sq":"Vinica","name:tr":"Vinica","int_name":"Vinica","name:el":"Βίνιτσα","name:hr":"Vinica","name:sr":"Виница"},"display_name":"Виница, Општина Виница, 2310, Северна Македонија","address":{"town":"Виница","municipality":"Општина Виница","ISO3166-2-lvl7":"MK-202","postcode":"2310","country":"Северна Македонија","country_code":"mk"},"population":10590,"osm_type":"relation","osm_id":6854811,"type":"administrative","location":[22.5044468,41.8847356],"bbox":[22.4518061,41.868698,22.5672884,41.9042893]}}
{"name":"Дебар","other_names":{"name:bg":"Дебър","name:el":"Ντέμπαρ","name:en":"Debar","name:hr":"Debar","name:mk":"Дебар","name:ml":"ഡെബർ","name:ru":"Дебар","name:sq":"Dibër","name:sr":"Дебар","name:tr":"Debre","alt_name":"Dibra e Madhe","int_name":"Debar","alt_name:ml":"ഡിബ്ര"},"display_name":"Дебар, Дебaр, Општина Дебар, 1250, Северна Македонија","address":{"town":"Дебар","municipality":"Општина Дебар","ISO3166-2-lvl7":"MK-303","postcode":"1250","country":"Северна Македонија","country_code":"mk"},"population":14561,"osm_type":"node","osm_id":293595929,"type":"town","location":[20.5269779,41.523466],"bbox":[20.4869779,41.483466,20.5669779,41.563466],"border":{"name":"Дебaр","other_names":{"name:el":"Ντέμπαρ","name:en":"Debar","name:mk":"Дебар","name:sq":"Dibër","int_name":"Debar"},"display_name":"Дебaр, Општина Дебар, 1250, Северна Македонија","address":{"town":"Дебaр","municipality":"Општина Дебар","ISO3166-2-lvl7":"MK-303","postcode":"1250","country":"Северна Македонија","country_code":"mk"},"osm_type":"relation","osm_id":6481659,"type":"administrative","location":[20.517896594541867,41.51832975],"bbox":[20.4919956,41.492028,20.5439484,41.5443298]}}
{"name":"Делчево","other_names":{"name:bg":"Делчево","name:el":"Ντέλτσεβο","name:en":"Delčevo","name:hr":"Delčevo","name:lt":"Delčevas","name:mk":"Делчево","name:ru":"Делчево","name:sq":"Dellçeva","name:sr":"Делчево","int_name":"Delčevo"},"display_name":"Делчево, Општина Делчево, Северна Македонија","address":{"town":"Делчево","municipality":"Општина Делчево","ISO3166-2-lvl7":"MK-203","country":"Северна Македонија","country_code":"mk"},"population":17505,"osm_type":"node","osm_id":417730489,"type":"town","location":[22.7767722,41.9668344],"bbox":[22.7367722,41.9268344,22.8167722,42.0068344],"border":{"name":"Делчево","other_names":{"name:bg":"Делчево","name:en":"Delchevo","name:lt":"Delčevas","name:mk":"Делчево","name:ru":"Делчево","name:sq":"Dellçeva","int_name":"Delčevo","name:el":"Ντέλτσεβο","name:hr":"Delčevo","name:sr":"Делчево","alt:en":"Delčevo"},"display_name":"Делчево, Општина Делчево, 2320, Северна Македонија","address":{"town":"Делчево","municipality":"Општина Делчево","ISO3166-2-lvl7":"MK-203","postcode":"2320","country":"Северна Македонија","country_code":"mk"},"population":17505,"osm_type":"relation","osm_id":6857664,"type":"administrative","location":[22.7767722,41.9668344],"bbox":[22.7207136,41.9085492,22.8006274,42.0119009]}}
{"name":"Демир Капија","other_names":{"name:ar":"ديمير كابيا","name:bg":"Демир Капия","name:el":"Ντέμιρ Κάπιγια","name:en":"Demir Kapija","name:fa":"دمیر کاپیا","name:hr":"Demir Kapija","name:ka":"დემირ-კაპია","name:ko":"데미르카피야","name:mk":"Демир Капија","name:ps":"دمیر کاپیا","name:ro":"Demir Kapia","name:ru":"Демир-Капия","name:sq":"Demir Kapia","name:sr":"Демир Капија","name:tr":"Demir Kapı","name:uk":"Демир-Капія","int_name":"Demir Kapija","old_name":"Баня","alt_name:de":"Eisernes Tor","alt_name:el":"Ντεμιρκάπιγια;Σιδηρές Πύλες","alt_name:es":"Demir Kapiya","alt_name:fr":"Demir Kapiya","alt_name:mk":"Железна Врата","alt_name:sq":"Demir Kapi","old_name:bg":"Баня","name:sr-Latn":"Demir Kapija","name:zh-Hans":"代米尔卡皮亚","name:zh-Hant":"代米爾卡皮亞"},"display_name":"Демир Капија, Општина Демир Капија, Северна Македонија","address":{"town":"Демир Капија","municipality":"Општина Демир Капија","ISO3166-2-lvl7":"MK-103","country":"Северна Македонија","country_code":"mk"},"osm_type":"node","osm_id":420488854,"type":"town","location":[22.2418571,41.4087136],"bbox":[22.2018571,41.3687136,22.2818571,41.4487136],"border":{"name":"Демир Капија","other_names":{"name:el":"Ντεμίρ Καπίγια","name:en":"Demir Kapija","name:mk":"Демир Капија","name:ru":"Демир-Капия","int_name":"Demir Kapija","name:ar":"ديمير كابيا","name:bg":"Демир Капия","name:fa":"دمیر کاپیا","name:hr":"Demir Kapija","name:ka":"დემირ-კაპია","name:ko":"데미르카피야","name:ps":"دمیر کاپیا","name:ro":"Demir Kapia","name:sq":"Demir Kapia","name:sr":"Демир Капија","name:tr":"Demir Kapı","name:uk":"Демир-Капія","old_name":"Баня","alt_name:de":"Eisernes Tor","alt_name:el":"Ντεμιρκάπιγια;Σιδηρές Πύλες","alt_name:es":"Demir Kapiya","alt_name:fr":"Demir Kapiya","alt_name:mk":"Железна Врата","alt_name:sq":"Demir Kapi","old_name:bg":"Баня","name:sr-Latn":"Demir Kapija","name:zh-Hans":"代米尔卡皮亚","name:zh-Hant":"代米爾卡皮亞","alt:el":"Ντέμιρ Κάπιγια"},"display_name":"Демир Капија, Општина Демир Капија, 1442, Северна Македонија","address":{"town":"Демир Капија","municipality":"Општина Демир Капија","ISO3166-2-lvl7":"MK-103","postcode":"1442","country":"Северна Македонија","country_code":"mk"},"osm_type":"relation","osm_id":6826224,"type":"administrative","location":[22.2418571,41.4087136],"bbox":[22.1899366,41.3848248,22.2584242,41.4253844]}}
{"name":"Демир Хисар","other_names":{"name:de":"Demir Hisar","name:el":"Ντεμίρ Χισάρ","name:en":"Demir Hisar","name:hr":"Demir Hisar","name:mk":"Демир Хисар","name:sr":"Демир Хисар","int_name":"Demir Hisar"},"display_name":"Демир Хисар, Општина Демир Хисар/Мургашево, Северна Македонија","address":{"town":"Демир Хисар","municipality":"Општина Демир Хисар/Мургашево","ISO3166-2-lvl7":"MK-502","country":"Северна Македонија","country_code":"mk"},"osm_type":"node","osm_id":305729836,"type":"town","location":[21.2020872,41.2198967],"bbox":[21.1620872,41.1798967,21.2420872,41.2598967],"border":{"name":"Демир Хисар","other_names":{"name:el":"Ντεμίρ Χισάρ","name:en":"Demir Hisar","name:mk":"Демир Хисар","int_name":"Demir Hisar","name:de":"Demir Hisar","name:hr":"Demir Hisar","name:sr":"Демир Хисар"},"display_name":"Демир Хисар, Општина Демир Хисар/Мургашево, 7240, Северна Македонија","address":{"town":"Демир Хисар","municipality":"Општина Демир Хисар/Мургашево","ISO3166-2-lvl7":"MK-502","postcode":"7240","country":"Северна Македонија","country_code":"mk"},"osm_type":"relation","osm_id":6885903,"type":"administrative","location":[21.2020872,41.2198967],"bbox":[21.1698394,41.2092396,21.2395661,41.2358988]}}
{"name":"Кратово","other_names":{"name:el":"Κράτοβο","name:en":"Kratovo","name:hr":"Kratovo","name:mk":"Кратово","name:pl":"Kratowo","name:ru":"Кратово","name:sr":"Кратово","int_name":"Kratovo"},"display_name":"Кратово, Општина Кратово, Северна Македонија","address":{"town":"Кратово","municipality":"Општина Кратово","ISO3166-2-lvl7":"MK-701","country":"Северна Македонија","country_code":"mk"},"population":6300,"osm_type":"node","osm_id":418344961,"type":"town","location":[22.1802182,42.079261],"bbox":[22.1402182,42.039261,22.2202182,42.119261],"border":{"name":"Кратово","other_names":{"name:en":"Kratovo","name:mk":"Кратово","name:pl":"Kratowo","name:ru":"Кратово","int_name":"Kratovo","name:el":"Κράτοβο","name:hr":"Kratovo","name:sr":"Кратово"},"display_name":"Кратово, Општина Кратово, 1360, Северна Македонија","address":{"town":"Кратово","municipality":"Општина Кратово","ISO3166-2-lvl7":"MK-701","postcode":"1360","country":"Северна Македонија","country_code":"mk"},"population":6300,"osm_type":"relation","osm_id":6707990,"type":"administrative","location":[22.1802182,42.079261],"bbox":[22.1523575,42.0519092,22.2253847,42.0937324]}}
{"name":"Крива Паланка","other_names":{"name:el":"Κρίβα Παλάνκα","name:en":"Kriva Palanka","name:hr":"Kriva Palanka","name:mk":"Крива Паланка","name:ru":"Крива-Паланка","name:sq":"Kriva Palanka","name:sr":"Крива Паланка","name:tr":"Eğri Palanka","int_name":"Kriva Palanka","alt_name:tr":"Eğri Dere"},"display_name":"Крива Паланка, Општина Крива Паланка, Северна Македонија","address":{"town":"Крива Паланка","municipality":"Општина Крива Паланка","ISO3166-2-lvl7":"MK-702","country":"Северна Македонија","country_code":"mk"},"population":14010,"osm_type":"node","osm_id":371046217,"type":"town","location":[22.3336663,42.2038104],"bbox":[22.2936663,42.1638104,22.3736663,42.2438104],"border":{"name":"Крива Паланка","other_names":{"name:el":"Κρίβα Παλάνκα","name:en":"Kriva Palanka","name:mk":"Крива Паланка","name:ru":"Крива-Паланка","name:sq":"Kriva Palanka","int_name":"Kriva Palanka","name:hr":"Kriva Palanka","name:sr":"Крива Паланка","name:tr":"Eğri Palanka","alt_name:tr":"Eğri Dere"},"display_name":"Крива Паланка, Општина Крива Паланка, 1330, Северна Македонија","address":{"town":"Крива Паланка","municipality":"Општина Крива Паланка","ISO3166-2-lvl7":"MK-702","postcode":"1330","country":"Северна Македонија","country_code":"mk"},"population":14010,"osm_type":"relation","osm_id":6845833,"type":"administrative","location":[22.3336663,42.2038104],"bbox":[22.292676,42.1851897,22.357049,42.2230196]}}
{"name":"Крушево","other_names":{"name:el":"Κρούσεβο","name:en":"Kruševo","name:hr":"Kruševo","name:lt":"Kruševas","name:mk":"Крушево","name:ro":"Crușova","name:ru":"Крушево","name:sq":"Krushevë","name:sr":"Крушево","int_name":"Kruševo","name:roa-rup":"Crushuva"},"display_name":"Крушево, Општина Крушево, Северна Македонија","address":{"town":"Крушево","municipality":"Општина Крушево","ISO3166-2-lvl7":"MK-505","country":"Северна Македонија","country_code":"mk"},"population":5210,"osm_type":"node","osm_id":8280786613,"type":"town","location":[21.2481273,41.3680991],"bbox":[21.2081273,41.3280991,21.2881273,41.4080991],"border":[{"name":"Крушево","other_names":{"name:be":"Крушэва","name:bg":"Крушево","name:bs":"Kruševo","name:cb":"Krushevo","name:cs":"Kruševo","name:da":"Krushevo","name:de":"Krushevo","name:el":"Κρούσοβο","name:en":"Krushevo","name:eo":"Kruŝevo","name:fa":"کروشفو","name:fr":"Krouchevo","name:fy":"Krushevo","name:hr":"Kruševo","name:hu":"Krusevo","name:hy":"Կրուշևո","name:id":"Krushevo","name:it":"Krushevo","name:ka":"კრუშევო","name:ko":"크루셰보","name:lt":"Kruševas","name:lv":"Kruševa","name:mk":"Крушево","name:nl":"Krushevo","name:no":"Krusjevo","name:pl":"Kruszewo","name:ps":"کروشفو","name:pt":"Krushevo","name:ro":"Crușova","name:ru":"Крушево","name:sh":"Kruševo","name:sl":"Kruševo","name:sq":"Krushevë","name:sr":"Крушево","name:sv":"Kruševo","name:tr":"Kruşevo","name:uk":"Крушево","name:zh":"克魯舍沃","name:sco":"Krushevo","name:roa-rup":"Crushuva","int_name":"Kruševo","alt:el":"Κρούσεβο","alt:en":"Kruševo"},"display_name":"Крушево, Општина Крушево, 7550, Северна Македонија","address":{"town":"Крушево","municipality":"Општина Крушево","ISO3166-2-lvl7":"MK-505","postcode":"7550","country":"Северна Македонија","country_code":"mk"},"population":5507,"osm_type":"relation","osm_id":12036661,"type":"administrative","location":[21.2481273,41.3680991],"bbox":[21.2362278,41.3629519,21.2555494,41.3811333]},{"name":"Крушево ВГ","other_names":{"name:en":"Krushevo OT","name:mk":"Крушево ВГ","name:el":"Κρούσεβο","name:hr":"Kruševo","name:lt":"Kruševas","name:ro":"Crușova","name:ru":"Крушево","name:sq":"Krushevë","name:sr":"Крушево","int_name":"Kruševo","name:roa-rup":"Crushuva","alt":"Крушево","alt:en":"Kruševo","alt:mk":"Крушево"},"display_name":"Крушево ВГ, Општина Крушево, 7550, Северна Македонија","address":{"town":"Крушево ВГ","municipality":"Општина Крушево","ISO3166-2-lvl7":"MK-505","postcode":"7550","country":"Северна Македонија","country_code":"mk"},"population":5210,"osm_type":"relation","osm_id":6441032,"type":"administrative","location":[21.2481273,41.3680991],"bbox":[21.1837124,41.3232637,21.2932833,41.3913956]}]}
{"name":"Македонска Каменица","other_names":{"name:el":"Μακεντόνσκα Καμένιτσα","name:en":"Makedonska Kamenica","name:hr":"Makedonska Kamenica","name:mk":"Македонска Каменица","name:ru":"Македонска-Каменица","name:sr":"Македонска Каменица","int_name":"Makedonska Kamenica"},"display_name":"Македонска Каменица, Општина Македонска Каменица, Северна Македонија","address":{"town":"Македонска Каменица","municipality":"Општина Македонска Каменица","ISO3166-2-lvl7":"MK-207","country":"Северна Македонија","country_code":"mk"},"population":5147,"osm_type":"node","osm_id":417850747,"type":"town","location":[22.588719,42.0219096],"bbox":[22.548719,41.9819096,22.628719,42.0619096],"border":{"name":"Македонска Каменица","other_names":{"name:el":"Μακεντόνσκα Καμένιτσα","name:en":"Makedonska Kamenica","name:mk":"Македонска Каменица","name:ru":"Македонска-Каменица","int_name":"Makedonska Kamenica","name:hr":"Makedonska Kamenica","name:sr":"Македонска Каменица"},"display_name":"Македонска Каменица, Општина Македонска Каменица, Северна Македонија","address":{"town":"Македонска Каменица","municipality":"Општина Македонска Каменица","ISO3166-2-lvl7":"MK-207","country":"Северна Македонија","country_code":"mk"},"population":5147,"osm_type":"relation","osm_id":6851827,"type":"administrative","location":[22.588719,42.0219096],"bbox":[22.5499369,41.9978694,22.6020098,42.0472849]}}
{"name":"Македонски Брод","other_names":{"name:el":"Μακεντόνσκι Μπροντ","name:en":"Makedonski Brod","name:hr":"Makedonski Brod","name:lt":"Makedonski Brodas","name:mk":"Македонски Брод","name:ru":"Македонски-Брод","name:sr":"Македонски Брод"},"display_name":"Македонски Брод, Општина Македонски Брод, Северна Македонија","address":{"town":"Македонски Брод","municipality":"Општина Македонски Брод","ISO3166-2-lvl7":"MK-308","country":"Северна Македонија","country_code":"mk"},"osm_type":"node","osm_id":391281623,"type":"town","location":[21.2165416,41.507489],"bbox":[21.1765416,41.467489,21.2565416,41.547489],"border":{"name":"Македонски Брод","other_names":{"name:en":"Makedonski Brod","name:mk":"Македонски Брод","int_name":"Makedonski Brod","name:el":"Μακεντόνσκι Μπροντ","name:hr":"Makedonski Brod","name:lt":"Makedonski Brodas","name:ru":"Македонски-Брод","name:sr":"Македонски Брод"},"display_name":"Македонски Брод, Општина Македонски Брод, 6530, Северна Македонија","address":{"town":"Македонски Брод","municipality":"Општина Македонски Брод","ISO3166-2-lvl7":"MK-308","postcode":"6530","country":"Северна Македонија","country_code":"mk"},"osm_type":"relation","osm_id":6412334,"type":"administrative","location":[21.2165416,41.507489],"bbox":[21.1690182,41.4939218,21.2374771,41.5263051]}}
{"display_name":"Општина Виница, 2310, Северна Македонија","address":{"municipality":"Општина Виница","ISO3166-2-lvl7":"MK-202","postcode":"2310","country":"Северна Македонија","country_code":"mk"},"osm_type":"relation","osm_id":9412485,"type":"town","location":[22.513227228271763,41.88124845],"bbox":[22.4944215,41.870057,22.524451,41.8924781]}
{"name":"Пехчево","other_names":{"name:de":"Pehčevo","name:el":"Πέχτσεβο","name:en":"Pehčevo","name:hr":"Pehčevo","name:mk":"Пехчево","name:sq":"Peçeva","name:sr":"Пехчево","int_name":"Pehčevo"},"display_name":"Пехчево, Општина Пехчево, Северна Македонија","address":{"town":"Пехчево","municipality":"Општина Пехчево","ISO3166-2-lvl7":"MK-208","country":"Северна Македонија","country_code":"mk"},"osm_type":"node","osm_id":6228439417,"type":"town","location":[22.8873017,41.7635729],"bbox":[22.8473017,41.7235729,22.9273017,41.8035729],"border":{"name":"Пехчево","other_names":{"name:en":"Pehchevo","name:mk":"Пехчево","name:pl":"Pehczewo","name:ru":"Пехчево","name:sq":"Peçeva","name:tr":"Pehçevo","int_name":"Pehčevo","name:de":"Pehčevo","name:el":"Πέχτσεβο","name:hr":"Pehčevo","name:sr":"Пехчево","alt:en":"Pehčevo"},"display_name":"Пехчево, Општина Пехчево, 2326, Северна Македонија","address":{"town":"Пехчево","municipality":"Општина Пехчево","ISO3166-2-lvl7":"MK-208","postcode":"2326","country":"Северна Македонија","country_code":"mk"},"osm_type":"relation","osm_id":6861238,"type":"administrative","location":[22.8873017,41.7635729],"bbox":[22.8567016,41.6901234,23.034051,41.7894649]}}
{"name":"Пробиштип","other_names":{"name:bg":"Пробищип","name:el":"Πρόμπιστιπ","name:en":"Probishtip","name:hr":"Probištip","name:mk":"Пробиштип","name:pl":"Probisztip","name:ru":"Пробиштип","name:sq":"Probishtipi","name:sr":"Пробиштип","name:tr":"Probiştip","int_name":"Probištip"},"display_name":"Пробиштип, Општина Пробиштип, Северна Македонија","address":{"town":"Пробиштип","municipality":"Општина Пробиштип","ISO3166-2-lvl7":"MK-209","country":"Северна Македонија","country_code":"mk"},"population":8190,"osm_type":"node","osm_id":418344960,"type":"town","location":[22.1784767,41.9998386],"bbox":[22.1384767,41.9598386,22.2184767,42.0398386],"border":{"name":"Пробиштип","other_names":{"name:bg":"Пробищип","name:en":"Probishtip","name:mk":"Пробиштип","name:pl":"Probisztip","name:ru":"Пробиштип","name:sh":"Probishtipi","name:tr":"Probiştip","int_name":"Probištip","name:el":"Πρόμπιστιπ","name:hr":"Probištip","name:sq":"Probishtipi","name:sr":"Пробиштип"},"display_name":"Пробиштип, Општина Пробиштип, 2210, Северна Македонија","address":{"town":"Пробиштип","municipality":"Општина Пробиштип","ISO3166-2-lvl7":"MK-209","postcode":"2210","country":"Северна Македонија","country_code":"mk"},"population":8190,"osm_type":"relation","osm_id":6743899,"type":"administrative","location":[22.1784767,41.9998386],"bbox":[22.1435881,41.9759271,22.1939921,42.0208962]}}
{"name":"Радовиш","other_names":{"name:ar":"رادوفيتش","name:be":"Радавіш","name:bg":"Радовиш","name:el":"Ράντοβις","name:en":"Radoviš","name:fa":"رادوفیس","name:he":"ראדוביש","name:hr":"Radoviš","name:hu":"Radovis","name:ka":"რადოვიში","name:kk":"Радовиш","name:ko":"라도비시","name:lt":"Radovišas","name:mk":"Радовиш","name:ml":"റാഡോവിഷ്","name:no":"Radovisj","name:pl":"Radowisz","name:ps":"رادوفیس","name:ro":"Radoviș","name:ru":"Радовиш","name:sq":"Radovishti","name:sr":"Радовиш","name:tr":"Radoviş","name:uk":"Радовиш","int_name":"Radoviš","name:ceb":"Radovish","alt_name:es":"Radovish","alt_name:ru":"Радовиште","alt_name:sr":"Радовиште","alt_name:uk":"Радовиште","name:sr-Latn":"Radoviš","name:zh-Hans":"拉多维什","name:zh-Hant":"拉多維什","alt_name:sr-Latn":"Radovište"},"display_name":"Радовиш, Општина Радовиш, Северна Македонија","address":{"town":"Радовиш","municipality":"Општина Радовиш","ISO3166-2-lvl7":"MK-409","country":"Северна Македонија","country_code":"mk"},"population":16690,"osm_type":"node","osm_id":1879675180,"type":"town","location":[22.4645893,41.639832],"bbox":[22.4245893,41.599832,22.5045893,41.679832],"border":{"name":"Радовиш","other_names":{"name:en":"Radovish","name:mk":"Радовиш","name:ru":"Радовиш","name:tr":"Radoviş","int_name":"Radoviš","name:ar":"رادوفيتش","name:be":"Радавіш","name:bg":"Радовиш","name:el":"Ράντοβις","name:fa":"رادوفیس","name:he":"ראדוביש","name:hr":"Radoviš","name:hu":"Radovis","name:ka":"რადოვიში","name:kk":"Радовиш","name:ko":"라도비시","name:lt":"Radovišas","name:ml":"റാഡോവിഷ്","name:no":"Radovisj","name:pl":"Radowisz","name:ps":"رادوفیس","name:ro":"Radoviș","name:sq":"Radovishti","name:sr":"Радовиш","name:uk":"Радовиш","name:ceb":"Radovish","alt_name:es":"Radovish","alt_name:ru":"Радовиште","alt_name:sr":"Радовиште","alt_name:uk":"Радовиште","name:sr-Latn":"Radoviš","name:zh-Hans":"拉多维什","name:zh-Hant":"拉多維什","alt_name:sr-Latn":"Radovište","alt:en":"Radoviš"},"display_name":"Радовиш, Општина Радовиш, 2420, Северна Македонија","address":{"town":"Радовиш","municipality":"Општина Радовиш","ISO3166-2-lvl7":"MK-409","postcode":"2420","country":"Северна Македонија","country_code":"mk"},"population":16690,"osm_type":"relation","osm_id":6882035,"type":"administrative","location":[22.4645893,41.639832],"bbox":[22.4276608,41.6005214,22.4865836,41.702881]}}
{"display_name":"Ресен, Општина Ресен, 7310, Северна Македонија","address":{"town":"Ресен","municipality":"Општина Ресен","ISO3166-2-lvl7":"MK-509","postcode":"7310","country":"Северна Македонија","country_code":"mk"},"osm_type":"way","osm_id":1290630708,"type":"town","location":[21.014274837304256,41.0847919],"bbox":[20.9984016,41.0692573,21.0358735,41.1001048]}
{"name":"Ресен","other_names":{"name:el":"Ρέσνα","name:en":"Resen","name:hr":"Resen","name:ru":"Ресен","name:sq":"Resnja","name:sr":"Ресан","name:tr":"Resne","int_name":"Resen","alt_name:el":"Ρέσεν"},"display_name":"Ресен, Општина Ресен, Северна Македонија","address":{"town":"Ресен","municipality":"Општина Ресен","ISO3166-2-lvl7":"MK-509","country":"Северна Македонија","country_code":"mk"},"population":8750,"osm_type":"node","osm_id":11722011055,"type":"town","location":[21.0130599,41.0900531],"bbox":[20.9730599,41.0500531,21.0530599,41.1300531],"border":{"name":"Ресен","other_names":{"name:en":"Resen","name:mk":"Ресен","int_name":"Resen","name:el":"Ρέσνα","name:hr":"Resen","name:ru":"Ресен","name:sq":"Resnja","name:sr":"Ресан","name:tr":"Resne","alt_name:el":"Ρέσεν"},"display_name":"Ресен, Општина Ресен, 7310, Северна Македонија","address":{"town":"Ресен","municipality":"Општина Ресен","ISO3166-2-lvl7":"MK-509","postcode":"7310","country":"Северна Македонија","country_code":"mk"},"population":8750,"osm_type":"relation","osm_id":6484327,"type":"administrative","location":[21.0130599,41.0900531],"bbox":[20.9880119,41.0611926,21.0596962,41.1020851]}}
{"name":"Свети Николе","other_names":{"name:ar":"سفيتي نيكولا","name:bg":"Свети Никола","name:el":"Σβέτι Νίκολε","name:en":"Sveti Nikole","name:fa":"سفتی نیکوله","name:hr":"Sveti Nikole","name:ka":"სვეტი-ნიკოლე","name:kk":"Свети-Николе","name:ko":"스베티니콜레","name:lt":"Sveti Nikolė","name:mk":"Свети Николе","name:ml":"സ്വെറ്റി നിക്കോളെ","name:pl":"Sweti Nikołe","name:ru":"Свети-Николе","name:sq":"Sveti Nikolla","name:sr":"Свети Никола","name:tr":"Kiliseli","name:uk":"Светий Николе","int_name":"Sveti Nikole","alt_name:el":"Άγιος Νικόλαος","alt_name:es":"San Nicolás","alt_name:id":"Santo Nikolaus","alt_name:kk":"Свети-Никола","alt_name:lt":"šv. Nikolajus","alt_name:nl":"Sint Nicolaas","alt_name:ru":"Свети-Никола","alt_name:sv":"Sankt Nikolaus","name:sr-Latn":"Sveti Nikola","name:zh-Hans":"圣尼古莱","name:zh-Hant":"聖尼古萊"},"display_name":"Свети Николе, Општина Свети Николе, Северна Македонија","address":{"town":"Свети Николе","municipality":"Општина Свети Николе","ISO3166-2-lvl7":"MK-108","country":"Северна Македонија","country_code":"mk"},"population":13220,"osm_type":"node","osm_id":419032198,"type":"town","location":[21.9420506,41.8647339],"bbox":[21.9020506,41.8247339,21.9820506,41.9047339],"border":{"name":"Свети Николе","other_names":{"name:en":"Sveti Nikole","name:mk":"Свети Николе","name:ru":"Свети-Николе","int_name":"Sveti Nikole","name:ar":"سفيتي نيكولا","name:bg":"Свети Никола","name:el":"Σβέτι Νίκολε","name:fa":"سفتی نیکوله","name:hr":"Sveti Nikole","name:ka":"სვეტი-ნიკოლე","name:kk":"Свети-Николе","name:ko":"스베티니콜레","name:lt":"Sveti Nikolė","name:ml":"സ്വെറ്റി നിക്കോളെ","name:pl":"Sweti Nikołe","name:sq":"Sveti Nikolla","name:sr":"Свети Никола","name:tr":"Kiliseli","name:uk":"Светий Николе","alt_name:el":"Άγιος Νικόλαος","alt_name:es":"San Nicolás","alt_name:id":"Santo Nikolaus","alt_name:kk":"Свети-Никола","alt_name:lt":"šv. Nikolajus","alt_name:nl":"Sint Nicolaas","alt_name:ru":"Свети-Никола","alt_name:sv":"Sankt Nikolaus","name:sr-Latn":"Sveti Nikola","name:zh-Hans":"圣尼古莱","name:zh-Hant":"聖尼古萊"},"display_name":"Свети Николе, Општина Свети Николе, 2220, Северна Македонија","address":{"town":"Свети Николе","municipality":"Општина Свети Николе","ISO3166-2-lvl7":"MK-108","postcode":"2220","country":"Северна Македонија","country_code":"mk"},"population":13220,"osm_type":"relation","osm_id":6743909,"type":"administrative","location":[21.9420506,41.8647339],"bbox":[21.9102788,41.8398014,22.0017602,41.9069084]}}
{"name":"Струга","other_names":{"name:el":"Στρούγκα","name:en":"Struga","name:hr":"Struga","name:mk":"Струга","name:ml":"സ്ട്രൂഗ","name:ru":"Струга","name:sq":"Strugë","name:sr":"Струга","int_name":"Struga"},"display_name":"Струга, Општина Струга, Северна Македонија","address":{"town":"Струга","municipality":"Општина Струга","ISO3166-2-lvl7":"MK-312","country":"Северна Македонија","country_code":"mk"},"population":33000,"osm_type":"node","osm_id":293008707,"type":"town","location":[20.6790586,41.1770278],"bbox":[20.6390586,41.1370278,20.7190586,41.2170278],"border":{"name":"Струга","other_names":{"name:en":"Struga","name:mk":"Струга","name:sq":"Strugë","int_name":"Struga","name:el":"Στρούγκα","name:hr":"Struga","name:ml":"സ്ട്രൂഗ","name:ru":"Струга","name:sr":"Струга"},"display_name":"Струга, Општина Струга, 6330, Северна Македонија","address":{"town":"Струга","municipality":"Општина Струга","ISO3166-2-lvl7":"MK-312","postcode":"6330","country":"Северна Македонија","country_code":"mk"},"population":33000,"osm_type":"relation","osm_id":6479390,"type":"administrative","location":[20.6790586,41.1770278],"bbox":[20.6343102,41.0800567,20.7068989,41.1981621]}}
