{"name":"Барбарос","other_names":{"name:en":"Barbaros","name:mk":"Барбарос","int_name":"Barbaros"},"display_name":"Барбарос, Општина Македонски Брод, Северна Македонија","address":{"city":"Барбарос","municipality":"Општина Македонски Брод","ISO3166-2-lvl7":"MK-308","country":"Северна Македонија","country_code":"mk"},"osm_type":"relation","osm_id":6421642,"type":"administrative","location":[21.27474030463347,41.51606715],"bbox":[21.2534085,41.5002135,21.2961362,41.5317974],"inferred_type":"city"}
{"name":"Битола","other_names":{"name:ar":"بیتولا","name:bg":"Битоля","name:de":"Bitola","name:el":"Μπίτολα (Μοναστήρι)","name:en":"Bitola","name:et":"Bitola","name:fr":"Bitola","name:hr":"Bitola","name:hu":"Bitola","name:la":"Monasterium","name:mk":"Битола","name:ml":"ബിറ്റോല","name:pl":"Bitola","name:ru":"Битола","name:sh":"Manastiri","name:sq":"Manastir","name:sr":"Битољ","name:tr":"Manastır","name:uk":"Бітола","name:zh":"比托拉","int_name":"Bitola"},"display_name":"Битола, Општина Битола, Северна Македонија","address":{"city":"Битола","municipality":"Општина Битола","ISO3166-2-lvl7":"MK-501","country":"Северна Македонија","country_code":"mk"},"population":74550,"osm_type":"node","osm_id":1812231434,"type":"city","location":[21.3302511,41.0316005],"bbox":[21.1702511,40.8716005,21.4902511,41.1916005],"border":{"name":"Битола","other_names":{"name:bg":"Битоля","name:de":"Bitola","name:el":"Μοναστήρι","name:en":"Bitola","name:fr":"Bitola","name:hr":"Bitola","name:mk":"Битола","name:sq":"Manastir","name:tr":"Manastır","int_name":"Bitola","name:ar":"بیتولا","name:et":"Bitola","name:hu":"Bitola","name:la":"Monasterium","name:ml":"ബിറ്റോല","name:pl":"Bitola","name:ru":"Битола","name:sh":"Manastiri","name:sr":"Битољ","name:uk":"Бітола","name:zh":"比托拉","alt:el":"Μπίτολα (Μοναστήρι)"},"display_name":"Битола, Општина Битола, 7000, Северна Македонија","address":{"city":"Битола","municipality":"Општина Битола","ISO3166-2-lvl7":"MK-501","postcode":"7000","country":"Северна Македонија","country_code":"mk"},"population":74550,"osm_type":"relation","osm_id":6435563,"type":"administrative","location":[21.3302511,41.0316005],"bbox":[21.2847767,41.0027837,21.3864646,41.0784758]}}
{"name":"Велес","other_names":{"name:ar":"فيليس","name:bg":"Велес","name:de":"Veles","name:el":"Βέλες","name:en":"Veles","name:es":"Veles","name:et":"Veles","name:fr":"Vélès","name:hr":"Veles","name:mk":"Велес","name:ml":"വെലെസ്","name:ru":"Велес","name:sq":"Velesi","name:sr":"Велес","name:tr":"Köprülü","name:uk":"Велес","int_name":"Veles","name:sr-Latn":"Veles","old_name:1946-1996":"Титов Велес","old_name:en:1946-1996":"Titov Veles","old_name:mk:1946-1996":"Титов Велес"},"display_name":"Велес, Општина Велес, Северна Македонија","address":{"city":"Велес","municipality":"Општина Велес","ISO3166-2-lvl7":"MK-101","country":"Северна Македонија","country_code":"mk"},"population":43716,"osm_type":"node","osm_id":324836987,"type":"city","location":[21.7705695,41.718869],"bbox":[21.6105695,41.558869,21.9305695,41.878869],"border":{"name":"Велес","other_names":{"name:de":"Veles","name:en":"Veles","name:hr":"Veles","name:mk":"Велес","name:ru":"Велес","name:sq":"Velesi","name:tr":"Köprülü","name:uk":"Велес","int_name":"Veles","name:ar":"فيليس","name:bg":"Велес","name:el":"Βέλες","name:es":"Veles","name:et":"Veles","name:fr":"Vélès","name:ml":"വെലെസ്","name:sr":"Велес","name:sr-Latn":"Veles","old_name:1946-1996":"Титов Велес","old_name:en:1946-1996":"Titov Veles","old_name:mk:1946-1996":"Титов Велес"},"display_name":"Велес, Општина Велес, 1400, Северна Македонија","address":{"city":"Велес","municipality":"Општина Велес","ISO3166-2-lvl7":"MK-101","postcode":"1400","country":"Северна Македонија","country_code":"mk"},"population":43716,"osm_type":"relation","osm_id":6800913,"type":"administrative","location":[21.7705695,41.718869],"bbox":[21.7170954,41.6681353,21.832881,41.77481]}}
{"name":"Гевгелија","other_names":{"name:ar":"غيفغليا","name:bg":"Гевгели","name:de":"Gevgelija","name:el":"Γευγελή","name:en":"Gevgelija","name:es":"Gevgelija","name:et":"Gevgelija","name:fa":"گفلیا","name:fr":"Gevgelija","name:he":"גבגליה","name:hr":"Gevgelija","name:hy":"Գևգելիա","name:ja":"ゲヴゲリヤ","name:ka":"გევგელია","name:ko":"게브겔리야","name:mk":"Гевгелија","name:ml":"ഗെവ്ഗെലിയ","name:nl":"Gevgelija","name:pl":"Gewgelija","name:ro":"Ghevghelia","name:ru":"Гевгелия","name:sq":"Gjevgjelia","name:sr":"Ђевђелија","name:tr":"Gevgili","name:uk":"Гевгелія","int_name":"Gevgelija","alt_name:bg":"Гевгелия;Гевгелий","alt_name:el":"Γκεβγκέλιγια","alt_name:fr":"Guevgueliya","alt_name:hr":"Đevđelija","alt_name:hy":"Գևգելիյ;Գևգելի;Գևգելիե;Ջևջելիա","alt_name:pl":"Gewgeli","alt_name:ru":"Гевгелий;Гевгели;Гевгелие","alt_name:sq":"Gjevgjeli","alt_name:tr":"Gevgeli;Gevgelü","alt_name:uk":"Гевгелій;Гевгелі;Гевгеліє","name:sr-Latn":"Đevđelija","name:zh-Hans":"盖夫盖利亚","name:zh-Hant":"蓋夫蓋利亞"},"display_name":"Гевгелија, Општина Гевгелија, Северна Македонија","address":{"city":"Гевгелија","municipality":"Општина Гевгелија","ISO3166-2-lvl7":"MK-405","country":"Северна Македонија","country_code":"mk"},"population":20664,"osm_type":"node","osm_id":155946734,"type":"city","location":[22.5033192,41.1388664],"bbox":[22.3433192,40.9788664,22.6633192,41.2988664],"border":{"name":"Гевгелија","other_names":{"name:de":"Gevgelija","name:el":"Γευγελή","name:en":"Gevgelija","name:es":"Gevgelija","name:fr":"Guevgueliya","name:mk":"Гевгелија","name:pl":"Gewgelija","name:ro":"Gevgelija","name:ru":"Гевгелия","name:sr":"Ђевђелија","int_name":"Gevgelija","name:ar":"غيفغليا","name:bg":"Гевгели","name:et":"Gevgelija","name:fa":"گفلیا","name:he":"גבגליה","name:hr":"Gevgelija","name:hy":"Գևգելիա","name:ja":"ゲヴゲリヤ","name:ka":"გევგელია","name:ko":"게브겔리야","name:ml":"ഗെവ്ഗെലിയ","name:nl":"Gevgelija","name:sq":"Gjevgjelia","name:tr":"Gevgili","name:uk":"Гевгелія","alt_name:bg":"Гевгелия;Гевгелий","alt_name:el":"Γκεβγκέλιγια","alt_name:fr":"Guevgueliya","alt_name:hr":"Đevđelija","alt_name:hy":"Գևգելիյ;Գևգելի;Գևգելիե;Ջևջելիա","alt_name:pl":"Gewgeli","alt_name:ru":"Гевгелий;Гевгели;Гевгелие","alt_name:sq":"Gjevgjeli","alt_name:tr":"Gevgeli;Gevgelü","alt_name:uk":"Гевгелій;Гевгелі;Гевгеліє","name:sr-Latn":"Đevđelija","name:zh-Hans":"盖夫盖利亚","name:zh-Hant":"蓋夫蓋利亞","alt:fr":"Gevgelija","alt:ro":"Ghevghelia"},"display_name":"Гевгелија, Општина Гевгелија, 1480, Северна Македонија","address":{"city":"Гевгелија","municipality":"Општина Гевгелија","ISO3166-2-lvl7":"MK-405","postcode":"1480","country":"Северна Македонија","country_code":"mk"},"population":20664,"osm_type":"relation","osm_id":6505050,"type":"administrative","location":[22.5033192,41.1388664],"bbox":[22.4689722,41.1197059,22.5360625,41.1523236]}}
{"name":"Гостивар","other_names":{"name:ar":"غوستيفار","name:de":"Gostivar","name:el":"Γκόστιβαρ","name:en":"Gostivar","name:es":"Gostivar","name:et":"Gostivar","name:fr":"Gostivar","name:hr":"Gostivar","name:lt":"Gostivaras","name:mk":"Гостивар","name:ml":"ഗോസ്റ്റിവാർ","name:pl":"Gostiwar","name:ru":"Гостивар","name:sq":"Gostivar","name:sr":"Гостивар","name:tr":"Gostivar","name:uk":"Гостивар","int_name":"Gostivar"},"display_name":"Гостивар, Општина Гостивар, Северна Македонија","address":{"city":"Гостивар","municipality":"Општина Гостивар","ISO3166-2-lvl7":"MK-604","country":"Северна Македонија","country_code":"mk"},"population":36000,"osm_type":"node","osm_id":293655611,"type":"city","location":[20.9081703,41.7920222],"bbox":[20.7481703,41.6320222,21.0681703,41.9520222],"border":{"name":"Гостивар","other_names":{"name:ar":"غوستيفار","name:de":"Gostivar","name:en":"Gostivar","name:es":"Gostivar","name:et":"Gostivar","name:fr":"Gostivar","name:lt":"Gostivaras","name:mk":"Гостивар","name:pl":"Gostiwar","name:ru":"Гостивар","name:sq":"Gostivar","name:tr":"Gostivar","int_name":"Gostivar","name:el":"Γκόστιβαρ","name:hr":"Gostivar","name:ml":"ഗോസ്റ്റിവാർ","name:sr":"Гостивар","name:uk":"Гостивар"},"display_name":"Гостивар, Општина Гостивар, 1230, Северна Македонија","address":{"city":"Гостивар","municipality":"Општина Гостивар","ISO3166-2-lvl7":"MK-604","postcode":"1230","country":"Северна Македонија","country_code":"mk"},"population":36000,"osm_type":"relation","osm_id":6451185,"type":"administrative","location":[20.9081703,41.7920222],"bbox":[20.8847794,41.7768468,20.9325497,41.8178438]}}
{"name":"Кавадарци","other_names":{"name:ar":"كافادارشي","name:bg":"Кавадарци","name:el":"Καβάνταρτσι","name:en":"Kavadarci","name:et":"Kavadarci","name:fa":"کافادارچی","name:he":"קבדרצי","name:hr":"Kavadarci","name:hy":"Կավադարցի","name:ka":"კავადარცი","name:ko":"카바다르치","name:lt":"Kavadarcis","name:mk":"Кавадарци","name:ml":"കവഡർട്ട്സി","name:no":"Kavadartsi","name:pl":"Kawadarci","name:ps":"کافادارچي","name:ro":"Kavadarți","name:ru":"Кавадарци","name:sq":"Kavadari","name:sr":"Кавадарци","name:tr":"Kavadar","name:uk":"Кавадарці","int_name":"Kavadarci","alt_name:el":"Καφαντάρι","alt_name:fr":"Kavadartsi","alt_name:pl":"Kawadarce;Kawardżik;Kawadardżik","alt_name:sq":"Kavadar","old_name:bg":"Тиквеш","name:sr-Latn":"Kavadarci"},"display_name":"Кавадарци, Општина Кавадарци, Северна Македонија","address":{"city":"Кавадарци","municipality":"Општина Кавадарци","ISO3166-2-lvl7":"MK-104","country":"Северна Македонија","country_code":"mk"},"population":29320,"osm_type":"node","osm_id":365758611,"type":"city","location":[22.0122593,41.4332802],"bbox":[21.8522593,41.2732802,22.1722593,41.5932802],"border":{"name":"Кавадарци","other_names":{"name:el":"Καβάνταρτσι","name:en":"Kavadarci","name:lt":"Kavadarcis","name:mk":"Кавадарци","name:pl":"Kawadarce","name:ro":"Kavadarci","name:ru":"Кавадарци","name:sq":"Kavardaci","int_name":"Kavadarci","alt_name:pl":"Kawadarci","name:ar":"كافادارشي","name:bg":"Кавадарци","name:et":"Kavadarci","name:fa":"کافادارچی","name:he":"קבדרצי","name:hr":"Kavadarci","name:hy":"Կավադարցի","name:ka":"კავადარცი","name:ko":"카바다르치","name:ml":"കവഡർട്ട്സി","name:no":"Kavadartsi","name:ps":"کافادارچي","name:sr":"Кавадарци","name:tr":"Kavadar","name:uk":"Кавадарці","alt_name:el":"Καφαντάρι","alt_name:fr":"Kavadartsi","_place_alt_name:pl":"Kawadarce;Kawardżik;Kawadardżik","alt_name:sq":"Kavadar","old_name:bg":"Тиквеш","name:sr-Latn":"Kavadarci","alt:pl":"Kawadarci","alt:ro":"Kavadarți","alt:sq":"Kavadari"},"display_name":"Кавадарци, Општина Кавадарци, 1430, Северна Македонија","address":{"city":"Кавадарци","municipality":"Општина Кавадарци","ISO3166-2-lvl7":"MK-104","postcode":"1430","country":"Северна Македонија","country_code":"mk"},"population":29320,"osm_type":"relation","osm_id":6503123,"type":"administrative","location":[22.0122593,41.4332802],"bbox":[21.9430017,41.3986062,22.0688295,41.4679538]}}
{"name":"Кичево","other_names":{"name:de":"Kičevo","name:el":"Κίτσεβο","name:en":"Kičevo","name:et":"Kičevo","name:fi":"Kicevo","name:fr":"Kičevo","name:hr":"Kičevo","name:ml":"കിച്ചേവോ","name:pl":"Kiczewo","name:ro":"Kičevo","name:ru":"Кичево","name:sq":"Kërçovë","name:sr":"Кичево","name:tr":"Kırçova","name:uk":"Кичево","int_name":"Kičevo"},"display_name":"Кичево, Општина Кичево, Северна Македонија","address":{"city":"Кичево","municipality":"Општина Кичево","ISO3166-2-lvl7":"MK-307","country":"Северна Македонија","country_code":"mk"},"population":31000,"osm_type":"node","osm_id":299302852,"type":"city","location":[20.9585155,41.5089037],"bbox":[20.7985155,41.3489037,21.1185155,41.6689037],"border":{"name":"Кичево","other_names":{"name:en":"Kichevo","name:mk":"Кичево","name:sq":"Kërçovë","int_name":"Kičevo","name:de":"Kičevo","name:el":"Κίτσεβο","name:et":"Kičevo","name:fi":"Kicevo","name:fr":"Kičevo","name:hr":"Kičevo","name:ml":"കിച്ചേവോ","name:pl":"Kiczewo","name:ro":"Kičevo","name:ru":"Кичево","name:sr":"Кичево","name:tr":"Kırçova","name:uk":"Кичево","alt:en":"Kičevo"},"display_name":"Кичево, Општина Кичево, 6250, Северна Македонија","address":{"city":"Кичево","municipality":"Општина Кичево","ISO3166-2-lvl7":"MK-307","postcode":"6250","country":"Северна Македонија","country_code":"mk"},"population":31000,"osm_type":"relation","osm_id":6437985,"type":"administrative","location":[20.9585155,41.5089037],"bbox":[20.9179436,41.4780898,20.9946018,41.5407713]}}
{"name":"Кочани","other_names":{"name:de":"Kočani","name:el":"Κότσανι","name:en":"Kochani","name:et":"Kočani","name:fr":"Kotchani","name:hr":"Kočani","name:hu":"Kočani","name:it":"Kočani","name:mk":"Кочани","name:ml":"കൊച്ചാനി","name:pl":"Koczani","name:ro":"Kočani","name:ru":"Кочани","name:sq":"Koçani","name:sr":"Кочани","name:tr":"Koçana","int_name":"Kočani","name:ota":"قوچانه"},"display_name":"Кочани, Општина Кочани, Северна Македонија","address":{"city":"Кочани","municipality":"Општина Кочани","ISO3166-2-lvl7":"MK-206","country":"Северна Македонија","country_code":"mk"},"population":29000,"osm_type":"node","osm_id":417839656,"type":"city","location":[22.4114182,41.9211332],"bbox":[22.2514182,41.7611332,22.5714182,42.0811332],"border":{"name":"Кочани","other_names":{"name:de":"Kočani","name:en":"Kochani","name:fr":"Kotchani","name:hr":"Kočani","name:hu":"Kočani","name:it":"Kočani","name:mk":"Кочани","name:pl":"Koczani","name:ro":"Kočani","name:ru":"Кочани","name:sq":"Koçani","int_name":"Kočani","name:el":"Κότσανι","name:et":"Kočani","name:ml":"കൊച്ചാനി","name:sr":"Кочани","name:tr":"Koçana","name:ota":"قوچانه"},"display_name":"Кочани, Општина Кочани, 2300, Северна Македонија","address":{"city":"Кочани","municipality":"Општина Кочани","ISO3166-2-lvl7":"MK-206","postcode":"2300","country":"Северна Македонија","country_code":"mk"},"population":29000,"osm_type":"relation","osm_id":6851019,"type":"administrative","location":[22.4114182,41.9211332],"bbox":[22.3792791,41.881416,22.4413347,41.9600326]}}
{"name":"Куманово","other_names":{"name:ar":"كومانوفو","name:bg":"Куманово","name:de":"Kumanovo","name:el":"Κουμάνοβο","name:en":"Kumanovo","name:es":"Kumanovo","name:et":"Kumanovo","name:fr":"Koumanovo","name:hr":"Kumanovo","name:ja":"クマノヴォ","name:lt":"Kumanovas","name:lv":"Kumanova","name:ml":"കുമാനോവോ","name:pl":"Kumanowo","name:ru":"Куманово","name:sq":"Kumanovë","name:sr":"Куманово","name:tr":"Kumanova","name:uk":"Куманово","name:zh":"库马诺沃","int_name":"Kumanovo"},"display_name":"Куманово, Општина Куманово, Северна Македонија","address":{"city":"Куманово","municipality":"Општина Куманово","ISO3166-2-lvl7":"MK-703","country":"Северна Македонија","country_code":"mk"},"population":75051,"osm_type":"node","osm_id":371046021,"type":"city","location":[21.7185474,42.135913],"bbox":[21.5585474,41.975913,21.8785474,42.295913],"border":{"name":"Куманово","other_names":{"name:de":"Kumanovo","name:en":"Kumanovo","name:fr":"Koumanovo","name:hr":"Kumanovo","name:ja":"クマノヴォ","name:lt":"Kumanovas","name:lv":"Kumanova","name:mk":"Куманово","name:pl":"Kumanowo","name:ru":"Куманово","name:sq":"Kumanovë","name:sr":"Куманово","name:uk":"Куманово","name:zh":"库马诺沃","int_name":"Kumanovo","name:sr-Latn":"Kumanovo","name:ar":"كومانوفو","name:bg":"Куманово","name:el":"Κουμάνοβο","name:es":"Kumanovo","name:et":"Kumanovo","name:ml":"കുമാനോവോ","name:tr":"Kumanova"},"display_name":"Куманово, Општина Куманово, Северна Македонија","address":{"city":"Куманово","municipality":"Општина Куманово","ISO3166-2-lvl7":"MK-703","country":"Северна Македонија","country_code":"mk"},"population":75051,"osm_type":"relation","osm_id":6835885,"type":"administrative","location":[21.7185474,42.135913],"bbox":[21.6686499,42.092939,21.7739441,42.174059]}}
{"name":"Лениште","other_names":{"name:en":"Lenishte","name:mk":"Лениште"},"display_name":"Лениште, Општина Прилеп, Северна Македонија","address":{"city":"Лениште","municipality":"Општина Прилеп","ISO3166-2-lvl7":"MK-508","country":"Северна Македонија","country_code":"mk"},"osm_type":"relation","osm_id":6416121,"type":"administrative","location":[21.624591573095568,41.34939285],"bbox":[21.5866004,41.3282998,21.6527887,41.3702987],"inferred_type":"city"}
{"name":"Неготино","other_names":{"name:ar":"نيغوتينو","name:bg":"Неготино","name:el":"Νεγκότινο","name:en":"Negotino","name:fa":"نگوتینو","name:hr":"Negotino","name:ka":"ნეგოტინო","name:ko":"네고티노","name:la":"Antigonea","name:lt":"Negotinas","name:mk":"Неготино","name:ps":"نګوتینو","name:ru":"Неготино","name:sq":"Negotina","name:sr":"Неготино","name:tr":"Negotin","name:uk":"Неготино","int_name":"Negotino","name:grc":"Αντιγονεία","alt_name:la":"Antigonia;Antigoneia","alt_name:ru":"Неготин","old_name:bg":"Неготин;Нѣготино;Нѣготинъ","old_name:mk":"Антигонеја","old_name:sr":"Антигонеа;Неготин","name:sr-Latn":"Negotino","name:zh-Hans":"内戈蒂诺","name:zh-Hant":"內戈蒂諾","old_name:sr-Latn":"Antigonea;Negotin"},"display_name":"Неготино, Општина Неготино, Северна Македонија","address":{"city":"Неготино","town":"Неготино","municipality":"Општина Неготино","ISO3166-2-lvl7":"MK-106","country":"Северна Македонија","country_code":"mk"},"population":13390,"osm_type":"node","osm_id":386785913,"type":"city","location":[22.0879051,41.4832929],"bbox":[21.9279051,41.3232929,22.2479051,41.6432929],"border":{"name":"Неготино","other_names":{"name:el":"Νεγκότινο","name:en":"Negotino","name:mk":"Неготино","name:ru":"Неготино","name:sq":"Negotina","name:tr":"Negotino","int_name":"Negotino","name:ar":"نيغوتينو","name:bg":"Неготино","name:fa":"نگوتینو","name:hr":"Negotino","name:ka":"ნეგოტინო","name:ko":"네고티노","name:la":"Antigonea","name:lt":"Negotinas","name:ps":"نګوتینو","name:sr":"Неготино","name:uk":"Неготино","name:grc":"Αντιγονεία","alt_name:la":"Antigonia;Antigoneia","alt_name:ru":"Неготин","old_name:bg":"Неготин;Нѣготино;Нѣготинъ","old_name:mk":"Антигонеја","old_name:sr":"Антигонеа;Неготин","name:sr-Latn":"Negotino","name:zh-Hans":"内戈蒂诺","name:zh-Hant":"內戈蒂諾","old_name:sr-Latn":"Antigonea;Negotin","alt:tr":"Negotin"},"display_name":"Неготино, Општина Неготино, 1440, Северна Македонија","address":{"town":"Неготино","municipality":"Општина Неготино","ISO3166-2-lvl7":"MK-106","postcode":"1440","country":"Северна Македонија","country_code":"mk"},"population":13390,"osm_type":"relation","osm_id":6793092,"type":"administrative","location":[22.0879051,41.4832929],"bbox":[22.0484018,41.4733772,22.1365882,41.5186998]}}
{"name":"Ново Село","other_names":{"name:en":"Novo Selo","name:mk":"Ново Село","int_name":"Novo Selo"},"display_name":"Ново Село, Општина Штип, Северна Македонија","address":{"city":"Ново Село","municipality":"Општина Штип","ISO3166-2-lvl7":"MK-211","country":"Северна Македонија","country_code":"mk"},"osm_type":"relation","osm_id":6791493,"type":"administrative","location":[22.296149212749555,41.61698235],"bbox":[22.2813463,41.6024649,22.312417,41.6316349],"inferred_type":"city"}
{"display_name":"Општина Битола, 7000, Северна Македонија","address":{"municipality":"Општина Битола","ISO3166-2-lvl7":"MK-501","postcode":"7000","country":"Северна Македонија","country_code":"mk"},"osm_type":"relation","osm_id":5289928,"type":"city","location":[21.339367248183954,41.035298],"bbox":[21.2877603,41.0027837,21.3700294,41.0678033]}
{"name":"Охрид","other_names":{"name:bg":"Охрид","name:de":"Ohrid","name:el":"Οχρίδα","name:en":"Ohrid","name:et":"Ohrid","name:fr":"Ohrid","name:hr":"Ohrid","name:hu":"Ohrid","name:it":"Ocrida","name:lt":"Ochridas","name:ml":"ഓഹ്രിഡ്","name:pl":"Ochryda","name:ro":"Ohrida","name:ru":"Охрид","name:sk":"Ochrid","name:sq":"Ohër","name:sr":"Охрид","name:tr":"Ohri","name:uk":"Охрид","int_name":"Ohrid","alt_name:sh":"Ohri;Ohra","name:sr-Latn":"Ohrid"},"display_name":"Охрид, Општина Охрид, Северна Македонија","address":{"city":"Охрид","municipality":"Општина Охрид","ISO3166-2-lvl7":"MK-310","country":"Северна Македонија","country_code":"mk"},"population":38940,"osm_type":"node","osm_id":1851487116,"type":"city","location":[20.8017715,41.1170203],"bbox":[20.6417715,40.9570203,20.9617715,41.2770203],"border":{"name":"Охрид","other_names":{"name:de":"Ohrid","name:en":"Ohrid","name:es":"Ohrid","name:fr":"Ohrid","name:hr":"Ohrid","name:mk":"Охрид","name:sk":"Ochrid","name:sq":"Ohër","name:uk":"Охрид","int_name":"Ohrid","name:bg":"Охрид","name:el":"Οχρίδα","name:et":"Ohrid","name:hu":"Ohrid","name:it":"Ocrida","name:lt":"Ochridas","name:ml":"ഓഹ്രിഡ്","name:pl":"Ochryda","name:ro":"Ohrida","name:ru":"Охрид","name:sr":"Охрид","name:tr":"Ohri","alt_name:sh":"Ohri;Ohra","name:sr-Latn":"Ohrid"},"display_name":"Охрид, Општина Охрид, 6000, Северна Македонија","address":{"city":"Охрид","municipality":"Општина Охрид","ISO3166-2-lvl7":"MK-310","postcode":"6000","country":"Северна Македонија","country_code":"mk"},"population":38940,"osm_type":"relation","osm_id":6483644,"type":"administrative","location":[20.8017715,41.1170203],"bbox":[20.6748028,41.0791672,20.8303644,41.1486339]}}
{"name":"Прилеп","other_names":{"name:ar":"بريليب","name:be":"Прылеп","name:bg":"Прилеп","name:de":"Prilep","name:el":"Πρίλεπ","name:en":"Prilep","name:et":"Prilep","name:fa":"پریلپ","name:fr":"Prilep","name:he":"פרילפ","name:hr":"Prilep","name:hy":"Պրիլեպ","name:ja":"プリレプ","name:ka":"პრილეპი","name:kk":"Прилеп","name:ko":"프릴레프","name:la":"Prilapum","name:lt":"Prilepas","name:lv":"Prilepa","name:mk":"Прилеп","name:ml":"പ്രിലെപ്പ്","name:os":"Прилеп","name:ps":"پریلپ","name:pt":"Prilepo","name:ru":"Прилеп","name:sq":"Përlepi","name:sr":"Прилеп","name:th":"ปรีเลป","name:tr":"Pirlepe","name:tt":"Прилеп","name:uk":"Прилеп","name:ur":"پریلیپ","int_name":"Prilep","name:mdf":"Прилэп","alt_name:el":"Πρίλαπος;Πριλέπια;Περλεπές","alt_name:la":"Stuberra","alt_name:sq":"Përlep","alt_name:tr":"Perlepe","name:sr-Latn":"Prilep","name:zh-Hans":"普里莱普","name:zh-Hant":"普里萊普"},"display_name":"Прилеп, Општина Прилеп, Северна Македонија","address":{"city":"Прилеп","municipality":"Општина Прилеп","ISO3166-2-lvl7":"MK-508","country":"Северна Македонија","country_code":"mk"},"population":63308,"osm_type":"node","osm_id":388170933,"type":"city","location":[21.5527115,41.3444984],"bbox":[21.3927115,41.1844984,21.7127115,41.5044984],"border":{"name":"Прилеп","other_names":{"name:en":"Prilep","name:mk":"Прилеп","name:uk":"Прилеп","name:ar":"بريليب","name:be":"Прылеп","name:bg":"Прилеп","name:de":"Prilep","name:el":"Πρίλεπ","name:et":"Prilep","name:fa":"پریلپ","name:fr":"Prilep","name:he":"פרילפ","name:hr":"Prilep","name:hy":"Պրիլեպ","name:ja":"プリレプ","name:ka":"პრილეპი","name:kk":"Прилеп","name:ko":"프릴레프","name:la":"Prilapum","name:lt":"Prilepas","name:lv":"Prilepa","name:ml":"പ്രിലെപ്പ്","name:os":"Прилеп","name:ps":"پریلپ","name:pt":"Prilepo","name:ru":"Прилеп","name:sq":"Përlepi","name:sr":"Прилеп","name:th":"ปรีเลป","name:tr":"Pirlepe","name:tt":"Прилеп","name:ur":"پریلیپ","int_name":"Prilep","name:mdf":"Прилэп","alt_name:el":"Πρίλαπος;Πριλέπια;Περλεπές","alt_name:la":"Stuberra","alt_name:sq":"Përlep","alt_name:tr":"Perlepe","name:sr-Latn":"Prilep","name:zh-Hans":"普里莱普","name:zh-Hant":"普里萊普"},"display_name":"Прилеп, Општина Прилеп, Северна Македонија","address":{"city":"Прилеп","municipality":"Општина Прилеп","ISO3166-2-lvl7":"MK-508","country":"Северна Македонија","country_code":"mk"},"population":63308,"osm_type":"relation","osm_id":6420039,"type":"administrative","location":[21.5527115,41.3444984],"bbox":[21.470087,41.3131167,21.6155737,41.4077451]}}
{"name":"Скопје","other_names":{"name:ab":"Скопие","name:af":"Skopje","name:am":"ስኮፕዬ","name:an":"Scopia","name:ar":"إسكوبية","name:az":"Skopye","name:ba":"Скопье","name:be":"Скоп'е","name:bg":"Скопие","name:bh":"स्कोप्ये","name:bn":"স্কপিয়ে","name:bo":"སི་ཀོཔ་ཇི།","name:br":"Skopje","name:bs":"Skoplje","name:ca":"Skopje","name:ce":"Скопье","name:cs":"Skopje","name:cu":"Съкопиѥ","name:cv":"Скопйе","name:cy":"Skopje","name:da":"Skopje","name:de":"Skopje","name:el":"Σκόπια","name:en":"Skopje","name:eo":"Skopjo","name:es":"Skopie","name:et":"Skopje","name:eu":"Skopje","name:fa":"اسکوپیه","name:fi":"Skopje","name:fo":"Skopje","name:fr":"Skopje","name:fy":"Skopje","name:ga":"Scóipé","name:gd":"Skopje","name:gl":"Skopje","name:gv":"Skopje","name:ha":"Skopje","name:he":"סקופיה","name:hi":"स्कोपिये","name:hr":"Skoplje","name:ht":"Skopje","name:hu":"Szkopje","name:hy":"Սկոպյե","name:ia":"Skopje","name:id":"Skopje","name:ie":"Skopje","name:io":"Skopje","name:is":"Skopje","name:it":"Skopje","name:ja":"スコピエ","name:jv":"Skopje","name:ka":"სკოპიე","name:kg":"Skopje","name:kk":"Скопье","name:ko":"스코페","name:ku":"Skopye","name:kv":"Скопье","name:kw":"Skopje","name:la":"Scupi","name:lb":"Skopje","name:ln":"Skopye","name:lt":"Skopjė","name:lv":"Skopje","name:mg":"Skopje","name:mi":"Skopje","name:mk":"Скопје","name:ml":"സ്കൊപ്യെ","name:mn":"Скопье","name:mr":"स्कोप्ये","name:ms":"Skopje","name:mt":"Skopje","name:nb":"Skopje","name:nl":"Skopje","name:nn":"Skopje","name:no":"Skopje","name:oc":"Skopje","name:os":"Скопье","name:pa":"ਸਕੋਪੀਏ","name:pl":"Skopje","name:ps":"اسکوپیه","name:pt":"Escópia","name:qu":"Skopje","name:ro":"Skopje","name:ru":"Скопье","name:sc":"Skopje","name:sd":"اسڪوپجي","name:se":"Skopje","name:sh":"Skoplje","name:sk":"Skopje","name:sl":"Skopje","name:sn":"Skopje","name:sq":"Shkup","name:sr":"Скопље","name:sv":"Skopje","name:sw":"Skopje","name:ta":"ஸ்கோப்ஜே","name:tg":"Скопе","name:th":"สโกเปีย","name:tl":"Skopje","name:tr":"Üsküp","name:tt":"Өскеп","name:ug":"سكوپليې","name:uk":"Скоп'є","name:ur":"اسکوپیہ","name:uz":"Skopye","name:vi":"Skopje","name:vo":"Skopje","name:wo":"Skopje","name:yi":"סקאפיע","name:yo":"Skopje","name:zh":"斯科普里","int_name":"Skopje","name:ast":"Skopie","name:azb":"ایسکوپیه","name:crh":"Üsküp","name:grc":"Σκοῦποι","name:kab":"Skopje","name:lad":"Skopia","name:mzn":"اسکوپیه","name:pnb":"سکوپ جے","name:rmy":"Skopiye","name:udm":"Скопье","alt_name:ar":"سكوبيه;سكوبجي","alt_name:fa":"اسکوپیا","alt_name:vi":"Xcốp-pi-ê","name:roa-rup":"Scopia","name:zh-Hans":"斯科普里","name:zh-Hant":"史高比耶","name:be-tarask":"Скоп'е"},"display_name":"Скопје, Општина Центар, Град Скопје, Северна Македонија","address":{"city":"Скопје","municipality":"Општина Центар","ISO3166-2-lvl7":"MK-814","county":"Град Скопје","country":"Северна Македонија","country_code":"mk"},"population":422540,"osm_type":"node","osm_id":170792214,"type":"city","location":[21.4319213,41.9961816],"bbox":[21.2719213,41.8361816,21.5919213,42.1561816],"border":{"name":"Скопје","other_names":{"name:ar":"إسكوبية","name:de":"Skopje","name:el":"Σκόπια","name:en":"Skopje","name:eo":"Skopjo","name:fa":"اسکوپیه","name:fr":"Skopje","name:hr":"Skoplje","name:it":"Skopje","name:mk":"Скопје","name:pt":"Escópia","name:sq":"Shkup","name:sr":"Скопље","name:ur":"اسکوپیہ","name:vi":"Skopje","int_name":"Skopje","name:azb":"ایسکوپیه","name:grc":"Σκοῦποι","alt_name:ar":"سكوبيه;سكوبجي","alt_name:fa":"اسکوپیا","alt_name:vi":"Xcốp-pi-ê","name:zh-Hans":"斯科普里","name:zh-Hant":"史高比耶","name:ab":"Скопие","name:af":"Skopje","name:am":"ስኮፕዬ","name:an":"Scopia","name:az":"Skopye","name:ba":"Скопье","name:be":"Скоп'е","name:bg":"Скопие","name:bh":"स्कोप्ये","name:bn":"স্কপিয়ে","name:bo":"སི་ཀོཔ་ཇི།","name:br":"Skopje","name:bs":"Skoplje","name:ca":"Skopje","name:ce":"Скопье","name:cs":"Skopje","name:cu":"Съкопиѥ","name:cv":"Скопйе","name:cy":"Skopje","name:da":"Skopje","name:es":"Skopie","name:et":"Skopje","name:eu":"Skopje","name:fi":"Skopje","name:fo":"Skopje","name:fy":"Skopje","name:ga":"Scóipé","name:gd":"Skopje","name:gl":"Skopje","name:gv":"Skopje","name:ha":"Skopje","name:he":"סקופיה","name:hi":"स्कोपिये","name:ht":"Skopje","name:hu":"Szkopje","name:hy":"Սկոպյե","name:ia":"Skopje","name:id":"Skopje","name:ie":"Skopje","name:io":"Skopje","name:is":"Skopje","name:ja":"スコピエ","name:jv":"Skopje","name:ka":"სკოპიე","name:kg":"Skopje","name:kk":"Скопье","name:ko":"스코페","name:ku":"Skopye","name:kv":"Скопье","name:kw":"Skopje","name:la":"Scupi","name:lb":"Skopje","name:ln":"Skopye","name:lt":"Skopjė","name:lv":"Skopje","name:mg":"Skopje","name:mi":"Skopje","name:ml":"സ്കൊപ്യെ","name:mn":"Скопье","name:mr":"स्कोप्ये","name:ms":"Skopje","name:mt":"Skopje","name:nb":"Skopje","name:nl":"Skopje","name:nn":"Skopje","name:no":"Skopje","name:oc":"Skopje","name:os":"Скопье","name:pa":"ਸਕੋਪੀਏ","name:pl":"Skopje","name:ps":"اسکوپیه","name:qu":"Skopje","name:ro":"Skopje","name:ru":"Скопье","name:sc":"Skopje","name:sd":"اسڪوپجي","name:se":"Skopje","name:sh":"Skoplje","name:sk":"Skopje","name:sl":"Skopje","name:sn":"Skopje","name:sv":"Skopje","name:sw":"Skopje","name:ta":"ஸ்கோப்ஜே","name:tg":"Скопе","name:th":"สโกเปีย","name:tl":"Skopje","name:tr":"Üsküp","name:tt":"Өскеп","name:ug":"سكوپليې","name:uk":"Скоп'є","name:uz":"Skopye","name:vo":"Skopje","name:wo":"Skopje","name:yi":"סקאפיע","name:yo":"Skopje","name:zh":"斯科普里","name:ast":"Skopie","name:crh":"Üsküp","name:kab":"Skopje","name:lad":"Skopia","name:mzn":"اسکوپیه","name:pnb":"سکوپ جے","name:rmy":"Skopiye","name:udm":"Скопье","name:roa-rup":"Scopia","name:be-tarask":"Скоп'е"},"display_name":"Скопје, Општина Центар, Град Скопје, Северна Македонија","address":{"city":"Скопје","municipality":"Општина Центар","ISO3166-2-lvl7":"MK-814","county":"Град Скопје","country":"Северна Македонија","country_code":"mk"},"population":422540,"osm_type":"relation","osm_id":6966465,"type":"administrative","location":[21.4319213,41.9961816],"bbox":[21.3154077,41.9345627,21.5377092,42.0712279]}}
{"name":"Струмица","other_names":{"name:ar":"ستروميكا","name:be":"Струміца","name:bg":"Струмица","name:de":"Strumica","name:el":"Στρώμνιτσα","name:en":"Strumica","name:et":"Strumica","name:fa":"اشترومیکا","name:fr":"Strumica","name:he":"סטרומיצה","name:hr":"Strumica","name:hu":"Sztrumica","name:hy":"Ստրումիցա","name:is":"Strumitsa","name:ja":"ストルミツァ","name:ka":"სტრუმიცა","name:kk":"Струмица","name:ko":"스트루미차","name:lt":"Strumica","name:mk":"Струмица","name:ml":"സ്ട്രുമിക്ക","name:pt":"Estrúmica","name:ro":"Strumița","name:ru":"Струмица","name:sq":"Strumica","name:sr":"Струмица","name:tr":"Ustrumca","name:uk":"Струмиця","name:ur":"سترومیتسا","int_name":"Strumica","alt_name:be":"Струмніца","alt_name:bg":"Струмница","alt_name:el":"Στρούμιτσα","alt_name:fr":"Stroumitsa","alt_name:kk":"Струмница","alt_name:nl":"Stroemitsa","alt_name:no":"Strumitsa","alt_name:sq":"Strumicë","alt_name:sr":"Стромница","alt_name:tr":"Usturumca","name:sr-Latn":"Strumica","name:zh-Hans":"斯特鲁米察","name:zh-Hant":"斯特魯米察","alt_name:sr-Latn":"Stromnica"},"display_name":"Струмица, Општина Струмица, Северна Македонија","address":{"city":"Струмица","municipality":"Општина Струмица","ISO3166-2-lvl7":"MK-410","country":"Северна Македонија","country_code":"mk"},"population":36000,"osm_type":"node","osm_id":185561545,"type":"city","location":[22.6374139,41.4390081],"bbox":[22.4774139,41.2790081,22.7974139,41.5990081],"border":{"name":"Струмица","other_names":{"name:de":"Strumica","name:el":"Στρώμνιτσα","name:en":"Strumica","name:fr":"Stroumitsa","name:he":"סטרומיצה","name:hr":"Strumica","name:lt":"Strumica","name:mk":"Струмица","name:pt":"Strumica","name:ru":"Струмица","name:uk":"Струмиця","int_name":"Strumica","name:ar":"ستروميكا","name:be":"Струміца","name:bg":"Струмица","name:et":"Strumica","name:fa":"اشترومیکا","name:hu":"Sztrumica","name:hy":"Ստրումիցա","name:is":"Strumitsa","name:ja":"ストルミツァ","name:ka":"სტრუმიცა","name:kk":"Струмица","name:ko":"스트루미차","name:ml":"സ്ട്രുമിക്ക","name:ro":"Strumița","name:sq":"Strumica","name:sr":"Струмица","name:tr":"Ustrumca","name:ur":"سترومیتسا","alt_name:be":"Струмніца","alt_name:bg":"Струмница","alt_name:el":"Στρούμιτσα","alt_name:fr":"Stroumitsa","alt_name:kk":"Струмница","alt_name:nl":"Stroemitsa","alt_name:no":"Strumitsa","alt_name:sq":"Strumicë","alt_name:sr":"Стромница","alt_name:tr":"Usturumca","name:sr-Latn":"Strumica","name:zh-Hans":"斯特鲁米察","name:zh-Hant":"斯特魯米察","alt_name:sr-Latn":"Stromnica","alt:fr":"Strumica","alt:pt":"Estrúmica"},"display_name":"Струмица, Општина Струмица, Северна Македонија","address":{"city":"Струмица","municipality":"Општина Струмица","ISO3166-2-lvl7":"MK-410","country":"Северна Македонија","country_code":"mk"},"population":36000,"osm_type":"relation","osm_id":6875365,"type":"administrative","location":[22.6374139,41.4390081],"bbox":[22.593888,41.4063962,22.6755425,41.4626165]}}
{"name":"Тетово","other_names":{"name:ar":"تيتوفو","name:bg":"Тетово","name:de":"Tetovo","name:el":"Τέτοβο","name:en":"Tetovo","name:es":"Tetovo","name:et":"Tetovo","name:fr":"Tetovo","name:hr":"Tetovo","name:mk":"Тетово","name:ml":"ടെറ്റോവോ","name:ru":"Тетово","name:sq":"Tetovë","name:sr":"Тетово","name:tr":"Kalkandelen","name:uk":"Тетово","int_name":"Tetovo","name:sr-Latn":"Tetovo"},"display_name":"Тетово, Општина Тетово, 1200, Северна Македонија","address":{"city":"Тетово","municipality":"Општина Тетово","ISO3166-2-lvl7":"MK-609","postcode":"1200","country":"Северна Македонија","country_code":"mk"},"population":85000,"osm_type":"node","osm_id":293657706,"type":"city","location":[20.9728556,42.0068297],"bbox":[20.8128556,41.8468297,21.1328556,42.1668297],"border":{"name":"Тетово","other_names":{"name:en":"Tetovo","name:mk":"Тетово","name:ru":"Тетово","name:sq":"Tetovë","name:tr":"Kalkandelen","int_name":"Tetovo","name:ar":"تيتوفو","name:bg":"Тетово","name:de":"Tetovo","name:el":"Τέτοβο","name:es":"Tetovo","name:et":"Tetovo","name:fr":"Tetovo","name:hr":"Tetovo","name:ml":"ടെറ്റോവോ","name:sr":"Тетово","name:uk":"Тетово","name:sr-Latn":"Tetovo"},"display_name":"Тетово, Општина Тетово, 1200, Северна Македонија","address":{"city":"Тетово","municipality":"Општина Тетово","ISO3166-2-lvl7":"MK-609","postcode":"1200","country":"Северна Македонија","country_code":"mk"},"population":53000,"osm_type":"relation","osm_id":6928757,"type":"administrative","location":[20.9728556,42.0068297],"bbox":[20.9434202,41.9743756,21.0377723,42.0311414]}}
{"name":"Чарлија","other_names":{"name:en":"Charlija","name:mk":"Чарлија"},"display_name":"Чарлија, Општина Могила, Северна Македонија","address":{"city":"Чарлија","municipality":"Општина Могила","ISO3166-2-lvl7":"MK-506","country":"Северна Македонија","country_code":"mk"},"osm_type":"relation","osm_id":6435781,"type":"administrative","location":[21.440081140989136,41.144543999999996],"bbox":[21.4103371,41.128456,21.46092,41.1604011],"inferred_type":"city"}
{"name":"Штип","other_names":{"name:bg":"Щип","name:de":"Štip","name:el":"Στιπ","name:en":"Štip","name:es":"Štip","name:et":"Štip","name:fr":"Chtip","name:hr":"Štip","name:ml":"ഷ്ടിപ്പ്","name:pl":"Sztip","name:ro":"Štip","name:ru":"Штип","name:sl":"Štip","name:sq":"Shtip","name:sr":"Штип","name:tr":"İştip","name:uk":"Штіп","int_name":"Štip","name:sr-Latn":"Štip"},"display_name":"Штип, Општина Штип, Северна Македонија","address":{"city":"Штип","municipality":"Општина Штип","ISO3166-2-lvl7":"MK-211","country":"Северна Македонија","country_code":"mk"},"population":65000,"osm_type":"node","osm_id":417840346,"type":"city","location":[22.1935856,41.7374724],"bbox":[22.0335856,41.5774724,22.3535856,41.8974724],"border":{"name":"Штип","other_names":{"name:de":"Štip","name:en":"Shtip","name:es":"Štip","name:fr":"Chtip","name:mk":"Штип","name:pl":"Sztip","name:ro":"Štip","name:ru":"Штип","name:sl":"Štip","name:sq":"Shtip","name:uk":"Штіп","int_name":"Štip","name:bg":"Щип","name:el":"Στιπ","name:et":"Štip","name:hr":"Štip","name:ml":"ഷ്ടിപ്പ്","name:sr":"Штип","name:tr":"İştip","name:sr-Latn":"Štip","alt:en":"Štip"},"display_name":"Штип, Општина Штип, 2000, Северна Македонија","address":{"city":"Штип","municipality":"Општина Штип","ISO3166-2-lvl7":"MK-211","postcode":"2000","country":"Северна Македонија","country_code":"mk"},"population":65000,"osm_type":"relation","osm_id":6791464,"type":"administrative","location":[22.1935856,41.7374724],"bbox":[22.1218085,41.6942286,22.2580004,41.7773607]}}
