{"name":"Abengourou","other_names":{"name:ar":"أبنغورو","name:en":"Abengourou","name:fr":"Abengourou","name:hu":"Abengourou","name:ko":"아방구루","name:ru":"Абентуру","alt_name":"Abenguru"},"display_name":"Abengourou, Indénié-Djuablin, Comoé, Côte d’Ivoire","address":{"city":"Abengourou","county":"Abengourou","state_district":"Indénié-Djuablin","state":"Comoé","ISO3166-2-lvl4":"CI-CM","country":"Côte d’Ivoire","country_code":"ci"},"population":164424,"osm_type":"node","osm_id":2189893258,"type":"city","location":[-3.4968431,6.7269042],"bbox":[-3.6568431,6.5669042,-3.3368431,6.8869042],"border":{"name":"Abengourou","other_names":{"name:ar":"أبنغورو","name:fr":"Abengourou"},"display_name":"Abengourou, Indénié-Djuablin, Comoé, Côte d’Ivoire","address":{"county":"Abengourou","state_district":"Indénié-Djuablin","state":"Comoé","ISO3166-2-lvl4":"CI-CM","country":"Côte d’Ivoire","country_code":"ci"},"osm_type":"relation","osm_id":3706105,"type":"administrative","location":[-3.5107448730337767,6.667663],"bbox":[-3.799104,6.2430549,-3.1851231,7.0919681]}}
{"name":"Abidjan","other_names":{"name:af":"Abidjan","name:ar":"أبيدجان","name:be":"Абіджан","name:bg":"Абиджан","name:bm":"Abijan","name:bn":"আবিজান","name:br":"Abidjan","name:bs":"Abidjan","name:ca":"Abidjan","name:cs":"Abidžan","name:cy":"Abidjan","name:da":"Abidjan","name:de":"Abidjan","name:el":"Αμπιτζάν","name:en":"Abidjan","name:eo":"Abiĝano","name:es":"Abiyán","name:et":"Abidjan","name:eu":"Abidjan","name:fa":"آبیجان","name:fi":"Abidjan","name:fr":"Abidjan","name:gd":"Abidjan","name:gl":"Abidjan","name:gv":"Abidjan","name:he":"אבידג'אן","name:hi":"आबिजान","name:hr":"Abidjan","name:hu":"Abidjan","name:id":"Abidjan","name:io":"Abidjan","name:is":"Abidjan","name:it":"Abidjan","name:ja":"アビジャン","name:jv":"Abidjan","name:kn":"ಆಬಿಜಾನ್","name:ko":"아비장","name:la":"Abidjan","name:ln":"Abidjan","name:lt":"Abidžanas","name:lv":"Abidžāna","name:mg":"Abidjan","name:mk":"Абиџан","name:ml":"അബിജാൻ","name:mr":"आबिजान","name:ms":"Abidjan","name:nl":"Abidjan","name:nn":"Abidjan","name:no":"Abidjan","name:oc":"Abidjan","name:pl":"Abidżan","name:pt":"Abidjã","name:ro":"Abidjan","name:ru":"Абиджан","name:sc":"Abidjan","name:sk":"Abidjan","name:sl":"Abidžan","name:sq":"Abidjan","name:sr":"Абиџан","name:sv":"Abidjan","name:sw":"Abidjan","name:th":"อาบีจาน","name:tk":"Abijan","name:tr":"Abidjan","name:uk":"Абіджан","name:vi":"Abidjan","name:vo":"Abidjan","name:yo":"Abidjan","name:zh":"阿比让/阿比讓","loc_name":"Babi","name:als":"Abidjan","name:bru":"Abidjan","name:kab":"Abidjan","name:lmo":"Abidjan","name:nan":"Abidjan","name:nov":"Abidjan","name:pms":"Abidjan","name:war":"Abidjan","name:bat-smg":"Abidžans","name:roa-rup":"Abidjan","name:zh-Hans":"阿比让","name:zh-Hant":"阿比讓"},"display_name":"Abidjan, Le Plateau, Abidjan, Côte d’Ivoire","address":{"city":"Abidjan","state":"Abidjan","ISO3166-2-lvl4":"CI-AB","country":"Côte d’Ivoire","country_code":"ci"},"population":7567409,"osm_type":"node","osm_id":1046100133,"type":"city","location":[-4.016107,5.320357],"bbox":[-4.176107,5.160357,-3.856107,5.480357]}
{"name":"Abobo","other_names":{"name:ar":"أبوبو"},"display_name":"Abobo, Abidjan, Côte d’Ivoire","address":{"city":"Abobo","state":"Abidjan","ISO3166-2-lvl4":"CI-AB","country":"Côte d’Ivoire","country_code":"ci"},"population":1340083,"osm_type":"node","osm_id":489212228,"type":"city","location":[-4.0202247,5.4263155],"bbox":[-4.1802247,5.2663155,-3.8602247,5.5863155],"border":{"name":"Abobo","other_names":{"name:ar":"أبوبو","name:fr":"Abobo"},"display_name":"Abobo, Abidjan, Côte d’Ivoire","address":{"city":"Abobo","state":"Abidjan","ISO3166-2-lvl4":"CI-AB","country":"Côte d’Ivoire","country_code":"ci"},"population":1500000,"osm_type":"relation","osm_id":3377895,"type":"administrative","location":[-4.0202247,5.4263155],"bbox":[-4.1713083,5.3853371,-3.953265,5.4762824]}}
{"name":"Adjamé","other_names":{"name:hu":"Adjamé"},"display_name":"Adjamé, Abidjan, Côte d’Ivoire","address":{"city":"Adjamé","state":"Abidjan","ISO3166-2-lvl4":"CI-AB","country":"Côte d’Ivoire","country_code":"ci"},"population":340892,"osm_type":"node","osm_id":244527828,"type":"city","location":[-4.0222008,5.3531211],"bbox":[-4.1822008,5.1931211,-3.8622008,5.5131211],"border":{"name":"Adjamé","other_names":{"name:fr":"Adjamé","name:hu":"Adjamé"},"display_name":"Adjamé, Abidjan, Côte d’Ivoire","address":{"city":"Adjamé","state":"Abidjan","ISO3166-2-lvl4":"CI-AB","country":"Côte d’Ivoire","country_code":"ci"},"population":254290,"osm_type":"relation","osm_id":3377835,"type":"administrative","location":[-4.0222008,5.3531211],"bbox":[-4.0332987,5.3382542,-4.0060147,5.3993988]}}
{"name":"Adzopé","display_name":"Adzopé, Mé, Lagunes, Côte d’Ivoire","address":{"city":"Adzopé","state_district":"Mé","state":"Lagunes","ISO3166-2-lvl4":"CI-LG","country":"Côte d’Ivoire","country_code":"ci"},"population":156488,"osm_type":"node","osm_id":1225847163,"type":"city","location":[-3.8640409,6.1058336],"bbox":[-4.0240409,5.9458336,-3.7040409,6.2658336]}
{"name":"Agboville","other_names":{"name:ar":"أغبوفيل","name:fr":"Agboville","name:ru":"Агбовиль"},"display_name":"Agboville, Agnéby-Tiassa, Lagunes, Côte d’Ivoire","address":{"city":"Agboville","state_district":"Agnéby-Tiassa","state":"Lagunes","ISO3166-2-lvl4":"CI-LG","country":"Côte d’Ivoire","country_code":"ci"},"population":135082,"osm_type":"node","osm_id":2721007532,"type":"city","location":[-4.2131327,5.9307328],"bbox":[-4.3731327,5.7707328,-4.0531327,6.0907328]}
{"name":"Anyama","other_names":{"name:ar":"أنياما","name:ru":"Аньяма","alt_name":"Aniama"},"display_name":"Anyama, Abidjan, Côte d’Ivoire","address":{"city":"Anyama","state":"Abidjan","ISO3166-2-lvl4":"CI-AB","country":"Côte d’Ivoire","country_code":"ci"},"population":389592,"osm_type":"node","osm_id":1225859428,"type":"city","location":[-4.0512414,5.4960537],"bbox":[-4.2112414,5.3360537,-3.8912414,5.6560537],"border":{"name":"Anyama","other_names":{"name:ar":"أنياما","name:fr":"Anyama","name:ru":"Аньяма","alt_name":"Aniama"},"display_name":"Anyama, Abidjan, Côte d’Ivoire","address":{"city":"Anyama","state":"Abidjan","ISO3166-2-lvl4":"CI-AB","country":"Côte d’Ivoire","country_code":"ci"},"population":389592,"osm_type":"relation","osm_id":3377941,"type":"administrative","location":[-4.0512414,5.4960537],"bbox":[-4.2733397,5.3746603,-3.8135371,5.6363268]}}
{"name":"Attécoubé","other_names":{"alt_name":"Attiékoubé"},"display_name":"Attécoubé, Abidjan, Côte d’Ivoire","address":{"city":"Attécoubé","state":"Abidjan","ISO3166-2-lvl4":"CI-AB","country":"Côte d’Ivoire","country_code":"ci"},"population":313135,"osm_type":"node","osm_id":489212182,"type":"city","location":[-4.034076,5.3481717],"bbox":[-4.194076,5.1881717,-3.874076,5.5081717],"border":{"name":"Attécoubé","other_names":{"name:fr":"Attécoubé","alt_name":"Attiékoubé"},"display_name":"Attécoubé, Abidjan, Côte d’Ivoire","address":{"city":"Attécoubé","state":"Abidjan","ISO3166-2-lvl4":"CI-AB","country":"Côte d’Ivoire","country_code":"ci"},"population":207586,"osm_type":"relation","osm_id":3377820,"type":"administrative","location":[-4.034076,5.3481717],"bbox":[-4.0842674,5.304286,-4.021135,5.4266253]}}
{"name":"Bingerville","display_name":"Bingerville, Abidjan, Côte d’Ivoire","address":{"city":"Bingerville","state":"Abidjan","ISO3166-2-lvl4":"CI-AB","country":"Côte d’Ivoire","country_code":"ci"},"population":204656,"osm_type":"node","osm_id":1601215067,"type":"city","location":[-3.8885591,5.3577727],"bbox":[-4.0485591,5.1977727,-3.7285591,5.5177727],"border":{"name":"Bingerville","display_name":"Bingerville, Abidjan, Côte d’Ivoire","address":{"city":"Bingerville","state":"Abidjan","ISO3166-2-lvl4":"CI-AB","country":"Côte d’Ivoire","country_code":"ci"},"population":204656,"osm_type":"relation","osm_id":3377922,"type":"administrative","location":[-3.8885591,5.3577727],"bbox":[-3.9332798,5.2728319,-3.7177411,5.423976]}}
{"name":"Bondoukou","other_names":{"name:fr":"Bondoukou","alt_name":"Bondoukau"},"display_name":"Bondoukou, Gontougo, Zanzan, Côte d’Ivoire","address":{"city":"Bondoukou","municipality":"Bondoukou","state_district":"Gontougo","state":"Zanzan","ISO3166-2-lvl4":"CI-ZZ","country":"Côte d’Ivoire","country_code":"ci"},"population":141568,"osm_type":"node","osm_id":2725962976,"type":"city","location":[-2.7984258,8.0397992],"bbox":[-2.9584258,7.8797992,-2.6384258,8.1997992],"border":{"name":"Bondoukou","display_name":"Bondoukou, Gontougo, Zanzan, Côte d’Ivoire","address":{"municipality":"Bondoukou","state_district":"Gontougo","state":"Zanzan","ISO3166-2-lvl4":"CI-ZZ","country":"Côte d’Ivoire","country_code":"ci"},"osm_type":"relation","osm_id":10757666,"type":"administrative","location":[-2.7992571718223545,8.08433895],"bbox":[-3.0055659,7.922451,-2.597754,8.2264168]}}
{"name":"Bouaflé","display_name":"Bouaflé, Marahoué, Sassandra-Marahoué, Côte d’Ivoire","address":{"city":"Bouaflé","state_district":"Marahoué","state":"Sassandra-Marahoué","ISO3166-2-lvl4":"CI-SM","country":"Côte d’Ivoire","country_code":"ci"},"population":213967,"osm_type":"node","osm_id":4387322934,"type":"city","location":[-5.7458332,6.980181],"bbox":[-5.9058332,6.820181,-5.5858332,7.140181]}
{"name":"Bouaké","other_names":{"name:ar":"بواكي","name:en":"Bouaké","name:fa":"بوآکه","name:fr":"Bouaké","name:ko":"부아케","name:lt":"Bvakė","name:ru":"Буаке","name:ur":"بؤاکے","int_name":"Bouake","old_name":"Gbêkêkro"},"display_name":"Bouaké, Gbêkê, Vallée du Bandama, Côte d’Ivoire","address":{"city":"Bouaké","state_district":"Gbêkê","state":"Vallée du Bandama","ISO3166-2-lvl4":"CI-VB","country":"Côte d’Ivoire","country_code":"ci"},"population":832371,"osm_type":"node","osm_id":27565008,"type":"city","location":[-5.0283552,7.6890212],"bbox":[-5.1883552,7.5290212,-4.8683552,7.8490212]}
{"name":"Cocody","display_name":"Cocody, Abidjan, Côte d’Ivoire","address":{"city":"Cocody","state":"Abidjan","ISO3166-2-lvl4":"CI-AB","country":"Côte d’Ivoire","country_code":"ci"},"population":692583,"osm_type":"node","osm_id":243777012,"type":"city","location":[-3.994934,5.357367],"bbox":[-4.154934,5.197367,-3.834934,5.517367],"border":{"name":"Cocody","display_name":"Cocody, Abidjan, Côte d’Ivoire","address":{"city":"Cocody","state":"Abidjan","ISO3166-2-lvl4":"CI-AB","country":"Côte d’Ivoire","country_code":"ci"},"population":251000,"osm_type":"relation","osm_id":3363950,"type":"administrative","location":[-3.994934,5.357367],"bbox":[-4.0178135,5.3178639,-3.9122457,5.4466467]}}
{"name":"Dabou","other_names":{"name:fr":"Dabou","name:ru":"Дабу","alt_name":"Dabu"},"display_name":"Dabou, Grands-Ponts, Lagunes, Côte d’Ivoire","address":{"city":"Dabou","state_district":"Grands-Ponts","state":"Lagunes","ISO3166-2-lvl4":"CI-LG","country":"Côte d’Ivoire","country_code":"ci"},"population":138083,"osm_type":"node","osm_id":1605486862,"type":"city","location":[-4.3722982,5.3239991],"bbox":[-4.5322982,5.1639991,-4.2122982,5.4839991]}
{"name":"Daloa","other_names":{"name:ar":"دالوا","name:en":"Daloa","name:fa":"دالوا","name:fr":"Daloa","name:ko":"달로아","name:ru":"Далоа","name:uk":"Далоа","name:ur":"دالوا"},"display_name":"Daloa, Haut-Sassandra, Sassandra-Marahoué, Côte d’Ivoire","address":{"city":"Daloa","state_district":"Haut-Sassandra","state":"Sassandra-Marahoué","ISO3166-2-lvl4":"CI-SM","country":"Côte d’Ivoire","country_code":"ci"},"population":421879,"osm_type":"node","osm_id":1597912529,"type":"city","location":[-6.4529859,6.8869233],"bbox":[-6.6129859,6.7269233,-6.2929859,7.0469233]}
{"name":"Danané","display_name":"Danané, Tonkpi, Montagnes, Côte d’Ivoire","address":{"city":"Danané","state_district":"Tonkpi","state":"Montagnes","ISO3166-2-lvl4":"CI-MG","country":"Côte d’Ivoire","country_code":"ci"},"population":131586,"osm_type":"node","osm_id":1597916993,"type":"city","location":[-8.1546282,7.2631278],"bbox":[-8.3146282,7.1031278,-7.9946282,7.4231278]}
{"name":"Divo","other_names":{"name:fr":"Divo","name:ru":"Диво","loc_name":"Boudougou"},"display_name":"Divo, Lôh-Djiboua, Gôh-Djiboua, Côte d’Ivoire","address":{"city":"Divo","state_district":"Lôh-Djiboua","state":"Gôh-Djiboua","ISO3166-2-lvl4":"CI-GD","country":"Côte d’Ivoire","country_code":"ci"},"population":294559,"osm_type":"node","osm_id":443389991,"type":"city","location":[-5.3549049,5.8405332],"bbox":[-5.5149049,5.6805332,-5.1949049,6.0005332]}
{"name":"Duékoué","other_names":{"name:en":"Duekoue","name:fr":"Duékoué","name:lt":"Dvekvė"},"display_name":"Duékoué, Guémon, Montagnes, Côte d’Ivoire","address":{"city":"Duékoué","municipality":"Duékoué","state_district":"Guémon","state":"Montagnes","ISO3166-2-lvl4":"CI-MG","country":"Côte d’Ivoire","country_code":"ci"},"population":220953,"osm_type":"node","osm_id":1079388440,"type":"city","location":[-7.3432667,6.7453048],"bbox":[-7.5032667,6.5853048,-7.1832667,6.9053048],"border":{"name":"Duékoué","display_name":"Duékoué, Guémon, Montagnes, Côte d’Ivoire","address":{"municipality":"Duékoué","state_district":"Guémon","state":"Montagnes","ISO3166-2-lvl4":"CI-MG","country":"Côte d’Ivoire","country_code":"ci"},"osm_type":"relation","osm_id":10757682,"type":"administrative","location":[-7.425218155057541,6.71397265],"bbox":[-7.5862305,6.5668384,-7.2331806,6.8636927]}}
{"name":"Ferkéssédougou","other_names":{"name:fr":"Ferkéssédougou","short_name":"Ferké"},"display_name":"Ferkéssédougou, Tchologo, Savanes, Côte d’Ivoire","address":{"city":"Ferkéssédougou","state_district":"Tchologo","state":"Savanes","ISO3166-2-lvl4":"CI-SV","country":"Côte d’Ivoire","country_code":"ci"},"population":160267,"osm_type":"node","osm_id":1828765103,"type":"city","location":[-5.1975952,9.5939778],"bbox":[-5.3575952,9.4339778,-5.0375952,9.7539778]}
{"name":"Gagnoa","other_names":{"name:ar":"غانيوا","name:fr":"Gagnoa","name:ru":"Ганьоа","alt_name":"Gragnoa"},"display_name":"Gagnoa, Gôh, Gôh-Djiboua, Côte d’Ivoire","address":{"city":"Gagnoa","state_district":"Gôh","state":"Gôh-Djiboua","ISO3166-2-lvl4":"CI-GD","country":"Côte d’Ivoire","country_code":"ci"},"population":277044,"osm_type":"node","osm_id":443395221,"type":"city","location":[-5.9510987,6.1334787],"bbox":[-6.1110987,5.9734787,-5.7910987,6.2934787]}
{"name":"Grand-Bassam","display_name":"Grand-Bassam, Sud-Comoé, Comoé, Côte d’Ivoire","address":{"city":"Grand-Bassam","county":"Grand-Bassam","state_district":"Sud-Comoé","state":"Comoé","ISO3166-2-lvl4":"CI-CM","country":"Côte d’Ivoire","country_code":"ci"},"population":124567,"osm_type":"node","osm_id":1593622307,"type":"city","location":[-3.743226,5.212884],"bbox":[-3.903226,5.052884,-3.583226,5.372884],"border":{"name":"Grand-Bassam","display_name":"Grand-Bassam, Sud-Comoé, Comoé, Côte d’Ivoire","address":{"county":"Grand-Bassam","state_district":"Sud-Comoé","state":"Comoé","ISO3166-2-lvl4":"CI-CM","country":"Côte d’Ivoire","country_code":"ci"},"osm_type":"relation","osm_id":3704475,"type":"administrative","location":[-3.5169637721058744,5.41350405],"bbox":[-3.8548011,5.1639556,-3.4059107,5.6068622]}}
{"name":"Guiglo","other_names":{"name:fr":"Guiglo","name:ru":"Гигло"},"display_name":"Guiglo, Cavally, Montagnes, Côte d’Ivoire","address":{"city":"Guiglo","municipality":"Guiglo","state_district":"Cavally","state":"Montagnes","ISO3166-2-lvl4":"CI-MG","country":"Côte d’Ivoire","country_code":"ci"},"population":171454,"osm_type":"node","osm_id":2726670194,"type":"city","location":[-7.4959686,6.5491401],"bbox":[-7.6559686,6.3891401,-7.3359686,6.7091401],"border":{"name":"Guiglo","display_name":"Guiglo, Cavally, Montagnes, Côte d’Ivoire","address":{"municipality":"Guiglo","state_district":"Cavally","state":"Montagnes","ISO3166-2-lvl4":"CI-MG","country":"Côte d’Ivoire","country_code":"ci"},"osm_type":"relation","osm_id":10757680,"type":"administrative","location":[-7.5909032112704775,6.43034025],"bbox":[-7.9037463,6.1767402,-7.1925049,6.6832948]}}
{"name":"Issia","display_name":"Issia, Haut-Sassandra, Sassandra-Marahoué, Côte d’Ivoire","address":{"city":"Issia","state_district":"Haut-Sassandra","state":"Sassandra-Marahoué","ISO3166-2-lvl4":"CI-SM","country":"Côte d’Ivoire","country_code":"ci"},"population":126252,"osm_type":"node","osm_id":1599890269,"type":"city","location":[-6.5887859,6.4877871],"bbox":[-6.7487859,6.3277871,-6.4287859,6.6477871]}
{"name":"Korhogo","other_names":{"name:ar":"كورهوغو","name:en":"Korhogo","name:fr":"Korhogo","name:ko":"코로고","name:lt":"Korhogas","name:ru":"Корого","name:uk":"Корого"},"display_name":"Korhogo, Poro, Savanes, Côte d’Ivoire","address":{"city":"Korhogo","state_district":"Poro","state":"Savanes","ISO3166-2-lvl4":"CI-SV","country":"Côte d’Ivoire","country_code":"ci"},"population":440926,"osm_type":"node","osm_id":1599959917,"type":"city","location":[-5.6316293,9.4580698],"bbox":[-5.7916293,9.2980698,-5.4716293,9.6180698]}
{"name":"Koumassi","other_names":{"name:bg":"Кумаси","name:ro":"Koumassi"},"display_name":"Koumassi, Abidjan, Côte d’Ivoire","address":{"city":"Koumassi","municipality":"Koumassi","state":"Abidjan","ISO3166-2-lvl4":"CI-AB","country":"Côte d’Ivoire","country_code":"ci"},"population":412282,"osm_type":"node","osm_id":489212186,"type":"city","location":[-3.9585801,5.2927045],"bbox":[-4.1185801,5.1327045,-3.7985801,5.4527045],"border":{"name":"Koumassi","other_names":{"name:fr":"Koumassi","name:bg":"Кумаси","name:ro":"Koumassi"},"display_name":"Koumassi, Abidjan, Côte d’Ivoire","address":{"municipality":"Koumassi","state":"Abidjan","ISO3166-2-lvl4":"CI-AB","country":"Côte d’Ivoire","country_code":"ci"},"population":317562,"osm_type":"relation","osm_id":3377741,"type":"administrative","location":[-3.9585801,5.2927045],"bbox":[-3.9750981,5.2735295,-3.8969724,5.3224466]}}
{"name":"Lakota","display_name":"Lakota, Lôh-Djiboua, Gôh-Djiboua, Côte d’Ivoire","address":{"city":"Lakota","state_district":"Lôh-Djiboua","state":"Gôh-Djiboua","ISO3166-2-lvl4":"CI-GD","country":"Côte d’Ivoire","country_code":"ci"},"population":169330,"osm_type":"node","osm_id":443387111,"type":"city","location":[-5.6827839,5.8511202],"bbox":[-5.8427839,5.6911202,-5.5227839,6.0111202]}
{"name":"Le Plateau","display_name":"Le Plateau, Abidjan, Côte d’Ivoire","address":{"city":"Le Plateau","state":"Abidjan","ISO3166-2-lvl4":"CI-AB","country":"Côte d’Ivoire","country_code":"ci"},"population":7186,"osm_type":"node","osm_id":243777009,"type":"city","location":[-4.021246,5.328049],"bbox":[-4.181246,5.168049,-3.861246,5.488049],"border":{"name":"Le Plateau","display_name":"Le Plateau, Abidjan, Côte d’Ivoire","address":{"city":"Le Plateau","state":"Abidjan","ISO3166-2-lvl4":"CI-AB","country":"Côte d’Ivoire","country_code":"ci"},"population":137502,"osm_type":"relation","osm_id":3308306,"type":"administrative","location":[-4.021246,5.328049],"bbox":[-4.0341041,5.3113348,-4.0041534,5.3418684]}}
{"name":"Man","other_names":{"name:ar":"مان","name:fr":"Man","name:ru":"Ман"},"display_name":"Man, Tonkpi, Montagnes, Côte d’Ivoire","address":{"city":"Man","state_district":"Tonkpi","state":"Montagnes","ISO3166-2-lvl4":"CI-MG","country":"Côte d’Ivoire","country_code":"ci"},"population":241969,"osm_type":"node","osm_id":1597913597,"type":"city","location":[-7.5503719,7.4102584],"bbox":[-7.7103719,7.2502584,-7.3903719,7.5702584]}
{"name":"Marcory","display_name":"Marcory, Abidjan, Côte d’Ivoire","address":{"city":"Marcory","state":"Abidjan","ISO3166-2-lvl4":"CI-AB","country":"Côte d’Ivoire","country_code":"ci"},"population":214061,"osm_type":"node","osm_id":2519977357,"type":"city","location":[-3.985395,5.303612],"bbox":[-4.145395,5.143612,-3.825395,5.463612],"border":{"name":"Marcory","display_name":"Marcory, Abidjan, Côte d’Ivoire","address":{"city":"Marcory","state":"Abidjan","ISO3166-2-lvl4":"CI-AB","country":"Côte d’Ivoire","country_code":"ci"},"population":600000,"osm_type":"relation","osm_id":3308780,"type":"administrative","location":[-3.985395,5.303612],"bbox":[-4.0041534,5.2661212,-3.9531148,5.3227228]}}
{"name":"Méagui","other_names":{"name:fr":"Méagui","alt_name":"Méadji"},"display_name":"Méagui, Nawa, Bas-Sassandra, Côte d’Ivoire","address":{"city":"Méagui","state_district":"Nawa","state":"Bas-Sassandra","ISO3166-2-lvl4":"CI-BS","country":"Côte d’Ivoire","country_code":"ci"},"population":153483,"osm_type":"node","osm_id":1153415065,"type":"city","location":[-6.5551664,5.4039253],"bbox":[-6.7151664,5.2439253,-6.3951664,5.5639253]}
{"name":"Oumé","other_names":{"name:ar":"أومي","name:fr":"Oumé","alt_name":"Ume"},"display_name":"Oumé, Gôh, Gôh-Djiboua, Côte d’Ivoire","address":{"city":"Oumé","state_district":"Gôh","state":"Gôh-Djiboua","ISO3166-2-lvl4":"CI-GD","country":"Côte d’Ivoire","country_code":"ci"},"population":127153,"osm_type":"node","osm_id":443393778,"type":"city","location":[-5.4175714,6.3823941],"bbox":[-5.5775714,6.2223941,-5.2575714,6.5423941]}
{"name":"Port-Bouët","display_name":"Port-Bouët, Abidjan, Côte d’Ivoire","address":{"city":"Port-Bouët","state":"Abidjan","ISO3166-2-lvl4":"CI-AB","country":"Côte d’Ivoire","country_code":"ci"},"population":618795,"osm_type":"node","osm_id":489212197,"type":"city","location":[-3.958626,5.256881],"bbox":[-4.118626,5.096881,-3.798626,5.416881],"border":{"name":"Port-Bouët","other_names":{"name:fr":"Port-Bouët","alt_name":"Port-Bouët 1"},"display_name":"Port-Bouët, Abidjan, Côte d’Ivoire","address":{"city":"Port-Bouët","state":"Abidjan","ISO3166-2-lvl4":"CI-AB","country":"Côte d’Ivoire","country_code":"ci"},"population":137502,"osm_type":"relation","osm_id":3377873,"type":"administrative","location":[-3.958626,5.256881],"bbox":[-4.0342408,5.2269022,-3.8086446,5.3077847]}}
{"name":"San-Pédro","other_names":{"name:ar":"سان بيدرو","name:fr":"San-Pédro"},"display_name":"San-Pédro, Bas-Sassandra, Côte d’Ivoire","address":{"city":"San-Pédro","state_district":"San-Pédro","state":"Bas-Sassandra","ISO3166-2-lvl4":"CI-BS","country":"Côte d’Ivoire","country_code":"ci"},"population":390654,"osm_type":"node","osm_id":243642619,"type":"city","location":[-6.6463922,4.7589989],"bbox":[-6.8063922,4.5989989,-6.4863922,4.9189989]}
{"name":"Sinfra","display_name":"Sinfra, Marahoué, Sassandra-Marahoué, Côte d’Ivoire","address":{"city":"Sinfra","state_district":"Marahoué","state":"Sassandra-Marahoué","ISO3166-2-lvl4":"CI-SM","country":"Côte d’Ivoire","country_code":"ci"},"population":137210,"osm_type":"node","osm_id":2726018272,"type":"city","location":[-5.9089494,6.6167488],"bbox":[-6.0689494,6.4567488,-5.7489494,6.7767488]}
{"name":"Soubré","other_names":{"name:ar":"سوبري","name:fr":"Soubré"},"display_name":"Soubré, Nawa, Bas-Sassandra, Côte d’Ivoire","address":{"city":"Soubré","state_district":"Nawa","state":"Bas-Sassandra","ISO3166-2-lvl4":"CI-BS","country":"Côte d’Ivoire","country_code":"ci"},"population":272773,"osm_type":"node","osm_id":1599891204,"type":"city","location":[-6.5933223,5.7850195],"bbox":[-6.7533223,5.6250195,-6.4333223,5.9450195]}
{"name":"Treichville","other_names":{"name:ar":"تريشفيل"},"display_name":"Treichville, Abidjan, Côte d’Ivoire","address":{"city":"Treichville","municipality":"Treichville","state":"Abidjan","ISO3166-2-lvl4":"CI-AB","country":"Côte d’Ivoire","country_code":"ci"},"population":106552,"osm_type":"node","osm_id":2519977362,"type":"city","location":[-4.0081051,5.306008],"bbox":[-4.1681051,5.146008,-3.8481051,5.466008],"border":{"name":"Treichville","other_names":{"name:ar":"تريشفيل","name:fr":"Treichville"},"display_name":"Treichville, Abidjan, Côte d’Ivoire","address":{"municipality":"Treichville","state":"Abidjan","ISO3166-2-lvl4":"CI-AB","country":"Côte d’Ivoire","country_code":"ci"},"population":120526,"osm_type":"relation","osm_id":3308305,"type":"administrative","location":[-4.0081051,5.306008],"bbox":[-4.0336151,5.2695067,-3.9916527,5.3178639]}}
{"name":"Vavoua","display_name":"Vavoua, Haut-Sassandra, Sassandra-Marahoué, Côte d’Ivoire","address":{"city":"Vavoua","state_district":"Haut-Sassandra","state":"Sassandra-Marahoué","ISO3166-2-lvl4":"CI-SM","country":"Côte d’Ivoire","country_code":"ci"},"population":132528,"osm_type":"node","osm_id":443329790,"type":"city","location":[-6.4796624,7.3793487],"bbox":[-6.6396624,7.2193487,-6.3196624,7.5393487]}
{"name":"Yamoussoukro","other_names":{"name:am":"ያሙሱክሮ","name:ar":"ياموسوكرو","name:az":"Yamosukro","name:be":"Ямусукра","name:bg":"Ямусукро","name:bm":"Yamusukuro","name:bn":"ইয়ামুসুক্রো","name:bo":"ཡམ་སོ་ཁེ་རོ།","name:br":"Yamoussoukro","name:ca":"Yamoussoukro","name:ce":"Ямусукро","name:de":"Yamoussoukro","name:el":"Γιαμουσσούκρο","name:en":"Yamoussoukro","name:eo":"Jamusukro","name:es":"Yamusukro","name:eu":"Jamusukro","name:fa":"یاموسوکرو","name:fr":"Yamoussoukro","name:gn":"Iamusúkoro","name:he":"יאמוסוקרו","name:hi":"यामूसोकुरो","name:ht":"Yamousoukro","name:hu":"Yamoussoukro","name:hy":"Յամուսուկրո","name:is":"Yamoussoukro","name:it":"Yamoussoukro","name:ja":"ヤムスクロ","name:ka":"იამუსუკრო","name:kk":"Ямусукро","name:ko":"야무수크로","name:ku":"Yamussukro","name:ky":"Ямусукро","name:la":"Iamoussoukro","name:lt":"Jamusukras","name:lv":"Jamusukro","name:mk":"Јамусукро","name:ml":"യമൂസ്സൂക്രോ","name:mn":"Ямусукро","name:mr":"यामूसूक्रो","name:nl":"Yamoussoukro","name:no":"Yamoussoukro","name:oc":"Yamoussoukro","name:os":"Ямусукро","name:pa":"ਯਾਮੂਸੂਕਰੋ","name:pl":"Jamusukro","name:ps":"یاموسوکرو","name:pt":"Iamussucro","name:qu":"Yamusukru","name:ru":"Ямусукро","name:sd":"ياموسوڪرو","name:sq":"Jamusukro","name:sr":"Јамусукро","name:sv":"Yamoussoukro","name:sw":"Yamoussoukro","name:ta":"யாமூசூக்ரோ","name:tg":"Ямусукро","name:th":"ยามุสซุโกร","name:tr":"Yamusukro","name:ug":"يامۇسسۇكرو","name:uk":"Ямусукро","name:ur":"یاموسوکرو","name:uz":"Yamusukro","name:yi":"יאמוסאקרא","name:zh":"亞穆蘇克羅","loc_name":"Yakro","name:ckb":"یامۆسۆکرۆ","name:diq":"Yamusukro","name:mrj":"Ямусукро","name:nah":"Yamusukro","name:nov":"Yamusukro","name:pnb":"یوموسوکرو","name:udm":"Ямусукро","old_name":"N'Gokro"},"display_name":"Yamoussoukro, Côte d’Ivoire","address":{"city":"Yamoussoukro","state":"Yamoussoukro","ISO3166-2-lvl4":"CI-YM","country":"Côte d’Ivoire","country_code":"ci"},"population":340234,"osm_type":"node","osm_id":319225774,"type":"city","location":[-5.2776034,6.8200066],"bbox":[-5.4376034,6.6600066,-5.1176034,6.9800066]}
{"name":"Yopougon","other_names":{"short_name":"Yop"},"display_name":"Yopougon, Abidjan, Côte d’Ivoire","address":{"city":"Yopougon","state":"Abidjan","ISO3166-2-lvl4":"CI-AB","country":"Côte d’Ivoire","country_code":"ci"},"population":1571064,"osm_type":"node","osm_id":243777014,"type":"city","location":[-4.075756,5.335194],"bbox":[-4.235756,5.175194,-3.915756,5.495194],"border":{"name":"Yopougon","other_names":{"name:fr":"Yopougon","short_name":"Yop"},"display_name":"Yopougon, Abidjan, Côte d’Ivoire","address":{"city":"Yopougon","state":"Abidjan","ISO3166-2-lvl4":"CI-AB","country":"Côte d’Ivoire","country_code":"ci"},"population":1375020,"osm_type":"relation","osm_id":3377881,"type":"administrative","location":[-4.075756,5.335194],"bbox":[-4.133152,5.2343865,-4.0205774,5.4010433]}}
