{"name":"Road Town","other_names":{"name:ar":"رود تاون","name:az":"Roud Taun","name:be":"Род-Таўн","name:bg":"Роуд Таун","name:ca":"Road Town","name:de":"Road Town","name:el":"Ρόουντ Τάουν","name:en":"Road Town","name:eo":"Rod-Taŭno","name:es":"Road Town","name:fr":"Road Town","name:he":"רואוד טאון","name:hu":"Road Town","name:it":"Road Town","name:ja":"ロードタウン","name:ka":"როუდ-ტაუნი","name:ko":"로드타운","name:la":"Oppidum Viae","name:lt":"Rod Taunas","name:mk":"Роуд Таун","name:nl":"Road Town","name:no":"Road Town","name:pl":"Road Town","name:pt":"Road Town","name:ru":"Род-Таун","name:sr":"Роуд Таун","name:sv":"Road Town","name:tr":"Road Town","name:uk":"Род-Таун","name:zh":"羅德城","name:be-tarask":"Роўд Таўн"},"display_name":"Road Town, Tortola, VG1110, British Virgin Islands","address":{"city":"Road Town","district":"Tortola","postcode":"VG1110","country":"British Virgin Islands","country_code":"vg"},"population":12603,"osm_type":"node","osm_id":280972174,"type":"city","location":[-64.6230914,18.425766],"bbox":[-64.7830914,18.265766,-64.4630914,18.585766]}
