{"name":"Abdi أبدي","other_names":{"name:ar":"أبدي","name:en":"Abdi","name:fr":"Abdi","alt_name":"Abdi"},"display_name":"Abdi أبدي, Ouaddaï وداي, Tchad تشاد","address":{"city":"Abdi أبدي","state":"Ouaddaï وداي","ISO3166-2-lvl4":"TD-OD","country":"Tchad تشاد","country_code":"td"},"osm_type":"node","osm_id":2104038376,"type":"city","location":[21.3044437,12.8081572],"bbox":[21.1444437,12.6481572,21.4644437,12.9681572]}
{"name":"Abéché أبشي","other_names":{"name:ar":"أبشي","name:de":"Abischi","name:en":"Abéché","name:es":"Abéché","name:fa":"ابشی","name:fr":"Abéché","name:hu":"Abéché","name:ko":"아베셰","name:ru":"Абеше","name:uk":"Абеше","name:ur":"ابےچے","alt_name":"Abécher;Abecher;Abacher","alt_name:ar":"أبيشي;ابيشي","alt_name:fr":"Abeche"},"display_name":"Abéché أبشي, Ouaddaï وداي, Tchad تشاد","address":{"city":"Abéché أبشي","state":"Ouaddaï وداي","ISO3166-2-lvl4":"TD-OD","country":"Tchad تشاد","country_code":"td"},"population":78191,"osm_type":"node","osm_id":150384326,"type":"city","location":[20.8283652,13.8280295],"bbox":[20.6683652,13.6680295,20.9883652,13.9880295]}
{"name":"Aboudéïa أبو ضياء","other_names":{"name:ar":"أبو ضياء","name:en":"Aboudéïa","name:fr":"Aboudéïa","alt_name":"Abou Deïa"},"display_name":"Aboudéïa أبو ضياء, Salamat سلامات, Tchad تشاد","address":{"city":"Aboudéïa أبو ضياء","state":"Salamat سلامات","ISO3166-2-lvl4":"TD-SA","country":"Tchad تشاد","country_code":"td"},"osm_type":"node","osm_id":2189505452,"type":"city","location":[19.2776144,11.4506235],"bbox":[19.1176144,11.2906235,19.4376144,11.6106235]}
{"name":"Addé","other_names":{"alt_name":"Adé; Adde"},"display_name":"Addé, Sila سيلا, Tchad تشاد","address":{"city":"Addé","state":"Sila سيلا","ISO3166-2-lvl4":"TD-SI","country":"Tchad تشاد","country_code":"td"},"osm_type":"node","osm_id":8309438026,"type":"city","location":[21.8936062,12.659506],"bbox":[21.7336062,12.499506,22.0536062,12.819506]}
{"name":"Am Timan أم تيمان","other_names":{"name:ar":"أم تيمان","name:en":"Am Timan","name:es":"Am Timan","name:fr":"Am Timan","name:hu":"Am Timan","name:ru":"Ам-Тиман","name:uk":"Ам-Тіман","alt_name":"Am Timam"},"display_name":"Am Timan أم تيمان, Salamat سلامات, Tchad تشاد","address":{"city":"Am Timan أم تيمان","state":"Salamat سلامات","ISO3166-2-lvl4":"TD-SA","country":"Tchad تشاد","country_code":"td"},"population":38261,"osm_type":"node","osm_id":322037986,"type":"city","location":[20.2826429,11.0396368],"bbox":[20.1226429,10.8796368,20.4426429,11.1996368]}
{"name":"Amdjarass أم جرس","other_names":{"name:ar":"أم جرس","name:en":"Am-Djarass","name:fa":"ام جرس","name:fr":"Amdjarass","name:ks":"ام جرس","name:ur":"ام جرس","alt_name":"Amdjarass;Am Djarass;Am Jars"},"display_name":"Amdjarass أم جرس, Ennedi Est إنيدي الشرقية, Tchad تشاد","address":{"city":"Amdjarass أم جرس","state":"Ennedi Est إنيدي الشرقية","ISO3166-2-lvl4":"TD-EE","country":"Tchad تشاد","country_code":"td"},"population":20850,"osm_type":"node","osm_id":1972867801,"type":"city","location":[22.8350448,16.0662879],"bbox":[22.6750448,15.9062879,22.9950448,16.2262879]}
{"name":"Ati أتي","other_names":{"name:ar":"أتي","name:en":"Ati","name:fr":"Ati","name:ko":"아티","name:ru":"Ати","name:uk":"Аті","alt_name":"Ati"},"display_name":"Ati أتي, Batha البطحة, Tchad تشاد","address":{"city":"Ati أتي","state":"Batha البطحة","ISO3166-2-lvl4":"TD-BA","country":"Tchad تشاد","country_code":"td"},"population":35311,"osm_type":"node","osm_id":150545850,"type":"city","location":[18.3396857,13.2125691],"bbox":[18.1796857,13.0525691,18.4996857,13.3725691]}
{"name":"Baga-Sola باغا سولا","other_names":{"name:ar":"باغا سولا","name:en":"Baga-Sola","name:fr":"Baga-Sola","alt_name":"Baga Sola"},"display_name":"Baga-Sola باغا سولا, Tchad تشاد","address":{"city":"Baga-Sola باغا سولا","country":"Tchad تشاد","country_code":"td"},"osm_type":"node","osm_id":2077347433,"type":"city","location":[14.3130117,13.5370491],"bbox":[14.1530117,13.3770491,14.4730117,13.6970491]}
{"name":"Baïbokoum بيبوكمم","other_names":{"name:ar":"بيبوكمم","name:en":"Baïbokoum","name:fr":"Baïbokoum"},"display_name":"Baïbokoum بيبوكمم, Logone Oriental لوقون الشرقية, Tchad تشاد","address":{"city":"Baïbokoum بيبوكمم","state":"Logone Oriental لوقون الشرقية","ISO3166-2-lvl4":"TD-LR","country":"Tchad تشاد","country_code":"td"},"osm_type":"node","osm_id":931636088,"type":"city","location":[15.6941957,7.7447764],"bbox":[15.5341957,7.5847764,15.8541957,7.9047764]}
{"name":"Bardaï برداي","other_names":{"name:ar":"برداي","name:de":"Bardai","name:en":"Bardai","name:es":"Bardaï","name:fa":"بردای","name:fr":"Bardaï","name:ru":"Бардаи","name:ur":"باردائی","name:azb":"بردای","name:tuq":"Goumodi"},"display_name":"Bardaï برداي, Tibesti تيبستي, Tchad تشاد","address":{"city":"Bardaï برداي","state":"Tibesti تيبستي","ISO3166-2-lvl4":"TD-TI","country":"Tchad تشاد","country_code":"td"},"osm_type":"node","osm_id":262212119,"type":"city","location":[17.0005053,21.3549506],"bbox":[16.8405053,21.1949506,17.1605053,21.5149506]}
{"name":"Bébédjia بيبيجيا","other_names":{"name:ar":"بيبيجيا","name:de":"Bebedjia","name:en":"Bebedjia","name:fr":"Bébédjia"},"display_name":"Bébédjia بيبيجيا, Logone Oriental لوقون الشرقية, Tchad تشاد","address":{"city":"Bébédjia بيبيجيا","state":"Logone Oriental لوقون الشرقية","ISO3166-2-lvl4":"TD-LR","country":"Tchad تشاد","country_code":"td"},"osm_type":"node","osm_id":1988424970,"type":"city","location":[16.5698871,8.6804908],"bbox":[16.4098871,8.5204908,16.7298871,8.8404908]}
{"name":"Beboto 1","other_names":{"name:fr":"Béboto","alt_name":"Béboto","alt_name:fr":"Beboto"},"display_name":"Beboto 1, Logone Oriental لوقون الشرقية, Tchad تشاد","address":{"city":"Beboto 1","state":"Logone Oriental لوقون الشرقية","ISO3166-2-lvl4":"TD-LR","country":"Tchad تشاد","country_code":"td"},"osm_type":"node","osm_id":5664151435,"type":"city","location":[16.9385389,8.2671783],"bbox":[16.7785389,8.1071783,17.0985389,8.4271783]}
{"name":"Bédjondo بيجوندو","other_names":{"name:ar":"بيجوندو","name:de":"Bedjondo","name:en":"Bedjondo","name:es":"Bédyondo","name:fr":"Bédjondo","alt_name":"Bedjomo;Bediondo;Bedjoudo;Bedjondo;Bédiondo"},"display_name":"Bédjondo بيجوندو, Mandoul ماندول, Tchad تشاد","address":{"city":"Bédjondo بيجوندو","state":"Mandoul ماندول","ISO3166-2-lvl4":"TD-MA","country":"Tchad تشاد","country_code":"td"},"osm_type":"node","osm_id":2665730588,"type":"city","location":[17.1866172,8.6342412],"bbox":[17.0266172,8.4742412,17.3466172,8.7942412]}
{"name":"Beïnamar بينامار","other_names":{"name:ar":"بينامار","name:de":"Beinamar","name:en":"Beinamar","name:es":"Beinamar","name:fr":"Beïnamar","alt_name":"Beinamar"},"display_name":"Beïnamar بينامار, لوقون الغربية Logone Occidental, Tchad تشاد","address":{"city":"Beïnamar بينامار","state":"لوقون الغربية Logone Occidental","ISO3166-2-lvl4":"TD-LO","country":"Tchad تشاد","country_code":"td"},"osm_type":"node","osm_id":7719725630,"type":"city","location":[15.3801413,8.6698],"bbox":[15.2201413,8.5098,15.5401413,8.8298]}
{"name":"Bénoye بينوي","other_names":{"name:ar":"بينوي","name:en":"Bénoye","name:fr":"Bénoye"},"display_name":"Bénoye بينوي, لوقون الغربية Logone Occidental, Tchad تشاد","address":{"city":"Bénoye بينوي","state":"لوقون الغربية Logone Occidental","ISO3166-2-lvl4":"TD-LO","country":"Tchad تشاد","country_code":"td"},"osm_type":"node","osm_id":3205518432,"type":"city","location":[16.3184382,8.9852039],"bbox":[16.1584382,8.8252039,16.4784382,9.1452039]}
{"name":"Béré بيري","other_names":{"name:ar":"بيري","name:de":"Bere","name:en":"Bere","name:fr":"Béré"},"display_name":"Béré بيري, Tandjilé تانجلي, Tchad تشاد","address":{"city":"Béré بيري","state":"Tandjilé تانجلي","ISO3166-2-lvl4":"TD-TA","country":"Tchad تشاد","country_code":"td"},"osm_type":"node","osm_id":2326545630,"type":"city","location":[16.1541642,9.3232319],"bbox":[15.9941642,9.1632319,16.3141642,9.4832319]}
{"name":"Biltine بلتن","other_names":{"name:ar":"بلتن","name:en":"Biltine","name:es":"Biltine","name:fr":"Biltine","name:ru":"Бильтин","name:uk":"Більтин","alt_name":"Biltine"},"display_name":"Biltine بلتن, Wadi Fira وادي فيرا, Tchad تشاد","address":{"city":"Biltine بلتن","state":"Wadi Fira وادي فيرا","ISO3166-2-lvl4":"TD-WF","country":"Tchad تشاد","country_code":"td"},"population":11840,"osm_type":"node","osm_id":2090425801,"type":"city","location":[20.928701,14.525174],"bbox":[20.768701,14.365174,21.088701,14.685174]}
{"name":"Binder بندر","other_names":{"name:ar":"بندر","name:de":"Binder","name:en":"Binder","name:es":"Binder","alt_name":"Binder Foulbé;Binder Foulbe;Bindere;Binder"},"display_name":"Binder بندر, Mayo-Kebbi Ouest مايو كيبي الغربية, Tchad تشاد","address":{"city":"Binder بندر","state":"Mayo-Kebbi Ouest مايو كيبي الغربية","ISO3166-2-lvl4":"TD-MO","country":"Tchad تشاد","country_code":"td"},"osm_type":"node","osm_id":4683551630,"type":"city","location":[14.4654473,9.9684718],"bbox":[14.3054473,9.8084718,14.6254473,10.1284718]}
{"name":"Bodo Centre بودو مركز","other_names":{"name:en":"Bodo Centre","name:es":"Bodo Centro","name:ear":"بودو مركز"},"display_name":"Bodo Centre بودو مركز, Logone Oriental لوقون الشرقية, Tchad تشاد","address":{"city":"Bodo Centre بودو مركز","state":"Logone Oriental لوقون الشرقية","ISO3166-2-lvl4":"TD-LR","country":"Tchad تشاد","country_code":"td"},"osm_type":"node","osm_id":5664156395,"type":"city","location":[17.1371466,8.2857986],"bbox":[16.9771466,8.1257986,17.2971466,8.4457986]}
{"name":"Bokoro بوكورو","other_names":{"name:ar":"بوكورو","name:de":"Bokoro","name:en":"Bokoro","name:fr":"Bokoro","alt_name":"Bokoro"},"display_name":"Bokoro بوكورو, Hadjer-Lamis حجر لميس, Tchad تشاد","address":{"city":"Bokoro بوكورو","state":"Hadjer-Lamis حجر لميس","ISO3166-2-lvl4":"TD-HL","country":"Tchad تشاد","country_code":"td"},"osm_type":"node","osm_id":322046655,"type":"city","location":[17.056766,12.376328],"bbox":[16.896766,12.216328,17.216766,12.536328]}
{"name":"Bol بول","other_names":{"name:ar":"بول","name:en":"Bol","name:es":"Bol","name:et":"Bol","name:fr":"Bol","name:ru":"Бол","name:uk":"Бол","alt_name":"Bol I;Bol"},"display_name":"Bol بول, Tchad تشاد","address":{"city":"Bol بول","country":"Tchad تشاد","country_code":"td"},"population":112490,"osm_type":"node","osm_id":469212727,"type":"city","location":[14.714412,13.4676491],"bbox":[14.554412,13.3076491,14.874412,13.6276491]}
{"name":"Bongor","other_names":{"name:ar":"بونقور","name:en":"Bongor","name:es":"Bongor","name:fr":"Bongor","name:ru":"Бонгор","name:uk":"Бонгор","alt_name":"Bongor"},"display_name":"Bongor, Mayo-Kebbi Est مايو كيبي الشرقية, Tchad تشاد","address":{"city":"Bongor","state":"Mayo-Kebbi Est مايو كيبي الشرقية","ISO3166-2-lvl4":"TD-ME","country":"Tchad تشاد","country_code":"td"},"population":30518,"osm_type":"node","osm_id":252509153,"type":"city","location":[15.3713139,10.2816341],"bbox":[15.2113139,10.1216341,15.5313139,10.4416341]}
{"name":"Bousso بوسو","other_names":{"name:ar":"بوسو","name:en":"Bousso","name:fr":"Bousso","old_name:ar":"فور بريتنه","old_name:fr":"Fort Bretonnet"},"display_name":"Bousso بوسو, Chari-Baguirmi شاري باقرمي, Tchad تشاد","address":{"city":"Bousso بوسو","state":"Chari-Baguirmi شاري باقرمي","ISO3166-2-lvl4":"TD-CB","country":"Tchad تشاد","country_code":"td"},"osm_type":"node","osm_id":7719727510,"type":"city","location":[16.7111836,10.4857073],"bbox":[16.5511836,10.3257073,16.8711836,10.6457073]}
{"name":"Chinguil شنقيل","other_names":{"name:ar":"شنقيل","name:en":"Chinguil","name:fr":"Chingil"},"display_name":"Chinguil شنقيل, Guéra قيرا, Tchad تشاد","address":{"city":"Chinguil شنقيل","state":"Guéra قيرا","ISO3166-2-lvl4":"TD-GR","country":"Tchad تشاد","country_code":"td"},"osm_type":"node","osm_id":8305336717,"type":"city","location":[18.9639687,10.5639284],"bbox":[18.8039687,10.4039284,19.1239687,10.7239284]}
{"name":"Department Administrative de Nohi","display_name":"Department Administrative de Nohi, Ennedi Ouest إنيدي الغربية, Tchad تشاد","address":{"city":"Department Administrative de Nohi","state":"Ennedi Ouest إنيدي الغربية","ISO3166-2-lvl4":"TD-EO","country":"Tchad تشاد","country_code":"td"},"osm_type":"node","osm_id":12525277545,"type":"city","location":[22.0508039,16.847097],"bbox":[21.8908039,16.687097,22.2108039,17.007097]}
{"name":"Doba","other_names":{"name:af":"Doba","name:ar":"دوبا","name:bg":"Доба","name:de":"Doba","name:es":"Doba","name:fa":"دوبا","name:fr":"Doba","name:it":"Doba","name:ja":"ドバ","name:ko":"도바","name:ks":"ڈوبا","name:nl":"Doba","name:no":"Doba","name:pl":"Doba","name:ru":"Доба","name:sv":"Doba","name:uk":"Доба","name:ur":"ڈوبا","name:zh":"多巴","name:azb":"دوبا","name:mrj":"Доба","name:az-Arab":"دوبا"},"display_name":"Doba, Logone Oriental لوقون الشرقية, Tchad تشاد","address":{"city":"Doba","state":"Logone Oriental لوقون الشرقية","ISO3166-2-lvl4":"TD-LR","country":"Tchad تشاد","country_code":"td"},"population":24000,"osm_type":"node","osm_id":360153172,"type":"city","location":[16.8538495,8.6592029],"bbox":[16.6938495,8.4992029,17.0138495,8.8192029]}
{"name":"Fada فادا","other_names":{"name:ar":"فادا","name:en":"Fada","name:es":"Fada","name:fr":"Fada","name:ru":"Фада","name:uk":"Фада","alt_name":"Fada","alt_name:fr":"Fort de Fada"},"display_name":"Fada فادا, Ennedi Ouest إنيدي الغربية, Tchad تشاد","address":{"city":"Fada فادا","state":"Ennedi Ouest إنيدي الغربية","ISO3166-2-lvl4":"TD-EO","country":"Tchad تشاد","country_code":"td"},"population":23786,"osm_type":"node","osm_id":322506424,"type":"city","location":[21.5813259,17.1930577],"bbox":[21.4213259,17.0330577,21.7413259,17.3530577]}
{"name":"Faya-Largeau فايا لارجو","other_names":{"name:ar":"فايا لارجو","name:de":"Faya-Largeau","name:en":"Faya-Largeau","name:es":"Faya-Largeau","name:fr":"Faya-Largeau","name:ru":"Файя-Ларжо","name:uk":"Файя-Ларжо","name:ur":"فایا-لارگیاو","alt_name":"Faya","old_name":"Largeau","alt_name:ar":"فايا","old_name:ar":"لارجو"},"display_name":"Faya-Largeau فايا لارجو, Borkou بوركو, Tchad تشاد","address":{"city":"Faya-Largeau فايا لارجو","state":"Borkou بوركو","ISO3166-2-lvl4":"TD-BO","country":"Tchad تشاد","country_code":"td"},"population":14123,"osm_type":"node","osm_id":322497973,"type":"city","location":[19.0953202,17.9209323],"bbox":[18.9353202,17.7609323,19.2553202,18.0809323]}
{"name":"Fianga فيانكا","other_names":{"name:ar":"فيانكا","name:de":"Fianga","name:en":"Fianga","name:es":"Fianga","name:fr":"Fianga"},"display_name":"Fianga فيانكا, Mayo-Kebbi Est مايو كيبي الشرقية, Tchad تشاد","address":{"city":"Fianga فيانكا","state":"Mayo-Kebbi Est مايو كيبي الشرقية","ISO3166-2-lvl4":"TD-ME","country":"Tchad تشاد","country_code":"td"},"osm_type":"node","osm_id":4518674504,"type":"city","location":[15.1409031,9.9151787],"bbox":[14.9809031,9.7551787,15.3009031,10.0751787]}
{"name":"Goré غوري","other_names":{"name:ar":"غوري","name:bg":"Горе","name:ca":"Goré","name:da":"Goré","name:en":"Goré","name:fr":"Goré","name:id":"Goré","name:it":"Goré","name:pl":"Goré","name:ru":"Горе","alt_name:ar":"جوري"},"display_name":"Goré غوري, Logone Oriental لوقون الشرقية, Tchad تشاد","address":{"city":"Goré غوري","state":"Logone Oriental لوقون الشرقية","ISO3166-2-lvl4":"TD-LR","country":"Tchad تشاد","country_code":"td"},"osm_type":"node","osm_id":2075469537,"type":"city","location":[16.634221,7.924704],"bbox":[16.474221,7.764704,16.794221,8.084704]}
{"name":"Gounou Gaya قونو قايا","other_names":{"name:ar":"قونو قايا","name:en":"Gounou Gaya","name:fr":"Gounou Gaya","alt_name":"Gounou;Gounou Foursoum"},"display_name":"Gounou Gaya قونو قايا, Mayo-Kebbi Est مايو كيبي الشرقية, Tchad تشاد","address":{"city":"Gounou Gaya قونو قايا","state":"Mayo-Kebbi Est مايو كيبي الشرقية","ISO3166-2-lvl4":"TD-ME","country":"Tchad تشاد","country_code":"td"},"osm_type":"node","osm_id":7719725636,"type":"city","location":[15.5123948,9.6315148],"bbox":[15.3523948,9.4715148,15.6723948,9.7915148]}
{"name":"Goz Beïda قوز بيضة","other_names":{"name:ar":"قوز بيضة","name:en":"Goz Beïda","name:es":"Goz Beida","name:fr":"Goz Beïda","name:ru":"Гоз-Бейда","alt_name":"Goz Beida;Goz Beïda"},"display_name":"Goz Beïda قوز بيضة, Sila سيلا, Tchad تشاد","address":{"city":"Goz Beïda قوز بيضة","state":"Sila سيلا","ISO3166-2-lvl4":"TD-SI","country":"Tchad تشاد","country_code":"td"},"osm_type":"node","osm_id":2094966007,"type":"city","location":[21.4101617,12.225592],"bbox":[21.2501617,12.065592,21.5701617,12.385592]}
{"name":"Guélendeng غيلندنك","other_names":{"name:ar":"غيلندنك","name:en":"Guélendeng","name:fr":"Guélendeng","alt_name":"Guélengdeng;Guelengdeng;Gélengdeng;Gelengdeng;Guelendeng"},"display_name":"Guélendeng غيلندنك, Mayo-Kebbi Est مايو كيبي الشرقية, Tchad تشاد","address":{"city":"Guélendeng غيلندنك","state":"Mayo-Kebbi Est مايو كيبي الشرقية","ISO3166-2-lvl4":"TD-ME","country":"Tchad تشاد","country_code":"td"},"osm_type":"node","osm_id":2378226546,"type":"city","location":[15.5467805,10.9203251],"bbox":[15.3867805,10.7603251,15.7067805,11.0803251]}
{"name":"Guereda غيريدا","other_names":{"name:ar":"غيريدا","name:en":"Guereda","name:fr":"Guéréda","alt_name":"Guereda;Guéréda"},"display_name":"Guereda غيريدا, Wadi Fira وادي فيرا, Tchad تشاد","address":{"city":"Guereda غيريدا","state":"Wadi Fira وادي فيرا","ISO3166-2-lvl4":"TD-WF","country":"Tchad تشاد","country_code":"td"},"osm_type":"node","osm_id":4579370727,"type":"city","location":[22.0883909,14.5106404],"bbox":[21.9283909,14.3506404,22.2483909,14.6706404]}
{"name":"Haraze حراز","other_names":{"name:ar":"حراز","name:en":"Haraze","name:fr":"Haraze","alt_name":"Haraze Kouka"},"display_name":"Haraze حراز, Salamat سلامات, Tchad تشاد","address":{"city":"Haraze حراز","state":"Salamat سلامات","ISO3166-2-lvl4":"TD-SA","country":"Tchad تشاد","country_code":"td"},"osm_type":"node","osm_id":2184663632,"type":"city","location":[20.9061498,9.9485961],"bbox":[20.7461498,9.7885961,21.0661498,10.1085961]}
{"name":"Iriba إريبا","other_names":{"name:ar":"إريبا","name:de":"Iriba","name:en":"Iriba","name:fr":"Iriba","alt_name":"Iriba"},"display_name":"Iriba إريبا, Wadi Fira وادي فيرا, Tchad تشاد","address":{"city":"Iriba إريبا","state":"Wadi Fira وادي فيرا","ISO3166-2-lvl4":"TD-WF","country":"Tchad تشاد","country_code":"td"},"osm_type":"node","osm_id":245494292,"type":"city","location":[22.2462653,15.1268202],"bbox":[22.0862653,14.9668202,22.4062653,15.2868202]}
{"name":"Kelo كيلو","other_names":{"name:ar":"كيلو","name:en":"Kelo","name:fr":"Kelo"},"display_name":"Kelo كيلو, Tandjilé تانجلي, Tchad تشاد","address":{"city":"Kelo كيلو","state":"Tandjilé تانجلي","ISO3166-2-lvl4":"TD-TA","country":"Tchad تشاد","country_code":"td"},"osm_type":"node","osm_id":290953200,"type":"city","location":[15.7869843,9.3135075],"bbox":[15.6269843,9.1535075,15.9469843,9.4735075]}
{"name":"Koukou Angarana كوكو أنغرانا","other_names":{"name:ar":"كوكو أنغرانا","name:en":"Koukou Angarana","name:fr":"Koukou Angarana","alt_name":"Angarana;Koukou Angarana"},"display_name":"Koukou Angarana كوكو أنغرانا, Sila سيلا, Tchad تشاد","address":{"city":"Koukou Angarana كوكو أنغرانا","state":"Sila سيلا","ISO3166-2-lvl4":"TD-SI","country":"Tchad تشاد","country_code":"td"},"population":5904,"osm_type":"node","osm_id":2093484890,"type":"city","location":[21.6610335,12.0028082],"bbox":[21.5010335,11.8428082,21.8210335,12.1628082]}
{"name":"Koumra قمرة","other_names":{"name:ar":"قمرة","name:de":"Koumra","name:en":"Koumra","name:es":"Koumra","name:fa":"کومرا","name:fr":"Koumra","name:ru":"Кумра","name:uk":"Кумра","name:ur":"کؤمرا","alt_name":"Koumbra;Koumra","name:azb":"کومرا"},"display_name":"Koumra قمرة, Mandoul Oriental ماندول الشرقية, Mandoul ماندول, Tchad تشاد","address":{"city":"Koumra قمرة","county":"Mandoul Oriental ماندول الشرقية","state":"Mandoul ماندول","ISO3166-2-lvl4":"TD-MA","country":"Tchad تشاد","country_code":"td"},"population":38220,"osm_type":"node","osm_id":240494362,"type":"city","location":[17.5478111,8.9189081],"bbox":[17.3878111,8.7589081,17.7078111,9.0789081]}
{"name":"Krim-Krim كريم كريم","other_names":{"name:ar":"كريم كريم","name:en":"Krim-Krim","name:fr":"Krim-Krim","alt_name":"Krim Krim"},"display_name":"Krim-Krim كريم كريم, لوقون الغربية Logone Occidental, Tchad تشاد","address":{"city":"Krim-Krim كريم كريم","state":"لوقون الغربية Logone Occidental","ISO3166-2-lvl4":"TD-LO","country":"Tchad تشاد","country_code":"td"},"osm_type":"node","osm_id":290959385,"type":"city","location":[15.7974557,8.9750569],"bbox":[15.6374557,8.8150569,15.9574557,9.1350569]}
{"name":"Kyabé كيابي","other_names":{"name:ar":"كيابي","name:en":"Kyabé","name:fa":"کیابی","name:fr":"Kyabé","alt_name":"Kyabe;Kiyabi;Kiyabé;Kiyabe;Kyabé","name:azb":"کیابی"},"display_name":"Kyabé كيابي, Moyen-Chari شاري الأوسط, Tchad تشاد","address":{"city":"Kyabé كيابي","state":"Moyen-Chari شاري الأوسط","ISO3166-2-lvl4":"TD-MC","country":"Tchad تشاد","country_code":"td"},"osm_type":"node","osm_id":1327717858,"type":"city","location":[18.9442609,9.4538594],"bbox":[18.7842609,9.2938594,19.1042609,9.6138594]}
{"name":"Laï لادي","other_names":{"name:ar":"لادي","name:en":"Laï","name:fr":"Laï","name:ru":"Лаи","name:uk":"Лаї","alt_name":"Lai;Behagle;Behagie;Laï"},"display_name":"Laï لادي, Tandjilé تانجلي, Tchad تشاد","address":{"city":"Laï لادي","state":"Tandjilé تانجلي","ISO3166-2-lvl4":"TD-TA","country":"Tchad تشاد","country_code":"td"},"population":20428,"osm_type":"node","osm_id":2378389848,"type":"city","location":[16.3018822,9.3956566],"bbox":[16.1418822,9.2356566,16.4618822,9.5556566]}
{"name":"Léré","other_names":{"name:ar":"ليري","name:de":"Léré","name:fr":"Léré","alt_name":"Lare","name:mua":"Ləre","alt_name:fr":"Lare"},"display_name":"Léré, Mayo-Kebbi Ouest مايو كيبي الغربية, Tchad تشاد","address":{"city":"Léré","state":"Mayo-Kebbi Ouest مايو كيبي الغربية","ISO3166-2-lvl4":"TD-MO","country":"Tchad تشاد","country_code":"td"},"osm_type":"node","osm_id":4518664776,"type":"city","location":[14.225115,9.6587382],"bbox":[14.065115,9.4987382,14.385115,9.8187382]}
{"name":"Liwa","other_names":{"name:fr":"Lioua","alt_name":"Lioua"},"display_name":"Liwa, Tchad تشاد","address":{"city":"Liwa","country":"Tchad تشاد","country_code":"td"},"osm_type":"node","osm_id":482078069,"type":"city","location":[14.2645539,13.8681452],"bbox":[14.1045539,13.7081452,14.4245539,14.0281452]}
{"name":"Mangalmé مانكالمي","other_names":{"name:ar":"مانكالمي","name:en":"Mangalmé","name:fr":"Mangalmé","alt_name":"Mangalme;Mangalmé","alt_name:ar":"منغالم;مانقالمي;منجالمي"},"display_name":"Mangalmé مانكالمي, Guéra قيرا, Tchad تشاد","address":{"city":"Mangalmé مانكالمي","state":"Guéra قيرا","ISO3166-2-lvl4":"TD-GR","country":"Tchad تشاد","country_code":"td"},"osm_type":"node","osm_id":2261675630,"type":"city","location":[19.615227,12.365648],"bbox":[19.455227,12.205648,19.775227,12.525648]}
{"name":"Mao ماو","other_names":{"name:ar":"ماو","name:en":"Mao","name:fr":"Mao","name:ko":"마오","name:ru":"Мао","name:uk":"Мао","alt_name":"Mao"},"display_name":"Mao ماو, Kanem كانم, Tchad تشاد","address":{"city":"Mao ماو","state":"Kanem كانم","ISO3166-2-lvl4":"TD-KA","country":"Tchad تشاد","country_code":"td"},"osm_type":"node","osm_id":469211942,"type":"city","location":[15.3108471,14.1234161],"bbox":[15.1508471,13.9634161,15.4708471,14.2834161]}
{"name":"Maro مارو","other_names":{"name:ar":"مارو","name:de":"Maro","name:en":"Maro","name:es":"Maro","name:fr":"Maro"},"display_name":"Maro مارو, Moyen-Chari شاري الأوسط, Tchad تشاد","address":{"city":"Maro مارو","state":"Moyen-Chari شاري الأوسط","ISO3166-2-lvl4":"TD-MC","country":"Tchad تشاد","country_code":"td"},"osm_type":"node","osm_id":1911985905,"type":"city","location":[18.7676943,8.415207],"bbox":[18.6076943,8.255207,18.9276943,8.575207]}
{"name":"Massaguet مساقط","other_names":{"name:ar":"مساقط","name:en":"Massaguet","name:fr":"Massaguet","alt_name":"Massaguette;Massaguete;Massa Gueit;Massaquet;Massaguet"},"display_name":"Massaguet مساقط, Hadjer-Lamis حجر لميس, Tchad تشاد","address":{"city":"Massaguet مساقط","state":"Hadjer-Lamis حجر لميس","ISO3166-2-lvl4":"TD-HL","country":"Tchad تشاد","country_code":"td"},"population":29364,"osm_type":"node","osm_id":254126801,"type":"city","location":[15.439632,12.4824256],"bbox":[15.279632,12.3224256,15.599632,12.6424256]}
{"name":"Massakory مسكوري","other_names":{"name:ar":"مسكوري","name:en":"Massakory","name:fr":"Massakory","name:ru":"Масакори","name:uk":"Масакорі","alt_name":"Massakori;Dagana;Massakory"},"display_name":"Massakory مسكوري, Hadjer-Lamis حجر لميس, Tchad تشاد","address":{"city":"Massakory مسكوري","state":"Hadjer-Lamis حجر لميس","ISO3166-2-lvl4":"TD-HL","country":"Tchad تشاد","country_code":"td"},"population":16237,"osm_type":"node","osm_id":1693132866,"type":"city","location":[15.7349101,12.996486],"bbox":[15.5749101,12.836486,15.8949101,13.156486]}
{"name":"Melfi","other_names":{"name:ar":"ملفي","name:de":"Melfi","name:fr":"Melfi"},"display_name":"Melfi, Guéra قيرا, Tchad تشاد","address":{"city":"Melfi","state":"Guéra قيرا","ISO3166-2-lvl4":"TD-GR","country":"Tchad تشاد","country_code":"td"},"osm_type":"node","osm_id":7719688612,"type":"city","location":[17.9348134,11.063717],"bbox":[17.7748134,10.903717,18.0948134,11.223717]}
{"name":"Moïssala مويسالا","other_names":{"name:ar":"مويسالا","name:de":"Moissala","name:en":"Moissala","name:es":"Moissala","name:fa":"مویسالا","name:fr":"Moïssala","name:ks":"مویسالا","name:ur":"مویسالا","name:azb":"مویسالا","alt_name:ar":"مواسالا","name:az-Arab":"مویسالا"},"display_name":"Moïssala مويسالا, Mandoul ماندول, Tchad تشاد","address":{"city":"Moïssala مويسالا","state":"Mandoul ماندول","ISO3166-2-lvl4":"TD-MA","country":"Tchad تشاد","country_code":"td"},"osm_type":"node","osm_id":1423833038,"type":"city","location":[17.7652816,8.3380154],"bbox":[17.6052816,8.1780154,17.9252816,8.4980154]}
{"name":"Mondo موندو","other_names":{"name:ar":"موندو","name:en":"Mondo","name:fr":"Mondo"},"display_name":"Mondo موندو, Kanem كانم, Tchad تشاد","address":{"city":"Mondo موندو","state":"Kanem كانم","ISO3166-2-lvl4":"TD-KA","country":"Tchad تشاد","country_code":"td"},"osm_type":"node","osm_id":3182895226,"type":"city","location":[15.5347014,13.7821957],"bbox":[15.3747014,13.6221957,15.6947014,13.9421957]}
{"name":"Mongo مونقو","other_names":{"name:ar":"مونقو","name:de":"Mongo","name:en":"Mongo","name:fr":"Mongo","name:ru":"Монго","name:uk":"Монго","alt_name":"Mongo","alt_name:ar":"مونكو;مونجو"},"display_name":"Mongo مونقو, Guéra قيرا, Tchad تشاد","address":{"city":"Mongo مونقو","state":"Guéra قيرا","ISO3166-2-lvl4":"TD-GR","country":"Tchad تشاد","country_code":"td"},"population":40233,"osm_type":"node","osm_id":322044775,"type":"city","location":[18.6842092,12.1842561],"bbox":[18.5242092,12.0242561,18.8442092,12.3442561]}
{"name":"Moundou موندو","other_names":{"name:ar":"موندو","name:en":"Moundou","name:et":"Moundou","name:fr":"Moundou","name:ko":"문두","name:ru":"Мунду","name:uk":"Мунду"},"display_name":"Moundou موندو, لوقون الغربية Logone Occidental, Tchad تشاد","address":{"city":"Moundou موندو","state":"لوقون الغربية Logone Occidental","ISO3166-2-lvl4":"TD-LO","country":"Tchad تشاد","country_code":"td"},"population":137929,"osm_type":"node","osm_id":811383246,"type":"city","location":[16.073831,8.5654637],"bbox":[15.913831,8.4054637,16.233831,8.7254637]}
{"name":"Moussoro موسورو","other_names":{"name:ar":"موسورو","name:en":"Moussoro","name:fr":"Moussoro","name:ru":"Муссоро","alt_name":"Bahr el Ghazal;Moussoro"},"display_name":"Moussoro موسورو, Barh el Gazel بحر الغزال, Tchad تشاد","address":{"city":"Moussoro موسورو","state":"Barh el Gazel بحر الغزال","ISO3166-2-lvl4":"TD-BG","country":"Tchad تشاد","country_code":"td"},"osm_type":"node","osm_id":1693132865,"type":"city","location":[16.4907759,13.6405703],"bbox":[16.3307759,13.4805703,16.6507759,13.8005703]}
{"name":"N'Djaména انجمينا","other_names":{"name:af":"N'Djamena","name:am":"ንጃመና","name:an":"N'Djamena","name:ar":"انجمينا","name:az":"Ncamena","name:ba":"Нджамена","name:be":"Нджамена","name:bg":"Нджамена","name:bn":"এনজামেনা","name:bo":"ཇ་མི་ན།","name:br":"Ndjamena","name:bs":"N'Djamena","name:ca":"N'Djamena","name:ce":"Нджамена","name:cs":"N'Djamena","name:cy":"N'Djamena","name:da":"N'Djamena","name:de":"N’Djamena","name:el":"Ντζαμένα","name:en":"N'Djamena","name:eo":"Niĝameno","name:es":"Yamena","name:et":"N'Djamena","name:eu":"N'Djamena","name:fa":"انجامنا","name:fi":"N’Djamena","name:fr":"N'Djaména","name:fy":"N'Djamena","name:ga":"N'Djamena","name:gd":"N'Djamena","name:gl":"Xamena","name:gn":"Jaména","name:ha":"Ndjamena","name:he":"נג'מנה","name:hi":"अन जामेना","name:hr":"N’Djamena","name:ht":"N'Djamèna","name:hu":"N’Djamena","name:hy":"Նջամենա","name:ia":"N'Djamena","name:id":"N'Djamena","name:ie":"N'Djamena","name:io":"N'Djamena","name:is":"N’Djamena","name:it":"N'Djamena","name:ja":"ンジャメナ","name:jv":"N'Djamena","name:ka":"ნჯამენა","name:kg":"Ndjamena","name:ki":"N'Djamena","name:kk":"Нджамена","name:ko":"은자메나","name:ku":"N'Djamena","name:kw":"N'Djamena","name:ky":"Нжамена","name:la":"Ndjamena","name:lb":"N'Djamena","name:ln":"N’Djamena","name:lt":"Ndžamena","name:lv":"Ndžamena","name:mg":"N'Djamena","name:mk":"Нџамена","name:ml":"ൻഡ്ജാമെന","name:mr":"इंजामिना","name:ms":"N'Djamena","name:nb":"N’Djamena","name:nl":"Ndjamena","name:nn":"N'Djamena","name:no":"N'Djamena","name:nv":"Séíbąąhkʼeh","name:oc":"N'Djamena","name:os":"Нджаменæ","name:pa":"ਨਿਜਾਮੀਨਾ","name:pl":"Ndżamena","name:ps":"انجامنا","name:pt":"Jamena","name:qu":"Yamina","name:ro":"N'Djamena","name:ru":"Нджамена","name:sc":"N'Djamena","name:sd":"اينجامينا","name:sh":"N'Djamena","name:sk":"N’Djamena","name:sl":"N'Djamena","name:sn":"N'Djamena","name:so":"Nijamiina","name:sq":"Nxhamena","name:sr":"Нџамена","name:sv":"N’Djamena","name:sw":"N'Djamena","name:ta":"நிஜாமீனா","name:tg":"Нҷамена","name:th":"เอ็นจาเมนา","name:tl":"NDjamena","name:tr":"Encemine","name:uk":"Нджамена","name:ur":"اینجامینا","name:uz":"Njamena","name:vi":"N’Djamena","name:wo":"Njamena","name:yi":"נ'דזשאמענא","name:yo":"N'Djamena","name:zh":"恩賈梅納","alt_name":"انْجَمِينا;نجامينا;إنجامينا;ندجاملينا","name:arc":"ܢܓܡܝܢܐ","name:ckb":"نجامێنا","name:frp":"N’Dj·amèna","name:hif":"N'Djamena","name:kab":"Nǧamena","name:lij":"N'Djamena","name:lmo":"N'Djamena","name:mrj":"Нджамена","name:nah":"Yamena","name:nov":"N'Djamena","name:pms":"N'Djamena","name:pnb":"نجامينا","name:scn":"N'Djamena","name:sco":"N'Djamena","name:syc":"ܢܓܡܝܢܐ","name:udm":"Нджамена","name:vec":"N'Djamena","name:war":"N'Djamena","old_name":"Fort-Lamy","alt_name:ar":"انْجَمِينا;نجامينا;إنجامينا;ندجاملينا","alt_name:eo":"Nĝameno;Nĵameno","name:roa-rup":"N'Djamena","name:be-tarask":"Нджамэна"},"display_name":"N'Djaména انجمينا, Tchad تشاد","address":{"city":"N'Djaména انجمينا","ISO3166-2-lvl4":"TD-ND","country":"Tchad تشاد","country_code":"td"},"population":1092066,"osm_type":"node","osm_id":27565022,"type":"city","location":[15.0502758,12.1191543],"bbox":[14.8902758,11.9591543,15.2102758,12.2791543],"border":{"name":"N'Djaména انجمينا","other_names":{"name:af":"N'Djamena","name:am":"ንጃመና","name:an":"N'Djamena","name:ar":"انجمينا","name:az":"Ncamena","name:be":"Нджамена","name:bg":"Нджамена","name:bn":"এনজামেনা","name:bo":"ཇ་མི་ན།","name:br":"Ndjamena","name:bs":"N'Djamena","name:ca":"N'Djamena","name:ce":"Нджамена","name:cs":"N'Djamena","name:cy":"N'Djamena","name:da":"N'Djamena","name:de":"N’Djamena","name:el":"Ντζαμένα","name:en":"N'Djamena","name:eo":"Niĝameno","name:es":"Yamena","name:et":"N'Djamena","name:eu":"N'Djamena","name:fa":"انجامنا","name:fi":"N’Djamena","name:fr":"N'Djaména","name:fy":"N'Djamena","name:ga":"N'Djamena","name:gd":"N'Djamena","name:gl":"Xamena","name:gn":"Jaména","name:ha":"Ndjamena","name:he":"נג'מנה","name:hi":"अन जामेना","name:hr":"N'Djamena","name:ht":"N'Djamèna","name:hu":"N’Djamena","name:hy":"Նջամենա","name:id":"N'Djamena","name:ie":"N'Djamena","name:io":"N'Djamena","name:is":"N'Djamena","name:it":"N'Djamena","name:ja":"ンジャメナ","name:jv":"N'Djamena","name:ka":"ნჯამენა","name:kg":"Ndjamena","name:ki":"N'Djamena","name:kk":"Нджамена","name:ko":"은자메나","name:ku":"N'Djamena","name:kw":"N'Djamena","name:ky":"Нжамена","name:lb":"N'Djamena","name:ln":"N’Djamena","name:lt":"Ndžamena","name:lv":"Ndžamena","name:mg":"N'Djamena","name:mk":"Нџамена","name:ml":"ൻഡ്ജാമെന","name:mr":"इंजामिना","name:ms":"N'Djamena","name:nl":"Ndjamena","name:nn":"N'Djamena","name:no":"N’Djamena","name:oc":"N'Djamena","name:os":"Нджаменæ","name:pa":"ਨਿਜਾਮੀਨਾ","name:pl":"Ndżamena","name:ps":"انجامنا","name:pt":"Jamena","name:qu":"Yamina","name:ro":"N'Djamena","name:ru":"Нджамена","name:sc":"N'Djamena","name:sh":"N'Djamena","name:sk":"N’Djamena","name:sl":"N'Djamena","name:sn":"N'Djamena","name:so":"Injamiina","name:sq":"Nxhamena","name:sr":"Нџамена","name:sv":"N'Djamena","name:sw":"N'Djamena","name:ta":"நிஜாமீனா","name:tg":"Нҷамена","name:th":"อึนจาเมนา","name:tl":"N'Djamena","name:tr":"N'Djamena","name:uk":"Нджамена","name:ur":"نجامینا","name:uz":"Njamena","name:vi":"N'Djamena","name:wo":"Njamena","name:yi":"נ'דזשאמענא","name:yo":"N'Djamena","name:zh":"恩賈梅納","alt_name":"انْجَمِينا;نجامينا;إنجامينا;ندجاملينا","name:arc":"ܢܓܡܝܢܐ","name:arz":"انجمينا","name:ast":"Xamena","name:avk":"N'Djamena","name:azb":"انجامنا","name:bcl":"N'Djamena","name:cdo":"N'Djamena","name:ceb":"N'Djamena","name:ckb":"نجامێنا","name:frp":"N’Dj·amèna","name:frr":"N’Djamena","name:hak":"N'Djamena","name:hif":"N'Djamena","name:hsb":"N’Djamena","name:kab":"Nǧamena","name:lij":"N'Djamena","name:lmo":"N'Djamena","name:mrj":"Нджамена","name:nah":"Yamena","name:nan":"恩賈梅納","name:pap":"N'Djamena","name:pms":"N'Djamena","name:pnb":"نجمینا","name:scn":"N'Djamena","name:sco":"N'Djamena","name:smn":"N'Djamena","name:syc":"ܢܓܡܝܢܐ","name:udm":"Нджамена","name:vec":"N'Djamena","name:vep":"Ndžamen","name:war":"N'Djamena","name:wuu":"恩贾梅纳","name:xmf":"ნჯამენა","ISO3166-2":"TD-ND","alt_name:ar":"انْجَمِينا;نجامينا;إنجامينا;ندجاملينا","alt_name:eo":"Nĝameno;Nĵameno","alt_name:nan":"N'Djamena","name:ba":"Нджамена","name:ia":"N'Djamena","name:la":"Ndjamena","name:nb":"N’Djamena","name:nv":"Séíbąąhkʼeh","name:sd":"اينجامينا","name:nov":"N'Djamena","old_name":"Fort-Lamy","name:roa-rup":"N'Djamena","name:be-tarask":"Нджамэна","alt:hr":"N’Djamena","alt:is":"N’Djamena","alt:no":"N'Djamena","alt:so":"Nijamiina","alt:sv":"N’Djamena","alt:th":"เอ็นจาเมนา","alt:tl":"NDjamena","alt:tr":"Encemine","alt:ur":"اینجامینا","alt:vi":"N’Djamena","alt:pnb":"نجامينا"},"display_name":"N'Djaména انجمينا, Tchad تشاد","address":{"city":"N'Djaména انجمينا","ISO3166-2-lvl4":"TD-ND","country":"Tchad تشاد","country_code":"td"},"population":1092066,"osm_type":"relation","osm_id":3718330,"type":"administrative","location":[15.0502758,12.1191543],"bbox":[14.8852944,12.0539646,15.1825726,12.2534873]}}
{"name":"Ngoura نكورا","other_names":{"name:ar":"نكورا","name:en":"Ngoura","name:fr":"Ngoura","alt_name":"N’Gousa;N'Gousa;Ngourra;Ngourag;Ngoura"},"display_name":"Ngoura نكورا, Hadjer-Lamis حجر لميس, Tchad تشاد","address":{"city":"Ngoura نكورا","state":"Hadjer-Lamis حجر لميس","ISO3166-2-lvl4":"TD-HL","country":"Tchad تشاد","country_code":"td"},"osm_type":"node","osm_id":150546205,"type":"city","location":[16.4497186,12.8786326],"bbox":[16.2897186,12.7186326,16.6097186,13.0386326]}
{"name":"Oum Hadjer أم هاجر","other_names":{"name:ar":"أم هاجر","name:de":"Umm Hadschar","name:en":"Umm Hajar","name:fr":"Oum Hadjer","alt_name":"Oum Hadjer"},"display_name":"Oum Hadjer أم هاجر, Batha البطحة, Tchad تشاد","address":{"city":"Oum Hadjer أم هاجر","state":"Batha البطحة","ISO3166-2-lvl4":"TD-BA","country":"Tchad تشاد","country_code":"td"},"population":20742,"osm_type":"node","osm_id":150545728,"type":"city","location":[19.6889527,13.2937546],"bbox":[19.5289527,13.1337546,19.8489527,13.4537546]}
{"name":"Ounianga Kebir أونيانقا كبير","other_names":{"name:ar":"أونيانقا كبير","name:en":"Ounianga Kebir","name:fr":"Ounianga Kebir","name:ur":"اونیانگا کبیر","alt_name":"أونيانغا كبير","alt_name:ar":"أونيانغا كبير","alt_name:fr":"Ounianga Kebir;Ounianga Kébir"},"display_name":"Ounianga Kebir أونيانقا كبير, Ennedi Ouest إنيدي الغربية, Tchad تشاد","address":{"city":"Ounianga Kebir أونيانقا كبير","state":"Ennedi Ouest إنيدي الغربية","ISO3166-2-lvl4":"TD-EO","country":"Tchad تشاد","country_code":"td"},"osm_type":"node","osm_id":1823299543,"type":"city","location":[20.4882206,19.0560089],"bbox":[20.3282206,18.8960089,20.6482206,19.2160089]}
{"name":"Pala بالا","other_names":{"name:ar":"بالا","name:en":"Pala","name:fr":"Pala","name:ru":"Пала","name:uk":"Пала","alt_name":"Palla;Pala"},"display_name":"Pala بالا, Mayo-Kebbi Ouest مايو كيبي الغربية, Tchad تشاد","address":{"city":"Pala بالا","state":"Mayo-Kebbi Ouest مايو كيبي الغربية","ISO3166-2-lvl4":"TD-MO","country":"Tchad تشاد","country_code":"td"},"population":40202,"osm_type":"node","osm_id":3266666998,"type":"city","location":[14.9097028,9.3662802],"bbox":[14.7497028,9.2062802,15.0697028,9.5262802]}
{"name":"Sarh سارة","other_names":{"name:ar":"سارة","name:de":"Sarh","name:en":"Sarh","name:es":"Sarh","name:et":"Sarh","name:fa":"ساره","name:fr":"Sarh","name:ko":"사르","name:ru":"Сарх","name:uk":"Сарх","name:ur":"صرح","alt_name":"صارح;ساره;سار","name:azb":"ساره","alt_name:ar":"صارح;ساره;سار","old_name:ar":"فور آرشامبو","old_name:fr":"Fort Archambault"},"display_name":"Sarh سارة, Moyen-Chari شاري الأوسط, Tchad تشاد","address":{"city":"Sarh سارة","state":"Moyen-Chari شاري الأوسط","ISO3166-2-lvl4":"TD-MC","country":"Tchad تشاد","country_code":"td"},"population":113000,"osm_type":"node","osm_id":360163529,"type":"city","location":[18.3937969,9.1406471],"bbox":[18.2337969,8.9806471,18.5537969,9.3006471]}
{"display_name":"Sila سيلا, Tchad تشاد","address":{"state":"Sila سيلا","ISO3166-2-lvl4":"TD-SI","country":"Tchad تشاد","country_code":"td"},"osm_type":"way","osm_id":703867083,"type":"city","location":[22.16480162777014,12.44305365],"bbox":[22.1636468,12.4416344,22.166265,12.4440283]}
{"name":"Yao ياؤ","other_names":{"name:ar":"ياؤ","name:en":"Yao","name:fr":"Yao","alt_name":"Yao"},"display_name":"Yao ياؤ, Batha البطحة, Tchad تشاد","address":{"city":"Yao ياؤ","state":"Batha البطحة","ISO3166-2-lvl4":"TD-BA","country":"Tchad تشاد","country_code":"td"},"osm_type":"node","osm_id":3012158227,"type":"city","location":[17.559304,12.851009],"bbox":[17.399304,12.691009,17.719304,13.011009]}
{"name":"أدري Adré","other_names":{"name:ar":"أدري","name:en":"Adré","name:fr":"Adré","name:ru":"Адре","alt_name":"Adre;Adré"},"display_name":"أدري Adré, Konto Molo, Assoungaha, Ouaddaï وداي, Tchad تشاد","address":{"city":"أدري Adré","county":"Assoungaha","state":"Ouaddaï وداي","ISO3166-2-lvl4":"TD-OD","country":"Tchad تشاد","country_code":"td"},"population":12000,"osm_type":"node","osm_id":150570006,"type":"city","location":[22.1977187,13.4664563],"bbox":[22.0377187,13.3064563,22.3577187,13.6264563]}
{"name":"أركوم Arkoum","other_names":{"name:ar":"أركوم","name:en":"Arkoum","name:fr":"Arkoum","alt_name":"Arkoum"},"display_name":"أركوم Arkoum, Konto Barde, Assoungaha, Ouaddaï وداي, Tchad تشاد","address":{"city":"أركوم Arkoum","county":"Assoungaha","state":"Ouaddaï وداي","ISO3166-2-lvl4":"TD-OD","country":"Tchad تشاد","country_code":"td"},"osm_type":"node","osm_id":4579396289,"type":"city","location":[21.7072955,13.1958284],"bbox":[21.5472955,13.0358284,21.8672955,13.3558284]}
{"name":"بتكين Bitkine","other_names":{"name:ar":"بتكين","name:en":"Bitkine","name:fr":"Bitkine","alt_name":"Bitkin;Bitkine"},"display_name":"بتكين Bitkine, Guéra قيرا, Tchad تشاد","address":{"city":"بتكين Bitkine","state":"Guéra قيرا","ISO3166-2-lvl4":"TD-GR","country":"Tchad تشاد","country_code":"td"},"osm_type":"node","osm_id":322045430,"type":"city","location":[18.2176782,11.9811077],"bbox":[18.0576782,11.8211077,18.3776782,12.1411077]}
{"name":"دوربالي Dourbali","other_names":{"name:ar":"دوربالي","name:en":"Dourbali","name:fr":"Dourbali","alt_name":"Ndourbali;Dourbali"},"display_name":"دوربالي Dourbali, Chari-Baguirmi شاري باقرمي, Tchad تشاد","address":{"city":"دوربالي Dourbali","state":"Chari-Baguirmi شاري باقرمي","ISO3166-2-lvl4":"TD-CB","country":"Tchad تشاد","country_code":"td"},"osm_type":"node","osm_id":1692459415,"type":"city","location":[15.87029,11.80645],"bbox":[15.71029,11.64645,16.03029,11.96645]}
{"name":"كاليت Kalait","other_names":{"name:ar":"كاليت","name:en":"Kalait","name:fr":"Kalaït"},"display_name":"كاليت Kalait, Ennedi Ouest إنيدي الغربية, Tchad تشاد","address":{"city":"كاليت Kalait","state":"Ennedi Ouest إنيدي الغربية","ISO3166-2-lvl4":"TD-EO","country":"Tchad تشاد","country_code":"td"},"osm_type":"node","osm_id":1785663149,"type":"city","location":[20.8961158,15.8404295],"bbox":[20.7361158,15.6804295,21.0561158,16.0004295]}
{"name":"مانديليا Mandelia","other_names":{"name:ar":"مانديليا","name:en":"Mandelia","name:fr":"Mandelia","alt_name":"Mandelia"},"display_name":"مانديليا Mandelia, Chari-Baguirmi شاري باقرمي, Tchad تشاد","address":{"city":"مانديليا Mandelia","state":"Chari-Baguirmi شاري باقرمي","ISO3166-2-lvl4":"TD-CB","country":"Tchad تشاد","country_code":"td"},"osm_type":"node","osm_id":4556953615,"type":"city","location":[15.2456538,11.7284322],"bbox":[15.0856538,11.5684322,15.4056538,11.8884322]}
{"name":"نقوري Ngouri","other_names":{"name:ar":"نقوري","name:en":"Ngouri","name:fr":"Ngouri","alt_name":"Fort Millot;Ngouri"},"display_name":"نقوري Ngouri, Tchad تشاد","address":{"city":"نقوري Ngouri","country":"Tchad تشاد","country_code":"td"},"osm_type":"node","osm_id":2437334833,"type":"city","location":[15.3701466,13.636825],"bbox":[15.2101466,13.476825,15.5301466,13.796825]}
{"name":"نكو Nokou","other_names":{"name:ar":"نكو","name:en":"Nokou","name:fr":"Nokou"},"display_name":"نكو Nokou, Kanem كانم, Tchad تشاد","address":{"city":"نكو Nokou","state":"Kanem كانم","ISO3166-2-lvl4":"TD-KA","country":"Tchad تشاد","country_code":"td"},"osm_type":"node","osm_id":2077938837,"type":"city","location":[14.7808568,14.5826551],"bbox":[14.6208568,14.4226551,14.9408568,14.7426551]}
