{"name":"Chipata","other_names":{"name:de":"Chipata","name:en":"Chipata","name:ru":"Чипата","old_name":"Fort Jameson"},"display_name":"Chipata, Chipata District, Eastern Province, Zambia","address":{"city":"Chipata","state_district":"Chipata District","state":"Eastern Province","ISO3166-2-lvl4":"ZM-03","country":"Zambia","country_code":"zm"},"population":455783,"osm_type":"node","osm_id":6378481619,"type":"city","location":[32.6458437,-13.6391314],"bbox":[32.4858437,-13.7991314,32.8058437,-13.4791314]}
{"name":"Kabwe","other_names":{"name:en":"Kabwe","name:ru":"Кабве","name:uk":"Кабве","old_name":"Broken Hill"},"display_name":"Kabwe, Kabwe District, Central Province, Zambia","address":{"city":"Kabwe","state_district":"Kabwe District","state":"Central Province","ISO3166-2-lvl4":"ZM-02","country":"Zambia","country_code":"zm"},"population":117517,"osm_type":"node","osm_id":918274948,"type":"city","location":[28.4465166,-14.4434056],"bbox":[28.2865166,-14.6034056,28.6065166,-14.2834056]}
{"name":"Kasama","other_names":{"name:en":"Kasama","name:ru":"Касама"},"display_name":"Kasama, Kasama District, Northern Province, Zambia","address":{"city":"Kasama","state_district":"Kasama District","state":"Northern Province","ISO3166-2-lvl4":"ZM-05","country":"Zambia","country_code":"zm"},"population":113000,"osm_type":"node","osm_id":206101229,"type":"city","location":[31.1877186,-10.2044875],"bbox":[31.0277186,-10.3644875,31.3477186,-10.0444875]}
{"name":"Kitwe","other_names":{"name:ar":"كيتوي","name:de":"Kitwe","name:en":"Kitwe","name:fa":"کیتو","name:ko":"키트웨","name:lt":"Kitvė","name:ru":"Китве-Нкана","name:ur":"کتوے","alt_name:ar":"كيتو"},"display_name":"Kitwe, Kitwe District, Copperbelt Province, 1001, Zambia","address":{"city":"Kitwe","state_district":"Kitwe District","state":"Copperbelt Province","ISO3166-2-lvl4":"ZM-08","postcode":"1001","country":"Zambia","country_code":"zm"},"population":522092,"osm_type":"node","osm_id":1164704713,"type":"city","location":[28.2155973,-12.8203689],"bbox":[28.0555973,-12.9803689,28.3755973,-12.6603689]}
{"display_name":"Limulunga District, Western Province, Zambia","address":{"state_district":"Limulunga District","state":"Western Province","ISO3166-2-lvl4":"ZM-01","country":"Zambia","country_code":"zm"},"osm_type":"way","osm_id":623834881,"type":"city","location":[23.1538043,-15.124345],"bbox":[23.1537812,-15.1243799,23.1538274,-15.1243101]}
{"name":"Livingstone","other_names":{"name:ar":"لفنستون","name:en":"Livingstone","name:ko":"리빙스턴","name:lt":"Livingstonas","name:ml":"ലിവിംഗ്സ്റ്റൺ","name:ru":"Ливингстон","name:uk":"Марамба","name:ur":"لیونگسٹون","alt_name:ar":"ليفينغستون;ليفينجستون"},"display_name":"Livingstone, Livingstone District, Southern Province, Zambia","address":{"city":"Livingstone","state_district":"Livingstone District","state":"Southern Province","ISO3166-2-lvl4":"ZM-07","country":"Zambia","country_code":"zm"},"population":136897,"osm_type":"node","osm_id":89085357,"type":"city","location":[25.861429,-17.853135],"bbox":[25.701429,-18.013135,26.021429,-17.693135]}
{"name":"Luanshya","other_names":{"name:en":"Luanshya","name:ko":"루안샤","name:ru":"Луаншья"},"display_name":"Luanshya, Luanshya District, Copperbelt Province, Zambia","address":{"city":"Luanshya","state_district":"Luanshya District","state":"Copperbelt Province","ISO3166-2-lvl4":"ZM-08","country":"Zambia","country_code":"zm"},"population":153117,"osm_type":"node","osm_id":435774678,"type":"city","location":[28.4175195,-13.131866],"bbox":[28.2575195,-13.291866,28.5775195,-12.971866]}
{"name":"Lusaka","other_names":{"name:am":"ሉሳካ","name:ar":"لوساكا","name:be":"Лусака","name:bg":"Лусака","name:bn":"লুসাকা","name:bo":"ལུ་ས་ཀ།","name:br":"Lusaka","name:ca":"Lusaka","name:de":"Lusaka","name:el":"Λουσάκα","name:en":"Lusaka","name:eo":"Lusako","name:es":"Lusaka","name:fa":"لوساکا","name:fr":"Lusaka","name:fy":"Lûsaka","name:gl":"Lusaca","name:he":"לוסקה","name:ht":"Louzaka","name:hu":"Lusaka","name:hy":"Լուսակա","name:is":"Lúsaka","name:ja":"ルサカ","name:ka":"ლუსაკა","name:ko":"루사카","name:ky":"Лусака","name:la":"Lusaca","name:mk":"Лусака","name:ml":"ലുസാക്ക","name:mn":"Лусака","name:mr":"लुसाका","name:nl":"Lusaka","name:oc":"Lusaka","name:pl":"Lusaka","name:pt":"Lusaca","name:ru":"Лусака","name:sr":"Лусака","name:sv":"Lusaka","name:ta":"லுசாக்கா","name:tg":"Лусака","name:th":"ลูซากา","name:ug":"لۇساكا","name:uk":"Лусака","name:ur":"لوساکا","name:zh":"盧薩卡","name:ckb":"لووساکا","name:kab":"Lusaka","name:mrj":"Лусака","name:pnb":"لوساکا","name:udm":"Лусака"},"display_name":"Lusaka, Lusaka District, Lusaka Province, 10101, Zambia","address":{"city":"Lusaka","state_district":"Lusaka District","state":"Lusaka Province","ISO3166-2-lvl4":"ZM-09","postcode":"10101","country":"Zambia","country_code":"zm"},"population":1742979,"osm_type":"node","osm_id":27564994,"type":"city","location":[28.2818414,-15.4163395],"bbox":[28.1218414,-15.5763395,28.4418414,-15.2563395]}
{"name":"Ndola","other_names":{"name:de":"Ndola","name:en":"Ndola","name:ko":"은돌라","name:ru":"Ндола","name:uk":"Ндола"},"display_name":"Ndola, Ndola District, Copperbelt Province, Zambia","address":{"city":"Ndola","state_district":"Ndola District","state":"Copperbelt Province","ISO3166-2-lvl4":"ZM-08","country":"Zambia","country_code":"zm"},"population":455194,"osm_type":"node","osm_id":315260631,"type":"city","location":[28.6365894,-12.9693056],"bbox":[28.4765894,-13.1293056,28.7965894,-12.8093056]}
