{"name":"Georgetown","other_names":{"name:el":"Τζώρτζτάουν","name:en":"Georgetown","name:mk":"Џорџтаун","name:uk":"Джорджтаун","name:zh-Hans":"乔治敦","name:zh-Hant":"喬治敦"},"display_name":"Georgetown, Ascension, ASCN 1ZZ, Saint Helena, Ascension and Tristan da Cunha","address":{"town":"Georgetown","region":"Ascension","ISO3166-2-lvl3":"SH-AC","postcode":"ASCN 1ZZ","country":"Saint Helena, Ascension and Tristan da Cunha","country_code":"sh"},"population":450,"osm_type":"node","osm_id":278969430,"type":"town","location":[-14.4133993,-7.9289722],"bbox":[-14.4533993,-7.9689722,-14.3733993,-7.8889722]}
{"name":"Jamestown","other_names":{"name:ar":"جيمز تون","name:ca":"Jamestown","name:de":"Jamestown","name:el":"Τζέιμσταουν","name:en":"Jamestown","name:es":"Jamestown","name:fa":"جیمزتون","name:fr":"Jamestown","name:hu":"Jamestown","name:lt":"Džeimstaunas","name:mk":"Џејмстаун","name:ru":"Джеймстаун","name:ur":"جیمز ٹاون","name:zh":"詹姆斯敦","official_name":"City of James Town","official_name:es":"Ciudad de Jamestown"},"display_name":"Jamestown, Saint Helena, STHL 1ZZ, Saint Helena, Ascension and Tristan da Cunha","address":{"town":"Jamestown","state":"Saint Helena","ISO3166-2-lvl3":"SH-HL","postcode":"STHL 1ZZ","country":"Saint Helena, Ascension and Tristan da Cunha","country_code":"sh"},"population":629,"osm_type":"node","osm_id":293673697,"type":"town","location":[-5.7160872,-15.9277296],"bbox":[-5.7560872,-15.9677296,-5.6760872,-15.8877296],"border":{"name":"Jamestown","other_names":{"name:en":"Jamestown","name:ar":"جيمز تون","name:ca":"Jamestown","name:de":"Jamestown","name:el":"Τζέιμσταουν","name:es":"Jamestown","name:fa":"جیمزتون","name:fr":"Jamestown","name:hu":"Jamestown","name:lt":"Džeimstaunas","name:mk":"Џејмстаун","name:ru":"Джеймстаун","name:ur":"جیمز ٹاون","name:zh":"詹姆斯敦","official_name":"City of James Town","official_name:es":"Ciudad de Jamestown"},"display_name":"Jamestown, Saint Helena, Saint Helena, Ascension and Tristan da Cunha","address":{"town":"Jamestown","state":"Saint Helena","ISO3166-2-lvl3":"SH-HL","country":"Saint Helena, Ascension and Tristan da Cunha","country_code":"sh"},"population":629,"osm_type":"way","osm_id":30272665,"type":"town","location":[-5.7160872,-15.9277296],"bbox":[-5.7191582,-15.9345064,-5.7104649,-15.9228553]}}
