{"name":"Aawdiinle","other_names":{"alt_name":"Awdiinle"},"display_name":"Aawdiinle, Baidoa بيدوا, Bay باي, Koonfur Galbeed جنوب غرب, Soomaaliya الصومال","address":{"town":"Aawdiinle","county":"Baidoa بيدوا","state":"Bay باي","ISO3166-2-lvl5":"SO-BY","country":"Soomaaliya الصومال","country_code":"so"},"osm_type":"node","osm_id":1404231405,"type":"town","location":[43.4106947,3.1715248],"bbox":[43.3706947,3.1315248,43.4506947,3.2115248]}
{"name":"Adan Yabaal","other_names":{"alt_name":"Adan Yabal"},"display_name":"Adan Yabaal, Bulo Burti بولو بورتي, Hiiraan هيران, Hirshabeelle هيرشابيل, Soomaaliya الصومال","address":{"town":"Adan Yabaal","county":"Bulo Burti بولو بورتي","state":"Hiiraan هيران","ISO3166-2-lvl5":"SO-HI","country":"Soomaaliya الصومال","country_code":"so"},"osm_type":"node","osm_id":1404233362,"type":"town","location":[46.246441,3.77837],"bbox":[46.206441,3.73837,46.286441,3.81837],"border":{"name":"Adan Yabaal","other_names":{"name:en":"Adan Yabal District","name:fr":"Adan Yabal","name:so":"Aadan Yabaal","name:zh":"阿丹雅巴勒區","name:zu":"Adan Yabal District"},"display_name":"Adan Yabaal, Shabeellaha Dhexe شبيلي الوسطى, Hirshabeelle هيرشابيل, Soomaaliya الصومال","address":{"county":"Adan Yabaal","state":"Shabeellaha Dhexe شبيلي الوسطى","ISO3166-2-lvl5":"SO-SD","country":"Soomaaliya الصومال","country_code":"so"},"osm_type":"relation","osm_id":1720069,"type":"administrative","location":[46.74705210745494,3.41806745],"bbox":[46.0600014,3.0008072,47.2117866,3.8900001]}}
{"name":"Afar Irdood","other_names":{"name:ar":"افر اردود","name:en":"Afar Irdood"},"display_name":"Afar Irdood, Galkaacyo جالكعيو, Mudug مدج, Galmudug غامدوغ, Soomaaliya الصومال","address":{"town":"Afar Irdood","county":"Galkaacyo جالكعيو","state":"Mudug مدج","ISO3166-2-lvl5":"SO-MU","country":"Soomaaliya الصومال","country_code":"so"},"osm_type":"node","osm_id":7194085033,"type":"town","location":[47.3751665,6.9941212],"bbox":[47.3351665,6.9541212,47.4151665,7.0341212]}
{"name":"Afgoi","display_name":"Afgoi, Afgooye أفجوي, Shabeellaha Hoose شبيلي السفلى, Koonfur Galbeed جنوب غرب, Soomaaliya الصومال","address":{"town":"Afgoi","county":"Afgooye أفجوي","state":"Shabeellaha Hoose شبيلي السفلى","ISO3166-2-lvl5":"SO-SH","country":"Soomaaliya الصومال","country_code":"so"},"osm_type":"node","osm_id":1404225678,"type":"town","location":[44.9880837,1.9836267],"bbox":[44.9480837,1.9436267,45.0280837,2.0236267]}
{"name":"Afmadow افمادوو","other_names":{"name:ar":"افمادوو","name:de":"Afmadow","name:en":"Afmadow","name:fr":"Afmadow","name:it":"Afmadù","name:ja":"アフマドゥ","name:nl":"Afmadow","name:ro":"Afmadow","name:so":"Afmadow","name:sw":"Afmadow","name:ur":"افمادوو","name:zu":"Afmadow","alt_name":"Afmado"},"display_name":"Afmadow افمادوو, Jubbada Hoose جوبا السفلى, Jubaland جوبالاند, Soomaaliya الصومال","address":{"town":"Afmadow افمادوو","county":"Afmadow افمادوو","state":"Jubbada Hoose جوبا السفلى","ISO3166-2-lvl5":"SO-JH","country":"Soomaaliya الصومال","country_code":"so"},"osm_type":"node","osm_id":1404222143,"type":"town","location":[42.0730434,0.5148092],"bbox":[42.0330434,0.4748092,42.1130434,0.5548092],"border":{"name":"Afmadow افمادوو","other_names":{"name:ar":"افمادوو","name:en":"Afmadow District","name:fr":"Afmadow","name:ur":"افمادوو ضلع","name:zh":"阿夫玛道区","name:zu":"Afmadow District"},"display_name":"Afmadow افمادوو, Jubbada Hoose جوبا السفلى, Jubaland جوبالاند, Soomaaliya الصومال","address":{"county":"Afmadow افمادوو","state":"Jubbada Hoose جوبا السفلى","ISO3166-2-lvl5":"SO-JH","country":"Soomaaliya الصومال","country_code":"so"},"osm_type":"relation","osm_id":1720071,"type":"administrative","location":[41.824659772052286,0.6181757],"bbox":[40.9932585,-0.1996903,42.7258911,1.3200001]}}
{"name":"Agabar أغابار","other_names":{"name:ar":"أغابار","name:en":"Agabar","name:fr":"Agabar"},"display_name":"Agabar أغابار, Gabiley غابيلي, Woqooyi Galbeed, Soomaaliland أرض الصومال, Soomaaliya الصومال","address":{"town":"Agabar أغابار","county":"Gabiley غابيلي","state":"Woqooyi Galbeed","ISO3166-2-lvl5":"SO-WO","country":"Soomaaliland أرض الصومال","country_code":"so"},"osm_type":"node","osm_id":1404224159,"type":"town","location":[43.9189108,9.9248985],"bbox":[43.8789108,9.8848985,43.9589108,9.9648985]}
{"name":"Arabsiyo عربسيو","other_names":{"name:ar":"عربسيو","name:cs":"Arabsiyo","name:de":"Arabsiyo","name:en":"Arabsiyo","name:fa":"عربسیو","name:fr":"Arabsiyo","name:it":"Arabsiyo","name:pl":"Arabsiyo","name:ro":"Arabsiyo","name:so":"Arabsiyo","name:zu":"Arabsiyo"},"display_name":"Arabsiyo عربسيو, Gabiley غابيلي, Woqooyi Galbeed, Soomaaliland أرض الصومال, Soomaaliya الصومال","address":{"town":"Arabsiyo عربسيو","county":"Gabiley غابيلي","state":"Woqooyi Galbeed","ISO3166-2-lvl5":"SO-WO","country":"Soomaaliland أرض الصومال","country_code":"so"},"osm_type":"node","osm_id":2454874210,"type":"town","location":[43.764145,9.681532],"bbox":[43.724145,9.641532,43.804145,9.721532]}
{"name":"Aw Dheegle","other_names":{"alt_name":"A. Dheglle;Awdheegle;Awdhiigle;Awdiigle;Owdheegle;Awdhegle"},"display_name":"Aw Dheegle, Afgooye أفجوي, Shabeellaha Hoose شبيلي السفلى, Koonfur Galbeed جنوب غرب, Soomaaliya الصومال","address":{"town":"Aw Dheegle","county":"Afgooye أفجوي","state":"Shabeellaha Hoose شبيلي السفلى","ISO3166-2-lvl5":"SO-SH","country":"Soomaaliya الصومال","country_code":"so"},"osm_type":"node","osm_id":1404222014,"type":"town","location":[44.8310272,1.9769603],"bbox":[44.7910272,1.9369603,44.8710272,2.0169603]}
{"name":"Bacaadweyn","other_names":{"alt_name":"Bacadweyn;Ba'adweyn"},"display_name":"Bacaadweyn, Galdogob جلدجب, Mudug مدج, Galmudug غامدوغ, Soomaaliya الصومال","address":{"town":"Bacaadweyn","county":"Galdogob جلدجب","state":"Mudug مدج","ISO3166-2-lvl5":"SO-MU","country":"Soomaaliya الصومال","country_code":"so"},"osm_type":"node","osm_id":1404221763,"type":"town","location":[47.5260455,7.1932846],"bbox":[47.4860455,7.1532846,47.5660455,7.2332846]}
{"name":"Badhaadhe بدهاذ","other_names":{"name:ar":"بدهاذ","name:fr":"Badhaadhe","name:so":"Badhaadhe","alt_name":"Badade"},"display_name":"Badhaadhe بدهاذ, Jubbada Hoose جوبا السفلى, Jubaland جوبالاند, Soomaaliya الصومال","address":{"town":"Badhaadhe بدهاذ","county":"Badhaadhe بدهاذ","state":"Jubbada Hoose جوبا السفلى","ISO3166-2-lvl5":"SO-JH","country":"Soomaaliya الصومال","country_code":"so"},"osm_type":"node","osm_id":1404233193,"type":"town","location":[41.4963513,-1.0332342],"bbox":[41.4563513,-1.0732342,41.5363513,-0.9932342],"border":{"name":"Badhaadhe بدهاذ","other_names":{"name:ar":"بدهاذ","name:en":"Badhadhe District","name:fr":"Badhadhe","name:nl":"Badhaadhe","name:so":"Badhaadhe","name:ur":"بادہدہ ضلع","name:zh":"巴达德区","name:zu":"Badhadhe District"},"display_name":"Badhaadhe بدهاذ, Jubbada Hoose جوبا السفلى, Jubaland جوبالاند, Soomaaliya الصومال","address":{"county":"Badhaadhe بدهاذ","state":"Jubbada Hoose جوبا السفلى","ISO3166-2-lvl5":"SO-JH","country":"Soomaaliya الصومال","country_code":"so"},"osm_type":"relation","osm_id":1720073,"type":"administrative","location":[41.473287990498235,-0.9037928],"bbox":[40.9933761,-1.6620659,42.007775,-0.15]}}
{"name":"Badhan برن","other_names":{"name:ar":"برن","name:de":"Badhan","name:en":"Badhan","name:es":"Badhan","name:fr":"Badhan"},"display_name":"Badhan برن, Ceerigaabo عيرجابو, سناج Sanaag, Soomaaliland أرض الصومال, Soomaaliya الصومال","address":{"town":"Badhan برن","county":"Ceerigaabo عيرجابو","state":"سناج Sanaag","ISO3166-2-lvl5":"SO-SA","country":"Soomaaliland أرض الصومال","country_code":"so"},"osm_type":"node","osm_id":1404232532,"type":"town","location":[48.3351072,10.7154042],"bbox":[48.2951072,10.6754042,48.3751072,10.7554042]}
{"name":"Balcad بلعد","other_names":{"name:ar":"بلعد","name:en":"Balcad","name:fr":"Balad","name:it":"Balad","alt_name":"Balcad;Bal'ad;Balad"},"display_name":"Balcad بلعد, Shabeellaha Dhexe شبيلي الوسطى, Hirshabeelle هيرشابيل, Soomaaliya الصومال","address":{"town":"Balcad بلعد","county":"Balcad بلعد","state":"Shabeellaha Dhexe شبيلي الوسطى","ISO3166-2-lvl5":"SO-SD","country":"Soomaaliya الصومال","country_code":"so"},"osm_type":"node","osm_id":1404222675,"type":"town","location":[45.3879323,2.3592887],"bbox":[45.3479323,2.3192887,45.4279323,2.3992887],"border":{"name":"Balcad بلعد","other_names":{"name:ar":"بلعد","name:en":"Balad District","name:fr":"Balad","name:ro":"Balad","name:so":"Balcad","name:sw":"Baalcad","name:ur":"بلد ضلع،","name:zh":"巴勒阿德區","name:zu":"Balad District"},"display_name":"Balcad بلعد, Shabeellaha Dhexe شبيلي الوسطى, Hirshabeelle هيرشابيل, Soomaaliya الصومال","address":{"county":"Balcad بلعد","state":"Shabeellaha Dhexe شبيلي الوسطى","ISO3166-2-lvl5":"SO-SD","country":"Soomaaliya الصومال","country_code":"so"},"osm_type":"relation","osm_id":1720076,"type":"administrative","location":[45.764267326526735,2.3319129],"bbox":[45.3300018,1.9195651,46.2523258,2.76]}}
{"display_name":"Balcad بلعد, Shabeellaha Dhexe شبيلي الوسطى, Hirshabeelle هيرشابيل, Soomaaliya الصومال","address":{"county":"Balcad بلعد","state":"Shabeellaha Dhexe شبيلي الوسطى","ISO3166-2-lvl5":"SO-SD","country":"Soomaaliya الصومال","country_code":"so"},"osm_type":"node","osm_id":7992296896,"type":"town","location":[45.4626123,2.1047236],"bbox":[45.4226123,2.0647236,45.5026123,2.1447236]}
{"name":"Bali Cumar","display_name":"Bali Cumar, Buuhoodle, توجدير Togdheer, Soomaaliland أرض الصومال, Soomaaliya الصومال","address":{"town":"Bali Cumar","county":"Buuhoodle","state":"توجدير Togdheer","ISO3166-2-lvl5":"SO-TO","country":"Soomaaliland أرض الصومال","country_code":"so"},"osm_type":"node","osm_id":9114709074,"type":"town","location":[46.5304364,8.7934537],"bbox":[46.4904364,8.7534537,46.5704364,8.8334537]}
{"name":"Bangeeni","display_name":"Bangeeni, Jamaame جمامة, Jubbada Hoose جوبا السفلى, Jubaland جوبالاند, Soomaaliya الصومال","address":{"town":"Bangeeni","county":"Jamaame جمامة","state":"Jubbada Hoose جوبا السفلى","ISO3166-2-lvl5":"SO-JH","country":"Soomaaliya الصومال","country_code":"so"},"osm_type":"node","osm_id":1404232659,"type":"town","location":[42.7303146,0.0403857],"bbox":[42.6903146,0.0003857,42.7703146,0.0803857]}
{"name":"Bangele","other_names":{"alt_name":"Bangeele;Bangeelle"},"display_name":"Bangele, Cabudwaaq, Galgaduud جلجدود, Galmudug غامدوغ, Soomaaliya الصومال","address":{"town":"Bangele","county":"Cabudwaaq","state":"Galgaduud جلجدود","ISO3166-2-lvl5":"SO-GA","country":"Soomaaliya الصومال","country_code":"so"},"osm_type":"node","osm_id":10167410999,"type":"town","location":[46.3132019,6.081464],"bbox":[46.2732019,6.041464,46.3532019,6.121464]}
{"name":"Baraawe مدينة ﺑﺮﺍﻭة","other_names":{"name:ar":"مدينة ﺑﺮﺍﻭة","name:en":"Barawa","name:fr":"Brava","name:lt":"Barava","name:zh":"布拉瓦","alt_name":"Baraawe"},"display_name":"Baraawe مدينة ﺑﺮﺍﻭة, Baraawe مدينة ﺑَﺮَﺍﻭَة, Shabeellaha Hoose شبيلي السفلى, Koonfur Galbeed جنوب غرب, Soomaaliya الصومال","address":{"town":"Baraawe مدينة ﺑﺮﺍﻭة","county":"Baraawe مدينة ﺑَﺮَﺍﻭَة","state":"Shabeellaha Hoose شبيلي السفلى","ISO3166-2-lvl5":"SO-SH","country":"Soomaaliya الصومال","country_code":"so"},"osm_type":"node","osm_id":43527946,"type":"town","location":[44.031005,1.112777],"bbox":[43.991005,1.072777,44.071005,1.152777],"border":{"name":"Baraawe مدينة ﺑَﺮَﺍﻭَة","other_names":{"name:ar":"مدينة ﺑَﺮَﺍﻭَة","name:en":"Barawa District","name:fr":"Barawa","name:zh":"巴拉韋區","name:zu":"Barawa District"},"display_name":"Baraawe مدينة ﺑَﺮَﺍﻭَة, Shabeellaha Hoose شبيلي السفلى, Koonfur Galbeed جنوب غرب, Soomaaliya الصومال","address":{"county":"Baraawe مدينة ﺑَﺮَﺍﻭَة","state":"Shabeellaha Hoose شبيلي السفلى","ISO3166-2-lvl5":"SO-SH","country":"Soomaaliya الصومال","country_code":"so"},"osm_type":"relation","osm_id":1720078,"type":"administrative","location":[43.885155807008616,1.03857355],"bbox":[43.3387604,0.5368891,44.661028,1.53]}}
{"name":"Bargaal برغال","other_names":{"name:ar":"برغال","name:ca":"Baargaal","name:de":"Bargaal","name:en":"Bargal","name:fr":"Bargal","name:it":"Bargal","name:so":"Baargaal","alt_name":"Baargaal;Bargal"},"display_name":"Bargaal برغال, Iskushuban, Bariباري, Puntland أرض البنط, Soomaaliya الصومال","address":{"town":"Bargaal برغال","county":"Iskushuban","state":"Bariباري","ISO3166-2-lvl5":"SO-BR","country":"Soomaaliya الصومال","country_code":"so"},"population":7000,"osm_type":"node","osm_id":313933168,"type":"town","location":[51.07795,11.286823],"bbox":[51.03795,11.246823,51.11795,11.326823]}
{"name":"Berdale","other_names":{"alt_name":"Bardaale;Berdaale"},"display_name":"Berdale, Baidoa بيدوا, Bay باي, Koonfur Galbeed جنوب غرب, Soomaaliya الصومال","address":{"town":"Berdale","county":"Baidoa بيدوا","state":"Bay باي","ISO3166-2-lvl5":"SO-BY","country":"Soomaaliya الصومال","country_code":"so"},"osm_type":"node","osm_id":8411616793,"type":"town","location":[43.1983518,3.2150066],"bbox":[43.1583518,3.1750066,43.2383518,3.2550066]}
{"name":"Booco","other_names":{"alt_name":"Booca"},"display_name":"Booco, Bulo Burti بولو بورتي, Hiiraan هيران, Hirshabeelle هيرشابيل, Soomaaliya الصومال","address":{"town":"Booco","county":"Bulo Burti بولو بورتي","state":"Hiiraan هيران","ISO3166-2-lvl5":"SO-HI","country":"Soomaaliya الصومال","country_code":"so"},"osm_type":"node","osm_id":1404230890,"type":"town","location":[45.3936142,4.3309815],"bbox":[45.3536142,4.2909815,45.4336142,4.3709815]}
{"display_name":"Bulo Burti بولو بورتي, Hiiraan هيران, Hirshabeelle هيرشابيل, Soomaaliya الصومال","address":{"county":"Bulo Burti بولو بورتي","state":"Hiiraan هيران","ISO3166-2-lvl5":"SO-HI","country":"Soomaaliya الصومال","country_code":"so"},"osm_type":"node","osm_id":8963311141,"type":"town","location":[45.5752265,3.8623171],"bbox":[45.5352265,3.8223171,45.6152265,3.9023171]}
{"name":"Bulo Burto بولو بورتي","other_names":{"name:ar":"بولو بورتي","name:de":"Buulobarde","name:en":"Bulo Burto","name:eo":"Buuloburde","name:fr":"Buloburde","name:it":"Bulo Burti","name:pl":"Buuloburde","name:ro":"Buulaburte","name:ru":"Було-Бурти","name:so":"Buulo Burde","name:sw":"Buulobarde","name:ur":"بولوبورد","alt_name":"Buulobarde, Buloburte, Buloburde"},"display_name":"Bulo Burto بولو بورتي, Bulo Burti بولو بورتي, Hiiraan هيران, Hirshabeelle هيرشابيل, Soomaaliya الصومال","address":{"town":"Bulo Burto بولو بورتي","county":"Bulo Burti بولو بورتي","state":"Hiiraan هيران","ISO3166-2-lvl5":"SO-HI","country":"Soomaaliya الصومال","country_code":"so"},"osm_type":"node","osm_id":1404225503,"type":"town","location":[45.565115,3.851941],"bbox":[45.525115,3.811941,45.605115,3.891941],"border":{"name":"Bulo Burti بولو بورتي","other_names":{"name:ar":"بولو بورتي","name:en":"Buloburde District","name:fr":"Buloburde","name:zh":"布洛布尔德区","name:zu":"Buloburde District"},"display_name":"Bulo Burti بولو بورتي, Hiiraan هيران, Hirshabeelle هيرشابيل, Soomaaliya الصومال","address":{"county":"Bulo Burti بولو بورتي","state":"Hiiraan هيران","ISO3166-2-lvl5":"SO-HI","country":"Soomaaliya الصومال","country_code":"so"},"osm_type":"relation","osm_id":1720085,"type":"administrative","location":[45.53421874814486,3.77999995],"bbox":[44.7486992,3.2016656,46.4000015,4.4299998]}}
{"name":"Buq Koosaar","other_names":{"alt_name":"Buckowsar"},"display_name":"Buq Koosaar, Belet Weyne بلد وين, Hiiraan هيران, Hirshabeelle هيرشابيل, Soomaaliya الصومال","address":{"town":"Buq Koosaar","county":"Belet Weyne بلد وين","state":"Hiiraan هيران","ISO3166-2-lvl5":"SO-HI","country":"Soomaaliya الصومال","country_code":"so"},"osm_type":"node","osm_id":1404224411,"type":"town","location":[44.8176655,4.5112577],"bbox":[44.7776655,4.4712577,44.8576655,4.5512577]}
{"name":"Buqda بق اقبلي","other_names":{"name:ar":"بق اقبلي","name:en":"Buq Aqable","name:fr":"Buq Aqable","name:so":"Buq aqable","name:zu":"Buqdaaqable","alt_name":"Buqda Caqable;Buqda-aqable;Buq'aqable;Bukh-aqable"},"display_name":"Buqda بق اقبلي, Bulo Burti بولو بورتي, Hiiraan هيران, Hirshabeelle هيرشابيل, Soomaaliya الصومال","address":{"town":"Buqda بق اقبلي","county":"Bulo Burti بولو بورتي","state":"Hiiraan هيران","ISO3166-2-lvl5":"SO-HI","country":"Soomaaliya الصومال","country_code":"so"},"osm_type":"node","osm_id":1404230719,"type":"town","location":[45.2556912,4.0577725],"bbox":[45.2156912,4.0177725,45.2956912,4.0977725]}
{"name":"Buraa","other_names":{"alt_name":"Buraa Diriye"},"display_name":"Buraa, Garbahaarey غاربهاارآي, Gedo جدو, Jubaland جوبالاند, Soomaaliya الصومال","address":{"town":"Buraa","county":"Garbahaarey غاربهاارآي","state":"Gedo جدو","ISO3166-2-lvl5":"SO-GE","country":"Soomaaliya الصومال","country_code":"so"},"osm_type":"node","osm_id":1404233290,"type":"town","location":[42.14083,3.16962],"bbox":[42.10083,3.12962,42.18083,3.20962]}
{"name":"Burtinle","other_names":{"alt_name":"Bur Tinle"},"display_name":"Burtinle, Nugaal نوجال, Puntland أرض البنط, Soomaaliya الصومال","address":{"town":"Burtinle","county":"Burtinle","state":"Nugaal نوجال","ISO3166-2-lvl5":"SO-NU","country":"Soomaaliya الصومال","country_code":"so"},"osm_type":"node","osm_id":1404222605,"type":"town","location":[47.83103,7.64157],"bbox":[47.79103,7.60157,47.87103,7.68157],"border":{"name":"Burtinle","other_names":{"name:en":"Burtinle District","name:fr":"Burtinle","name:zh":"布尔提恩雷区","name:zu":"Burtinle District"},"display_name":"Burtinle, Nugaal نوجال, Puntland أرض البنط, Soomaaliya الصومال","address":{"county":"Burtinle","state":"Nugaal نوجال","ISO3166-2-lvl5":"SO-NU","country":"Soomaaliya الصومال","country_code":"so"},"osm_type":"relation","osm_id":1720087,"type":"administrative","location":[48.478966081511146,7.8548867],"bbox":[47.557065,7.4099998,49.1899986,8.21]}}
{"name":"Buuhoodle بووهودل ቦሆትለ","other_names":{"name:ar":"بووهودل","name:ca":"Buuhoodle","name:de":"Buhoodle","name:en":"Buuhoodle","name:fr":"Buuhoodle","name:hr":"Buuhoodle","name:it":"Buhoodle","name:ko":"부후들","name:ml":"ബൂഹോഡ്ലെ","name:pl":"Buuhoodle","name:ru":"Буходле","name:sv":"Buuhoodle","name:uk":"Буходле","name:ur":"بووہودل","name:zh":"布侯德列","name:zu":"Buuhoodle","alt_name":"Bohotle"},"display_name":"Buuhoodle بووهودل ቦሆትለ, Buuhoodle, توجدير Togdheer, Soomaaliland أرض الصومال, Soomaaliya الصومال","address":{"town":"Buuhoodle بووهودل ቦሆትለ","county":"Buuhoodle","state":"توجدير Togdheer","ISO3166-2-lvl5":"SO-TO","country":"Soomaaliland أرض الصومال","country_code":"so"},"osm_type":"node","osm_id":9026659039,"type":"town","location":[46.3255652,8.2321841],"bbox":[46.2855652,8.1921841,46.3655652,8.2721841],"border":{"name":"Buuhoodle","other_names":{"name:en":"Buhoodle District","name:fr":"Buhoodle","name:ru":"Буходле","name:zh":"布胡德雷區","name:zu":"Buhoodle District","alt_name":"Cayn","alt_name:en":"Cayn","alt_name:fr":"Cayn"},"display_name":"Buuhoodle, توجدير Togdheer, Soomaaliland أرض الصومال, Soomaaliya الصومال","address":{"county":"Buuhoodle","state":"توجدير Togdheer","ISO3166-2-lvl5":"SO-TO","country":"Soomaaliland أرض الصومال","country_code":"so"},"osm_type":"relation","osm_id":1720088,"type":"administrative","location":[46.6556670117336,8.41500045],"bbox":[46.1899986,8.0007395,47.0999985,8.8199785]}}
{"name":"Buulo Mareer","other_names":{"alt_name":"Buulo Marrer Sl"},"display_name":"Buulo Mareer, Marka, Shabeellaha Hoose شبيلي السفلى, Koonfur Galbeed جنوب غرب, Soomaaliya الصومال","address":{"town":"Buulo Mareer","county":"Marka","state":"Shabeellaha Hoose شبيلي السفلى","ISO3166-2-lvl5":"SO-SH","country":"Soomaaliya الصومال","country_code":"so"},"osm_type":"node","osm_id":3135537229,"type":"town","location":[44.5219824,1.6307502],"bbox":[44.4819824,1.5907502,44.5619824,1.6707502]}
{"name":"Buulo-Jadiid","display_name":"Buulo-Jadiid, Baidoa بيدوا, Bay باي, Koonfur Galbeed جنوب غرب, Soomaaliya الصومال","address":{"town":"Buulo-Jadiid","county":"Baidoa بيدوا","state":"Bay باي","ISO3166-2-lvl5":"SO-BY","country":"Soomaaliya الصومال","country_code":"so"},"osm_type":"node","osm_id":1404222395,"type":"town","location":[43.42939,3.25457],"bbox":[43.38939,3.21457,43.46939,3.29457]}
{"name":"Buulo","display_name":"Buulo, Xudur حودور, Bakool باكول, Koonfur Galbeed جنوب غرب, Soomaaliya الصومال","address":{"town":"Buulo","county":"Xudur حودور","state":"Bakool باكول","ISO3166-2-lvl5":"SO-BK","country":"Soomaaliya الصومال","country_code":"so"},"osm_type":"node","osm_id":1404233657,"type":"town","location":[44.1828339,4.1515434],"bbox":[44.1428339,4.1115434,44.2228339,4.1915434]}
{"name":"Buur Dhuxunle","other_names":{"alt_name":"Burdhuhunle"},"display_name":"Buur Dhuxunle, Rab Dhuure, Bakool باكول, Koonfur Galbeed جنوب غرب, Soomaaliya الصومال","address":{"town":"Buur Dhuxunle","county":"Rab Dhuure","state":"Bakool باكول","ISO3166-2-lvl5":"SO-BK","country":"Soomaaliya الصومال","country_code":"so"},"osm_type":"node","osm_id":1404231323,"type":"town","location":[43.2426586,4.0539961],"bbox":[43.2026586,4.0139961,43.2826586,4.0939961]}
{"name":"Buurey","display_name":"Buurey, Baidoa بيدوا, Bay باي, Koonfur Galbeed جنوب غرب, Soomaaliya الصومال","address":{"town":"Buurey","county":"Baidoa بيدوا","state":"Bay باي","ISO3166-2-lvl5":"SO-BY","country":"Soomaaliya الصومال","country_code":"so"},"osm_type":"node","osm_id":1404223973,"type":"town","location":[43.4694,3.31584],"bbox":[43.4294,3.27584,43.5094,3.35584]}
{"name":"Buuryaqab","display_name":"Buuryaqab, Galkaacyo جالكعيو, Mudug مدج, Galmudug غامدوغ, Soomaaliya الصومال","address":{"town":"Buuryaqab","county":"Galkaacyo جالكعيو","state":"Mudug مدج","ISO3166-2-lvl5":"SO-MU","country":"Soomaaliya الصومال","country_code":"so"},"osm_type":"node","osm_id":1404230088,"type":"town","location":[47.619598,7.3528],"bbox":[47.579598,7.3128,47.659598,7.3928]}
{"name":"Cadaado","other_names":{"name:en":"Adado","name:fa":"ادادو","name:fr":"Adado","name:ru":"Ададо","name:uk":"Ададо","name:ur":"ادادو","name:zh":"阿达多","name:zu":"Adado","alt_name":"Adaado"},"display_name":"Cadaado, Galgaduud جلجدود, Galmudug غامدوغ, Soomaaliya الصومال","address":{"town":"Cadaado","county":"Cadaado","state":"Galgaduud جلجدود","ISO3166-2-lvl5":"SO-GA","country":"Soomaaliya الصومال","country_code":"so"},"osm_type":"node","osm_id":1404226404,"type":"town","location":[46.6260643,6.1387154],"bbox":[46.5860643,6.0987154,46.6660643,6.1787154],"border":{"name":"Cadaado","other_names":{"name:en":"Adado District","name:fr":"Adado","name:zh":"阿达多区"},"display_name":"Cadaado, Galgaduud جلجدود, Galmudug غامدوغ, Soomaaliya الصومال","address":{"county":"Cadaado","state":"Galgaduud جلجدود","ISO3166-2-lvl5":"SO-GA","country":"Soomaaliya الصومال","country_code":"so"},"osm_type":"relation","osm_id":1720091,"type":"administrative","location":[47.06892068854587,6.114902900000001],"bbox":[46.5110781,5.7515678,47.5999985,6.5305194]}}
{"name":"Cadale عضلة","other_names":{"name:ar":"عضلة","name:en":"Cadale","name:fr":"Cadale","alt_name":"Adale"},"display_name":"Cadale عضلة, Shabeellaha Dhexe شبيلي الوسطى, Hirshabeelle هيرشابيل, Soomaaliya الصومال","address":{"town":"Cadale عضلة","county":"Cadale عضلة","state":"Shabeellaha Dhexe شبيلي الوسطى","ISO3166-2-lvl5":"SO-SD","country":"Soomaaliya الصومال","country_code":"so"},"osm_type":"node","osm_id":1404222064,"type":"town","location":[46.3220127,2.7616074],"bbox":[46.2820127,2.7216074,46.3620127,2.8016074],"border":{"name":"Cadale عضلة","other_names":{"name:ar":"عضلة","name:en":"Adale District","name:fr":"Adale"},"display_name":"Cadale عضلة, Shabeellaha Dhexe شبيلي الوسطى, Hirshabeelle هيرشابيل, Soomaaliya الصومال","address":{"county":"Cadale عضلة","state":"Shabeellaha Dhexe شبيلي الوسطى","ISO3166-2-lvl5":"SO-SD","country":"Soomaaliya الصومال","country_code":"so"},"osm_type":"relation","osm_id":1720092,"type":"administrative","location":[46.4046593844965,2.9755889],"bbox":[45.9399986,2.3813178,46.8804222,3.5699999]}}
{"name":"Ceel Afweyn عيل أفوين","other_names":{"name:ar":"عَيل أفوين","name:en":"El Afweyn","name:fr":"El Afweyn","name:nl":"Ceel Afweyn","name:pl":"Ceel Afweyn","name:ro":"CeelAfweyn","name:so":"Ceelafweyn","name:ur":"عَيل أفوين","name:zu":"El Afweyn","alt_name":"El Afweyn;El Afweyne"},"display_name":"Ceel Afweyn عيل أفوين, Ceel Afweyn الأفوين, سناج Sanaag, Soomaaliland أرض الصومال, Soomaaliya الصومال","address":{"town":"Ceel Afweyn عيل أفوين","county":"Ceel Afweyn الأفوين","state":"سناج Sanaag","ISO3166-2-lvl5":"SO-SA","country":"Soomaaliland أرض الصومال","country_code":"so"},"osm_type":"node","osm_id":1404234111,"type":"town","location":[47.2153067,9.9280206],"bbox":[47.1753067,9.8880206,47.2553067,9.9680206],"border":{"name":"Ceel Afweyn الأفوين","other_names":{"name:ar":"الأفوين","name:en":"El Afweyn District","name:fr":"El Afweyn","name:ur":"الافوین","name:zh":"艾勒阿富维恩区"},"display_name":"Ceel Afweyn الأفوين, سناج Sanaag, Soomaaliland أرض الصومال, Soomaaliya الصومال","address":{"county":"Ceel Afweyn الأفوين","state":"سناج Sanaag","ISO3166-2-lvl5":"SO-SA","country":"Soomaaliland أرض الصومال","country_code":"so"},"osm_type":"relation","osm_id":1720095,"type":"administrative","location":[46.60741186751597,10.36500025],"bbox":[46.0100289,9.4200197,47.3800011,10.9840544]}}
{"name":"Ceel Barde","other_names":{"alt_name":"El Barde"},"display_name":"Ceel Barde, Bakool باكول, Koonfur Galbeed جنوب غرب, Soomaaliya الصومال","address":{"town":"Ceel Barde","county":"Ceel Barde","state":"Bakool باكول","ISO3166-2-lvl5":"SO-BK","country":"Soomaaliya الصومال","country_code":"so"},"osm_type":"node","osm_id":1404225932,"type":"town","location":[43.659931,4.82821],"bbox":[43.619931,4.78821,43.699931,4.86821],"border":{"name":"Ceel Barde","other_names":{"name:en":"El Barde District","name:fr":"El Barde"},"display_name":"Ceel Barde, Bakool باكول, Koonfur Galbeed جنوب غرب, Soomaaliya الصومال","address":{"county":"Ceel Barde","state":"Bakool باكول","ISO3166-2-lvl5":"SO-BK","country":"Soomaaliya الصومال","country_code":"so"},"osm_type":"relation","osm_id":1720096,"type":"administrative","location":[43.91483578968602,4.6737132],"bbox":[43.1266094,4.4299998,44.676609,4.9504394]}}
{"name":"Ceel Boon","other_names":{"alt_name":"El Bon"},"display_name":"Ceel Boon, Luuq لوق, Gedo جدو, Jubaland جوبالاند, Soomaaliya الصومال","address":{"town":"Ceel Boon","county":"Luuq لوق","state":"Gedo جدو","ISO3166-2-lvl5":"SO-GE","country":"Soomaaliya الصومال","country_code":"so"},"osm_type":"node","osm_id":1404230799,"type":"town","location":[42.91011,3.72838],"bbox":[42.87011,3.68838,42.95011,3.76838]}
{"name":"Ceel Buur","other_names":{"name:en":"El Buur","name:fa":"البور","name:fr":"El Buur","name:it":"El Bur","name:pt":"Ceelbuur","name:ro":"Ceelbuur","name:ru":"Эль-Бур","name:tr":"El Buur","name:ur":"البر، شہر","name:zu":"El Buur","alt_name":"Elbur"},"display_name":"Ceel Buur, Galgaduud جلجدود, Galmudug غامدوغ, Soomaaliya الصومال","address":{"town":"Ceel Buur","county":"Ceel Buur","state":"Galgaduud جلجدود","ISO3166-2-lvl5":"SO-GA","country":"Soomaaliya الصومال","country_code":"so"},"osm_type":"node","osm_id":1404221535,"type":"town","location":[46.62342,4.68153],"bbox":[46.58342,4.64153,46.66342,4.72153],"border":{"name":"Ceel Buur","other_names":{"name:en":"El Buur District","name:fr":"El Buur","name:zh":"艾勒布尔区"},"display_name":"Ceel Buur, Galgaduud جلجدود, Galmudug غامدوغ, Soomaaliya الصومال","address":{"county":"Ceel Buur","state":"Galgaduud جلجدود","ISO3166-2-lvl5":"SO-GA","country":"Soomaaliya الصومال","country_code":"so"},"osm_type":"relation","osm_id":1720097,"type":"administrative","location":[46.82291240160696,4.61695385],"bbox":[46.1100006,4.2333331,47.6100006,5.198132]}}
{"name":"Ceel Daahir","other_names":{"name:en":"El Dahir","alt_name":"El Dahir"},"display_name":"Ceel Daahir, Bossaso بوصاصو, Bariباري, Puntland أرض البنط, Soomaaliya الصومال","address":{"town":"Ceel Daahir","county":"Bossaso بوصاصو","state":"Bariباري","ISO3166-2-lvl5":"SO-BR","country":"Soomaaliya الصومال","country_code":"so"},"osm_type":"node","osm_id":313974266,"type":"town","location":[49.0484873,10.6262855],"bbox":[49.0084873,10.5862855,49.0884873,10.6662855]}
{"name":"Ceel Dheer","other_names":{"alt_name":"Ceeldheer;El Dheer;El Dher;Eldher"},"display_name":"Ceel Dheer, Galgaduud جلجدود, Galmudug غامدوغ, Soomaaliya الصومال","address":{"town":"Ceel Dheer","county":"Ceel Dheer","state":"Galgaduud جلجدود","ISO3166-2-lvl5":"SO-GA","country":"Soomaaliya الصومال","country_code":"so"},"osm_type":"node","osm_id":1404231132,"type":"town","location":[47.180309,3.84909],"bbox":[47.140309,3.80909,47.220309,3.88909],"border":{"name":"Ceel Dheer","other_names":{"name:en":"El Dher District","name:fr":"El Dher"},"display_name":"Ceel Dheer, Galgaduud جلجدود, Galmudug غامدوغ, Soomaaliya الصومال","address":{"county":"Ceel Dheer","state":"Galgaduud جلجدود","ISO3166-2-lvl5":"SO-GA","country":"Soomaaliya الصومال","country_code":"so"},"osm_type":"relation","osm_id":1720098,"type":"administrative","location":[47.05619775468224,3.9143393],"bbox":[46.3899994,3.364465,48.0213565,4.4939079]}}
{"name":"Ceel-Baraf","other_names":{"alt_name":"El Baraf;El-Baraf"},"display_name":"Ceel-Baraf, Jowhar جوهر, Shabeellaha Dhexe شبيلي الوسطى, Hirshabeelle هيرشابيل, Soomaaliya الصومال","address":{"town":"Ceel-Baraf","county":"Jowhar جوهر","state":"Shabeellaha Dhexe شبيلي الوسطى","ISO3166-2-lvl5":"SO-SD","country":"Soomaaliya الصومال","country_code":"so"},"osm_type":"node","osm_id":1404227191,"type":"town","location":[45.7598191,3.2077865],"bbox":[45.7198191,3.1677865,45.7998191,3.2477865]}
{"name":"Cows Qurun","display_name":"Cows Qurun, Baardheere بااردىرآ, Gedo جدو, Jubaland جوبالاند, Soomaaliya الصومال","address":{"town":"Cows Qurun","county":"Baardheere بااردىرآ","state":"Gedo جدو","ISO3166-2-lvl5":"SO-GE","country":"Soomaaliya الصومال","country_code":"so"},"osm_type":"node","osm_id":1404231327,"type":"town","location":[41.15073,2.21022],"bbox":[41.11073,2.17022,41.19073,2.25022]}
{"name":"Dabaqabad","other_names":{"alt_name":"Daba Qabad"},"display_name":"Dabaqabad, Burco برعو, توجدير Togdheer, Soomaaliland أرض الصومال, Soomaaliya الصومال","address":{"town":"Dabaqabad","county":"Burco برعو","state":"توجدير Togdheer","ISO3166-2-lvl5":"SO-TO","country":"Soomaaliland أرض الصومال","country_code":"so"},"population":650,"osm_type":"node","osm_id":1404231210,"type":"town","location":[45.8157768,8.6926739],"bbox":[45.7757768,8.6526739,45.8557768,8.7326739]}
{"name":"Dalsan","display_name":"Dalsan, Cabudwaaq, Galgaduud جلجدود, Galmudug غامدوغ, Soomaaliya الصومال","address":{"town":"Dalsan","county":"Cabudwaaq","state":"Galgaduud جلجدود","ISO3166-2-lvl5":"SO-GA","country":"Soomaaliya الصومال","country_code":"so"},"osm_type":"node","osm_id":10297949315,"type":"town","location":[46.3236496,6.2706238],"bbox":[46.2836496,6.2306238,46.3636496,6.3106238]}
{"name":"Dara Salaam دار السلام","other_names":{"name:ar":"دار السلام","name:en":"Dara Salaam","name:fr":"Dara Salaam","alt_name":"Darusalan"},"display_name":"Dara Salaam دار السلام, Qoryooley قوريولي, Shabeellaha Hoose شبيلي السفلى, Koonfur Galbeed جنوب غرب, Soomaaliya الصومال","address":{"town":"Dara Salaam دار السلام","county":"Qoryooley قوريولي","state":"Shabeellaha Hoose شبيلي السفلى","ISO3166-2-lvl5":"SO-SH","country":"Soomaaliya الصومال","country_code":"so"},"osm_type":"node","osm_id":1404222191,"type":"town","location":[44.786087,1.9227944],"bbox":[44.746087,1.8827944,44.826087,1.9627944]}
{"name":"Dhamaso","other_names":{"alt_name":"Dhamase"},"display_name":"Dhamaso, Belet Xaawo, Gedo جدو, Jubaland جوبالاند, Soomaaliya الصومال","address":{"town":"Dhamaso","county":"Belet Xaawo","state":"Gedo جدو","ISO3166-2-lvl5":"SO-GE","country":"Soomaaliya الصومال","country_code":"so"},"osm_type":"node","osm_id":1404221930,"type":"town","location":[41.33575,3.1532],"bbox":[41.29575,3.1132,41.37575,3.1932]}
{"name":"Dhobley","other_names":{"alt_name":"Dhoblei"},"display_name":"Dhobley, Afmadow افمادوو, Jubbada Hoose جوبا السفلى, Jubaland جوبالاند, Soomaaliya الصومال","address":{"town":"Dhobley","county":"Afmadow افمادوو","state":"Jubbada Hoose جوبا السفلى","ISO3166-2-lvl5":"SO-JH","country":"Soomaaliya الصومال","country_code":"so"},"osm_type":"node","osm_id":1404224679,"type":"town","location":[41.0104482,0.4104794],"bbox":[40.9704482,0.3704794,41.0504482,0.4504794]}
{"name":"Dhoqoshay","display_name":"Dhoqoshay, Burco برعو, توجدير Togdheer, Soomaaliland أرض الصومال, Soomaaliya الصومال","address":{"town":"Dhoqoshay","county":"Burco برعو","state":"توجدير Togdheer","ISO3166-2-lvl5":"SO-TO","country":"Soomaaliland أرض الصومال","country_code":"so"},"osm_type":"node","osm_id":1404223358,"type":"town","location":[45.7181479,8.5111945],"bbox":[45.6781479,8.4711945,45.7581479,8.5511945]}
{"name":"Dhuusamareeb دوسمريب","other_names":{"name:ar":"دوسمريب","name:ca":"Dhusa Mareb","name:de":"Dhuusamarreeb","name:en":"Dusmareb","name:fa":"طوس مریب","name:fi":"Dhuusamarreeb","name:fr":"Dusmareb","name:it":"Dusa Mareb","name:ja":"ドゥサマレブ","name:ko":"두사마렙","name:nl":"Dhuusa Marreeb","name:pl":"Dhuusamarreeb","name:pt":"Dusa Mareb","name:ro":"Dhuusamarreeb","name:ru":"Дусамареб","name:so":"Dhuusamareeb","name:tr":"Dusamareb","name:uk":"Дусамареб","name:ur":"دھوسا مارب","name:zh":"杜薩馬雷卜","name:zu":"Dusmareb"},"display_name":"Dhuusamareeb دوسمريب, Dhuusamarreeb دوسمريب, Galgaduud جلجدود, Galmudug غامدوغ, Soomaaliya الصومال","address":{"town":"Dhuusamareeb دوسمريب","county":"Dhuusamarreeb دوسمريب","state":"Galgaduud جلجدود","ISO3166-2-lvl5":"SO-GA","country":"Soomaaliya الصومال","country_code":"so"},"population":10500,"osm_type":"node","osm_id":43528267,"type":"town","location":[46.3831085,5.5355913],"bbox":[46.3431085,5.4955913,46.4231085,5.5755913],"border":{"name":"Dhuusamarreeb دوسمريب","other_names":{"name:ar":"دوسمريب","name:en":"Dhusamareb District","name:fr":"Dhusamareb","name:nl":"Dhusamarreeb","name:ur":"دھوسا مارب ضلع","name:zh":"杜萨马雷卜区","name:zu":"Dusmareb District"},"display_name":"Dhuusamarreeb دوسمريب, Galgaduud جلجدود, Galmudug غامدوغ, Soomaaliya الصومال","address":{"county":"Dhuusamarreeb دوسمريب","state":"Galgaduud جلجدود","ISO3166-2-lvl5":"SO-GA","country":"Soomaaliya الصومال","country_code":"so"},"osm_type":"relation","osm_id":1720100,"type":"administrative","location":[46.73111514394693,5.406841549999999],"bbox":[45.658802,5.0300002,47.6070099,5.9498056]}}
{"name":"Diinsoor","other_names":{"alt_name":"Dinsoor Jameco"},"display_name":"Diinsoor, Bay باي, Koonfur Galbeed جنوب غرب, Soomaaliya الصومال","address":{"town":"Diinsoor","county":"Diinsoor","state":"Bay باي","ISO3166-2-lvl5":"SO-BY","country":"Soomaaliya الصومال","country_code":"so"},"osm_type":"node","osm_id":1404228313,"type":"town","location":[42.976551,2.40735],"bbox":[42.936551,2.36735,43.016551,2.44735],"border":{"name":"Diinsoor","other_names":{"name:en":"Dinsoor District","name:fr":"Dinsoor","name:zh":"丁索尔区"},"display_name":"Diinsoor, Bay باي, Koonfur Galbeed جنوب غرب, Soomaaliya الصومال","address":{"county":"Diinsoor","state":"Bay باي","ISO3166-2-lvl5":"SO-BY","country":"Soomaaliya الصومال","country_code":"so"},"osm_type":"relation","osm_id":1720101,"type":"administrative","location":[42.80899306999868,1.995],"bbox":[42.4000015,1.46,43.4399986,2.5988059]}}
{"name":"Duduble","other_names":{"alt_name":"Dudunle"},"display_name":"Duduble, Jowhar جوهر, Shabeellaha Dhexe شبيلي الوسطى, Hirshabeelle هيرشابيل, Soomaaliya الصومال","address":{"town":"Duduble","county":"Jowhar جوهر","state":"Shabeellaha Dhexe شبيلي الوسطى","ISO3166-2-lvl5":"SO-SD","country":"Soomaaliya الصومال","country_code":"so"},"osm_type":"node","osm_id":1404223489,"type":"town","location":[45.5333545,3.1483448],"bbox":[45.4933545,3.1083448,45.5733545,3.1883448]}
{"name":"El Adde","other_names":{"alt_name":"Ceel Cadde"},"display_name":"El Adde, Garbahaarey غاربهاارآي, Gedo جدو, Jubaland جوبالاند, Soomaaliya الصومال","address":{"town":"El Adde","county":"Garbahaarey غاربهاارآي","state":"Gedo جدو","ISO3166-2-lvl5":"SO-GE","country":"Soomaaliya الصومال","country_code":"so"},"osm_type":"node","osm_id":1404230195,"type":"town","location":[41.86737,3.03594],"bbox":[41.82737,2.99594,41.90737,3.07594]}
{"name":"Faafaxdhuun","other_names":{"alt_name":"Faafaxadhuun; Fahfahdhun"},"display_name":"Faafaxdhuun, Baardheere بااردىرآ, Gedo جدو, Jubaland جوبالاند, Soomaaliya الصومال","address":{"town":"Faafaxdhuun","county":"Baardheere بااردىرآ","state":"Gedo جدو","ISO3166-2-lvl5":"SO-GE","country":"Soomaaliya الصومال","country_code":"so"},"osm_type":"node","osm_id":1404223185,"type":"town","location":[41.6253752,2.2057903],"bbox":[41.5853752,2.1657903,41.6653752,2.2457903]}
{"name":"Farsooley","other_names":{"alt_name":"Firsole"},"display_name":"Farsooley, Qoryooley قوريولي, Shabeellaha Hoose شبيلي السفلى, Koonfur Galbeed جنوب غرب, Soomaaliya الصومال","address":{"town":"Farsooley","county":"Qoryooley قوريولي","state":"Shabeellaha Hoose شبيلي السفلى","ISO3166-2-lvl5":"SO-SH","country":"Soomaaliya الصومال","country_code":"so"},"osm_type":"node","osm_id":1404224775,"type":"town","location":[44.54515,2.08436],"bbox":[44.50515,2.04436,44.58515,2.12436]}
{"name":"Ferfer","display_name":"Ferfer, Belet Weyne بلد وين, Hiiraan هيران, Hirshabeelle هيرشابيل, Soomaaliya الصومال","address":{"town":"Ferfer","county":"Belet Weyne بلد وين","state":"Hiiraan هيران","ISO3166-2-lvl5":"SO-HI","country":"Soomaaliya الصومال","country_code":"so"},"osm_type":"node","osm_id":1150892162,"type":"town","location":[45.1327015,5.0849524],"bbox":[45.0927015,5.0449524,45.1727015,5.1249524]}
{"name":"Gadobjiran","other_names":{"alt_name":"Godobjiran"},"display_name":"Gadobjiran, Jariiban جاريبان, Mudug مدج, Galmudug غامدوغ, Soomaaliya الصومال","address":{"town":"Gadobjiran","county":"Jariiban جاريبان","state":"Mudug مدج","ISO3166-2-lvl5":"SO-MU","country":"Soomaaliya الصومال","country_code":"so"},"osm_type":"node","osm_id":1404234155,"type":"town","location":[49.4139612,7.5121561],"bbox":[49.3739612,7.4721561,49.4539612,7.5521561]}
{"name":"Gaduud","display_name":"Gaduud, Kismayo, Jubbada Hoose جوبا السفلى, Jubaland جوبالاند, Soomaaliya الصومال","address":{"town":"Gaduud","county":"Kismayo","state":"Jubbada Hoose جوبا السفلى","ISO3166-2-lvl5":"SO-JH","country":"Soomaaliya الصومال","country_code":"so"},"osm_type":"node","osm_id":1404231993,"type":"town","location":[42.5718996,-0.0741164],"bbox":[42.5318996,-0.1141164,42.6118996,-0.0341164]}
{"name":"Galdogob","other_names":{"name:ar":"جلدجب","alt_name":"Diriye"},"display_name":"Galdogob, Galdogob جلدجب, Mudug مدج, Galmudug غامدوغ, Soomaaliya الصومال","address":{"town":"Galdogob","county":"Galdogob جلدجب","state":"Mudug مدج","ISO3166-2-lvl5":"SO-MU","country":"Soomaaliya الصومال","country_code":"so"},"osm_type":"node","osm_id":1404226070,"type":"town","location":[47.0189762,7.0332128],"bbox":[46.9789762,6.9932128,47.0589762,7.0732128]}
{"name":"Gambole","other_names":{"alt_name":"Gamboole"},"display_name":"Gambole, Jowhar جوهر, Shabeellaha Dhexe شبيلي الوسطى, Hirshabeelle هيرشابيل, Soomaaliya الصومال","address":{"town":"Gambole","county":"Jowhar جوهر","state":"Shabeellaha Dhexe شبيلي الوسطى","ISO3166-2-lvl5":"SO-SD","country":"Soomaaliya الصومال","country_code":"so"},"osm_type":"node","osm_id":7722376241,"type":"town","location":[45.1809946,3.0842557],"bbox":[45.1409946,3.0442557,45.2209946,3.1242557]}
{"name":"Gar Adag","other_names":{"alt_name":"Garadag;Gar'adag"},"display_name":"Gar Adag, Ceel Afweyn الأفوين, سناج Sanaag, Soomaaliland أرض الصومال, Soomaaliya الصومال","address":{"town":"Gar Adag","county":"Ceel Afweyn الأفوين","state":"سناج Sanaag","ISO3166-2-lvl5":"SO-SA","country":"Soomaaliland أرض الصومال","country_code":"so"},"osm_type":"node","osm_id":1404221630,"type":"town","location":[46.8660584,9.4870066],"bbox":[46.8260584,9.4470066,46.9060584,9.5270066]}
{"name":"Garas Wiine","other_names":{"alt_name":"Garas Weyne"},"display_name":"Garas Wiine, Xudur حودور, Bakool باكول, Koonfur Galbeed جنوب غرب, Soomaaliya الصومال","address":{"town":"Garas Wiine","county":"Xudur حودور","state":"Bakool باكول","ISO3166-2-lvl5":"SO-BK","country":"Soomaaliya الصومال","country_code":"so"},"osm_type":"node","osm_id":1404223802,"type":"town","location":[43.4825988,4.2624656],"bbox":[43.4425988,4.2224656,43.5225988,4.3024656]}
{"name":"Gebiley غبيلي","other_names":{"name:ar":"غبيلي","name:de":"Gabiley","name:en":"Gabiley","name:fr":"Gebiley","name:hr":"Gabiley","name:it":"Gabiley","name:so":"Gabiley","alt_name":"Gebiley"},"display_name":"Gebiley غبيلي, Gabiley غابيلي, Woqooyi Galbeed, Soomaaliland أرض الصومال, Soomaaliya الصومال","address":{"town":"Gebiley غبيلي","county":"Gabiley غابيلي","state":"Woqooyi Galbeed","ISO3166-2-lvl5":"SO-WO","country":"Soomaaliland أرض الصومال","country_code":"so"},"osm_type":"node","osm_id":1404231873,"type":"town","location":[43.62505,9.7057353],"bbox":[43.58505,9.6657353,43.66505,9.7457353],"border":{"name":"Gabiley غابيلي","other_names":{"name:ar":"غابيلي","name:en":"Gabiley District","name:fr":"Gabiley"},"display_name":"Gabiley غابيلي, Woqooyi Galbeed, Soomaaliland أرض الصومال, Soomaaliya الصومال","address":{"county":"Gabiley غابيلي","state":"Woqooyi Galbeed","ISO3166-2-lvl5":"SO-WO","country":"Soomaaliland أرض الصومال","country_code":"so"},"osm_type":"relation","osm_id":1720105,"type":"administrative","location":[43.67923101982292,9.76197325],"bbox":[43.2862243,9.3705978,44.0999985,10.1716459]}}
{"name":"Geedweyne","other_names":{"alt_name":"Gedweyne"},"display_name":"Geedweyne, Doolow دولو, Gedo جدو, Jubaland جوبالاند, Soomaaliya الصومال","address":{"town":"Geedweyne","county":"Doolow دولو","state":"Gedo جدو","ISO3166-2-lvl5":"SO-GE","country":"Soomaaliya الصومال","country_code":"so"},"osm_type":"node","osm_id":1404230111,"type":"town","location":[42.29415,4.0302],"bbox":[42.25415,3.9902,42.33415,4.0702]}
{"name":"Geriley","other_names":{"alt_name":"Gerileey;Gerile, Gerilay;Gherille;Gerille;Gherile;Gheriley;Garilay;Gariley;Garileey"},"display_name":"Geriley, Baardheere بااردىرآ, Gedo جدو, Jubaland جوبالاند, Soomaaliya الصومال","address":{"town":"Geriley","county":"Baardheere بااردىرآ","state":"Gedo جدو","ISO3166-2-lvl5":"SO-GE","country":"Soomaaliya الصومال","country_code":"so"},"osm_type":"node","osm_id":11044382876,"type":"town","location":[41.0239222,1.7006948],"bbox":[40.9839222,1.6606948,41.0639222,1.7406948]}
{"name":"Gol-Weyn","other_names":{"alt_name":"Golwayn;Golweyn;Golweyne"},"display_name":"Gol-Weyn, Marka, Shabeellaha Hoose شبيلي السفلى, Koonfur Galbeed جنوب غرب, Soomaaliya الصومال","address":{"town":"Gol-Weyn","county":"Marka","state":"Shabeellaha Hoose شبيلي السفلى","ISO3166-2-lvl5":"SO-SH","country":"Soomaaliya الصومال","country_code":"so"},"osm_type":"node","osm_id":1404229229,"type":"town","location":[44.5804022,1.6582658],"bbox":[44.5404022,1.6182658,44.6204022,1.6982658]}
{"name":"Goobato","display_name":"Goobato, Rab Dhuure, Bakool باكول, Koonfur Galbeed جنوب غرب, Soomaaliya الصومال","address":{"town":"Goobato","county":"Rab Dhuure","state":"Bakool باكول","ISO3166-2-lvl5":"SO-BK","country":"Soomaaliya الصومال","country_code":"so"},"osm_type":"node","osm_id":1404223720,"type":"town","location":[43.1632432,4.0252287],"bbox":[43.1232432,3.9852287,43.2032432,4.0652287]}
{"name":"Guri-Ceel جوري عيل","other_names":{"name:ar":"Guri-Ceel جوري عيل","name:en":"Guriel","name:fa":"جوری عیل (سومالی)","name:fr":"Guriceel","name:ja":"グリエル","name:so":"Guriceel","name:zu":"Guriel","alt_name":"Guricel"},"display_name":"Guri-Ceel جوري عيل, Dhuusamarreeb دوسمريب, Galgaduud جلجدود, Galmudug غامدوغ, Soomaaliya الصومال","address":{"town":"Guri-Ceel جوري عيل","county":"Dhuusamarreeb دوسمريب","state":"Galgaduud جلجدود","ISO3166-2-lvl5":"SO-GA","country":"Soomaaliya الصومال","country_code":"so"},"osm_type":"node","osm_id":1404231170,"type":"town","location":[45.8796603,5.3083763],"bbox":[45.8396603,5.2683763,45.9196603,5.3483763]}
{"name":"Hadaaftimo","display_name":"Hadaaftimo, Ceerigaabo عيرجابو, سناج Sanaag, Soomaaliland أرض الصومال, Soomaaliya الصومال","address":{"town":"Hadaaftimo","county":"Ceerigaabo عيرجابو","state":"سناج Sanaag","ISO3166-2-lvl5":"SO-SA","country":"Soomaaliland أرض الصومال","country_code":"so"},"osm_type":"node","osm_id":1404222530,"type":"town","location":[48.1066475,10.7643974],"bbox":[48.0666475,10.7243974,48.1466475,10.8043974]}
{"name":"Halgan","other_names":{"alt_name":"Halgen"},"display_name":"Halgan, Bulo Burti بولو بورتي, Hiiraan هيران, Hirshabeelle هيرشابيل, Soomaaliya الصومال","address":{"town":"Halgan","county":"Bulo Burti بولو بورتي","state":"Hiiraan هيران","ISO3166-2-lvl5":"SO-HI","country":"Soomaaliya الصومال","country_code":"so"},"osm_type":"node","osm_id":1404223028,"type":"town","location":[45.5603686,4.2111121],"bbox":[45.5203686,4.1711121,45.6003686,4.2511121]}
{"name":"Harardhere","other_names":{"alt_name":"Xarardheere;Harardera"},"display_name":"Harardhere, Xarardheere, Mudug مدج, Galmudug غامدوغ, Soomaaliya الصومال","address":{"town":"Harardhere","county":"Xarardheere","state":"Mudug مدج","ISO3166-2-lvl5":"SO-MU","country":"Soomaaliya الصومال","country_code":"so"},"osm_type":"node","osm_id":6528156411,"type":"town","location":[47.8572178,4.6545022],"bbox":[47.8172178,4.6145022,47.8972178,4.6945022],"border":{"name":"Xarardheere","other_names":{"name:en":"Harardhere District","name:fr":"Harardhere"},"display_name":"Xarardheere, Mudug مدج, Galmudug غامدوغ, Soomaaliya الصومال","address":{"county":"Xarardheere","state":"Mudug مدج","ISO3166-2-lvl5":"SO-MU","country":"Soomaaliya الصومال","country_code":"so"},"osm_type":"relation","osm_id":1720139,"type":"administrative","location":[47.935770486614686,4.7168665],"bbox":[47.5,4.2486617,48.4940071,5.1999998]}}
{"name":"Hobyo","other_names":{"name:ar":"هبيو","name:it":"Obbia"},"display_name":"Hobyo, Hobyo هبيا, Mudug مدج, Galmudug غامدوغ, Soomaaliya الصومال","address":{"town":"Hobyo","county":"Hobyo هبيا","state":"Mudug مدج","ISO3166-2-lvl5":"SO-MU","country":"Soomaaliya الصومال","country_code":"so"},"population":11800,"osm_type":"node","osm_id":313943293,"type":"town","location":[48.526366,5.349526],"bbox":[48.486366,5.309526,48.566366,5.389526],"border":{"name":"Hobyo هبيا","other_names":{"name:ar":"هبيا","name:en":"Hobyo District","name:fr":"Hobyo","name:zh":"霍比奥区"},"display_name":"Hobyo هبيا, Mudug مدج, Galmudug غامدوغ, Soomaaliya الصومال","address":{"county":"Hobyo هبيا","state":"Mudug مدج","ISO3166-2-lvl5":"SO-MU","country":"Soomaaliya الصومال","country_code":"so"},"osm_type":"relation","osm_id":1720111,"type":"administrative","location":[48.2540902513346,5.859166],"bbox":[47.3507385,4.9666052,49.3604849,6.77]}}
{"name":"Hoosingo هوسئنجو","other_names":{"name:ar":"هوسئنجو","name:en":"Hoosingo","name:fr":"Hoosingo","name:nl":"Hoosingo","name:so":"Hoosingow"},"display_name":"Hoosingo هوسئنجو, Badhaadhe بدهاذ, Jubbada Hoose جوبا السفلى, Jubaland جوبالاند, Soomaaliya الصومال","address":{"town":"Hoosingo هوسئنجو","county":"Badhaadhe بدهاذ","state":"Jubbada Hoose جوبا السفلى","ISO3166-2-lvl5":"SO-JH","country":"Soomaaliya الصومال","country_code":"so"},"osm_type":"node","osm_id":1404223327,"type":"town","location":[41.270119,-0.17382],"bbox":[41.230119,-0.21382,41.310119,-0.13382]}
{"name":"Hurdiyo هرديو","other_names":{"name:ar":"هرديو","name:en":"Hurdiyo","name:fr":"Hurdiyo","name:it":"Hordio","name:ru":"Хурдийо","name:so":"Hurdiyo"},"display_name":"Hurdiyo هرديو, Iskushuban, Bariباري, Puntland أرض البنط, Soomaaliya الصومال","address":{"town":"Hurdiyo هرديو","county":"Iskushuban","state":"Bariباري","ISO3166-2-lvl5":"SO-BR","country":"Soomaaliya الصومال","country_code":"so"},"osm_type":"node","osm_id":313933231,"type":"town","location":[51.133519,10.5634742],"bbox":[51.093519,10.5234742,51.173519,10.6034742],"border":{"name":"Hurdiyo هرديو","other_names":{"name:ar":"هرديو","name:en":"Hurdiyo","name:fr":"Hurdiyo","name:it":"Hordio","name:ru":"Хурдийо","name:so":"Hurdiyo"},"display_name":"Hurdiyo هرديو, Iskushuban, Bariباري, Puntland أرض البنط, Soomaaliya الصومال","address":{"town":"Hurdiyo هرديو","county":"Iskushuban","state":"Bariباري","ISO3166-2-lvl5":"SO-BR","country":"Soomaaliya الصومال","country_code":"so"},"osm_type":"way","osm_id":373871325,"type":"town","location":[51.133519,10.5634742],"bbox":[51.1309425,10.5615957,51.1375321,10.5651675]}}
{"name":"Iskushuban","other_names":{"name:it":"Scusciuban"},"display_name":"Iskushuban, Bariباري, Puntland أرض البنط, Soomaaliya الصومال","address":{"town":"Iskushuban","county":"Iskushuban","state":"Bariباري","ISO3166-2-lvl5":"SO-BR","country":"Soomaaliya الصومال","country_code":"so"},"osm_type":"node","osm_id":313941777,"type":"town","location":[50.230716,10.282832],"bbox":[50.190716,10.242832,50.270716,10.322832],"border":{"name":"Iskushuban","display_name":"Iskushuban, Bariباري, Puntland أرض البنط, Soomaaliya الصومال","address":{"county":"Iskushuban","state":"Bariباري","ISO3166-2-lvl5":"SO-BR","country":"Soomaaliya الصومال","country_code":"so"},"osm_type":"relation","osm_id":1720112,"type":"administrative","location":[50.96019103055011,10.65544775],"bbox":[49.5600014,9.8100004,51.6177696,11.5011538]}}
{"name":"Jalalaqsi","other_names":{"alt_name":"Jalalaksi"},"display_name":"Jalalaqsi, Hiiraan هيران, Hirshabeelle هيرشابيل, Soomaaliya الصومال","address":{"town":"Jalalaqsi","county":"Jalalaqsi","state":"Hiiraan هيران","ISO3166-2-lvl5":"SO-HI","country":"Soomaaliya الصومال","country_code":"so"},"osm_type":"node","osm_id":36305937,"type":"town","location":[45.593594,3.387172],"bbox":[45.553594,3.347172,45.633594,3.427172],"border":{"name":"Jalalaqsi","other_names":{"name:en":"Jalalaqsi District","name:fr":"Jalalaqsi"},"display_name":"Jalalaqsi, Hiiraan هيران, Hirshabeelle هيرشابيل, Soomaaliya الصومال","address":{"county":"Jalalaqsi","state":"Hiiraan هيران","ISO3166-2-lvl5":"SO-HI","country":"Soomaaliya الصومال","country_code":"so"},"osm_type":"relation","osm_id":1720113,"type":"administrative","location":[45.60999985897151,3.385],"bbox":[45.1800003,3.201942,46.0800018,3.5699999]}}
{"name":"Janaale","other_names":{"alt_name":"Janale"},"display_name":"Janaale, Marka, Shabeellaha Hoose شبيلي السفلى, Koonfur Galbeed جنوب غرب, Soomaaliya الصومال","address":{"town":"Janaale","county":"Marka","state":"Shabeellaha Hoose شبيلي السفلى","ISO3166-2-lvl5":"SO-SH","country":"Soomaaliya الصومال","country_code":"so"},"osm_type":"node","osm_id":1404226014,"type":"town","location":[44.6957368,1.8082015],"bbox":[44.6557368,1.7682015,44.7357368,1.8482015]}
{"name":"Jariiban","other_names":{"alt_name":"Jariiban"},"display_name":"Jariiban, Jariiban جاريبان, Mudug مدج, Galmudug غامدوغ, Soomaaliya الصومال","address":{"town":"Jariiban","county":"Jariiban جاريبان","state":"Mudug مدج","ISO3166-2-lvl5":"SO-MU","country":"Soomaaliya الصومال","country_code":"so"},"osm_type":"node","osm_id":1404222910,"type":"town","location":[48.8498632,7.2128199],"bbox":[48.8098632,7.1728199,48.8898632,7.2528199]}
{"display_name":"Jilib جيليب, Jubbada Dhexe جوبا الوسطى, Jubaland جوبالاند, Soomaaliya الصومال","address":{"county":"Jilib جيليب","state":"Jubbada Dhexe جوبا الوسطى","ISO3166-2-lvl5":"SO-JD","country":"Soomaaliya الصومال","country_code":"so"},"osm_type":"node","osm_id":11142783956,"type":"town","location":[42.7692005,0.5073542],"bbox":[42.7292005,0.4673542,42.8092005,0.5473542]}
{"name":"Kalabeydh كلبيض","other_names":{"name:ar":"كلبيض","name:en":"Kalabeydh","name:fr":"Kalabaydh","name:zu":"Kalabaydh"},"display_name":"Kalabeydh كلبيض, Gabiley غابيلي, Woqooyi Galbeed, Soomaaliland أرض الصومال, Soomaaliya الصومال","address":{"town":"Kalabeydh كلبيض","county":"Gabiley غابيلي","state":"Woqooyi Galbeed","ISO3166-2-lvl5":"SO-WO","country":"Soomaaliland أرض الصومال","country_code":"so"},"osm_type":"node","osm_id":1136512165,"type":"town","location":[43.4782348,9.6797935],"bbox":[43.4382348,9.6397935,43.5182348,9.7197935]}
{"name":"Kurtunwaarey","other_names":{"alt_name":"Horseed"},"display_name":"Kurtunwaarey, Shabeellaha Hoose شبيلي السفلى, Koonfur Galbeed جنوب غرب, Soomaaliya الصومال","address":{"town":"Kurtunwaarey","county":"Kurtunwaarey","state":"Shabeellaha Hoose شبيلي السفلى","ISO3166-2-lvl5":"SO-SH","country":"Soomaaliya الصومال","country_code":"so"},"osm_type":"node","osm_id":1404233651,"type":"town","location":[44.3324438,1.6105099],"bbox":[44.2924438,1.5705099,44.3724438,1.6505099],"border":{"name":"Kurtunwaarey","other_names":{"name:en":"Kurtunwarey District","name:fr":"Kurtunwarey"},"display_name":"Kurtunwaarey, Shabeellaha Hoose شبيلي السفلى, Koonfur Galbeed جنوب غرب, Soomaaliya الصومال","address":{"county":"Kurtunwaarey","state":"Shabeellaha Hoose شبيلي السفلى","ISO3166-2-lvl5":"SO-SH","country":"Soomaaliya الصومال","country_code":"so"},"osm_type":"relation","osm_id":1720119,"type":"administrative","location":[44.135454962675915,1.65],"bbox":[43.5844498,1.4400001,44.5099983,1.889044]}}
{"name":"Laascaanood لاس عانود","other_names":{"name:ar":"لاس عانود","name:de":"Las Anod","name:en":"Las Anod","name:es":"Las Anod","name:fr":"Las Anod","name:it":"Las Anod","name:pt":"Las Anod","name:ru":"Лас-Анод","name:uk":"Лас'анод","alt_name":"Las Anod;Laas Caanood;Laas Anood;Lasanod;Laas Aanood"},"display_name":"Laascaanood لاس عانود, Laas Caanood لاس عانود, Sool سول, Soomaaliland أرض الصومال, Soomaaliya الصومال","address":{"town":"Laascaanood لاس عانود","county":"Laas Caanood لاس عانود","state":"Sool سول","ISO3166-2-lvl5":"SO-SO","country":"Soomaaliland أرض الصومال","country_code":"so"},"osm_type":"node","osm_id":1404224477,"type":"town","location":[47.355194,8.474261],"bbox":[47.315194,8.434261,47.395194,8.514261],"border":{"name":"Laas Caanood لاس عانود","other_names":{"name:ar":"لاس عانود","name:en":"Las Anod District","name:fr":"Las Anod","name:zh":"拉斯阿诺得区"},"display_name":"Laas Caanood لاس عانود, Sool سول, Soomaaliland أرض الصومال, Soomaaliya الصومال","address":{"county":"Laas Caanood لاس عانود","state":"Sool سول","ISO3166-2-lvl5":"SO-SO","country":"Soomaaliland أرض الصومال","country_code":"so"},"osm_type":"relation","osm_id":1720120,"type":"administrative","location":[47.65813522761573,8.326895350000001],"bbox":[46.9196281,8,48.7299995,8.8422422]}}
{"name":"Laasqoray لاسقرى","other_names":{"name:ar":"لاسقرى","name:ca":"Las Khoray","name:de":"Laasqorey","name:en":"Las Khorey","name:fr":"Las Khorey","name:it":"Las Gorei","name:pl":"Laasqoray","name:ur":"لاس قری","name:zu":"Las Khorey","alt_name":"Laasqorey;Lasqoray;Las Qorei;Las Khorey;Las Khoreh;Las Koreh"},"display_name":"Laasqoray لاسقرى, سناج Sanaag, Soomaaliland أرض الصومال, Soomaaliya الصومال","address":{"town":"Laasqoray لاسقرى","county":"Laasqoray لاسقرى","state":"سناج Sanaag","ISO3166-2-lvl5":"SO-SA","country":"Soomaaliland أرض الصومال","country_code":"so"},"osm_type":"node","osm_id":1404227986,"type":"town","location":[48.19487,11.16027],"bbox":[48.15487,11.12027,48.23487,11.20027],"border":{"name":"Laasqoray لاسقرى","other_names":{"name:ar":"لاسقرى","name:en":"Las Khorey District","name:fr":"Las Khorey"},"display_name":"Laasqoray لاسقرى, سناج Sanaag, Soomaaliland أرض الصومال, Soomaaliya الصومال","address":{"county":"Laasqoray لاسقرى","state":"سناج Sanaag","ISO3166-2-lvl5":"SO-SA","country":"Soomaaliland أرض الصومال","country_code":"so"},"osm_type":"relation","osm_id":1720121,"type":"administrative","location":[48.796662066937316,10.549824699999999],"bbox":[47.8881034,9.5411053,49.0600014,11.5261119]}}
{"name":"Labagale","other_names":{"alt_name":"Labagalle;Labogale;Labogalle"},"display_name":"Labagale, Cabudwaaq, Galgaduud جلجدود, Galmudug غامدوغ, Soomaaliya الصومال","address":{"town":"Labagale","county":"Cabudwaaq","state":"Galgaduud جلجدود","ISO3166-2-lvl5":"SO-GA","country":"Soomaaliya الصومال","country_code":"so"},"osm_type":"node","osm_id":10167416717,"type":"town","location":[46.44371,6.2332287],"bbox":[46.40371,6.1932287,46.48371,6.2732287]}
{"name":"Lughaya","other_names":{"name:ar":"لوغايا","name:ca":"Lughaya","name:en":"Lughaya","name:fr":"Lughaya","name:it":"Lughaya","name:nl":"Lughaye","name:pl":"Lughaya","name:pt":"Lughaya","name:uk":"Лугхая","name:ur":"لوغایا","name:zu":"Lughaya","alt_name":"Lughaya"},"display_name":"Lughaya, لوغايا Lughaye, عدل Awdal, Soomaaliland أرض الصومال, Soomaaliya الصومال","address":{"town":"Lughaya","county":"لوغايا Lughaye","state":"عدل Awdal","ISO3166-2-lvl5":"SO-AW","country":"Soomaaliland أرض الصومال","country_code":"so"},"osm_type":"node","osm_id":1404233760,"type":"town","location":[43.9432614,10.6855403],"bbox":[43.9032614,10.6455403,43.9832614,10.7255403],"border":{"name":"لوغايا Lughaye","other_names":{"name:ar":"لوغايا","name:en":"Lughaya District","name:fr":"Lughaya","name:hi":"लुगहा जिला","name:pt":"Lughaya","name:so":"Degmada Lughaya","name:uk":"Лугуа","name:zh":"盧加雅區","name:zu":"Lughaya District"},"display_name":"لوغايا Lughaye, عدل Awdal, Soomaaliland أرض الصومال, Soomaaliya الصومال","address":{"county":"لوغايا Lughaye","state":"عدل Awdal","ISO3166-2-lvl5":"SO-AW","country":"Soomaaliland أرض الصومال","country_code":"so"},"osm_type":"relation","osm_id":1720122,"type":"administrative","location":[43.69168809253104,10.7305731],"bbox":[43.1300011,10.3800001,44.1855481,11.0534589]}}
{"name":"Mahadaay","other_names":{"alt_name":"Mahaday Town"},"display_name":"Mahadaay, Jowhar جوهر, Shabeellaha Dhexe شبيلي الوسطى, Hirshabeelle هيرشابيل, Soomaaliya الصومال","address":{"town":"Mahadaay","county":"Jowhar جوهر","state":"Shabeellaha Dhexe شبيلي الوسطى","ISO3166-2-lvl5":"SO-SD","country":"Soomaaliya الصومال","country_code":"so"},"osm_type":"node","osm_id":1404232855,"type":"town","location":[45.5350147,2.9737488],"bbox":[45.4950147,2.9337488,45.5750147,3.0137488]}
{"name":"Matabaan متبان","other_names":{"name:ar":"متبان","name:en":"Matabaan","name:fr":"Mataban","alt_name":"Mataban"},"display_name":"Matabaan متبان, Belet Weyne بلد وين, Hiiraan هيران, Hirshabeelle هيرشابيل, Soomaaliya الصومال","address":{"town":"Matabaan متبان","county":"Belet Weyne بلد وين","state":"Hiiraan هيران","ISO3166-2-lvl5":"SO-HI","country":"Soomaaliya الصومال","country_code":"so"},"osm_type":"node","osm_id":1404231601,"type":"town","location":[45.5255394,5.2003075],"bbox":[45.4855394,5.1603075,45.5655394,5.2403075]}
{"name":"Maxaas","display_name":"Maxaas, Bulo Burti بولو بورتي, Hiiraan هيران, Hirshabeelle هيرشابيل, Soomaaliya الصومال","address":{"town":"Maxaas","county":"Bulo Burti بولو بورتي","state":"Hiiraan هيران","ISO3166-2-lvl5":"SO-HI","country":"Soomaaliya الصومال","country_code":"so"},"osm_type":"node","osm_id":1404233630,"type":"town","location":[46.0889084,4.391049],"bbox":[46.0489084,4.351049,46.1289084,4.431049]}
{"name":"Maydh ميط","other_names":{"alt_name":"Mait"},"display_name":"Maydh ميط, Ceerigaabo عيرجابو, سناج Sanaag, Soomaaliland أرض الصومال, Soomaaliya الصومال","address":{"town":"Maydh ميط","county":"Ceerigaabo عيرجابو","state":"سناج Sanaag","ISO3166-2-lvl5":"SO-SA","country":"Soomaaliland أرض الصومال","country_code":"so"},"osm_type":"node","osm_id":1404225981,"type":"town","location":[47.1096818,11.0042033],"bbox":[47.0696818,10.9642033,47.1496818,11.0442033]}
{"name":"Mcheruale","display_name":"Mcheruale, Jamaame جمامة, Jubbada Hoose جوبا السفلى, Jubaland جوبالاند, Soomaaliya الصومال","address":{"town":"Mcheruale","county":"Jamaame جمامة","state":"Jubbada Hoose جوبا السفلى","ISO3166-2-lvl5":"SO-JH","country":"Soomaaliya الصومال","country_code":"so"},"osm_type":"node","osm_id":1404233370,"type":"town","location":[42.7797411,0.2496906],"bbox":[42.7397411,0.2096906,42.8197411,0.2896906]}
{"name":"Meykaarebay","other_names":{"alt_name":"Maykorebay;Mekaarebay"},"display_name":"Meykaarebay, Garbahaarey غاربهاارآي, Gedo جدو, Jubaland جوبالاند, Soomaaliya الصومال","address":{"town":"Meykaarebay","county":"Garbahaarey غاربهاارآي","state":"Gedo جدو","ISO3166-2-lvl5":"SO-GE","country":"Soomaaliya الصومال","country_code":"so"},"osm_type":"node","osm_id":1404232783,"type":"town","location":[42.268744,3.4484493],"bbox":[42.228744,3.4084493,42.308744,3.4884493]}
{"name":"Miir-Taqwo","other_names":{"alt_name":"Mirtagwa"},"display_name":"Miir-Taqwo, Jowhar جوهر, Shabeellaha Dhexe شبيلي الوسطى, Hirshabeelle هيرشابيل, Soomaaliya الصومال","address":{"town":"Miir-Taqwo","county":"Jowhar جوهر","state":"Shabeellaha Dhexe شبيلي الوسطى","ISO3166-2-lvl5":"SO-SD","country":"Soomaaliya الصومال","country_code":"so"},"osm_type":"node","osm_id":1404233609,"type":"town","location":[45.8523498,3.1059604],"bbox":[45.8123498,3.0659604,45.8923498,3.1459604]}
{"name":"Moqokori","other_names":{"alt_name":"Muqakoor"},"display_name":"Moqokori, Bulo Burti بولو بورتي, Hiiraan هيران, Hirshabeelle هيرشابيل, Soomaaliya الصومال","address":{"town":"Moqokori","county":"Bulo Burti بولو بورتي","state":"Hiiraan هيران","ISO3166-2-lvl5":"SO-HI","country":"Soomaaliya الصومال","country_code":"so"},"osm_type":"node","osm_id":1404223307,"type":"town","location":[46.1344,4.06172],"bbox":[46.0944,4.02172,46.1744,4.10172]}
{"name":"Mubaarak مبارك","other_names":{"name:ar":"مبارك","name:en":"Mubaarak","name:fr":"Mubaarak","alt_name":"Mubarak"},"display_name":"Mubaarak مبارك, Qoryooley قوريولي, Shabeellaha Hoose شبيلي السفلى, Koonfur Galbeed جنوب غرب, Soomaaliya الصومال","address":{"town":"Mubaarak مبارك","county":"Qoryooley قوريولي","state":"Shabeellaha Hoose شبيلي السفلى","ISO3166-2-lvl5":"SO-SH","country":"Soomaaliya الصومال","country_code":"so"},"osm_type":"node","osm_id":1404223334,"type":"town","location":[44.7731843,1.9172773],"bbox":[44.7331843,1.8772773,44.8131843,1.9572773]}
{"name":"Mudul-Braawe","display_name":"Mudul-Braawe, Baraawe مدينة ﺑَﺮَﺍﻭَة, Shabeellaha Hoose شبيلي السفلى, Koonfur Galbeed جنوب غرب, Soomaaliya الصومال","address":{"town":"Mudul-Braawe","county":"Baraawe مدينة ﺑَﺮَﺍﻭَة","state":"Shabeellaha Hoose شبيلي السفلى","ISO3166-2-lvl5":"SO-SH","country":"Soomaaliya الصومال","country_code":"so"},"osm_type":"node","osm_id":4844617321,"type":"town","location":[44.0037923,1.1472503],"bbox":[43.9637923,1.1072503,44.0437923,1.1872503]}
{"name":"Mukayle","display_name":"Mukayle, Bulo Burti بولو بورتي, Hiiraan هيران, Hirshabeelle هيرشابيل, Soomaaliya الصومال","address":{"town":"Mukayle","county":"Bulo Burti بولو بورتي","state":"Hiiraan هيران","ISO3166-2-lvl5":"SO-HI","country":"Soomaaliya الصومال","country_code":"so"},"osm_type":"node","osm_id":1404224434,"type":"town","location":[45.2222792,3.8190101],"bbox":[45.1822792,3.7790101,45.2622792,3.8590101]}
{"name":"Qandala كاندالة","other_names":{"name:ar":"كاندالة","name:de":"Qandala","name:en":"Qandala","name:es":"Ġandala","name:fa":"گاندالا","name:fr":"Qandala","name:it":"Candala","name:pl":"Qandala","name:ro":"Qandala","name:ru":"Кандала","name:sw":"Qandala","name:ur":"کاندالہ","name:zh":"甘達拉","name:zu":"Qandala"},"display_name":"Qandala كاندالة, Bariباري, Puntland أرض البنط, Soomaaliya الصومال","address":{"town":"Qandala كاندالة","county":"Qandala كاندالة","state":"Bariباري","ISO3166-2-lvl5":"SO-BR","country":"Soomaaliya الصومال","country_code":"so"},"osm_type":"node","osm_id":313929399,"type":"town","location":[49.87341,11.471934],"bbox":[49.83341,11.431934,49.91341,11.511934],"border":{"name":"Qandala كاندالة","other_names":{"name:ar":"كاندالة","name:en":"Qandala District","name:fr":"Qandala"},"display_name":"Qandala كاندالة, Bariباري, Puntland أرض البنط, Soomaaliya الصومال","address":{"county":"Qandala كاندالة","state":"Bariباري","ISO3166-2-lvl5":"SO-BR","country":"Soomaaliya الصومال","country_code":"so"},"osm_type":"relation","osm_id":1720127,"type":"administrative","location":[50.03645882516437,11.170000049999999],"bbox":[49.5126296,10.5100002,50.5499992,11.8224723]}}
{"name":"Qansax Dheere","other_names":{"alt_name":"Gansahdere"},"display_name":"Qansax Dheere, Bay باي, Koonfur Galbeed جنوب غرب, Soomaaliya الصومال","address":{"town":"Qansax Dheere","county":"Qansax Dheere","state":"Bay باي","ISO3166-2-lvl5":"SO-BY","country":"Soomaaliya الصومال","country_code":"so"},"osm_type":"node","osm_id":1404231820,"type":"town","location":[43.004341,2.87123],"bbox":[42.964341,2.83123,43.044341,2.91123],"border":{"name":"Qansax Dheere","other_names":{"name:en":"Qasahdhere District","name:fr":"Qasahdhere"},"display_name":"Qansax Dheere, Bay باي, Koonfur Galbeed جنوب غرب, Soomaaliya الصومال","address":{"county":"Qansax Dheere","state":"Bay باي","ISO3166-2-lvl5":"SO-BY","country":"Soomaaliya الصومال","country_code":"so"},"osm_type":"relation","osm_id":1720128,"type":"administrative","location":[42.84233095,2.87566775],"bbox":[42.5150795,2.5699999,43.1199989,3.0799999]}}
{"name":"Qorilugud","other_names":{"alt_name":"Qoorlugud"},"display_name":"Qorilugud, Buuhoodle, توجدير Togdheer, Soomaaliland أرض الصومال, Soomaaliya الصومال","address":{"town":"Qorilugud","county":"Buuhoodle","state":"توجدير Togdheer","ISO3166-2-lvl5":"SO-TO","country":"Soomaaliland أرض الصومال","country_code":"so"},"osm_type":"node","osm_id":1404221400,"type":"town","location":[46.2273568,8.5538363],"bbox":[46.1873568,8.5138363,46.2673568,8.5938363]}
{"name":"Qoryale قرياله","other_names":{"alt_name":"Qoryaale"},"display_name":"Qoryale قرياله, Burco برعو, توجدير Togdheer, Soomaaliland أرض الصومال, Soomaaliya الصومال","address":{"town":"Qoryale قرياله","county":"Burco برعو","state":"توجدير Togdheer","ISO3166-2-lvl5":"SO-TO","country":"Soomaaliland أرض الصومال","country_code":"so"},"osm_type":"node","osm_id":8983416979,"type":"town","location":[45.9692912,9.0706283],"bbox":[45.9292912,9.0306283,46.0092912,9.1106283],"border":{"name":"Qoryale","other_names":{"alt_name":"Qoryaale"},"display_name":"Qoryale, Burco برعو, توجدير Togdheer, Soomaaliland أرض الصومال, Soomaaliya الصومال","address":{"town":"Qoryale","county":"Burco برعو","state":"توجدير Togdheer","ISO3166-2-lvl5":"SO-TO","country":"Soomaaliland أرض الصومال","country_code":"so"},"osm_type":"way","osm_id":476953559,"type":"town","location":[45.96864160369877,9.071695349999999],"bbox":[45.9588789,9.0655962,45.9765802,9.0784654]}}
{"name":"Qudbiga","display_name":"Qudbiga, Burco برعو, توجدير Togdheer, Soomaaliland أرض الصومال, Soomaaliya الصومال","address":{"town":"Qudbiga","county":"Burco برعو","state":"توجدير Togdheer","ISO3166-2-lvl5":"SO-TO","country":"Soomaaliland أرض الصومال","country_code":"so"},"osm_type":"node","osm_id":1404231301,"type":"town","location":[46.163456,8.930047],"bbox":[46.123456,8.890047,46.203456,8.970047],"border":{"name":"Qudbiga","display_name":"Qudbiga, Burco برعو, توجدير Togdheer, Soomaaliland أرض الصومال, Soomaaliya الصومال","address":{"town":"Qudbiga","county":"Burco برعو","state":"توجدير Togdheer","ISO3166-2-lvl5":"SO-TO","country":"Soomaaliland أرض الصومال","country_code":"so"},"osm_type":"way","osm_id":401676703,"type":"town","location":[46.163456,8.930047],"bbox":[46.1612086,8.927173,46.1662195,8.9328232]}}
{"name":"Rab Dhuure","other_names":{"alt_name":"Rabdhure"},"display_name":"Rab Dhuure, Bakool باكول, Koonfur Galbeed جنوب غرب, Soomaaliya الصومال","address":{"town":"Rab Dhuure","county":"Rab Dhuure","state":"Bakool باكول","ISO3166-2-lvl5":"SO-BK","country":"Soomaaliya الصومال","country_code":"so"},"osm_type":"node","osm_id":1404224830,"type":"town","location":[43.163501,4.3453147],"bbox":[43.123501,4.3053147,43.203501,4.3853147],"border":{"name":"Rab Dhuure","other_names":{"name:en":"Rabdhure District","name:fr":"Rabdhure"},"display_name":"Rab Dhuure, Bakool باكول, Koonfur Galbeed جنوب غرب, Soomaaliya الصومال","address":{"county":"Rab Dhuure","state":"Bakool باكول","ISO3166-2-lvl5":"SO-BK","country":"Soomaaliya الصومال","country_code":"so"},"osm_type":"relation","osm_id":1720131,"type":"administrative","location":[43.24616280894806,4.1700001],"bbox":[42.8841549,3.9462531,43.6300011,4.633388]}}
{"name":"Reys Qode","other_names":{"alt_name":"Raysqode"},"display_name":"Reys Qode, Garbahaarey غاربهاارآي, Gedo جدو, Jubaland جوبالاند, Soomaaliya الصومال","address":{"town":"Reys Qode","county":"Garbahaarey غاربهاارآي","state":"Gedo جدو","ISO3166-2-lvl5":"SO-GE","country":"Soomaaliya الصومال","country_code":"so"},"osm_type":"node","osm_id":1404221611,"type":"town","location":[42.3513117,3.3637587],"bbox":[42.3113117,3.3237587,42.3913117,3.4037587]}
{"name":"Saakow سااكوو","other_names":{"name:ar":"سااكوو","name:en":"Saakow","name:fr":"Saakow","name:ur":"ساکوو","alt_name":"Sako"},"display_name":"Saakow سااكوو, Jubbada Dhexe جوبا الوسطى, Jubaland جوبالاند, Soomaaliya الصومال","address":{"town":"Saakow سااكوو","county":"Saakow سااكوو","state":"Jubbada Dhexe جوبا الوسطى","ISO3166-2-lvl5":"SO-JD","country":"Soomaaliya الصومال","country_code":"so"},"osm_type":"node","osm_id":1404230241,"type":"town","location":[42.4530204,1.6404392],"bbox":[42.4130204,1.6004392,42.4930204,1.6804392],"border":{"name":"Saakow سااكوو","other_names":{"name:ar":"سااكوو","name:en":"Sakow District","name:fr":"Sakow","name:zh":"萨高区"},"display_name":"Saakow سااكوو, Jubbada Dhexe جوبا الوسطى, Jubaland جوبالاند, Soomaaliya الصومال","address":{"county":"Saakow سااكوو","state":"Jubbada Dhexe جوبا الوسطى","ISO3166-2-lvl5":"SO-JD","country":"Soomaaliya الصومال","country_code":"so"},"osm_type":"relation","osm_id":1720132,"type":"administrative","location":[42.13617644835635,1.7],"bbox":[41.4199982,1.26,42.9523811,1.95]}}
{"name":"Saaxo","other_names":{"alt_name":"Saaho"},"display_name":"Saaxo, Galkaacyo جالكعيو, Mudug مدج, Galmudug غامدوغ, Soomaaliya الصومال","address":{"town":"Saaxo","county":"Galkaacyo جالكعيو","state":"Mudug مدج","ISO3166-2-lvl5":"SO-MU","country":"Soomaaliya الصومال","country_code":"so"},"osm_type":"node","osm_id":10167430608,"type":"town","location":[46.79689,6.772866],"bbox":[46.75689,6.732866,46.83689,6.812866]}
{"name":"Sablaale","display_name":"Sablaale, Shabeellaha Hoose شبيلي السفلى, Koonfur Galbeed جنوب غرب, Soomaaliya الصومال","address":{"town":"Sablaale","county":"Sablaale","state":"Shabeellaha Hoose شبيلي السفلى","ISO3166-2-lvl5":"SO-SH","country":"Soomaaliya الصومال","country_code":"so"},"osm_type":"node","osm_id":1404229812,"type":"town","location":[43.804483,1.249451],"bbox":[43.764483,1.209451,43.844483,1.289451],"border":{"name":"Sablaale","other_names":{"name:en":"Sablale District","name:fr":"Sablale"},"display_name":"Sablaale, Shabeellaha Hoose شبيلي السفلى, Koonfur Galbeed جنوب غرب, Soomaaliya الصومال","address":{"county":"Sablaale","state":"Shabeellaha Hoose شبيلي السفلى","ISO3166-2-lvl5":"SO-SH","country":"Soomaaliya الصومال","country_code":"so"},"osm_type":"relation","osm_id":1720133,"type":"administrative","location":[43.479489789721285,1.24232805],"bbox":[42.9799995,0.9354485,44.1500015,1.761779]}}
{"name":"Samaysa Dheer","display_name":"Samaysa Dheer, Qardho قرضو, Bariباري, Puntland أرض البنط, Soomaaliya الصومال","address":{"town":"Samaysa Dheer","county":"Qardho قرضو","state":"Bariباري","ISO3166-2-lvl5":"SO-BR","country":"Soomaaliya الصومال","country_code":"so"},"osm_type":"node","osm_id":313941521,"type":"town","location":[49.0903151,9.8625969],"bbox":[49.0503151,9.8225969,49.1303151,9.9025969]}
{"name":"Sarmaan-Dheer","display_name":"Sarmaan-Dheer, Baidoa بيدوا, Bay باي, Koonfur Galbeed جنوب غرب, Soomaaliya الصومال","address":{"town":"Sarmaan-Dheer","county":"Baidoa بيدوا","state":"Bay باي","ISO3166-2-lvl5":"SO-BY","country":"Soomaaliya الصومال","country_code":"so"},"osm_type":"node","osm_id":1404223300,"type":"town","location":[43.3534795,3.2824151],"bbox":[43.3134795,3.2424151,43.3934795,3.3224151]}
{"name":"Saylac","other_names":{"name:am":"ዘይላ","name:ar":"زيلع","name:ca":"Zeila","name:de":"Zeila","name:en":"Zeila","name:eo":"Zeila","name:es":"Zeila","name:eu":"Zeila","name:fi":"Zeila","name:fr":"Zeilah","name:hr":"Zeila","name:id":"Zeila","name:it":"Zeila","name:ja":"ゼイラ","name:ko":"제일라","name:lt":"Saila","name:nl":"Zeila","name:pl":"Saylac","name:pt":"Zeilá","name:ro":"Zeila","name:ru":"Сайла","name:sl":"Zeila","name:so":"Saylac","name:sv":"Zeila","name:tr":"Zeyla","name:uk":"Сайла","name:ur":"زیلع","name:zh":"塞拉","name:zu":"Zeila","alt_name":"Zeylac","old_name":"Avalitae"},"display_name":"Saylac, Zeylac زيلع, عدل Awdal, Soomaaliland أرض الصومال, Soomaaliya الصومال","address":{"town":"Saylac","county":"Zeylac زيلع","state":"عدل Awdal","ISO3166-2-lvl5":"SO-AW","country":"Soomaaliland أرض الصومال","country_code":"so"},"population":25000,"osm_type":"node","osm_id":316518322,"type":"town","location":[43.4747227,11.3534851],"bbox":[43.4347227,11.3134851,43.5147227,11.3934851],"border":{"name":"Zeylac زيلع","other_names":{"name:ar":"زيلع","name:en":"Zeila District","name:fr":"Zeila","name:nl":"Zeila","name:so":"Degmada Saylac","name:uk":"Сайле","name:zh":"塞拉區","name:zu":"Zeila District"},"display_name":"Zeylac زيلع, عدل Awdal, Soomaaliland أرض الصومال, Soomaaliya الصومال","address":{"county":"Zeylac زيلع","state":"عدل Awdal","ISO3166-2-lvl5":"SO-AW","country":"Soomaaliland أرض الصومال","country_code":"so"},"osm_type":"relation","osm_id":1720142,"type":"administrative","location":[43.40489922639748,11.025340450000002],"bbox":[42.708703,10.318312,43.8641404,11.7160828]}}
{"name":"Shalaambood","other_names":{"alt_name":"Shalaamboot;Shalanbod"},"display_name":"Shalaambood, Marka, Shabeellaha Hoose شبيلي السفلى, Koonfur Galbeed جنوب غرب, Soomaaliya الصومال","address":{"town":"Shalaambood","county":"Marka","state":"Shabeellaha Hoose شبيلي السفلى","ISO3166-2-lvl5":"SO-SH","country":"Soomaaliya الصومال","country_code":"so"},"osm_type":"node","osm_id":1404225710,"type":"town","location":[44.6945629,1.7064566],"bbox":[44.6545629,1.6664566,44.7345629,1.7464566]}
{"name":"Sheikh شيخ","other_names":{"name:ar":"شيخ","name:en":"Sheikh","name:fr":"Sheikh","name:it":"Sheikh","name:pl":"Shiikh","name:ro":"Shiikh","name:sv":"Shiikh","name:ur":"شیخ","name:zu":"Sheikh"},"display_name":"Sheikh شيخ, Saaxil ساحل, Soomaaliland أرض الصومال, Soomaaliya الصومال","address":{"town":"Sheikh شيخ","county":"Sheikh شيخ","state":"Saaxil ساحل","country":"Soomaaliland أرض الصومال","country_code":"so"},"osm_type":"node","osm_id":1404230031,"type":"town","location":[45.1923709,9.9319006],"bbox":[45.1523709,9.8919006,45.2323709,9.9719006],"border":{"name":"Sheikh شيخ","other_names":{"name:ar":"شيخ","name:en":"Sheikh District","name:fr":"Sheikh","name:ur":"شیخ","name:zh":"谢赫区"},"display_name":"Sheikh شيخ, Saaxil ساحل, Soomaaliland أرض الصومال, Soomaaliya الصومال","address":{"county":"Sheikh شيخ","state":"Saaxil ساحل","country":"Soomaaliland أرض الصومال","country_code":"so"},"osm_type":"relation","osm_id":1720134,"type":"administrative","location":[45.37710997019626,9.985096899999998],"bbox":[44.8967523,9.7799997,45.9064713,10.1700001]}}
{"name":"Taleex تلأ ح","other_names":{"name:ar":"تلأ ح","name:ca":"Taleex","name:en":"Taleh","name:fr":"Taleh","name:it":"Taleh","name:nl":"Taleh","name:pl":"Taleex","name:ro":"Taleex","name:ru":"Талех","name:so":"Taleex","name:sv":"Taleh","name:ur":"تلاح","name:zu":"Taleh"},"display_name":"Taleex تلأ ح, Sool سول, Soomaaliland أرض الصومال, Soomaaliya الصومال","address":{"town":"Taleex تلأ ح","county":"Taleex تلأ ح","state":"Sool سول","ISO3166-2-lvl5":"SO-SO","country":"Soomaaliland أرض الصومال","country_code":"so"},"osm_type":"node","osm_id":1404233128,"type":"town","location":[48.4219373,9.1460978],"bbox":[48.3819373,9.1060978,48.4619373,9.1860978],"border":{"name":"Taleex تلأ ح","other_names":{"name:ar":"تلأ ح","name:en":"Taleh District","name:fr":"Taleh","name:zh":"塔雷赫区"},"display_name":"Taleex تلأ ح, Sool سول, Soomaaliland أرض الصومال, Soomaaliya الصومال","address":{"county":"Taleex تلأ ح","state":"Sool سول","ISO3166-2-lvl5":"SO-SO","country":"Soomaaliland أرض الصومال","country_code":"so"},"osm_type":"relation","osm_id":1720135,"type":"administrative","location":[48.57022714801917,9.32050135],"bbox":[48.0400009,8.7799997,49.0800591,9.5699997]}}
{"name":"Tayeeglow","other_names":{"alt_name":"Tieglow"},"display_name":"Tayeeglow, Bakool باكول, Koonfur Galbeed جنوب غرب, Soomaaliya الصومال","address":{"town":"Tayeeglow","county":"Tayeeglow","state":"Bakool باكول","ISO3166-2-lvl5":"SO-BK","country":"Soomaaliya الصومال","country_code":"so"},"osm_type":"node","osm_id":1404233693,"type":"town","location":[44.5121305,4.0137569],"bbox":[44.4721305,3.9737569,44.5521305,4.0537569],"border":{"name":"Tayeeglow","other_names":{"name:en":"Tiyeglow District","name:fr":"Tiyeglow","name:zh":"提耶格洛区"},"display_name":"Tayeeglow, Bakool باكول, Koonfur Galbeed جنوب غرب, Soomaaliya الصومال","address":{"county":"Tayeeglow","state":"Bakool باكول","ISO3166-2-lvl5":"SO-BK","country":"Soomaaliya الصومال","country_code":"so"},"osm_type":"relation","osm_id":1720136,"type":"administrative","location":[44.53750037500001,3.77999995],"bbox":[44.2799988,3.25,44.7999992,4.4299998]}}
{"name":"Tulo Barwaqo","other_names":{"alt_name":"Tuulobarwaqo;Tubaalo Badan;Tuulo Barwaaqo"},"display_name":"Tulo Barwaqo, Garbahaarey غاربهاارآي, Gedo جدو, Jubaland جوبالاند, Soomaaliya الصومال","address":{"town":"Tulo Barwaqo","county":"Garbahaarey غاربهاارآي","state":"Gedo جدو","ISO3166-2-lvl5":"SO-GE","country":"Soomaaliya الصومال","country_code":"so"},"osm_type":"node","osm_id":1404224167,"type":"town","location":[42.15471,3.50187],"bbox":[42.11471,3.46187,42.19471,3.54187]}
{"name":"Uffurow","other_names":{"alt_name":"Ufurow"},"display_name":"Uffurow, Qansax Dheere, Bay باي, Koonfur Galbeed جنوب غرب, Soomaaliya الصومال","address":{"town":"Uffurow","county":"Qansax Dheere","state":"Bay باي","ISO3166-2-lvl5":"SO-BY","country":"Soomaaliya الصومال","country_code":"so"},"osm_type":"node","osm_id":1404223252,"type":"town","location":[42.88683,2.76215],"bbox":[42.84683,2.72215,42.92683,2.80215]}
{"name":"Waaciye","other_names":{"name:ar":"واعي"},"display_name":"Waaciye, Laasqoray لاسقرى, سناج Sanaag, Soomaaliland أرض الصومال, Soomaaliya الصومال","address":{"town":"Waaciye","county":"Laasqoray لاسقرى","state":"سناج Sanaag","ISO3166-2-lvl5":"SO-SA","country":"Soomaaliland أرض الصومال","country_code":"so"},"osm_type":"node","osm_id":1404233451,"type":"town","location":[49.0431561,10.0119611],"bbox":[49.0031561,9.9719611,49.0831561,10.0519611]}
{"name":"Waajid وااجيد","other_names":{"name:ar":"وااجيد","name:ca":"Wajid","name:de":"Wajid","name:en":"Wajid","name:fr":"Wajid","name:it":"Uegit","name:ja":"ワジド","name:pl":"Waajid","name:ro":"Wajid","name:ur":"واجد","name:zu":"Wajid","alt_name":"Wajid"},"display_name":"Waajid وااجيد, Bakool باكول, Koonfur Galbeed جنوب غرب, Soomaaliya الصومال","address":{"town":"Waajid وااجيد","county":"Waajid وااجيد","state":"Bakool باكول","ISO3166-2-lvl5":"SO-BK","country":"Soomaaliya الصومال","country_code":"so"},"osm_type":"node","osm_id":1404227318,"type":"town","location":[43.247089,3.80925],"bbox":[43.207089,3.76925,43.287089,3.84925],"border":{"name":"Waajid وااجيد","other_names":{"name:ar":"وااجيد","name:en":"Wajid District","name:fr":"Wajid"},"display_name":"Waajid وااجيد, Bakool باكول, Koonfur Galbeed جنوب غرب, Soomaaliya الصومال","address":{"county":"Waajid وااجيد","state":"Bakool باكول","ISO3166-2-lvl5":"SO-BK","country":"Soomaaliya الصومال","country_code":"so"},"osm_type":"relation","osm_id":1720137,"type":"administrative","location":[43.425928202971896,3.7912805499999997],"bbox":[43.090519,3.5699999,43.7969208,4.0500002]}}
{"name":"Waberi","display_name":"Waberi, Rab Dhuure, Bakool باكول, Koonfur Galbeed جنوب غرب, Soomaaliya الصومال","address":{"town":"Waberi","county":"Rab Dhuure","state":"Bakool باكول","ISO3166-2-lvl5":"SO-BK","country":"Soomaaliya الصومال","country_code":"so"},"osm_type":"node","osm_id":1404232964,"type":"town","location":[43.04538,4.55303],"bbox":[43.00538,4.51303,43.08538,4.59303]}
{"name":"Wabxo","display_name":"Wabxo, Ceel Buur, Galgaduud جلجدود, Galmudug غامدوغ, Soomaaliya الصومال","address":{"town":"Wabxo","county":"Ceel Buur","state":"Galgaduud جلجدود","ISO3166-2-lvl5":"SO-GA","country":"Soomaaliya الصومال","country_code":"so"},"osm_type":"node","osm_id":1404230603,"type":"town","location":[46.28407,4.5135],"bbox":[46.24407,4.4735,46.32407,4.5535]}
{"name":"Wadaamagoo","other_names":{"alt_name":"Wadamagoo;Waadaamago"},"display_name":"Wadaamagoo, Caynabo, Sool سول, Soomaaliland أرض الصومال, Soomaaliya الصومال","address":{"town":"Wadaamagoo","county":"Caynabo","state":"Sool سول","ISO3166-2-lvl5":"SO-SO","country":"Soomaaliland أرض الصومال","country_code":"so"},"osm_type":"node","osm_id":1404221333,"type":"town","location":[46.2675341,8.9244842],"bbox":[46.2275341,8.8844842,46.3075341,8.9644842]}
{"name":"Wajaale وجاله","other_names":{"name:ar":"وجاله","name:en":"Tog Wajaale","name:fr":"Tog Wajaale","name:it":"Tog Wajaale","name:sv":"Wajaale","name:zu":"Tog Wajaale","alt_name":"Togwajaale;Tog Wajaale"},"display_name":"Wajaale وجاله, Gabiley غابيلي, Woqooyi Galbeed, Soomaaliland أرض الصومال, Soomaaliya الصومال","address":{"town":"Wajaale وجاله","county":"Gabiley غابيلي","state":"Woqooyi Galbeed","ISO3166-2-lvl5":"SO-WO","country":"Soomaaliland أرض الصومال","country_code":"so"},"osm_type":"node","osm_id":1404223833,"type":"town","location":[43.3362967,9.6007955],"bbox":[43.2962967,9.5607955,43.3762967,9.6407955]}
{"name":"Wanlaweyn ونلوين","other_names":{"name:ar":"ونلوين","name:de":"Wanlaweyne","name:en":"Wanlaweyn","name:fr":"Wanlaweyn","name:it":"Uanle Uen","name:pl":"Wanlaweyn","name:sv":"Wanla Weyn","name:sw":"Wanlaweyne","name:ur":"وانلاوین","alt_name":"Wanlaweyne;Wanla Weyne;Wanla Weyn"},"display_name":"Wanlaweyn ونلوين, Wanle Weyne ونلوين, Shabeellaha Hoose شبيلي السفلى, Koonfur Galbeed جنوب غرب, Soomaaliya الصومال","address":{"town":"Wanlaweyn ونلوين","county":"Wanle Weyne ونلوين","state":"Shabeellaha Hoose شبيلي السفلى","ISO3166-2-lvl5":"SO-SH","country":"Soomaaliya الصومال","country_code":"so"},"osm_type":"node","osm_id":36305953,"type":"town","location":[44.8936393,2.6192699],"bbox":[44.8536393,2.5792699,44.9336393,2.6592699],"border":{"name":"Wanle Weyne ونلوين","other_names":{"name:ar":"ونلوين","name:en":"Wanlaweyn District","name:fr":"Wanlaweyn","name:zh":"旺拉韦恩区"},"display_name":"Wanle Weyne ونلوين, Shabeellaha Hoose شبيلي السفلى, Koonfur Galbeed جنوب غرب, Soomaaliya الصومال","address":{"county":"Wanle Weyne ونلوين","state":"Shabeellaha Hoose شبيلي السفلى","ISO3166-2-lvl5":"SO-SH","country":"Soomaaliya الصومال","country_code":"so"},"osm_type":"relation","osm_id":1720138,"type":"administrative","location":[44.984763345645945,2.75964045],"bbox":[44.6199989,2.233403,45.3326988,3.27]}}
{"name":"Warshiikh وأرشيخ","other_names":{"name:ar":"وأرشيخ","name:de":"Warsheikh","name:en":"Warsheikh","name:fr":"Warsheikh","name:it":"Uarsceik","name:pt":"Warsheekh","name:ro":"Warsheikh","name:zu":"Warsheikh","alt_name":"Warsheik"},"display_name":"Warshiikh وأرشيخ, Balcad بلعد, Shabeellaha Dhexe شبيلي الوسطى, Hirshabeelle هيرشابيل, Soomaaliya الصومال","address":{"town":"Warshiikh وأرشيخ","county":"Balcad بلعد","state":"Shabeellaha Dhexe شبيلي الوسطى","ISO3166-2-lvl5":"SO-SD","country":"Soomaaliya الصومال","country_code":"so"},"osm_type":"node","osm_id":1404226588,"type":"town","location":[45.7985334,2.2982667],"bbox":[45.7585334,2.2582667,45.8385334,2.3382667]}
{"name":"Xaafuun حافون‎","other_names":{"name:ar":"حافون‎","name:en":"Hafun","name:fr":"Hafun","name:so":"Xaafuun"},"display_name":"Xaafuun حافون‎, Iskushuban, Bariباري, Puntland أرض البنط, Soomaaliya الصومال","address":{"town":"Xaafuun حافون‎","county":"Iskushuban","state":"Bariباري","ISO3166-2-lvl5":"SO-BR","country":"Soomaaliya الصومال","country_code":"so"},"population":13200,"osm_type":"node","osm_id":313778594,"type":"town","location":[51.2755846,10.4167342],"bbox":[51.2355846,10.3767342,51.3155846,10.4567342]}
{"name":"Xeraale","other_names":{"name:en":"Herale","alt_name":"Xerale"},"display_name":"Xeraale, Cabudwaaq, Galgaduud جلجدود, Galmudug غامدوغ, Soomaaliya الصومال","address":{"town":"Xeraale","county":"Cabudwaaq","state":"Galgaduud جلجدود","ISO3166-2-lvl5":"SO-GA","country":"Soomaaliya الصومال","country_code":"so"},"osm_type":"node","osm_id":10660421966,"type":"town","location":[45.96196,6.02208],"bbox":[45.92196,5.98208,46.00196,6.06208]}
{"name":"Xidda","display_name":"Xidda, Qardho قرضو, Bariباري, Puntland أرض البنط, Soomaaliya الصومال","address":{"town":"Xidda","county":"Qardho قرضو","state":"Bariباري","ISO3166-2-lvl5":"SO-BR","country":"Soomaaliya الصومال","country_code":"so"},"osm_type":"node","osm_id":313941532,"type":"town","location":[49.0537801,9.9561523],"bbox":[49.0137801,9.9161523,49.0937801,9.9961523]}
{"name":"Xiis حيس","display_name":"Xiis حيس, Ceerigaabo عيرجابو, سناج Sanaag, Soomaaliland أرض الصومال, Soomaaliya الصومال","address":{"town":"Xiis حيس","county":"Ceerigaabo عيرجابو","state":"سناج Sanaag","ISO3166-2-lvl5":"SO-SA","country":"Soomaaliland أرض الصومال","country_code":"so"},"osm_type":"node","osm_id":1404223640,"type":"town","location":[46.9193318,10.8963175],"bbox":[46.8793318,10.8563175,46.9593318,10.9363175]}
{"name":"Xin galool","display_name":"Xin galool, Ceerigaabo عيرجابو, سناج Sanaag, Soomaaliland أرض الصومال, Soomaaliya الصومال","address":{"town":"Xin galool","county":"Ceerigaabo عيرجابو","state":"سناج Sanaag","ISO3166-2-lvl5":"SO-SA","country":"Soomaaliland أرض الصومال","country_code":"so"},"osm_type":"way","osm_id":256869522,"type":"town","location":[48.30825473498268,9.75254515],"bbox":[48.3011285,9.7468188,48.3169214,9.7580823]}
{"name":"Xudun","other_names":{"alt_name":"Hudun"},"display_name":"Xudun, Sool سول, Soomaaliland أرض الصومال, Soomaaliya الصومال","address":{"town":"Xudun","county":"Xudun","state":"Sool سول","ISO3166-2-lvl5":"SO-SO","country":"Soomaaliland أرض الصومال","country_code":"so"},"osm_type":"node","osm_id":1404233332,"type":"town","location":[47.478248,9.15477],"bbox":[47.438248,9.11477,47.518248,9.19477],"border":{"name":"Xudun","other_names":{"name:en":"Xudun District","name:fr":"Xudun"},"display_name":"Xudun, Sool سول, Soomaaliland أرض الصومال, Soomaaliya الصومال","address":{"county":"Xudun","state":"Sool سول","ISO3166-2-lvl5":"SO-SO","country":"Soomaaliland أرض الصومال","country_code":"so"},"osm_type":"relation","osm_id":1720140,"type":"administrative","location":[47.48690572051734,9.1361216],"bbox":[46.9100066,8.7799997,48.0784798,9.5014782]}}
{"name":"Yeed","other_names":{"alt_name":"Yeet"},"display_name":"Yeed, Rab Dhuure, Bakool باكول, Koonfur Galbeed جنوب غرب, Soomaaliya الصومال","address":{"town":"Yeed","county":"Rab Dhuure","state":"Bakool باكول","ISO3166-2-lvl5":"SO-BK","country":"Soomaaliya الصومال","country_code":"so"},"osm_type":"node","osm_id":1404223298,"type":"town","location":[43.0250009,4.5384212],"bbox":[42.9850009,4.4984212,43.0650009,4.5784212]}
{"name":"Yiroowe","display_name":"Yiroowe, Burco برعو, توجدير Togdheer, Soomaaliland أرض الصومال, Soomaaliya الصومال","address":{"town":"Yiroowe","county":"Burco برعو","state":"توجدير Togdheer","ISO3166-2-lvl5":"SO-TO","country":"Soomaaliland أرض الصومال","country_code":"so"},"osm_type":"node","osm_id":9261868139,"type":"town","location":[45.6747924,9.4337951],"bbox":[45.6347924,9.3937951,45.7147924,9.4737951]}
{"name":"باكي Baki","other_names":{"name:ar":"باكي","name:en":"Baki","name:fr":"Baki"},"display_name":"باكي Baki, عدل Awdal, Soomaaliland أرض الصومال, Soomaaliya الصومال","address":{"town":"باكي Baki","county":"باكي Baki","state":"عدل Awdal","ISO3166-2-lvl5":"SO-AW","country":"Soomaaliland أرض الصومال","country_code":"so"},"osm_type":"node","osm_id":1404225609,"type":"town","location":[43.3632513,10.0073345],"bbox":[43.3232513,9.9673345,43.4032513,10.0473345],"border":{"name":"باكي Baki","other_names":{"name:ar":"باكي","name:en":"Baki District","name:fr":"Baki"},"display_name":"باكي Baki, عدل Awdal, Soomaaliland أرض الصومال, Soomaaliya الصومال","address":{"county":"باكي Baki","state":"عدل Awdal","ISO3166-2-lvl5":"SO-AW","country":"Soomaaliland أرض الصومال","country_code":"so"},"osm_type":"relation","osm_id":1720075,"type":"administrative","location":[43.73391087401901,10.2461933],"bbox":[43.330108,9.709823,44.3890544,10.7711466]}}
{"name":"عودوين Oodweyne","other_names":{"name:ar":"عودوين","name:en":"Odweine","name:fr":"Oodweyne","name:so":"Odweyne","alt_name":"Odweine;Oodweyne;Odweina;Odweine;Odweyne;Oodweeyne;Oodweyne"},"display_name":"عودوين Oodweyne, Owdweyne عودوين, توجدير Togdheer, Soomaaliland أرض الصومال, NC-3811-Q02-004, Soomaaliya الصومال","address":{"town":"عودوين Oodweyne","county":"Owdweyne عودوين","state":"توجدير Togdheer","ISO3166-2-lvl5":"SO-TO","country":"Soomaaliland أرض الصومال","postcode":"NC-3811-Q02-004","country_code":"so"},"osm_type":"node","osm_id":6494980933,"type":"town","location":[45.06358,9.40701],"bbox":[45.02358,9.36701,45.10358,9.44701],"border":{"name":"Owdweyne عودوين","other_names":{"name:ar":"عودوين","name:en":"Oodweyne District","name:fr":"Oodweyne","name:so":"Owdweyne","name:zh":"欧德韦内区"},"display_name":"Owdweyne عودوين, توجدير Togdheer, Soomaaliland أرض الصومال, Soomaaliya الصومال","address":{"county":"Owdweyne عودوين","state":"توجدير Togdheer","ISO3166-2-lvl5":"SO-TO","country":"Soomaaliland أرض الصومال","country_code":"so"},"osm_type":"relation","osm_id":1720126,"type":"administrative","location":[44.98592272114814,9.260468750000001],"bbox":[44.6899986,8.57202,45.2900009,9.9401941]}}
