{"name":"Afgooye أفجوي","other_names":{"name:ar":"أفجوي","name:de":"Afgooye","name:en":"Afgooye","name:es":"Afgooye","name:fr":"Afgooye","name:ml":"അഫ്ഗൂയെ"},"display_name":"Afgooye أفجوي, Shabeellaha Hoose شبيلي السفلى, Koonfur Galbeed جنوب غرب, Soomaaliya الصومال","address":{"city":"Afgooye أفجوي","county":"Afgooye أفجوي","state":"Shabeellaha Hoose شبيلي السفلى","ISO3166-2-lvl5":"SO-SH","country":"Soomaaliya الصومال","country_code":"so"},"osm_type":"node","osm_id":36161072,"type":"city","location":[45.1190379,2.1460287],"bbox":[44.9590379,1.9860287,45.2790379,2.3060287],"border":{"name":"Afgooye أفجوي","other_names":{"name:ar":"أفجوي","name:en":"Afgooye District","name:fr":"Afgooye","name:ur":"افجویی ضلع","name:zh":"阿弗戈耶區","name:zu":"Afgooye District"},"display_name":"Afgooye أفجوي, Shabeellaha Hoose شبيلي السفلى, Koonfur Galbeed جنوب غرب, Soomaaliya الصومال","address":{"county":"Afgooye أفجوي","state":"Shabeellaha Hoose شبيلي السفلى","ISO3166-2-lvl5":"SO-SH","country":"Soomaaliya الصومال","country_code":"so"},"osm_type":"relation","osm_id":1720070,"type":"administrative","location":[44.99694192797743,2.23548745],"bbox":[44.6599998,1.7498655,45.3702536,2.73]}}
{"name":"Baardheere بااردىرآ","other_names":{"name:ar":"بااردىرآ","name:ca":"Bardera","name:da":"Baardheere","name:de":"Baardheere","name:en":"Bardera","name:es":"Bardera","name:fa":"باردیرا","name:fr":"Bardera","name:gl":"Bardera - Baardheere","name:it":"Bardera","name:ja":"バルデラ","name:lt":"Barderė","name:ml":"ബാർദേറ","name:pl":"Baardheere","name:pt":"Bardera","name:ro":"Bardera","name:ru":"Бардере","name:so":"Bardhere","name:sw":"Baardheere","name:uk":"Бардере","name:ur":"باردیرا","name:zh":"巴爾代雷","name:zu":"Bardera","alt_name":"Bardera"},"display_name":"Baardheere بااردىرآ, Gedo جدو, Jubaland جوبالاند, Soomaaliya الصومال","address":{"city":"Baardheere بااردىرآ","county":"Baardheere بااردىرآ","state":"Gedo جدو","ISO3166-2-lvl5":"SO-GE","country":"Soomaaliya الصومال","country_code":"so"},"osm_type":"node","osm_id":36305919,"type":"city","location":[42.2849308,2.3372449],"bbox":[42.1249308,2.1772449,42.4449308,2.4972449],"border":{"name":"Baardheere بااردىرآ","other_names":{"name:ar":"بااردىرآ","name:de":"Bardera District","name:fr":"Bardhere","name:ur":"باردیرا ضلع","name:zh":"巴尔代雷区","name:zu":"Bardhere District"},"display_name":"Baardheere بااردىرآ, Gedo جدو, Jubaland جوبالاند, Soomaaliya الصومال","address":{"county":"Baardheere بااردىرآ","state":"Gedo جدو","ISO3166-2-lvl5":"SO-GE","country":"Soomaaliya الصومال","country_code":"so"},"osm_type":"relation","osm_id":1720072,"type":"administrative","location":[41.70602766097039,2.06312915],"bbox":[40.9903722,1.2307847,42.5417099,2.9400001]}}
{"name":"Balanbale بالانبالي","other_names":{"name:ar":"بالانبالي","name:ml":"ബാലൻബാൽ","alt_name":"Balanbal;Balanballe;Balambal;Balambale;Balamballe;Balanballeh;Balamballeh;Ballanbaleh,Ballanballeh,Ballambaleh,Ballamballeh"},"display_name":"Balanbale بالانبالي, Cabudwaaq, Galgaduud جلجدود, Galmudug غامدوغ, Soomaaliya الصومال","address":{"city":"Balanbale بالانبالي","county":"Cabudwaaq","state":"Galgaduud جلجدود","ISO3166-2-lvl5":"SO-GA","country":"Soomaaliya الصومال","country_code":"so"},"population":60000,"osm_type":"node","osm_id":10252458011,"type":"city","location":[45.7659615,5.7669406],"bbox":[45.6059615,5.6069406,45.9259615,5.9269406]}
{"name":"Balli-Gubadle ባሊጉባድል","other_names":{"alt_name":"Balli Gubadle;Baligubadle"},"display_name":"Balli-Gubadle ባሊጉባድል, Hargeysa هرجيسا, Woqooyi Galbeed, Soomaaliland أرض الصومال, Soomaaliya الصومال","address":{"city":"Balli-Gubadle ባሊጉባድል","county":"Hargeysa هرجيسا","state":"Woqooyi Galbeed","ISO3166-2-lvl5":"SO-WO","country":"Soomaaliland أرض الصومال","country_code":"so"},"osm_type":"node","osm_id":1404224400,"type":"city","location":[44.000122,9.0010256],"bbox":[43.840122,8.8410256,44.160122,9.1610256]}
{"name":"Baydhabo بيدوا","other_names":{"name:ar":"بيدوا","name:de":"Baidoa","name:en":"Baidoa","name:fr":"Baidoa","name:it":"Baidoa","name:ko":"바이다보","name:ml":"ബൈദോവ","name:pt":"Baidoa","name:ru":"Байдабо"},"display_name":"Baydhabo بيدوا, Baidoa بيدوا, Bay باي, Koonfur Galbeed جنوب غرب, Soomaaliya الصومال","address":{"city":"Baydhabo بيدوا","county":"Baidoa بيدوا","state":"Bay باي","ISO3166-2-lvl5":"SO-BY","country":"Soomaaliya الصومال","country_code":"so"},"osm_type":"node","osm_id":35926758,"type":"city","location":[43.644462,3.119951],"bbox":[43.484462,2.959951,43.804462,3.279951],"border":{"name":"Baidoa بيدوا","other_names":{"name:ar":"بيدوا","name:en":"Baidoa District","name:fr":"Baidoa","name:ur":"بیدوا ضلع","name:zh":"拜达博区","name:zu":"Baidoa District"},"display_name":"Baidoa بيدوا, Bay باي, Koonfur Galbeed جنوب غرب, Soomaaliya الصومال","address":{"county":"Baidoa بيدوا","state":"Bay باي","ISO3166-2-lvl5":"SO-BY","country":"Soomaaliya الصومال","country_code":"so"},"osm_type":"relation","osm_id":1720074,"type":"administrative","location":[43.584009230208295,3.1549999499999997],"bbox":[43.0999985,2.52,44.3100014,3.9200001]}}
{"name":"Beled Hawa بولاهاوا","other_names":{"name:ar":"بولاهاوا","name:ml":"ബെലെദ് ഹാവ","alt_name":"Belet Hawo;Belet Xaawo;Balathaawa Diriy;Beled Xaawo;Beled Hawo;Balad Hawo;Beledxaawo;Buuloxaawo;Balad Hawa"},"display_name":"Beled Hawa بولاهاوا, Doolow دولو, Gedo جدو, Jubaland جوبالاند, Soomaaliya الصومال","address":{"city":"Beled Hawa بولاهاوا","county":"Doolow دولو","state":"Gedo جدو","ISO3166-2-lvl5":"SO-GE","country":"Soomaaliya الصومال","country_code":"so"},"osm_type":"node","osm_id":1404223191,"type":"city","location":[41.874179,3.92761],"bbox":[41.714179,3.76761,42.034179,4.08761]}
{"name":"Beledweyne بلد وين","other_names":{"name:ar":"بلد وين","name:de":"Beledweyne","name:en":"Beledweyne","name:es":"Beledweyne","name:fr":"Beledweyne","name:ko":"벨레드웨이네","name:ml":"ബിലദ്‌വെയ്ൻ","name:ru":"Беледуэйне","name:tr":"Beledveyne","name:uk":"Беледуейне","alt_name":"Beletweyne;Belet Weyne;Beled Weyne"},"display_name":"Beledweyne بلد وين, Belet Weyne بلد وين, Hiiraan هيران, Hirshabeelle هيرشابيل, Soomaaliya الصومال","address":{"city":"Beledweyne بلد وين","county":"Belet Weyne بلد وين","state":"Hiiraan هيران","ISO3166-2-lvl5":"SO-HI","country":"Soomaaliya الصومال","country_code":"so"},"osm_type":"node","osm_id":43528290,"type":"city","location":[45.2038881,4.7367735],"bbox":[45.0438881,4.5767735,45.3638881,4.8967735],"border":{"name":"Belet Weyne بلد وين","other_names":{"name:ar":"بلد وين","name:en":"Beledweyne District","name:fr":"Beledweyne","name:zh":"贝兰德文区","name:zu":"Beledweyne District"},"display_name":"Belet Weyne بلد وين, Hiiraan هيران, Hirshabeelle هيرشابيل, Soomaaliya الصومال","address":{"county":"Belet Weyne بلد وين","state":"Hiiraan هيران","ISO3166-2-lvl5":"SO-HI","country":"Soomaaliya الصومال","country_code":"so"},"osm_type":"relation","osm_id":1720079,"type":"administrative","location":[45.377741561208936,4.805156],"bbox":[44.5895692,4.0762959,46.2299995,5.5363816]}}
{"name":"Berbera بربرة","other_names":{"name:ar":"بربرة","name:de":"Berbera","name:en":"Berbera","name:es":"Berbera","name:et":"Berbera","name:eu":"Berbera","name:fa":"بربرا","name:fr":"Berbera","name:hr":"Berbera","name:ko":"베르베라","name:ml":"ബെർബെറ","name:ru":"Бербера","name:so":"Barbara","name:uk":"Бербера","name:ur":"بربرہ"},"display_name":"Berbera بربرة, Saaxil ساحل, Soomaaliland أرض الصومال, Soomaaliya الصومال","address":{"city":"Berbera بربرة","county":"Berbera بربرة","state":"Saaxil ساحل","country":"Soomaaliland أرض الصومال","country_code":"so"},"population":263000,"osm_type":"node","osm_id":291580881,"type":"city","location":[45.0134007,10.4386215],"bbox":[44.8534007,10.2786215,45.1734007,10.5986215],"border":{"name":"Berbera بربرة","other_names":{"name:ar":"بربرة","name:en":"Berbera","name:es":"Berbera","name:fa":"بربرا","name:fr":"Berbera","name:nl":"Berbera","name:ur":"بربرہ","name:zh":"柏培拉区","name:zu":"Berbera"},"display_name":"Berbera بربرة, Saaxil ساحل, Soomaaliland أرض الصومال, Soomaaliya الصومال","address":{"county":"Berbera بربرة","state":"Saaxil ساحل","country":"Soomaaliland أرض الصومال","country_code":"so"},"osm_type":"relation","osm_id":1720081,"type":"administrative","location":[45.17165327334663,10.5159944],"bbox":[44.1496439,9.9401941,46.0447589,11.0696387]}}
{"name":"Boosaaso بوصاصو","other_names":{"name:ar":"بوصاصو","name:de":"Bosasso","name:en":"Bosaso","name:es":"Bosaso","name:fr":"Bosaso","name:hr":"Bosaso","name:ko":"보사소","name:ml":"ബൂസാസോ","name:ru":"Босасо","name:uk":"Босасо","alt_name":"Bandar Qassim","alt_name:de":"Bandar Kassim","alt_name:en":"Bender Qassim"},"display_name":"Boosaaso بوصاصو, Bossaso بوصاصو, Bariباري, Puntland أرض البنط, Soomaaliya الصومال","address":{"city":"Boosaaso بوصاصو","county":"Bossaso بوصاصو","state":"Bariباري","ISO3166-2-lvl5":"SO-BR","country":"Soomaaliya الصومال","country_code":"so"},"osm_type":"node","osm_id":43528250,"type":"city","location":[49.179952,11.27848],"bbox":[49.019952,11.11848,49.339952,11.43848],"border":{"name":"Bossaso بوصاصو","other_names":{"name:ar":"بوصاصو","name:en":"Bosaso District","name:fr":"Bosaso","name:it":"Distretto di Bosaso","name:zh":"博薩索區","name:zu":"Bosaso District"},"display_name":"Bossaso بوصاصو, Bariباري, Puntland أرض البنط, Soomaaliya الصومال","address":{"county":"Bossaso بوصاصو","state":"Bariباري","ISO3166-2-lvl5":"SO-BR","country":"Soomaaliya الصومال","country_code":"so"},"osm_type":"relation","osm_id":1720083,"type":"administrative","location":[49.41072274526701,11.00261495],"bbox":[48.9175808,10.3500004,49.9099998,11.6463137]}}
{"name":"Bu'aale بوأل","other_names":{"name:ar":"بوأل","name:de":"Bu'aale","name:en":"Bu'aale","name:es":"Bu'aale","name:fr":"Bu'aale","name:ko":"부알레","name:ml":"ബുആലെ","name:ru":"Буале"},"display_name":"Bu'aale بوأل, Jubbada Dhexe جوبا الوسطى, Jubaland جوبالاند, Soomaaliya الصومال","address":{"city":"Bu'aale بوأل","county":"Bu'aale بوأل","state":"Jubbada Dhexe جوبا الوسطى","ISO3166-2-lvl5":"SO-JD","country":"Soomaaliya الصومال","country_code":"so"},"osm_type":"node","osm_id":43528307,"type":"city","location":[42.5761364,1.2516825],"bbox":[42.4161364,1.0916825,42.7361364,1.4116825],"border":{"name":"Bu'aale بوأل","other_names":{"name:ar":"بوأل","name:en":"Bu'ale District","name:fr":"Bu'ale","name:zh":"布阿萊區","name:zu":"Bu'ale District"},"display_name":"Bu'aale بوأل, Jubbada Dhexe جوبا الوسطى, Jubaland جوبالاند, Soomaaliya الصومال","address":{"county":"Bu'aale بوأل","state":"Jubbada Dhexe جوبا الوسطى","ISO3166-2-lvl5":"SO-JD","country":"Soomaaliya الصومال","country_code":"so"},"osm_type":"relation","osm_id":1720084,"type":"administrative","location":[42.82510075813954,1.1753415500000002],"bbox":[42.1380196,0.7500007,43.2601204,1.51]}}
{"name":"Burco برعو","other_names":{"name:ar":"برعو","name:de":"Burao","name:en":"Burao","name:es":"Burao","name:eu":"Burao","name:fr":"Burao","name:hr":"Burao","name:ml":"ബുർഓ","name:ru":"Буръо","name:so":"Burco","name:uk":"Бур'о","alt_name":"Burao برعو"},"display_name":"Burco برعو, توجدير Togdheer, Soomaaliland أرض الصومال, Soomaaliya الصومال","address":{"city":"Burco برعو","county":"Burco برعو","state":"توجدير Togdheer","ISO3166-2-lvl5":"SO-TO","country":"Soomaaliland أرض الصومال","country_code":"so"},"population":425000,"osm_type":"node","osm_id":12031126312,"type":"city","location":[45.538018,9.5277268],"bbox":[45.378018,9.3677268,45.698018,9.6877268],"border":{"name":"Burco برعو","other_names":{"name:ar":"برعو","name:de":"Burao","name:en":"Burao District","name:fr":"Burao","name:zh":"布拉奥区","name:zu":"Burao District"},"display_name":"Burco برعو, توجدير Togdheer, Soomaaliland أرض الصومال, Soomaaliya الصومال","address":{"county":"Burco برعو","state":"توجدير Togdheer","ISO3166-2-lvl5":"SO-TO","country":"Soomaaliland أرض الصومال","country_code":"so"},"osm_type":"relation","osm_id":1720086,"type":"administrative","location":[45.7432640784741,9.108126550000001],"bbox":[45.2799988,8.2543942,46.250015,10.0988197]}}
{"name":"Buurdhuubo","other_names":{"alt_name":"Buur Dhuubo"},"display_name":"Buurdhuubo, Garbahaarey غاربهاارآي, Gedo جدو, Jubaland جوبالاند, Soomaaliya الصومال","address":{"city":"Buurdhuubo","county":"Garbahaarey غاربهاارآي","state":"Gedo جدو","ISO3166-2-lvl5":"SO-GE","country":"Soomaaliya الصومال","country_code":"so"},"osm_type":"node","osm_id":1404229909,"type":"city","location":[42.4952452,3.1689869],"bbox":[42.3352452,3.0089869,42.6552452,3.3289869]}
{"name":"Buurhakaba بورحكب","other_names":{"name:ar":"بورحكب","name:de":"Buurhakaba","name:en":"Buurhakaba","name:es":"Buurhakaba","name:fr":"Buur Hakaba","name:it":"Bur Acaba","name:ml":"ബൂർഹക്കബ","name:pl":"Buur Gaabo","name:ro":"Buurhakaba","name:so":"Buurhakaba","name:sw":"Buurhakaba","name:ur":"برہاکابا","name:zu":"Burhakaba","alt_name":"Bur Hakkaba;Buur-Hakba;Bur Acaba"},"display_name":"Buurhakaba بورحكب, Buur Hakaba بورحكب, Bay باي, Koonfur Galbeed جنوب غرب, Soomaaliya الصومال","address":{"city":"Buurhakaba بورحكب","county":"Buur Hakaba بورحكب","state":"Bay باي","ISO3166-2-lvl5":"SO-BY","country":"Soomaaliya الصومال","country_code":"so"},"osm_type":"node","osm_id":36305949,"type":"city","location":[44.0784549,2.794785],"bbox":[43.9184549,2.634785,44.2384549,2.954785],"border":{"name":"Buur Hakaba بورحكب","other_names":{"name:ar":"بورحكب","name:en":"Burhakaba District","name:fr":"Burhakaba","name:zh":"布尔哈卡巴区","name:zu":"Burhakaba District"},"display_name":"Buur Hakaba بورحكب, Bay باي, Koonfur Galbeed جنوب غرب, Soomaaliya الصومال","address":{"county":"Buur Hakaba بورحكب","state":"Bay باي","ISO3166-2-lvl5":"SO-BY","country":"Soomaaliya الصومال","country_code":"so"},"osm_type":"relation","osm_id":1720089,"type":"administrative","location":[44.02446318410313,2.5],"bbox":[43.2000008,1.625001,44.6899986,3.3399999]}}
{"name":"Caabudwaaq عابدؤاغ","other_names":{"name:en":"Abudwak","name:it":"Abuduaq","name:ml":"അബുദ്വാക്","alt_name":"Cabudwaaq","old_name":"Abud Wak"},"display_name":"Caabudwaaq عابدؤاغ, Cabudwaaq, Galgaduud جلجدود, Galmudug غامدوغ, Soomaaliya الصومال","address":{"city":"Caabudwaaq عابدؤاغ","county":"Cabudwaaq","state":"Galgaduud جلجدود","ISO3166-2-lvl5":"SO-GA","country":"Soomaaliya الصومال","country_code":"so"},"population":164286,"osm_type":"node","osm_id":10142960942,"type":"city","location":[46.2251544,6.2461515],"bbox":[46.0651544,6.0861515,46.3851544,6.4061515],"border":{"name":"Cabudwaaq","other_names":{"name:en":"Abudwak District","name:fr":"Abudwak","name:nl":"Abudwak","name:zh":"阿布德瓦克區","name:zu":"Abudwak District"},"display_name":"Cabudwaaq, Galgaduud جلجدود, Galmudug غامدوغ, Soomaaliya الصومال","address":{"county":"Cabudwaaq","state":"Galgaduud جلجدود","ISO3166-2-lvl5":"SO-GA","country":"Soomaaliya الصومال","country_code":"so"},"osm_type":"relation","osm_id":1720090,"type":"administrative","location":[46.02110456102583,5.7969924],"bbox":[45.4109297,5.1780889,46.6583252,6.5203314]}}
{"name":"Caynabo عينبة","other_names":{"name:ml":"ഐനബ","alt_name":"Caynaba;Aynaba;Ainaba;Ainabo;Aynabo"},"display_name":"Caynabo عينبة, Caynabo, Sool سول, Soomaaliland أرض الصومال, Soomaaliya الصومال","address":{"city":"Caynabo عينبة","county":"Caynabo","state":"Sool سول","ISO3166-2-lvl5":"SO-SO","country":"Soomaaliland أرض الصومال","country_code":"so"},"population":50000,"osm_type":"node","osm_id":1404221791,"type":"city","location":[46.4095874,8.9552536],"bbox":[46.2495874,8.7952536,46.5695874,9.1152536],"border":{"name":"Caynabo","other_names":{"name:en":"Aynabo District","name:fr":"Aynabo"},"display_name":"Caynabo, Sool سول, Soomaaliland أرض الصومال, Soomaaliya الصومال","address":{"county":"Caynabo","state":"Sool سول","ISO3166-2-lvl5":"SO-SO","country":"Soomaaliland أرض الصومال","country_code":"so"},"osm_type":"relation","osm_id":1720094,"type":"administrative","location":[46.55009923411609,9.210009849999999],"bbox":[46.0484314,8.781579,46.9199982,10.0494404]}}
{"name":"Ceelwaaq","other_names":{"name:ar":"عيل واق","name:ml":"എൽ വാഖ്"},"display_name":"Ceelwaaq, El Waq, Gedo جدو, Jubaland جوبالاند, Soomaaliya الصومال","address":{"city":"Ceelwaaq","county":"El Waq","state":"Gedo جدو","ISO3166-2-lvl5":"SO-GE","country":"Soomaaliya الصومال","country_code":"so"},"osm_type":"node","osm_id":1404226067,"type":"city","location":[41.0132864,2.7924838],"bbox":[40.8532864,2.6324838,41.1732864,2.9524838]}
{"name":"Ceerigaabo عيرجابو","other_names":{"name:ar":"عيرجابو","name:de":"Erigabo","name:en":"Erigavo","name:es":"Erigabo","name:et":"Ceerigaabo","name:eu":"Erigabo","name:fr":"Erigavo","name:hr":"Erigabo","name:it":"Erigavo","name:ko":"에리가보","name:ml":"എറിഗാവോ","name:ru":"Эригабо","name:so":"Ceerigaabo","alt_name":"Erigavo"},"display_name":"Ceerigaabo عيرجابو, سناج Sanaag, Soomaaliland أرض الصومال, Soomaaliya الصومال","address":{"city":"Ceerigaabo عيرجابو","county":"Ceerigaabo عيرجابو","state":"سناج Sanaag","ISO3166-2-lvl5":"SO-SA","country":"Soomaaliland أرض الصومال","country_code":"so"},"population":190000,"osm_type":"node","osm_id":43528353,"type":"city","location":[47.37,10.61806],"bbox":[47.21,10.45806,47.53,10.77806],"border":{"name":"Ceerigaabo عيرجابو","other_names":{"name:ar":"عيرجابو","name:en":"Erigavo District","name:fr":"Erigavo"},"display_name":"Ceerigaabo عيرجابو, سناج Sanaag, Soomaaliland أرض الصومال, Soomaaliya الصومال","address":{"county":"Ceerigaabo عيرجابو","state":"سناج Sanaag","ISO3166-2-lvl5":"SO-SA","country":"Soomaaliland أرض الصومال","country_code":"so"},"osm_type":"relation","osm_id":1720099,"type":"administrative","location":[47.909165399990755,10.345000299999999],"bbox":[46.6655598,9.4418116,48.6100006,11.4290914]}}
{"name":"Daru-Salaam City","display_name":"Daru-Salaam City, Afgooye أفجوي, Shabeellaha Hoose شبيلي السفلى, Koonfur Galbeed جنوب غرب, Soomaaliya الصومال","address":{"city":"Daru-Salaam City","county":"Afgooye أفجوي","state":"Shabeellaha Hoose شبيلي السفلى","ISO3166-2-lvl5":"SO-SH","country":"Soomaaliya الصومال","country_code":"so"},"osm_type":"node","osm_id":11960200725,"type":"city","location":[45.3202973,2.1339112],"bbox":[45.1602973,1.9739112,45.4802973,2.2939112]}
{"name":"Dhabad ضابط","other_names":{"name:ar":"ضابط","name:ml":"ദാബത്ത്","alt_name":"Dhabbad;Dhabat;Dhabbat;Debet"},"display_name":"Dhabad ضابط, Cabudwaaq, Galgaduud جلجدود, Galmudug غامدوغ, Soomaaliya الصومال","address":{"city":"Dhabad ضابط","county":"Cabudwaaq","state":"Galgaduud جلجدود","ISO3166-2-lvl5":"SO-GA","country":"Soomaaliya الصومال","country_code":"so"},"population":35000,"osm_type":"node","osm_id":10203958925,"type":"city","location":[46.4604442,6.4342875],"bbox":[46.3004442,6.2742875,46.6204442,6.5942875]}
{"name":"Doolow دولو","other_names":{"name:ar":"دولو","name:so":"Dooloow","alt_name":"Dolow"},"display_name":"Doolow دولو, Gedo جدو, Jubaland جوبالاند, Soomaaliya الصومال","address":{"city":"Doolow دولو","county":"Doolow دولو","state":"Gedo جدو","ISO3166-2-lvl5":"SO-GE","country":"Soomaaliya الصومال","country_code":"so"},"population":26800,"osm_type":"node","osm_id":1395957416,"type":"city","location":[42.076407,4.16358],"bbox":[41.916407,4.00358,42.236407,4.32358],"border":{"name":"Doolow دولو","other_names":{"name:ar":"دولو","name:en":"Dolow District","name:fr":"Dolow"},"display_name":"Doolow دولو, Gedo جدو, Jubaland جوبالاند, Soomaaliya الصومال","address":{"county":"Doolow دولو","state":"Gedo جدو","ISO3166-2-lvl5":"SO-GE","country":"Soomaaliya الصومال","country_code":"so"},"osm_type":"relation","osm_id":1720102,"type":"administrative","location":[42.11368935536676,3.99101225],"bbox":[41.8574597,3.79,42.4011624,4.1927315]}}
{"name":"Gaalkacyo جالكعيو","other_names":{"name:ar":"جالكعيو","name:de":"Gaalkacyo","name:en":"Galkayo","name:es":"Gaalkacyo","name:fr":"Gaalkacyo","name:it":"Galcaio","name:ko":"갈카요","name:ml":"ഗാൽക്കായോ","name:ru":"Галькайо","name:uk":"Галькайо"},"display_name":"Gaalkacyo جالكعيو, Galkaacyo جالكعيو, Mudug مدج, Galmudug غامدوغ, Soomaaliya الصومال","address":{"city":"Gaalkacyo جالكعيو","county":"Galkaacyo جالكعيو","state":"Mudug مدج","ISO3166-2-lvl5":"SO-MU","country":"Soomaaliya الصومال","country_code":"so"},"osm_type":"node","osm_id":43528320,"type":"city","location":[47.430826,6.769726],"bbox":[47.270826,6.609726,47.590826,6.929726],"border":{"name":"Galkaacyo جالكعيو","other_names":{"name:ar":"جالكعيو","name:en":"Galkayo District","name:fr":"Galkayo","name:zh":"加勒卡约区"},"display_name":"Galkaacyo جالكعيو, Mudug مدج, Galmudug غامدوغ, Soomaaliya الصومال","address":{"county":"Galkaacyo جالكعيو","state":"Mudug مدج","ISO3166-2-lvl5":"SO-MU","country":"Soomaaliya الصومال","country_code":"so"},"osm_type":"relation","osm_id":1720107,"type":"administrative","location":[47.95464287145788,7.04886345],"bbox":[46.5214741,6.2800002,48.5304184,7.5609488]}}
{"name":"Garbahaarey جربهاري","other_names":{"name:ar":"جربهاري","name:en":"Garbaharey","name:ml":"ഗർബഹാറേ","name:ru":"Гарбахаррей","alt_name":"Garboharey;Garbaharey, Garba Hare"},"display_name":"Garbahaarey جربهاري, Garbahaarey غاربهاارآي, Gedo جدو, Jubaland جوبالاند, Soomaaliya الصومال","address":{"city":"Garbahaarey جربهاري","county":"Garbahaarey غاربهاارآي","state":"Gedo جدو","ISO3166-2-lvl5":"SO-GE","country":"Soomaaliya الصومال","country_code":"so"},"osm_type":"node","osm_id":1404233530,"type":"city","location":[42.219898,3.3280189],"bbox":[42.059898,3.1680189,42.379898,3.4880189],"border":{"name":"Garbahaarey غاربهاارآي","other_names":{"name:ar":"غاربهاارآي","name:en":"Garbaharey District","name:fr":"Garbaharey"},"display_name":"Garbahaarey غاربهاارآي, Gedo جدو, Jubaland جوبالاند, Soomaaliya الصومال","address":{"county":"Garbahaarey غاربهاارآي","state":"Gedo جدو","ISO3166-2-lvl5":"SO-GE","country":"Soomaaliya الصومال","country_code":"so"},"osm_type":"relation","osm_id":1720108,"type":"administrative","location":[42.44701472320675,3.1549999499999997],"bbox":[41.7200012,2.749428,43.1011696,3.6800001]}}
{"name":"Garoowe غاروي","other_names":{"name:ar":"غاروي","name:de":"Garoowe","name:en":"Garoowe","name:es":"Garowe","name:fr":"Garowe","name:it":"Garoe","name:ko":"가로웨","name:ml":"ഗാറൂവെ","name:ru":"Гароуэ","name:uk":"Гарове","alt_name":"Garowe"},"display_name":"Garoowe غاروي, Garowe غاروي, Nugaal نوجال, Puntland أرض البنط, Soomaaliya الصومال","address":{"city":"Garoowe غاروي","county":"Garowe غاروي","state":"Nugaal نوجال","ISO3166-2-lvl5":"SO-NU","country":"Soomaaliya الصومال","country_code":"so"},"osm_type":"node","osm_id":43528345,"type":"city","location":[48.483195,8.406143],"bbox":[48.323195,8.246143,48.643195,8.566143],"border":{"name":"Garowe غاروي","other_names":{"name:ar":"غاروي","name:en":"Garowe District","name:fr":"Garowe","name:zh":"加罗韦区"},"display_name":"Garowe غاروي, Nugaal نوجال, Puntland أرض البنط, Soomaaliya الصومال","address":{"county":"Garowe غاروي","state":"Nugaal نوجال","ISO3166-2-lvl5":"SO-NU","country":"Soomaaliya الصومال","country_code":"so"},"osm_type":"relation","osm_id":1720109,"type":"administrative","location":[48.89587596292228,8.59218265],"bbox":[48.1300011,8.0200005,49.2990189,9.1395245]}}
{"name":"Hargeysa هرجيسا","other_names":{"name:af":"Hargeisa","name:ar":"هرجيسا","name:az":"Hargeisa","name:be":"Харгейса","name:bg":"Харгейса","name:bn":"হারগেইসা","name:br":"Hargeysa","name:ca":"Hargeisa","name:ce":"Харгейса","name:cs":"Hargeysa","name:cy":"Hargeisa","name:da":"Hargeysa","name:de":"Hargeysa","name:el":"Χαργκέισα","name:en":"Hargeisa","name:eo":"Hargejso","name:es":"Hargeisa","name:eu":"Hargeisa","name:fa":"هرجیسا","name:fi":"Hargeisa","name:fr":"Hargeisa","name:ga":"Hargeisa","name:gl":"Hargeisa","name:ha":"Hargeisa","name:he":"הרגייסה","name:hr":"Hargeisa","name:ht":"Hargeysa","name:hu":"Hargeysa","name:hy":"Հարգեյսա","name:id":"Hargeisa","name:ie":"Hargeisa","name:is":"Hargeisa","name:it":"Hargheisa","name:ja":"ハルゲイサ","name:ka":"ჰარგეისა","name:kk":"Харгейса","name:ko":"하르게이사","name:ku":"Hargeisa","name:la":"Hargeysa","name:lt":"Hargeisa","name:lv":"Hargeisa","name:ml":"ഹർഗെയ്സ","name:ms":"Hargeisa","name:nb":"Hargeisa","name:nl":"Hargeisa","name:nn":"Hargeisa","name:os":"Харгейсæ","name:pa":"ਹਰਜੀਸਾ","name:pl":"Hargejsa","name:pt":"Hargeisa","name:ro":"Hargeisa","name:ru":"Харгейса","name:sc":"Hargheisa","name:sn":"Hargeisa","name:so":"Hargeysa","name:sr":"Hargeisa","name:sv":"Hargeisa","name:sw":"Hargeisa","name:ta":"அர்கீசொ","name:tg":"Ҳаргейса","name:th":"ฮาร์เกย์ซา","name:tr":"Hargeisa","name:uk":"Харгейса","name:ur":"ہرجيسا","name:vi":"Hargeisa","name:zh":"哈尔格萨 / 哈爾格薩","name:zu":"Hargeisa","alt_name":"Hargaisa","name:hak":"Hargeysa","name:kab":"Hargeysa","name:nan":"Hargeysa","alt_name:uk":"Харґе́йса","name:zh-Hans":"哈尔格萨","name:zh-Hant":"哈爾格薩"},"display_name":"Hargeysa هرجيسا, Woqooyi Galbeed, Soomaaliland أرض الصومال, Soomaaliya الصومال","address":{"city":"Hargeysa هرجيسا","county":"Hargeysa هرجيسا","state":"Woqooyi Galbeed","ISO3166-2-lvl5":"SO-WO","country":"Soomaaliland أرض الصومال","country_code":"so"},"population":1960000,"osm_type":"node","osm_id":4298140251,"type":"city","location":[44.061803,9.561733],"bbox":[43.901803,9.401733,44.221803,9.721733],"border":{"name":"Hargeysa هرجيسا","other_names":{"name:ar":"هرجيسا","name:en":"Hargeisa District","name:fr":"Hargeisa"},"display_name":"Hargeysa هرجيسا, Woqooyi Galbeed, Soomaaliland أرض الصومال, Soomaaliya الصومال","address":{"county":"Hargeysa هرجيسا","state":"Woqooyi Galbeed","ISO3166-2-lvl5":"SO-WO","country":"Soomaaliland أرض الصومال","country_code":"so"},"osm_type":"relation","osm_id":1720110,"type":"administrative","location":[44.260091125570256,9.625],"bbox":[43.5634661,8.7725346,44.8967523,10.3207407]}}
{"name":"Jamaame جمامة","other_names":{"name:ar":"جمامة","name:de":"Jamaame","name:en":"Jamame","name:es":"Jamaame","name:fr":"Jamaame","name:ml":"ജമാമെ","name:ru":"Джамаме","name:uk":"Джамаме"},"display_name":"Jamaame جمامة, Jubbada Hoose جوبا السفلى, Jubaland جوبالاند, Soomaaliya الصومال","address":{"city":"Jamaame جمامة","county":"Jamaame جمامة","state":"Jubbada Hoose جوبا السفلى","ISO3166-2-lvl5":"SO-JH","country":"Soomaaliya الصومال","country_code":"so"},"osm_type":"node","osm_id":36305922,"type":"city","location":[42.75056,0.07222],"bbox":[42.59056,-0.08778,42.91056,0.23222],"border":{"name":"Jamaame جمامة","other_names":{"name:ar":"جمامة","name:en":"Jamame District","name:fr":"Jamame"},"display_name":"Jamaame جمامة, Jubbada Hoose جوبا السفلى, Jubaland جوبالاند, Soomaaliya الصومال","address":{"county":"Jamaame جمامة","state":"Jubbada Hoose جوبا السفلى","ISO3166-2-lvl5":"SO-JH","country":"Soomaaliya الصومال","country_code":"so"},"osm_type":"relation","osm_id":1720114,"type":"administrative","location":[42.749732676236185,0.0785706],"bbox":[42.5294212,-0.1698533,43.1890395,0.3268653]}}
{"name":"Jilib جيليب","other_names":{"name:ar":"جيليب","name:de":"Jilib","name:en":"Jilib","name:es":"Jilib","name:fr":"Jilib","name:ml":"ജിലിബ്"},"display_name":"Jilib جيليب, Jubbada Dhexe جوبا الوسطى, Jubaland جوبالاند, Soomaaliya الصومال","address":{"city":"Jilib جيليب","county":"Jilib جيليب","state":"Jubbada Dhexe جوبا الوسطى","ISO3166-2-lvl5":"SO-JD","country":"Soomaaliya الصومال","country_code":"so"},"osm_type":"node","osm_id":36305946,"type":"city","location":[42.7758526,0.4941378],"bbox":[42.6158526,0.3341378,42.9358526,0.6541378],"border":{"name":"Jilib جيليب","other_names":{"name:ar":"جيليب","name:en":"Jilib District","name:fr":"Jilib"},"display_name":"Jilib جيليب, Jubbada Dhexe جوبا الوسطى, Jubaland جوبالاند, Soomaaliya الصومال","address":{"county":"Jilib جيليب","state":"Jubbada Dhexe جوبا الوسطى","ISO3166-2-lvl5":"SO-JD","country":"Soomaaliya الصومال","country_code":"so"},"osm_type":"relation","osm_id":1720116,"type":"administrative","location":[43.12429796251739,0.60638565],"bbox":[42.6199989,0.2144481,43.6633753,1.044656]}}
{"name":"Jowhar جوهر","other_names":{"name:ar":"جوهر","name:de":"Jawhar","name:en":"Jowhar","name:fr":"Jowhar","name:it":"Giohar","name:ko":"조하르","name:ml":"ജൗഹർ","name:pt":"Jowhar","name:ru":"Джоухар","name:uk":"Джоухар","old_name:it":"Villaggio Duca degli Abruzzi","old_name:it:2":"Villabruzzi"},"display_name":"Jowhar جوهر, Shabeellaha Dhexe شبيلي الوسطى, Hirshabeelle هيرشابيل, Soomaaliya الصومال","address":{"city":"Jowhar جوهر","county":"Jowhar جوهر","state":"Shabeellaha Dhexe شبيلي الوسطى","ISO3166-2-lvl5":"SO-SD","country":"Soomaaliya الصومال","country_code":"so"},"osm_type":"node","osm_id":36161070,"type":"city","location":[45.5042168,2.7797296],"bbox":[45.3442168,2.6197296,45.6642168,2.9397296],"border":{"name":"Jowhar جوهر","other_names":{"name:ar":"جوهر","name:en":"Jowhar District","name:fr":"Jowhar"},"display_name":"Jowhar جوهر, Shabeellaha Dhexe شبيلي الوسطى, Hirshabeelle هيرشابيل, Soomaaliya الصومال","address":{"county":"Jowhar جوهر","state":"Shabeellaha Dhexe شبيلي الوسطى","ISO3166-2-lvl5":"SO-SD","country":"Soomaaliya الصومال","country_code":"so"},"osm_type":"relation","osm_id":1720117,"type":"administrative","location":[45.58316648336164,2.90464045],"bbox":[45.0699997,2.72,45.9599991,3.25]}}
{"name":"Kismaayo كيسمايو","other_names":{"name:ar":"كيسمايو","name:de":"Kismaayo","name:en":"Kismayo","name:es":"Kismaayo","name:fr":"Kismaayo","name:it":"Chisimaio","name:ko":"키스마요","name:lt":"Kismajus","name:ml":"കിസ്മായോ","name:ru":"Кисмайо","name:uk":"Кісмайо","name:zh":"基斯马尤"},"display_name":"Kismaayo كيسمايو, Kismayo, Jubbada Hoose جوبا السفلى, Jubaland جوبالاند, Soomaaliya الصومال","address":{"city":"Kismaayo كيسمايو","county":"Kismayo","state":"Jubbada Hoose جوبا السفلى","ISO3166-2-lvl5":"SO-JH","country":"Soomaaliya الصومال","country_code":"so"},"population":166667,"osm_type":"node","osm_id":36161074,"type":"city","location":[42.5409025,-0.3602433],"bbox":[42.3809025,-0.5202433,42.7009025,-0.2002433],"border":{"name":"Kismayo","other_names":{"name:en":"Kismayo District","name:fr":"Kismayo"},"display_name":"Kismayo, Jubbada Hoose جوبا السفلى, Jubaland جوبالاند, Soomaaliya الصومال","address":{"county":"Kismayo","state":"Jubbada Hoose جوبا السفلى","ISO3166-2-lvl5":"SO-JH","country":"Soomaaliya الصومال","country_code":"so"},"osm_type":"relation","osm_id":1720118,"type":"administrative","location":[41.98535737338791,-0.52111695],"bbox":[41.2900009,-1.0391267,42.7192694,-0.0204539]}}
{"name":"Luuq لوق","other_names":{"name:ar":"لوق","name:ml":"ലൂഖ്","alt_name":"Luuk;Luq;Lugh;Lugh Ferrandi;Luuq-Ganaane;Luuq Ganaane"},"display_name":"Luuq لوق, Gedo جدو, Jubaland جوبالاند, Soomaaliya الصومال","address":{"city":"Luuq لوق","county":"Luuq لوق","state":"Gedo جدو","ISO3166-2-lvl5":"SO-GE","country":"Soomaaliya الصومال","country_code":"so"},"osm_type":"node","osm_id":1404225468,"type":"city","location":[42.5446099,3.8004466],"bbox":[42.3846099,3.6404466,42.7046099,3.9604466],"border":{"name":"Luuq لوق","other_names":{"name:ar":"لوق","name:en":"Luuq District","name:fr":"Luuq"},"display_name":"Luuq لوق, Gedo جدو, Jubaland جوبالاند, Soomaaliya الصومال","address":{"county":"Luuq لوق","state":"Gedo جدو","ISO3166-2-lvl5":"SO-GE","country":"Soomaaliya الصومال","country_code":"so"},"osm_type":"relation","osm_id":1720123,"type":"administrative","location":[42.606603477411355,3.77097615],"bbox":[42.0400009,3.255811,43.1399994,4.3069829]}}
{"name":"Marka مركا","other_names":{"name:ar":"مركا","name:ca":"Marka","name:da":"Merca","name:de":"Merka","name:en":"Merca","name:eo":"Merka","name:es":"Merca","name:fa":"مرکه","name:fi":"Merka","name:fr":"Merka","name:id":"Marka","name:it":"Merca","name:ja":"マルカ","name:ka":"მარკა","name:kk":"Марка","name:ko":"마르카","name:lt":"Merka","name:ml":"മെർക്ക","name:nb":"Marka","name:nl":"Marka","name:pl":"Marka","name:pt":"Merca","name:ro":"Merca","name:ru":"Марка","name:so":"Marka","name:sv":"Merca","name:sw":"Merka","name:tr":"Merka","name:uk":"Марка","name:ur":"مرکہ","name:zh":"马尔卡","name:zu":"Merca","alt_name":"مركة","alt_name:ar":"مركة"},"display_name":"Marka مركا, Marka مركة, Marka, Shabeellaha Hoose شبيلي السفلى, Koonfur Galbeed جنوب غرب, Soomaaliya الصومال","address":{"city":"Marka مركا","county":"Marka","state":"Shabeellaha Hoose شبيلي السفلى","ISO3166-2-lvl5":"SO-SH","country":"Soomaaliya الصومال","country_code":"so"},"osm_type":"node","osm_id":36155827,"type":"city","location":[44.7699326,1.7148358],"bbox":[44.6099326,1.5548358,44.9299326,1.8748358],"border":{"name":"Marka","other_names":{"name:ar":"مركة","name:en":"Merca District","name:fr":"Merca"},"display_name":"Marka, Shabeellaha Hoose شبيلي السفلى, Koonfur Galbeed جنوب غرب, Soomaaliya الصومال","address":{"county":"Marka","state":"Shabeellaha Hoose شبيلي السفلى","ISO3166-2-lvl5":"SO-SH","country":"Soomaaliya الصومال","country_code":"so"},"osm_type":"relation","osm_id":1720124,"type":"administrative","location":[44.775966682523844,1.6530383],"bbox":[44.3800011,1.3857399,45.2295837,1.9200203]}}
{"name":"Muqdisho مقديشو","other_names":{"name:af":"Mogadisjoe","name:am":"ሞቃዲሾ","name:an":"Mogadixo","name:ar":"مقديشو","name:az":"Moqadişo","name:be":"Магадыша","name:bg":"Могадишу","name:bn":"মোগাদিশু","name:bo":"མོ་ག་དི་ཤུ།","name:br":"Muqdisho","name:bs":"Mogadiš","name:ca":"Mogadixo","name:ce":"Могадишо","name:cs":"Mogadišu","name:cy":"Mogadishu","name:da":"Mogadishu","name:de":"Mogadischu","name:el":"Μογκαντίσου","name:en":"Mogadishu","name:eo":"Mogadiŝo","name:es":"Mogadiscio","name:et":"Muqdisho","name:eu":"Muqdisho","name:fa":"موگادیشو","name:ff":"Mogadishu","name:fi":"Mogadishu","name:fo":"Mogadishu","name:fr":"Mogadiscio","name:fy":"Mogadisjû","name:ga":"Mogaidisiú","name:gd":"Mogadishu","name:gl":"Mogadixo","name:gn":"Mogandísio","name:ha":"Mogadishu","name:he":"מוגדישו","name:hi":"मोगादीशू","name:hr":"Mogadišu","name:ht":"Moukdicho","name:hu":"Mogadishu","name:hy":"Մոգադիշո","name:ia":"Mogadiscio","name:id":"Mogadishu","name:ie":"Mogadishu","name:io":"Mogadishu","name:is":"Mógadisjú","name:it":"Mogadiscio","name:ja":"モガディシュ","name:jv":"Mogadishu","name:ka":"მოგადიშო","name:kg":"Mogadishu","name:ki":"Mogadishu","name:kk":"Могадишо қаласы","name:kn":"ಮೊಗದಿಶು","name:ko":"모가디슈","name:ks":"موغادیشوٗ","name:ku":"Mogadîşu","name:ky":"Могадишо","name:la":"Mogadiscio","name:lb":"Mogadischu","name:lt":"Mogadišas","name:lv":"Mogadīšo","name:mg":"Mogadiscio","name:mk":"Могадишу","name:ml":"മൊഗദിഷു","name:mr":"मोगादिशू","name:ms":"Mogadishu","name:nb":"Mogadishu","name:nl":"Mogadishu","name:nn":"Mogadishu","name:no":"Mogadishu","name:oc":"Mogadisho","name:os":"Могадишо","name:pa":"ਮਕਦੀਸ਼ੂ","name:pl":"Mogadiszu","name:ps":"موګادیشو","name:pt":"Mogadíscio","name:qu":"Mugadishu","name:ro":"Mogadishu","name:ru":"Могадишо","name:rw":"Mogadishu","name:sc":"Mogadìsciu","name:sd":"موغاديشو","name:sh":"Mogadishu","name:sk":"Mogadišo","name:sl":"Mogadiš","name:sn":"Mogadishu","name:so":"Muqdisho","name:sq":"Mogadishu","name:sr":"Могадишу","name:sv":"Mogadishu","name:sw":"Mogadishu","name:ta":"மொகடிசு","name:tg":"Могадишо","name:th":"โมกาดิชู","name:tl":"Mogadishu","name:tr":"Mogadişu","name:uk":"Моґадішо","name:ur":"موغادیشو","name:uz":"Mogadisho","name:vi":"Mogadishu","name:wo":"Mogadisu","name:yi":"מאגאדישו","name:yo":"Mogadishu","name:zh":"摩加迪沙","name:zu":"Mogadishu","alt_name":"Xamar","name:ace":"Mogadishu","name:azb":"موقادیشو","name:bcl":"Mogadishu","name:ckb":"مۆگادیشو","name:grc":"Μογαδισουΐα","name:hif":"Mogadishu","name:kab":"Mugadiccu","name:lij":"Mogadiscio","name:lmo":"Mugadiss","name:nan":"Mogadishu","name:nov":"Mogadishu","name:pap":"Mogadishu","name:pms":"Mogadiss","name:pnb":"موگادیشو","name:sco":"Mogadishu","name:udm":"Могадишо","name:vec":"Mogadiscio","name:war":"Mogadishu","alt_name:ar":"مقدشو;مَقْدَشُو","alt_name:ml":"മുഖ്ദീഷോ","name:simple":"Mogadishu","name:be-tarask":"Магадзішу","name:ru:word_stress":"Могади́шо"},"display_name":"Muqdisho مقديشو, Hamar Weyne حي حمروين, Banaadir بنادر, BN 09010, Soomaaliya الصومال","address":{"city":"Muqdisho مقديشو","county":"Hamar Weyne حي حمروين","state":"Banaadir بنادر","ISO3166-2-lvl4":"SO-BN","postcode":"BN 09010","country":"Soomaaliya الصومال","country_code":"so"},"population":2610000,"osm_type":"node","osm_id":34684808,"type":"city","location":[45.3419183,2.0349312],"bbox":[45.1819183,1.8749312,45.5019183,2.1949312]}
{"name":"Oog","display_name":"Oog, Caynabo, Sool سول, Soomaaliland أرض الصومال, Soomaaliya الصومال","address":{"city":"Oog","county":"Caynabo","state":"Sool سول","ISO3166-2-lvl5":"SO-SO","country":"Soomaaliland أرض الصومال","country_code":"so"},"osm_type":"node","osm_id":1404231192,"type":"city","location":[46.6205772,8.9351416],"bbox":[46.4605772,8.7751416,46.7805772,9.0951416]}
{"name":"Qardho قرضو","other_names":{"name:ar":"قرضو","name:en":"Qardho","name:fr":"Qardho","name:ml":"ഖർദോ","alt_name:ar":"قرضو"},"display_name":"Qardho قرضو, Bariباري, Puntland أرض البنط, Soomaaliya الصومال","address":{"city":"Qardho قرضو","county":"Qardho قرضو","state":"Bariباري","ISO3166-2-lvl5":"SO-BR","country":"Soomaaliya الصومال","country_code":"so"},"osm_type":"node","osm_id":6528156412,"type":"city","location":[49.0872145,9.5070109],"bbox":[48.9272145,9.3470109,49.2472145,9.6670109],"border":{"name":"Qardho قرضو","other_names":{"name:ar":"قرضو","name:en":"Qardho District","name:fr":"Qardho","name:zh":"佳尔多区","alt_name:ar":"غاردو"},"display_name":"Qardho قرضو, Bariباري, Puntland أرض البنط, Soomaaliya الصومال","address":{"county":"Qardho قرضو","state":"Bariباري","ISO3166-2-lvl5":"SO-BR","country":"Soomaaliya الصومال","country_code":"so"},"osm_type":"relation","osm_id":1720129,"type":"administrative","location":[49.56683193750921,9.4249997],"bbox":[49.0400009,8.3299999,50.0900002,10.5600004]}}
{"name":"Qoryooley قوريولي","other_names":{"name:ar":"قوريولي","name:de":"Qoryooley","name:en":"Qoryooley","name:es":"Qoryooley","name:fr":"Qoryooley","alt_name":"Qoryoley"},"display_name":"Qoryooley قوريولي, Shabeellaha Hoose شبيلي السفلى, Koonfur Galbeed جنوب غرب, Soomaaliya الصومال","address":{"city":"Qoryooley قوريولي","county":"Qoryooley قوريولي","state":"Shabeellaha Hoose شبيلي السفلى","ISO3166-2-lvl5":"SO-SH","country":"Soomaaliya الصومال","country_code":"so"},"osm_type":"node","osm_id":36161073,"type":"city","location":[44.530629,1.789663],"bbox":[44.370629,1.629663,44.690629,1.949663],"border":{"name":"Qoryooley قوريولي","other_names":{"name:ar":"قوريولي","name:en":"Qoriyoley District","name:fr":"Qoriyoley"},"display_name":"Qoryooley قوريولي, Shabeellaha Hoose شبيلي السفلى, Koonfur Galbeed جنوب غرب, Soomaaliya الصومال","address":{"county":"Qoryooley قوريولي","state":"Shabeellaha Hoose شبيلي السفلى","ISO3166-2-lvl5":"SO-SH","country":"Soomaaliya الصومال","country_code":"so"},"osm_type":"relation","osm_id":1720130,"type":"administrative","location":[44.44941176644818,1.97],"bbox":[43.9004784,1.67,44.8400002,2.24]}}
{"name":"Xudur حودور","other_names":{"name:ar":"حودور","name:de":"Huddur","name:en":"Hudur","name:es":"Xudur","name:fr":"Xuddur","name:ko":"후두르","name:ml":"ഹുദൂർ","name:ru":"Худдур"},"display_name":"Xudur حودور, Bakool باكول, Koonfur Galbeed جنوب غرب, Soomaaliya الصومال","address":{"city":"Xudur حودور","county":"Xudur حودور","state":"Bakool باكول","ISO3166-2-lvl5":"SO-BK","country":"Soomaaliya الصومال","country_code":"so"},"osm_type":"node","osm_id":36155607,"type":"city","location":[43.8915563,4.1237042],"bbox":[43.7315563,3.9637042,44.0515563,4.2837042],"border":{"name":"Xudur حودور","other_names":{"name:ar":"حودور","name:en":"Hudur District","name:fr":"Hudur"},"display_name":"Xudur حودور, Bakool باكول, Koonfur Galbeed جنوب غرب, Soomaaliya الصومال","address":{"county":"Xudur حودور","state":"Bakool باكول","ISO3166-2-lvl5":"SO-BK","country":"Soomaaliya الصومال","country_code":"so"},"osm_type":"relation","osm_id":1720141,"type":"administrative","location":[43.9925003,3.9850001500000003],"bbox":[43.2799988,3.6099999,44.2900009,4.48]}}
{"name":"بوراما Borama","other_names":{"name:ar":"بوراما","name:de":"Boorama","name:en":"Borama","name:es":"Boorama","name:fr":"Boorama","name:hr":"Borama","name:ko":"보라마","name:ml":"ബൊറാമ","name:ru":"Борама","name:so":"Boorama","alt_name":"Borama"},"display_name":"بوراما Borama, Borama بوراما, عدل Awdal, Soomaaliland أرض الصومال, Soomaaliya الصومال","address":{"city":"بوراما Borama","county":"Borama بوراما","state":"عدل Awdal","ISO3166-2-lvl5":"SO-AW","country":"Soomaaliland أرض الصومال","country_code":"so"},"osm_type":"node","osm_id":1404233007,"type":"city","location":[43.184119,9.9386691],"bbox":[43.024119,9.7786691,43.344119,10.0986691],"border":{"name":"Borama بوراما","other_names":{"name:ar":"بوراما","name:en":"Borama District","name:fr":"Borama","name:pt":"Borama","name:so":"Degmada Boorama","name:uk":"Борама","name:zh":"博拉馬區","name:zu":"Borama District"},"display_name":"Borama بوراما, عدل Awdal, Soomaaliland أرض الصومال, Soomaaliya الصومال","address":{"county":"Borama بوراما","state":"عدل Awdal","ISO3166-2-lvl5":"SO-AW","country":"Soomaaliland أرض الصومال","country_code":"so"},"osm_type":"relation","osm_id":1720082,"type":"administrative","location":[43.16359252091367,10.09770845],"bbox":[42.8177444,9.6736703,43.4259679,10.5299997]}}
