{"name":"Albert-Eden","other_names":{"name:mk":"Алберт-Идн"},"display_name":"Albert-Eden, Auckland, New Zealand / Aotearoa","address":{"city":"Albert-Eden","state":"Auckland","ISO3166-2-lvl4":"NZ-AUK","country":"New Zealand / Aotearoa","country_code":"nz"},"population":101600,"osm_type":"relation","osm_id":2099959,"type":"administrative","location":[174.7313660246802,-36.8701997],"bbox":[174.6907135,-36.9058695,174.8024074,-36.833987],"inferred_type":"city"}
{"name":"Aotea Great Barrier","display_name":"Aotea Great Barrier, Auckland, 0991, New Zealand / Aotearoa","address":{"city":"Aotea Great Barrier","state":"Auckland","ISO3166-2-lvl4":"NZ-AUK","postcode":"0991","country":"New Zealand / Aotearoa","country_code":"nz"},"population":990,"osm_type":"relation","osm_id":2684671,"type":"administrative","location":[175.37128521163618,-36.13990645],"bbox":[174.9780593,-36.5366714,175.9032151,-35.7397068],"inferred_type":"city"}
{"name":"Auckland","other_names":{"name:af":"Auckland","name:am":"ኦክለንድ፣ ኒው ዚላንድ","name:an":"Auckland","name:ar":"أوكلاند","name:az":"Oklənd","name:be":"Окленд","name:bg":"Окланд","name:bh":"ऑकलैंड","name:bn":"অকল্যান্ড","name:br":"Auckland","name:ca":"Auckland","name:ce":"Окленд","name:cs":"Auckland","name:cu":"Окландъ","name:cy":"Auckland","name:da":"Auckland","name:de":"Auckland","name:el":"Όκλαντ","name:en":"Auckland","name:eo":"Aŭklando","name:es":"Auckland","name:et":"Auckland","name:eu":"Auckland","name:fi":"Auckland","name:fj":"Okaladi","name:fo":"Auckland","name:fr":"Auckland","name:fy":"Auckland","name:ga":"Auckland","name:gd":"Auckland","name:gl":"Auckland","name:gu":"ઓકલેન્ડ","name:ha":"Auckland","name:he":"אוקלנד","name:hi":"ऑक्लैण्ड","name:hr":"Auckland","name:hu":"Auckland","name:hy":"Օքլենդ","name:id":"Auckland","name:ie":"Auckland","name:io":"Auckland","name:is":"Auckland","name:it":"Auckland","name:ja":"オークランド","name:jv":"Auckland","name:ka":"ოკლენდი","name:kn":"ಆಕ್ಲೆಂಡ್‌","name:ko":"오클랜드","name:kv":"Окленд","name:ky":"Окленд","name:la":"Aucopolis","name:lv":"Oklenda","name:mi":"Tāmaki Makaurau","name:mk":"Окленд","name:ml":"ഓക്‌ലൻഡ്","name:mn":"Окленд","name:mr":"ऑकलंड","name:ms":"Auckland","name:my":"အော့ကလန်မြို့","name:na":"Auckland","name:nl":"Auckland","name:nn":"Auckland","name:no":"Auckland","name:oc":"Auckland","name:os":"Окленд","name:pa":"ਆਕਲੈਂਡ","name:pl":"Auckland","name:ps":"اوکلنډ","name:pt":"Auckland","name:qu":"Awklanda","name:ro":"Auckland","name:ru":"Окленд","name:sc":"Auckland","name:sh":"Auckland","name:sk":"Auckland","name:sm":"Aukilani","name:sr":"Окланд","name:sv":"Auckland","name:sw":"Auckland","name:ta":"ஓக்லாந்து","name:te":"ఆక్లాండ్","name:th":"ออกแลนด์","name:to":"‘Okalani","name:tr":"Auckland","name:tt":"Окленд","name:ug":"ئاۋكلاند","name:uk":"Окленд","name:ur":"آکلینڈ","name:uz":"Oklend","name:vi":"Auckland","name:vo":"Auckland","name:zh":"奥克兰","loc_name":"Akl","name:ang":"Aucland","name:ast":"Auckland","name:ceb":"Auckland","name:ckb":"ئۆکلاند","name:haw":"‘Aukelana","name:kab":"Auckland","name:scn":"Auckland","name:sco":"Auckland","name:smn":"Auckland","name:war":"Auckland","alt_name:mi":"Ākarana","alt_name:mk":"Окланд","name:uk-t-en":"Окленд"},"display_name":"Auckland, Waitematā, Auckland, 1010, New Zealand / Aotearoa","address":{"city":"Auckland","state":"Auckland","ISO3166-2-lvl4":"NZ-AUK","postcode":"1010","country":"New Zealand / Aotearoa","country_code":"nz"},"population":1463000,"osm_type":"node","osm_id":292806332,"type":"city","location":[174.7631803,-36.852095],"bbox":[174.6031803,-37.012095,174.9231803,-36.692095],"border":{"name":"Auckland","other_names":{"ref":"AUK","name:ar":"أوكلاند","name:en":"Auckland","name:ja":"オークランド","name:ko":"오클랜드","name:mi":"Tāmaki Makaurau","name:mk":"Окленд","loc_name":"Akl","alt_name:mi":"Ākarana","alt_name:mk":"Окланд"},"display_name":"Auckland, New Zealand / Aotearoa","address":{"administrative":"Auckland","country":"New Zealand / Aotearoa","country_code":"nz"},"population":1642800,"osm_type":"relation","osm_id":17000522,"type":"administrative","location":[174.5506104914412,-36.5412811],"bbox":[173.8963284,-37.3644738,175.9032151,-35.6983921]}}
{"name":"Christchurch","other_names":{"name:ar":"كرايستشرش","name:bn":"ক্রাইস্টচার্চ","name:en":"Christchurch","name:fa":"کرایست‌چرچ","name:hi":"क्राइस्टचर्च","name:ja":"クライストチャーチ","name:ko":"크라이스트처치","name:mi":"Ōtautahi","name:mk":"Крајстчерч","name:ru":"Крайстчерч","name:sd":"ڪرائسٽ چرچ","name:sr":"Крајстчерч","name:uk":"Крайстчерч","name:ur":"کرائسٹ چرچ","name:zh":"基督城","loc_name":"Christ;Chch","name:pnb":"کرائسٹ چرچ","alt_name:ar":"كرايستشيرش;كريس تشيرش;كريستشيرش;كريستتشيرش;كريست تشيرش","alt_name:fa":"کرایست چرچ","name:uk-t-en":"Крайстчерч","alt_name:uk-t-mi":"Отаутаї"},"display_name":"Christchurch, Christchurch City, Canterbury, New Zealand / Aotearoa","address":{"city":"Christchurch","county":"Christchurch City","state":"Canterbury","ISO3166-2-lvl4":"NZ-CAN","country":"New Zealand / Aotearoa","country_code":"nz"},"population":380600,"osm_type":"node","osm_id":599776877,"type":"city","location":[172.6364343,-43.530955],"bbox":[172.4764343,-43.690955,172.7964343,-43.370955],"border":{"name":"Christchurch","other_names":{"name:ar":"كرايستشرش","name:bn":"ক্রাইস্টচার্চ","name:en":"Christchurch","name:eo":"Kristkirko","name:fa":"کرایست‌چرچ","name:mi":"Ōtautahi","name:mk":"Крајстчерч","name:sd":"ڪرائسٽ چرچ","name:ur":"کرائسٹ چرچ","loc_name":"Christ;Chch","name:pnb":"کرائسٹ چرچ","alt_name:ar":"كرايستشيرش;كريس تشيرش;كريستشيرش;كريستتشيرش;كريست تشيرش","alt_name:fa":"کرایست چرچ","name:hi":"क्राइस्टचर्च","name:ja":"クライストチャーチ","name:ko":"크라이스트처치","name:ru":"Крайстчерч","name:sr":"Крајстчерч","name:uk":"Крайстчерч","name:zh":"基督城","name:uk-t-en":"Крайстчерч","alt_name:uk-t-mi":"Отаутаї"},"display_name":"Christchurch, Christchurch City, Canterbury, New Zealand / Aotearoa","address":{"city":"Christchurch","county":"Christchurch City","state":"Canterbury","ISO3166-2-lvl4":"NZ-CAN","country":"New Zealand / Aotearoa","country_code":"nz"},"population":380600,"osm_type":"relation","osm_id":2730349,"type":"administrative","location":[172.6364343,-43.530955],"bbox":[172.3890817,-43.6391034,172.8089321,-43.3797324]}}
{"name":"Devonport-Takapuna","other_names":{"name:mk":"Девонпорт-Такапуна"},"display_name":"Devonport-Takapuna, Auckland, New Zealand / Aotearoa","address":{"city":"Devonport-Takapuna","state":"Auckland","ISO3166-2-lvl4":"NZ-AUK","country":"New Zealand / Aotearoa","country_code":"nz"},"population":59700,"osm_type":"relation","osm_id":2097016,"type":"administrative","location":[174.78749247594877,-36.79196745],"bbox":[174.7287026,-36.8389847,174.8221903,-36.7448254],"inferred_type":"city"}
{"name":"Dunedin","other_names":{"name:en":"Dunedin","name:ja":"ダニーデン","name:ko":"더니든","name:mi":"Ōtepoti","name:mk":"Данидн","name:ru":"Данидин","name:uk":"Данідін","name:zh":"达尼丁","name:uk-t-en":"Данідін"},"display_name":"Dunedin, Dunedin City, Otago, 9054, New Zealand / Aotearoa","address":{"city":"Dunedin","county":"Dunedin City","state":"Otago","ISO3166-2-lvl4":"NZ-OTA","postcode":"9054","country":"New Zealand / Aotearoa","country_code":"nz"},"population":105000,"osm_type":"node","osm_id":1037917163,"type":"city","location":[170.5035755,-45.8740984],"bbox":[170.3435755,-46.0340984,170.6635755,-45.7140984]}
{"name":"Franklin","other_names":{"name:mk":"Френклин"},"display_name":"Franklin, Auckland, New Zealand / Aotearoa","address":{"city":"Franklin","state":"Auckland","ISO3166-2-lvl4":"NZ-AUK","country":"New Zealand / Aotearoa","country_code":"nz"},"population":78700,"osm_type":"relation","osm_id":4430236,"type":"administrative","location":[174.64801803993322,-37.1034164],"bbox":[174.2524638,-37.3644738,175.3886452,-36.8422559],"inferred_type":"city"}
{"name":"Gisborne","other_names":{"name:en":"Gisborne","name:ja":"ギズボーン","name:mi":"Tūranganui-a-Kiwa","name:mk":"Гизборн","name:ru":"Гисборн","name:uk":"Гізбурн","name:zh":"吉斯伯恩","name:uk-t-en":"Гізбурн","name:zh-Hant":"吉斯伯恩","alt_name:uk-t-mi":"Туранга-нуї-а-Ківа"},"display_name":"Gisborne, Gisborne District, Gisborne, 4010, New Zealand / Aotearoa","address":{"city":"Gisborne","county":"Gisborne District","state":"Gisborne","ISO3166-2-lvl4":"NZ-GIS","postcode":"4010","country":"New Zealand / Aotearoa","country_code":"nz"},"population":37300,"osm_type":"node","osm_id":60269696,"type":"city","location":[178.0206487,-38.661326],"bbox":[177.8606487,-38.821326,178.1806487,-38.501326]}
{"name":"Hamilton","other_names":{"name:en":"Hamilton","name:ja":"ハミルトン","name:mi":"Kirikiriroa","name:mk":"Хамилтон","name:ru":"Гамильтон","name:uk":"Гамільтон","name:zh":"哈密尔顿","name:ckb":"هامیڵتۆن","name:uk-t-en":"Гамільтон","name:zh-Hans":"哈密尔顿","alt_name:uk-t-mi":"Кірікіріроа"},"display_name":"Hamilton, Hamilton City, Waikato, New Zealand / Aotearoa","address":{"city":"Hamilton","state":"Waikato","ISO3166-2-lvl4":"NZ-WKO","country":"New Zealand / Aotearoa","country_code":"nz"},"population":178500,"osm_type":"node","osm_id":60729033,"type":"city","location":[175.281788,-37.7878809],"bbox":[175.121788,-37.9478809,175.441788,-37.6278809],"border":{"name":"Hamilton City","other_names":{"name:mk":"Град Хамилтон","name:en":"Hamilton","name:ja":"ハミルトン","name:mi":"Kirikiriroa","name:ru":"Гамильтон","name:uk":"Гамільтон","name:zh":"哈密尔顿","name:ckb":"هامیڵتۆن","name:uk-t-en":"Гамільтон","name:zh-Hans":"哈密尔顿","alt_name:uk-t-mi":"Кірікіріроа","alt":"Hamilton","alt:mk":"Хамилтон"},"display_name":"Hamilton City, Waikato, New Zealand / Aotearoa","address":{"city":"Hamilton City","state":"Waikato","ISO3166-2-lvl4":"NZ-WKO","country":"New Zealand / Aotearoa","country_code":"nz"},"population":169500,"osm_type":"relation","osm_id":2595124,"type":"administrative","location":[175.281788,-37.7878809],"bbox":[175.1843007,-37.846039,175.3448766,-37.6993298]}}
{"name":"Hastings","other_names":{"name:en":"Hastings","name:ja":"ヘイスティングズ","name:mi":"Heretaunga","name:mk":"Хејстингс","name:ru":"Хейстингс","name:uk":"Хейстінгс","name:zh":"哈斯丁","old_name":"Karamu","name:uk-t-en":"Хейстінгс"},"display_name":"Hastings, Hastings District, Hawke's Bay, 4122, New Zealand / Aotearoa","address":{"city":"Hastings","county":"Hastings District","state":"Hawke's Bay","ISO3166-2-lvl4":"NZ-HKB","postcode":"4122","country":"New Zealand / Aotearoa","country_code":"nz"},"population":50100,"osm_type":"node","osm_id":56097888,"type":"city","location":[176.8430781,-39.6417678],"bbox":[176.6830781,-39.8017678,177.0030781,-39.4817678],"border":{"name":"Hastings District","other_names":{"name:mk":"Хејстингс"},"display_name":"Hastings District, Hawke's Bay, New Zealand / Aotearoa","address":{"county":"Hastings District","state":"Hawke's Bay","ISO3166-2-lvl4":"NZ-HKB","country":"New Zealand / Aotearoa","country_code":"nz"},"population":85000,"osm_type":"relation","osm_id":4293642,"type":"administrative","location":[176.61340175822457,-39.3740625],"bbox":[176.1427264,-39.8926274,177.096017,-38.8559556]}}
{"name":"Henderson-Massey","other_names":{"name:mk":"Хендерсон-Меси"},"display_name":"Henderson-Massey, Auckland, New Zealand / Aotearoa","address":{"city":"Henderson-Massey","state":"Auckland","ISO3166-2-lvl4":"NZ-AUK","country":"New Zealand / Aotearoa","country_code":"nz"},"population":123300,"osm_type":"relation","osm_id":2684618,"type":"administrative","location":[174.6299053431075,-36.84899675],"bbox":[174.5813104,-36.9047818,174.6947701,-36.793261],"inferred_type":"city"}
{"name":"Hibiscus and Bays","other_names":{"name:en":"Hibiscus and Bays","name:mk":"Хибискус и Заливи","alt_name:mk":"Хибискус и Бејс"},"display_name":"Hibiscus and Bays, Auckland, New Zealand / Aotearoa","address":{"city":"Hibiscus and Bays","state":"Auckland","ISO3166-2-lvl4":"NZ-AUK","country":"New Zealand / Aotearoa","country_code":"nz"},"population":109900,"osm_type":"relation","osm_id":2104476,"type":"administrative","location":[174.78357940060167,-36.6466293],"bbox":[174.6600669,-36.7582874,174.9872177,-36.5366714],"inferred_type":"city"}
{"name":"Hibiscus Coast","other_names":{"name:mk":"Хибискус Коуст"},"display_name":"Hibiscus Coast, Hibiscus and Bays, Auckland, 0931, New Zealand / Aotearoa","address":{"city":"Hibiscus Coast","state":"Auckland","ISO3166-2-lvl4":"NZ-AUK","postcode":"0931","country":"New Zealand / Aotearoa","country_code":"nz"},"osm_type":"node","osm_id":6031504691,"type":"city","location":[174.7086237,-36.6095336],"bbox":[174.5486237,-36.7695336,174.8686237,-36.4495336]}
{"name":"Howick","other_names":{"name:en":"Howick","name:mk":"Хауик"},"display_name":"Howick, Auckland, New Zealand / Aotearoa","address":{"city":"Howick","state":"Auckland","ISO3166-2-lvl4":"NZ-AUK","country":"New Zealand / Aotearoa","country_code":"nz"},"population":146800,"osm_type":"relation","osm_id":2098359,"type":"administrative","location":[174.89941610095153,-36.92380915],"bbox":[174.8564598,-37.0017301,174.9684263,-36.845782],"inferred_type":"city"}
{"name":"Invercargill","other_names":{"name:en":"Invercargill","name:gd":"Inbhir Chargaill","name:ja":"インバーカーギル","name:mi":"Waihōpai","name:mk":"Инверкаргил","name:ru":"Инверкаргилл","name:zh":"因弗卡吉尔","loc_name":"Invers"},"display_name":"Invercargill, Invercargill City, Southland, New Zealand / Aotearoa","address":{"city":"Invercargill","state":"Southland","ISO3166-2-lvl4":"NZ-STL","country":"New Zealand / Aotearoa","country_code":"nz"},"population":49900,"osm_type":"node","osm_id":966608500,"type":"city","location":[168.3470632,-46.4118465],"bbox":[168.1870632,-46.5718465,168.5070632,-46.2518465],"border":{"name":"Invercargill City","other_names":{"name:en":"Invercargill City","name:mi":"Waihōpai","name:mk":"Град Инверкаргил","name:gd":"Inbhir Chargaill","name:ja":"インバーカーギル","name:ru":"Инверкаргилл","name:zh":"因弗卡吉尔","loc_name":"Invers","alt":"Invercargill","alt:en":"Invercargill","alt:mk":"Инверкаргил"},"display_name":"Invercargill City, Southland, New Zealand / Aotearoa","address":{"city":"Invercargill City","state":"Southland","ISO3166-2-lvl4":"NZ-STL","country":"New Zealand / Aotearoa","country_code":"nz"},"population":56200,"osm_type":"relation","osm_id":1656388,"type":"administrative","location":[168.3470632,-46.4118465],"bbox":[168.1954027,-46.6255852,168.542778,-46.3221671]}}
{"name":"Kaipātiki","other_names":{"name:mi":"Kaipātiki","name:mk":"Каипатики"},"display_name":"Kaipātiki, Auckland, New Zealand / Aotearoa","address":{"city":"Kaipātiki","state":"Auckland","ISO3166-2-lvl4":"NZ-AUK","country":"New Zealand / Aotearoa","country_code":"nz"},"population":92000,"osm_type":"relation","osm_id":2094145,"type":"administrative","location":[174.71673355945467,-36.79451525],"bbox":[174.674601,-36.8357128,174.7630583,-36.753525],"inferred_type":"city"}
{"name":"Lower Hutt","other_names":{"name:ja":"ロワーハット","name:mi":"Awakairangi","name:mk":"Долен Хат","alt_name:mk":"Лоуер Хат"},"display_name":"Lower Hutt, Lower Hutt City, Wellington, 5010, New Zealand / Aotearoa","address":{"city":"Lower Hutt","county":"Lower Hutt City","state":"Wellington","ISO3166-2-lvl4":"NZ-WGN","postcode":"5010","country":"New Zealand / Aotearoa","country_code":"nz"},"population":111800,"osm_type":"node","osm_id":57871098,"type":"city","location":[174.9057626,-41.2125751],"bbox":[174.7457626,-41.3725751,175.0657626,-41.0525751]}
{"name":"Māngere-Ōtāhuhu","other_names":{"name:mi":"Māngere-Ōtāhuhu","name:mk":"Мангере-Отахуху"},"display_name":"Māngere-Ōtāhuhu, Auckland, New Zealand / Aotearoa","address":{"city":"Māngere-Ōtāhuhu","state":"Auckland","ISO3166-2-lvl4":"NZ-AUK","country":"New Zealand / Aotearoa","country_code":"nz"},"population":81900,"osm_type":"relation","osm_id":2094146,"type":"administrative","location":[174.7613720126593,-36.98350405],"bbox":[174.6831969,-37.0395195,174.8684077,-36.9277859],"inferred_type":"city"}
{"name":"Manurewa","other_names":{"name:mi":"Manurewa","name:mk":"Манурева"},"display_name":"Manurewa, Auckland, New Zealand / Aotearoa","address":{"city":"Manurewa","state":"Auckland","ISO3166-2-lvl4":"NZ-AUK","country":"New Zealand / Aotearoa","country_code":"nz"},"population":100300,"osm_type":"relation","osm_id":2104485,"type":"administrative","location":[174.88865968963015,-37.0241501],"bbox":[174.8371384,-37.0605627,174.935391,-36.9885922],"inferred_type":"city"}
{"name":"Maungakiekie-Tāmaki","other_names":{"name:mi":"Maungakiekie-Tāmaki","name:mk":"Маунгакиекие-Тамаки"},"display_name":"Maungakiekie-Tāmaki, Auckland, New Zealand / Aotearoa","address":{"city":"Maungakiekie-Tāmaki","state":"Auckland","ISO3166-2-lvl4":"NZ-AUK","country":"New Zealand / Aotearoa","country_code":"nz"},"population":79500,"osm_type":"relation","osm_id":1638974,"type":"administrative","location":[174.845037518297,-36.9022624],"bbox":[174.767194,-36.9383718,174.8870416,-36.866132],"inferred_type":"city"}
{"name":"Napier","other_names":{"name:en":"Napier","name:ja":"ネーピア","name:mi":"Ahuriri","name:mk":"Нејпиер","name:ru":"Нейпир","name:uk":"Нейпір","name:zh":"纳皮尔","name:uk-t-en":"Нейпір","name:zh-Hans":"纳皮尔","name:zh-Hant":"納皮爾"},"display_name":"Napier, Napier City, Hawke's Bay, New Zealand / Aotearoa","address":{"city":"Napier","state":"Hawke's Bay","ISO3166-2-lvl4":"NZ-HKB","country":"New Zealand / Aotearoa","country_code":"nz"},"population":66700,"osm_type":"node","osm_id":56097668,"type":"city","location":[176.917839,-39.4902099],"bbox":[176.757839,-39.6502099,177.077839,-39.3302099],"border":{"name":"Napier City","other_names":{"name:mk":"Град Нејпиер","name:en":"Napier","name:ja":"ネーピア","name:mi":"Ahuriri","name:ru":"Нейпир","name:uk":"Нейпір","name:zh":"纳皮尔","name:uk-t-en":"Нейпір","name:zh-Hans":"纳皮尔","name:zh-Hant":"納皮爾","alt":"Napier","alt:mk":"Нејпиер"},"display_name":"Napier City, Hawke's Bay, New Zealand / Aotearoa","address":{"city":"Napier City","state":"Hawke's Bay","ISO3166-2-lvl4":"NZ-HKB","country":"New Zealand / Aotearoa","country_code":"nz"},"population":65000,"osm_type":"relation","osm_id":2731991,"type":"administrative","location":[176.917839,-39.4902099],"bbox":[176.8112659,-39.5704655,176.9259305,-39.3881932]}}
{"name":"Nelson","other_names":{"name:en":"Nelson","name:fa":"نلسون","name:ja":"ネルソン","name:mi":"Whakatū","name:mk":"Нелсон","name:ru":"Нельсон","name:uk":"Нельсон","name:zh":"尼尔逊","alt_name":"Whakatū","name:ckb":"نیڵسۆن","name:uk-t-en":"Нельсон","name:zh-Hans":"尼尔逊","name:zh-Hant":"尼爾遜"},"display_name":"Nelson, Nelson City, Nelson, New Zealand / Aotearoa","address":{"city":"Nelson","state":"Nelson","ISO3166-2-lvl4":"NZ-NSN","country":"New Zealand / Aotearoa","country_code":"nz"},"population":51100,"osm_type":"node","osm_id":53190047,"type":"city","location":[173.2836756,-41.2710849],"bbox":[173.1236756,-41.4310849,173.4436756,-41.1110849],"border":{"name":"Nelson City","other_names":{"name:en":"Nelson","name:fa":"نلسون","name:ja":"ネルソン","name:mi":"Whakatū","name:mk":"Нелсон","name:ru":"Нельсон","name:uk":"Нельсон","name:zh":"尼尔逊","alt_name":"Whakatū","name:ckb":"نیڵسۆن","name:uk-t-en":"Нельсон","name:zh-Hans":"尼尔逊","name:zh-Hant":"尼爾遜","alt":"Nelson"},"display_name":"Nelson City, Nelson, New Zealand / Aotearoa","address":{"city":"Nelson City","state":"Nelson","ISO3166-2-lvl4":"NZ-NSN","country":"New Zealand / Aotearoa","country_code":"nz"},"population":51100,"osm_type":"relation","osm_id":17000449,"type":"administrative","location":[173.2836756,-41.2710849],"bbox":[173.1898574,-41.3934269,173.5987618,-41.0517529]}}
{"name":"New Plymouth","other_names":{"name:en":"New Plymouth","name:ja":"ニュープリマス","name:mi":"Ngāmotu","name:mk":"Њу Плимут","name:ru":"Нью-Плимут","name:uk":"Нью-Плімут","name:zh":"新普利茅斯","name:uk-t-en":"Нью-Плімут","name:zh-Hans":"新普利茅斯","alt_name:uk-t-mi":"Нґамоту"},"display_name":"New Plymouth, New Plymouth District, Taranaki, 4310, New Zealand / Aotearoa","address":{"city":"New Plymouth","county":"New Plymouth District","state":"Taranaki","ISO3166-2-lvl4":"NZ-TKI","postcode":"4310","country":"New Zealand / Aotearoa","country_code":"nz"},"population":58400,"osm_type":"node","osm_id":60024508,"type":"city","location":[174.0806474,-39.0579941],"bbox":[173.9206474,-39.2179941,174.2406474,-38.8979941],"border":{"name":"New Plymouth District","other_names":{"name:mk":"Њу Плимут"},"display_name":"New Plymouth District, Taranaki, New Zealand / Aotearoa","address":{"county":"New Plymouth District","state":"Taranaki","ISO3166-2-lvl4":"NZ-TKI","country":"New Zealand / Aotearoa","country_code":"nz"},"population":84400,"osm_type":"relation","osm_id":4308094,"type":"administrative","location":[174.45442503484378,-39.0023188],"bbox":[173.8193781,-39.2960428,174.8628964,-38.7064173]}}
{"name":"Ōrākei","other_names":{"name:mi":"Ōrākei","name:mk":"Оракеи"},"display_name":"Ōrākei, Auckland, New Zealand / Aotearoa","address":{"city":"Ōrākei","state":"Auckland","ISO3166-2-lvl4":"NZ-AUK","country":"New Zealand / Aotearoa","country_code":"nz"},"population":87200,"osm_type":"relation","osm_id":2094147,"type":"administrative","location":[174.81441538642713,-36.870288],"bbox":[174.7795509,-36.9070066,174.8955839,-36.8334829],"inferred_type":"city"}
{"name":"Ōtara-Papatoetoe","other_names":{"name:mi":"Ōtara-Papatoetoe","name:mk":"Отара-Папатоетое"},"display_name":"Ōtara-Papatoetoe, Auckland, New Zealand / Aotearoa","address":{"city":"Ōtara-Papatoetoe","state":"Auckland","ISO3166-2-lvl4":"NZ-AUK","country":"New Zealand / Aotearoa","country_code":"nz"},"population":89000,"osm_type":"relation","osm_id":2094148,"type":"administrative","location":[174.85937085392496,-36.99220885],"bbox":[174.8073217,-37.0454974,174.9050769,-36.9389202],"inferred_type":"city"}
{"name":"Palmerston North","other_names":{"name:en":"Palmerston North","name:ja":"パーマストンノース","name:mi":"Te Papa-i-Oea","name:mk":"Палмерстон Норт","name:ru":"Палмерстон-Норт","name:uk":"Палмерстон-Норт","name:zh":"北帕莫斯顿","alt_name":"Papaioea","loc_name":"Palms;Palmy","name:uk-t-en":"Палмерстон-Норт","name:zh-Hans":"北帕莫斯顿"},"display_name":"Palmerston North, Palmerston North City, Manawatū-Whanganui, New Zealand / Aotearoa","address":{"city":"Palmerston North","state":"Manawatū-Whanganui","ISO3166-2-lvl4":"NZ-MWT","country":"New Zealand / Aotearoa","country_code":"nz"},"population":81800,"osm_type":"node","osm_id":56095285,"type":"city","location":[175.6112388,-40.356317],"bbox":[175.4512388,-40.516317,175.7712388,-40.196317],"border":{"name":"Palmerston North City","other_names":{"name:mk":"Град Палмерстон Норт","name:en":"Palmerston North","name:ja":"パーマストンノース","name:mi":"Te Papa-i-Oea","name:ru":"Палмерстон-Норт","name:uk":"Палмерстон-Норт","name:zh":"北帕莫斯顿","alt_name":"Papaioea","loc_name":"Palms;Palmy","name:uk-t-en":"Палмерстон-Норт","name:zh-Hans":"北帕莫斯顿","alt":"Palmerston North","alt:mk":"Палмерстон Норт"},"display_name":"Palmerston North City, Manawatū-Whanganui, New Zealand / Aotearoa","address":{"city":"Palmerston North City","state":"Manawatū-Whanganui","ISO3166-2-lvl4":"NZ-MWT","country":"New Zealand / Aotearoa","country_code":"nz"},"population":90500,"osm_type":"relation","osm_id":3440209,"type":"administrative","location":[175.6112388,-40.356317],"bbox":[175.4973346,-40.5296853,175.7905923,-40.2680773]}}
{"name":"Papakura","other_names":{"name:mi":"Papakura","name:mk":"Папакура","loc_name":"Kura"},"display_name":"Papakura, Auckland, New Zealand / Aotearoa","address":{"city":"Papakura","state":"Auckland","ISO3166-2-lvl4":"NZ-AUK","country":"New Zealand / Aotearoa","country_code":"nz"},"population":61700,"osm_type":"relation","osm_id":2104484,"type":"administrative","location":[174.94454204129454,-37.05995995],"bbox":[174.8988932,-37.1109008,174.9912212,-37.0105886],"inferred_type":"city"}
{"name":"Porirua","other_names":{"name:ca":"Porirua","name:de":"Porirua","name:en":"Porirua","name:es":"Porirua","name:fi":"Porirua","name:fr":"Porirua","name:gd":"Porirua","name:hi":"पोरिरुआ","name:id":"Porirua","name:it":"Porirua","name:ja":"ポリルア","name:ka":"პორირუა","name:ko":"포리루아","name:mg":"Porirua","name:mi":"Pari-ā-Rua","name:mk":"Порируа","name:ms":"Porirua","name:nn":"Porirua","name:no":"Porirua","name:pl":"Porirua","name:pt":"Porirua","name:ru":"Порируа","name:sm":"Porirua","name:sw":"Porirua","name:uk":"Поріруа","name:vo":"Porirua","name:zh":"普罗鲁阿","name:arz":"بوريريوا","name:ceb":"Porirua (lungsod)","name:uk-t-mi":"Поріруа"},"display_name":"Porirua, Porirua City, Wellington, 5022, New Zealand / Aotearoa","address":{"city":"Porirua","county":"Porirua City","state":"Wellington","ISO3166-2-lvl4":"NZ-WGN","postcode":"5022","country":"New Zealand / Aotearoa","country_code":"nz"},"population":61900,"osm_type":"node","osm_id":57805233,"type":"city","location":[174.8397824,-41.1354217],"bbox":[174.6797824,-41.2954217,174.9997824,-40.9754217]}
{"name":"Puketāpapa","other_names":{"name:mi":"Puketāpapa","name:mk":"Пукетапапа"},"display_name":"Puketāpapa, Auckland, New Zealand / Aotearoa","address":{"city":"Puketāpapa","state":"Auckland","ISO3166-2-lvl4":"NZ-AUK","country":"New Zealand / Aotearoa","country_code":"nz"},"population":59000,"osm_type":"relation","osm_id":2099950,"type":"administrative","location":[174.7236675822835,-36.94204105],"bbox":[174.6831969,-36.9892366,174.7754642,-36.8948525],"inferred_type":"city"}
{"name":"Rodney","other_names":{"name:mk":"Родни"},"display_name":"Rodney, Auckland, New Zealand / Aotearoa","address":{"city":"Rodney","state":"Auckland","ISO3166-2-lvl4":"NZ-AUK","country":"New Zealand / Aotearoa","country_code":"nz"},"population":70400,"osm_type":"relation","osm_id":2684619,"type":"administrative","location":[174.69315737269454,-36.2890472],"bbox":[173.8963284,-36.8794543,175.2656838,-35.6983921],"inferred_type":"city"}
{"name":"Rotorua","other_names":{"name:en":"Rotorua","name:ja":"ロトルア","name:mi":"Rotorua-nui-a-Kahumatamomoe","name:mk":"Роторуа","name:ru":"Роторуа","name:uk":"Роторуа","name:zh":"罗托路亚","name:uk-t-mi":"Роторуа","name:zh-Hans":"罗托路亚"},"display_name":"Rotorua, Rotorua Lakes District, Bay of Plenty, 3010, New Zealand / Aotearoa","address":{"city":"Rotorua","county":"Rotorua Lakes District","state":"Bay of Plenty","ISO3166-2-lvl4":"NZ-BOP","postcode":"3010","country":"New Zealand / Aotearoa","country_code":"nz"},"population":58400,"osm_type":"node","osm_id":53445867,"type":"city","location":[176.252922,-38.1381493],"bbox":[176.092922,-38.2981493,176.412922,-37.9781493],"border":{"name":"Rotorua Lakes District","other_names":{"name:mk":"Роторуа","alt_name":"Rotorua District"},"display_name":"Rotorua Lakes District, Bay of Plenty, New Zealand / Aotearoa","address":{"county":"Rotorua Lakes District","state":"Bay of Plenty","ISO3166-2-lvl4":"NZ-BOP","country":"New Zealand / Aotearoa","country_code":"nz"},"population":77400,"osm_type":"relation","osm_id":4266705,"type":"administrative","location":[176.357926301078,-38.2457586],"bbox":[175.9817466,-38.5686983,176.6151742,-37.9369632]}}
{"name":"Tauranga","other_names":{"name:en":"Tauranga","name:ja":"タウランガ","name:mi":"Tauranga-moana","name:mk":"Тауранга","name:ru":"Тауранга","name:uk":"Тауранга","name:zh":"陶朗加","name:uk-t-mi":"Тауранга","name:zh-Hans":"陶朗加","name:zh-Hant":"陶蘭加"},"display_name":"Tauranga, Tauranga City, Bay of Plenty, 3110, New Zealand / Aotearoa","address":{"city":"Tauranga","county":"Tauranga City","state":"Bay of Plenty","ISO3166-2-lvl4":"NZ-BOP","postcode":"3110","country":"New Zealand / Aotearoa","country_code":"nz"},"population":155200,"osm_type":"node","osm_id":60130164,"type":"city","location":[176.167505,-37.6859006],"bbox":[176.007505,-37.8459006,176.327505,-37.5259006]}
{"name":"Upper Harbour","other_names":{"name:en":"Upper Harbour","name:mk":"Апер Харбор"},"display_name":"Upper Harbour, Auckland, New Zealand / Aotearoa","address":{"city":"Upper Harbour","state":"Auckland","ISO3166-2-lvl4":"NZ-AUK","country":"New Zealand / Aotearoa","country_code":"nz"},"population":66900,"osm_type":"relation","osm_id":2104449,"type":"administrative","location":[174.67578390466832,-36.7640365],"bbox":[174.5911525,-36.8256368,174.7423116,-36.7024674],"inferred_type":"city"}
{"name":"Upper Hutt","other_names":{"name:en":"Upper Hutt","name:ja":"アッパーハット","name:mi":"Whakatiki","name:mk":"Горен Хат","name:ru":"Аппер-Хатт","name:uk":"Апер-Хат","alt_name:mk":"Апер Хат","name:uk-t-en":"Апер-Хат"},"display_name":"Upper Hutt, Upper Hutt City, Wellington, 5218, New Zealand / Aotearoa","address":{"city":"Upper Hutt","county":"Upper Hutt City","state":"Wellington","ISO3166-2-lvl4":"NZ-WGN","postcode":"5218","country":"New Zealand / Aotearoa","country_code":"nz"},"population":44600,"osm_type":"node","osm_id":178326720,"type":"city","location":[175.0699589,-41.1240674],"bbox":[174.9099589,-41.2840674,175.2299589,-40.9640674]}
{"name":"Waiheke","other_names":{"name:ar":"واهيكي","name:mi":"Waiheke","name:mk":"Ваихеке"},"display_name":"Waiheke, Auckland, New Zealand / Aotearoa","address":{"city":"Waiheke","state":"Auckland","ISO3166-2-lvl4":"NZ-AUK","country":"New Zealand / Aotearoa","country_code":"nz"},"population":9330,"osm_type":"relation","osm_id":2684668,"type":"administrative","location":[175.0520126652856,-36.7299563],"bbox":[174.8192258,-36.9362626,175.361537,-36.5239336],"inferred_type":"city"}
{"name":"Waitākere Ranges","other_names":{"name:en":"Waitākere Ranges","name:mk":"Венец Ваитакере"},"display_name":"Waitākere Ranges, Auckland, New Zealand / Aotearoa","address":{"city":"Waitākere Ranges","state":"Auckland","ISO3166-2-lvl4":"NZ-AUK","country":"New Zealand / Aotearoa","country_code":"nz"},"population":54000,"osm_type":"relation","osm_id":2684617,"type":"administrative","location":[174.44924139583333,-36.98294315],"bbox":[174.1729184,-37.1317903,174.6935644,-36.8328976],"inferred_type":"city"}
{"name":"Waitematā","other_names":{"name:mi":"Waitematā","name:mk":"Ваитемата"},"display_name":"Waitematā, Auckland, New Zealand / Aotearoa","address":{"city":"Waitematā","state":"Auckland","ISO3166-2-lvl4":"NZ-AUK","country":"New Zealand / Aotearoa","country_code":"nz"},"population":87100,"osm_type":"relation","osm_id":2093020,"type":"administrative","location":[174.7510003851358,-36.85383695],"bbox":[174.7086277,-36.8754683,174.7959334,-36.8322721],"inferred_type":"city"}
{"name":"Wellington","other_names":{"name:af":"Wellington","name:am":"ዌሊንግተን","name:ar":"ويلينغتون","name:az":"Vellinqton","name:be":"Велінгтан","name:bg":"Уелингтън","name:bn":"ওয়েলিংটন","name:bo":"ཝེ་ལིང་ཐོན།","name:bs":"Wellington","name:ca":"Wellington","name:cs":"Wellington","name:cv":"Веллингтон","name:da":"Wellington","name:de":"Wellington","name:el":"Ουέλλινγκτον","name:en":"Wellington","name:eo":"Velingtono","name:es":"Wellington","name:et":"Wellington","name:fa":"ولینگتون","name:fi":"Wellington","name:fr":"Wellington","name:gu":"વેલિંગ્ટન","name:he":"ולינגטון","name:hi":"वेलिंग्टन","name:hr":"Wellington","name:ht":"Welintòn","name:hu":"Wellington","name:hy":"Վելինգտոն","name:is":"Wellington","name:it":"Wellington","name:ja":"ウェリントン","name:ka":"ველინგტონი","name:kn":"ವೆಲ್ಲಿಂಗ್ಟನ್","name:ko":"웰링턴","name:ku":"Wellington","name:la":"Vellingtonia","name:lt":"Velingtonas","name:lv":"Velingtona","name:mi":"Te Whanganui-a-Tara","name:mk":"Велингтон","name:mn":"Веллингтон","name:mr":"वेलिंग्टन","name:my":"ဝယ်လင်တန်မြို့","name:nl":"Wellington","name:no":"Wellington","name:oc":"Wellington","name:os":"Веллингтон","name:pl":"Wellington","name:pt":"Wellington","name:ro":"Wellington","name:ru":"Веллингтон","name:sk":"Wellington","name:sl":"Wellington","name:sm":"Ueligitone","name:sr":"Велингтон","name:sv":"Wellington","name:ta":"வெலிங்டன், நியூசிலாந்து","name:th":"เวลลิงตัน","name:tr":"Wellington","name:ty":"Whanga-nui-a-Tara","name:ug":"ۋېللىنگتون","name:uk":"Веллінгтон","name:ur":"ویلنگٹن","name:vi":"Wellington","name:yi":"װעלינגטאן","name:zh":"惠灵顿 / 惠靈頓 / 威靈頓","int_name":"Wellington","loc_name":"Welly","name:ang":"Weolingtūn","name:arz":"ويلينجتون","name:bpy":"ৱেলিংটন","name:ckb":"وێڵینگتۆن","name:new":"वेलिंगटन","name:xmf":"ველინგთონი","name:yue":"威靈頓","name:uk-t-en":"Веллінгтон","name:zh-Hans":"惠灵顿","name:zh-Hant":"威靈頓","name:be-tarask":"Вэлінгтан","name:zh-Hant-CN":"惠靈頓","name:zh-Hant-HK":"惠靈頓","name:zh-Hant-TW":"威靈頓","alt_name:uk-t-mi":"Те Вангануї-а-Тара"},"display_name":"Wellington, Wellington City, Wellington, 6011, New Zealand / Aotearoa","address":{"city":"Wellington","county":"Wellington City","state":"Wellington","ISO3166-2-lvl4":"NZ-WGN","postcode":"6011","country":"New Zealand / Aotearoa","country_code":"nz"},"population":215900,"osm_type":"node","osm_id":204648,"type":"city","location":[174.7772114,-41.2887953],"bbox":[174.6172114,-41.4487953,174.9372114,-41.1287953],"border":{"name":"Wellington City","other_names":{"name:mk":"Град Велингтон","name:zh":"惠灵顿 / 惠靈頓 / 威靈頓","name:zh-Hans":"惠灵顿","name:zh-Hant":"威靈頓"},"display_name":"Wellington City, Wellington, New Zealand / Aotearoa","address":{"county":"Wellington City","state":"Wellington","ISO3166-2-lvl4":"NZ-WGN","country":"New Zealand / Aotearoa","country_code":"nz"},"population":210400,"osm_type":"relation","osm_id":4266321,"type":"administrative","location":[174.7184709414953,-41.25275310000001],"bbox":[174.6131062,-41.3623801,174.8954104,-41.1435402]}}
{"name":"Whanganui","other_names":{"name:ja":"ワンガヌイ","name:mi":"Whanganui","name:mk":"Фангануи","name:ru":"Уонгануи","name:zh":"旺加努伊","old_name":"Wanganui","old_name:mk":"Вангануи"},"display_name":"Whanganui, Whanganui District, Manawatū-Whanganui, 4500, New Zealand / Aotearoa","address":{"city":"Whanganui","county":"Whanganui District","state":"Manawatū-Whanganui","ISO3166-2-lvl4":"NZ-MWT","postcode":"4500","country":"New Zealand / Aotearoa","country_code":"nz"},"population":42300,"osm_type":"node","osm_id":60023047,"type":"city","location":[175.0519306,-39.9324904],"bbox":[174.8919306,-40.0924904,175.2119306,-39.7724904],"border":{"name":"Whanganui District","other_names":{"name:mk":"Фангануи","alt_name":"Wanganui District","alt_name:mk":"Вангануи"},"display_name":"Whanganui District, Manawatū-Whanganui, New Zealand / Aotearoa","address":{"county":"Whanganui District","state":"Manawatū-Whanganui","ISO3166-2-lvl4":"NZ-MWT","country":"New Zealand / Aotearoa","country_code":"nz"},"population":48400,"osm_type":"relation","osm_id":4307782,"type":"administrative","location":[175.2191773985886,-39.63574654999999],"bbox":[174.7662905,-40.0410051,175.5153573,-39.2305024]}}
{"name":"Whangārei","other_names":{"name:en":"Whangārei","name:ja":"ファンガレイ","name:mi":"Whangārei-Terenga-Parāoa","name:mk":"Фангареи","name:ru":"Фангареи","name:zh":"旺阿雷","alt_name":"Whangarei","loc_name":"The Rei"},"display_name":"Whangārei, Whangārei District, Northland, 0110, New Zealand / Aotearoa","address":{"city":"Whangārei","county":"Whangārei District","state":"Northland","ISO3166-2-lvl4":"NZ-NTL","postcode":"0110","country":"New Zealand / Aotearoa","country_code":"nz"},"population":54300,"osm_type":"node","osm_id":71374851,"type":"city","location":[174.3194202,-35.7275268],"bbox":[174.1594202,-35.8875268,174.4794202,-35.5675268],"border":{"name":"Whangārei District","other_names":{"name:mk":"Фангареи"},"display_name":"Whangārei District, Northland, New Zealand / Aotearoa","address":{"county":"Whangārei District","state":"Northland","ISO3166-2-lvl4":"NZ-NTL","country":"New Zealand / Aotearoa","country_code":"nz"},"population":96000,"osm_type":"relation","osm_id":4443591,"type":"administrative","location":[174.1391434787672,-35.694209900000004],"bbox":[173.750088,-36.0866199,174.5919352,-35.3017174]}}
{"name":"Whau","other_names":{"name:mk":"Фау"},"display_name":"Whau, Auckland, 0600, New Zealand / Aotearoa","address":{"city":"Whau","state":"Auckland","ISO3166-2-lvl4":"NZ-AUK","postcode":"0600","country":"New Zealand / Aotearoa","country_code":"nz"},"population":82600,"osm_type":"relation","osm_id":2099951,"type":"administrative","location":[174.69277634237886,-36.907050049999995],"bbox":[174.649838,-36.9782647,174.7243992,-36.8357128],"inferred_type":"city"}
