{"name":"20-солагии Истиқлолияти Точикистон","other_names":{"name:en":"20th Anniversary of Independence of Tajikistan","name:ru":"20-солагии Истиклолияти Точикистон","name:uk":"20-річчя Незалежності Таджикистану","name:uz":"20-solagii Istiqloliyati Tojikiston","old_name":"Гаравути","old_name:en":"Gharavuti","old_name:tg":"Ғаравутӣ"},"display_name":"20-солагии Истиқлолияти Точикистон, Ноҳияи Дӯстӣ, Вилояти Хатлон, 735218, Тоҷикистон","address":{"town":"20-солагии Истиқлолияти Точикистон","county":"Ноҳияи Дӯстӣ","state":"Вилояти Хатлон","ISO3166-2-lvl4":"TJ-KT","postcode":"735218","country":"Тоҷикистон","country_code":"tj"},"population":6000,"osm_type":"node","osm_id":6888584194,"type":"town","location":[68.4470961,37.5669005],"bbox":[68.4070961,37.5269005,68.4870961,37.6069005],"border":{"name":"20-солагии Истиқлолияти Точикистон","other_names":{"name:en":"20th Anniversary of Independence of Tajikistan","name:ru":"20-солагии Истиклолияти Точикистон","name:uk":"20-річчя Незалежності Таджикистану","name:uz":"20-solagii Istiqloliyati Tojikiston","old_name":"Гаравути","old_name:en":"Gharavuti","old_name:tg":"Ғаравутӣ"},"display_name":"20-солагии Истиқлолияти Точикистон, Ноҳияи Дӯстӣ, Вилояти Хатлон, 735218, Тоҷикистон","address":{"town":"20-солагии Истиқлолияти Точикистон","county":"Ноҳияи Дӯстӣ","state":"Вилояти Хатлон","ISO3166-2-lvl4":"TJ-KT","postcode":"735218","country":"Тоҷикистон","country_code":"tj"},"population":6000,"osm_type":"way","osm_id":1367636833,"type":"town","location":[68.4470961,37.5669005],"bbox":[68.4381584,37.5601423,68.4640393,37.5728318]}}
{"name":"Javoni","other_names":{"name:ur":"جوانی"},"display_name":"Javoni, Ноҳияи Роғун, Ноҳияҳои тобеи ҷумҳурӣ, 735417, Тоҷикистон","address":{"town":"Javoni","county":"Ноҳияи Роғун","state":"Ноҳияҳои тобеи ҷумҳурӣ","ISO3166-2-lvl4":"TJ-RA","postcode":"735417","country":"Тоҷикистон","country_code":"tj"},"osm_type":"node","osm_id":8001469588,"type":"town","location":[69.643822,38.7445561],"bbox":[69.603822,38.7045561,69.683822,38.7845561],"border":{"name":"Javoni","other_names":{"name:ur":"جوانی"},"display_name":"Javoni, Ноҳияи Роғун, Ноҳияҳои тобеи ҷумҳурӣ, 735417, Тоҷикистон","address":{"town":"Javoni","county":"Ноҳияи Роғун","state":"Ноҳияҳои тобеи ҷумҳурӣ","ISO3166-2-lvl4":"TJ-RA","postcode":"735417","country":"Тоҷикистон","country_code":"tj"},"osm_type":"way","osm_id":1367657613,"type":"town","location":[69.643822,38.7445561],"bbox":[69.6349952,38.7380803,69.653674,38.750539]}}
{"name":"Абдураҳмони Ҷомӣ","other_names":{"name:en":"Abdurahmoni Jomi","name:ja":"アブドゥルラフモン・ジョミ","name:ru":"Абдурахмана Джами","name:tg":"Абдураҳмони Ҷомӣ","alt_name":"Куйбышев","int_name":"Kuybyshevsk","old_name":"Куйбышев","old_name:en":"Kuybyshevsk","old_name:ru":"Куйбышевск","old_name:tg":"Куйбышев"},"display_name":"Абдураҳмони Ҷомӣ, Ноҳияи Абдураҳмони Ҷомӣ, Вилояти Хатлон, 735120, Тоҷикистон","address":{"town":"Абдураҳмони Ҷомӣ","county":"Ноҳияи Абдураҳмони Ҷомӣ","state":"Вилояти Хатлон","ISO3166-2-lvl4":"TJ-KT","postcode":"735120","country":"Тоҷикистон","country_code":"tj"},"population":10500,"osm_type":"node","osm_id":2503241202,"type":"town","location":[68.8029959,37.9491273],"bbox":[68.7629959,37.9091273,68.8429959,37.9891273],"border":[{"name":"Абдураҳмони Ҷомӣ","other_names":{"name:en":"Abdurahmoni Jomi","name:ja":"アブドゥルラフモン・ジョミ","name:ru":"Абдурахмана Джами","name:tg":"Абдураҳмони Ҷомӣ","alt_name":"Куйбышев","int_name":"Kuybyshevsk","old_name":"Куйбышев","old_name:en":"Kuybyshevsk","old_name:ru":"Куйбышевск","old_name:tg":"Куйбышев"},"display_name":"Абдураҳмони Ҷомӣ, Ноҳияи Абдураҳмони Ҷомӣ, Вилояти Хатлон, 735120, Тоҷикистон","address":{"town":"Абдураҳмони Ҷомӣ","county":"Ноҳияи Абдураҳмони Ҷомӣ","state":"Вилояти Хатлон","ISO3166-2-lvl4":"TJ-KT","postcode":"735120","country":"Тоҷикистон","country_code":"tj"},"population":10500,"osm_type":"way","osm_id":38187864,"type":"town","location":[68.8029959,37.9491273],"bbox":[68.7826307,37.9344801,68.8224617,37.9579665]},{"name":"Ноҳияи Абдураҳмони Ҷомӣ","other_names":{"ref":"33","name:ar":"مقاطعة جامي","name:en":"Dzhami District","name:ja":"アブドゥルラフモン・ジョミ地区","name:ru":"Район им. Абдурахмана Джами","name:tg":"Ноҳияи Абдураҳмони Ҷомӣ","alt_name":"Jomi District","old_name":"Hojamaston;Kuybyshevsk;Kuybyshev"},"display_name":"Ноҳияи Абдураҳмони Ҷомӣ, Вилояти Хатлон, 735120, Тоҷикистон","address":{"county":"Ноҳияи Абдураҳмони Ҷомӣ","state":"Вилояти Хатлон","ISO3166-2-lvl4":"TJ-KT","postcode":"735120","country":"Тоҷикистон","country_code":"tj"},"population":135500,"osm_type":"relation","osm_id":3281941,"type":"administrative","location":[68.79815977724792,38.0372124],"bbox":[68.6668358,37.8785537,69.067215,38.1948303]}]}
{"name":"Балх","other_names":{"name:en":"Balkh","name:ja":"バルフ","name:ml":"ബൽഖ്","name:ru":"Балх","name:tg":"Балх","name:uk":"Балх","name:ur":"بلخ","old_name":"Тугуланг;Кагановичабад;Колхозабад"},"display_name":"Балх, Ноҳияи Ҷалолиддин Балхӣ, Вилояти Хатлон, 735200, Тоҷикистон","address":{"town":"Балх","county":"Ноҳияи Ҷалолиддин Балхӣ","state":"Вилояти Хатлон","ISO3166-2-lvl4":"TJ-KT","postcode":"735200","country":"Тоҷикистон","country_code":"tj"},"population":19800,"osm_type":"node","osm_id":2503630306,"type":"town","location":[68.6614719,37.5866138],"bbox":[68.6214719,37.5466138,68.7014719,37.6266138],"border":{"name":"Балх","other_names":{"name:en":"Balkh","name:ja":"バルフ","name:ru":"Балх","name:tg":"Балх","name:uk":"Балх","old_name":"Тугуланг;Кагановичабад;Колхозабад","name:ml":"ബൽഖ്","name:ur":"بلخ"},"display_name":"Балх, Ноҳияи Ҷалолиддин Балхӣ, Вилояти Хатлон, 735200, Тоҷикистон","address":{"town":"Балх","county":"Ноҳияи Ҷалолиддин Балхӣ","state":"Вилояти Хатлон","ISO3166-2-lvl4":"TJ-KT","postcode":"735200","country":"Тоҷикистон","country_code":"tj"},"population":19800,"osm_type":"way","osm_id":731171920,"type":"town","location":[68.6614719,37.5866138],"bbox":[68.6330817,37.5506709,68.677027,37.6100405]}}
{"name":"Бахор","other_names":{"name:en":"Баҳор","name:ja":"バホル","name:uk":"Бахор","name:ur":"بخار","old_name":"Бешкент"},"display_name":"Бахор, Ҷамоати Фирӯза, Ноҳияи Носири Хусрав, Вилояти Хатлон, Тоҷикистон","address":{"town":"Бахор","city":"Ҷамоати Фирӯза","county":"Ноҳияи Носири Хусрав","state":"Вилояти Хатлон","ISO3166-2-lvl4":"TJ-KT","country":"Тоҷикистон","country_code":"tj"},"population":4363,"osm_type":"node","osm_id":6924152595,"type":"town","location":[67.9788263,37.3058452],"bbox":[67.9388263,37.2658452,68.0188263,37.3458452],"border":{"name":"Бахор","other_names":{"name:en":"Баҳор","name:ja":"バホル","name:uk":"Бахор","old_name":"Бешкент","name:ur":"بخار"},"display_name":"Бахор, Ҷамоати Фирӯза, Ноҳияи Носири Хусрав, Вилояти Хатлон, Тоҷикистон","address":{"town":"Бахор","city":"Ҷамоати Фирӯза","county":"Ноҳияи Носири Хусрав","state":"Вилояти Хатлон","ISO3166-2-lvl4":"TJ-KT","country":"Тоҷикистон","country_code":"tj"},"population":4363,"osm_type":"way","osm_id":1367626849,"type":"town","location":[67.9788263,37.3058452],"bbox":[67.9721009,37.3017499,68.0060891,37.3186236]}}
{"name":"Бӯстон","other_names":{"name:ar":"بوستون","name:en":"Buston","name:ja":"プストン","name:ml":"ബുസ്താൻ","name:pl":"old_Czkalowsk","name:ru":"Бустан","name:tg":"Бӯстон","name:zh":"布斯通","alt_name":"Шохкант","old_name":"Чкаловск","old_name:en":"Chkalovsk","old_name:ru":"Чкаловск"},"display_name":"Бӯстон, Шаҳри Бӯстон, Вилояти Суғд, Тоҷикистон","address":{"town":"Бӯстон","state":"Вилояти Суғд","ISO3166-2-lvl4":"TJ-SU","country":"Тоҷикистон","country_code":"tj"},"osm_type":"node","osm_id":366229444,"type":"town","location":[69.6988599,40.2355209],"bbox":[69.6588599,40.1955209,69.7388599,40.2755209],"border":{"name":"Шаҳри Бӯстон","other_names":{"name:en":"Buston","name:fa":"شهر بوستان","name:ja":"ブストン市","name:pl":"old_Czkalowsk","name:ru":"г.Бӯстон","name:tg":"Шаҳри Бӯстон","name:uz":"Buston shahri","alt_name":"Шохкант","old_name":"Чкаловск","old_name:en":"Chkalovsk","old_name:ru":"Чкаловск","name:uz-Cyrl":"Бустон шаҳри","name:uz-Latn":"Buston shahri","name:ar":"بوستون","name:ml":"ബുസ്താൻ","name:zh":"布斯通","alt":"Бӯстон","alt:ja":"プストン","alt:ru":"Бустан","alt:tg":"Бӯстон"},"display_name":"Шаҳри Бӯстон, Вилояти Суғд, 735730, Тоҷикистон","address":{"town":"Шаҳри Бӯстон","state":"Вилояти Суғд","ISO3166-2-lvl4":"TJ-SU","postcode":"735730","country":"Тоҷикистон","country_code":"tj"},"osm_type":"relation","osm_id":15520839,"type":"administrative","location":[69.6988599,40.2355209],"bbox":[69.6619082,40.2175649,69.7213259,40.2511306]}}
{"name":"Бӯстонқалъа","other_names":{"name:en":"Bustonqala","name:lt":"Bustonkala","name:ru":"Бустонкала","name:tg":"Бӯстонқалъа","name:uk":"Бустонкала","name:ur":"بوستان قلعہ","old_name":"Садвинсовхоз 1-й"},"display_name":"Бӯстонқалъа, Ноҳияи Кӯшониён, Вилояти Хатлон, 735146, Тоҷикистон","address":{"town":"Бӯстонқалъа","county":"Ноҳияи Кӯшониён","state":"Вилояти Хатлон","ISO3166-2-lvl4":"TJ-KT","postcode":"735146","country":"Тоҷикистон","country_code":"tj"},"population":4900,"osm_type":"node","osm_id":6860053589,"type":"town","location":[68.8304568,37.8461278],"bbox":[68.7904568,37.8061278,68.8704568,37.8861278],"border":{"name":"Бӯстонқалъа","other_names":{"name:en":"Bustonqala","name:lt":"Bustonkala","name:ru":"Бустонкала","name:tg":"Бӯстонқалъа","name:uk":"Бустонкала","old_name":"Садвинсовхоз 1-й","name:ur":"بوستان قلعہ"},"display_name":"Бӯстонқалъа, Ноҳияи Кӯшониён, Вилояти Хатлон, 735146, Тоҷикистон","address":{"town":"Бӯстонқалъа","county":"Ноҳияи Кӯшониён","state":"Вилояти Хатлон","ISO3166-2-lvl4":"TJ-KT","postcode":"735146","country":"Тоҷикистон","country_code":"tj"},"population":4900,"osm_type":"way","osm_id":242978935,"type":"town","location":[68.8304568,37.8461278],"bbox":[68.8126551,37.8343635,68.8416585,37.8589908]}}
{"name":"Ваҳдат","other_names":{"name:en":"Vahdat","name:ml":"വഹ്ദത്ത്","name:ru":"Вахдат","name:ur":"وحدت","alt_name":"Ҷиргатол","alt_name:en":"Jirgatol","alt_name:ru":"Джиргиталь"},"display_name":"Ваҳдат, Лахш, Ноҳияҳои тобеи ҷумҳурӣ, Тоҷикистон","address":{"town":"Ваҳдат","county":"Лахш","state":"Ноҳияҳои тобеи ҷумҳурӣ","ISO3166-2-lvl4":"TJ-RA","country":"Тоҷикистон","country_code":"tj"},"osm_type":"node","osm_id":5334113002,"type":"town","location":[71.2001393,39.219213],"bbox":[71.1601393,39.179213,71.2401393,39.259213],"border":{"name":"Ваҳдат","other_names":{"name:en":"Vahdat","name:ru":"Вахдат","alt_name":"Ҷиргатол","alt_name:en":"Jirgatol","alt_name:ru":"Джиргиталь","name:ml":"വഹ്ദത്ത്","name:ur":"وحدت"},"display_name":"Ваҳдат, Лахш, Ноҳияҳои тобеи ҷумҳурӣ, Тоҷикистон","address":{"town":"Ваҳдат","county":"Лахш","state":"Ноҳияҳои тобеи ҷумҳурӣ","ISO3166-2-lvl4":"TJ-RA","country":"Тоҷикистон","country_code":"tj"},"osm_type":"way","osm_id":38120404,"type":"town","location":[71.2001393,39.219213],"bbox":[71.1670236,39.2041814,71.21782,39.24218]}}
{"name":"Ваҳдат","other_names":{"name:de":"Wahdat","name:en":"Vahdat","name:ja":"ヴァフダト","name:ru":"Вахдат","name:uk":"Вагдат","name:ur":"وحدت","int_name":"Vahdat","old_name":"Орджоникидзеабад;Ordzhonikidzeabad;Yangi-Bazar;Kofarnihon"},"display_name":"Ваҳдат, Ноҳияи Ваҳдат, Ноҳияҳои тобеи ҷумҳурӣ, 735400, Тоҷикистон","address":{"town":"Ваҳдат","county":"Ноҳияи Ваҳдат","state":"Ноҳияҳои тобеи ҷумҳурӣ","ISO3166-2-lvl4":"TJ-RA","postcode":"735400","country":"Тоҷикистон","country_code":"tj"},"population":45693,"osm_type":"node","osm_id":287905725,"type":"town","location":[69.0172675,38.5614133],"bbox":[68.9772675,38.5214133,69.0572675,38.6014133],"border":{"name":"Ваҳдат","other_names":{"name:de":"Wahdat","name:en":"Vahdat","name:ja":"ヴァフダト","name:ru":"Вахдат","name:uk":"Вагдат","int_name":"Vahdat","old_name":"Орджоникидзеабад;Ordzhonikidzeabad;Yangi-Bazar;Kofarnihon","name:ur":"وحدت"},"display_name":"Ваҳдат, Ноҳияи Ваҳдат, Ноҳияҳои тобеи ҷумҳурӣ, 735400, Тоҷикистон","address":{"town":"Ваҳдат","county":"Ноҳияи Ваҳдат","state":"Ноҳияҳои тобеи ҷумҳурӣ","ISO3166-2-lvl4":"TJ-RA","postcode":"735400","country":"Тоҷикистон","country_code":"tj"},"population":45693,"osm_type":"relation","osm_id":8795594,"type":"town","location":[69.0172675,38.5614133],"bbox":[68.9873546,38.5297032,69.0398025,38.5939314]}}
{"name":"Гулистон","other_names":{"name:en":"Gulistfn","name:ja":"グリストン","name:ml":"ഗുലിസ്ഥാൻ","name:ru":"Гулистан","name:zh":"古利斯通"},"display_name":"Гулистон, Шаҳри Гулистон, Вилояти Суғд, Тоҷикистон","address":{"town":"Гулистон","state":"Вилояти Суғд","ISO3166-2-lvl4":"TJ-SU","country":"Тоҷикистон","country_code":"tj"},"osm_type":"node","osm_id":2381990033,"type":"town","location":[69.7980606,40.2670118],"bbox":[69.7580606,40.2270118,69.8380606,40.3070118],"border":{"name":"Шаҳри Гулистон","other_names":{"name:en":"Guliston","name:fa":"شهر گلستان","name:ja":"グリストン市","name:ru":"г.Гулистон","name:tg":"Шаҳри Гулистон","name:uz":"Buston shahri","name:zh":"古利斯通","name:uz-Cyrl":"Гулистон шаҳри","name:uz-Latn":"Guliston shahri","name:ml":"ഗുലിസ്ഥാൻ","alt":"Гулистон","alt:en":"Gulistfn","alt:ja":"グリストン","alt:ru":"Гулистан"},"display_name":"Шаҳри Гулистон, Вилояти Суғд, 735750, Тоҷикистон","address":{"town":"Шаҳри Гулистон","state":"Вилояти Суғд","ISO3166-2-lvl4":"TJ-SU","postcode":"735750","country":"Тоҷикистон","country_code":"tj"},"osm_type":"relation","osm_id":15520864,"type":"administrative","location":[69.7980606,40.2670118],"bbox":[69.7110385,40.248058,69.8175412,40.2761697]}}
{"name":"Ғарм","other_names":{"name:de":"Garm","name:en":"Gharm","name:ja":"ガルム","name:ru":"Гарм","name:tg":"Ғарм","name:ur":"غرم","alt_name":"Garm","int_name":"Gharm"},"display_name":"Ғарм, Ноҳияи Рашт, Ноҳияҳои тобеи ҷумҳурӣ, Тоҷикистон","address":{"town":"Ғарм","county":"Ноҳияи Рашт","state":"Ноҳияҳои тобеи ҷумҳурӣ","ISO3166-2-lvl4":"TJ-RA","country":"Тоҷикистон","country_code":"tj"},"osm_type":"node","osm_id":450766812,"type":"town","location":[70.3738916,39.0274695],"bbox":[70.3338916,38.9874695,70.4138916,39.0674695],"border":{"name":"Ғарм","other_names":{"name:de":"Garm","name:en":"Gharm","name:ja":"ガルム","name:ru":"Гарм","name:tg":"Ғарм","alt_name":"Garm","int_name":"Gharm","name:ur":"غرم"},"display_name":"Ғарм, Ноҳияи Рашт, Ноҳияҳои тобеи ҷумҳурӣ, 735450, Тоҷикистон","address":{"town":"Ғарм","county":"Ноҳияи Рашт","state":"Ноҳияҳои тобеи ҷумҳурӣ","ISO3166-2-lvl4":"TJ-RA","postcode":"735450","country":"Тоҷикистон","country_code":"tj"},"osm_type":"way","osm_id":38240876,"type":"town","location":[70.3738916,39.0274695],"bbox":[70.3571959,39.0202948,70.3812716,39.0444469]}}
{"name":"Ғончӣ","other_names":{"name:ar":"غانجي","name:en":"Ghonchi","name:ja":"ゴンチ","name:ml":"ഗാഞ്ചി","name:ru":"Ганчи","name:tg":"Ғончӣ","int_name":"Ghonchi"},"display_name":"Ғончӣ, Ноҳияи Деваштич, Вилояти Суғд, 735620, Тоҷикистон","address":{"town":"Ғончӣ","county":"Ноҳияи Деваштич","state":"Вилояти Суғд","ISO3166-2-lvl4":"TJ-SU","postcode":"735620","country":"Тоҷикистон","country_code":"tj"},"population":8300,"osm_type":"node","osm_id":2496787219,"type":"town","location":[69.1345113,39.9602062],"bbox":[69.0945113,39.9202062,69.1745113,40.0002062],"border":{"name":"Ғончӣ","other_names":{"name:ar":"غانجي","name:en":"Ghonchi","name:ja":"ゴンチ","name:ml":"ഗാഞ്ചി","name:ru":"Ганчи","name:tg":"Ғончӣ","int_name":"Ghonchi"},"display_name":"Ғончӣ, Ноҳияи Деваштич, Вилояти Суғд, 735620, Тоҷикистон","address":{"town":"Ғончӣ","county":"Ноҳияи Деваштич","state":"Вилояти Суғд","ISO3166-2-lvl4":"TJ-SU","postcode":"735620","country":"Тоҷикистон","country_code":"tj"},"population":8300,"osm_type":"way","osm_id":1367657364,"type":"town","location":[69.1345113,39.9602062],"bbox":[69.1118683,39.9470522,69.1425957,39.9791182]}}
{"name":"Дахана","other_names":{"name:en":"Dahana","name:ur":"دخنہ"},"display_name":"Дахана, Ноҳияи Кӯлоб, Вилояти Хатлон, 735360, Тоҷикистон","address":{"town":"Дахана","county":"Ноҳияи Кӯлоб","state":"Вилояти Хатлон","ISO3166-2-lvl4":"TJ-KT","postcode":"735360","country":"Тоҷикистон","country_code":"tj"},"osm_type":"node","osm_id":5370735127,"type":"town","location":[69.8649592,38.0598811],"bbox":[69.8249592,38.0198811,69.9049592,38.0998811]}
{"name":"Ёвон","other_names":{"name:ar":"ياوان","name:en":"Yovon","name:fa":"یاوان","name:ja":"イヴォン","name:ru":"Яван","name:ur":"","int_name":"Yovon"},"display_name":"Ёвон, Ноҳияи Ёвон, Вилояти Хатлон, 735310, Тоҷикистон","address":{"town":"Ёвон","county":"Ноҳияи Ёвон","state":"Вилояти Хатлон","ISO3166-2-lvl4":"TJ-KT","postcode":"735310","country":"Тоҷикистон","country_code":"tj"},"population":31200,"osm_type":"node","osm_id":379294951,"type":"town","location":[69.046985,38.3177385],"bbox":[69.006985,38.2777385,69.086985,38.3577385],"border":{"name":"Ёвон","other_names":{"name:ar":"ياوان","name:en":"Yovon","name:fa":"یاوان","name:ja":"イヴォン","name:ru":"Яван","int_name":"Yovon","name:ur":""},"display_name":"Ёвон, Ноҳияи Ёвон, Вилояти Хатлон, 735310, Тоҷикистон","address":{"town":"Ёвон","county":"Ноҳияи Ёвон","state":"Вилояти Хатлон","ISO3166-2-lvl4":"TJ-KT","postcode":"735310","country":"Тоҷикистон","country_code":"tj"},"population":31200,"osm_type":"way","osm_id":1367615345,"type":"town","location":[69.046985,38.3177385],"bbox":[69.0159545,38.3051451,69.0718209,38.3301302]}}
{"name":"Исмоили Сомонӣ","other_names":{"name:en":"Ismoili Somoni","name:fa":"اسماعیل سامانی","name:ja":"イスモイル・ソモニ","name:ru":"Исмоили Сомони","name:tg":"Исмоили Сомонӣ","name:ur":"اسماعیل سامانی","int_name":"Ismoili Somoni","old_name":"Октябрьск","old_name:ru":"Октябрьск"},"display_name":"Исмоили Сомонӣ, Ноҳияи Кӯшониён, Вилояти Хатлон, Тоҷикистон","address":{"town":"Исмоили Сомонӣ","county":"Ноҳияи Кӯшониён","state":"Вилояти Хатлон","ISO3166-2-lvl4":"TJ-KT","country":"Тоҷикистон","country_code":"tj"},"population":10500,"osm_type":"node","osm_id":2503241201,"type":"town","location":[68.8005061,37.7660825],"bbox":[68.7605061,37.7260825,68.8405061,37.8060825],"border":{"name":"Исмоили Сомонӣ","other_names":{"name:en":"Ismoili Somoni","name:fa":"اسماعیل سامانی","name:ja":"イスモイル・ソモニ","name:ru":"Исмоили Сомони","name:tg":"Исмоили Сомонӣ","int_name":"Ismoili Somoni","old_name":"Октябрьск","old_name:ru":"Октябрьск","name:ur":"اسماعیل سامانی"},"display_name":"Исмоили Сомонӣ, Ноҳияи Кӯшониён, Вилояти Хатлон, Тоҷикистон","address":{"town":"Исмоили Сомонӣ","county":"Ноҳияи Кӯшониён","state":"Вилояти Хатлон","ISO3166-2-lvl4":"TJ-KT","country":"Тоҷикистон","country_code":"tj"},"population":10500,"osm_type":"way","osm_id":242983196,"type":"town","location":[68.8005061,37.7660825],"bbox":[68.7886675,37.7565955,68.8212632,37.7765449]}}
{"name":"Истаравшан","other_names":{"name:en":"Istaravshan","name:et":"Istaravšon","name:fa":"استروشن","name:fr":"Istaravchan","name:ja":"イスタラフシャン","name:ml":"ഇസ്തറവ്ഷൻ","name:ru":"Истаравшан","name:tg":"Истаравшан","name:tt":"Истәраушан","name:uz":"Istafavshon","int_name":"Istarawshan","old_name":"Ӯротеппа","old_name:en":"Ura-Tyube","old_name:ru":"Ура́-Тюбе","old_name:uz":"O‘ratepa","old_name:en2":"Uroteppa"},"display_name":"Истаравшан, Ноҳияи Истаравшан, Вилояти Суғд, 735610, Тоҷикистон","address":{"town":"Истаравшан","county":"Ноҳияи Истаравшан","state":"Вилояти Суғд","ISO3166-2-lvl4":"TJ-SU","postcode":"735610","country":"Тоҷикистон","country_code":"tj"},"population":60000,"osm_type":"node","osm_id":249278903,"type":"town","location":[68.9956351,39.9080152],"bbox":[68.9556351,39.8680152,69.0356351,39.9480152],"border":[{"name":"Истаравшан","other_names":{"name:ar":"إسترافشان","name:en":"Istaravshan","name:et":"Istaravšon","name:fa":"استروشن","name:fr":"Istaravchan","name:ja":"イスタラフシャン","name:ru":"Истаравшан","name:tg":"Истаравшан","name:tt":"Истәраушан","int_name":"Istarawshan","old_name":"Ӯротеппа","old_name:en":"Ura-Tyube","old_name:ru":"Ура́-Тюбе","old_name:uz":"O‘ratepa","name:ml":"ഇസ്തറവ്ഷൻ","name:uz":"Istafavshon","old_name:en2":"Uroteppa"},"display_name":"Истаравшан, Ноҳияи Истаравшан, Вилояти Суғд, 735610, Тоҷикистон","address":{"town":"Истаравшан","county":"Ноҳияи Истаравшан","state":"Вилояти Суғд","ISO3166-2-lvl4":"TJ-SU","postcode":"735610","country":"Тоҷикистон","country_code":"tj"},"population":60000,"osm_type":"way","osm_id":32561749,"type":"town","location":[68.9956351,39.9080152],"bbox":[68.96561,39.8714702,69.0257939,39.9564118]},{"name":"Ноҳияи Истаравшан","other_names":{"ref":"9","name:en":"Istaravshan District","name:fa":"ناحیۀ استروشن","name:ja":"イスタラフシャン市","name:ru":"Истаравшанский район","name:tg":"Ноҳияи Истаравшан","alt_name":"Uroteppa;Ura-Tyube;Уротеппа;Ура-Тюбе"},"display_name":"Ноҳияи Истаравшан, Вилояти Суғд, 735610, Тоҷикистон","address":{"county":"Ноҳияи Истаравшан","state":"Вилояти Суғд","ISO3166-2-lvl4":"TJ-SU","postcode":"735610","country":"Тоҷикистон","country_code":"tj"},"osm_type":"relation","osm_id":3281013,"type":"administrative","location":[68.98391206349635,39.979453050000004],"bbox":[68.8565201,39.788283,69.2113266,40.1717911]}]}
{"name":"Истиқлол","other_names":{"name:en":"Istiklol","name:ml":"ഇസ്തിക്ലാൽ","name:ru":"Истиклол","name:tg":"Истиқлол","old_name":"Табошар","old_name:de":"Taboschar","old_name:en":"Taboshar","old_name:ru":"Табошар","old_name:tg":"Табошар","old_name:en_1":"Taboshar"},"display_name":"Истиқлол, Ноҳияи Ғафуров, Вилояти Суғд, 735731, Тоҷикистон","address":{"town":"Истиқлол","county":"Ноҳияи Ғафуров","state":"Вилояти Суғд","ISO3166-2-lvl4":"TJ-SU","postcode":"735731","country":"Тоҷикистон","country_code":"tj"},"population":16400,"osm_type":"node","osm_id":972207771,"type":"town","location":[69.6415178,40.5662018],"bbox":[69.6015178,40.5262018,69.6815178,40.6062018],"border":{"name":"Истиқлол","other_names":{"name:en":"Istiklol","name:ru":"Истиклол","name:tg":"Истиқлол","old_name":"Табошар","old_name:de":"Taboschar","old_name:en":"Taboshar","old_name:ru":"Табошар","old_name:tg":"Табошар","old_name:en_1":"Taboshar","name:ml":"ഇസ്തിക്ലാൽ"},"display_name":"Истиқлол, Ноҳияи Ғафуров, Вилояти Суғд, 735731, Тоҷикистон","address":{"town":"Истиқлол","county":"Ноҳияи Ғафуров","state":"Вилояти Суғд","ISO3166-2-lvl4":"TJ-SU","postcode":"735731","country":"Тоҷикистон","country_code":"tj"},"population":16400,"osm_type":"relation","osm_id":11142161,"type":"town","location":[69.6415178,40.5662018],"bbox":[69.5994681,40.5394634,69.6702635,40.6072038]}}
{"name":"Исфара","other_names":{"name:ar":"أسفرة","name:en":"Isfara","name:ja":"イスファラ","name:ml":"ഇസ്ഫറ","name:ru":"Исфара","name:tg":"Исфара","int_name":"Isfara"},"display_name":"Исфара, Ноҳияи Исфара, Вилояти Суғд, 735920, Тоҷикистон","address":{"town":"Исфара","county":"Ноҳияи Исфара","state":"Вилояти Суғд","ISO3166-2-lvl4":"TJ-SU","postcode":"735920","country":"Тоҷикистон","country_code":"tj"},"population":47922,"osm_type":"node","osm_id":271645383,"type":"town","location":[70.6134164,40.123264],"bbox":[70.5734164,40.083264,70.6534164,40.163264],"border":{"name":"Исфара","other_names":{"name:ar":"مدينة أسفرة","name:en":"Isfara","name:ja":"イスファラ","name:ru":"Исфара","name:tg":"Исфара","int_name":"Isfara","name:ml":"ഇസ്ഫറ","alt:ar":"أسفرة"},"display_name":"Исфара, Ноҳияи Исфара, Вилояти Суғд, 735920, Тоҷикистон","address":{"town":"Исфара","county":"Ноҳияи Исфара","state":"Вилояти Суғд","ISO3166-2-lvl4":"TJ-SU","postcode":"735920","country":"Тоҷикистон","country_code":"tj"},"population":47922,"osm_type":"way","osm_id":32554193,"type":"town","location":[70.6134164,40.123264],"bbox":[70.5997123,40.1000823,70.6692963,40.1480791]}}
{"name":"Конибодом","other_names":{"name:al":"Kanibadam","name:ar":"كان بادام","name:en":"Konibodom","name:ja":"カニバダム","name:ml":"കാനിബാദാം","name:ru":"Канибадам","name:tg":"Конибодом","alt_name":"Kanibadam","int_name":"Konibodom","name:alt":"Kanibadam"},"display_name":"Конибодом, Ноҳияи Конибодом, Вилояти Суғд, Тоҷикистон","address":{"town":"Конибодом","county":"Ноҳияи Конибодом","state":"Вилояти Суғд","ISO3166-2-lvl4":"TJ-SU","country":"Тоҷикистон","country_code":"tj"},"population":50400,"osm_type":"node","osm_id":271643214,"type":"town","location":[70.4254538,40.2908394],"bbox":[70.3854538,40.2508394,70.4654538,40.3308394],"border":[{"name":"Конибодом","other_names":{"name:al":"Kanibadam","name:ar":"كان بادام","name:en":"Konibodom","name:ja":"カニバダム","name:ru":"Канибадам","name:tg":"Конибодом","alt_name":"Kanibadam","int_name":"Konibodom","name:alt":"Kanibadam","name:ml":"കാനിബാദാം"},"display_name":"Конибодом, Ноҳияи Конибодом, Вилояти Суғд, Тоҷикистон","address":{"town":"Конибодом","county":"Ноҳияи Конибодом","state":"Вилояти Суғд","ISO3166-2-lvl4":"TJ-SU","country":"Тоҷикистон","country_code":"tj"},"population":50400,"osm_type":"way","osm_id":32554152,"type":"town","location":[70.4254538,40.2908394],"bbox":[70.4017594,40.2633228,70.4675588,40.3162065]},{"name":"Ноҳияи Конибодом","other_names":{"ref":"7","name:ar":"مقاطعة كان بادام","name:en":"Konibodom District","name:fa":"ناحیۀ کان بادام","name:ja":"カニバダム市","name:ru":"Канибадамский район","name:tg":"Ноҳияи Конибодом","alt_name":"Kanibadam"},"display_name":"Ноҳияи Конибодом, Вилояти Суғд, Тоҷикистон","address":{"county":"Ноҳияи Конибодом","state":"Вилояти Суғд","ISO3166-2-lvl4":"TJ-SU","country":"Тоҷикистон","country_code":"tj"},"osm_type":"relation","osm_id":3280684,"type":"administrative","location":[70.22345613085562,40.237913500000005],"bbox":[69.9901437,40.0806294,70.5819695,40.3932987]}]}
{"name":"Қалъаи Хумб","other_names":{"name:de":"Qalai Chumb","name:en":"Qal'ai Khumb","name:fa":"قلعۀ خمب‎","name:ja":"カライクム","name:ml":"ഖലൈ ഖുംബ്","name:uk":"Калаї-Хумб","name:ur":"قلعہ خمب","alt_name":"Қалъаихум","alt_name:en":"Qal'aikhum"},"display_name":"Қалъаи Хумб, Ноҳияи Дарвоз, Вилояти Мухтори Кӯҳистони Бадахшон, Тоҷикистон","address":{"town":"Қалъаи Хумб","county":"Ноҳияи Дарвоз","state":"Вилояти Мухтори Кӯҳистони Бадахшон","ISO3166-2-lvl4":"TJ-GB","country":"Тоҷикистон","country_code":"tj"},"population":1828,"osm_type":"node","osm_id":449099083,"type":"town","location":[70.7886401,38.4541289],"bbox":[70.7486401,38.4141289,70.8286401,38.4941289],"border":{"name":"Қалъаи Хумб","other_names":{"name:de":"Qalai Chumb","name:en":"Qal'ai Khumb","name:ja":"カライクム","name:uk":"Калаї-Хумб","alt_name":"Қалъаихум","alt_name:en":"Qal'aikhum","name:fa":"قلعۀ خمب‎","name:ml":"ഖലൈ ഖുംബ്","name:ur":"قلعہ خمب"},"display_name":"Қалъаи Хумб, Ноҳияи Дарвоз, Вилояти Мухтори Кӯҳистони Бадахшон, Тоҷикистон","address":{"town":"Қалъаи Хумб","county":"Ноҳияи Дарвоз","state":"Вилояти Мухтори Кӯҳистони Бадахшон","ISO3166-2-lvl4":"TJ-GB","country":"Тоҷикистон","country_code":"tj"},"population":1828,"osm_type":"way","osm_id":340589726,"type":"town","location":[70.7886401,38.4541289],"bbox":[70.7854539,38.4500997,70.791775,38.459042]}}
{"name":"Қубодиён","other_names":{"name:en":"Qubodiyon","name:fa":"قبادیان","name:ja":"クボディヨン","name:ur":"قبادیان","int_name":"Qabodiyon","old_name":"Кабодиён"},"display_name":"Қубодиён, Ноҳияи Қубодиён, Вилояти Хатлон, 735140, Тоҷикистон","address":{"town":"Қубодиён","county":"Ноҳияи Қубодиён","state":"Вилояти Хатлон","ISO3166-2-lvl4":"TJ-KT","postcode":"735140","country":"Тоҷикистон","country_code":"tj"},"osm_type":"node","osm_id":2503517017,"type":"town","location":[68.1837869,37.4059808],"bbox":[68.1437869,37.3659808,68.2237869,37.4459808],"border":{"name":"Қубодиён","other_names":{"name:en":"Qubodiyon","name:fa":"قبادیان","name:ja":"クボディヨン","int_name":"Qabodiyon","old_name":"Кабодиён","name:ur":"قبادیان"},"display_name":"Қубодиён, Ноҳияи Қубодиён, Вилояти Хатлон, 735140, Тоҷикистон","address":{"town":"Қубодиён","county":"Ноҳияи Қубодиён","state":"Вилояти Хатлон","ISO3166-2-lvl4":"TJ-KT","postcode":"735140","country":"Тоҷикистон","country_code":"tj"},"osm_type":"way","osm_id":1375932244,"type":"town","location":[68.1837869,37.4059808],"bbox":[68.173551,37.3916964,68.19525,37.4168702]}}
{"name":"Левакант","other_names":{"name:en":"Levakant","name:ja":"レヴァカント","name:tg":"Левакант","int_name":"Levakant","old_name":"Sarband"},"display_name":"Левакант, Yоҳияи Леваканд, Вилояти Хатлон, 735140, Тоҷикистон","address":{"town":"Левакант","county":"Yоҳияи Леваканд","state":"Вилояти Хатлон","ISO3166-2-lvl4":"TJ-KT","postcode":"735140","country":"Тоҷикистон","country_code":"tj"},"population":12800,"osm_type":"node","osm_id":271666345,"type":"town","location":[68.9255931,37.8718162],"bbox":[68.8855931,37.8318162,68.9655931,37.9118162]}
{"name":"Меҳнатобод","other_names":{"name:en":"Mehnatabad","name:ml":"മെഹ്നത്താബാദ്","name:ru":"Мехнатабад","name:tg":"Меҳнатобод","int_name":"Mehnatobod"},"display_name":"Меҳнатобод, Ноҳияи Зафаробод, Вилояти Суғд, Тоҷикистон","address":{"town":"Меҳнатобод","county":"Ноҳияи Зафаробод","state":"Вилояти Суғд","ISO3166-2-lvl4":"TJ-SU","country":"Тоҷикистон","country_code":"tj"},"population":10100,"osm_type":"node","osm_id":2518625092,"type":"town","location":[68.95565,40.1968771],"bbox":[68.91565,40.1568771,68.99565,40.2368771]}
{"name":"Меҳрон","other_names":{"name:en":"Mehron","name:ml":"മെഹ്റാൻ","name:tg":"Меҳрон","name:ur":"مہران"},"display_name":"Меҳрон, Ноҳияи Кӯҳистони Мастчоҳ, Вилояти Суғд, Тоҷикистон","address":{"town":"Меҳрон","county":"Ноҳияи Кӯҳистони Мастчоҳ","state":"Вилояти Суғд","ISO3166-2-lvl4":"TJ-SU","country":"Тоҷикистон","country_code":"tj"},"osm_type":"node","osm_id":7725934970,"type":"town","location":[69.3181984,39.4127933],"bbox":[69.2781984,39.3727933,69.3581984,39.4527933],"border":{"name":"Меҳрон","other_names":{"name:en":"Mehron","name:ml":"മെഹ്‌റാൻ","name:tg":"Меҳрон","name:ur":"مہران","alt:ml":"മെഹ്റാൻ"},"display_name":"Меҳрон, Ноҳияи Кӯҳистони Мастчоҳ, Вилояти Суғд, Тоҷикистон","address":{"town":"Меҳрон","county":"Ноҳияи Кӯҳистони Мастчоҳ","state":"Вилояти Суғд","ISO3166-2-lvl4":"TJ-SU","country":"Тоҷикистон","country_code":"tj"},"osm_type":"way","osm_id":1011277799,"type":"town","location":[69.3181984,39.4127933],"bbox":[69.3134618,39.4113483,69.3281176,39.4147661]}}
{"name":"Миёнаду","other_names":{"name:en":"Miyonadu","name:tg":"Миёнаду"},"display_name":"Миёнаду, Ноҳияи Сангвор, Ноҳияҳои тобеи ҷумҳурӣ, Тоҷикистон","address":{"town":"Миёнаду","county":"Ноҳияи Сангвор","state":"Ноҳияҳои тобеи ҷумҳурӣ","ISO3166-2-lvl4":"TJ-RA","country":"Тоҷикистон","country_code":"tj"},"osm_type":"node","osm_id":7653614403,"type":"town","location":[70.8756499,38.8326113],"bbox":[70.8356499,38.7926113,70.9156499,38.8726113],"border":{"name":"Миёнаду","other_names":{"name:en":"Miyonadu","name:tg":"Миёнаду"},"display_name":"Миёнаду, Ноҳияи Сангвор, Ноҳияҳои тобеи ҷумҳурӣ, Тоҷикистон","address":{"town":"Миёнаду","county":"Ноҳияи Сангвор","state":"Ноҳияҳои тобеи ҷумҳурӣ","ISO3166-2-lvl4":"TJ-RA","country":"Тоҷикистон","country_code":"tj"},"osm_type":"way","osm_id":1367660364,"type":"town","location":[70.8756499,38.8326113],"bbox":[70.8703004,38.8248646,70.8826558,38.8371333]}}
{"name":"Моғиён","other_names":{"name:en":"Moghiyon","name:ru":"Могиен","name:tg":"Моғиён","alt_name":"Магиан"},"display_name":"Моғиён, Ноҳияи Панҷакент, Вилояти Суғд, Тоҷикистон","address":{"town":"Моғиён","county":"Ноҳияи Панҷакент","state":"Вилояти Суғд","ISO3166-2-lvl4":"TJ-SU","country":"Тоҷикистон","country_code":"tj"},"osm_type":"node","osm_id":8113380959,"type":"town","location":[67.6684147,39.2499574],"bbox":[67.6284147,39.2099574,67.7084147,39.2899574],"border":{"name":"Моғиён","other_names":{"name:en":"Moghiyon","name:ru":"Могиен","name:tg":"Моғиён","alt_name":"Магиан"},"display_name":"Моғиён, Ноҳияи Панҷакент, Вилояти Суғд, Тоҷикистон","address":{"town":"Моғиён","county":"Ноҳияи Панҷакент","state":"Вилояти Суғд","ISO3166-2-lvl4":"TJ-SU","country":"Тоҷикистон","country_code":"tj"},"osm_type":"way","osm_id":1367642889,"type":"town","location":[67.6684147,39.2499574],"bbox":[67.6399505,39.2334677,67.6728451,39.2530111]}}
{"name":"Мурғоб","other_names":{"name:de":"Murghab","name:en":"Murghob","name:fa":"مرغاب","name:ja":"ムルガブ","name:lt":"Murgabas","name:pl":"Murgob","name:ru":"Мургаб","name:tg":"Мурғоб","name:uk":"Мургаб","name:ur":"مرغاب","name:zh":"穆尔加布","int_name":"Murghab","alt_name:en":"Murghob"},"display_name":"Мурғоб, Ноҳияи Мурғоб, Вилояти Мухтори Кӯҳистони Бадахшон, 736600, Тоҷикистон","address":{"town":"Мурғоб","county":"Ноҳияи Мурғоб","state":"Вилояти Мухтори Кӯҳистони Бадахшон","ISO3166-2-lvl4":"TJ-GB","postcode":"736600","country":"Тоҷикистон","country_code":"tj"},"osm_type":"node","osm_id":249151574,"type":"town","location":[73.9668836,38.1709568],"bbox":[73.9268836,38.1309568,74.0068836,38.2109568],"border":{"name":"Мурғоб","other_names":{"name:de":"Murghab","name:en":"Murghob","name:fa":"مرغاب","name:ja":"ムルガブ","name:lt":"Murgabas","name:pl":"Murgob","name:ru":"Мургаб","name:tg":"Мурғоб","name:uk":"Мургаб","name:ur":"مرغاب","name:zh":"穆尔加布","int_name":"Murghab","alt_name:en":"Murghob"},"display_name":"Мурғоб, Ноҳияи Мурғоб, Вилояти Мухтори Кӯҳистони Бадахшон, Тоҷикистон","address":{"town":"Мурғоб","county":"Ноҳияи Мурғоб","state":"Вилояти Мухтори Кӯҳистони Бадахшон","ISO3166-2-lvl4":"TJ-GB","country":"Тоҷикистон","country_code":"tj"},"osm_type":"way","osm_id":1367637722,"type":"town","location":[73.9668836,38.1709568],"bbox":[73.9599455,38.1625789,74.0031082,38.1866518]}}
{"name":"Навобод","other_names":{"name:en":"Navobod","name:ru":"Навабад","name:tg":"Навобод","alt_name:en":"Shulmak","alt_name:ru":"Шульмак"},"display_name":"Навобод, Ноҳияи Рашт, Ноҳияҳои тобеи ҷумҳурӣ, 735450, Тоҷикистон","address":{"town":"Навобод","county":"Ноҳияи Рашт","state":"Ноҳияҳои тобеи ҷумҳурӣ","ISO3166-2-lvl4":"TJ-RA","postcode":"735450","country":"Тоҷикистон","country_code":"tj"},"osm_type":"node","osm_id":6932918689,"type":"town","location":[70.1521191,39.0095603],"bbox":[70.1121191,38.9695603,70.1921191,39.0495603],"border":{"name":"Навобод","other_names":{"name:en":"Navobod","name:ru":"Навабад","name:tg":"Навобод","alt_name:en":"Shulmak","alt_name:ru":"Шульмак"},"display_name":"Навобод, Ноҳияи Рашт, Ноҳияҳои тобеи ҷумҳурӣ, 735450, Тоҷикистон","address":{"town":"Навобод","county":"Ноҳияи Рашт","state":"Ноҳияҳои тобеи ҷумҳурӣ","ISO3166-2-lvl4":"TJ-RA","postcode":"735450","country":"Тоҷикистон","country_code":"tj"},"osm_type":"way","osm_id":435704295,"type":"town","location":[70.1521191,39.0095603],"bbox":[70.1325144,39.0028711,70.1611712,39.0374717]}}
{"name":"Ниҷонӣ","other_names":{"name:en":"Nijoni","name:ru":"Ниджони","name:tg":"Ниҷонӣ"},"display_name":"Ниҷонӣ, Ноҳияи Истаравшан, Вилояти Суғд, 735610, Тоҷикистон","address":{"town":"Ниҷонӣ","county":"Ноҳияи Истаравшан","state":"Вилояти Суғд","ISO3166-2-lvl4":"TJ-SU","postcode":"735610","country":"Тоҷикистон","country_code":"tj"},"osm_type":"node","osm_id":2500828978,"type":"town","location":[68.9238745,39.9600662],"bbox":[68.8838745,39.9200662,68.9638745,40.0000662],"border":{"name":"Ниҷонӣ","other_names":{"name:en":"Nijoni","name:ru":"Ниджони","name:tg":"Ниҷонӣ"},"display_name":"Ниҷонӣ, Ноҳияи Истаравшан, Вилояти Суғд, 735610, Тоҷикистон","address":{"town":"Ниҷонӣ","county":"Ноҳияи Истаравшан","state":"Вилояти Суғд","ISO3166-2-lvl4":"TJ-SU","postcode":"735610","country":"Тоҷикистон","country_code":"tj"},"osm_type":"way","osm_id":242622871,"type":"town","location":[68.9238745,39.9600662],"bbox":[68.9144308,39.9461653,68.9325716,39.9779011]}}
{"name":"Норак","other_names":{"name:ar":"نارك","name:de":"Nurek","name:en":"Norak","name:ja":"ヌレーク","name:ml":"നാറക്ക്","name:ru":"Нурек","name:tg":"Норак","name:ur":"نورک","alt_name:en":"Nurek"},"display_name":"Норак, Ноҳияи Норак, Вилояти Хатлон, Тоҷикистон","address":{"town":"Норак","county":"Ноҳияи Норак","state":"Вилояти Хатлон","ISO3166-2-lvl4":"TJ-KT","country":"Тоҷикистон","country_code":"tj"},"population":18950,"osm_type":"node","osm_id":288384192,"type":"town","location":[69.3081146,38.3896911],"bbox":[69.2681146,38.3496911,69.3481146,38.4296911],"border":{"name":"Норак","other_names":{"name:de":"Nurek","name:en":"Nurak","name:ja":"ヌレーク","name:ru":"Нурек","name:tg":"Норак","int_name":"Nurak","name:ar":"نارك","name:ml":"നാറക്ക്","name:ur":"نورک","alt_name:en":"Nurek","alt:en":"Norak"},"display_name":"Норак, Ноҳияи Норак, Вилояти Хатлон, Тоҷикистон","address":{"town":"Норак","county":"Ноҳияи Норак","state":"Вилояти Хатлон","ISO3166-2-lvl4":"TJ-KT","country":"Тоҷикистон","country_code":"tj"},"population":18950,"osm_type":"way","osm_id":242857780,"type":"town","location":[69.3081146,38.3896911],"bbox":[69.2976733,38.3833069,69.350111,38.3990784]}}
{"display_name":"Ноҳияи Ваҳдат, Ноҳияҳои тобеи ҷумҳурӣ, 735400, Тоҷикистон","address":{"county":"Ноҳияи Ваҳдат","state":"Ноҳияҳои тобеи ҷумҳурӣ","ISO3166-2-lvl4":"TJ-RA","postcode":"735400","country":"Тоҷикистон","country_code":"tj"},"osm_type":"way","osm_id":27349199,"type":"town","location":[69.06154223478407,38.595766749999996],"bbox":[69.0484342,38.5892825,69.0810274,38.6022821]}
{"display_name":"Ноҳияи Восеъ, Вилояти Хатлон, 735330, Тоҷикистон","address":{"county":"Ноҳияи Восеъ","state":"Вилояти Хатлон","ISO3166-2-lvl4":"TJ-KT","postcode":"735330","country":"Тоҷикистон","country_code":"tj"},"osm_type":"node","osm_id":5370719266,"type":"town","location":[69.4812901,37.9644786],"bbox":[69.4412901,37.9244786,69.5212901,38.0044786]}
{"display_name":"Ноҳияи Восеъ, Вилояти Хатлон, 735330, Тоҷикистон","address":{"county":"Ноҳияи Восеъ","state":"Вилояти Хатлон","ISO3166-2-lvl4":"TJ-KT","postcode":"735330","country":"Тоҷикистон","country_code":"tj"},"osm_type":"way","osm_id":32825100,"type":"town","location":[69.63433568908798,37.8009207],"bbox":[69.6160356,37.7825019,69.6508481,37.8202061]}
{"display_name":"Ноҳияи Ғафуров, Вилояти Суғд, 735690, Тоҷикистон","address":{"county":"Ноҳияи Ғафуров","state":"Вилояти Суғд","ISO3166-2-lvl4":"TJ-SU","postcode":"735690","country":"Тоҷикистон","country_code":"tj"},"osm_type":"way","osm_id":242747299,"type":"town","location":[69.7219358623455,40.213250849999994],"bbox":[69.7114388,40.1877351,69.7763784,40.238662]}
{"name":"Обигарм","other_names":{"name:en":"Obigarm","name:ru":"Обигарм","name:tg":"Обигарм","name:uk":"Обіґарм"},"display_name":"Обигарм, Ноҳияи Роғун, Ноҳияҳои тобеи ҷумҳурӣ, 735417, Тоҷикистон","address":{"town":"Обигарм","county":"Ноҳияи Роғун","state":"Ноҳияҳои тобеи ҷумҳурӣ","ISO3166-2-lvl4":"TJ-RA","postcode":"735417","country":"Тоҷикистон","country_code":"tj"},"osm_type":"node","osm_id":2032607766,"type":"town","location":[69.7134525,38.7182807],"bbox":[69.6734525,38.6782807,69.7534525,38.7582807],"border":{"name":"Обигарм","other_names":{"name:en":"Obigarm","name:ru":"Обигарм","name:tg":"Обигарм","name:uk":"Обіґарм"},"display_name":"Обигарм, Ноҳияи Роғун, Ноҳияҳои тобеи ҷумҳурӣ, 735417, Тоҷикистон","address":{"town":"Обигарм","county":"Ноҳияи Роғун","state":"Ноҳияҳои тобеи ҷумҳурӣ","ISO3166-2-lvl4":"TJ-RA","postcode":"735417","country":"Тоҷикистон","country_code":"tj"},"osm_type":"way","osm_id":1367616084,"type":"town","location":[69.7134525,38.7182807],"bbox":[69.6994762,38.7128004,69.7247319,38.7271011]}}
{"name":"Обикиик","other_names":{"name:en":"Obikiik","name:ja":"オビキーク","name:ml":"ആബീക്കീക്ക്","name:ru":"Обикиик","name:tg":"Обикиик","int_name":"Obikiik","old_name":"Правда"},"display_name":"Обикиик, Ноҳияи Хуросон, Вилояти Хатлон, Тоҷикистон","address":{"town":"Обикиик","county":"Ноҳияи Хуросон","state":"Вилояти Хатлон","ISO3166-2-lvl4":"TJ-KT","country":"Тоҷикистон","country_code":"tj"},"osm_type":"node","osm_id":2503057092,"type":"town","location":[68.6741077,38.1642006],"bbox":[68.6341077,38.1242006,68.7141077,38.2042006],"border":{"name":"Обикиик","other_names":{"name:en":"Obikiik","name:ja":"オビキーク","name:ru":"Обикиик","name:tg":"Обикиик","int_name":"Obikiik","old_name":"Правда","name:ml":"ആബീക്കീക്ക്"},"display_name":"Обикиик, Ноҳияи Хуросон, Вилояти Хатлон, 735411, Тоҷикистон","address":{"town":"Обикиик","county":"Ноҳияи Хуросон","state":"Вилояти Хатлон","ISO3166-2-lvl4":"TJ-KT","postcode":"735411","country":"Тоҷикистон","country_code":"tj"},"osm_type":"way","osm_id":242857786,"type":"town","location":[68.6741077,38.1642006],"bbox":[68.6457679,38.1375361,68.6851583,38.1847935]}}
{"name":"Панҷакент","other_names":{"name:ar":"مدينة بنجكنت","name:de":"Pandschakent","name:en":"Panjakent","name:et":"Pandžakent","name:fa":"پنجکنت","name:ja":"パンジケント","name:ru":"Пенджикент","name:sv":"Pendzjikent","name:tg":"Панҷакент","name:uk":"Пенджикент","int_name":"Panjakent","name:eu":"Panjakent","name:ml":"പഞ്ചകെന്റ്","name:pl":"Pandżakent","name:zh":"彭吉肯特","alt_name":"Panjikent;Panjekent;Panjikant;Penjikent","alt:ar":"بنجكنت","alt:uk":"Панджакент"},"display_name":"Панҷакент, Ноҳияи Панҷакент, Вилояти Суғд, 735500, Тоҷикистон","address":{"city":"Панҷакент","county":"Ноҳияи Панҷакент","state":"Вилояти Суғд","ISO3166-2-lvl4":"TJ-SU","postcode":"735500","country":"Тоҷикистон","country_code":"tj"},"population":33000,"osm_type":"way","osm_id":32554991,"type":"town","location":[67.6141456,39.4961693],"bbox":[67.5794401,39.4661651,67.6506651,39.5051188]}
{"name":"Парчасой","other_names":{"name:en":"Parchasoy","name:ru":"Парчасой","int_name":"Parchasoy"},"display_name":"Парчасой, Ноҳияи Ёвон, Вилояти Хатлон, Тоҷикистон","address":{"town":"Парчасой","county":"Ноҳияи Ёвон","state":"Вилояти Хатлон","ISO3166-2-lvl4":"TJ-KT","country":"Тоҷикистон","country_code":"tj"},"osm_type":"node","osm_id":3245144800,"type":"town","location":[69.0411458,38.2603398],"bbox":[69.0011458,38.2203398,69.0811458,38.3003398],"border":{"name":"Парчасой","other_names":{"name:en":"Parchasoy","name:ru":"Парчасой","int_name":"Parchasoy"},"display_name":"Парчасой, Ноҳияи Ёвон, Вилояти Хатлон, Тоҷикистон","address":{"town":"Парчасой","county":"Ноҳияи Ёвон","state":"Вилояти Хатлон","ISO3166-2-lvl4":"TJ-KT","country":"Тоҷикистон","country_code":"tj"},"osm_type":"way","osm_id":318137773,"type":"town","location":[69.0411458,38.2603398],"bbox":[69.0302528,38.2488481,69.052778,38.2906735]}}
{"name":"Роғун","other_names":{"name:de":"Rogun","name:en":"Roghun","name:fa":"راغون","name:fr":"Rogun","name:ru":"Рогун","name:ur":"راغون"},"display_name":"Роғун, Ноҳияи Роғун, Ноҳияҳои тобеи ҷумҳурӣ, 735417, Тоҷикистон","address":{"town":"Роғун","county":"Ноҳияи Роғун","state":"Ноҳияҳои тобеи ҷумҳурӣ","ISO3166-2-lvl4":"TJ-RA","postcode":"735417","country":"Тоҷикистон","country_code":"tj"},"osm_type":"node","osm_id":1830741873,"type":"town","location":[69.7572332,38.695202],"bbox":[69.7172332,38.655202,69.7972332,38.735202],"border":{"name":"Роғун","other_names":{"name:de":"Rogun","name:en":"Roghun","name:fa":"راغون","name:fr":"Rogun","name:ru":"Рогун","name:uz":"Rog'un","name:ur":"راغون"},"display_name":"Роғун, Ноҳияи Роғун, Ноҳияҳои тобеи ҷумҳурӣ, 735417, Тоҷикистон","address":{"town":"Роғун","county":"Ноҳияи Роғун","state":"Ноҳияҳои тобеи ҷумҳурӣ","ISO3166-2-lvl4":"TJ-RA","postcode":"735417","country":"Тоҷикистон","country_code":"tj"},"osm_type":"way","osm_id":368119416,"type":"town","location":[69.7572332,38.695202],"bbox":[69.7392052,38.6856611,69.7737424,38.7023752]}}
{"name":"Роштқалъа","other_names":{"name:en":"Roshtqal'a","name:ru":"Рошткала","name:tg":"Роштқалъа","name:ur":"راشت قالعہ"},"display_name":"Роштқалъа, Ноҳияи Роштқалъа, Вилояти Мухтори Кӯҳистони Бадахшон, Тоҷикистон","address":{"town":"Роштқалъа","county":"Ноҳияи Роштқалъа","state":"Вилояти Мухтори Кӯҳистони Бадахшон","ISO3166-2-lvl4":"TJ-GB","country":"Тоҷикистон","country_code":"tj"},"osm_type":"node","osm_id":5503621829,"type":"town","location":[71.8127203,37.262633],"bbox":[71.7727203,37.222633,71.8527203,37.302633],"border":{"name":"Роштқалъа","other_names":{"name:en":"Roshtqal'a","name:ru":"Рошткала","name:tg":"Роштқалъа","name:ur":"راشت قالعہ"},"display_name":"Роштқалъа, Ноҳияи Роштқалъа, Вилояти Мухтори Кӯҳистони Бадахшон, Тоҷикистон","address":{"town":"Роштқалъа","county":"Ноҳияи Роштқалъа","state":"Вилояти Мухтори Кӯҳистони Бадахшон","ISO3166-2-lvl4":"TJ-GB","country":"Тоҷикистон","country_code":"tj"},"osm_type":"relation","osm_id":18961683,"type":"town","location":[71.8127203,37.262633],"bbox":[71.8043637,37.2597073,71.8173495,37.2691434]}}
{"name":"Рӯшон","other_names":{"name:de":"Ruschon","name:en":"Rushon","name:fa":"روشان","name:fr":"Rushan","name:ja":"ルシャン","name:ks":"روشان","name:ml":"റൂഷാൻ","name:ru":"Рушан","name:tg":"Рӯшон","name:ur":"روشان","alt_name":"Вамар","name:azb":"روشان","name:ckb":"ڕۆشان","alt_name:en":"Vamar","alt_name:ru":"Вамар","name:az-Arab":"روشان","name:ku-Arab":"ڕۆشان"},"display_name":"Рӯшон, Ноҳияи Рӯшон, Вилояти Мухтори Кӯҳистони Бадахшон, 736200, Тоҷикистон","address":{"town":"Рӯшон","county":"Ноҳияи Рӯшон","state":"Вилояти Мухтори Кӯҳистони Бадахшон","ISO3166-2-lvl4":"TJ-GB","postcode":"736200","country":"Тоҷикистон","country_code":"tj"},"population":5000,"osm_type":"node","osm_id":4817903398,"type":"town","location":[71.5591114,37.9457923],"bbox":[71.5191114,37.9057923,71.5991114,37.9857923],"border":{"name":"Рӯшон","other_names":{"name:de":"Ruschon","name:en":"Rushon","name:fa":"روشان","name:fr":"Rushan","name:ja":"ルシャン","name:ks":"روشان","name:ru":"Рушан","name:tg":"Рӯшон","name:ur":"روشان","alt_name":"Вамар","name:azb":"روشان","name:ckb":"ڕۆشان","alt_name:en":"Vamar","alt_name:ru":"Вамар","name:az-Arab":"روشان","name:ku-Arab":"ڕۆشان","name:ml":"റൂഷാൻ"},"display_name":"Рӯшон, Ноҳияи Рӯшон, Вилояти Мухтори Кӯҳистони Бадахшон, 736200, Тоҷикистон","address":{"town":"Рӯшон","county":"Ноҳияи Рӯшон","state":"Вилояти Мухтори Кӯҳистони Бадахшон","ISO3166-2-lvl4":"TJ-GB","postcode":"736200","country":"Тоҷикистон","country_code":"tj"},"population":5000,"osm_type":"way","osm_id":339538970,"type":"town","location":[71.5591114,37.9457923],"bbox":[71.5401132,37.9164942,71.6106513,37.9548577]}}
{"name":"Сомониён","other_names":{"name:en":"Somoniyon","name:ja":"ソモニヨン","name:ml":"സാമാനിയാൻ","name:ru":"Сомониён","name:tg":"Сомониён","int_name":"Somoniyon","old_name":"Kuktosh;Koktash;imeni Karakhon Sardorova;имени Карахон Сардорова;Lenin;Leninskiy"},"display_name":"Сомониён, Ноҳияи Рӯдакӣ, Ноҳияҳои тобеи ҷумҳурӣ, 735100, Тоҷикистон","address":{"town":"Сомониён","county":"Ноҳияи Рӯдакӣ","state":"Ноҳияҳои тобеи ҷумҳурӣ","ISO3166-2-lvl4":"TJ-RA","postcode":"735100","country":"Тоҷикистон","country_code":"tj"},"population":18600,"osm_type":"node","osm_id":1577904854,"type":"town","location":[68.7738867,38.4419092],"bbox":[68.7338867,38.4019092,68.8138867,38.4819092],"border":{"name":"Сомониён","other_names":{"name:en":"Somoniyon","name:ja":"ソモニヨン","name:ru":"Сомониён","name:tg":"Сомониён","int_name":"Somoniyon","old_name":"Kuktosh;Koktash;imeni Karakhon Sardorova;имени Карахон Сардорова;Lenin;Leninskiy","name:ml":"സാമാനിയാൻ"},"display_name":"Сомониён, Ноҳияи Рӯдакӣ, Ноҳияҳои тобеи ҷумҳурӣ, 735100, Тоҷикистон","address":{"town":"Сомониён","county":"Ноҳияи Рӯдакӣ","state":"Ноҳияҳои тобеи ҷумҳурӣ","ISO3166-2-lvl4":"TJ-RA","postcode":"735100","country":"Тоҷикистон","country_code":"tj"},"population":18600,"osm_type":"way","osm_id":1367660024,"type":"town","location":[68.7738867,38.4419092],"bbox":[68.7405618,38.4154585,68.8012295,38.4546751]}}
{"name":"Тавилдара","other_names":{"name:en":"Tavildara","name:fa":"طویل‌دره","name:ja":"タヴィルダラ","name:ru":"Тавилдара","name:tg":"Тавилдара","name:ur":"طویل درہ","int_name":"Tavildara"},"display_name":"Тавилдара, Ноҳияи Сангвор, Ноҳияҳои тобеи ҷумҳурӣ, Тоҷикистон","address":{"town":"Тавилдара","county":"Ноҳияи Сангвор","state":"Ноҳияҳои тобеи ҷумҳурӣ","ISO3166-2-lvl4":"TJ-RA","country":"Тоҷикистон","country_code":"tj"},"osm_type":"node","osm_id":1295847953,"type":"town","location":[70.4841338,38.6976345],"bbox":[70.4441338,38.6576345,70.5241338,38.7376345],"border":{"name":"Тавилдара","other_names":{"name:en":"Tavildara","name:fa":"طویل‌دره","name:ja":"タヴィルダラ","name:ru":"Тавилдара","name:tg":"Тавилдара","int_name":"Tavildara","name:ur":"طویل درہ"},"display_name":"Тавилдара, Ноҳияи Сангвор, Ноҳияҳои тобеи ҷумҳурӣ, Тоҷикистон","address":{"town":"Тавилдара","county":"Ноҳияи Сангвор","state":"Ноҳияҳои тобеи ҷумҳурӣ","ISO3166-2-lvl4":"TJ-RA","country":"Тоҷикистон","country_code":"tj"},"osm_type":"way","osm_id":114384741,"type":"town","location":[70.4841338,38.6976345],"bbox":[70.4664675,38.6817451,70.4943713,38.6997544]}}
{"name":"Турсунзода","other_names":{"name:en":"Tursunzoda","name:ja":"ツルスンゾダ","name:ml":"തുർസൂൺസാദെ","name:ru":"Турсунзаде","name:ur":"تورسونزادہ","alt_name":"Tursunzade","int_name":"Tursunzoda","old_name":"Регар","old_name:en":"Regar"},"display_name":"Турсунзода, Ноҳияи Турсунзода, Ноҳияҳои тобеи ҷумҳурӣ, 735000, Тоҷикистон","address":{"town":"Турсунзода","county":"Ноҳияи Турсунзода","state":"Ноҳияҳои тобеи ҷумҳурӣ","ISO3166-2-lvl4":"TJ-RA","postcode":"735000","country":"Тоҷикистон","country_code":"tj"},"population":37000,"osm_type":"node","osm_id":364463217,"type":"town","location":[68.2317099,38.5138769],"bbox":[68.1917099,38.4738769,68.2717099,38.5538769],"border":{"name":"Ноҳияи Турсунзода","other_names":{"ref":"15","name:en":"Tursunzoda District","name:fa":"ناحیۀ ترسن زاده","name:ru":"Турсунзадевский район","name:tg":"Ноҳияи Турсунзода","alt_name":"Tursunzade"},"display_name":"Ноҳияи Турсунзода, Ноҳияҳои тобеи ҷумҳурӣ, 735000, Тоҷикистон","address":{"county":"Ноҳияи Турсунзода","state":"Ноҳияҳои тобеи ҷумҳурӣ","ISO3166-2-lvl4":"TJ-RA","postcode":"735000","country":"Тоҷикистон","country_code":"tj"},"population":195000,"osm_type":"relation","osm_id":3281944,"type":"administrative","location":[68.18822909953978,38.54669245],"bbox":[68.0566902,38.2212599,68.3961258,38.8705671]}}
{"name":"Фароб","other_names":{"name:en":"Farob","name:fa":"فراب","name:ru":"Фараб","name:tg":"Фароб"},"display_name":"Фароб, Ноҳияи Панҷакент, Вилояти Суғд, Тоҷикистон","address":{"town":"Фароб","county":"Ноҳияи Панҷакент","state":"Вилояти Суғд","ISO3166-2-lvl4":"TJ-SU","country":"Тоҷикистон","country_code":"tj"},"population":6188,"osm_type":"node","osm_id":2315066000,"type":"town","location":[67.47,39.240833],"bbox":[67.43,39.200833,67.51,39.280833]}
{"name":"Фархор","other_names":{"name:en":"Farkhor","name:ja":"ファルホール","name:ml":"ഫർഖാർ","name:ru":"Пархар","name:tg":"Фархор","name:ur":"فرخار","alt_name":"Parkhar","int_name":"Farkhor"},"display_name":"Фархор, Ноҳияи Фархор, Вилояти Хатлон, Тоҷикистон","address":{"town":"Фархор","county":"Ноҳияи Фархор","state":"Вилояти Хатлон","ISO3166-2-lvl4":"TJ-KT","country":"Тоҷикистон","country_code":"tj"},"population":22400,"osm_type":"node","osm_id":2503630312,"type":"town","location":[69.4003889,37.4932136],"bbox":[69.3603889,37.4532136,69.4403889,37.5332136],"border":[{"name":"Фархор","other_names":{"name:en":"Farkhor","name:ja":"ファルホール","name:ru":"Пархар","name:tg":"Фархор","alt_name":"Parkhar","int_name":"Farkhor","name:ml":"ഫർഖാർ","name:ur":"فرخار"},"display_name":"Фархор, Ноҳияи Фархор, Вилояти Хатлон, Тоҷикистон","address":{"town":"Фархор","county":"Ноҳияи Фархор","state":"Вилояти Хатлон","ISO3166-2-lvl4":"TJ-KT","country":"Тоҷикистон","country_code":"tj"},"population":22400,"osm_type":"relation","osm_id":7102763,"type":"town","location":[69.4003889,37.4932136],"bbox":[69.3863884,37.4754798,69.4305618,37.506787]},{"name":"Ноҳияи Фархор","other_names":{"ref":"49","name:en":"Farkhor District","name:fa":"شهرستان فرخار‎","name:ja":"ファルホール地区","name:ru":"Фархорский район","name:tg":"Ноҳияи Фархор","alt_name":"Parkhar"},"display_name":"Ноҳияи Фархор, Вилояти Хатлон, Тоҷикистон","address":{"county":"Ноҳияи Фархор","state":"Вилояти Хатлон","ISO3166-2-lvl4":"TJ-KT","country":"Тоҷикистон","country_code":"tj"},"population":137400,"osm_type":"relation","osm_id":3281966,"type":"administrative","location":[69.33026109920249,37.484606299999996],"bbox":[69.0949416,37.1917663,69.5577469,37.7778969]}]}
{"name":"Ҳисор","other_names":{"name:de":"Chisor","name:en":"Hisor","name:fa":"حصار","name:ja":"ギッサール","name:ml":"ഹിസാർ","name:ru":"Гиссар","name:tg":"Ҳисор","name:ur":"حصار","name:uz":"Hisor"},"display_name":"Ҳисор, Ноҳияи Ҳисор, Ноҳияҳои тобеи ҷумҳурӣ, 735020, Тоҷикистон","address":{"town":"Ҳисор","county":"Ноҳияи Ҳисор","state":"Ноҳияҳои тобеи ҷумҳурӣ","ISO3166-2-lvl4":"TJ-RA","postcode":"735020","country":"Тоҷикистон","country_code":"tj"},"osm_type":"node","osm_id":10671831815,"type":"town","location":[68.5579161,38.5297202],"bbox":[68.5179161,38.4897202,68.5979161,38.5697202]}
{"name":"Ҳулбук","other_names":{"name:en":"Hulbuk","name:ja":"フルブク","name:ml":"വാസെ","name:tg":"Восеъ","name:ur":"واسع","name:zh":"胡尔布克","int_name":"Vose'"},"display_name":"Ҳулбук, Ноҳияи Восеъ, Вилояти Хатлон, 735330, Тоҷикистон","address":{"town":"Ҳулбук","county":"Ноҳияи Восеъ","state":"Вилояти Хатлон","ISO3166-2-lvl4":"TJ-KT","postcode":"735330","country":"Тоҷикистон","country_code":"tj"},"population":19300,"osm_type":"node","osm_id":366857557,"type":"town","location":[69.6427389,37.8053722],"bbox":[69.6027389,37.7653722,69.6827389,37.8453722]}
{"name":"Чорбоғ","other_names":{"name:en":"Chorbogh","name:ml":"ചാർബാഗ്","name:ru":"Чорбог","name:ur":"چار باغ"},"display_name":"Чорбоғ, Ноҳияи Варзоб, Ноҳияҳои тобеи ҷумҳурӣ, 735103, Тоҷикистон","address":{"town":"Чорбоғ","county":"Ноҳияи Варзоб","state":"Ноҳияҳои тобеи ҷумҳурӣ","ISO3166-2-lvl4":"TJ-RA","postcode":"735103","country":"Тоҷикистон","country_code":"tj"},"osm_type":"node","osm_id":7647454204,"type":"town","location":[68.7560089,38.6646544],"bbox":[68.7160089,38.6246544,68.7960089,38.7046544],"border":{"name":"Чорбоғ","other_names":{"name:en":"Chorbogh","name:ml":"ചാർബാഗ്","name:ru":"Чорбог","name:ur":"چار باغ"},"display_name":"Чорбоғ, Ноҳияи Варзоб, Ноҳияҳои тобеи ҷумҳурӣ, 735103, Тоҷикистон","address":{"town":"Чорбоғ","county":"Ноҳияи Варзоб","state":"Ноҳияҳои тобеи ҷумҳурӣ","ISO3166-2-lvl4":"TJ-RA","postcode":"735103","country":"Тоҷикистон","country_code":"tj"},"osm_type":"way","osm_id":1367603329,"type":"town","location":[68.7560089,38.6646544],"bbox":[68.7360913,38.6471531,68.7675824,38.6812146]}}
{"name":"Шарора","other_names":{"name:en":"Sharora","name:lt":"Šarora","name:ml":"ഷറോറ","name:ur":"شرارہ"},"display_name":"Шарора, Ноҳияи Ҳисор, Ноҳияҳои тобеи ҷумҳурӣ, 735020, Тоҷикистон","address":{"town":"Шарора","county":"Ноҳияи Ҳисор","state":"Ноҳияҳои тобеи ҷумҳурӣ","ISO3166-2-lvl4":"TJ-RA","postcode":"735020","country":"Тоҷикистон","country_code":"tj"},"population":129000,"osm_type":"node","osm_id":7351090003,"type":"town","location":[68.6569734,38.4960422],"bbox":[68.6169734,38.4560422,68.6969734,38.5360422],"border":{"name":"Шарора","other_names":{"name:en":"Sharora","name:lt":"Šarora","name:ml":"ഷറോറ","name:ur":"شرارہ"},"display_name":"Шарора, Ноҳияи Ҳисор, Ноҳияҳои тобеи ҷумҳурӣ, 735020, Тоҷикистон","address":{"town":"Шарора","county":"Ноҳияи Ҳисор","state":"Ноҳияҳои тобеи ҷумҳурӣ","ISO3166-2-lvl4":"TJ-RA","postcode":"735020","country":"Тоҷикистон","country_code":"tj"},"population":129000,"osm_type":"way","osm_id":1367645196,"type":"town","location":[68.6569734,38.4960422],"bbox":[68.6422107,38.4869971,68.6668639,38.5066508]}}
{"name":"Шаҳристон","other_names":{"name:ar":"شهرستان","name:en":"Shahristan","name:ja":"シャフリストン","name:ml":"ഷഹ്റിസ്ഥാൻ","name:ru":"Шахристан","name:tg":"Шаҳристон","name:uk":"Шахрістан","name:ur":"شہرستان","alt_name":"Shakhristan","int_name":"Shariston"},"display_name":"Шаҳристон, Ноҳияи Шаҳристон, Вилояти Суғд, 735610, Тоҷикистон","address":{"town":"Шаҳристон","county":"Ноҳияи Шаҳристон","state":"Вилояти Суғд","ISO3166-2-lvl4":"TJ-SU","postcode":"735610","country":"Тоҷикистон","country_code":"tj"},"population":16500,"osm_type":"node","osm_id":271665694,"type":"town","location":[68.8121753,39.7745788],"bbox":[68.7721753,39.7345788,68.8521753,39.8145788]}
{"name":"Шаҳритӯс","other_names":{"name:en":"Shahrtuz","name:ja":"シャフルトゥース","name:ru":"Шахритус","name:tg":"Шаҳритӯс","name:uk":"Шахрітус","name:ur":"شہرستوز","name:zh":"沙尔图兹","int_name":"Shahrtuz","old_name":"Шаартуз"},"display_name":"Шаҳритӯс, Ҷамоати Худойназар Холматов, Ноҳияи Шаҳритус, Вилояти Хатлон, 735180, Тоҷикистон","address":{"town":"Шаҳритӯс","city":"Ҷамоати Худойназар Холматов","county":"Ноҳияи Шаҳритус","state":"Вилояти Хатлон","ISO3166-2-lvl4":"TJ-KT","postcode":"735180","country":"Тоҷикистон","country_code":"tj"},"population":13400,"osm_type":"node","osm_id":1573694697,"type":"town","location":[68.1438187,37.2665198],"bbox":[68.1038187,37.2265198,68.1838187,37.3065198],"border":{"name":"Шаҳритӯс","other_names":{"name:en":"Shahrtuz","name:ja":"シャフルトゥース","name:ru":"Шахритус","name:tg":"Шаҳритӯс","name:uk":"Шахрітус","name:zh":"沙尔图兹","int_name":"Shahrtuz","old_name":"Шаартуз","name:ur":"شہرستوز"},"display_name":"Шаҳритӯс, Ҷамоати Худойназар Холматов, Ноҳияи Шаҳритус, Вилояти Хатлон, 735180, Тоҷикистон","address":{"town":"Шаҳритӯс","city":"Ҷамоати Худойназар Холматов","county":"Ноҳияи Шаҳритус","state":"Вилояти Хатлон","ISO3166-2-lvl4":"TJ-KT","postcode":"735180","country":"Тоҷикистон","country_code":"tj"},"population":13400,"osm_type":"way","osm_id":1367658967,"type":"town","location":[68.1438187,37.2665198],"bbox":[68.1202587,37.2559988,68.1514027,37.2742467]}}
{"name":"Шӯрообод","other_names":{"name:en":"Shuroobod","name:fa":"شوراآباد","name:ja":"シュローバード","name:ml":"ഷൂറാബാദ്","name:ru":"Шуроабад","name:tg":"Шӯрообод","name:ur":"شورا آباد","alt_name":"Shurobod","int_name":"Shuro-obod"},"display_name":"Шӯрообод, Ҷамоати Шурабад, Ноҳияи Шамсиддин Шоҳин, Вилояти Хатлон, Тоҷикистон","address":{"town":"Шӯрообод","city":"Ҷамоати Шурабад","county":"Ноҳияи Шамсиддин Шоҳин","state":"Вилояти Хатлон","ISO3166-2-lvl4":"TJ-KT","country":"Тоҷикистон","country_code":"tj"},"osm_type":"node","osm_id":2377436509,"type":"town","location":[70.0495312,37.8410282],"bbox":[70.0095312,37.8010282,70.0895312,37.8810282],"border":{"name":"Шӯрообод","other_names":{"name:en":"Shuroobod","name:fa":"شوراآباد","name:ja":"シュローバード","name:ru":"Шуроабад","name:tg":"Шӯрообод","alt_name":"Shurobod","int_name":"Shuro-obod","name:ml":"ഷൂറാബാദ്","name:ur":"شورا آباد"},"display_name":"Шӯрообод, Ҷамоати Шурабад, Ноҳияи Шамсиддин Шоҳин, Вилояти Хатлон, Тоҷикистон","address":{"town":"Шӯрообод","city":"Ҷамоати Шурабад","county":"Ноҳияи Шамсиддин Шоҳин","state":"Вилояти Хатлон","ISO3166-2-lvl4":"TJ-KT","country":"Тоҷикистон","country_code":"tj"},"osm_type":"way","osm_id":1367633506,"type":"town","location":[70.0495312,37.8410282],"bbox":[70.0307148,37.8302412,70.0764461,37.8555645]}}
