{"name":"Sari Khosor - Shahidon","other_names":{"name:ru":"Сари-Хосор -Шахидон"},"display_name":"Sari Khosor - Shahidon, Ноҳияи Балҷувон, Вилояти Хатлон, Тоҷикистон","address":{"city":"Sari Khosor - Shahidon","county":"Ноҳияи Балҷувон","state":"Вилояти Хатлон","ISO3166-2-lvl4":"TJ-KT","country":"Тоҷикистон","country_code":"tj"},"osm_type":"way","osm_id":699824073,"type":"city","location":[69.83358879131275,38.534848249999996],"bbox":[69.8277721,38.5266778,69.8425671,38.5421535]}
{"name":"Бохтар","other_names":{"name:ar":"باختر","name:en":"Bokhtar","name:et":"Bohtar","name:fa":"باختر‎","name:ja":"ボクタール","name:ml":"ബാഖ്തർ","name:ps":"قرغانتپه","name:ru":"Бохтар","name:tr":"Kurganteppa","name:uk":"Бохтар","name:ur":"قرغانتپہ","name:uz":"Boxtar","name:zh":"波赫塔尔","alt_name":"Kurganteppa","name:azb":"قورغان‌تپه","old_name":"Курган-Тюбе","old_name:ar":"كورغان تبه","old_name:de":"Qurghonteppa","old_name:en":"Kurgan Tyube","old_name:fa":"قرغان‌تپه","old_name:fr":"Qurghonteppa","old_name:ja":"クルガンテッパ","old_name:ps":"قرغانتپه","old_name:ru":"Курган-Тюбе","old_name:tg":"Қурғонтеппа","old_name:ur":"قرغانتپہ","name:az-Arab":"قورغان‌تپه","old_name:azb":"قورغان‌تپه","old_name:en_1":"Qurghonteppa"},"display_name":"Бохтар, Ноҳияи Кӯшониён, Вилояти Хатлон, 735140, Тоҷикистон","address":{"city":"Бохтар","county":"Ноҳияи Кӯшониён","state":"Вилояти Хатлон","ISO3166-2-lvl4":"TJ-KT","postcode":"735140","country":"Тоҷикистон","country_code":"tj"},"population":110800,"osm_type":"node","osm_id":1813877089,"type":"city","location":[68.7820957,37.8357217],"bbox":[68.6220957,37.6757217,68.9420957,37.9957217],"border":{"name":"Бохтар","other_names":{"name:ar":"باختر","name:en":"Bokhtar","name:fa":"باختر‎","name:ps":"قرغانتپه","name:ru":"Бохтар","name:uk":"Бохтар","name:ur":"قرغانتپہ","alt_name":"Kurgan Tyube","name:azb":"قورغان‌تپه","old_name":"Қурғонтеппа","old_name:ar":"كورغان تبه","old_name:en":"Qurghonteppa","old_name:fr":"Qurghonteppa","old_name:ja":"クルガンテッパ","old_name:ps":"قرغانتپه","old_name:ru":"Курган-Тюбе","old_name:ur":"قرغانتپہ","name:az-Arab":"قورغان‌تپه","old_name:azb":"قورغان‌تپه","name:et":"Bohtar","name:ja":"ボクタール","name:ml":"ബാഖ്തർ","name:tr":"Kurganteppa","name:uz":"Boxtar","name:zh":"波赫塔尔","_place_alt_name":"Kurganteppa","_place_old_name":"Курган-Тюбе","old_name:de":"Qurghonteppa","_place_old_name:en":"Kurgan Tyube","old_name:fa":"قرغان‌تپه","old_name:tg":"Қурғонтеппа","old_name:en_1":"Qurghonteppa"},"display_name":"Бохтар, Ноҳияи Кӯшониён, Вилояти Хатлон, 733036, Тоҷикистон","address":{"city":"Бохтар","county":"Ноҳияи Кӯшониён","state":"Вилояти Хатлон","ISO3166-2-lvl4":"TJ-KT","postcode":"733036","country":"Тоҷикистон","country_code":"tj"},"population":110800,"osm_type":"way","osm_id":38153741,"type":"city","location":[68.7820957,37.8357217],"bbox":[68.740763,37.8183373,68.8104771,37.8597353]}}
{"name":"Деҳоти Дашти Ҷум","other_names":{"name:en":"Dashti-Jum Jamoat","name:ja":"ダシティジュム村","name:ru":"Даштиджумсий джаомат","name:tg":"Деҳоти Дашти Ҷум"},"display_name":"Деҳоти Дашти Ҷум, Ноҳияи Шамсиддин Шоҳин, Вилояти Хатлон, Тоҷикистон","address":{"city":"Деҳоти Дашти Ҷум","county":"Ноҳияи Шамсиддин Шоҳин","state":"Вилояти Хатлон","ISO3166-2-lvl4":"TJ-KT","country":"Тоҷикистон","country_code":"tj"},"osm_type":"relation","osm_id":6870527,"type":"administrative","location":[70.16905220911673,38.0071835],"bbox":[70.067725,37.9210958,70.307789,38.0940153],"inferred_type":"city"}
{"name":"Душанбе","other_names":{"name:af":"Doesjanbe","name:am":"ዱሻንቤ","name:an":"Duxanbe","name:ar":"دوشنبه","name:az":"Düşənbə","name:ba":"Дүшәнбе","name:be":"Душанбэ","name:bg":"Душанбе","name:bn":"দুশান্‌বে","name:bo":"དུ་ཤང་པེ།","name:br":"Douchanbe","name:bs":"Dušanbe","name:ca":"Duixanbe","name:cs":"Dušanbe","name:cu":"Доушанбє","name:cy":"Dushanbe","name:da":"Dusjanbe","name:de":"Duschanbe","name:el":"Ντουσαμπέ","name:en":"Dushanbe","name:eo":"Duŝanbeo","name:es":"Dusambé","name:et":"Dušanbe","name:eu":"Dushanbe","name:fa":"دوشنبه","name:fi":"Dušanbe","name:fr":"Douchanbé","name:fy":"Doesjanbe","name:ga":"Dushanbe","name:gd":"Dushanbe","name:gl":"Dushanbe","name:gn":"Dusambe","name:ha":"Dushanbe","name:he":"דושנבה","name:hi":"दुशान्बे","name:hr":"Dušanbe","name:ht":"Douchanbe","name:hu":"Dusanbe","name:hy":"Դուշանբե","name:ia":"Dushanbe","name:id":"Dushanbe","name:ie":"Dushanbe","name:io":"Dushanbe","name:is":"Dúshanbe","name:it":"Dušanbe","name:ja":"ドゥシャンベ","name:jv":"Dushanbe","name:ka":"დუშანბე","name:kk":"Душанбе","name:kn":"ದುಶಾಂಬೆ","name:ko":"두샨베","name:ku":"Duşenbe","name:kv":"Душанбе","name:ky":"Душанбе","name:la":"Dušanbe","name:lb":"Duschanbe","name:lo":"ດູຊານເບ","name:lt":"Dušanbė","name:lv":"Dušanbe","name:mk":"Душанбе","name:ml":"ദുഷാൻബെ","name:mn":"Душанбе","name:mr":"दुशांबे","name:ms":"Dushanbe","name:my":"ဒူရှန်ဘဲမြို့","name:nb":"Dusjanbe","name:ne":"दुसान्बे","name:nl":"Doesjanbe","name:nn":"Dusjanbe","name:no":"Dusjanbe","name:nv":"Daʼiiniih Łání","name:oc":"Doshambe","name:os":"Душанбе","name:pa":"ਦੁਸ਼ਾਂਬੇ","name:pl":"Duszanbe","name:ps":"دوشنبه","name:pt":"Duchambe","name:ro":"Dușanbe","name:ru":"Душанбе","name:sc":"Dushanbe","name:sd":"دوشنبي","name:sh":"Dušanbe","name:sk":"Dušanbe","name:sl":"Dušanbej","name:sn":"Dushanbe","name:sq":"Dushanbe","name:sr":"Душанбе","name:sv":"Dusjanbe","name:sw":"Dushanbe","name:ta":"துசான்பே","name:tg":"Душанбе","name:th":"ดูชานเบ","name:tk":"Duşanbe","name:tl":"Dushanbe","name:tr":"Duşanbe","name:tt":"Дүшәнбе","name:ug":"Düshenbe","name:uk":"Душанбе","name:ur":"دوشنبہ","name:uz":"Dushanbe","name:vi":"Dushanbe","name:yi":"דושאנבע","name:yo":"Dushanbe","name:zh":"杜尚别","int_name":"Dushanbe","name:ace":"Dushanbe","name:ckb":"دوشەنبە","name:gag":"Duşanbe","name:hif":"Dushanbe","name:hsb":"Dušanbe","name:kab":"Ducambi","name:lad":"Dushanbe","name:lmo":"Dušanbe","name:mhr":"Душанбе","name:nan":"Dushanbe","name:nov":"Dushanbe","name:pap":"Dusjanbe","name:pms":"Dušanbe","name:sah":"Душанбе","name:sco":"Dushanbe","name:udm":"Душанбе","name:war":"Dushanbe","old_name":"Stalinabad","name:simple":"Dushanbe","old_name:ru":"Сталинабад"},"display_name":"Душанбе, 734000, Тоҷикистон","address":{"city":"Душанбе","ISO3166-2-lvl4":"TJ-DU","postcode":"734000","country":"Тоҷикистон","country_code":"tj"},"population":846400,"osm_type":"node","osm_id":27547977,"type":"city","location":[68.7863573,38.5762709],"bbox":[68.6263573,38.4162709,68.9463573,38.7362709],"border":[{"name":"Душанбе","other_names":{"name:af":"Doesjanbe","name:am":"ዱሻንቤ","name:ar":"دوشنبه","name:az":"Düşənbə","name:be":"Душанбэ","name:bg":"Душанбе","name:bn":"দুশান্‌বে","name:bo":"དུ་ཤང་པེ།","name:br":"Douchanbe","name:bs":"Dušanbe","name:ca":"Duixanbe","name:cs":"Dušanbe","name:cy":"Dushanbe","name:da":"Dusjanbe","name:de":"Duschanbe","name:el":"Ντουσαμπέ","name:en":"Dushanbe","name:eo":"Duŝanbeo","name:es":"Dusambé","name:et":"Dušanbe","name:eu":"Dushanbe","name:fa":"دوشنبه","name:fi":"Dušanbe","name:fr":"Douchanbé","name:fy":"Doesjanbe","name:ga":"Dushanbe","name:gd":"Dushanbe","name:gl":"Dushanbe","name:he":"דושנבה","name:hi":"दुशान्बे","name:hr":"Dušanbe","name:ht":"Douchanbe","name:hu":"Dusanbe","name:hy":"Դուշանբե","name:id":"Dushanbe","name:ie":"Dushanbe","name:io":"Dushanbe","name:is":"Dúshanbe","name:it":"Dušanbe","name:ja":"ドゥシャンベ","name:ka":"დუშანბე","name:kk":"Душанбе","name:kn":"ದುಶಾಂಬೆ","name:ko":"두샨베","name:ku":"Duşenbe","name:kv":"Душанбе","name:ky":"Душанбе","name:lt":"Dušanbė","name:lv":"Dušanbe","name:mk":"Душанбе","name:ml":"ദുഷാൻബെ","name:mn":"Душанбе","name:mr":"दुशांबे","name:nl":"Doesjanbe","name:nn":"Dusjanbe","name:no":"Dusjanbe","name:oc":"Doshambe","name:os":"Душанбе","name:pl":"Duszanbe","name:ps":"دوشنبه","name:pt":"Duchambe","name:ro":"Dușanbe","name:ru":"Душанбе","name:sh":"Dušanbe","name:sk":"Dušanbe","name:sl":"Dušanbej","name:sq":"Dushanbe","name:sr":"Душанбе","name:sv":"Dusjanbe","name:sw":"Dushanbe","name:ta":"துசான்பே","name:tg":"Душанбе","name:th":"ดูชานเบ","name:tl":"Dushanbe","name:tr":"Duşanbe","name:tt":"Дүшәнбе","name:ug":"Düshenbe","name:uk":"Душанбе","name:ur":"دوشنبہ","name:uz":"Dushanbe","name:vi":"Dushanbe","name:yi":"דושאנבע","name:yo":"Dushanbe","name:zh":"杜尚别","alt_name":"Dushanbie","int_name":"Dushanbe","name:ace":"Dushanbe","name:ckb":"دوشەنبە","name:gag":"Duşanbe","name:hif":"Dushanbe","name:hsb":"Dušanbe","name:lad":"Dushanbe","name:lmo":"Dušanbe","name:mhr":"Душанбе","name:nan":"Dushanbe","name:nov":"Dushanbe","name:pap":"Dusjanbe","name:pms":"Dušanbe","name:sah":"Душанбе","name:sco":"Dushanbe","name:udm":"Душанбе","name:war":"Dushanbe","name:simple":"Dushanbe","name:be-tarask":"Душанбэ"},"display_name":"Душанбе, 734000, Тоҷикистон","address":{"city":"Душанбе","ISO3166-2-lvl4":"TJ-DU","postcode":"734000","country":"Тоҷикистон","country_code":"tj"},"osm_type":"relation","osm_id":4479735,"type":"city","location":[68.76033097270303,38.5856814],"bbox":[68.688826,38.464479,68.8869429,38.7068383]},{"name":"Душанбе","other_names":{"name:af":"Doesjanbe","name:am":"ዱሻንቤ","name:ar":"دوشنبه","name:az":"Düşənbə","name:be":"Душанбэ","name:bg":"Душанбе","name:bn":"দুশান্‌বে","name:bo":"དུ་ཤང་པེ།","name:br":"Douchanbe","name:bs":"Dušanbe","name:ca":"Duixanbe","name:cs":"Dušanbe","name:cy":"Dushanbe","name:da":"Dusjanbe","name:de":"Duschanbe","name:el":"Ντουσαμπέ","name:en":"Dushanbe","name:eo":"Duŝanbeo","name:es":"Dusambé","name:et":"Dušanbe","name:eu":"Dushanbe","name:fa":"دوشنبه","name:fi":"Dušanbe","name:fr":"Douchanbé","name:fy":"Doesjanbe","name:ga":"Dushanbe","name:gd":"Dushanbe","name:gl":"Dushanbe","name:he":"דושנבה","name:hi":"दुशान्बे","name:hr":"Dušanbe","name:ht":"Douchanbe","name:hu":"Dusanbe","name:hy":"Դուշանբե","name:id":"Dushanbe","name:ie":"Dushanbe","name:io":"Dushanbe","name:is":"Dúshanbe","name:it":"Dušanbe","name:ja":"ドゥシャンベ","name:ka":"დუშანბე","name:kk":"Душанбе","name:kn":"ದುಶಾಂಬೆ","name:ko":"두샨베","name:ku":"Duşenbe","name:kv":"Душанбе","name:ky":"Душанбе","name:lt":"Dušanbė","name:lv":"Dušanbe","name:mk":"Душанбе","name:ml":"ദുഷാൻബെ","name:mn":"Душанбе","name:mr":"दुशांबे","name:nl":"Doesjanbe","name:nn":"Dusjanbe","name:no":"Dusjanbe","name:oc":"Doshambe","name:os":"Душанбе","name:pl":"Duszanbe","name:ps":"دوشنبه","name:pt":"Duchambe","name:ro":"Dușanbe","name:ru":"Душанбе","name:sh":"Dušanbe","name:sk":"Dušanbe","name:sl":"Dušanbej","name:sq":"Dushanbe","name:sr":"Душанбе","name:sv":"Dusjanbe","name:sw":"Dushanbe","name:ta":"துசான்பே","name:tg":"Душанбе","name:th":"ดูชานเบ","name:tl":"Dushanbe","name:tr":"Duşanbe","name:tt":"Дүшәнбе","name:ug":"Düshenbe","name:uk":"Душанбе","name:ur":"دوشنبہ","name:uz":"Dushanbe","name:vi":"Dushanbe","name:yi":"דושאנבע","name:yo":"Dushanbe","name:zh":"杜尚别","int_name":"Dushanbe","name:ace":"Dushanbe","name:ckb":"دوشەنبە","name:gag":"Duşanbe","name:hif":"Dushanbe","name:hsb":"Dušanbe","name:lad":"Dushanbe","name:lmo":"Dušanbe","name:mhr":"Душанбе","name:nan":"Dushanbe","name:nov":"Dushanbe","name:pap":"Dusjanbe","name:pms":"Dušanbe","name:sah":"Душанбе","name:sco":"Dushanbe","name:udm":"Душанбе","name:war":"Dushanbe","ISO3166-2":"TJ-DU","name:short":"RRP","name:simple":"Dushanbe","name:an":"Duxanbe","name:ba":"Дүшәнбе","name:cu":"Доушанбє","name:gn":"Dusambe","name:ha":"Dushanbe","name:ia":"Dushanbe","name:jv":"Dushanbe","name:la":"Dušanbe","name:lb":"Duschanbe","name:lo":"ດູຊານເບ","name:ms":"Dushanbe","name:my":"ဒူရှန်ဘဲမြို့","name:nb":"Dusjanbe","name:ne":"दुसान्बे","name:nv":"Daʼiiniih Łání","name:pa":"ਦੁਸ਼ਾਂਬੇ","name:sc":"Dushanbe","name:sd":"دوشنبي","name:sn":"Dushanbe","name:tk":"Duşanbe","name:be-tarask":"Душанбэ","name:kab":"Ducambi","old_name":"Stalinabad","old_name:ru":"Сталинабад"},"display_name":"Душанбе, Тоҷикистон","address":{"city":"Душанбе","ISO3166-2-lvl4":"TJ-DU","country":"Тоҷикистон","country_code":"tj"},"population":846400,"osm_type":"relation","osm_id":7328360,"type":"administrative","location":[68.7863573,38.5762709],"bbox":[68.688826,38.464479,68.8869429,38.7068383]}]}
{"name":"Кӯлоб","other_names":{"name:de":"Kulob","name:en":"Kulob","name:es":"Kulob","name:et":"Kulob","name:fa":"کولاب","name:fr":"Kulob","name:ja":"クリャーブ","name:ml":"കൂലാബ്","name:ru":"Куляб","name:tg":"Кӯлоб","name:tr":"Kulob","name:uk":"Куляб","name:uz":"Ko'lob","name:zh":"库洛布","int_name":"Kulob"},"display_name":"Кӯлоб, Ноҳияи Кӯлоб, Вилояти Хатлон, 735140, Тоҷикистон","address":{"city":"Кӯлоб","county":"Ноҳияи Кӯлоб","state":"Вилояти Хатлон","ISO3166-2-lvl4":"TJ-KT","postcode":"735140","country":"Тоҷикистон","country_code":"tj"},"population":104400,"osm_type":"node","osm_id":11342465163,"type":"city","location":[69.7739482,37.9081024],"bbox":[69.6139482,37.7481024,69.9339482,38.0681024]}
{"name":"Панҷакент","other_names":{"name:ar":"بنجكنت","name:de":"Pandschakent","name:en":"Panjakent","name:et":"Pandžakent","name:eu":"Panjakent","name:fa":"پنجکنت","name:ja":"パンジケント","name:ml":"പഞ്ചകെന്റ്","name:pl":"Pandżakent","name:ru":"Пенджикент","name:sv":"Pendzjikent","name:tg":"Панҷакент","name:uk":"Панджакент","name:zh":"彭吉肯特","alt_name":"Panjikent;Panjekent;Panjikant;Penjikent","int_name":"Panjakent"},"display_name":"Панҷакент, Ноҳияи Панҷакент, Вилояти Суғд, 735500, Тоҷикистон","address":{"city":"Панҷакент","county":"Ноҳияи Панҷакент","state":"Вилояти Суғд","ISO3166-2-lvl4":"TJ-SU","postcode":"735500","country":"Тоҷикистон","country_code":"tj"},"population":41200,"osm_type":"node","osm_id":271664614,"type":"city","location":[67.6141456,39.4961693],"bbox":[67.4541456,39.3361693,67.7741456,39.6561693]}
{"name":"Хоруғ","other_names":{"name:ar":"خاروغ","name:de":"Chorugh","name:en":"Khorugh","name:es":"Khorugh","name:eu":"Khorog","name:fa":"خاروغ‎","name:fr":"Khorog","name:ja":"ホログ","name:lt":"Chorogas","name:ml":"ഖാറൂഗ്","name:pl":"Chorog","name:ru":"Хорог","name:tg":"Хоруғ","name:uk":"Хороґ","name:zh":"霍罗格","alt_name":"Khorog","int_name":"Khorogh","name:sgh":"Харағ"},"display_name":"Хоруғ, Ноҳияи Шуғнон, Вилояти Мухтори Кӯҳистони Бадахшон, 736000, Тоҷикистон","address":{"city":"Хоруғ","county":"Ноҳияи Шуғнон","state":"Вилояти Мухтори Кӯҳистони Бадахшон","ISO3166-2-lvl4":"TJ-GB","postcode":"736000","country":"Тоҷикистон","country_code":"tj"},"population":30000,"osm_type":"node","osm_id":271687522,"type":"city","location":[71.5493236,37.4903687],"bbox":[71.3893236,37.3303687,71.7093236,37.6503687],"border":{"name":"Хоруғ","other_names":{"name:ar":"خاروغ","name:de":"Chorugh","name:en":"Khorugh","name:es":"Khorugh","name:eu":"Khorog","name:fa":"خاروغ‎","name:fr":"Khorog","name:ja":"ホログ","name:lt":"Chorogas","name:ml":"ഖോരുഗ്","name:pl":"Chorog","name:ru":"Хорог","name:tg":"Хоруғ","name:uk":"Хороґ","name:zh":"霍罗格","alt_name":"Khorog","int_name":"Khorogh","name:sgh":"Харағ","alt:ml":"ഖാറൂഗ്"},"display_name":"Хоруғ, Ноҳияи Шуғнон, Вилояти Мухтори Кӯҳистони Бадахшон, Тоҷикистон","address":{"city":"Хоруғ","county":"Ноҳияи Шуғнон","state":"Вилояти Мухтори Кӯҳистони Бадахшон","ISO3166-2-lvl4":"TJ-GB","country":"Тоҷикистон","country_code":"tj"},"population":30000,"osm_type":"way","osm_id":1367629514,"type":"city","location":[71.5493236,37.4903687],"bbox":[71.5164637,37.4673529,71.6014006,37.5101303]}}
{"name":"Хуҷанд","other_names":{"name:ar":"خجند","name:de":"Chudschand","name:en":"Khujand","name:es":"Khodjent","name:et":"Hudžand","name:eu":"Khujand","name:fr":"Khodjent","name:ja":"ホジェンド","name:ml":"ഖുജന്ദ്","name:pl":"Chodżent","name:pt":"Khujand","name:ro":"Hudjand","name:ru":"Худжанд","name:sv":"Chudzjand","name:tr":"Hucend","name:tt":"Хуҗанд","name:uk":"Худжанд","name:uz":"Xo'jand","name:zh":"苦盏","int_name":"Khujand","old_name":"Ленинабад","alt_name:ru":"Ходжент","name:uz-cyr":"Хўжанд","old_name:en":"Leninabad","old_name:ru":"Ленинабад"},"display_name":"Хуҷанд, Шаҳри Хуҷанд, Вилояти Суғд, 735700, Тоҷикистон","address":{"city":"Хуҷанд","state":"Вилояти Суғд","ISO3166-2-lvl4":"TJ-SU","postcode":"735700","country":"Тоҷикистон","country_code":"tj"},"population":181600,"osm_type":"node","osm_id":246078046,"type":"city","location":[69.6191669,40.2844189],"bbox":[69.4591669,40.1244189,69.7791669,40.4444189],"border":[{"name":"Хуҷанд","other_names":{"name:de":"Chudschand","name:en":"Khujand","name:es":"Khodjent","name:et":"Hudžand","name:fa":"خجند","name:fr":"Khodjent","name:ja":"ホジェンド","name:pt":"Khujand","name:ro":"Hudjand","name:ru":"Худжанд","name:sv":"Chudzjand","name:tt":"Хуҗанд","name:uk":"Худжанд","name:uz":"Xo'jand","name:zh":"苦盏","alt_name":"Khuchand","int_name":"Khujand","old_name":"Ленинабад","alt_name:ru":"Ходжент","name:uz-cyr":"Хўжанд","old_name:en":"Leninabad","old_name:ru":"Ленинабад"},"display_name":"Хуҷанд, Шаҳри Хуҷанд, Вилояти Суғд, 735700, Тоҷикистон","address":{"city":"Хуҷанд","state":"Вилояти Суғд","ISO3166-2-lvl4":"TJ-SU","postcode":"735700","country":"Тоҷикистон","country_code":"tj"},"population":400900,"osm_type":"relation","osm_id":8795605,"type":"city","location":[69.63136226680273,40.277351100000004],"bbox":[69.5410536,40.2358036,69.7288512,40.3220455]},{"name":"Шаҳри Хуҷанд","other_names":{"name:en":"Khujand","name:fa":"شهر خجند","name:ja":"ホジェンド市","name:ru":"г.Худжанд","name:tg":"Шаҳри Хуҷанд","name:uz":"Xo'jand shahri","name:uz-Cyrl":"Хўжанд шаҳри","name:uz-Latn":"Xo'jand shahri","name:ar":"خجند","name:de":"Chudschand","name:es":"Khodjent","name:et":"Hudžand","name:eu":"Khujand","name:fr":"Khodjent","name:ml":"ഖുജന്ദ്","name:pl":"Chodżent","name:pt":"Khujand","name:ro":"Hudjand","name:sv":"Chudzjand","name:tr":"Hucend","name:tt":"Хуҗанд","name:uk":"Худжанд","name:zh":"苦盏","int_name":"Khujand","old_name":"Ленинабад","alt_name:ru":"Ходжент","name:uz-cyr":"Хўжанд","old_name:en":"Leninabad","old_name:ru":"Ленинабад","alt":"Хуҷанд","alt:ja":"ホジェンド","alt:ru":"Худжанд","alt:uz":"Xo'jand"},"display_name":"Шаҳри Хуҷанд, Вилояти Суғд, Тоҷикистон","address":{"city":"Шаҳри Хуҷанд","state":"Вилояти Суғд","ISO3166-2-lvl4":"TJ-SU","country":"Тоҷикистон","country_code":"tj"},"population":181600,"osm_type":"relation","osm_id":15520796,"type":"administrative","location":[69.6191669,40.2844189],"bbox":[69.5612523,40.2623896,69.6740681,40.3316825]}]}
{"name":"Ҷамоати деҳоти Ифтихор","other_names":{"name:ar":"افتخار","name:en":"Iftikhor Community of villages","name:fa":"جماعت دهات افتخار","name:tg":"Ҷамоати деҳоти Ифтихор","name:uz":"Iftixor aholi punktlari"},"display_name":"Ҷамоати деҳоти Ифтихор, Ноҳияи Ашт, Вилояти Суғд, Тоҷикистон","address":{"city":"Ҷамоати деҳоти Ифтихор","county":"Ноҳияи Ашт","state":"Вилояти Суғд","ISO3166-2-lvl4":"TJ-SU","country":"Тоҷикистон","country_code":"tj"},"osm_type":"relation","osm_id":15525759,"type":"administrative","location":[70.65209324676138,40.68076125],"bbox":[70.4308381,40.5543623,70.6999906,40.8072252],"inferred_type":"city"}
{"name":"Ҷамоати деҳоти Қалъаи Баланд","other_names":{"name:en":"Qal'ai Baland Community of villages","name:fa":"جماعت دهات قلعه بلند","name:ja":"カライ・バランド村","name:tg":"Ҷамоати деҳоти Қалъаи Баланд","name:uz":"Qal'ayi Baland aholi punktlari","alt_name:en":"Qalaibaland"},"display_name":"Ҷамоати деҳоти Қалъаи Баланд, Ноҳияи Истаравшан, Вилояти Суғд, 735610, Тоҷикистон","address":{"city":"Ҷамоати деҳоти Қалъаи Баланд","county":"Ноҳияи Истаравшан","state":"Вилояти Суғд","ISO3166-2-lvl4":"TJ-SU","postcode":"735610","country":"Тоҷикистон","country_code":"tj"},"osm_type":"relation","osm_id":15520737,"type":"administrative","location":[69.0224725432893,39.85414915],"bbox":[69.0042981,39.8324546,69.0324277,39.8754855],"inferred_type":"city"}
{"name":"Ҷамоати деҳоти Меҳробод","other_names":{"name:en":"Mehrobod Community of villages","name:fa":"جماعت دهات مهرآباد","name:ja":"メフラバード村","name:tg":"Ҷамоати деҳоти Меҳробод","name:uz":"Mehrobod aholi punktlari"},"display_name":"Ҷамоати деҳоти Меҳробод, Ноҳияи Ашт, Вилояти Суғд, Тоҷикистон","address":{"city":"Ҷамоати деҳоти Меҳробод","county":"Ноҳияи Ашт","state":"Вилояти Суғд","ISO3166-2-lvl4":"TJ-SU","country":"Тоҷикистон","country_code":"tj"},"osm_type":"relation","osm_id":15525754,"type":"administrative","location":[70.24872919647575,40.57428645],"bbox":[69.961456,40.3637543,70.5149061,40.7831527],"inferred_type":"city"}
{"name":"Ҷамоати деҳоти Понғоз","other_names":{"name:ar":"بانغاز","name:en":"Ponghoz Community of villages","name:fa":"جماعت دهات پانغاز","name:tg":"Ҷамоати деҳоти Понғоз","name:uz":"Pong'oz aholi punktlari"},"display_name":"Ҷамоати деҳоти Понғоз, Ноҳияи Ашт, Вилояти Суғд, Тоҷикистон","address":{"city":"Ҷамоати деҳоти Понғоз","county":"Ноҳияи Ашт","state":"Вилояти Суғд","ISO3166-2-lvl4":"TJ-SU","country":"Тоҷикистон","country_code":"tj"},"osm_type":"relation","osm_id":15525757,"type":"administrative","location":[70.2105205848512,40.77471055],"bbox":[70.1027315,40.6628276,70.3452136,40.8867048],"inferred_type":"city"}
{"name":"Ҷамоати деҳоти Пунук","other_names":{"name:ar":"بونوك","name:en":"Punuk Community of villages","name:fa":"جماعت دهات پونوک","name:ja":"プヌク村","name:tg":"Ҷамоати деҳоти Пунук","name:uz":"Punuk aholi punktlari"},"display_name":"Ҷамоати деҳоти Пунук, Ноҳияи Ашт, Вилояти Суғд, Тоҷикистон","address":{"city":"Ҷамоати деҳоти Пунук","county":"Ноҳияи Ашт","state":"Вилояти Суғд","ISO3166-2-lvl4":"TJ-SU","country":"Тоҷикистон","country_code":"tj"},"osm_type":"relation","osm_id":15525762,"type":"administrative","location":[70.54455225963011,40.893125350000005],"bbox":[70.3746187,40.7412572,70.7639908,41.0450935],"inferred_type":"city"}
{"name":"Ҷамоати деҳоти Роҳатӣ","other_names":{"name:ar":"أشت","name:en":"Asht Community of villages","name:fa":"جماعت دهات اشت","name:tg":"Ҷамоати деҳоти Ашт","name:uz":"Asht aholi punktlari"},"display_name":"Ҷамоати деҳоти Роҳатӣ, Ноҳияи Ашт, Вилояти Суғд, Тоҷикистон","address":{"city":"Ҷамоати деҳоти Роҳатӣ","county":"Ноҳияи Ашт","state":"Вилояти Суғд","ISO3166-2-lvl4":"TJ-SU","country":"Тоҷикистон","country_code":"tj"},"osm_type":"relation","osm_id":15525761,"type":"administrative","location":[70.5682246486634,40.83954455],"bbox":[70.3706023,40.7254144,70.6682804,40.9535125],"inferred_type":"city"}
{"name":"Ҷамоати деҳоти Роҳатӣ","other_names":{"name:en":"Rohati Community of villages","name:fa":"جماعت دهات راحتی","name:ja":"ロハティ村","name:tg":"Ҷамоати деҳоти Роҳатӣ","name:uz":"Rohati aholi punktlari"},"display_name":"Ҷамоати деҳоти Роҳатӣ, Ноҳияи Рӯдакӣ, Ноҳияҳои тобеи ҷумҳурӣ, 735100, Тоҷикистон","address":{"city":"Ҷамоати деҳоти Роҳатӣ","county":"Ноҳияи Рӯдакӣ","state":"Ноҳияҳои тобеи ҷумҳурӣ","ISO3166-2-lvl4":"TJ-RA","postcode":"735100","country":"Тоҷикистон","country_code":"tj"},"osm_type":"relation","osm_id":15517408,"type":"administrative","location":[68.91505768355537,38.6040172],"bbox":[68.8808017,38.5452857,68.980425,38.6632249],"inferred_type":"city"}
{"name":"Ҷамоати деҳоти Чоргул","other_names":{"name:en":"Chorgul Community of villages","name:fa":"جماعت دهات چهارگل","name:ja":"チョルグル村","name:tg":"Ҷамоати деҳоти Чоргул","name:uz":"Chorgul aholi punktlari"},"display_name":"Ҷамоати деҳоти Чоргул, Ноҳияи Ёвон, Вилояти Хатлон, Тоҷикистон","address":{"city":"Ҷамоати деҳоти Чоргул","county":"Ноҳияи Ёвон","state":"Вилояти Хатлон","ISO3166-2-lvl4":"TJ-KT","country":"Тоҷикистон","country_code":"tj"},"osm_type":"relation","osm_id":15517492,"type":"administrative","location":[68.9417035342795,38.2748946],"bbox":[68.8308239,38.2018167,69.0221209,38.3478922],"inferred_type":"city"}
{"name":"Ҷамоати деҳоти Шодоба","other_names":{"name:ar":"شادابه","name:en":"Shodoba Community of villages","name:fa":"جماعت دهات شادابه","name:tg":"Ҷамоати деҳоти Шодоба","name:uz":"Shodoba aholi punktlari"},"display_name":"Ҷамоати деҳоти Шодоба, Ноҳияи Ашт, Вилояти Суғд, Тоҷикистон","address":{"city":"Ҷамоати деҳоти Шодоба","county":"Ноҳияи Ашт","state":"Вилояти Суғд","ISO3166-2-lvl4":"TJ-SU","country":"Тоҷикистон","country_code":"tj"},"osm_type":"relation","osm_id":15525755,"type":"administrative","location":[70.46295546486695,40.610169049999996],"bbox":[70.4163163,40.5499946,70.5500621,40.6687406],"inferred_type":"city"}
{"name":"Ҷамоати Доғистон","other_names":{"name:en":"Doghiston Jamoat","name:ja":"ドギストン町","name:ru":"Догистонский джаомат","name:tg":"Ҷамоати Доғистон"},"display_name":"Ҷамоати Доғистон, Ноҳияи Шамсиддин Шоҳин, Вилояти Хатлон, Тоҷикистон","address":{"city":"Ҷамоати Доғистон","county":"Ноҳияи Шамсиддин Шоҳин","state":"Вилояти Хатлон","ISO3166-2-lvl4":"TJ-KT","country":"Тоҷикистон","country_code":"tj"},"osm_type":"relation","osm_id":6870530,"type":"administrative","location":[70.064388106447,37.92017875],"bbox":[69.9720784,37.870974,70.1489816,37.9782599],"inferred_type":"city"}
{"name":"Ҷамоати Йол","other_names":{"name:en":"Jol Jamoat","name:ja":"ヨル村","name:ru":"Йолский джаомат","name:tg":"Ҷамоати Йол"},"display_name":"Ҷамоати Йол, Ноҳияи Шамсиддин Шоҳин, Вилояти Хатлон, Тоҷикистон","address":{"city":"Ҷамоати Йол","county":"Ноҳияи Шамсиддин Шоҳин","state":"Вилояти Хатлон","ISO3166-2-lvl4":"TJ-KT","country":"Тоҷикистон","country_code":"tj"},"osm_type":"relation","osm_id":6870526,"type":"administrative","location":[70.19996859048078,37.72699585],"bbox":[70.0571459,37.5230395,70.3034017,37.9323218],"inferred_type":"city"}
{"name":"Ҷамоати Лангардара","other_names":{"name:en":"Langardara Jamoat","name:ja":"ランガルダラ村","name:ru":"Лангардарский джаомат","name:tg":"Ҷамоати Лангардара"},"display_name":"Ҷамоати Лангардара, Ноҳияи Шамсиддин Шоҳин, Вилояти Хатлон, Тоҷикистон","address":{"city":"Ҷамоати Лангардара","county":"Ноҳияи Шамсиддин Шоҳин","state":"Вилояти Хатлон","ISO3166-2-lvl4":"TJ-KT","country":"Тоҷикистон","country_code":"tj"},"osm_type":"relation","osm_id":6870524,"type":"administrative","location":[70.27295265937306,38.22410185],"bbox":[70.133565,38.046474,70.3771704,38.4005698],"inferred_type":"city"}
{"name":"Ҷамоати Обшорон","other_names":{"name:uk":"Обшоронський джамоат"},"display_name":"Ҷамоати Обшорон, Ноҳияи Шаҳритус, Вилояти Хатлон, Тоҷикистон","address":{"city":"Ҷамоати Обшорон","county":"Ноҳияи Шаҳритус","state":"Вилояти Хатлон","ISO3166-2-lvl4":"TJ-KT","country":"Тоҷикистон","country_code":"tj"},"osm_type":"relation","osm_id":15773291,"type":"administrative","location":[68.07909858262202,37.22620835],"bbox":[68.0472637,37.1852855,68.1240865,37.2674579],"inferred_type":"city"}
{"name":"Ҷамоати Пахтаобод","other_names":{"name:ja":"パフタバード町","name:uk":"Пахтаободський джамоат"},"display_name":"Ҷамоати Пахтаобод, Ноҳияи Шаҳритус, Вилояти Хатлон, Тоҷикистон","address":{"city":"Ҷамоати Пахтаобод","county":"Ноҳияи Шаҳритус","state":"Вилояти Хатлон","ISO3166-2-lvl4":"TJ-KT","country":"Тоҷикистон","country_code":"tj"},"osm_type":"relation","osm_id":15773082,"type":"administrative","location":[68.03642516635401,37.652576499999995],"bbox":[67.7901605,37.368443,68.2670839,37.9361048],"inferred_type":"city"}
{"name":"Ҷамоати Сари чашма","other_names":{"name:en":"Sarichashma Jamoat","name:ja":"サリ・チャシマ町","name:ru":"Саричашмский джамоат","name:tg":"Ҷамоати Сари чашма"},"display_name":"Ҷамоати Сари чашма, Ноҳияи Шамсиддин Шоҳин, Вилояти Хатлон, Тоҷикистон","address":{"city":"Ҷамоати Сари чашма","county":"Ноҳияи Шамсиддин Шоҳин","state":"Вилояти Хатлон","ISO3166-2-lvl4":"TJ-KT","country":"Тоҷикистон","country_code":"tj"},"osm_type":"relation","osm_id":6870528,"type":"administrative","location":[69.96996367071003,37.672694699999994],"bbox":[69.7940112,37.543585,70.130276,37.8065782],"inferred_type":"city"}
{"name":"Ҷамоати Талбак Садриддинов","other_names":{"name:uk":"Джамоат Талбака Садріддінова"},"display_name":"Ҷамоати Талбак Садриддинов, Ноҳияи Шаҳритус, Вилояти Хатлон, Тоҷикистон","address":{"city":"Ҷамоати Талбак Садриддинов","county":"Ноҳияи Шаҳритус","state":"Вилояти Хатлон","ISO3166-2-lvl4":"TJ-KT","country":"Тоҷикистон","country_code":"tj"},"osm_type":"relation","osm_id":14002643,"type":"administrative","location":[68.0937900125109,37.174608750000004],"bbox":[67.9879863,37.1083207,68.1728847,37.2408702],"inferred_type":"city"}
{"name":"Ҷамоати Фирӯза","other_names":{"name:ja":"フィルザ町","name:uk":"Фірузійський джамоат"},"display_name":"Ҷамоати Фирӯза, Ноҳияи Носири Хусрав, Вилояти Хатлон, Тоҷикистон","address":{"city":"Ҷамоати Фирӯза","county":"Ноҳияи Носири Хусрав","state":"Вилояти Хатлон","ISO3166-2-lvl4":"TJ-KT","country":"Тоҷикистон","country_code":"tj"},"osm_type":"relation","osm_id":15774700,"type":"administrative","location":[67.9807467233065,37.39278985],"bbox":[67.8180386,37.2840139,68.0587887,37.5006384],"inferred_type":"city"}
{"name":"Ҷамоати Худойназар Холматов","other_names":{"name:ja":"フドイナザル・ホルマトフ町","name:uk":"Джамоат Худойназара Холматова"},"display_name":"Ҷамоати Худойназар Холматов, Ноҳияи Шаҳритус, Вилояти Хатлон, Тоҷикистон","address":{"city":"Ҷамоати Худойназар Холматов","county":"Ноҳияи Шаҳритус","state":"Вилояти Хатлон","ISO3166-2-lvl4":"TJ-KT","country":"Тоҷикистон","country_code":"tj"},"osm_type":"relation","osm_id":15773138,"type":"administrative","location":[68.08973284998613,37.3442417],"bbox":[68.0364603,37.2220316,68.1627121,37.4663557],"inferred_type":"city"}
{"name":"Ҷамоати Чагам","other_names":{"name:en":"Chagam Jamoat","name:ja":"チャガム町","name:ru":"Чагамский джамоат","name:tg":"Ҷамоати Чагам"},"display_name":"Ҷамоати Чагам, Ноҳияи Шамсиддин Шоҳин, Вилояти Хатлон, Тоҷикистон","address":{"city":"Ҷамоати Чагам","county":"Ноҳияи Шамсиддин Шоҳин","state":"Вилояти Хатлон","ISO3166-2-lvl4":"TJ-KT","country":"Тоҷикистон","country_code":"tj"},"osm_type":"relation","osm_id":6870533,"type":"administrative","location":[69.91376981388564,37.8333949],"bbox":[69.8337166,37.7810819,69.970784,37.8871983],"inferred_type":"city"}
{"name":"Ҷамоати Ҷӯра Назаров","other_names":{"name:uk":"Джамоат Джури Назарова"},"display_name":"Ҷамоати Ҷӯра Назаров, Ноҳияи Шаҳритус, Вилояти Хатлон, Тоҷикистон","address":{"city":"Ҷамоати Ҷӯра Назаров","county":"Ноҳияи Шаҳритус","state":"Вилояти Хатлон","ISO3166-2-lvl4":"TJ-KT","country":"Тоҷикистон","country_code":"tj"},"osm_type":"relation","osm_id":14001851,"type":"administrative","location":[68.06790032254531,37.04190575],"bbox":[67.9359093,36.9329096,68.1304424,37.1508457],"inferred_type":"city"}
{"name":"Ҷамоати Шурабад","other_names":{"name:en":"Shuro-obod Jamoat","name:ja":"シュラバード町","name:ru":"Шурабадский джамоат","name:tg":"Ҷамоати Шурабад"},"display_name":"Ҷамоати Шурабад, Ноҳияи Шамсиддин Шоҳин, Вилояти Хатлон, Тоҷикистон","address":{"city":"Ҷамоати Шурабад","county":"Ноҳияи Шамсиддин Шоҳин","state":"Вилояти Хатлон","ISO3166-2-lvl4":"TJ-KT","country":"Тоҷикистон","country_code":"tj"},"osm_type":"relation","osm_id":6870529,"type":"administrative","location":[70.03115293699094,37.80628595],"bbox":[69.9311786,37.7283479,70.1341906,37.8784944],"inferred_type":"city"}
