{"name":"Alotau","other_names":{"name:ja":"アロタウ","name:ru":"Алотау","name:uk":"Алотау"},"display_name":"Alotau, Milne Bay District, Milne Bay, Southern Region, Papua Niugini","address":{"city":"Alotau","county":"Milne Bay District","state":"Milne Bay","ISO3166-2-lvl4":"PG-MBA","region":"Southern Region","country":"Papua Niugini","country_code":"pg"},"population":47367,"osm_type":"node","osm_id":2558354344,"type":"city","location":[150.4464005,-10.3060931],"bbox":[150.2864005,-10.4660931,150.6064005,-10.1460931]}
{"name":"Arawa","other_names":{"name:ja":"アラワ","name:ru":"Арава","name:uk":"Арава","name:zh":"阿拉瓦"},"display_name":"Arawa, Autonomous Region of Bougainville, Islands Region, Papua Niugini","address":{"city":"Arawa","state":"Autonomous Region of Bougainville","ISO3166-2-lvl4":"PG-NSB","region":"Islands Region","country":"Papua Niugini","country_code":"pg"},"population":77378,"osm_type":"node","osm_id":1279911377,"type":"city","location":[155.5651139,-6.2262566],"bbox":[155.4051139,-6.3862566,155.7251139,-6.0662566]}
{"name":"Buka","display_name":"Buka, Buka District, Autonomous Region of Bougainville, Islands Region, 355, Papua Niugini","address":{"city":"Buka","county":"Buka District","state":"Autonomous Region of Bougainville","ISO3166-2-lvl4":"PG-NSB","region":"Islands Region","postcode":"355","country":"Papua Niugini","country_code":"pg"},"population":105467,"osm_type":"node","osm_id":2064246378,"type":"city","location":[154.6701836,-5.4324184],"bbox":[154.5101836,-5.5924184,154.8301836,-5.2724184]}
{"name":"Daru","other_names":{"name:ja":"ダル","name:ru":"Дару","name:uk":"Дару"},"display_name":"Daru, Western, Southern Region, 331, Papua Niugini","address":{"city":"Daru","state":"Western","ISO3166-2-lvl4":"PG-WPD","region":"Southern Region","postcode":"331","country":"Papua Niugini","country_code":"pg"},"population":75788,"osm_type":"node","osm_id":1645033734,"type":"city","location":[143.210029,-9.069901],"bbox":[143.050029,-9.229901,143.370029,-8.909901]}
{"name":"Goroka","other_names":{"name:en":"Goroka","name:ja":"ゴロカ","name:ru":"Горока","name:uk":"Горока"},"display_name":"Goroka, Goroka District, Eastern Highlands, Highlands Region, Papua Niugini","address":{"city":"Goroka","county":"Goroka District","state":"Eastern Highlands","ISO3166-2-lvl4":"PG-EHG","region":"Highlands Region","country":"Papua Niugini","country_code":"pg"},"population":75893,"osm_type":"node","osm_id":3235158927,"type":"city","location":[145.3932891,-6.0730028],"bbox":[145.2332891,-6.2330028,145.5532891,-5.9130028]}
{"name":"Kavieng","other_names":{"name:fa":"کاوینگ","name:ja":"カビエン","name:ru":"Кавиенг","name:uk":"Кавіенг","name:zh":"卡維恩"},"display_name":"Kavieng, New Ireland, Islands Region, Papua Niugini","address":{"city":"Kavieng","state":"New Ireland","ISO3166-2-lvl4":"PG-NIK","region":"Islands Region","country":"Papua Niugini","country_code":"pg"},"population":18000,"osm_type":"node","osm_id":2135442533,"type":"city","location":[150.795224,-2.573474],"bbox":[150.635224,-2.733474,150.955224,-2.413474]}
{"name":"Kerema","other_names":{"name:ja":"ケレマ","name:ru":"Керема"},"display_name":"Kerema, Gulf, Southern Region, Papua Niugini","address":{"city":"Kerema","state":"Gulf","ISO3166-2-lvl4":"PG-GPK","region":"Southern Region","country":"Papua Niugini","country_code":"pg"},"population":55689,"osm_type":"node","osm_id":502876721,"type":"city","location":[145.7724355,-7.9596229],"bbox":[145.6124355,-8.1196229,145.9324355,-7.7996229]}
{"name":"Kimbe","other_names":{"name:ja":"キンベ","name:ru":"Кимбе"},"display_name":"Kimbe, West New Britain, Islands Region, Papua Niugini","address":{"city":"Kimbe","state":"West New Britain","ISO3166-2-lvl4":"PG-WBK","region":"Islands Region","country":"Papua Niugini","country_code":"pg"},"population":40377,"osm_type":"node","osm_id":292048808,"type":"city","location":[150.1529513,-5.5562921],"bbox":[149.9929513,-5.7162921,150.3129513,-5.3962921]}
{"name":"Kundiawa","other_names":{"name:ja":"クンディアワ","name:ru":"Кундиава"},"display_name":"Kundiawa, Kundiawa District, Simbu, Highlands Region, Papua Niugini","address":{"city":"Kundiawa","county":"Kundiawa District","state":"Simbu","ISO3166-2-lvl4":"PG-CPK","region":"Highlands Region","country":"Papua Niugini","country_code":"pg"},"osm_type":"node","osm_id":1450460156,"type":"city","location":[144.9722522,-6.0190251],"bbox":[144.8122522,-6.1790251,145.1322522,-5.8590251]}
{"name":"Lae","other_names":{"name:en":"Lae","name:ja":"ラエ","name:ru":"Лаэ","name:uk":"Лае","name:zh":"莱城/萊城","name:zh-Hans":"莱城","name:zh-Hant":"萊城"},"display_name":"Lae, Lae District, Morobe, Momase Region, Papua Niugini","address":{"city":"Lae","county":"Lae District","state":"Morobe","ISO3166-2-lvl4":"PG-MPL","region":"Momase Region","country":"Papua Niugini","country_code":"pg"},"population":250948,"osm_type":"node","osm_id":103913308,"type":"city","location":[147.0008109,-6.7301976],"bbox":[146.8408109,-6.8901976,147.1608109,-6.5701976]}
{"name":"Lorengau","other_names":{"name:ja":"ローレンガウ","name:ru":"Лоренгау"},"display_name":"Lorengau, Manus, Islands Region, Papua Niugini","address":{"city":"Lorengau","state":"Manus","ISO3166-2-lvl4":"PG-MRL","region":"Islands Region","country":"Papua Niugini","country_code":"pg"},"osm_type":"node","osm_id":292052866,"type":"city","location":[147.2789185,-2.0329567],"bbox":[147.1189185,-2.1929567,147.4389185,-1.8729567]}
{"name":"Madang","other_names":{"name:ja":"マダン","name:ru":"Маданг"},"display_name":"Madang, Momase Region, Papua Niugini","address":{"city":"Madang","state":"Madang","ISO3166-2-lvl4":"PG-MPM","region":"Momase Region","country":"Papua Niugini","country_code":"pg"},"population":75589,"osm_type":"node","osm_id":859665479,"type":"city","location":[145.8054231,-5.212038],"bbox":[145.6454231,-5.372038,145.9654231,-5.052038]}
{"name":"Mendi","display_name":"Mendi, Mendi District, Southern Highlands, Highlands Region, Papua Niugini","address":{"city":"Mendi","county":"Mendi District","state":"Southern Highlands","ISO3166-2-lvl4":"PG-SHM","region":"Highlands Region","country":"Papua Niugini","country_code":"pg"},"osm_type":"node","osm_id":8027655717,"type":"city","location":[143.6578597,-6.1393582],"bbox":[143.4978597,-6.2993582,143.8178597,-5.9793582]}
{"name":"Mount Hagen","other_names":{"name:de":"Hagensberg","name:en":"Mount Hagen","name:gd":"Sliabh Hagen","name:ja":"マウントハーゲン","name:ko":"마운트하겐","name:lt":"Maunt Hagenas","name:ru":"Маунт-Хаген","name:uk":"Маунт-Хаген","name:ur":"ماؤنٹ ہاگن","name:tpi":"Maun Hagen"},"display_name":"Mount Hagen, Mount Hagen District, Western Highlands, Highlands Region, 281, Papua Niugini","address":{"city":"Mount Hagen","county":"Mount Hagen District","state":"Western Highlands","ISO3166-2-lvl4":"PG-WHM","region":"Highlands Region","postcode":"281","country":"Papua Niugini","country_code":"pg"},"population":100250,"osm_type":"node","osm_id":103905360,"type":"city","location":[144.2316365,-5.858784],"bbox":[144.0716365,-6.018784,144.3916365,-5.698784]}
{"name":"Popondetta","other_names":{"name:ja":"ポポンデッタ","name:ru":"Попондетта"},"display_name":"Popondetta, Oro, Southern Region, Papua Niugini","address":{"city":"Popondetta","state":"Oro","ISO3166-2-lvl4":"PG-NPP","region":"Southern Region","country":"Papua Niugini","country_code":"pg"},"population":75799,"osm_type":"node","osm_id":302475401,"type":"city","location":[148.2375057,-8.7667424],"bbox":[148.0775057,-8.9267424,148.3975057,-8.6067424]}
{"name":"Port Moresby","other_names":{"name:am":"ፖርት ሞርስቢ","name:ar":"بورت مورسبي","name:az":"Port Morsbi","name:be":"Порт-Морсбі","name:bg":"Порт Морсби","name:bi":"Mosbi","name:bn":"পোর্ট মোর্সবি","name:bo":"པོ་རོ་ཊི་མོ་རེ་སི་བི།","name:ca":"Port Moresby","name:cs":"Port Moresby","name:da":"Port Moresby","name:de":"Port Moresby","name:el":"Πορτ Μόρεσμπι","name:en":"Port Moresby","name:eo":"Port-Moresbo","name:es":"Puerto Moresby","name:et":"Port Moresby","name:fa":"پورت مورسبی","name:fi":"Port Moresby","name:fj":"Poti Moresipi","name:fr":"Port Moresby","name:he":"פורט מורסבי","name:hi":"पोर्ट मोरेस्बी","name:hr":"Port Moresby","name:ht":"Pò Moresbi","name:hu":"Port Moresby","name:hy":"Պորտ Մորսբի","name:is":"Port Moresby","name:it":"Port Moresby","name:ja":"ポートモレスビー","name:ka":"პორტ-მორზბი","name:kk":"Порт-Морсби","name:km":"ព័រម៉ូរែសប៊ី","name:ko":"포트모르즈비","name:ku":"Port Moresby","name:ky":"Порт-Морсби","name:la":"Portus Moresbiensis","name:lt":"Port Morsbis","name:lv":"Portmorsbija","name:mi":"Pōti Mohipi","name:mk":"Порт Морсби","name:ml":"പോർട്ട് മോറെസ്ബി","name:mr":"पोर्ट मॉरेस्बी","name:ne":"पोर्ट मोरेस्बी","name:nl":"Port Moresby","name:no":"Port Moresby","name:oc":"Port Moresby","name:os":"Порт-Морсби","name:pa":"ਪੋਰਟ ਮੋਰੈੱਸਬੀ","name:pl":"Port Moresby","name:ps":"پورټ مورسب","name:pt":"Porto Moresby","name:ro":"Port Moresby","name:ru":"Порт-Морсби","name:sd":"پورٽ مورسبي","name:sk":"Port Moresby","name:sl":"Port Moresby","name:sr":"Порт Морсби","name:sv":"Port Moresby","name:ta":"மார்சுபி துறைமுகம்","name:tg":"Порт-Морсби","name:th":"พอร์ตมอร์สบี","name:to":"Pooti Molesipī","name:tr":"Port Moresby","name:ty":"Port-Moresby","name:ug":"مورېسبى پورتى","name:uk":"Порт-Морсбі","name:ur":"پورٹ مورسبی","name:uz":"Port-morsbi","name:vi":"Port Moresby","name:zh":"莫爾茲比港","name:mrj":"Порт-Морсби","name:pnb":"صوبہ پورٹ مورسبائی","name:sah":"Порт Морсби","name:tpi":"Pot Mosbi","name:zh-Hans":"莫尔兹比港","name:zh-Hant":"莫爾茲比港","name:be-tarask":"Порт Морсьбі"},"display_name":"Port Moresby, National Capital District, Southern Region, 111, Papua Niugini","address":{"city":"Port Moresby","county":"National Capital District","state":"National Capital District","ISO3166-2-lvl4":"PG-NCD","region":"Southern Region","postcode":"111","country":"Papua Niugini","country_code":"pg"},"population":364145,"osm_type":"node","osm_id":230628786,"type":"city","location":[147.1599504,-9.4743301],"bbox":[146.9999504,-9.6343301,147.3199504,-9.3143301]}
{"name":"Rabaul","other_names":{"name:en":"Rabaul","name:ja":"ラバウル","name:ru":"Рабаул","name:uk":"Рабаул","name:yue":"笠包","old_name":"Simpsonhafen"},"display_name":"Rabaul, East New Britain, Islands Region, Papua Niugini","address":{"city":"Rabaul","state":"East New Britain","ISO3166-2-lvl4":"PG-EBR","region":"Islands Region","country":"Papua Niugini","country_code":"pg"},"population":57268,"osm_type":"node","osm_id":292043846,"type":"city","location":[152.1728287,-4.1984592],"bbox":[152.0128287,-4.3584592,152.3328287,-4.0384592]}
{"name":"Tari","display_name":"Tari, Tari Urban LLG, Tari-Pori District, Hela, Highlands Region, Papua Niugini","address":{"city":"Tari","municipality":"Tari Urban LLG","county":"Tari-Pori District","state":"Hela","ISO3166-2-lvl4":"PG-HLA","region":"Highlands Region","country":"Papua Niugini","country_code":"pg"},"osm_type":"node","osm_id":3365354597,"type":"city","location":[142.946622,-5.84524],"bbox":[142.786622,-6.00524,143.106622,-5.68524]}
{"name":"Vanimo","other_names":{"name:ja":"ヴァニモ","name:ru":"Ванимо","name:uk":"Ванімо"},"display_name":"Vanimo, Sandaun, Momase Region, 551, Papua Niugini","address":{"city":"Vanimo","state":"Sandaun","ISO3166-2-lvl4":"PG-SAN","region":"Momase Region","postcode":"551","country":"Papua Niugini","country_code":"pg"},"population":73689,"osm_type":"node","osm_id":1250713619,"type":"city","location":[141.3009131,-2.6847646],"bbox":[141.1409131,-2.8447646,141.4609131,-2.5247646]}
{"name":"Wabag","display_name":"Wabag, Enga, Highlands Region, Papua Niugini","address":{"city":"Wabag","state":"Enga","ISO3166-2-lvl4":"PG-EPW","region":"Highlands Region","country":"Papua Niugini","country_code":"pg"},"population":55489,"osm_type":"node","osm_id":5646358767,"type":"city","location":[143.721667,-5.491944],"bbox":[143.561667,-5.651944,143.881667,-5.331944]}
{"name":"Wewak","other_names":{"name:en":"Wewak","name:ja":"ウェワク","name:ru":"Вевак","name:uk":"Вевак"},"display_name":"Wewak, East Sepik, Momase Region, 531, Papua Niugini","address":{"city":"Wewak","state":"East Sepik","ISO3166-2-lvl4":"PG-ESW","region":"Momase Region","postcode":"531","country":"Papua Niugini","country_code":"pg"},"population":88479,"osm_type":"node","osm_id":1538978470,"type":"city","location":[143.6270904,-3.5542197],"bbox":[143.4670904,-3.7142197,143.7870904,-3.3942197]}
