{"name":"Base Marambio","other_names":{"name:en":"Marambio Base","name:ru":"Марамбио","old_name":"Base Aérea Vicecomodoro Marambio"},"display_name":"Base Marambio, Camino Patrulla Soberanía, Base Marambio","address":{"office":"Base Marambio","road":"Camino Patrulla Soberanía","village":"Base Marambio"},"population":70,"osm_type":"node","osm_id":529488336,"type":"research","location":[-56.6276898,-64.2406202],"bbox":[-56.6277398,-64.2406702,-56.6276398,-64.2405702]}
{"name":"Fortín Sargento Cabral","display_name":"Fortín Sargento Cabral, V9411","address":{"village":"Fortín Sargento Cabral","postcode":"V9411"},"population":56,"osm_type":"node","osm_id":5904547216,"type":"village","location":[-56.9971677,-63.3983386],"bbox":[-57.0171677,-63.4183386,-56.9771677,-63.3783386]}
{"name":"Koalou/Kourou","display_name":"Koalou/Kourou","address":{"village":"Koalou/Kourou"},"osm_type":"node","osm_id":3813587874,"type":"village","location":[0.9398357,11.0230071],"bbox":[0.9198357,11.0030071,0.9598357,11.0430071],"border":{"name":"Koalou/Kourou","display_name":"Koalou/Kourou","address":{"village":"Koalou/Kourou"},"osm_type":"relation","osm_id":18649516,"type":"village","location":[0.9398357,11.0230071],"bbox":[0.9301096,11.013545,0.9476566,11.0356755]}}
{"name":"Villa Las Estrellas","other_names":{"name:de":"Villa Las Estrellas","name:en":"Villa Las Estrellas","name:es":"Villa Las Estrellas","name:fr":"Villa Las Estrellas","name:ja":"ビジャ・ラス・エストレージャス","name:pl":"Villa Las Estrellas","name:pt":"Vila das Estrelas","name:ru":"Вилья-лас-Эстрельяс"},"display_name":"Villa Las Estrellas, Carretera Zhongzhi, Base Profesor Julio Escudero, Беллинсгаузен, Villa Las Estrellas","address":{"office":"Villa Las Estrellas","road":"Carretera Zhongzhi","neighbourhood":"Base Profesor Julio Escudero","hamlet":"Беллинсгаузен","village":"Villa Las Estrellas"},"population":80,"osm_type":"node","osm_id":446987858,"type":"research","location":[-58.965369,-62.2004259],"bbox":[-58.965419,-62.2004759,-58.965319,-62.2003759]}
{"name":"Беллинсгаузен","other_names":{"name:de":"Bellingshausen-Station","name:en":"Bellingshausen Station","name:es":"Base Bellingshausen","name:fr":"Base antarctique Bellingshausen","name:pt":"Estação Bellingshausen","name:ro":"Stația Bellingshausen","name:ru":"Станция Беллинсгаузен","name:zh":"别林斯高晋站"},"display_name":"Беллинсгаузен, Carretera Zhongzhi, Base Profesor Julio Escudero, Беллинсгаузен, Villa Las Estrellas","address":{"office":"Беллинсгаузен","road":"Carretera Zhongzhi","neighbourhood":"Base Profesor Julio Escudero","hamlet":"Беллинсгаузен","village":"Villa Las Estrellas"},"population":20,"osm_type":"node","osm_id":2011467449,"type":"research","location":[-58.9599213,-62.1982029],"bbox":[-58.9599713,-62.1982529,-58.9598713,-62.1981529]}
{"name":"المواصي","other_names":{"name:ar":"المواصي","name:en":"Al-Mawasi","name:he":"אל-מַוַ֫ואסִי","name:ml":"അൽ മവാസി"},"display_name":"المواصي","address":{"village":"المواصي"},"population":1409,"osm_type":"node","osm_id":11408821425,"type":"village","location":[34.2610942,31.3550656],"bbox":[34.2410942,31.3350656,34.2810942,31.3750656]}
{"name":"昭和基地","other_names":{"name:ar":"محطة شوا","name:de":"Station Showa","name:en":"Showa Station","name:fr":"Base antarctique Showa","name:ja":"昭和基地","name:ru":"Сёва","alt_name:en":"Syowa Station","alt_name:fr":"Base antarctique Syowa"},"display_name":"昭和基地","address":{"village":"昭和基地"},"osm_type":"node","osm_id":529449204,"type":"village","location":[39.5820278,-69.0042444],"bbox":[39.5620278,-69.0242444,39.6020278,-68.9842444]}
