{"display_name":"","address":{},"osm_type":"node","osm_id":7008420441,"type":"hamlet","location":[35.6791091,4.6481449],"bbox":[35.6591091,4.6281449,35.6991091,4.6681449]}
{"display_name":"","address":{},"osm_type":"node","osm_id":7007981770,"type":"hamlet","location":[35.6627228,4.6541999],"bbox":[35.6427228,4.6341999,35.6827228,4.6741999]}
{"display_name":"","address":{},"osm_type":"node","osm_id":7007981844,"type":"hamlet","location":[35.6663927,4.6493278],"bbox":[35.6463927,4.6293278,35.6863927,4.6693278]}
{"display_name":"","address":{},"osm_type":"node","osm_id":7007980639,"type":"hamlet","location":[35.6705592,4.6775771],"bbox":[35.6505592,4.6575771,35.6905592,4.6975771]}
{"display_name":"","address":{},"osm_type":"node","osm_id":7007981847,"type":"hamlet","location":[35.6757613,4.6568291],"bbox":[35.6557613,4.6368291,35.6957613,4.6768291]}
{"display_name":"","address":{},"osm_type":"node","osm_id":7007981848,"type":"hamlet","location":[35.6842912,4.6564458],"bbox":[35.6642912,4.6364458,35.7042912,4.6764458]}
{"display_name":"","address":{},"osm_type":"node","osm_id":7007981843,"type":"hamlet","location":[35.6651161,4.6473779],"bbox":[35.6451161,4.6273779,35.6851161,4.6673779]}
{"display_name":"","address":{},"osm_type":"node","osm_id":7007979675,"type":"hamlet","location":[35.6717086,4.6889263],"bbox":[35.6517086,4.6689263,35.6917086,4.7089263]}
{"display_name":"","address":{},"osm_type":"node","osm_id":7007980638,"type":"hamlet","location":[35.6649503,4.6690473],"bbox":[35.6449503,4.6490473,35.6849503,4.6890473]}
{"name":"Al Nada","other_names":{"name:ar":"عزبة الندى"},"display_name":"Al Nada","address":{"hamlet":"Al Nada"},"osm_type":"way","osm_id":41317064,"type":"hamlet","location":[34.23006197401631,31.329021750000003],"bbox":[34.2292248,31.3284825,34.230732,31.3293772]}
{"name":"Arctowski","other_names":{"name:de":"Arctowski-Station","name:en":"Henryk Arctowski Polish Antarctic Station","name:es":"Base Henryk Arctowski","name:pl":"Polska Stacja Antarktyczna imienia Henryka Arctowskiego","name:uk":"Арцтовський","official_name":"Stacja Antarktyczna Polskiej Akademii Nauk im. Henryka Arctowskiego"},"display_name":"Arctowski","address":{"office":"Arctowski","hamlet":"Arctowski"},"population":16,"osm_type":"node","osm_id":248461592,"type":"research","location":[-58.4719356,-62.1590141],"bbox":[-58.4719856,-62.1590641,-58.4718856,-62.1589641]}
{"name":"Base Antártica Belgrano II","other_names":{"name:en":"Belgrano II Base"},"display_name":"Base Antártica Belgrano II","address":{"office":"Base Antártica Belgrano II","hamlet":"Base Antártica Belgrano II"},"osm_type":"node","osm_id":2011467402,"type":"research","location":[-34.6274543,-77.8736111],"bbox":[-34.6275043,-77.8736611,-34.6274043,-77.8735611]}
{"name":"Base Antártica Orcadas","other_names":{"name:en":"Orcadas Base","name:et":"Orcadas","old_name":"Destacamento Naval Orcadas"},"display_name":"Base Antártica Orcadas","address":{"aeroway":"Base Antártica Orcadas","hamlet":"Base Antártica Orcadas"},"population":17,"osm_type":"node","osm_id":1042059541,"type":"aerodrome","location":[-44.7376889,-60.7380711],"bbox":[-44.7526889,-60.7530711,-44.7226889,-60.7230711]}
{"name":"Base Antártica San Martín","other_names":{"name:en":"San Martín Base"},"display_name":"Base Antártica San Martín","address":{"office":"Base Antártica San Martín","hamlet":"Base Antártica San Martín"},"population":19,"osm_type":"node","osm_id":2012557463,"type":"research","location":[-67.1013189,-68.1300561],"bbox":[-67.1013689,-68.1301061,-67.1012689,-68.1300061]}
{"name":"Base Artigas","other_names":{"name:de":"Artigas-Station","name:en":"Artigas Base","name:es":"Base Artigas","name:fr":"Base Artigas","name:zh":"阿蒂加斯站","official_name":"Base Científica Antártica Artigas"},"display_name":"Base Artigas","address":{"office":"Base Artigas","hamlet":"Base Artigas"},"population":8,"osm_type":"node","osm_id":2418868645,"type":"research","location":[-58.9038541,-62.1843978],"bbox":[-58.9039041,-62.1844478,-58.9038041,-62.1843478]}
{"name":"Base Bernardo O’Higgins","other_names":{"alt_name":"Puerto Covadonga","short_name":"Base General Bernardo O'Higgins"},"display_name":"Base Bernardo O’Higgins","address":{"office":"Base Bernardo O’Higgins","hamlet":"Base Bernardo O’Higgins"},"population":24,"osm_type":"node","osm_id":2011467419,"type":"research","location":[-57.8998555,-63.3208298],"bbox":[-57.8999055,-63.3208798,-57.8998055,-63.3207798]}
{"name":"Base Carlini","other_names":{"name:de":"Carlini-Station","name:en":"Carlini Base","name:es":"Base Carlini","name:fr":"Base antarctique Carlini","name:pl":"Stacja Carlini","name:pt":"Base Carlini","old_name:en":"Jubany Scientific Station","old_name:es":"Base Jubany"},"display_name":"Base Carlini","address":{"office":"Base Carlini","hamlet":"Base Carlini"},"population":29,"osm_type":"node","osm_id":2011467410,"type":"research","location":[-58.6670078,-62.2379343],"bbox":[-58.6670578,-62.2379843,-58.6669578,-62.2378843]}
{"name":"Base Dumont d'Urville","other_names":{"name:de":"Dumont-d’Urville-Station","name:en":"Dumont d'Urville Station","name:es":"Estación Dumont d'Urville"},"display_name":"Base Dumont d'Urville","address":{"office":"Base Dumont d'Urville","hamlet":"Base Dumont d'Urville"},"osm_type":"node","osm_id":1984343035,"type":"research","location":[140.0010954,-66.6632764],"bbox":[140.0010454,-66.6633264,140.0011454,-66.6632264]}
{"name":"Base Naval Antartica Arturo Prat","other_names":{"name:en":"Captain Arturo Prat Base","name:es":"Base naval Capitán Arturo Prat","alt_name_2:es":"Base Arturo Prat","alt_name_3:es":"Base Capitán Arturo Prat","alt_name_4:es":"Base Prat"},"display_name":"Base Naval Antartica Arturo Prat","address":{"office":"Base Naval Antartica Arturo Prat","hamlet":"Base Naval Antartica Arturo Prat"},"population":8,"osm_type":"node","osm_id":2011467420,"type":"research","location":[-59.6643357,-62.4788934],"bbox":[-59.6643857,-62.4789434,-59.6642857,-62.4788434]}
{"name":"Bharati Research Station","other_names":{"name:en":"Bharati Research Station","name:hi":"भारती","name:ta":"பாரதி ஆராய்ச்சி நிலையம்"},"display_name":"Bharati Research Station","address":{"office":"Bharati Research Station","hamlet":"Bharati Research Station"},"osm_type":"node","osm_id":3469144160,"type":"research","location":[76.1953333,-69.4068333],"bbox":[76.1952833,-69.4068833,76.1953833,-69.4067833]}
{"name":"Casey Station","other_names":{"name:ar":"محطة كاسي","name:de":"Casey-Station","name:es":"Base Casey","name:fr":"Base antarctique Casey","name:ast":"Base Casey"},"display_name":"Casey Station, Shirley Island Walking Route, Casey Station","address":{"office":"Casey Station","road":"Shirley Island Walking Route","hamlet":"Casey Station"},"population":160,"osm_type":"node","osm_id":2011467437,"type":"research","location":[110.5240849,-66.2820883],"bbox":[110.5240349,-66.2821383,110.5241349,-66.2820383]}
{"name":"Concordia Station","other_names":{"name:en":"Concordia Station","name:fr":"Station Concordia","name:hu":"Konkordia Kutatóállomás","name:it":"Stazione Concordia","name:ru":"Станция Конкордия"},"display_name":"Concordia Station, Route 66, Camp d'été, Concordia Station","address":{"office":"Concordia Station","road":"Route 66","neighbourhood":"Camp d'été","hamlet":"Concordia Station"},"osm_type":"node","osm_id":1772409653,"type":"research","location":[123.333333,-75.1000074],"bbox":[123.333283,-75.1000574,123.333383,-75.0999574]}
{"name":"Deutsche Antarktis-Empfangsstation O'Higgins","other_names":{"name:en":"German Antarctic Receiving Station O'Higgins","name:es":"Estación receptora antártica alemana O'Higgins","short_name":"GARS"},"display_name":"Deutsche Antarktis-Empfangsstation O'Higgins","address":{"office":"Deutsche Antarktis-Empfangsstation O'Higgins","hamlet":"Deutsche Antarktis-Empfangsstation O'Higgins"},"population":4,"osm_type":"node","osm_id":5316920498,"type":"research","location":[-57.9011686,-63.320893],"bbox":[-57.9012186,-63.320943,-57.9011186,-63.320843]}
{"name":"Estação Antártica Comandante Ferraz","other_names":{"name:es":"Base Antártica Comandante Ferraz","alt_name":"EACF"},"display_name":"Estação Antártica Comandante Ferraz, 20001-971","address":{"office":"Estação Antártica Comandante Ferraz","hamlet":"Estação Antártica Comandante Ferraz","postcode":"20001-971"},"population":15,"osm_type":"node","osm_id":446953652,"type":"research","location":[-58.390833,-62.0842419],"bbox":[-58.390883,-62.0842919,-58.390783,-62.0841919]}
{"name":"Halley VI Research Station","other_names":{"name:ca":"Estació de Recerca de Halley VI"},"display_name":"Halley VI Research Station","address":{"office":"Halley VI Research Station","hamlet":"Halley VI Research Station"},"osm_type":"node","osm_id":534283862,"type":"research","location":[-26.1977126,-75.6125011],"bbox":[-26.1977626,-75.6125511,-26.1976626,-75.6124511]}
{"name":"Maitri Station","other_names":{"name:ca":"Base Maitri","name:hi":"मैत्री स्टेशन","name:ta":"மைத்ரி ஆராய்ச்சி நிலையம்"},"display_name":"Maitri Station","address":{"office":"Maitri Station","hamlet":"Maitri Station"},"population":25,"osm_type":"node","osm_id":2011467441,"type":"research","location":[11.732761,-70.7674056],"bbox":[11.732711,-70.7674556,11.732811,-70.7673556]}
{"name":"Mawson Station","display_name":"Mawson Station, Alternate Route, Mawson Station","address":{"office":"Mawson Station","road":"Alternate Route","hamlet":"Mawson Station"},"osm_type":"node","osm_id":2012557487,"type":"research","location":[62.8737541,-67.6028962],"bbox":[62.8737041,-67.6029462,62.8738041,-67.6028462]}
{"name":"Neumayer-Station III","other_names":{"name:de":"Neumayer-Station III","name:en":"Neumayer Station III","alt_name":"Neumayer III","short_name":"NM- III"},"display_name":"Neumayer-Station III, Kohnen-Traverse, Neumayer-Station III","address":{"office":"Neumayer-Station III","road":"Kohnen-Traverse","hamlet":"Neumayer-Station III"},"population":9,"osm_type":"node","osm_id":846233942,"type":"research","location":[-8.274167,-70.674444],"bbox":[-8.274217,-70.674494,-8.274117,-70.674394]}
{"name":"Palmer Station","display_name":"Palmer Station, Palmer Road, Palmer Station","address":{"office":"Palmer Station","road":"Palmer Road","hamlet":"Palmer Station"},"population":13,"osm_type":"node","osm_id":2012557503,"type":"research","location":[-64.0531107,-64.7742919],"bbox":[-64.0531607,-64.7743419,-64.0530607,-64.7742419]}
{"name":"Rothera Research Station","other_names":{"name:nl":"Rothera Onderzoeksstation"},"display_name":"Rothera Research Station","address":{"office":"Rothera Research Station","hamlet":"Rothera Research Station"},"population":27,"osm_type":"node","osm_id":534283877,"type":"research","location":[-68.1221663,-67.5691808],"bbox":[-68.1222163,-67.5692308,-68.1221163,-67.5691308]}
{"name":"Scott Base","other_names":{"ref":"AQ SBA","name:ar":"قاعدة سكوت","name:be":"Скот-Бейс","name:en":"Scott Base","name:hu":"Scott kutatóállomás","name:mk":"База „Скот“","name:pl":"Scott Base","name:ru":"Скотт-Бейс"},"display_name":"Scott Base, McMurdo Station","address":{"hamlet":"Scott Base","city":"McMurdo Station"},"osm_type":"node","osm_id":560153667,"type":"hamlet","location":[166.7683407,-77.8494513],"bbox":[166.7483407,-77.8694513,166.7883407,-77.8294513]}
{"name":"Stacja im. A.B. Dobrowolskiego","other_names":{"name:en":"A.B. Dobrowolski Station","name:es":"Base A. B. Dobrowolski","name:pl":"Stacja im. A.B. Dobrowolskiego","name:ru":"Станция им. А. Б. Добровольского","old_name":"Оазис","old_name:en":"Oazis","old_name:pl":"Oazis","old_name:ru":"Оазис","official_name":"Stacja polarna im. Antoniego Bolesława Dobrowolskiego"},"display_name":"Stacja im. A.B. Dobrowolskiego","address":{"office":"Stacja im. A.B. Dobrowolskiego","hamlet":"Stacja im. A.B. Dobrowolskiego"},"osm_type":"node","osm_id":11048760047,"type":"research","location":[100.7497485,-66.2745935],"bbox":[100.7496985,-66.2746435,100.7497985,-66.2745435]}
{"name":"Stazione Mario Zucchelli","other_names":{"name:en":"Mario Zucchelli Station","old_name":"BTN"},"display_name":"Stazione Mario Zucchelli","address":{"office":"Stazione Mario Zucchelli","hamlet":"Stazione Mario Zucchelli"},"population":0,"osm_type":"node","osm_id":2012557560,"type":"research","location":[164.1131054,-74.6943883],"bbox":[164.1130554,-74.6944383,164.1131554,-74.6943383]}
{"name":"Troll","other_names":{"name:ca":"Base Troll","name:en":"Troll"},"display_name":"Troll, Flyplassveien, Troll","address":{"office":"Troll","road":"Flyplassveien","hamlet":"Troll"},"osm_type":"node","osm_id":753135574,"type":"research","location":[2.5344254,-72.0119803],"bbox":[2.5343754,-72.0120303,2.5344754,-72.0119303]}
{"name":"Vernadsky Research Base","other_names":{"name:en":"Vernadsky Research Base","name:ru":"Академик Вернадский станция","name:uk":"Академік Вернадський станція","old_name":"Faraday Station"},"display_name":"Vernadsky Research Base","address":{"office":"Vernadsky Research Base","hamlet":"Vernadsky Research Base"},"population":12,"osm_type":"node","osm_id":452063626,"type":"research","location":[-64.2576877,-65.2455082],"bbox":[-64.2577377,-65.2455582,-64.2576377,-65.2454582]}
{"name":"Восток","other_names":{"ref":"Station synoptic index 89606","name:de":"Wostok-Station","name:en":"Vostok Station","name:fr":"Base antarctique Vostok","name:hu":"Vosztok kutatóállomás","name:ru":"Восток","name:zh":"东方站","alt_name":"Станция Восток","alt_name:en":"Station Vostok (Station East)"},"display_name":"Восток, Мирный - Восток - Мирный, Восток","address":{"office":"Восток","road":"Мирный - Восток - Мирный","hamlet":"Восток"},"osm_type":"node","osm_id":10697173881,"type":"research","location":[106.838293,-78.4643454],"bbox":[106.838243,-78.4643954,106.838343,-78.4642954]}
{"name":"Мирный","other_names":{"ref":"AQ MIR; Station synoptic index 89592","name:en":"Mirny Station","name:hu":"Mirnij kutatóállomás","name:ru":"Мирный","alt_name:hu":"Mirnij kutatóállomás"},"display_name":"Мирный, Мирный - Восток - Мирный, Мирный","address":{"office":"Мирный","road":"Мирный - Восток - Мирный","hamlet":"Мирный"},"osm_type":"node","osm_id":10697008637,"type":"research","location":[93.0092772,-66.553049],"bbox":[93.0092272,-66.553099,93.0093272,-66.552999]}
{"name":"Новолазаревская","other_names":{"name:en":"Novolazarevskaya Station","name:hu":"Novolazarevszkaja kutatóállomás"},"display_name":"Новолазаревская","address":{"office":"Новолазаревская","hamlet":"Новолазаревская"},"osm_type":"node","osm_id":2012557573,"type":"research","location":[11.8245313,-70.7765964],"bbox":[11.8244813,-70.7766464,11.8245813,-70.7765464]}
{"name":"بئر طويل","other_names":{"name:ar":"بئر طويل","name:de":"Bir Tawil","name:en":"Bir Tawil","name:fr":"Bir Tawil","alt_name:ar":"بيرطويل;بير طويل"},"display_name":"بئر طويل","address":{"hamlet":"بئر طويل"},"osm_type":"node","osm_id":8961053964,"type":"hamlet","location":[33.7476245,21.8693189],"bbox":[33.7276245,21.8493189,33.7676245,21.8893189]}
{"name":"وادي طويل","other_names":{"name:ar":"وادي طويل","name:de":"Wadi Tawil","name:en":"Wadi Tawil","name:fr":"Wadi Tawil","alt_name":"وادي طويل","int_name":"Wādī Ţawīl, Wadi Tawil"},"display_name":"وادي طويل","address":{"hamlet":"وادي طويل"},"osm_type":"node","osm_id":767969857,"type":"hamlet","location":[33.733333,21.816667],"bbox":[33.713333,21.796667,33.753333,21.836667]}
{"name":"남극세종과학기지","other_names":{"name:de":"König-Sejong-Station","name:en":"King Sejong Station","name:es":"Base Rey Sejong","name:fr":"Base antarctique du roi Sejong","name:ko":"남극세종과학기지","name:pt":"Estação Rei Sejong","name:zh":"世宗科學基地","int_name:en":"King Sejong Station","int_name:ko":"세종과학기지","name:ko-Latn":"Namgeuk sejong gwahakgiji","short_name:ko":"세종기지","int_name:ko-Latn":"Sejong gwahakgiji","short_name:ko-Latn":"Sejong giji"},"display_name":"남극세종과학기지","address":{"office":"남극세종과학기지","hamlet":"남극세종과학기지"},"population":22,"osm_type":"node","osm_id":2011467454,"type":"research","location":[-58.7873094,-62.2230468],"bbox":[-58.7873594,-62.2230968,-58.7872594,-62.2229968]}
{"name":"남극장보고과학기지","other_names":{"name:en":"Jang Bogo Station","name:ko":"남극장보고과학기지","int_name:en":"Jang Bogo Station","int_name:ko":"장보고과학기지","name:ko-Latn":"Jangbogo Gwahakgiji","short_name:ko":"장보고기지","int_name:ko-Latn":"Jangbogo gwahakgiji","short_name:ko-Latn":"Jangbogo giji"},"display_name":"남극장보고과학기지","address":{"office":"남극장보고과학기지","hamlet":"남극장보고과학기지"},"population":23,"osm_type":"node","osm_id":3921873649,"type":"research","location":[164.2288249,-74.6240921],"bbox":[164.2287749,-74.6241421,164.2288749,-74.6240421]}
{"name":"昆仑站","other_names":{"name:en":"Kunlun Station","name:es":"Base Kunlun","name:ja":"崑崙基地","name:pt":"Estação Antártica Kunlun","name:ru":"Куньлунь","name:uk":"Куньлунь","name:zh":"昆仑站","name:zh-Hant":"崑崙站","official_name":"中国南极昆仑站","name:zh-Latn-pinyin":"Kūnlúnzhàn"},"display_name":"昆仑站, 中山-冰穹A, 昆仑站","address":{"office":"昆仑站","road":"中山-冰穹A","hamlet":"昆仑站"},"osm_type":"node","osm_id":2011467452,"type":"research","location":[77.1173698,-80.4173785],"bbox":[77.1173198,-80.4174285,77.1174198,-80.4173285]}
{"name":"秦岭站","other_names":{"name:en":"Qinling Station","name:zh":"秦岭站","name:zh-Hant":"秦嶺站","official_name:zh":"中国南极秦岭站","name:zh-Latn-pinyin":"Qínlǐng zhàn"},"display_name":"秦岭站","address":{"office":"秦岭站","hamlet":"秦岭站"},"population":30,"osm_type":"node","osm_id":11597901142,"type":"research","location":[163.7152681,-74.9343406],"bbox":[163.7152181,-74.9343906,163.7153181,-74.9342906]}
{"name":"长城站","other_names":{"name:de":"Große-Mauer-Station","name:en":"Great Wall Station","name:es":"Base Gran Muralla","name:fr":"Base antarctique Grande Muraille","name:ko":"장성 기지","name:pl":"Wielki Mur","name:pt":"Estação Antártica da Grande Muralha","name:zh":"长城站","name:ko-Latn":"Jangseong giji","name:zh-Hant":"長城站","official_name:zh":"中国南极长城站","name:zh-Latn-pinyin":"Chángchéng zhàn","official_name:zh-Hant":"中國南極長城站","official_name:zh-Latn-pinyin":"Zhōngguó nánjí Chángchéng zhàn"},"display_name":"长城站, 中智公路, 长城站","address":{"office":"长城站","road":"中智公路","hamlet":"长城站"},"population":13,"osm_type":"node","osm_id":9013260590,"type":"research","location":[-58.9611826,-62.217746],"bbox":[-58.9612326,-62.217796,-58.9611326,-62.217696]}
