{"name":"إب","other_names":{"name:ar":"إب","name:cs":"Ibb","name:en":"Ibb","name:es":"Ibb","name:et":"Ibb","name:fr":"Ibb","name:he":"איב","name:hi":"इब्ब","name:ko":"이브","name:ml":"ഇബ്ബ്","name:ru":"Ибб","name:zh":"伊卜","int_name":"Ibb"},"display_name":"إب, مديرية الظهار, محافظة إب, اليمن","address":{"city":"إب","district":"مديرية الظهار","state":"محافظة إب","ISO3166-2-lvl4":"YE-IB","country":"اليمن","country_code":"ye"},"population":208844,"osm_type":"node","osm_id":268256784,"type":"city","location":[44.1779446,13.9701578],"bbox":[44.0179446,13.8101578,44.3379446,14.1301578],"border":{"name":"مديرية إب","other_names":{"name:ar":"مديرية إب","name:en":"Ibb District","alt_name":"Qada' Ibb; Qaḑā’ Ibb","int_name":"Ibb","name:de":"Ibb","name:fr":"Ibb","alt:en":"Ibb"},"display_name":"مديرية إب, محافظة إب, اليمن","address":{"district":"مديرية إب","state":"محافظة إب","ISO3166-2-lvl4":"YE-IB","country":"اليمن","country_code":"ye"},"population":143641,"osm_type":"relation","osm_id":9886700,"type":"administrative","location":[44.155077,14.033563],"bbox":[44.0468674,13.8776063,44.3056658,14.106834]}}
{"name":"الحديدة","other_names":{"name:ar":"حدیده","name:cs":"Hudajdá","name:de":"Al Hudaydah","name:en":"Hodeidah","name:es":"Al Hudayda","name:et":"Al-Ḩudaydah","name:eu":"Al-Hudaida","name:fa":"حدیده","name:fi":"Hodeida","name:fr":"Al Hudaydah","name:he":"אל-חודיידה","name:hi":"हुदैदाह","name:ko":"호데이다","name:ml":"ഹുദൈദ","name:ru":"Ходейда","name:uk":"Ходейда","name:ur":"الحدیدہ","name:zh":"荷台达","alt_name":"Hudaydah;El-Ḥodeidah;Hodeida;Ḩudaydah;Hudaida;El-Hodeidah;Hodaidah;Al Hudaydah","int_name":"Al Ḩudaydah","alt_name:en":"Al-Hudaydah"},"display_name":"الحديدة, مديرية الحالي, محافظة الحديدة, اليمن","address":{"city":"الحديدة","district":"مديرية الحالي","state":"محافظة الحديدة","ISO3166-2-lvl4":"YE-HU","country":"اليمن","country_code":"ye"},"population":402560,"osm_type":"node","osm_id":1218147544,"type":"city","location":[42.9544872,14.7978677],"bbox":[42.7944872,14.6378677,43.1144872,14.9578677]}
{"name":"الغيضة","other_names":{"name:ar":"الغيضة","name:cs":"Gajda","name:de":"Al Ghaydah","name:en":"Al Ghaydah","name:eu":"Al Ghaydah","name:fr":"Al Ghaydah","name:he":"אל גאידה","name:ml":"അൽ ഗൈദ","name:ru":"Эль-Гайда","name:zh":"艾尔格哈达","alt_name":"الغيضة","int_name":"Al Ghayḑah, الغيضة, Ghaidha, Al Ghaydah, الغيضة, Ghaidha","name:zh-Hans":"艾尔格哈达","name:zh-Hant":"艾爾格哈達"},"display_name":"الغيضة, مديرية الغيضة, محافظة المهرة, اليمن","address":{"city":"الغيضة","district":"مديرية الغيضة","state":"محافظة المهرة","ISO3166-2-lvl4":"YE-MR","country":"اليمن","country_code":"ye"},"population":13475,"osm_type":"node","osm_id":1226172607,"type":"city","location":[52.1828352,16.2110173],"bbox":[52.0228352,16.0510173,52.3428352,16.3710173]}
{"name":"المكلا","other_names":{"name:ar":"المكلا","name:cs":"Mukallá","name:en":"Mukalla","name:es":"Al Mukalla","name:et":"Al-Mukallā","name:eu":"Mukalla","name:fi":"Al-Mukalla","name:fr":"Al Moukalla","name:he":"אל-מוכלא","name:hi":"मुकल्ला","name:ko":"무칼라","name:ml":"മുക്കല്ല"},"display_name":"المكلا, مديرية مدينة المكلا, محافظة حضرموت, اليمن","address":{"city":"المكلا","district":"مديرية مدينة المكلا","state":"محافظة حضرموت","ISO3166-2-lvl4":"YE-HD","country":"اليمن","country_code":"ye"},"population":176942,"osm_type":"node","osm_id":4298024474,"type":"city","location":[49.1231345,14.5424624],"bbox":[48.9631345,14.3824624,49.2831345,14.7024624],"border":{"name":"مديرية أرياف المكلا","other_names":{"name:ar":"مديرية أرياف المكلا","name:en":"Aryaf al Mukalla District","int_name":"Al Mukallā","name:de":"Al Mukalla","name:fr":"Al Mukalla","alt":"مديرية المكلا","alt:ar":"مديرية المكلا","alt:en":"Al Mukalla"},"display_name":"مديرية أرياف المكلا, محافظة حضرموت, اليمن","address":{"district":"مديرية أرياف المكلا","state":"محافظة حضرموت","ISO3166-2-lvl4":"YE-HD","country":"اليمن","country_code":"ye"},"population":16748,"osm_type":"relation","osm_id":9149820,"type":"administrative","location":[48.91989,14.671118],"bbox":[48.5307467,14.4917356,49.3052558,14.9707361]}}
{"name":"تعز","other_names":{"name:ar":"تعز","name:cs":"Taiz","name:de":"Taizz","name:en":"Ta'izz","name:et":"Ta‘izz","name:eu":"Ta'izz","name:fr":"Taëz","name:he":"תעז","name:it":"Ta'izz","name:ko":"타이즈","name:lt":"Taizas","name:ml":"തയിസ്","name:ru":"Таиз","name:zh":"塔伊茲","alt_name":"Taiz","int_name":"Ta‘izz"},"display_name":"تعز, مديرية القاهرة, محافظة تعز, اليمن","address":{"city":"تعز","district":"مديرية القاهرة","state":"محافظة تعز","ISO3166-2-lvl4":"YE-TA","country":"اليمن","country_code":"ye"},"population":458933,"osm_type":"node","osm_id":263261532,"type":"city","location":[44.0215268,13.5752242],"bbox":[43.8615268,13.4152242,44.1815268,13.7352242]}
{"name":"ذمار","other_names":{"name:ar":"ذمار","name:cs":"Damár","name:de":"Dhamar","name:en":"Dhamar","name:et":"Dhamār","name:fr":"Dhamar","name:he":"דמאר","name:ml":"ദമാർ","name:ru":"Дамар","name:zh":"扎马尔","alt_name":"Damar","int_name":"Dhamār"},"display_name":"ذمار, مديرية مدينة ذمار, محافظة ذمار, اليمن","address":{"city":"ذمار","district":"مديرية مدينة ذمار","state":"محافظة ذمار","ISO3166-2-lvl4":"YE-DH","country":"اليمن","country_code":"ye"},"population":144273,"osm_type":"node","osm_id":296512221,"type":"city","location":[44.4000607,14.542997],"bbox":[44.2400607,14.382997,44.5600607,14.702997]}
{"name":"سيئون","other_names":{"name:ar":"سيئون","name:de":"Say'un","name:en":"Say'un","name:fr":"Say'un","name:ml":"സയൂൺ","alt_name":"Saiwun;Saywūn;Saywun;Saiwūn;Sai'un;Sai’un","int_name":"Say’ūn"},"display_name":"سيئون, مديرية سيئون, محافظة حضرموت, اليمن","address":{"city":"سيئون","district":"مديرية سيئون","state":"محافظة حضرموت","ISO3166-2-lvl4":"YE-HD","country":"اليمن","country_code":"ye"},"population":48037,"osm_type":"node","osm_id":5766136052,"type":"city","location":[48.7925786,15.9440811],"bbox":[48.6325786,15.7840811,48.9525786,16.1040811],"border":{"name":"مديرية سيئون","other_names":{"name:ar":"مديرية سيئون","name:en":"Seiyun District","int_name":"Say’ūn","name:de":"Sayiun","name:fr":"Sayiun","alt:en":"Say'un"},"display_name":"مديرية سيئون, محافظة حضرموت, اليمن","address":{"district":"مديرية سيئون","state":"محافظة حضرموت","ISO3166-2-lvl4":"YE-HD","country":"اليمن","country_code":"ye"},"population":102409,"osm_type":"relation","osm_id":9149806,"type":"administrative","location":[48.831486,15.947115],"bbox":[48.6892795,15.7362876,48.9930151,16.2284185]}}
{"name":"صعدة","other_names":{"name:ar":"صعدة","name:cs":"Sa'da","name:de":"Sa'da","name:en":"Sa`dah","name:fr":"Saada","name:ml":"സാദ","name:ru":"Саада","name:uk":"Саада","name:zh":"萨达","alt_name":"Sa‘da;Sa`da;Saada","int_name":"Şa‘dah","old_name":"Kama"},"display_name":"صعدة, مديرية صعدة, محافظة صعدة, اليمن","address":{"city":"صعدة","district":"مديرية صعدة","state":"محافظة صعدة","ISO3166-2-lvl4":"YE-SD","country":"اليمن","country_code":"ye"},"population":49422,"osm_type":"node","osm_id":322574023,"type":"city","location":[43.7630261,16.9409324],"bbox":[43.6030261,16.7809324,43.9230261,17.1009324],"border":{"name":"مديرية صعدة","other_names":{"name:ar":"مديرية صعدة","name:en":"Sa'adah district","alt_name":"Saada; Qada' Sa`dah; Qaḑā’ Şa‘dah","int_name":"Şa‘dah","name:de":"Sa`dah","name:fr":"Sa`dah","alt:en":"Sa`dah"},"display_name":"مديرية صعدة, محافظة صعدة, اليمن","address":{"district":"مديرية صعدة","state":"محافظة صعدة","ISO3166-2-lvl4":"YE-SD","country":"اليمن","country_code":"ye"},"population":58695,"osm_type":"relation","osm_id":9885651,"type":"administrative","location":[43.759997,16.917332],"bbox":[43.7375279,16.8821915,43.7824656,16.9539738]}}
{"name":"صنعاء","other_names":{"name:af":"Sanaa","name:am":"ሳና","name:an":"Sana","name:ar":"صنعاء","name:az":"Səna","name:ba":"Сана","name:be":"Сана","name:bg":"Сана","name:bn":"সানা","name:bo":"ས་ནཱ།","name:br":"Sana'a","name:bs":"Sana'a","name:ca":"Sanà","name:ce":"Сана","name:cs":"San'á","name:cy":"Sana'a","name:da":"Sanaá","name:de":"Sanaa","name:el":"Σαναά","name:en":"Sana'a","name:eo":"Sanao","name:es":"Saná","name:et":"Sanaa","name:eu":"Sana","name:fa":"صنعاء","name:fi":"Sanaa","name:fr":"Sanaa","name:fy":"Sana'a","name:ga":"San’a","name:gd":"Ṣan'ā'","name:gl":"Sana","name:ha":"Sanaa","name:he":"צנעא","name:hi":"साना","name:hr":"Sana","name:ht":"Sanaa","name:hu":"Szanaa","name:hy":"Սանաա","name:id":"Sana'a","name:ie":"Saná","name:io":"Sanaa","name:is":"Sana","name:it":"San’a","name:ja":"サヌア","name:ka":"სანა","name:ki":"Sana'a","name:kk":"Сана","name:kl":"Sana'a","name:kn":"ಸನಾ","name:ko":"사나","name:ks":"صنعاء","name:ku":"Sana","name:la":"Sana","name:lb":"Sana´a","name:lt":"Sana","name:lv":"Sana","name:mg":"Sana'a","name:mk":"Сана","name:ml":"സനാ","name:mn":"Санаа хот","name:mr":"साना","name:ms":"Sana'a","name:mt":"Sana'a","name:nb":"Sana","name:ne":"साना","name:nl":"Sanaa","name:nn":"San'a","name:no":"Sanaá","name:nv":"Bis Bee Kin Łání","name:oc":"Sanaa","name:os":"Санæ","name:pa":"ਸਨਾ","name:pl":"Sana","name:ps":"صنعا","name:pt":"Sana","name:qu":"Sana'a","name:ro":"Sana'a","name:ru":"Сана","name:sc":"Sana'a","name:sh":"Sana","name:sk":"Saná","name:sl":"Sana","name:sn":"Sana'a","name:so":"Sanca","name:sq":"Sana","name:sr":"Сана","name:sv":"Sana","name:sw":"Sana'a","name:ta":"சன்ஆ","name:tg":"Санъо","name:th":"ซานา","name:tl":"Sanaa","name:tr":"San'a","name:tt":"Сәнга","name:tw":"Sanaa","name:ug":"سەنئا","name:uk":"Сана","name:ur":"صنعاء","name:uz":"Sano","name:vi":"Sana’a","name:yi":"סאנא","name:yo":"Sana'a","name:zh":"薩那","alt_name":"San’ah;San'ah;Şan‘ā’","name:arz":"صنعا","name:azb":"صنعا","name:ckb":"سەنعا","name:hif":"Sana‘a","name:kab":"Ṣenɛa","name:lmo":"San'a","name:lrc":"سٱنعا","name:nan":"Sana'a","name:nov":"Sana","name:pms":"San'a","name:pnb":"صنعا","name:sco":"Sana'a","name:war":"Sana'a","name:simple":"Sana'a","name:zh-Hans":"萨那","name:zh-Hant":"薩那","name:be-tarask":"Сана"},"display_name":"صنعاء, مدينة صنعاء, مديرية التحرير, أمانة العاصمة, اليمن","address":{"city":"صنعاء","district":"مديرية التحرير","state":"أمانة العاصمة","ISO3166-2-lvl4":"YE-SA","country":"اليمن","country_code":"ye"},"population":1527861,"osm_type":"node","osm_id":258013552,"type":"city","location":[44.2058841,15.3538569],"bbox":[44.0458841,15.1938569,44.3658841,15.5138569]}
{"name":"عتق","other_names":{"name:ar":"عتق","name:cs":"'Atak","name:en":"`Ataq","name:ml":"അത്തഖ്","name:ru":"Атак","name:uk":"Атак","alt_name":"‘Atāq;`Ataq;Attak","int_name":"‘Ataq"},"display_name":"عتق, مديرية عتق, محافظة شبوة, اليمن","address":{"city":"عتق","district":"مديرية عتق","state":"محافظة شبوة","ISO3166-2-lvl4":"YE-SH","country":"اليمن","country_code":"ye"},"population":20435,"osm_type":"node","osm_id":296960467,"type":"city","location":[46.8453776,14.5277354],"bbox":[46.6853776,14.3677354,47.0053776,14.6877354],"border":{"name":"مديرية عتق","other_names":{"name:ar":"مديرية عتق","name:en":"Ataq District","int_name":"‘Ataq","name:de":"Ataq","name:fr":"Ataq","alt:en":"Ataq"},"display_name":"مديرية عتق, محافظة شبوة, اليمن","address":{"district":"مديرية عتق","state":"محافظة شبوة","ISO3166-2-lvl4":"YE-SH","country":"اليمن","country_code":"ye"},"population":37315,"osm_type":"relation","osm_id":9865287,"type":"administrative","location":[46.831872,14.572856],"bbox":[46.6512419,14.3917525,46.9978586,14.7726872]}}
{"name":"عدن","other_names":{"name:ar":"عدن","name:cs":"Aden","name:da":"Aden","name:de":"Aden","name:en":"Aden","name:et":"Aden","name:eu":"Aden","name:fi":"Aden","name:fr":"Aden","name:he":"עדן","name:hi":"आदन्","name:kn":"ಆದನ್","name:ko":"아덴","name:lt":"Adenas","name:ml":"അദൻ","name:oc":"Adèn","name:ru":"Аден","name:sk":"Aden","name:sr":"Аден","name:tr":"Aden","name:uk":"Аден","name:zh":"亚丁","int_name":"‘Adan","old_name":"Eudaemon","name:zh-Hans":"亚丁","name:zh-Hant":"亞丁"},"display_name":"عدن, مدينة عدن, محافظة عدن, اليمن","address":{"city":"عدن","state":"محافظة عدن","ISO3166-2-lvl4":"YE-AD","country":"اليمن","country_code":"ye"},"population":508489,"osm_type":"node","osm_id":263263790,"type":"city","location":[45.028504,12.789585],"bbox":[44.868504,12.629585,45.188504,12.949585],"border":{"name":"مدينة عدن","other_names":{"name:ar":"مدينة عدن","name:cs":"Aden","name:en":"Aden City","name:sk":"Aden","name:da":"Aden","name:de":"Aden","name:et":"Aden","name:eu":"Aden","name:fi":"Aden","name:fr":"Aden","name:he":"עדן","name:hi":"आदन्","name:kn":"ಆದನ್","name:ko":"아덴","name:lt":"Adenas","name:ml":"അദൻ","name:oc":"Adèn","name:ru":"Аден","name:sr":"Аден","name:tr":"Aden","name:uk":"Аден","name:zh":"亚丁","int_name":"‘Adan","old_name":"Eudaemon","name:zh-Hans":"亚丁","name:zh-Hant":"亞丁","alt":"عدن","alt:ar":"عدن","alt:en":"Aden"},"display_name":"مدينة عدن, محافظة عدن, اليمن","address":{"city":"مدينة عدن","state":"محافظة عدن","ISO3166-2-lvl4":"YE-AD","country":"اليمن","country_code":"ye"},"population":508489,"osm_type":"relation","osm_id":9134191,"type":"administrative","location":[45.028504,12.789585],"bbox":[44.9090399,12.7508947,45.0981259,12.9412176]}}
{"name":"عمران","other_names":{"name:ar":"عمران","name:cs":"'Amrán","name:de":"`Amran","name:en":"'Amran","name:fr":"'Amran","name:ml":"അംറാൻ","name:ru":"Амран","alt_name":"`Umran;‘Umrān","int_name":"‘Amrān"},"display_name":"عمران, مديرية عمران, محافظة عمران, اليمن","address":{"city":"عمران","district":"مديرية عمران","state":"محافظة عمران","ISO3166-2-lvl4":"YE-AM","country":"اليمن","country_code":"ye"},"population":96375,"osm_type":"node","osm_id":6039899586,"type":"city","location":[43.942995,15.6628336],"bbox":[43.782995,15.5028336,44.102995,15.8228336]}
{"name":"مأرب","other_names":{"name:ar":"مأرب","name:cs":"Marib","name:de":"Marib","name:en":"Marib","name:fr":"Marib","name:he":"מאריב","name:ml":"മാറിബ്","name:ru":"Мариб","name:uk":"Маріб","alt_name":"Mar`rib;Magreb;Mar‘rib","int_name":"Ma’rib"},"display_name":"مأرب, مديرية مدينة مأرب, محافظة مأرب, اليمن","address":{"city":"مأرب","district":"مديرية مدينة مأرب","state":"محافظة مأرب","ISO3166-2-lvl4":"YE-MA","country":"اليمن","country_code":"ye"},"population":13863,"osm_type":"node","osm_id":1217719218,"type":"city","location":[45.3230242,15.4578788],"bbox":[45.1630242,15.2978788,45.4830242,15.6178788],"border":{"name":"مديرية مأرب","other_names":{"name:ar":"مديرية مأرب","name:en":"Marib district","alt_name":"Ma’rib Province;Qaḑā’ Ma’rib;Qada' Ma'rib;Ma'rib Province","int_name":"Ma’rib","name:de":"Qada Marib","name:fr":"Qada Marib","_place_alt_name":"Ma’rib Province; Qaḑā’ Ma’rib; Qada' Ma'rib; Ma'rib Province","alt:en":"Ma'rib"},"display_name":"مديرية مأرب, محافظة مأرب, اليمن","address":{"district":"مديرية مأرب","state":"محافظة مأرب","ISO3166-2-lvl4":"YE-MA","country":"اليمن","country_code":"ye"},"population":39495,"osm_type":"relation","osm_id":9894390,"type":"administrative","location":[46.011143,15.723778],"bbox":[45.2114703,15.0807491,46.8108349,16.1618753]}}
{"name":"مدينة صنعاء","other_names":{"name:ar":"مدينة صنعاء","name:en":"Sana'a City"},"display_name":"مدينة صنعاء, مديرية السبعين, أمانة العاصمة, اليمن","address":{"city":"مدينة صنعاء","district":"مديرية السبعين","state":"أمانة العاصمة","ISO3166-2-lvl4":"YE-SA","country":"اليمن","country_code":"ye"},"osm_type":"relation","osm_id":9126077,"type":"city","location":[44.22510131016612,15.32877575],"bbox":[44.1265179,15.2095738,44.3000507,15.4477858]}
