{"name":"61-н гарам","other_names":{"name:mn":"61-н гарам","alt_name":"61-ijn garam"},"display_name":"61-н гарам, Улаанбаатар ᠤᠯᠠᠭᠠᠨᠪᠠᠭᠠᠲᠤᠷ, Монгол улс ᠮᠤᠩᠭᠤᠯ ᠤᠯᠤᠰ","address":{"village":"61-н гарам","city":"Улаанбаатар ᠤᠯᠠᠭᠠᠨᠪᠠᠭᠠᠲᠤᠷ","ISO3166-2-lvl4":"MN-1","country":"Монгол улс ᠮᠤᠩᠭᠤᠯ ᠤᠯᠤᠰ","country_code":"mn"},"osm_type":"node","osm_id":3774871406,"type":"village","location":[106.5488266,48.0069414],"bbox":[106.5288266,47.9869414,106.5688266,48.0269414]}
{"name":"Bayankhangai","other_names":{"name:en":"Bayankhangai","name:mn":"Эрдэнэ"},"display_name":"Bayankhangai, Эрдэнэ ᠡᠷᠳᠡᠨᠢ, Төв ᠲᠥᠪ, Монгол улс ᠮᠤᠩᠭᠤᠯ ᠤᠯᠤᠰ","address":{"village":"Bayankhangai","county":"Эрдэнэ ᠡᠷᠳᠡᠨᠢ","state":"Төв ᠲᠥᠪ","ISO3166-2-lvl4":"MN-047","country":"Монгол улс ᠮᠤᠩᠭᠤᠯ ᠤᠯᠤᠰ","country_code":"mn"},"osm_type":"node","osm_id":385707256,"type":"village","location":[107.8824152,47.7942453],"bbox":[107.8624152,47.7742453,107.9024152,47.8142453]}
{"name":"GUNNARIIN","other_names":{"name:en":"Gunnariyn","name:mn":"GUNNARIIN"},"display_name":"GUNNARIIN, Хайрхандулаан ᠬᠠᠶᠢᠷᠬᠠᠨ ᠳᠤᠯᠠᠭᠠᠨ, Өвөрхангай ᠥᠪᠦᠷᠬᠠᠩᠭ᠋ᠠᠢ, Монгол улс ᠮᠤᠩᠭᠤᠯ ᠤᠯᠤᠰ","address":{"village":"GUNNARIIN","county":"Хайрхандулаан ᠬᠠᠶᠢᠷᠬᠠᠨ ᠳᠤᠯᠠᠭᠠᠨ","state":"Өвөрхангай ᠥᠪᠦᠷᠬᠠᠩᠭ᠋ᠠᠢ","ISO3166-2-lvl4":"MN-055","country":"Монгол улс ᠮᠤᠩᠭᠤᠯ ᠤᠯᠤᠰ","country_code":"mn"},"osm_type":"node","osm_id":512050712,"type":"village","location":[102.0523769,45.6342413],"bbox":[102.0323769,45.6142413,102.0723769,45.6542413]}
{"name":"Аварга тосон рашаан ᠠᠪᠤᠷᠭᠤ ᠲᠣᠰᠤᠨ ᠷᠠᠰᠢᠶᠠᠨ","other_names":{"name:en":"Avarga Tosonii Rashaan","name:mn":"Аврага тосон рашаан","name:mn-Mong":"ᠠᠪᠤᠷᠭᠤ ᠲᠣᠰᠤᠨ ᠷᠠᠰᠢᠶᠠᠨ"},"display_name":"Аварга тосон рашаан ᠠᠪᠤᠷᠭᠤ ᠲᠣᠰᠤᠨ ᠷᠠᠰᠢᠶᠠᠨ, Дэлгэрхаан ᠳᠡᠯᠭᠡᠷᠬᠠᠨ, Хэнтий ᠬᠡᠨᠲᠡᠢ, Монгол улс ᠮᠤᠩᠭᠤᠯ ᠤᠯᠤᠰ","address":{"village":"Аварга тосон рашаан ᠠᠪᠤᠷᠭᠤ ᠲᠣᠰᠤᠨ ᠷᠠᠰᠢᠶᠠᠨ","county":"Дэлгэрхаан ᠳᠡᠯᠭᠡᠷᠬᠠᠨ","state":"Хэнтий ᠬᠡᠨᠲᠡᠢ","ISO3166-2-lvl4":"MN-039","country":"Монгол улс ᠮᠤᠩᠭᠤᠯ ᠤᠯᠤᠰ","country_code":"mn"},"osm_type":"node","osm_id":2364139477,"type":"village","location":[109.1520892,47.1817178],"bbox":[109.1320892,47.1617178,109.1720892,47.2017178]}
{"name":"Арбулаг ᠠᠷᠤᠪᠤᠯᠠᠭ","other_names":{"name:en":"Arbulag","name:mn":"Арбулаг","name:ru":"Арбулаг","name:zh":"阿尔布拉克县","int_name":"Arbulag","name:mn-Cyrl":"Арбулаг","name:mn-Mong":"ᠠᠷᠤᠪᠤᠯᠠᠭ"},"display_name":"Арбулаг ᠠᠷᠤᠪᠤᠯᠠᠭ, Хөвсгөл ᠬᠥᠪᠰᠦᠭᠦᠯ, Монгол улс ᠮᠤᠩᠭᠤᠯ ᠤᠯᠤᠰ","address":{"village":"Арбулаг ᠠᠷᠤᠪᠤᠯᠠᠭ","county":"Арбулаг ᠠᠷᠤᠪᠤᠯᠠᠭ","state":"Хөвсгөл ᠬᠥᠪᠰᠦᠭᠦᠯ","ISO3166-2-lvl4":"MN-041","country":"Монгол улс ᠮᠤᠩᠭᠤᠯ ᠤᠯᠤᠰ","country_code":"mn"},"osm_type":"node","osm_id":1661893849,"type":"village","location":[99.4445789,49.9132444],"bbox":[99.4245789,49.8932444,99.4645789,49.9332444],"border":[{"name":"Арбулаг","other_names":{"name:en":"Arbulag","name:mn":"Арбулаг","name:ru":"Арбулаг","name:zh":"阿尔布拉克县","int_name":"Arbulag"},"display_name":"Арбулаг, Арбулаг ᠠᠷᠤᠪᠤᠯᠠᠭ, Хөвсгөл ᠬᠥᠪᠰᠦᠭᠦᠯ, Монгол улс ᠮᠤᠩᠭᠤᠯ ᠤᠯᠤᠰ","address":{"village":"Арбулаг","county":"Арбулаг ᠠᠷᠤᠪᠤᠯᠠᠭ","state":"Хөвсгөл ᠬᠥᠪᠰᠦᠭᠦᠯ","ISO3166-2-lvl4":"MN-041","country":"Монгол улс ᠮᠤᠩᠭᠤᠯ ᠤᠯᠤᠰ","country_code":"mn"},"osm_type":"way","osm_id":189480466,"type":"village","location":[99.44333316684916,49.91332325],"bbox":[99.4259235,49.9040326,99.4618995,49.9196805]},{"name":"Арбулаг ᠠᠷᠤᠪᠤᠯᠠᠭ","other_names":{"name:de":"Arbulag","name:en":"Arbulag","name:mn":"Арбулаг","name:ru":"Арбулаг","name:mn-Cyrl":"Арбулаг","name:mn-Mong":"ᠠᠷᠤᠪᠤᠯᠠᠭ"},"display_name":"Арбулаг ᠠᠷᠤᠪᠤᠯᠠᠭ, Хөвсгөл ᠬᠥᠪᠰᠦᠭᠦᠯ, Монгол улс ᠮᠤᠩᠭᠤᠯ ᠤᠯᠤᠰ","address":{"county":"Арбулаг ᠠᠷᠤᠪᠤᠯᠠᠭ","state":"Хөвсгөл ᠬᠥᠪᠰᠦᠭᠦᠯ","ISO3166-2-lvl4":"MN-041","country":"Монгол улс ᠮᠤᠩᠭᠤᠯ ᠤᠯᠤᠰ","country_code":"mn"},"osm_type":"relation","osm_id":7305549,"type":"administrative","location":[99.3962347266631,49.94283655],"bbox":[98.8178087,49.5253731,99.8963187,50.3541468]}]}
{"name":"Архуст ᠠᠷᠤᠬᠤᠰᠤᠲᠤ","other_names":{"name:en":"Arkhust","name:fa":"آرخوست","name:mn":"Архуст","name:zh":"阿尔胡斯特县","name:mn-Cyrl":"Архуст","name:mn-Mong":"ᠠᠷᠤᠬᠤᠰᠤᠲᠤ"},"display_name":"Архуст ᠠᠷᠤᠬᠤᠰᠤᠲᠤ, Төв ᠲᠥᠪ, Монгол улс ᠮᠤᠩᠭᠤᠯ ᠤᠯᠤᠰ","address":{"village":"Архуст ᠠᠷᠤᠬᠤᠰᠤᠲᠤ","county":"Архуст ᠠᠷᠤᠬᠤᠰᠤᠲᠤ","state":"Төв ᠲᠥᠪ","ISO3166-2-lvl4":"MN-047","country":"Монгол улс ᠮᠤᠩᠭᠤᠯ ᠤᠯᠤᠰ","country_code":"mn"},"osm_type":"node","osm_id":3774794997,"type":"village","location":[107.94135,47.5180257],"bbox":[107.92135,47.4980257,107.96135,47.5380257],"border":[{"name":"Архуст","other_names":{"name:en":"Arkhust","name:mn":"Архуст","name:zh":"阿尔胡斯特县"},"display_name":"Архуст, Архуст ᠠᠷᠤᠬᠤᠰᠤᠲᠤ, Төв ᠲᠥᠪ, Монгол улс ᠮᠤᠩᠭᠤᠯ ᠤᠯᠤᠰ","address":{"village":"Архуст","county":"Архуст ᠠᠷᠤᠬᠤᠰᠤᠲᠤ","state":"Төв ᠲᠥᠪ","ISO3166-2-lvl4":"MN-047","country":"Монгол улс ᠮᠤᠩᠭᠤᠯ ᠤᠯᠤᠰ","country_code":"mn"},"osm_type":"way","osm_id":62225976,"type":"village","location":[107.94148898400084,47.52028325],"bbox":[107.932134,47.5093269,107.9527333,47.5300783]},{"name":"Архуст ᠠᠷᠤᠬᠤᠰᠤᠲᠤ","other_names":{"name:de":"Arkhust","name:en":"Arkhust","name:fa":"آرخوست","name:mn":"Архуст","name:mn-Cyrl":"Архуст","name:mn-Mong":"ᠠᠷᠤᠬᠤᠰᠤᠲᠤ"},"display_name":"Архуст ᠠᠷᠤᠬᠤᠰᠤᠲᠤ, Төв ᠲᠥᠪ, Монгол улс ᠮᠤᠩᠭᠤᠯ ᠤᠯᠤᠰ","address":{"county":"Архуст ᠠᠷᠤᠬᠤᠰᠤᠲᠤ","state":"Төв ᠲᠥᠪ","ISO3166-2-lvl4":"MN-047","country":"Монгол улс ᠮᠤᠩᠭᠤᠯ ᠤᠯᠤᠰ","country_code":"mn"},"osm_type":"relation","osm_id":7302477,"type":"administrative","location":[107.95651565248376,47.47377015],"bbox":[107.7042556,47.3365496,108.1781563,47.6299454]}]}
{"name":"Асгат ᠠᠰᠠᠭᠲᠤ","other_names":{"name:en":"Asgat","name:mn":"Асгат","name:zh":"阿斯嘎特县","int_name":"Асгат","name:mn-Cyrl":"Асгат","name:mn-Mong":"ᠠᠰᠠᠭᠲᠤ"},"display_name":"Асгат ᠠᠰᠠᠭᠲᠤ, Завхан ᠵᠠᠪᠬᠠᠨ, Монгол улс ᠮᠤᠩᠭᠤᠯ ᠤᠯᠤᠰ","address":{"village":"Асгат ᠠᠰᠠᠭᠲᠤ","county":"Асгат ᠠᠰᠠᠭᠲᠤ","state":"Завхан ᠵᠠᠪᠬᠠᠨ","ISO3166-2-lvl4":"MN-057","country":"Монгол улс ᠮᠤᠩᠭᠤᠯ ᠤᠯᠤᠰ","country_code":"mn"},"osm_type":"node","osm_id":915272424,"type":"village","location":[96.60494,49.4093493],"bbox":[96.58494,49.3893493,96.62494,49.4293493],"border":[{"name":"Асгат","other_names":{"name:en":"Asgat","name:mn":"Асгат","name:zh":"阿斯嘎特县","int_name":"Асгат"},"display_name":"Асгат, Асгат ᠠᠰᠠᠭᠲᠤ, Завхан ᠵᠠᠪᠬᠠᠨ, Монгол улс ᠮᠤᠩᠭᠤᠯ ᠤᠯᠤᠰ","address":{"village":"Асгат","county":"Асгат ᠠᠰᠠᠭᠲᠤ","state":"Завхан ᠵᠠᠪᠬᠠᠨ","ISO3166-2-lvl4":"MN-057","country":"Монгол улс ᠮᠤᠩᠭᠤᠯ ᠤᠯᠤᠰ","country_code":"mn"},"osm_type":"way","osm_id":229413219,"type":"village","location":[96.60720460370426,49.406084250000006],"bbox":[96.598406,49.3994412,96.622136,49.4125086]},{"name":"Асгат ᠠᠰᠠᠭᠲᠤ","other_names":{"name:de":"Asgat","name:en":"Asgat","name:mn":"Асгат","name:mn-Cyrl":"Асгат","name:mn-Mong":"ᠠᠰᠠᠭᠲᠤ"},"display_name":"Асгат ᠠᠰᠠᠭᠲᠤ, Завхан ᠵᠠᠪᠬᠠᠨ, Монгол улс ᠮᠤᠩᠭᠤᠯ ᠤᠯᠤᠰ","address":{"county":"Асгат ᠠᠰᠠᠭᠲᠤ","state":"Завхан ᠵᠠᠪᠬᠠᠨ","ISO3166-2-lvl4":"MN-057","country":"Монгол улс ᠮᠤᠩᠭᠤᠯ ᠤᠯᠤᠰ","country_code":"mn"},"osm_type":"relation","osm_id":7304920,"type":"administrative","location":[96.71933668128526,49.4950265],"bbox":[96.5089375,49.353283,96.883302,49.6122891]}]}
{"name":"Багахангай","other_names":{"name:mn":"Багахангай","name:ru":"Багахангай","name:zh":"巴嘎杭爱区"},"display_name":"Багахангай, Монгол улс ᠮᠤᠩᠭᠤᠯ ᠤᠯᠤᠰ","address":{"village":"Багахангай","country":"Монгол улс ᠮᠤᠩᠭᠤᠯ ᠤᠯᠤᠰ","country_code":"mn"},"osm_type":"way","osm_id":168756095,"type":"village","location":[107.48950537787589,47.35612165],"bbox":[107.4807525,47.3486681,107.4976568,47.3611572]}
{"display_name":"Батсүмбэр ᠪᠠᠲᠤᠰᠦ᠋ᠮᠪᠦᠷ, Төв ᠲᠥᠪ, Монгол улс ᠮᠤᠩᠭᠤᠯ ᠤᠯᠤᠰ","address":{"county":"Батсүмбэр ᠪᠠᠲᠤᠰᠦ᠋ᠮᠪᠦᠷ","state":"Төв ᠲᠥᠪ","ISO3166-2-lvl4":"MN-047","country":"Монгол улс ᠮᠤᠩᠭᠤᠯ ᠤᠯᠤᠰ","country_code":"mn"},"osm_type":"node","osm_id":2315743186,"type":"village","location":[106.8199503,48.5655738],"bbox":[106.7999503,48.5455738,106.8399503,48.5855738]}
{"display_name":"Батсүмбэр ᠪᠠᠲᠤᠰᠦ᠋ᠮᠪᠦᠷ, Төв ᠲᠥᠪ, Монгол улс ᠮᠤᠩᠭᠤᠯ ᠤᠯᠤᠰ","address":{"county":"Батсүмбэр ᠪᠠᠲᠤᠰᠦ᠋ᠮᠪᠦᠷ","state":"Төв ᠲᠥᠪ","ISO3166-2-lvl4":"MN-047","country":"Монгол улс ᠮᠤᠩᠭᠤᠯ ᠤᠯᠤᠰ","country_code":"mn"},"osm_type":"node","osm_id":2316856964,"type":"village","location":[106.8402605,48.401836],"bbox":[106.8202605,48.381836,106.8602605,48.421836]}
{"name":"Баян-Овоо ᠪᠠᠶ᠋ᠠᠨ ᠣᠪᠤᠭ᠎ᠠ","other_names":{"name:en":"Bayan-Ovoo","name:mn":"Баян-Овоо","name:zh":"巴彦敖包县","name:mn-Cyrl":"Баян-Овоо","name:mn-Mong":"ᠪᠠᠶ᠋ᠠᠨ ᠣᠪᠤᠭ᠎ᠠ"},"display_name":"Баян-Овоо ᠪᠠᠶ᠋ᠠᠨ ᠣᠪᠤᠭ᠎ᠠ, Баянхонгор ᠪᠠᠶᠠᠨᠬᠣᠩᠭᠣᠷ, Монгол улс ᠮᠤᠩᠭᠤᠯ ᠤᠯᠤᠰ","address":{"village":"Баян-Овоо ᠪᠠᠶ᠋ᠠᠨ ᠣᠪᠤᠭ᠎ᠠ","county":"Баян-Овоо ᠪᠠᠶ᠋ᠠᠨ ᠣᠪᠤᠭ᠎ᠠ","state":"Баянхонгор ᠪᠠᠶᠠᠨᠬᠣᠩᠭᠣᠷ","ISO3166-2-lvl4":"MN-069","country":"Монгол улс ᠮᠤᠩᠭᠤᠯ ᠤᠯᠤᠰ","country_code":"mn"},"osm_type":"node","osm_id":1191893042,"type":"village","location":[100.4496777,46.2875638],"bbox":[100.4296777,46.2675638,100.4696777,46.3075638],"border":[{"name":"Баян-Овоо","other_names":{"name:en":"Bayan-Ovoo","name:mn":"Баян-Овоо","name:zh":"巴彦敖包县"},"display_name":"Баян-Овоо, Баян-Овоо ᠪᠠᠶ᠋ᠠᠨ ᠣᠪᠤᠭ᠎ᠠ, Баянхонгор ᠪᠠᠶᠠᠨᠬᠣᠩᠭᠣᠷ, Монгол улс ᠮᠤᠩᠭᠤᠯ ᠤᠯᠤᠰ","address":{"village":"Баян-Овоо","county":"Баян-Овоо ᠪᠠᠶ᠋ᠠᠨ ᠣᠪᠤᠭ᠎ᠠ","state":"Баянхонгор ᠪᠠᠶᠠᠨᠬᠣᠩᠭᠣᠷ","ISO3166-2-lvl4":"MN-069","country":"Монгол улс ᠮᠤᠩᠭᠤᠯ ᠤᠯᠤᠰ","country_code":"mn"},"osm_type":"way","osm_id":63985568,"type":"village","location":[100.4505344865984,46.28895595],"bbox":[100.443449,46.2847707,100.4581743,46.2931521]},{"name":"Баян-Овоо ᠪᠠᠶ᠋ᠠᠨ ᠣᠪᠤᠭ᠎ᠠ","other_names":{"name:de":"Bayan-Ovoo","name:en":"Bayan-Ovoo","name:mn":"Баян-Овоо","name:mn-Cyrl":"Баян-Овоо","name:mn-Mong":"ᠪᠠᠶ᠋ᠠᠨ ᠣᠪᠤᠭ᠎ᠠ"},"display_name":"Баян-Овоо ᠪᠠᠶ᠋ᠠᠨ ᠣᠪᠤᠭ᠎ᠠ, Баянхонгор ᠪᠠᠶᠠᠨᠬᠣᠩᠭᠣᠷ, Монгол улс ᠮᠤᠩᠭᠤᠯ ᠤᠯᠤᠰ","address":{"county":"Баян-Овоо ᠪᠠᠶ᠋ᠠᠨ ᠣᠪᠤᠭ᠎ᠠ","state":"Баянхонгор ᠪᠠᠶᠠᠨᠬᠣᠩᠭᠣᠷ","ISO3166-2-lvl4":"MN-069","country":"Монгол улс ᠮᠤᠩᠭᠤᠯ ᠤᠯᠤᠰ","country_code":"mn"},"osm_type":"relation","osm_id":7304759,"type":"administrative","location":[100.27038355016666,46.1843243],"bbox":[99.8130544,45.7461659,100.7498396,46.5712579]}]}
{"name":"Баян-Овоо ᠪᠠᠶ᠋ᠠᠨ ᠣᠪᠤᠭ᠎ᠠ","other_names":{"name:en":"Bayan-Ovoo","name:mn":"Баян-Овоо","name:ru":"Баян-Овоо","name:zh":"巴彦敖包县","name:mn-Cyrl":"Баян-Овоо","name:mn-Mong":"ᠪᠠᠶ᠋ᠠᠨ ᠣᠪᠤᠭ᠎ᠠ"},"display_name":"Баян-Овоо ᠪᠠᠶ᠋ᠠᠨ ᠣᠪᠤᠭ᠎ᠠ, Өмнөговь ᠡᠮᠦᠨᠡᠭᠣᠪᠢ, Монгол улс ᠮᠤᠩᠭᠤᠯ ᠤᠯᠤᠰ","address":{"village":"Баян-Овоо ᠪᠠᠶ᠋ᠠᠨ ᠣᠪᠤᠭ᠎ᠠ","county":"Баян-Овоо ᠪᠠᠶ᠋ᠠᠨ ᠣᠪᠤᠭ᠎ᠠ","state":"Өмнөговь ᠡᠮᠦᠨᠡᠭᠣᠪᠢ","ISO3166-2-lvl4":"MN-053","country":"Монгол улс ᠮᠤᠩᠭᠤᠯ ᠤᠯᠤᠰ","country_code":"mn"},"osm_type":"node","osm_id":1976182167,"type":"village","location":[106.1168634,42.9712367],"bbox":[106.0968634,42.9512367,106.1368634,42.9912367],"border":{"name":"Баян-Овоо ᠪᠠᠶ᠋ᠠᠨ ᠣᠪᠤᠭ᠎ᠠ","other_names":{"name:de":"Bayan-Ovoo","name:en":"Bayan-Ovoo","name:mn":"Баян-Овоо","name:ru":"Баян-Овоо","name:mn-Cyrl":"Баян-Овоо","name:mn-Mong":"ᠪᠠᠶ᠋ᠠᠨ ᠣᠪᠤᠭ᠎ᠠ"},"display_name":"Баян-Овоо ᠪᠠᠶ᠋ᠠᠨ ᠣᠪᠤᠭ᠎ᠠ, Өмнөговь ᠡᠮᠦᠨᠡᠭᠣᠪᠢ, Монгол улс ᠮᠤᠩᠭᠤᠯ ᠤᠯᠤᠰ","address":{"county":"Баян-Овоо ᠪᠠᠶ᠋ᠠᠨ ᠣᠪᠤᠭ᠎ᠠ","state":"Өмнөговь ᠡᠮᠦᠨᠡᠭᠣᠪᠢ","ISO3166-2-lvl4":"MN-053","country":"Монгол улс ᠮᠤᠩᠭᠤᠯ ᠤᠯᠤᠰ","country_code":"mn"},"osm_type":"relation","osm_id":7297558,"type":"administrative","location":[106.17188756015759,42.77944215],"bbox":[105.321029,42.0397977,106.7207876,43.5426485]}}
{"name":"Баянгол ᠪᠠᠶ᠋ᠠᠩᠭ᠋ᠣᠤᠯ","other_names":{"name:en":"Bayangol","name:mn":"Баянгол","int_name":"Баянгол","name:mn-Cyrl":"Баянгол","name:mn-Mong":"ᠪᠠᠶ᠋ᠠᠩᠭ᠋ᠣᠤᠯ"},"display_name":"Баянгол ᠪᠠᠶ᠋ᠠᠩᠭ᠋ᠣᠤᠯ, Өвөрхангай ᠥᠪᠦᠷᠬᠠᠩᠭ᠋ᠠᠢ, Монгол улс ᠮᠤᠩᠭᠤᠯ ᠤᠯᠤᠰ","address":{"village":"Баянгол ᠪᠠᠶ᠋ᠠᠩᠭ᠋ᠣᠤᠯ","county":"Баянгол ᠪᠠᠶ᠋ᠠᠩᠭ᠋ᠣᠤᠯ","state":"Өвөрхангай ᠥᠪᠦᠷᠬᠠᠩᠭ᠋ᠠᠢ","ISO3166-2-lvl4":"MN-055","country":"Монгол улс ᠮᠤᠩᠭᠤᠯ ᠤᠯᠤᠰ","country_code":"mn"},"osm_type":"node","osm_id":512044994,"type":"village","location":[103.4480787,45.8086165],"bbox":[103.4280787,45.7886165,103.4680787,45.8286165],"border":[{"name":"Баянгол","other_names":{"name:mn":"Баянгол","int_name":"Баянгол"},"display_name":"Баянгол, Баянгол ᠪᠠᠶ᠋ᠠᠩᠭ᠋ᠣᠤᠯ, Өвөрхангай ᠥᠪᠦᠷᠬᠠᠩᠭ᠋ᠠᠢ, Монгол улс ᠮᠤᠩᠭᠤᠯ ᠤᠯᠤᠰ","address":{"village":"Баянгол","county":"Баянгол ᠪᠠᠶ᠋ᠠᠩᠭ᠋ᠣᠤᠯ","state":"Өвөрхангай ᠥᠪᠦᠷᠬᠠᠩᠭ᠋ᠠᠢ","ISO3166-2-lvl4":"MN-055","country":"Монгол улс ᠮᠤᠩᠭᠤᠯ ᠤᠯᠤᠰ","country_code":"mn"},"osm_type":"way","osm_id":190717059,"type":"village","location":[103.44616288762886,45.809395800000004],"bbox":[103.4356428,45.8029512,103.4583064,45.8147265]},{"name":"Баянгол ᠪᠠᠶ᠋ᠠᠩᠭ᠋ᠣᠤᠯ","other_names":{"name:de":"Bayangol","name:en":"Bayangol","name:mn":"Баянгол","name:mn-Cyrl":"Баянгол","name:mn-Mong":"ᠪᠠᠶ᠋ᠠᠩᠭ᠋ᠣᠤᠯ"},"display_name":"Баянгол ᠪᠠᠶ᠋ᠠᠩᠭ᠋ᠣᠤᠯ, Өвөрхангай ᠥᠪᠦᠷᠬᠠᠩᠭ᠋ᠠᠢ, Монгол улс ᠮᠤᠩᠭᠤᠯ ᠤᠯᠤᠰ","address":{"county":"Баянгол ᠪᠠᠶ᠋ᠠᠩᠭ᠋ᠣᠤᠯ","state":"Өвөрхангай ᠥᠪᠦᠷᠬᠠᠩᠭ᠋ᠠᠢ","ISO3166-2-lvl4":"MN-055","country":"Монгол улс ᠮᠤᠩᠭᠤᠯ ᠤᠯᠤᠰ","country_code":"mn"},"osm_type":"relation","osm_id":7297916,"type":"administrative","location":[103.34612924997612,45.7860643],"bbox":[102.8829472,45.3907472,103.807252,46.1181094]}]}
{"display_name":"Баянгол ᠪᠠᠶ᠋ᠠᠩᠭ᠋ᠣᠤᠯ, Сэлэнгэ ᠰᠡᠯᠡᠩᠭᠡ, Монгол улс ᠮᠤᠩᠭᠤᠯ ᠤᠯᠤᠰ","address":{"county":"Баянгол ᠪᠠᠶ᠋ᠠᠩᠭ᠋ᠣᠤᠯ","state":"Сэлэнгэ ᠰᠡᠯᠡᠩᠭᠡ","ISO3166-2-lvl4":"MN-049","country":"Монгол улс ᠮᠤᠩᠭᠤᠯ ᠤᠯᠤᠰ","country_code":"mn"},"osm_type":"way","osm_id":975052460,"type":"village","location":[106.09103749726879,48.9001298],"bbox":[106.0839549,48.8925158,106.0983758,48.9068463]}
{"name":"Баяндэлгэр ᠪᠶ᠋ᠠᠨᠳᠡᠯᠭᠡᠷ","other_names":{"name:en":"Bayandelger","name:fa":"بایاندلگر","name:mn":"Баяндэлгэр","name:zh":"巴彦德拉盖尔县","int_name":"Баяндэлгэр","name:mn-Cyrl":"Баяндэлгэр","name:mn-Mong":"ᠪᠶ᠋ᠠᠨᠳᠡᠯᠭᠡᠷ"},"display_name":"Баяндэлгэр ᠪᠶ᠋ᠠᠨᠳᠡᠯᠭᠡᠷ, Төв ᠲᠥᠪ, Монгол улс ᠮᠤᠩᠭᠤᠯ ᠤᠯᠤᠰ","address":{"village":"Баяндэлгэр ᠪᠶ᠋ᠠᠨᠳᠡᠯᠭᠡᠷ","county":"Баяндэлгэр ᠪᠶ᠋ᠠᠨᠳᠡᠯᠭᠡᠷ","state":"Төв ᠲᠥᠪ","ISO3166-2-lvl4":"MN-047","country":"Монгол улс ᠮᠤᠩᠭᠤᠯ ᠤᠯᠤᠰ","country_code":"mn"},"osm_type":"node","osm_id":2367246684,"type":"village","location":[108.1144808,47.728155],"bbox":[108.0944808,47.708155,108.1344808,47.748155],"border":[{"name":"Баяндэлгэр","other_names":{"name:en":"Bayandelger","name:mn":"Баяндэлгэр","name:zh":"巴彦德拉盖尔县","int_name":"Баяндэлгэр"},"display_name":"Баяндэлгэр, Баяндэлгэр ᠪᠶ᠋ᠠᠨᠳᠡᠯᠭᠡᠷ, Төв ᠲᠥᠪ, Монгол улс ᠮᠤᠩᠭᠤᠯ ᠤᠯᠤᠰ","address":{"village":"Баяндэлгэр","county":"Баяндэлгэр ᠪᠶ᠋ᠠᠨᠳᠡᠯᠭᠡᠷ","state":"Төв ᠲᠥᠪ","ISO3166-2-lvl4":"MN-047","country":"Монгол улс ᠮᠤᠩᠭᠤᠯ ᠤᠯᠤᠰ","country_code":"mn"},"osm_type":"way","osm_id":62224481,"type":"village","location":[108.11433679324912,47.72801905],"bbox":[108.1063702,47.7227072,108.1223348,47.7309057]},{"name":"Баяндэлгэр ᠪᠶ᠋ᠠᠨᠳᠡᠯᠭᠡᠷ","other_names":{"name:de":"Bayandelger","name:en":"Bayandelger","name:fa":"بایاندلگر","name:mn":"Баяндэлгэр","name:mn-Cyrl":"Баяндэлгэр","name:mn-Mong":"ᠪᠶ᠋ᠠᠨᠳᠡᠯᠭᠡᠷ"},"display_name":"Баяндэлгэр ᠪᠶ᠋ᠠᠨᠳᠡᠯᠭᠡᠷ, Төв ᠲᠥᠪ, Монгол улс ᠮᠤᠩᠭᠤᠯ ᠤᠯᠤᠰ","address":{"county":"Баяндэлгэр ᠪᠶ᠋ᠠᠨᠳᠡᠯᠭᠡᠷ","state":"Төв ᠲᠥᠪ","ISO3166-2-lvl4":"MN-047","country":"Монгол улс ᠮᠤᠩᠭᠤᠯ ᠤᠯᠤᠰ","country_code":"mn"},"osm_type":"relation","osm_id":7302472,"type":"administrative","location":[108.11581291632135,47.75204815],"bbox":[107.9666503,47.3290051,108.507019,48.0972472]}]}
{"name":"Баянжаргалан","other_names":{"name:en":"Bayanjargalan","name:mn":"Баянжаргалан","name:zh":"巴彦热尔嘎兰县"},"display_name":"Баянжаргалан, Баянжаргалан ᠪᠠᠶ᠋ᠠᠨᠵᠢᠷᠭᠠᠯᠠᠩ, Төв ᠲᠥᠪ, Монгол улс ᠮᠤᠩᠭᠤᠯ ᠤᠯᠤᠰ","address":{"village":"Баянжаргалан","county":"Баянжаргалан ᠪᠠᠶ᠋ᠠᠨᠵᠢᠷᠭᠠᠯᠠᠩ","state":"Төв ᠲᠥᠪ","ISO3166-2-lvl4":"MN-047","country":"Монгол улс ᠮᠤᠩᠭᠤᠯ ᠤᠯᠤᠰ","country_code":"mn"},"osm_type":"way","osm_id":583891627,"type":"village","location":[108.25781767167791,47.18074195],"bbox":[108.2519978,47.1744648,108.2708215,47.1863803]}
{"name":"Бигэр ᠪᠢᠭᠡᠷ","other_names":{"name:en":"Biger","name:mn":"Бигэр","name:zh":"比盖尔县","name:mn-Cyrl":"Бигэр","name:mn-Mong":"ᠪᠢᠭᠡᠷ"},"display_name":"Бигэр ᠪᠢᠭᠡᠷ, Говь-Алтай ᠭᠣᠪᠢ ᠠᠯᠲᠠᠢ, Монгол улс ᠮᠤᠩᠭᠤᠯ ᠤᠯᠤᠰ","address":{"village":"Бигэр ᠪᠢᠭᠡᠷ","county":"Бигэр ᠪᠢᠭᠡᠷ","state":"Говь-Алтай ᠭᠣᠪᠢ ᠠᠯᠲᠠᠢ","ISO3166-2-lvl4":"MN-065","country":"Монгол улс ᠮᠤᠩᠭᠤᠯ ᠤᠯᠤᠰ","country_code":"mn"},"osm_type":"node","osm_id":634435305,"type":"village","location":[97.1773975,45.7079514],"bbox":[97.1573975,45.6879514,97.1973975,45.7279514],"border":[{"name":"Бигэр","other_names":{"name:en":"Biger","name:mn":"Бигэр","name:zh":"比盖尔县"},"display_name":"Бигэр, Бигэр ᠪᠢᠭᠡᠷ, Говь-Алтай ᠭᠣᠪᠢ ᠠᠯᠲᠠᠢ, Монгол улс ᠮᠤᠩᠭᠤᠯ ᠤᠯᠤᠰ","address":{"village":"Бигэр","county":"Бигэр ᠪᠢᠭᠡᠷ","state":"Говь-Алтай ᠭᠣᠪᠢ ᠠᠯᠲᠠᠢ","ISO3166-2-lvl4":"MN-065","country":"Монгол улс ᠮᠤᠩᠭᠤᠯ ᠤᠯᠤᠰ","country_code":"mn"},"osm_type":"way","osm_id":58483485,"type":"village","location":[97.17686402771307,45.706582600000004],"bbox":[97.1674168,45.7028247,97.1835539,45.7122317]},{"name":"Бигэр ᠪᠢᠭᠡᠷ","other_names":{"name:de":"Biger","name:en":"Biger","name:mn":"Бигэр","name:mn-Cyrl":"Бигэр","name:mn-Mong":"ᠪᠢᠭᠡᠷ"},"display_name":"Бигэр ᠪᠢᠭᠡᠷ, Говь-Алтай ᠭᠣᠪᠢ ᠠᠯᠲᠠᠢ, Монгол улс ᠮᠤᠩᠭᠤᠯ ᠤᠯᠤᠰ","address":{"county":"Бигэр ᠪᠢᠭᠡᠷ","state":"Говь-Алтай ᠭᠣᠪᠢ ᠠᠯᠲᠠᠢ","ISO3166-2-lvl4":"MN-065","country":"Монгол улс ᠮᠤᠩᠭᠤᠯ ᠤᠯᠤᠰ","country_code":"mn"},"osm_type":"relation","osm_id":7304796,"type":"administrative","location":[97.15773612483582,45.7139774],"bbox":[96.7269592,45.3516654,97.636505,46.09555]}]}
{"name":"Бичигтийн боомт ᠪᠢᠴᠢᠭᠲᠦ ᠶᠢᠨ ᠪᠣᠭᠣᠮᠲᠠ","other_names":{"name:en":"Bichigtiin boomt","name:mn":"Бичигтийн боомт","alt_name":"Bičigtijn boomt","name:mn-Mong":"ᠪᠢᠴᠢᠭᠲᠦ ᠶᠢᠨ ᠪᠣᠭᠣᠮᠲᠠ"},"display_name":"Бичигтийн боомт ᠪᠢᠴᠢᠭᠲᠦ ᠶᠢᠨ ᠪᠣᠭᠣᠮᠲᠠ, Эрдэнэцагаан ᠡᠷᠳᠡᠨᠡᠴᠭᠠᠨ, Сүхбаатар ᠰᠦᠬᠡᠪᠠᠭᠠᠲᠤᠷ, Монгол улс ᠮᠤᠩᠭᠤᠯ ᠤᠯᠤᠰ","address":{"village":"Бичигтийн боомт ᠪᠢᠴᠢᠭᠲᠦ ᠶᠢᠨ ᠪᠣᠭᠣᠮᠲᠠ","county":"Эрдэнэцагаан ᠡᠷᠳᠡᠨᠡᠴᠭᠠᠨ","state":"Сүхбаатар ᠰᠦᠬᠡᠪᠠᠭᠠᠲᠤᠷ","ISO3166-2-lvl4":"MN-051","country":"Монгол улс ᠮᠤᠩᠭᠤᠯ ᠤᠯᠤᠰ","country_code":"mn"},"osm_type":"node","osm_id":3774795016,"type":"village","location":[116.197425,45.7648175],"bbox":[116.177425,45.7448175,116.217425,45.7848175]}
{"name":"Бор-Үзүүр ᠪᠣᠷᠣ ᠦᠵᠦᠭᠦᠷ","other_names":{"name:en":"Bor-Üzüür","name:mn":"Бор-Үзүүр","name:zh":"阿尔泰县","int_name":"Алтай","name:mn-Cyrl":"Бор-Үзүүр","name:mn-Mong":"ᠪᠣᠷᠣ ᠦᠵᠦᠭᠦᠷ"},"display_name":"Бор-Үзүүр ᠪᠣᠷᠣ ᠦᠵᠦᠭᠦᠷ, Алтай ᠠᠯᠲᠠᠢ, Ховд ᠬᠣᠪᠳᠤ, Монгол улс ᠮᠤᠩᠭᠤᠯ ᠤᠯᠤᠰ","address":{"village":"Бор-Үзүүр ᠪᠣᠷᠣ ᠦᠵᠦᠭᠦᠷ","county":"Алтай ᠠᠯᠲᠠᠢ","state":"Ховд ᠬᠣᠪᠳᠤ","ISO3166-2-lvl4":"MN-043","country":"Монгол улс ᠮᠤᠩᠭᠤᠯ ᠤᠯᠤᠰ","country_code":"mn"},"osm_type":"node","osm_id":2351787950,"type":"village","location":[92.2882078,45.8062678],"bbox":[92.2682078,45.7862678,92.3082078,45.8262678]}
{"name":"Бугат ᠪᠤᠭᠤᠲᠤ","other_names":{"name:en":"Bugat","name:kk":"Бугат","name:mn":"Бугат","name:uk":"Буґат","name:zh":"布嘎特县","alt_name":"Bugat","name:kk-Arab":"بۋگات","name:kk-Cyrl":"Бугат","name:kk-Latn":"Bugat","name:mn-Cyrl":"Бугат","name:mn-Mong":"ᠪᠤᠭᠤᠲᠤ"},"display_name":"Бугат ᠪᠤᠭᠤᠲᠤ, Баян-Өлгий ᠪᠠᠶ᠋ᠠᠨ ᠥᠯᠦᠭᠡᠢ, Монгол улс ᠮᠤᠩᠭᠤᠯ ᠤᠯᠤᠰ","address":{"village":"Бугат ᠪᠤᠭᠤᠲᠤ","county":"Бугат ᠪᠤᠭᠤᠲᠤ","state":"Баян-Өлгий ᠪᠠᠶ᠋ᠠᠨ ᠥᠯᠦᠭᠡᠢ","ISO3166-2-lvl4":"MN-071","country":"Монгол улс ᠮᠤᠩᠭᠤᠯ ᠤᠯᠤᠰ","country_code":"mn"},"osm_type":"node","osm_id":3774795018,"type":"village","location":[90.018958,48.951355],"bbox":[89.998958,48.931355,90.038958,48.971355],"border":{"name":"Бугат ᠪᠤᠭᠤᠲᠤ","other_names":{"name:de":"Bugat","name:en":"Bugat","name:kk":"Бугат","name:mn":"Бугат","name:pl":"Bugat","name:uk":"Буґат","name:kk-Arab":"بۋگات","name:kk-Cyrl":"Бугат","name:kk-Latn":"Bugat","name:mn-Cyrl":"Бугат","name:mn-Mong":"ᠪᠤᠭᠤᠲᠤ"},"display_name":"Бугат ᠪᠤᠭᠤᠲᠤ, Баян-Өлгий ᠪᠠᠶ᠋ᠠᠨ ᠥᠯᠦᠭᠡᠢ, Монгол улс ᠮᠤᠩᠭᠤᠯ ᠤᠯᠤᠰ","address":{"county":"Бугат ᠪᠤᠭᠤᠲᠤ","state":"Баян-Өлгий ᠪᠠᠶ᠋ᠠᠨ ᠥᠯᠦᠭᠡᠢ","ISO3166-2-lvl4":"MN-071","country":"Монгол улс ᠮᠤᠩᠭᠤᠯ ᠤᠯᠤᠰ","country_code":"mn"},"osm_type":"relation","osm_id":7305011,"type":"administrative","location":[90.03868868705075,48.9957618],"bbox":[89.4258085,48.5925204,90.4633766,49.433401]}}
{"name":"Булган","display_name":"Булган, Булган ᠪᠤᠯᠠᠭᠠᠨ, Баян-Өлгий ᠪᠠᠶ᠋ᠠᠨ ᠥᠯᠦᠭᠡᠢ, Монгол улс ᠮᠤᠩᠭᠤᠯ ᠤᠯᠤᠰ","address":{"village":"Булган","county":"Булган ᠪᠤᠯᠠᠭᠠᠨ","state":"Баян-Өлгий ᠪᠠᠶ᠋ᠠᠨ ᠥᠯᠦᠭᠡᠢ","ISO3166-2-lvl4":"MN-071","country":"Монгол улс ᠮᠤᠩᠭᠤᠯ ᠤᠯᠤᠰ","country_code":"mn"},"osm_type":"way","osm_id":229236518,"type":"village","location":[91.0894015597186,46.9258337],"bbox":[91.0726797,46.9150159,91.1021748,46.936611]}
{"name":"Бүрэнхаан","other_names":{"name:en":"Burenkhaan","name:mn":"Бүрэнхаан","name:ru":"Бурэнхаан","int_name":"Burenkhaan"},"display_name":"Бүрэнхаан, Бүрэнтогтох ᠪᠦᠷᠢᠨᠲᠣᠭᠲᠣᠬᠤ, Хөвсгөл ᠬᠥᠪᠰᠦᠭᠦᠯ, Монгол улс ᠮᠤᠩᠭᠤᠯ ᠤᠯᠤᠰ","address":{"village":"Бүрэнхаан","county":"Бүрэнтогтох ᠪᠦᠷᠢᠨᠲᠣᠭᠲᠣᠬᠤ","state":"Хөвсгөл ᠬᠥᠪᠰᠦᠭᠦᠯ","ISO3166-2-lvl4":"MN-041","country":"Монгол улс ᠮᠤᠩᠭᠤᠯ ᠤᠯᠤᠰ","country_code":"mn"},"osm_type":"node","osm_id":512575092,"type":"village","location":[99.1577151,49.5034605],"bbox":[99.1377151,49.4834605,99.1777151,49.5234605],"border":{"name":"Бүрэнхаан","other_names":{"name:en":"Burenkhaan","name:mn":"Бүрэнхаан","name:ru":"Бурэнхаан","int_name":"Burenkhaan"},"display_name":"Бүрэнхаан, Бүрэнтогтох ᠪᠦᠷᠢᠨᠲᠣᠭᠲᠣᠬᠤ, Хөвсгөл ᠬᠥᠪᠰᠦᠭᠦᠯ, Монгол улс ᠮᠤᠩᠭᠤᠯ ᠤᠯᠤᠰ","address":{"village":"Бүрэнхаан","county":"Бүрэнтогтох ᠪᠦᠷᠢᠨᠲᠣᠭᠲᠣᠬᠤ","state":"Хөвсгөл ᠬᠥᠪᠰᠦᠭᠦᠯ","ISO3166-2-lvl4":"MN-041","country":"Монгол улс ᠮᠤᠩᠭᠤᠯ ᠤᠯᠤᠰ","country_code":"mn"},"osm_type":"way","osm_id":128971259,"type":"village","location":[99.1577151,49.5034605],"bbox":[99.1478305,49.4977914,99.1601215,49.5052607]}}
{"name":"Бэлэндалай ᠪᠡᠯᠡᠨᠳᠠᠯᠠᠢ","other_names":{"name:en":"Belendalai","name:mn":"Бэлэндалай","name:zh":"博楞达来","name:mn-Cyrl":"Бэлэндалай","name:mn-Mong":"ᠪᠡᠯᠡᠨᠳᠠᠯᠠᠢ"},"display_name":"Бэлэндалай ᠪᠡᠯᠡᠨᠳᠠᠯᠠᠢ, Орхон ᠣᠷᠬᠤᠨ, Сэлэнгэ ᠰᠡᠯᠡᠩᠭᠡ, Монгол улс ᠮᠤᠩᠭᠤᠯ ᠤᠯᠤᠰ","address":{"village":"Бэлэндалай ᠪᠡᠯᠡᠨᠳᠠᠯᠠᠢ","county":"Орхон ᠣᠷᠬᠤᠨ","state":"Сэлэнгэ ᠰᠡᠯᠡᠩᠭᠡ","ISO3166-2-lvl4":"MN-049","country":"Монгол улс ᠮᠤᠩᠭᠤᠯ ᠤᠯᠤᠰ","country_code":"mn"},"osm_type":"node","osm_id":11014622377,"type":"village","location":[105.4103985,49.0414935],"bbox":[105.3903985,49.0214935,105.4303985,49.0614935]}
{"name":"Галт халуун рашаан","other_names":{"name:en":"Galt Hot Springs","name:mn":"Галт халуун рашаан"},"display_name":"Галт халуун рашаан, Галт ᠭᠠᠯᠲᠤ, Хөвсгөл ᠬᠥᠪᠰᠦᠭᠦᠯ, Монгол улс ᠮᠤᠩᠭᠤᠯ ᠤᠯᠤᠰ","address":{"village":"Галт халуун рашаан","county":"Галт ᠭᠠᠯᠲᠤ","state":"Хөвсгөл ᠬᠥᠪᠰᠦᠭᠦᠯ","ISO3166-2-lvl4":"MN-041","country":"Монгол улс ᠮᠤᠩᠭᠤᠯ ᠤᠯᠤᠰ","country_code":"mn"},"osm_type":"node","osm_id":3725290046,"type":"village","location":[99.8888341,48.5663572],"bbox":[99.8688341,48.5463572,99.9088341,48.5863572]}
{"name":"Гачуурт ᠭᠠᠴᠤᠷᠲᠤ","other_names":{"name:en":"Gachuurt","name:mn":"Гачуурт","name:mn-Mong":"ᠭᠠᠴᠤᠷᠲᠤ"},"display_name":"Гачуурт ᠭᠠᠴᠤᠷᠲᠤ, Улаанбаатар ᠤᠯᠠᠭᠠᠨᠪᠠᠭᠠᠲᠤᠷ, 13130, Монгол улс ᠮᠤᠩᠭᠤᠯ ᠤᠯᠤᠰ","address":{"village":"Гачуурт ᠭᠠᠴᠤᠷᠲᠤ","city":"Улаанбаатар ᠤᠯᠠᠭᠠᠨᠪᠠᠭᠠᠲᠤᠷ","ISO3166-2-lvl4":"MN-1","postcode":"13130","country":"Монгол улс ᠮᠤᠩᠭᠤᠯ ᠤᠯᠤᠰ","country_code":"mn"},"osm_type":"node","osm_id":11016639700,"type":"village","location":[107.1458299,47.9281813],"bbox":[107.1258299,47.9081813,107.1658299,47.9481813]}
{"name":"Гашуунсухайт ᠭᠠᠰᠢᠭᠤᠨ ᠰᠤᠬᠠᠢ ᠳᠤ","other_names":{"name:en":"Gashuun sukhait","name:mn":"Гашуунсухайт","name:ru":"Гашун-Сухайт","name:zh":"嘎顺苏海图","name:mn-Cyrl":"Гашуунсухайт","name:mn-Mong":"ᠭᠠᠰᠢᠭᠤᠨ ᠰᠤᠬᠠᠢ ᠳᠤ"},"display_name":"Гашуунсухайт ᠭᠠᠰᠢᠭᠤᠨ ᠰᠤᠬᠠᠢ ᠳᠤ, Ханбогд ᠬᠠᠨᠪᠣᠭᠳᠤ, Өмнөговь ᠡᠮᠦᠨᠡᠭᠣᠪᠢ, Монгол улс ᠮᠤᠩᠭᠤᠯ ᠤᠯᠤᠰ","address":{"village":"Гашуунсухайт ᠭᠠᠰᠢᠭᠤᠨ ᠰᠤᠬᠠᠢ ᠳᠤ","county":"Ханбогд ᠬᠠᠨᠪᠣᠭᠳᠤ","state":"Өмнөговь ᠡᠮᠦᠨᠡᠭᠣᠪᠢ","ISO3166-2-lvl4":"MN-053","country":"Монгол улс ᠮᠤᠩᠭᠤᠯ ᠤᠯᠤᠰ","country_code":"mn"},"osm_type":"node","osm_id":2012349474,"type":"village","location":[107.5672059,42.4145676],"bbox":[107.5472059,42.3945676,107.5872059,42.4345676]}
{"name":"Городок ᠭᠣᠷᠣᠳᠣᠺ","other_names":{"name:en":"Gorodok","name:mn":"Городок","name:mn-Mong":"ᠭᠣᠷᠣᠳᠣᠺ"},"display_name":"Городок ᠭᠣᠷᠣᠳᠣᠺ, Улаанбаатар ᠤᠯᠠᠭᠠᠨᠪᠠᠭᠠᠲᠤᠷ, Монгол улс ᠮᠤᠩᠭᠤᠯ ᠤᠯᠤᠰ","address":{"village":"Городок ᠭᠣᠷᠣᠳᠣᠺ","city":"Улаанбаатар ᠤᠯᠠᠭᠠᠨᠪᠠᠭᠠᠲᠤᠷ","ISO3166-2-lvl4":"MN-1","country":"Монгол улс ᠮᠤᠩᠭᠤᠯ ᠤᠯᠤᠰ","country_code":"mn"},"osm_type":"node","osm_id":2367261080,"type":"village","location":[107.393769,47.783817],"bbox":[107.373769,47.763817,107.413769,47.803817]}
{"name":"Гунийн баг ᠭᠤᠨ᠎ᠠ ᠶᠢᠨ ᠪᠠᠭ","other_names":{"name:en":"Guniin bag","name:mn":"Гунийн баг","name:mn-Mong":"ᠭᠤᠨ᠎ᠠ ᠶᠢᠨ ᠪᠠᠭ"},"display_name":"Гунийн баг ᠭᠤᠨ᠎ᠠ ᠶᠢᠨ ᠪᠠᠭ, Баянцогт ᠪᠠᠶ᠋ᠠᠨᠴᠣᠭᠲᠤ, Төв ᠲᠥᠪ, Монгол улс ᠮᠤᠩᠭᠤᠯ ᠤᠯᠤᠰ","address":{"village":"Гунийн баг ᠭᠤᠨ᠎ᠠ ᠶᠢᠨ ᠪᠠᠭ","county":"Баянцогт ᠪᠠᠶ᠋ᠠᠨᠴᠣᠭᠲᠤ","state":"Төв ᠲᠥᠪ","ISO3166-2-lvl4":"MN-047","country":"Монгол улс ᠮᠤᠩᠭᠤᠯ ᠤᠯᠤᠰ","country_code":"mn"},"osm_type":"node","osm_id":2400006927,"type":"village","location":[106.0265744,48.1748852],"bbox":[106.0065744,48.1548852,106.0465744,48.1948852]}
{"name":"Гурванбаян ᠭᠤᠷᠪᠠᠨᠪᠠᠶᠠᠨ","other_names":{"name:en":"Gurvanbayan","name:mn":"Гурванбаян","name:mn-Mong":"ᠭᠤᠷᠪᠠᠨᠪᠠᠶᠠᠨ"},"display_name":"Гурванбаян ᠭᠤᠷᠪᠠᠨᠪᠠᠶᠠᠨ, Өмнөдэлгэр ᠡᠮᠦᠨᠡᠳᠡᠯᠭᠡᠷ, Хэнтий ᠬᠡᠨᠲᠡᠢ, Монгол улс ᠮᠤᠩᠭᠤᠯ ᠤᠯᠤᠰ","address":{"village":"Гурванбаян ᠭᠤᠷᠪᠠᠨᠪᠠᠶᠠᠨ","county":"Өмнөдэлгэр ᠡᠮᠦᠨᠡᠳᠡᠯᠭᠡᠷ","state":"Хэнтий ᠬᠡᠨᠲᠡᠢ","ISO3166-2-lvl4":"MN-039","country":"Монгол улс ᠮᠤᠩᠭᠤᠯ ᠤᠯᠤᠰ","country_code":"mn"},"osm_type":"node","osm_id":1426815233,"type":"village","location":[110.3079834,48.1810634],"bbox":[110.2879834,48.1610634,110.3279834,48.2010634]}
{"display_name":"Гурвантэс ᠭᠤᠷᠪᠠᠨᠲᠡᠰ, Өмнөговь ᠡᠮᠦᠨᠡᠭᠣᠪᠢ, Монгол улс ᠮᠤᠩᠭᠤᠯ ᠤᠯᠤᠰ","address":{"county":"Гурвантэс ᠭᠤᠷᠪᠠᠨᠲᠡᠰ","state":"Өмнөговь ᠡᠮᠦᠨᠡᠭᠣᠪᠢ","ISO3166-2-lvl4":"MN-053","country":"Монгол улс ᠮᠤᠩᠭᠤᠯ ᠤᠯᠤᠰ","country_code":"mn"},"osm_type":"way","osm_id":1013195899,"type":"village","location":[101.25072547390602,42.77421785],"bbox":[101.2502959,42.7730818,101.2511557,42.7754541]}
{"display_name":"Гурвантэс ᠭᠤᠷᠪᠠᠨᠲᠡᠰ, Өмнөговь ᠡᠮᠦᠨᠡᠭᠣᠪᠢ, Монгол улс ᠮᠤᠩᠭᠤᠯ ᠤᠯᠤᠰ","address":{"county":"Гурвантэс ᠭᠤᠷᠪᠠᠨᠲᠡᠰ","state":"Өмнөговь ᠡᠮᠦᠨᠡᠭᠣᠪᠢ","ISO3166-2-lvl4":"MN-053","country":"Монгол улс ᠮᠤᠩᠭᠤᠯ ᠤᠯᠤᠰ","country_code":"mn"},"osm_type":"way","osm_id":1013195900,"type":"village","location":[101.24537440275121,42.7740007],"bbox":[101.2450107,42.773093,101.2458452,42.774745]}
{"name":"Гучин-Ус","other_names":{"name:en":"Guchin-Us","name:mn":"Гучин-Ус","name:zh":"古沁乌苏县"},"display_name":"Гучин-Ус, Гучин-Ус ᠭᠤᠴᠢᠨ ᠤᠰ, Өвөрхангай ᠥᠪᠦᠷᠬᠠᠩᠭ᠋ᠠᠢ, Монгол улс ᠮᠤᠩᠭᠤᠯ ᠤᠯᠤᠰ","address":{"village":"Гучин-Ус","county":"Гучин-Ус ᠭᠤᠴᠢᠨ ᠤᠰ","state":"Өвөрхангай ᠥᠪᠦᠷᠬᠠᠩᠭ᠋ᠠᠢ","ISO3166-2-lvl4":"MN-055","country":"Монгол улс ᠮᠤᠩᠭᠤᠯ ᠤᠯᠤᠰ","country_code":"mn"},"osm_type":"way","osm_id":227004658,"type":"village","location":[102.42314020106488,45.462832750000004],"bbox":[102.4000898,45.4573318,102.4367802,45.4704446]}
{"name":"Гүнбулаг ᠭᠦᠨᠪᠤᠯᠠᠭ","other_names":{"name:en":"Gynbulag","name:mn":"Гүнбулаг","name:ru":"Гунбулаг","alt_name":"Gynbulag","name:mn-Cyrl":"Гүнбулаг","name:mn-Mong":"ᠭᠦᠨᠪᠤᠯᠠᠭ"},"display_name":"Гүнбулаг ᠭᠦᠨᠪᠤᠯᠠᠭ, Сүхбаатар ᠰᠦᠬᠡᠪᠭᠠᠲᠤᠷ, Сүхбаатар ᠰᠦᠬᠡᠪᠠᠭᠠᠲᠤᠷ, Монгол улс ᠮᠤᠩᠭᠤᠯ ᠤᠯᠤᠰ","address":{"village":"Гүнбулаг ᠭᠦᠨᠪᠤᠯᠠᠭ","county":"Сүхбаатар ᠰᠦᠬᠡᠪᠭᠠᠲᠤᠷ","state":"Сүхбаатар ᠰᠦᠬᠡᠪᠠᠭᠠᠲᠤᠷ","ISO3166-2-lvl4":"MN-051","country":"Монгол улс ᠮᠤᠩᠭᠤᠯ ᠤᠯᠤᠰ","country_code":"mn"},"osm_type":"node","osm_id":3774871377,"type":"village","location":[113.4283565,46.890259],"bbox":[113.4083565,46.870259,113.4483565,46.910259],"border":{"name":"Гүнбулаг","other_names":{"name:en":"Gynbulag","name:mn":"Гүнбулаг","name:ru":"Гунбулаг","alt_name":"Gynbulag"},"display_name":"Гүнбулаг, Сүхбаатар ᠰᠦᠬᠡᠪᠭᠠᠲᠤᠷ, Сүхбаатар ᠰᠦᠬᠡᠪᠠᠭᠠᠲᠤᠷ, Монгол улс ᠮᠤᠩᠭᠤᠯ ᠤᠯᠤᠰ","address":{"village":"Гүнбулаг","county":"Сүхбаатар ᠰᠦᠬᠡᠪᠭᠠᠲᠤᠷ","state":"Сүхбаатар ᠰᠦᠬᠡᠪᠠᠭᠠᠲᠤᠷ","ISO3166-2-lvl4":"MN-051","country":"Монгол улс ᠮᠤᠩᠭᠤᠯ ᠤᠯᠤᠰ","country_code":"mn"},"osm_type":"way","osm_id":188002921,"type":"village","location":[113.42859367721536,46.8897018],"bbox":[113.42458,46.8877075,113.4318971,46.892048]}}
{"name":"Дархан ᠳᠠᠷᠬᠠᠨ","other_names":{"name:en":"Darkhan","name:ja":"ダルハン","name:mn":"Дархан","name:zh":"达尔汗县","int_name":"Дархан","name:mn-Cyrl":"Дархан","name:mn-Mong":"ᠳᠠᠷᠬᠠᠨ"},"display_name":"Дархан ᠳᠠᠷᠬᠠᠨ, Хэнтий ᠬᠡᠨᠲᠡᠢ, Монгол улс ᠮᠤᠩᠭᠤᠯ ᠤᠯᠤᠰ","address":{"village":"Дархан ᠳᠠᠷᠬᠠᠨ","county":"Дархан ᠳᠠᠷᠬᠠᠨ","state":"Хэнтий ᠬᠡᠨᠲᠡᠢ","ISO3166-2-lvl4":"MN-039","country":"Монгол улс ᠮᠤᠩᠭᠤᠯ ᠤᠯᠤᠰ","country_code":"mn"},"osm_type":"node","osm_id":1849626693,"type":"village","location":[109.4045817,46.628219],"bbox":[109.3845817,46.608219,109.4245817,46.648219],"border":[{"name":"Дархан","other_names":{"name:en":"Darkhan","name:ja":"ダルハン","name:mn":"Дархан","name:zh":"达尔汗县","int_name":"Дархан"},"display_name":"Дархан, Дархан ᠳᠠᠷᠬᠠᠨ, Хэнтий ᠬᠡᠨᠲᠡᠢ, Монгол улс ᠮᠤᠩᠭᠤᠯ ᠤᠯᠤᠰ","address":{"village":"Дархан","county":"Дархан ᠳᠠᠷᠬᠠᠨ","state":"Хэнтий ᠬᠡᠨᠲᠡᠢ","ISO3166-2-lvl4":"MN-039","country":"Монгол улс ᠮᠤᠩᠭᠤᠯ ᠤᠯᠤᠰ","country_code":"mn"},"osm_type":"way","osm_id":192456927,"type":"village","location":[109.40907378048578,46.6267062],"bbox":[109.3951455,46.6199978,109.4204095,46.6340788]},{"name":"Дархан ᠳᠠᠷᠬᠠᠨ","other_names":{"name:de":"Darkhan","name:en":"Darkhan","name:ja":"ダルハン","name:mn":"Дархан","name:mn-Cyrl":"Дархан","name:mn-Mong":"ᠳᠠᠷᠬᠠᠨ"},"display_name":"Дархан ᠳᠠᠷᠬᠠᠨ, Хэнтий ᠬᠡᠨᠲᠡᠢ, Монгол улс ᠮᠤᠩᠭᠤᠯ ᠤᠯᠤᠰ","address":{"county":"Дархан ᠳᠠᠷᠬᠠᠨ","state":"Хэнтий ᠬᠡᠨᠲᠡᠢ","ISO3166-2-lvl4":"MN-039","country":"Монгол улс ᠮᠤᠩᠭᠤᠯ ᠤᠯᠤᠰ","country_code":"mn"},"osm_type":"relation","osm_id":7304538,"type":"administrative","location":[109.5179848535615,46.5848185],"bbox":[108.9510869,46.141846,110.010788,47.0169148]}]}
{"name":"Дарьганга ᠳᠠᠷᠢᠭᠠᠩᠭ᠋᠎ᠠ","other_names":{"name:en":"Dariganga","name:mn":"Дарьганга","name:zh":"达里甘嘎县","name:mn-Cyrl":"Дарьганга","name:mn-Mong":"ᠳᠠᠷᠢᠭᠠᠩᠭ᠋᠎ᠠ"},"display_name":"Дарьганга ᠳᠠᠷᠢᠭᠠᠩᠭ᠋᠎ᠠ, Сүхбаатар ᠰᠦᠬᠡᠪᠠᠭᠠᠲᠤᠷ, Монгол улс ᠮᠤᠩᠭᠤᠯ ᠤᠯᠤᠰ","address":{"village":"Дарьганга ᠳᠠᠷᠢᠭᠠᠩᠭ᠋᠎ᠠ","county":"Дарьганга ᠳᠠᠷᠢᠭᠠᠩᠭ᠋᠎ᠠ","state":"Сүхбаатар ᠰᠦᠬᠡᠪᠠᠭᠠᠲᠤᠷ","ISO3166-2-lvl4":"MN-051","country":"Монгол улс ᠮᠤᠩᠭᠤᠯ ᠤᠯᠤᠰ","country_code":"mn"},"population":2856,"osm_type":"node","osm_id":3774871368,"type":"village","location":[113.8522413,45.3029606],"bbox":[113.8322413,45.2829606,113.8722413,45.3229606],"border":{"name":"Дарьганга ᠳᠠᠷᠢᠭᠠᠩᠭ᠋᠎ᠠ","other_names":{"name:de":"Dariganga","name:en":"Dariganga","name:mn":"Дарьганга","name:mn-Cyrl":"Дарьганга","name:mn-Mong":"ᠳᠠᠷᠢᠭᠠᠩᠭ᠋᠎ᠠ"},"display_name":"Дарьганга ᠳᠠᠷᠢᠭᠠᠩᠭ᠋᠎ᠠ, Сүхбаатар ᠰᠦᠬᠡᠪᠠᠭᠠᠲᠤᠷ, Монгол улс ᠮᠤᠩᠭᠤᠯ ᠤᠯᠤᠰ","address":{"county":"Дарьганга ᠳᠠᠷᠢᠭᠠᠩᠭ᠋᠎ᠠ","state":"Сүхбаатар ᠰᠦᠬᠡᠪᠠᠭᠠᠲᠤᠷ","ISO3166-2-lvl4":"MN-051","country":"Монгол улс ᠮᠤᠩᠭᠤᠯ ᠤᠯᠤᠰ","country_code":"mn"},"osm_type":"relation","osm_id":7304589,"type":"administrative","location":[114.18178833313999,45.44420495],"bbox":[113.4683075,45.0225296,114.7372006,45.8705471]}}
{"display_name":"Джалгаз-Толгой, Улаанхус ᠤᠯᠠᠭᠠᠩᠬᠤᠰᠤ, Баян-Өлгий ᠪᠠᠶ᠋ᠠᠨ ᠥᠯᠦᠭᠡᠢ, Монгол улс ᠮᠤᠩᠭᠤᠯ ᠤᠯᠤᠰ","address":{"village":"Джалгаз-Толгой","county":"Улаанхус ᠤᠯᠠᠭᠠᠩᠬᠤᠰᠤ","state":"Баян-Өлгий ᠪᠠᠶ᠋ᠠᠨ ᠥᠯᠦᠭᠡᠢ","ISO3166-2-lvl4":"MN-071","country":"Монгол улс ᠮᠤᠩᠭᠤᠯ ᠤᠯᠤᠰ","country_code":"mn"},"osm_type":"node","osm_id":1202005752,"type":"village","location":[88.9078434,49.2563424],"bbox":[88.8878434,49.2363424,88.9278434,49.2763424]}
{"name":"Дулаанхаан","other_names":{"name:en":"Dulaankhaan","name:mn":"Дулаанхаан"},"display_name":"Дулаанхаан, Шаамар ᠱᠠᠮᠠᠷ, Сэлэнгэ ᠰᠡᠯᠡᠩᠭᠡ, Монгол улс ᠮᠤᠩᠭᠤᠯ ᠤᠯᠤᠰ","address":{"village":"Дулаанхаан","county":"Шаамар ᠱᠠᠮᠠᠷ","state":"Сэлэнгэ ᠰᠡᠯᠡᠩᠭᠡ","ISO3166-2-lvl4":"MN-049","country":"Монгол улс ᠮᠤᠩᠭᠤᠯ ᠤᠯᠤᠰ","country_code":"mn"},"osm_type":"node","osm_id":441521759,"type":"village","location":[106.1988803,49.9150938],"bbox":[106.1788803,49.8950938,106.2188803,49.9350938]}
{"name":"Дэлгэрцогт ᠳᠡᠯᠭᠡᠷᠴᠣᠭᠲᠤ","other_names":{"name:en":"Delgertsogt","name:mn":"Дэлгэрцогт","name:zh":"德勒盖尔楚格图县","name:mn-Cyrl":"Дэлгэрцогт","name:mn-Mong":"ᠳᠡᠯᠭᠡᠷᠴᠣᠭᠲᠤ"},"display_name":"Дэлгэрцогт ᠳᠡᠯᠭᠡᠷᠴᠣᠭᠲᠤ, Дундговь ᠳᠤᠮᠳᠠᠭᠣᠪᠢ, Монгол улс ᠮᠤᠩᠭᠤᠯ ᠤᠯᠤᠰ","address":{"village":"Дэлгэрцогт ᠳᠡᠯᠭᠡᠷᠴᠣᠭᠲᠤ","county":"Дэлгэрцогт ᠳᠡᠯᠭᠡᠷᠴᠣᠭᠲᠤ","state":"Дундговь ᠳᠤᠮᠳᠠᠭᠣᠪᠢ","ISO3166-2-lvl4":"MN-059","country":"Монгол улс ᠮᠤᠩᠭᠤᠯ ᠤᠯᠤᠰ","country_code":"mn"},"osm_type":"node","osm_id":722502356,"type":"village","location":[106.3709432,46.125084],"bbox":[106.3509432,46.105084,106.3909432,46.145084],"border":[{"name":"Дэлгэрцогт","other_names":{"name:en":"Delgertsogt","name:mn":"Дэлгэрцогт","name:zh":"德勒格尔楚格图县"},"display_name":"Дэлгэрцогт, Дэлгэрцогт ᠳᠡᠯᠭᠡᠷᠴᠣᠭᠲᠤ, Дундговь ᠳᠤᠮᠳᠠᠭᠣᠪᠢ, Монгол улс ᠮᠤᠩᠭᠤᠯ ᠤᠯᠤᠰ","address":{"village":"Дэлгэрцогт","county":"Дэлгэрцогт ᠳᠡᠯᠭᠡᠷᠴᠣᠭᠲᠤ","state":"Дундговь ᠳᠤᠮᠳᠠᠭᠣᠪᠢ","ISO3166-2-lvl4":"MN-059","country":"Монгол улс ᠮᠤᠩᠭᠤᠯ ᠤᠯᠤᠰ","country_code":"mn"},"osm_type":"way","osm_id":303145985,"type":"village","location":[106.37148636184926,46.1252959],"bbox":[106.3616938,46.1197573,106.3898676,46.1309676]},{"name":"Дэлгэрцогт ᠳᠡᠯᠭᠡᠷᠴᠣᠭᠲᠤ","other_names":{"name:de":"Delgertsogt","name:en":"Delgertsogt","name:mn":"Дэлгэрцогт","name:mn-Cyrl":"Дэлгэрцогт","name:mn-Mong":"ᠳᠡᠯᠭᠡᠷᠴᠣᠭᠲᠤ"},"display_name":"Дэлгэрцогт ᠳᠡᠯᠭᠡᠷᠴᠣᠭᠲᠤ, Дундговь ᠳᠤᠮᠳᠠᠭᠣᠪᠢ, Монгол улс ᠮᠤᠩᠭᠤᠯ ᠤᠯᠤᠰ","address":{"county":"Дэлгэрцогт ᠳᠡᠯᠭᠡᠷᠴᠣᠭᠲᠤ","state":"Дундговь ᠳᠤᠮᠳᠠᠭᠣᠪᠢ","ISO3166-2-lvl4":"MN-059","country":"Монгол улс ᠮᠤᠩᠭᠤᠯ ᠤᠯᠤᠰ","country_code":"mn"},"osm_type":"relation","osm_id":7297804,"type":"administrative","location":[106.23565949728282,46.24238175],"bbox":[105.9226101,45.9101682,106.5653444,46.574631]}]}
{"display_name":"Дэлүүн ᠳᠡᠯᠢᠭᠦᠨ, Баян-Өлгий ᠪᠠᠶ᠋ᠠᠨ ᠥᠯᠦᠭᠡᠢ, Монгол улс ᠮᠤᠩᠭᠤᠯ ᠤᠯᠤᠰ","address":{"county":"Дэлүүн ᠳᠡᠯᠢᠭᠦᠨ","state":"Баян-Өлгий ᠪᠠᠶ᠋ᠠᠨ ᠥᠯᠦᠭᠡᠢ","ISO3166-2-lvl4":"MN-071","country":"Монгол улс ᠮᠤᠩᠭᠤᠯ ᠤᠯᠤᠰ","country_code":"mn"},"osm_type":"node","osm_id":3774795917,"type":"village","location":[90.680949,47.65013],"bbox":[90.660949,47.63013,90.700949,47.67013]}
{"display_name":"Жаргалант ᠵᠢᠷᠭᠠᠯᠠᠩᠲᠤ, Төв ᠲᠥᠪ, Монгол улс ᠮᠤᠩᠭᠤᠯ ᠤᠯᠤᠰ","address":{"town":"Жаргалант ᠵᠢᠷᠭᠠᠯᠠᠩᠲᠤ","state":"Төв ᠲᠥᠪ","ISO3166-2-lvl4":"MN-047","country":"Монгол улс ᠮᠤᠩᠭᠤᠯ ᠤᠯᠤᠰ","country_code":"mn"},"osm_type":"node","osm_id":4773063272,"type":"village","location":[105.9500838,48.595556],"bbox":[105.9300838,48.575556,105.9700838,48.615556]}
{"display_name":"Жаргалант ᠵᠢᠷᠭᠠᠯᠠᠩᠲᠤ, Төв ᠲᠥᠪ, Монгол улс ᠮᠤᠩᠭᠤᠯ ᠤᠯᠤᠰ","address":{"town":"Жаргалант ᠵᠢᠷᠭᠠᠯᠠᠩᠲᠤ","state":"Төв ᠲᠥᠪ","ISO3166-2-lvl4":"MN-047","country":"Монгол улс ᠮᠤᠩᠭᠤᠯ ᠤᠯᠤᠰ","country_code":"mn"},"osm_type":"node","osm_id":4774635506,"type":"village","location":[105.7942584,48.6912339],"bbox":[105.7742584,48.6712339,105.8142584,48.7112339]}
{"name":"Жигжидийн зуслан ᠵᠢᠭᠵᠢᠳ ᠦᠨ ᠵᠤᠰᠠᠯᠠᠩ","other_names":{"name:mn":"Жигжидийн зуслан","name:mn-Mong":"ᠵᠢᠭᠵᠢᠳ ᠦᠨ ᠵᠤᠰᠠᠯᠠᠩ"},"display_name":"Жигжидийн зуслан ᠵᠢᠭᠵᠢᠳ ᠦᠨ ᠵᠤᠰᠠᠯᠠᠩ, Улаанбаатар ᠤᠯᠠᠭᠠᠨᠪᠠᠭᠠᠲᠤᠷ, Монгол улс ᠮᠤᠩᠭᠤᠯ ᠤᠯᠤᠰ","address":{"village":"Жигжидийн зуслан ᠵᠢᠭᠵᠢᠳ ᠦᠨ ᠵᠤᠰᠠᠯᠠᠩ","city":"Улаанбаатар ᠤᠯᠠᠭᠠᠨᠪᠠᠭᠠᠲᠤᠷ","ISO3166-2-lvl4":"MN-1","country":"Монгол улс ᠮᠤᠩᠭᠤᠯ ᠤᠯᠤᠰ","country_code":"mn"},"osm_type":"node","osm_id":9314838236,"type":"village","location":[106.8965943,48.0512967],"bbox":[106.8765943,48.0312967,106.9165943,48.0712967]}
{"name":"Заамар","other_names":{"name:en":"Zaamar","name:mn":"Заамар","name:zh":"扎马尔县","alt_name":"Zaamar"},"display_name":"Заамар, Заамар ᠵᠠᠭᠠᠮᠠᠷ, Төв ᠲᠥᠪ, Монгол улс ᠮᠤᠩᠭᠤᠯ ᠤᠯᠤᠰ","address":{"village":"Заамар","county":"Заамар ᠵᠠᠭᠠᠮᠠᠷ","state":"Төв ᠲᠥᠪ","ISO3166-2-lvl4":"MN-047","country":"Монгол улс ᠮᠤᠩᠭᠤᠯ ᠤᠯᠤᠰ","country_code":"mn"},"osm_type":"way","osm_id":50207435,"type":"village","location":[104.77315229292363,48.2154982],"bbox":[104.7599579,48.207711,104.7866908,48.2235682]}
{"name":"Луус ᠯᠤᠤᠰ","other_names":{"name:en":"Luus","name:mn":"Луус","name:zh":"卢斯县","alt_name":"Луус","name:mn-Cyrl":"Луус","name:mn-Mong":"ᠯᠤᠤᠰ"},"display_name":"Луус ᠯᠤᠤᠰ, Дундговь ᠳᠤᠮᠳᠠᠭᠣᠪᠢ, Монгол улс ᠮᠤᠩᠭᠤᠯ ᠤᠯᠤᠰ","address":{"village":"Луус ᠯᠤᠤᠰ","county":"Луус ᠯᠤᠤᠰ","state":"Дундговь ᠳᠤᠮᠳᠠᠭᠣᠪᠢ","ISO3166-2-lvl4":"MN-059","country":"Монгол улс ᠮᠤᠩᠭᠤᠯ ᠤᠯᠤᠰ","country_code":"mn"},"osm_type":"node","osm_id":3774871382,"type":"village","location":[105.7577451,45.5085387],"bbox":[105.7377451,45.4885387,105.7777451,45.5285387],"border":{"name":"Луус ᠯᠤᠤᠰ","other_names":{"name:de":"Luus","name:en":"Luus","name:mn":"Луус","name:mn-Cyrl":"Луус","name:mn-Mong":"ᠯᠤᠤᠰ"},"display_name":"Луус ᠯᠤᠤᠰ, Дундговь ᠳᠤᠮᠳᠠᠭᠣᠪᠢ, Монгол улс ᠮᠤᠩᠭᠤᠯ ᠤᠯᠤᠰ","address":{"county":"Луус ᠯᠤᠤᠰ","state":"Дундговь ᠳᠤᠮᠳᠠᠭᠣᠪᠢ","ISO3166-2-lvl4":"MN-059","country":"Монгол улс ᠮᠤᠩᠭᠤᠯ ᠤᠯᠤᠰ","country_code":"mn"},"osm_type":"relation","osm_id":7297806,"type":"administrative","location":[105.79982496007182,45.52651375000001],"bbox":[105.3990168,45.2021786,106.1938126,45.963589]}}
{"name":"Мөрөн","other_names":{"name:en":"Murun","name:mn":"Мөрөн","name:ru":"Мурэн","name:zh":"木伦县"},"display_name":"Мөрөн, Мөрөн ᠮᠥᠷᠡᠨ, Хэнтий ᠬᠡᠨᠲᠡᠢ, Монгол улс ᠮᠤᠩᠭᠤᠯ ᠤᠯᠤᠰ","address":{"village":"Мөрөн","county":"Мөрөн ᠮᠥᠷᠡᠨ","state":"Хэнтий ᠬᠡᠨᠲᠡᠢ","ISO3166-2-lvl4":"MN-039","country":"Монгол улс ᠮᠤᠩᠭᠤᠯ ᠤᠯᠤᠰ","country_code":"mn"},"osm_type":"way","osm_id":225084629,"type":"village","location":[110.31741879922413,47.382929649999994],"bbox":[110.3070029,47.3785125,110.3245038,47.3884813]}
{"name":"Мөрөн","other_names":{"name:en":"Mörön","name:mn":"Мөрөн","name:ru":"Мурун"},"display_name":"Мөрөн, Тариат ᠲᠠᠷᠢᠶ᠋ᠠᠲᠤ, Архангай ᠠᠷᠤᠬᠠᠩᠭ᠋ᠠᠢ, Монгол улс ᠮᠤᠩᠭᠤᠯ ᠤᠯᠤᠰ","address":{"village":"Мөрөн","town":"Тариат ᠲᠠᠷᠢᠶ᠋ᠠᠲᠤ","state":"Архангай ᠠᠷᠤᠬᠠᠩᠭ᠋ᠠᠢ","ISO3166-2-lvl4":"MN-073","country":"Монгол улс ᠮᠤᠩᠭᠤᠯ ᠤᠯᠤᠰ","country_code":"mn"},"osm_type":"node","osm_id":4020664257,"type":"village","location":[100.3779531,48.2613528],"bbox":[100.3579531,48.2413528,100.3979531,48.2813528]}
{"name":"Наран ᠨᠠᠷᠠᠨ","other_names":{"name:en":"Naran","name:mn":"Наран","name:zh":"纳兰县","alt_name":"Наран","name:mn-Cyrl":"Наран","name:mn-Mong":"ᠨᠠᠷᠠᠨ"},"display_name":"Наран ᠨᠠᠷᠠᠨ, Сүхбаатар ᠰᠦᠬᠡᠪᠠᠭᠠᠲᠤᠷ, Монгол улс ᠮᠤᠩᠭᠤᠯ ᠤᠯᠤᠰ","address":{"village":"Наран ᠨᠠᠷᠠᠨ","county":"Наран ᠨᠠᠷᠠᠨ","state":"Сүхбаатар ᠰᠦᠬᠡᠪᠠᠭᠠᠲᠤᠷ","ISO3166-2-lvl4":"MN-051","country":"Монгол улс ᠮᠤᠩᠭᠤᠯ ᠤᠯᠤᠰ","country_code":"mn"},"population":1550,"osm_type":"node","osm_id":3774871383,"type":"village","location":[113.6779835,45.1309005],"bbox":[113.6579835,45.1109005,113.6979835,45.1509005],"border":{"name":"Наран ᠨᠠᠷᠠᠨ","other_names":{"name:de":"Naran","name:en":"Naran","name:mn":"Наран","name:mn-Cyrl":"Наран","name:mn-Mong":"ᠨᠠᠷᠠᠨ"},"display_name":"Наран ᠨᠠᠷᠠᠨ, Сүхбаатар ᠰᠦᠬᠡᠪᠠᠭᠠᠲᠤᠷ, Монгол улс ᠮᠤᠩᠭᠤᠯ ᠤᠯᠤᠰ","address":{"county":"Наран ᠨᠠᠷᠠᠨ","state":"Сүхбаатар ᠰᠦᠬᠡᠪᠠᠭᠠᠲᠤᠷ","ISO3166-2-lvl4":"MN-051","country":"Монгол улс ᠮᠤᠩᠭᠤᠯ ᠤᠯᠤᠰ","country_code":"mn"},"osm_type":"relation","osm_id":7304585,"type":"administrative","location":[113.62738501434151,45.1387325],"bbox":[113.1142731,44.742385,114.1710434,45.4988897]}}
{"name":"Ойгур","other_names":{"name:en":"Oygur","name:mn":"Ойгур /Согог/"},"display_name":"Ойгур, Улаанхус ᠤᠯᠠᠭᠠᠩᠬᠤᠰᠤ, Баян-Өлгий ᠪᠠᠶ᠋ᠠᠨ ᠥᠯᠦᠭᠡᠢ, Монгол улс ᠮᠤᠩᠭᠤᠯ ᠤᠯᠤᠰ","address":{"village":"Ойгур","county":"Улаанхус ᠤᠯᠠᠭᠠᠩᠬᠤᠰᠤ","state":"Баян-Өлгий ᠪᠠᠶ᠋ᠠᠨ ᠥᠯᠦᠭᠡᠢ","ISO3166-2-lvl4":"MN-071","country":"Монгол улс ᠮᠤᠩᠭᠤᠯ ᠤᠯᠤᠰ","country_code":"mn"},"osm_type":"node","osm_id":512551242,"type":"village","location":[89.3050547,49.1663647],"bbox":[89.2850547,49.1463647,89.3250547,49.1863647]}
{"name":"Олон-овоо ᠣᠯᠠᠨ ᠣᠪᠣᠭ᠎ᠠ","other_names":{"name:en":"Olon-ovoo","name:mn":"Олон-овоо","name:mn-Mong":"ᠣᠯᠠᠨ ᠣᠪᠣᠭ᠎ᠠ"},"display_name":"Олон-овоо ᠣᠯᠠᠨ ᠣᠪᠣᠭ᠎ᠠ, Даланжаргалан ᠳᠠᠯᠠᠨᠵᠢᠷᠭᠠᠯᠠᠩ, Дорноговь ᠳᠣᠷᠤᠨᠠᠭᠣᠪᠢ, Монгол улс ᠮᠤᠩᠭᠤᠯ ᠤᠯᠤᠰ","address":{"village":"Олон-овоо ᠣᠯᠠᠨ ᠣᠪᠣᠭ᠎ᠠ","county":"Даланжаргалан ᠳᠠᠯᠠᠨᠵᠢᠷᠭᠠᠯᠠᠩ","state":"Дорноговь ᠳᠣᠷᠤᠨᠠᠭᠣᠪᠢ","ISO3166-2-lvl4":"MN-063","country":"Монгол улс ᠮᠤᠩᠭᠤᠯ ᠤᠯᠤᠰ","country_code":"mn"},"osm_type":"node","osm_id":11009071272,"type":"village","location":[108.951248,45.9561895],"bbox":[108.931248,45.9361895,108.971248,45.9761895]}
{"name":"Онгон ᠣᠩᠭᠣᠨ","other_names":{"name:en":"Ongon","name:mn":"Онгон","name:zh":"翁贡县","name:mn-Cyrl":"Онгон","name:mn-Mong":"ᠣᠩᠭᠣᠨ"},"display_name":"Онгон ᠣᠩᠭᠣᠨ, Онгон, Сүхбаатар ᠰᠦᠬᠡᠪᠠᠭᠠᠲᠤᠷ, Монгол улс ᠮᠤᠩᠭᠤᠯ ᠤᠯᠤᠰ","address":{"village":"Онгон ᠣᠩᠭᠣᠨ","county":"Онгон","state":"Сүхбаатар ᠰᠦᠬᠡᠪᠠᠭᠠᠲᠤᠷ","ISO3166-2-lvl4":"MN-051","country":"Монгол улс ᠮᠤᠩᠭᠤᠯ ᠤᠯᠤᠰ","country_code":"mn"},"population":3655,"osm_type":"node","osm_id":9690764902,"type":"village","location":[113.1345183,45.3539369],"bbox":[113.1145183,45.3339369,113.1545183,45.3739369]}
{"display_name":"Онгон, Сүхбаатар ᠰᠦᠬᠡᠪᠠᠭᠠᠲᠤᠷ, Монгол улс ᠮᠤᠩᠭᠤᠯ ᠤᠯᠤᠰ","address":{"county":"Онгон","state":"Сүхбаатар ᠰᠦᠬᠡᠪᠠᠭᠠᠲᠤᠷ","ISO3166-2-lvl4":"MN-051","country":"Монгол улс ᠮᠤᠩᠭᠤᠯ ᠤᠯᠤᠰ","country_code":"mn"},"osm_type":"node","osm_id":1986311058,"type":"village","location":[113.1582808,45.3603195],"bbox":[113.1382808,45.3403195,113.1782808,45.3803195]}
{"display_name":"Орхон ᠣᠷᠬᠤᠨ, Дархан-Уул ᠳᠠᠷᠬᠠᠨ ᠠᠭᠤᠯᠠ, Монгол улс ᠮᠤᠩᠭᠤᠯ ᠤᠯᠤᠰ","address":{"county":"Орхон ᠣᠷᠬᠤᠨ","state":"Дархан-Уул ᠳᠠᠷᠬᠠᠨ ᠠᠭᠤᠯᠠ","ISO3166-2-lvl4":"MN-037","country":"Монгол улс ᠮᠤᠩᠭᠤᠯ ᠤᠯᠤᠰ","country_code":"mn"},"osm_type":"node","osm_id":2309095265,"type":"village","location":[105.8858481,49.6342005],"bbox":[105.8658481,49.6142005,105.9058481,49.6542005]}
{"display_name":"Орхонтуул ᠣᠷᠬᠤᠨᠲᠤᠤᠯᠠ, Сэлэнгэ ᠰᠡᠯᠡᠩᠭᠡ, Монгол улс ᠮᠤᠩᠭᠤᠯ ᠤᠯᠤᠰ","address":{"county":"Орхонтуул ᠣᠷᠬᠤᠨᠲᠤᠤᠯᠠ","state":"Сэлэнгэ ᠰᠡᠯᠡᠩᠭᠡ","ISO3166-2-lvl4":"MN-049","country":"Монгол улс ᠮᠤᠩᠭᠤᠯ ᠤᠯᠤᠰ","country_code":"mn"},"osm_type":"node","osm_id":2314390044,"type":"village","location":[104.7955929,48.95887],"bbox":[104.7755929,48.93887,104.8155929,48.97887]}
{"name":"Оюутолгой","other_names":{"name:en":"Oyu Tolgoi","name:mn":"Оюутолгой","name:zh":"奥尤陶勒盖"},"display_name":"Оюутолгой, Ханбогд ᠬᠠᠨᠪᠣᠭᠳᠤ, Өмнөговь ᠡᠮᠦᠨᠡᠭᠣᠪᠢ, Монгол улс ᠮᠤᠩᠭᠤᠯ ᠤᠯᠤᠰ","address":{"village":"Оюутолгой","county":"Ханбогд ᠬᠠᠨᠪᠣᠭᠳᠤ","state":"Өмнөговь ᠡᠮᠦᠨᠡᠭᠣᠪᠢ","ISO3166-2-lvl4":"MN-053","country":"Монгол улс ᠮᠤᠩᠭᠤᠯ ᠤᠯᠤᠰ","country_code":"mn"},"osm_type":"node","osm_id":2166643412,"type":"village","location":[106.8379821,43.0025732],"bbox":[106.8179821,42.9825732,106.8579821,43.0225732]}
{"name":"Өвөр гүнтийн зуслан ᠥᠪᠥᠷ ᠭᠦᠩᠲᠦ ᠶᠢᠨ ᠵᠤᠰᠠᠯᠠᠩ","other_names":{"name:mn":"Өвөр гүнтийн зуслан","name:mn-Mong":"ᠥᠪᠥᠷ ᠭᠦᠩᠲᠦ ᠶᠢᠨ ᠵᠤᠰᠠᠯᠠᠩ"},"display_name":"Өвөр гүнтийн зуслан ᠥᠪᠥᠷ ᠭᠦᠩᠲᠦ ᠶᠢᠨ ᠵᠤᠰᠠᠯᠠᠩ, Улаанбаатар ᠤᠯᠠᠭᠠᠨᠪᠠᠭᠠᠲᠤᠷ, Монгол улс ᠮᠤᠩᠭᠤᠯ ᠤᠯᠤᠰ","address":{"village":"Өвөр гүнтийн зуслан ᠥᠪᠥᠷ ᠭᠦᠩᠲᠦ ᠶᠢᠨ ᠵᠤᠰᠠᠯᠠᠩ","city":"Улаанбаатар ᠤᠯᠠᠭᠠᠨᠪᠠᠭᠠᠲᠤᠷ","ISO3166-2-lvl4":"MN-1","country":"Монгол улс ᠮᠤᠩᠭᠤᠯ ᠤᠯᠤᠰ","country_code":"mn"},"osm_type":"node","osm_id":9314838237,"type":"village","location":[106.8901892,48.0617777],"bbox":[106.8701892,48.0417777,106.9101892,48.0817777]}
{"name":"Өлзийт Хороо ᠥᠯᠵᠡᠶᠢᠲᠦ ᠬᠣᠷᠢᠶ᠎ᠠ","other_names":{"name:mn":"Өлзийт Хороо","name:ru":"Улзийт Хороо","name:mn-Mong":"ᠥᠯᠵᠡᠶᠢᠲᠦ ᠬᠣᠷᠢᠶ᠎ᠠ"},"display_name":"Өлзийт Хороо ᠥᠯᠵᠡᠶᠢᠲᠦ ᠬᠣᠷᠢᠶ᠎ᠠ, Улаанбаатар ᠤᠯᠠᠭᠠᠨᠪᠠᠭᠠᠲᠤᠷ, 14266, Монгол улс ᠮᠤᠩᠭᠤᠯ ᠤᠯᠤᠰ","address":{"village":"Өлзийт Хороо ᠥᠯᠵᠡᠶᠢᠲᠦ ᠬᠣᠷᠢᠶ᠎ᠠ","city":"Улаанбаатар ᠤᠯᠠᠭᠠᠨᠪᠠᠭᠠᠲᠤᠷ","ISO3166-2-lvl4":"MN-1","postcode":"14266","country":"Монгол улс ᠮᠤᠩᠭᠤᠯ ᠤᠯᠤᠰ","country_code":"mn"},"osm_type":"node","osm_id":2518248054,"type":"village","location":[106.7099257,47.7856601],"bbox":[106.6899257,47.7656601,106.7299257,47.8056601]}
{"name":"Өлзийт ᠥᠯᠵᠡᠶᠢᠲᠦ","other_names":{"name:en":"Ölziit","name:mn":"Өлзийт","name:ru":"Улзийт","name:zh":"沃勒吉特县","name:mn-Cyrl":"Өлзийт","name:mn-Mong":"ᠥᠯᠵᠡᠶᠢᠲᠦ"},"display_name":"Өлзийт ᠥᠯᠵᠡᠶᠢᠲᠦ, Баянхонгор ᠪᠠᠶᠠᠨᠬᠣᠩᠭᠣᠷ, Монгол улс ᠮᠤᠩᠭᠤᠯ ᠤᠯᠤᠰ","address":{"village":"Өлзийт ᠥᠯᠵᠡᠶᠢᠲᠦ","county":"Өлзийт ᠥᠯᠵᠡᠶᠢᠲᠦ","state":"Баянхонгор ᠪᠠᠶᠠᠨᠬᠣᠩᠭᠣᠷ","ISO3166-2-lvl4":"MN-069","country":"Монгол улс ᠮᠤᠩᠭᠤᠯ ᠤᠯᠤᠰ","country_code":"mn"},"osm_type":"node","osm_id":508464491,"type":"village","location":[100.8164349,46.0674235],"bbox":[100.7964349,46.0474235,100.8364349,46.0874235],"border":[{"name":"Өлзийт","other_names":{"name:en":"Ölziit","name:mn":"Өлзийт","name:zh":"沃勒吉特"},"display_name":"Өлзийт, Өлзийт ᠥᠯᠵᠡᠶᠢᠲᠦ, Баянхонгор ᠪᠠᠶᠠᠨᠬᠣᠩᠭᠣᠷ, Монгол улс ᠮᠤᠩᠭᠤᠯ ᠤᠯᠤᠰ","address":{"village":"Өлзийт","county":"Өлзийт ᠥᠯᠵᠡᠶᠢᠲᠦ","state":"Баянхонгор ᠪᠠᠶᠠᠨᠬᠣᠩᠭᠣᠷ","ISO3166-2-lvl4":"MN-069","country":"Монгол улс ᠮᠤᠩᠭᠤᠯ ᠤᠯᠤᠰ","country_code":"mn"},"osm_type":"way","osm_id":41522573,"type":"village","location":[100.81708581281494,46.0686313],"bbox":[100.8124906,46.0645677,100.8239404,46.0726512]},{"name":"Өлзийт ᠥᠯᠵᠡᠶᠢᠲᠦ","other_names":{"name:de":"Ölziit","name:en":"Ölziit","name:mn":"Өлзийт","name:ru":"Улзийт","name:mn-Cyrl":"Өлзийт","name:mn-Mong":"ᠥᠯᠵᠡᠶᠢᠲᠦ"},"display_name":"Өлзийт ᠥᠯᠵᠡᠶᠢᠲᠦ, Баянхонгор ᠪᠠᠶᠠᠨᠬᠣᠩᠭᠣᠷ, Монгол улс ᠮᠤᠩᠭᠤᠯ ᠤᠯᠤᠰ","address":{"county":"Өлзийт ᠥᠯᠵᠡᠶᠢᠲᠦ","state":"Баянхонгор ᠪᠠᠶᠠᠨᠬᠣᠩᠭᠣᠷ","ISO3166-2-lvl4":"MN-069","country":"Монгол улс ᠮᠤᠩᠭᠤᠯ ᠤᠯᠤᠰ","country_code":"mn"},"osm_type":"relation","osm_id":7304744,"type":"administrative","location":[100.90795916456739,45.95281005],"bbox":[100.4293169,45.5822075,101.497261,46.381442]}]}
{"name":"Сайхан-Овоо ᠰᠠᠶᠢᠬᠠᠨ ᠣᠪᠤᠭ᠎ᠠ","other_names":{"name:en":"Saikhan-Ovoo","name:mn":"Сайхан-Овоо","name:mn-Cyrl":"Сайхан-Овоо","name:mn-Mong":"ᠰᠠᠶᠢᠬᠠᠨ ᠣᠪᠤᠭ᠎ᠠ"},"display_name":"Сайхан-Овоо ᠰᠠᠶᠢᠬᠠᠨ ᠣᠪᠤᠭ᠎ᠠ, Сайхан ᠰᠠᠶᠢᠬᠠᠨ, Булган ᠪᠤᠯᠠᠭᠠᠨ, Монгол улс ᠮᠤᠩᠭᠤᠯ ᠤᠯᠤᠰ","address":{"village":"Сайхан-Овоо ᠰᠠᠶᠢᠬᠠᠨ ᠣᠪᠤᠭ᠎ᠠ","county":"Сайхан ᠰᠠᠶᠢᠬᠠᠨ","state":"Булган ᠪᠤᠯᠠᠭᠠᠨ","ISO3166-2-lvl4":"MN-067","country":"Монгол улс ᠮᠤᠩᠭᠤᠯ ᠤᠯᠤᠰ","country_code":"mn"},"osm_type":"node","osm_id":11008084803,"type":"village","location":[102.3991053,48.8049901],"bbox":[102.3791053,48.7849901,102.4191053,48.8249901]}
{"name":"Салхит","other_names":{"name:en":"Salkhit","name:mn":"Салхит","int_name":"Salkhit"},"display_name":"Салхит, Хонгор ᠬᠣᠩᠭ᠋ᠤᠷ, Дархан-Уул ᠳᠠᠷᠬᠠᠨ ᠠᠭᠤᠯᠠ, Монгол улс ᠮᠤᠩᠭᠤᠯ ᠤᠯᠤᠰ","address":{"village":"Салхит","county":"Хонгор ᠬᠣᠩᠭ᠋ᠤᠷ","state":"Дархан-Уул ᠳᠠᠷᠬᠠᠨ ᠠᠭᠤᠯᠠ","ISO3166-2-lvl4":"MN-037","country":"Монгол улс ᠮᠤᠩᠭᠤᠯ ᠤᠯᠤᠰ","country_code":"mn"},"osm_type":"node","osm_id":297420848,"type":"village","location":[105.8775531,49.1946157],"bbox":[105.8575531,49.1746157,105.8975531,49.2146157]}
{"name":"Таван улиас","display_name":"Таван улиас, Тэс ᠲᠡᠰ, Увс ᠤᠪᠰᠤ, Монгол улс ᠮᠤᠩᠭᠤᠯ ᠤᠯᠤᠰ","address":{"village":"Таван улиас","county":"Тэс ᠲᠡᠰ","state":"Увс ᠤᠪᠰᠤ","ISO3166-2-lvl4":"MN-046","country":"Монгол улс ᠮᠤᠩᠭᠤᠯ ᠤᠯᠤᠰ","country_code":"mn"},"osm_type":"node","osm_id":2310324114,"type":"village","location":[94.050477,50.5237371],"bbox":[94.030477,50.5037371,94.070477,50.5437371]}
{"name":"Тарнийн амралт ᠲᠠᠷᠨᠢ ᠶᠢᠨ ᠠᠮᠠᠷᠠᠯᠲᠠ","other_names":{"name:en":"Tarniin amralt","name:mn":"Тарнийн амралт","alt_name":"Tarnijn amralt","name:mn-Mong":"ᠲᠠᠷᠨᠢ ᠶᠢᠨ ᠠᠮᠠᠷᠠᠯᠲᠠ"},"display_name":"Тарнийн амралт ᠲᠠᠷᠨᠢ ᠶᠢᠨ ᠠᠮᠠᠷᠠᠯᠲᠠ, Мандал, Сэлэнгэ ᠰᠡᠯᠡᠩᠭᠡ, Монгол улс ᠮᠤᠩᠭᠤᠯ ᠤᠯᠤᠰ","address":{"village":"Тарнийн амралт ᠲᠠᠷᠨᠢ ᠶᠢᠨ ᠠᠮᠠᠷᠠᠯᠲᠠ","county":"Мандал","state":"Сэлэнгэ ᠰᠡᠯᠡᠩᠭᠡ","ISO3166-2-lvl4":"MN-049","country":"Монгол улс ᠮᠤᠩᠭᠤᠯ ᠤᠯᠤᠰ","country_code":"mn"},"osm_type":"node","osm_id":3774871392,"type":"village","location":[106.7788511,48.8175496],"bbox":[106.7588511,48.7975496,106.7988511,48.8375496]}
{"name":"Түнхэл ᠲᠦᠩᠬᠦᠯ","other_names":{"name:en":"Tunkhel","name:mn":"Түнхэл","alt_name":"Түнхэл","name:mn-Mong":"ᠲᠦᠩᠬᠦᠯ"},"display_name":"Түнхэл ᠲᠦᠩᠬᠦᠯ, Мандал, Сэлэнгэ ᠰᠡᠯᠡᠩᠭᠡ, Монгол улс ᠮᠤᠩᠭᠤᠯ ᠤᠯᠤᠰ","address":{"village":"Түнхэл ᠲᠦᠩᠬᠦᠯ","county":"Мандал","state":"Сэлэнгэ ᠰᠡᠯᠡᠩᠭᠡ","ISO3166-2-lvl4":"MN-049","country":"Монгол улс ᠮᠤᠩᠭᠤᠯ ᠤᠯᠤᠰ","country_code":"mn"},"osm_type":"node","osm_id":3774871394,"type":"village","location":[106.7581839,48.6466453],"bbox":[106.7381839,48.6266453,106.7781839,48.6666453]}
{"name":"Тэрэлж ᠲᠡᠷᠡᠯᠵᠢ","other_names":{"name:en":"Terelj","name:mn":"Тэрэлж","name:mn-Mong":"ᠲᠡᠷᠡᠯᠵᠢ"},"display_name":"Тэрэлж ᠲᠡᠷᠡᠯᠵᠢ, Улаанбаатар ᠤᠯᠠᠭᠠᠨᠪᠠᠭᠠᠲᠤᠷ, Монгол улс ᠮᠤᠩᠭᠤᠯ ᠤᠯᠤᠰ","address":{"village":"Тэрэлж ᠲᠡᠷᠡᠯᠵᠢ","city":"Улаанбаатар ᠤᠯᠠᠭᠠᠨᠪᠠᠭᠠᠲᠤᠷ","ISO3166-2-lvl4":"MN-1","country":"Монгол улс ᠮᠤᠩᠭᠤᠯ ᠤᠯᠤᠰ","country_code":"mn"},"osm_type":"node","osm_id":528064318,"type":"village","location":[107.4553785,47.9922191],"bbox":[107.4353785,47.9722191,107.4753785,48.0122191]}
{"display_name":"Улаанбаатар ᠤᠯᠠᠭᠠᠨᠪᠠᠭᠠᠲᠤᠷ, Монгол улс ᠮᠤᠩᠭᠤᠯ ᠤᠯᠤᠰ","address":{"city":"Улаанбаатар ᠤᠯᠠᠭᠠᠨᠪᠠᠭᠠᠲᠤᠷ","ISO3166-2-lvl4":"MN-1","country":"Монгол улс ᠮᠤᠩᠭᠤᠯ ᠤᠯᠤᠰ","country_code":"mn"},"osm_type":"node","osm_id":3945866384,"type":"village","location":[106.8223339,48.0061316],"bbox":[106.8023339,47.9861316,106.8423339,48.0261316]}
{"display_name":"Улаанхус ᠤᠯᠠᠭᠠᠩᠬᠤᠰᠤ, Баян-Өлгий ᠪᠠᠶ᠋ᠠᠨ ᠥᠯᠦᠭᠡᠢ, Монгол улс ᠮᠤᠩᠭᠤᠯ ᠤᠯᠤᠰ","address":{"county":"Улаанхус ᠤᠯᠠᠭᠠᠩᠬᠤᠰᠤ","state":"Баян-Өлгий ᠪᠠᠶ᠋ᠠᠨ ᠥᠯᠦᠭᠡᠢ","ISO3166-2-lvl4":"MN-071","country":"Монгол улс ᠮᠤᠩᠭᠤᠯ ᠤᠯᠤᠰ","country_code":"mn"},"osm_type":"way","osm_id":435968541,"type":"village","location":[89.20621915410032,49.41575805],"bbox":[89.2052238,49.4151087,89.207772,49.4166099]}
{"name":"Улиастай ᠤᠯᠢᠶᠠᠰᠤᠲᠠᠢ","other_names":{"name:en":"Uliatsai","name:mn":"Улиастай","name:mn-Mong":"ᠤᠯᠢᠶᠠᠰᠤᠲᠠᠢ"},"display_name":"Улиастай ᠤᠯᠢᠶᠠᠰᠤᠲᠠᠢ, Улаанбаатар ᠤᠯᠠᠭᠠᠨᠪᠠᠭᠠᠲᠤᠷ, 13260, Монгол улс ᠮᠤᠩᠭᠤᠯ ᠤᠯᠤᠰ","address":{"village":"Улиастай ᠤᠯᠢᠶᠠᠰᠤᠲᠠᠢ","city":"Улаанбаатар ᠤᠯᠠᠭᠠᠨᠪᠠᠭᠠᠲᠤᠷ","ISO3166-2-lvl4":"MN-1","postcode":"13260","country":"Монгол улс ᠮᠤᠩᠭᠤᠯ ᠤᠯᠤᠰ","country_code":"mn"},"osm_type":"node","osm_id":11016639699,"type":"village","location":[107.0378328,47.9147328],"bbox":[107.0178328,47.8947328,107.0578328,47.9347328]}
{"display_name":"Уянга ᠤᠶ᠋ᠠᠩᠭ᠋᠎ᠠ, Өвөрхангай ᠥᠪᠦᠷᠬᠠᠩᠭ᠋ᠠᠢ, Монгол улс ᠮᠤᠩᠭᠤᠯ ᠤᠯᠤᠰ","address":{"county":"Уянга ᠤᠶ᠋ᠠᠩᠭ᠋᠎ᠠ","state":"Өвөрхангай ᠥᠪᠦᠷᠬᠠᠩᠭ᠋ᠠᠢ","ISO3166-2-lvl4":"MN-055","country":"Монгол улс ᠮᠤᠩᠭᠤᠯ ᠤᠯᠤᠰ","country_code":"mn"},"osm_type":"node","osm_id":5440409189,"type":"village","location":[101.7181313,46.2870543],"bbox":[101.6981313,46.2670543,101.7381313,46.3070543]}
{"name":"Хавирагийн боомт","other_names":{"name:en":"Khaviragiin boomt","name:mn":"Хавирагийн боомт","alt_name":"Haviragijn boomt"},"display_name":"Хавирагийн боомт, Чойбалсан ᠴᠣᠶᠢᠪᠯᠰᠠᠩ, Дорнод ᠳᠣᠷᠤᠨᠠᠳᠤ, Монгол улс ᠮᠤᠩᠭᠤᠯ ᠤᠯᠤᠰ","address":{"village":"Хавирагийн боомт","county":"Чойбалсан ᠴᠣᠶᠢᠪᠯᠰᠠᠩ","state":"Дорнод ᠳᠣᠷᠤᠨᠠᠳᠤ","ISO3166-2-lvl4":"MN-061","country":"Монгол улс ᠮᠤᠩᠭᠤᠯ ᠤᠯᠤᠰ","country_code":"mn"},"osm_type":"node","osm_id":3774795886,"type":"village","location":[115.8437732,48.5984206],"bbox":[115.8237732,48.5784206,115.8637732,48.6184206]}
{"name":"Халзан ᠬᠠᠯᠵᠠᠨ","other_names":{"name:en":"Khalzan","name:mn":"Халзан","alt_name":"Халзан","name:mn-Cyrl":"Халзан","name:mn-Mong":"ᠬᠠᠯᠵᠠᠨ"},"display_name":"Халзан ᠬᠠᠯᠵᠠᠨ, Сүхбаатар ᠰᠦᠬᠡᠪᠠᠭᠠᠲᠤᠷ, Монгол улс ᠮᠤᠩᠭᠤᠯ ᠤᠯᠤᠰ","address":{"village":"Халзан ᠬᠠᠯᠵᠠᠨ","county":"Халзан ᠬᠠᠯᠵᠠᠨ","state":"Сүхбаатар ᠰᠦᠬᠡᠪᠠᠭᠠᠲᠤᠷ","ISO3166-2-lvl4":"MN-051","country":"Монгол улс ᠮᠤᠩᠭᠤᠯ ᠤᠯᠤᠰ","country_code":"mn"},"population":1751,"osm_type":"node","osm_id":3774871380,"type":"village","location":[112.9516992,46.1677626],"bbox":[112.9316992,46.1477626,112.9716992,46.1877626],"border":{"name":"Халзан ᠬᠠᠯᠵᠠᠨ","other_names":{"name:de":"Khalzan","name:en":"Khalzan","name:mn":"Халзан","name:mn-Cyrl":"Халзан","name:mn-Mong":"ᠬᠠᠯᠵᠠᠨ"},"display_name":"Халзан ᠬᠠᠯᠵᠠᠨ, Сүхбаатар ᠰᠦᠬᠡᠪᠠᠭᠠᠲᠤᠷ, Монгол улс ᠮᠤᠩᠭᠤᠯ ᠤᠯᠤᠰ","address":{"county":"Халзан ᠬᠠᠯᠵᠠᠨ","state":"Сүхбаатар ᠰᠦᠬᠡᠪᠠᠭᠠᠲᠤᠷ","ISO3166-2-lvl4":"MN-051","country":"Монгол улс ᠮᠤᠩᠭᠤᠯ ᠤᠯᠤᠰ","country_code":"mn"},"osm_type":"relation","osm_id":7304587,"type":"administrative","location":[112.97469082008226,46.3321979],"bbox":[112.4043046,45.9716885,113.5211772,46.6404981]}}
{"display_name":"Халхгол ᠬᠠᠯᠬ᠎ᠠ ᠭᠣᠣᠯ, Дорнод ᠳᠣᠷᠤᠨᠠᠳᠤ, Монгол улс ᠮᠤᠩᠭᠤᠯ ᠤᠯᠤᠰ","address":{"county":"Халхгол ᠬᠠᠯᠬ᠎ᠠ ᠭᠣᠣᠯ","state":"Дорнод ᠳᠣᠷᠤᠨᠠᠳᠤ","ISO3166-2-lvl4":"MN-061","country":"Монгол улс ᠮᠤᠩᠭᠤᠯ ᠤᠯᠤᠰ","country_code":"mn"},"osm_type":"node","osm_id":4564653386,"type":"village","location":[119.1896458,47.0744419],"bbox":[119.1696458,47.0544419,119.2096458,47.0944419]}
{"display_name":"Халхгол ᠬᠠᠯᠬ᠎ᠠ ᠭᠣᠣᠯ, Дорнод ᠳᠣᠷᠤᠨᠠᠳᠤ, Монгол улс ᠮᠤᠩᠭᠤᠯ ᠤᠯᠤᠰ","address":{"county":"Халхгол ᠬᠠᠯᠬ᠎ᠠ ᠭᠣᠣᠯ","state":"Дорнод ᠳᠣᠷᠤᠨᠠᠳᠤ","ISO3166-2-lvl4":"MN-061","country":"Монгол улс ᠮᠤᠩᠭᠤᠯ ᠤᠯᠤᠰ","country_code":"mn"},"osm_type":"node","osm_id":4564653521,"type":"village","location":[119.2343421,47.4077982],"bbox":[119.2143421,47.3877982,119.2543421,47.4277982]}
{"name":"Хамрийн хийд ᠬᠠᠮᠠᠷ ᠤᠨ ᠬᠡᠶᠢᠳ","other_names":{"name:en":"Khamariin khiid","name:mn":"Хамрийн хийд","name:mn-Mong":"ᠬᠠᠮᠠᠷ ᠤᠨ ᠬᠡᠶᠢᠳ"},"display_name":"Хамрийн хийд ᠬᠠᠮᠠᠷ ᠤᠨ ᠬᠡᠶᠢᠳ, Эрдэнэ ᠡᠷᠳᠡᠨᠢ, Дорноговь ᠳᠣᠷᠤᠨᠠᠭᠣᠪᠢ, Монгол улс ᠮᠤᠩᠭᠤᠯ ᠤᠯᠤᠰ","address":{"village":"Хамрийн хийд ᠬᠠᠮᠠᠷ ᠤᠨ ᠬᠡᠶᠢᠳ","county":"Эрдэнэ ᠡᠷᠳᠡᠨᠢ","state":"Дорноговь ᠳᠣᠷᠤᠨᠠᠭᠣᠪᠢ","ISO3166-2-lvl4":"MN-063","country":"Монгол улс ᠮᠤᠩᠭᠤᠯ ᠤᠯᠤᠰ","country_code":"mn"},"osm_type":"node","osm_id":11009071271,"type":"village","location":[110.2736117,44.5960125],"bbox":[110.2536117,44.5760125,110.2936117,44.6160125]}
{"name":"Хангал ᠬᠠᠩᠭ᠋ᠠᠯ","other_names":{"name:en":"Khangal","name:mn":"Хангал","name:mn-Cyrl":"Хангал","name:mn-Mong":"ᠬᠠᠩᠭ᠋ᠠᠯ"},"display_name":"Хангал ᠬᠠᠩᠭ᠋ᠠᠯ, Булган ᠪᠤᠯᠠᠭᠠᠨ, Монгол улс ᠮᠤᠩᠭᠤᠯ ᠤᠯᠤᠰ","address":{"village":"Хангал ᠬᠠᠩᠭ᠋ᠠᠯ","county":"Хангал ᠬᠠᠩᠭ᠋ᠠᠯ","state":"Булган ᠪᠤᠯᠠᠭᠠᠨ","ISO3166-2-lvl4":"MN-067","country":"Монгол улс ᠮᠤᠩᠭᠤᠯ ᠤᠯᠤᠰ","country_code":"mn"},"osm_type":"node","osm_id":2377110983,"type":"village","location":[104.384173,49.3200197],"bbox":[104.364173,49.3000197,104.404173,49.3400197],"border":{"name":"Хангал ᠬᠠᠩᠭ᠋ᠠᠯ","other_names":{"name:de":"Khangal","name:en":"Khangal","name:mn":"Хангал","name:mn-Cyrl":"Хангал","name:mn-Mong":"ᠬᠠᠩᠭ᠋ᠠᠯ"},"display_name":"Хангал ᠬᠠᠩᠭ᠋ᠠᠯ, Булган ᠪᠤᠯᠠᠭᠠᠨ, Монгол улс ᠮᠤᠩᠭᠤᠯ ᠤᠯᠤᠰ","address":{"county":"Хангал ᠬᠠᠩᠭ᠋ᠠᠯ","state":"Булган ᠪᠤᠯᠠᠭᠠᠨ","ISO3166-2-lvl4":"MN-067","country":"Монгол улс ᠮᠤᠩᠭᠤᠯ ᠤᠯᠤᠰ","country_code":"mn"},"osm_type":"relation","osm_id":7302592,"type":"administrative","location":[104.41901357455407,49.3831025],"bbox":[104.0650014,49.0795808,104.73352,49.686095]}}
{"name":"Хантай 3-р багийн төв","display_name":"Хантай 3-р багийн төв, Хутаг-Өндөр ᠬᠤᠲᠤᠭ ᠥᠨᠳᠦᠷ, Булган ᠪᠤᠯᠠᠭᠠᠨ, Монгол улс ᠮᠤᠩᠭᠤᠯ ᠤᠯᠤᠰ","address":{"village":"Хантай 3-р багийн төв","county":"Хутаг-Өндөр ᠬᠤᠲᠤᠭ ᠥᠨᠳᠦᠷ","state":"Булган ᠪᠤᠯᠠᠭᠠᠨ","ISO3166-2-lvl4":"MN-067","country":"Монгол улс ᠮᠤᠩᠭᠤᠯ ᠤᠯᠤᠰ","country_code":"mn"},"osm_type":"node","osm_id":12281623897,"type":"village","location":[103.235405,49.5513458],"bbox":[103.215405,49.5313458,103.255405,49.5713458]}
{"name":"Харийн Көндэй ᠬᠠᠷᠢ ᠶᠢᠨ ᠺᠥᠨᠲᠡᠢ","other_names":{"name:en":"Khariin Köndei","name:mn":"Харийн Көндэй","name:mn-Mong":"ᠬᠠᠷᠢ ᠶᠢᠨ ᠺᠥᠨᠲᠡᠢ"},"display_name":"Харийн Көндэй ᠬᠠᠷᠢ ᠶᠢᠨ ᠺᠥᠨᠲᠡᠢ, Баянгол ᠪᠠᠶ᠋ᠠᠩᠭ᠋ᠣᠤᠯ, Сэлэнгэ ᠰᠡᠯᠡᠩᠭᠡ, Монгол улс ᠮᠤᠩᠭᠤᠯ ᠤᠯᠤᠰ","address":{"village":"Харийн Көндэй ᠬᠠᠷᠢ ᠶᠢᠨ ᠺᠥᠨᠲᠡᠢ","county":"Баянгол ᠪᠠᠶ᠋ᠠᠩᠭ᠋ᠣᠤᠯ","state":"Сэлэнгэ ᠰᠡᠯᠡᠩᠭᠡ","ISO3166-2-lvl4":"MN-049","country":"Монгол улс ᠮᠤᠩᠭᠤᠯ ᠤᠯᠤᠰ","country_code":"mn"},"osm_type":"node","osm_id":11014622381,"type":"village","location":[106.2245139,48.8906444],"bbox":[106.2045139,48.8706444,106.2445139,48.9106444]}
{"display_name":"Хатанбулаг ᠬᠠᠲᠠᠨᠪᠤᠯᠠᠭ, Дорноговь ᠳᠣᠷᠤᠨᠠᠭᠣᠪᠢ, Монгол улс ᠮᠤᠩᠭᠤᠯ ᠤᠯᠤᠰ","address":{"county":"Хатанбулаг ᠬᠠᠲᠠᠨᠪᠤᠯᠠᠭ","state":"Дорноговь ᠳᠣᠷᠤᠨᠠᠭᠣᠪᠢ","ISO3166-2-lvl4":"MN-063","country":"Монгол улс ᠮᠤᠩᠭᠤᠯ ᠤᠯᠤᠰ","country_code":"mn"},"osm_type":"node","osm_id":2629092665,"type":"village","location":[109.4416797,42.9563478],"bbox":[109.4216797,42.9363478,109.4616797,42.9763478]}
{"name":"Хонхор ᠬᠣᠩᠬᠣᠷ","other_names":{"name:en":"Khonkhor","name:mn":"Хонхор","name:mn-Mong":"ᠬᠣᠩᠬᠣᠷ"},"display_name":"Хонхор ᠬᠣᠩᠬᠣᠷ, Улаанбаатар ᠤᠯᠠᠭᠠᠨᠪᠠᠭᠠᠲᠤᠷ, Монгол улс ᠮᠤᠩᠭᠤᠯ ᠤᠯᠤᠰ","address":{"village":"Хонхор ᠬᠣᠩᠬᠣᠷ","city":"Улаанбаатар ᠤᠯᠠᠭᠠᠨᠪᠠᠭᠠᠲᠤᠷ","ISO3166-2-lvl4":"MN-1","country":"Монгол улс ᠮᠤᠩᠭᠤᠯ ᠤᠯᠤᠰ","country_code":"mn"},"osm_type":"node","osm_id":9299775487,"type":"village","location":[107.1669303,47.8140027],"bbox":[107.1469303,47.7940027,107.1869303,47.8340027]}
{"name":"Хөвсгөл","other_names":{"name:en":"Khuvsgul","name:mn":"Хөвсгөл","name:ru":"Хувсгел","name:zh":"车布斯高勒县"},"display_name":"Хөвсгөл, Хөвсгөл ᠬᠥᠪᠰᠦᠭᠦᠯ, Дорноговь ᠳᠣᠷᠤᠨᠠᠭᠣᠪᠢ, Монгол улс ᠮᠤᠩᠭᠤᠯ ᠤᠯᠤᠰ","address":{"village":"Хөвсгөл","county":"Хөвсгөл ᠬᠥᠪᠰᠦᠭᠦᠯ","state":"Дорноговь ᠳᠣᠷᠤᠨᠠᠭᠣᠪᠢ","ISO3166-2-lvl4":"MN-063","country":"Монгол улс ᠮᠤᠩᠭᠤᠯ ᠤᠯᠤᠰ","country_code":"mn"},"osm_type":"way","osm_id":192598501,"type":"village","location":[109.63978651329742,43.6065569],"bbox":[109.6312866,43.6000906,109.6515796,43.6131603]}
{"name":"Хужирбулан ᠬᠤᠵᠢᠷᠪᠤᠯᠤᠩ","other_names":{"name:en":"Khujirbulan","name:mn":"Хужирбулан","name:mn-Mong":"ᠬᠤᠵᠢᠷᠪᠤᠯᠤᠩ"},"display_name":"Хужирбулан ᠬᠤᠵᠢᠷᠪᠤᠯᠤᠩ, Улаанбаатар ᠤᠯᠠᠭᠠᠨᠪᠠᠭᠠᠲᠤᠷ, Монгол улс ᠮᠤᠩᠭᠤᠯ ᠤᠯᠤᠰ","address":{"village":"Хужирбулан ᠬᠤᠵᠢᠷᠪᠤᠯᠤᠩ","city":"Улаанбаатар ᠤᠯᠠᠭᠠᠨᠪᠠᠭᠠᠲᠤᠷ","ISO3166-2-lvl4":"MN-1","country":"Монгол улс ᠮᠤᠩᠭᠤᠯ ᠤᠯᠤᠰ","country_code":"mn"},"osm_type":"node","osm_id":11016639698,"type":"village","location":[107.0790151,47.9200756],"bbox":[107.0590151,47.9000756,107.0990151,47.9400756]}
{"name":"Хэрлэнбаян-Улаан ᠬᠡᠷᠯᠡᠨᠪᠠᠶᠠᠨ ᠤᠯᠠᠭᠠᠨ","other_names":{"name:mn":"Хэрлэнбаян-Улаан","name:mn-Cyrl":"Хэрлэнбаян-Улаан","name:mn-Mong":"ᠬᠡᠷᠯᠡᠨᠪᠠᠶᠠᠨ ᠤᠯᠠᠭᠠᠨ"},"display_name":"Хэрлэнбаян-Улаан ᠬᠡᠷᠯᠡᠨᠪᠠᠶᠠᠨ ᠤᠯᠠᠭᠠᠨ, Дэлгэрхаан ᠳᠡᠯᠭᠡᠷᠬᠠᠨ, Хэнтий ᠬᠡᠨᠲᠡᠢ, Монгол улс ᠮᠤᠩᠭᠤᠯ ᠤᠯᠤᠰ","address":{"village":"Хэрлэнбаян-Улаан ᠬᠡᠷᠯᠡᠨᠪᠠᠶᠠᠨ ᠤᠯᠠᠭᠠᠨ","county":"Дэлгэрхаан ᠳᠡᠯᠭᠡᠷᠬᠠᠨ","state":"Хэнтий ᠬᠡᠨᠲᠡᠢ","ISO3166-2-lvl4":"MN-039","country":"Монгол улс ᠮᠤᠩᠭᠤᠯ ᠤᠯᠤᠰ","country_code":"mn"},"osm_type":"node","osm_id":297290339,"type":"village","location":[108.7440368,47.212042],"bbox":[108.7240368,47.192042,108.7640368,47.232042]}
{"name":"Цагаан-Гол","other_names":{"name:en":"Tsjagaan-Gol","name:mn":"Цагаан-Гол"},"display_name":"Цагаан-Гол, Цэнгэл ᠴᠡᠩᠭᠡᠯ, Баян-Өлгий ᠪᠠᠶ᠋ᠠᠨ ᠥᠯᠦᠭᠡᠢ, Монгол улс ᠮᠤᠩᠭᠤᠯ ᠤᠯᠤᠰ","address":{"village":"Цагаан-Гол","county":"Цэнгэл ᠴᠡᠩᠭᠡᠯ","state":"Баян-Өлгий ᠪᠠᠶ᠋ᠠᠨ ᠥᠯᠦᠭᠡᠢ","ISO3166-2-lvl4":"MN-071","country":"Монгол улс ᠮᠤᠩᠭᠤᠯ ᠤᠯᠤᠰ","country_code":"mn"},"osm_type":"node","osm_id":529036768,"type":"village","location":[89.1037585,48.9947384],"bbox":[89.0837585,48.9747384,89.1237585,49.0147384]}
{"name":"Цагаан-Уул ᠴᠠᠭᠠᠨ ᠠᠭᠤᠯᠠ","other_names":{"name:en":"Tsagaan uul","name:mn":"Цагаан-Уул","name:ru":"Цагаан уул","name:zh":"察干乌拉县","int_name":"Цагаан-Уул","name:mn-Cyrl":"Цагаан-Уул","name:mn-Mong":"ᠴᠠᠭᠠᠨ ᠠᠭᠤᠯᠠ"},"display_name":"Цагаан-Уул ᠴᠠᠭᠠᠨ ᠠᠭᠤᠯᠠ, Хөвсгөл ᠬᠥᠪᠰᠦᠭᠦᠯ, Монгол улс ᠮᠤᠩᠭᠤᠯ ᠤᠯᠤᠰ","address":{"village":"Цагаан-Уул ᠴᠠᠭᠠᠨ ᠠᠭᠤᠯᠠ","county":"Цагаан-Уул ᠴᠠᠭᠠᠨ ᠠᠭᠤᠯᠠ","state":"Хөвсгөл ᠬᠥᠪᠰᠦᠭᠦᠯ","ISO3166-2-lvl4":"MN-041","country":"Монгол улс ᠮᠤᠩᠭᠤᠯ ᠤᠯᠤᠰ","country_code":"mn"},"osm_type":"node","osm_id":2082851791,"type":"village","location":[98.6982795,49.5984826],"bbox":[98.6782795,49.5784826,98.7182795,49.6184826],"border":[{"name":"Цагаан-Уул","other_names":{"name:en":"Tsagaan uul","name:mn":"Цагаан-Уул","name:ru":"Цагаан уул","name:zh":"察干乌拉县","int_name":"Цагаан-Уул"},"display_name":"Цагаан-Уул, Цагаан-Уул ᠴᠠᠭᠠᠨ ᠠᠭᠤᠯᠠ, Хөвсгөл ᠬᠥᠪᠰᠦᠭᠦᠯ, Монгол улс ᠮᠤᠩᠭᠤᠯ ᠤᠯᠤᠰ","address":{"village":"Цагаан-Уул","county":"Цагаан-Уул ᠴᠠᠭᠠᠨ ᠠᠭᠤᠯᠠ","state":"Хөвсгөл ᠬᠥᠪᠰᠦᠭᠦᠯ","ISO3166-2-lvl4":"MN-041","country":"Монгол улс ᠮᠤᠩᠭᠤᠯ ᠤᠯᠤᠰ","country_code":"mn"},"osm_type":"way","osm_id":50148422,"type":"village","location":[98.69761982383335,49.59875665],"bbox":[98.6799826,49.5895796,98.7163619,49.6095004]},{"name":"Цагаан-Уул ᠴᠠᠭᠠᠨ ᠠᠭᠤᠯᠠ","other_names":{"name:de":"Tsagaan-Uul","name:en":"Tsagaan uul","name:mn":"Цагаан-Уул","name:ru":"Цагаан уул","name:mn-Cyrl":"Цагаан-Уул","name:mn-Mong":"ᠴᠠᠭᠠᠨ ᠠᠭᠤᠯᠠ"},"display_name":"Цагаан-Уул ᠴᠠᠭᠠᠨ ᠠᠭᠤᠯᠠ, Хөвсгөл ᠬᠥᠪᠰᠦᠭᠦᠯ, Монгол улс ᠮᠤᠩᠭᠤᠯ ᠤᠯᠤᠰ","address":{"county":"Цагаан-Уул ᠴᠠᠭᠠᠨ ᠠᠭᠤᠯᠠ","state":"Хөвсгөл ᠬᠥᠪᠰᠦᠭᠦᠯ","ISO3166-2-lvl4":"MN-041","country":"Монгол улс ᠮᠤᠩᠭᠤᠯ ᠤᠯᠤᠰ","country_code":"mn"},"osm_type":"relation","osm_id":7305532,"type":"administrative","location":[98.68761693071733,49.5336414],"bbox":[97.9783,49.0222863,99.2269449,50.0359]}]}
{"display_name":"Цагааннуур ᠴᠠᠭᠠᠨ ᠨᠠᠭᠤᠷ, Сэлэнгэ ᠰᠡᠯᠡᠩᠭᠡ, Монгол улс ᠮᠤᠩᠭᠤᠯ ᠤᠯᠤᠰ","address":{"county":"Цагааннуур ᠴᠠᠭᠠᠨ ᠨᠠᠭᠤᠷ","state":"Сэлэнгэ ᠰᠡᠯᠡᠩᠭᠡ","ISO3166-2-lvl4":"MN-049","country":"Монгол улс ᠮᠤᠩᠭᠤᠯ ᠤᠯᠤᠰ","country_code":"mn"},"osm_type":"way","osm_id":1021287365,"type":"village","location":[105.20760185992143,50.065108699999996],"bbox":[105.2067288,50.0642693,105.2084987,50.0659151]}
{"display_name":"Цагааннуур ᠴᠠᠭᠠᠨ ᠨᠠᠭᠤᠷ, Сэлэнгэ ᠰᠡᠯᠡᠩᠭᠡ, Монгол улс ᠮᠤᠩᠭᠤᠯ ᠤᠯᠤᠰ","address":{"county":"Цагааннуур ᠴᠠᠭᠠᠨ ᠨᠠᠭᠤᠷ","state":"Сэлэнгэ ᠰᠡᠯᠡᠩᠭᠡ","ISO3166-2-lvl4":"MN-049","country":"Монгол улс ᠮᠤᠩᠭᠤᠯ ᠤᠯᠤᠰ","country_code":"mn"},"osm_type":"way","osm_id":1021287369,"type":"village","location":[105.24610094084898,50.0679911],"bbox":[105.2449161,50.0673335,105.2473066,50.06856]}
{"name":"Цагааннуур","other_names":{"name:en":"Tsagaannuur","name:mn":"Цагааннуур"},"display_name":"Цагааннуур, Тариат ᠲᠠᠷᠢᠶ᠋ᠠᠲᠤ, Архангай ᠠᠷᠤᠬᠠᠩᠭ᠋ᠠᠢ, Монгол улс ᠮᠤᠩᠭᠤᠯ ᠤᠯᠤᠰ","address":{"village":"Цагааннуур","town":"Тариат ᠲᠠᠷᠢᠶ᠋ᠠᠲᠤ","state":"Архангай ᠠᠷᠤᠬᠠᠩᠭ᠋ᠠᠢ","ISO3166-2-lvl4":"MN-073","country":"Монгол улс ᠮᠤᠩᠭᠤᠯ ᠤᠯᠤᠰ","country_code":"mn"},"osm_type":"node","osm_id":659840220,"type":"village","location":[99.5456429,48.0893845],"bbox":[99.5256429,48.0693845,99.5656429,48.1093845]}
{"name":"Цагааннуур","other_names":{"name:en":"tsagaannuur","name:mn":"Цагааннуур","alt_name":"Cagaannuur"},"display_name":"Цагааннуур, Чойбалсан ᠴᠣᠶᠢᠪᠯᠰᠠᠩ, Дорнод ᠳᠣᠷᠤᠨᠠᠳᠤ, Монгол улс ᠮᠤᠩᠭᠤᠯ ᠤᠯᠤᠰ","address":{"village":"Цагааннуур","county":"Чойбалсан ᠴᠣᠶᠢᠪᠯᠰᠠᠩ","state":"Дорнод ᠳᠣᠷᠤᠨᠠᠳᠤ","ISO3166-2-lvl4":"MN-061","country":"Монгол улс ᠮᠤᠩᠭᠤᠯ ᠤᠯᠤᠰ","country_code":"mn"},"osm_type":"node","osm_id":3774795902,"type":"village","location":[116.027105,49.121246],"bbox":[116.007105,49.101246,116.047105,49.141246]}
{"name":"Шадивлан ᠱᠠᠳᠢᠪᠯᠠᠨ","other_names":{"name:mn":"Шадивлан","name:mn-Mong":"ᠱᠠᠳᠢᠪᠯᠠᠨ"},"display_name":"Шадивлан ᠱᠠᠳᠢᠪᠯᠠᠨ, Улаанбаатар ᠤᠯᠠᠭᠠᠨᠪᠠᠭᠠᠲᠤᠷ, Монгол улс ᠮᠤᠩᠭᠤᠯ ᠤᠯᠤᠰ","address":{"village":"Шадивлан ᠱᠠᠳᠢᠪᠯᠠᠨ","city":"Улаанбаатар ᠤᠯᠠᠭᠠᠨᠪᠠᠭᠠᠲᠤᠷ","ISO3166-2-lvl4":"MN-1","country":"Монгол улс ᠮᠤᠩᠭᠤᠯ ᠤᠯᠤᠰ","country_code":"mn"},"osm_type":"node","osm_id":9314838231,"type":"village","location":[106.9009564,48.0139071],"bbox":[106.8809564,47.9939071,106.9209564,48.0339071]}
{"name":"Шаргалжуут","other_names":{"name:en":"Shargaljuut","name:mn":"Шаргалжуут","int_name":"Шаргалжуут"},"display_name":"Шаргалжуут, Эрдэнэцогт ᠡᠷᠳᠡᠨᠢᠴᠣᠭᠲᠤ, Баянхонгор ᠪᠠᠶᠠᠨᠬᠣᠩᠭᠣᠷ, Монгол улс ᠮᠤᠩᠭᠤᠯ ᠤᠯᠤᠰ","address":{"village":"Шаргалжуут","county":"Эрдэнэцогт ᠡᠷᠳᠡᠨᠢᠴᠣᠭᠲᠤ","state":"Баянхонгор ᠪᠠᠶᠠᠨᠬᠣᠩᠭᠣᠷ","ISO3166-2-lvl4":"MN-069","country":"Монгол улс ᠮᠤᠩᠭᠤᠯ ᠤᠯᠤᠰ","country_code":"mn"},"osm_type":"node","osm_id":318045200,"type":"village","location":[101.2242117,46.3322037],"bbox":[101.2042117,46.3122037,101.2442117,46.3522037]}
{"name":"Ялалт баг ᠢᠯᠠᠯᠲᠠ ᠪᠠᠭ","other_names":{"name:en":"Yalalt bag","name:mn":"Ялалт баг","alt_name":"Âlalt bag","name:mn-Mong":"ᠢᠯᠠᠯᠲᠠ ᠪᠠᠭ"},"display_name":"Ялалт баг ᠢᠯᠠᠯᠲᠠ ᠪᠠᠭ, Халхгол ᠬᠠᠯᠬ᠎ᠠ ᠭᠣᠣᠯ, Дорнод ᠳᠣᠷᠤᠨᠠᠳᠤ, Монгол улс ᠮᠤᠩᠭᠤᠯ ᠤᠯᠤᠰ","address":{"village":"Ялалт баг ᠢᠯᠠᠯᠲᠠ ᠪᠠᠭ","county":"Халхгол ᠬᠠᠯᠬ᠎ᠠ ᠭᠣᠣᠯ","state":"Дорнод ᠳᠣᠷᠤᠨᠠᠳᠤ","ISO3166-2-lvl4":"MN-061","country":"Монгол улс ᠮᠤᠩᠭᠤᠯ ᠤᠯᠤᠰ","country_code":"mn"},"osm_type":"node","osm_id":3774795912,"type":"village","location":[118.1066624,47.9871386],"bbox":[118.0866624,47.9671386,118.1266624,48.0071386],"border":{"name":"Ялалт баг","other_names":{"name:en":"Yalalt bag","name:mn":"Ялалт баг","alt_name":"Âlalt bag"},"display_name":"Ялалт баг, Халхгол ᠬᠠᠯᠬ᠎ᠠ ᠭᠣᠣᠯ, Дорнод ᠳᠣᠷᠤᠨᠠᠳᠤ, Монгол улс ᠮᠤᠩᠭᠤᠯ ᠤᠯᠤᠰ","address":{"village":"Ялалт баг","county":"Халхгол ᠬᠠᠯᠬ᠎ᠠ ᠭᠣᠣᠯ","state":"Дорнод ᠳᠣᠷᠤᠨᠠᠳᠤ","ISO3166-2-lvl4":"MN-061","country":"Монгол улс ᠮᠤᠩᠭᠤᠯ ᠤᠯᠤᠰ","country_code":"mn"},"osm_type":"way","osm_id":61561728,"type":"village","location":[118.1082773384738,47.989495649999995],"bbox":[118.0955631,47.9782704,118.1233738,48.0011415]}}
{"name":"Яргайт ᠢᠷᠭᠠᠢ ᠳᠤ","other_names":{"name:mn":"Яргайт","name:mn-Mong":"ᠢᠷᠭᠠᠢ ᠳᠤ"},"display_name":"Яргайт ᠢᠷᠭᠠᠢ ᠳᠤ, Улаанбаатар ᠤᠯᠠᠭᠠᠨᠪᠠᠭᠠᠲᠤᠷ, Монгол улс ᠮᠤᠩᠭᠤᠯ ᠤᠯᠤᠰ","address":{"village":"Яргайт ᠢᠷᠭᠠᠢ ᠳᠤ","city":"Улаанбаатар ᠤᠯᠠᠭᠠᠨᠪᠠᠭᠠᠲᠤᠷ","ISO3166-2-lvl4":"MN-1","country":"Монгол улс ᠮᠤᠩᠭᠤᠯ ᠤᠯᠤᠰ","country_code":"mn"},"osm_type":"node","osm_id":9314838232,"type":"village","location":[106.9052022,48.0309027],"bbox":[106.8852022,48.0109027,106.9252022,48.0509027]}
{"name":"Яргайтын богино ᠢᠷᠭᠠᠶᠢᠲᠤ ᠶᠢᠨ ᠪᠣᠭᠣᠨᠢ","other_names":{"name:mn":"ᠢᠷᠭᠠᠶᠢᠲᠤ ᠶᠢᠨ ᠪᠣᠭᠣᠨᠢ","name:mn-Mong":"Яргайтын богино"},"display_name":"Яргайтын богино ᠢᠷᠭᠠᠶᠢᠲᠤ ᠶᠢᠨ ᠪᠣᠭᠣᠨᠢ, Улаанбаатар ᠤᠯᠠᠭᠠᠨᠪᠠᠭᠠᠲᠤᠷ, Монгол улс ᠮᠤᠩᠭᠤᠯ ᠤᠯᠤᠰ","address":{"village":"Яргайтын богино ᠢᠷᠭᠠᠶᠢᠲᠤ ᠶᠢᠨ ᠪᠣᠭᠣᠨᠢ","city":"Улаанбаатар ᠤᠯᠠᠭᠠᠨᠪᠠᠭᠠᠲᠤᠷ","ISO3166-2-lvl4":"MN-1","country":"Монгол улс ᠮᠤᠩᠭᠤᠯ ᠤᠯᠤᠰ","country_code":"mn"},"osm_type":"node","osm_id":9314838234,"type":"village","location":[106.9037865,48.0381331],"bbox":[106.8837865,48.0181331,106.9237865,48.0581331]}
