{"name":"Алтай ᠠᠯᠲᠠᠢ","other_names":{"name:ar":"التاي","name:de":"Altai","name:en":"Altai","name:es":"Altai","name:fr":"Altay","name:ja":"アルタイ","name:kk":"Алтай","name:lt":"Altajus","name:mn":"Алтай","name:ru":"Алтай","name:zh":"阿尔泰","alt_name":"Yesönbulag","int_name":"Алтай","name:kk-Arab":"التاي","name:kk-Cyrl":"Алтай","name:kk-Latn":"Altai","name:mn-Cyrl":"Алтай","name:mn-Mong":"ᠠᠯᠲᠠᠢ","name:mn-mong":"ᠠᠯᠲᠠᠢ","name:zh-Hans":"阿尔泰","name:zh-Hant":"阿爾泰"},"display_name":"Алтай ᠠᠯᠲᠠᠢ, Есөнбулаг ᠶ᠋ᠢᠰᠦᠨᠪᠤᠯᠠᠭ, Говь-Алтай ᠭᠣᠪᠢ ᠠᠯᠲᠠᠢ, Монгол улс ᠮᠤᠩᠭᠤᠯ ᠤᠯᠤᠰ","address":{"city":"Алтай ᠠᠯᠲᠠᠢ","county":"Есөнбулаг ᠶ᠋ᠢᠰᠦᠨᠪᠤᠯᠠᠭ","state":"Говь-Алтай ᠭᠣᠪᠢ ᠠᠯᠲᠠᠢ","ISO3166-2-lvl4":"MN-065","country":"Монгол улс ᠮᠤᠩᠭᠤᠯ ᠤᠯᠤᠰ","country_code":"mn"},"population":15800,"osm_type":"node","osm_id":293970113,"type":"city","location":[96.2532498,46.3643389],"bbox":[96.0932498,46.2043389,96.4132498,46.5243389],"border":[{"name":"Алтай","other_names":{"name:en":"Altai","name:mn":"Алтай","name:ru":"Алтай"},"display_name":"Алтай, Есөнбулаг ᠶ᠋ᠢᠰᠦᠨᠪᠤᠯᠠᠭ, Говь-Алтай ᠭᠣᠪᠢ ᠠᠯᠲᠠᠢ, Монгол улс ᠮᠤᠩᠭᠤᠯ ᠤᠯᠤᠰ","address":{"city":"Алтай","county":"Есөнбулаг ᠶ᠋ᠢᠰᠦᠨᠪᠤᠯᠠᠭ","state":"Говь-Алтай ᠭᠣᠪᠢ ᠠᠯᠲᠠᠢ","ISO3166-2-lvl4":"MN-065","country":"Монгол улс ᠮᠤᠩᠭᠤᠯ ᠤᠯᠤᠰ","country_code":"mn"},"osm_type":"way","osm_id":41731944,"type":"city","location":[96.25096645597232,46.3664821],"bbox":[96.2184763,46.3488276,96.2701404,46.3836972]},{"name":"Есөнбулаг ᠶ᠋ᠢᠰᠦᠨᠪᠤᠯᠠᠭ","other_names":{"name:de":"Yesönbulag","name:en":"Yesönbulag","name:mn":"Есөнбулаг","name:ru":"Есенбулаг","alt_name:en":"Esonbulag","name:mn-Cyrl":"Есөнбулаг","name:mn-Mong":"ᠶ᠋ᠢᠰᠦᠨᠪᠤᠯᠠᠭ"},"display_name":"Есөнбулаг ᠶ᠋ᠢᠰᠦᠨᠪᠤᠯᠠᠭ, Говь-Алтай ᠭᠣᠪᠢ ᠠᠯᠲᠠᠢ, Монгол улс ᠮᠤᠩᠭᠤᠯ ᠤᠯᠤᠰ","address":{"county":"Есөнбулаг ᠶ᠋ᠢᠰᠦᠨᠪᠤᠯᠠᠭ","state":"Говь-Алтай ᠭᠣᠪᠢ ᠠᠯᠲᠠᠢ","ISO3166-2-lvl4":"MN-065","country":"Монгол улс ᠮᠤᠩᠭᠤᠯ ᠤᠯᠤᠰ","country_code":"mn"},"osm_type":"relation","osm_id":7304781,"type":"administrative","location":[95.99309687537513,46.1996779],"bbox":[95.7450638,45.9431579,97.0978856,46.4556463]}]}
{"name":"Арвайхээр ᠠᠷᠪᠠᠶᠢᠬᠡᠭᠡᠷ","other_names":{"name:de":"Arwaicheer","name:en":"Arvaikheer","name:es":"Arvaikheer","name:fr":"Arvaikheer","name:mn":"Арвайхээр","name:ru":"Арвайхээр","name:zh":"阿尔拜赫雷","int_name":"Arvaikheer","name:mn-Cyrl":"Арвайхээр","name:mn-Mong":"ᠠᠷᠪᠠᠶᠢᠬᠡᠭᠡᠷ","name:zh-Hans":"阿尔拜赫雷","name:zh-Hant":"阿爾拜赫雷"},"display_name":"Арвайхээр ᠠᠷᠪᠠᠶᠢᠬᠡᠭᠡᠷ, Өвөрхангай ᠥᠪᠦᠷᠬᠠᠩᠭ᠋ᠠᠢ, Монгол улс ᠮᠤᠩᠭᠤᠯ ᠤᠯᠤᠰ","address":{"city":"Арвайхээр ᠠᠷᠪᠠᠶᠢᠬᠡᠭᠡᠷ","state":"Өвөрхангай ᠥᠪᠦᠷᠬᠠᠩᠭ᠋ᠠᠢ","ISO3166-2-lvl4":"MN-055","country":"Монгол улс ᠮᠤᠩᠭᠤᠯ ᠤᠯᠤᠰ","country_code":"mn"},"population":27162,"osm_type":"node","osm_id":293967732,"type":"city","location":[102.7863148,46.2681885],"bbox":[102.6263148,46.1081885,102.9463148,46.4281885],"border":[{"name":"Арвайхээр","other_names":{"name:en":"Arvaikheer","name:mn":"Арвайхээр","name:ru":"Арвайхээр","int_name":"Arvaikheer"},"display_name":"Арвайхээр, Өвөрхангай ᠥᠪᠦᠷᠬᠠᠩᠭ᠋ᠠᠢ, Монгол улс ᠮᠤᠩᠭᠤᠯ ᠤᠯᠤᠰ","address":{"city":"Арвайхээр","state":"Өвөрхангай ᠥᠪᠦᠷᠬᠠᠩᠭ᠋ᠠᠢ","ISO3166-2-lvl4":"MN-055","country":"Монгол улс ᠮᠤᠩᠭᠤᠯ ᠤᠯᠤᠰ","country_code":"mn"},"osm_type":"way","osm_id":61886549,"type":"city","location":[102.77424553928276,46.25763715],"bbox":[102.7537528,46.2332444,102.8257012,46.2816399]},{"name":"Арвайхээр ᠠᠷᠪᠠᠶᠢᠬᠡᠭᠡᠷ","other_names":{"name:de":"Arwaicheer","name:en":"Arvaikheer","name:es":"Arvaikheer","name:fr":"Arvaikheer","name:mn":"Арвайхээр","name:ru":"Арвайхээр","name:zh":"阿尔拜赫雷","name:mn-Cyrl":"Арвайхээр","name:mn-Mong":"ᠠᠷᠪᠠᠶᠢᠬᠡᠭᠡᠷ","name:zh-Hans":"阿尔拜赫雷","name:zh-Hant":"阿爾拜赫雷","int_name":"Arvaikheer"},"display_name":"Арвайхээр ᠠᠷᠪᠠᠶᠢᠬᠡᠭᠡᠷ, Өвөрхангай ᠥᠪᠦᠷᠬᠠᠩᠭ᠋ᠠᠢ, Монгол улс ᠮᠤᠩᠭᠤᠯ ᠤᠯᠤᠰ","address":{"city":"Арвайхээр ᠠᠷᠪᠠᠶᠢᠬᠡᠭᠡᠷ","state":"Өвөрхангай ᠥᠪᠦᠷᠬᠠᠩᠭ᠋ᠠᠢ","ISO3166-2-lvl4":"MN-055","country":"Монгол улс ᠮᠤᠩᠭᠤᠯ ᠤᠯᠤᠰ","country_code":"mn"},"population":27162,"osm_type":"relation","osm_id":7297902,"type":"administrative","location":[102.7863148,46.2681885],"bbox":[102.6587748,46.2022599,102.8860832,46.3501615]}]}
{"name":"Багануур ᠪᠠᠭᠠᠨᠠᠭᠤᠷ","other_names":{"name:en":"Baganuur","name:fa":"باگانور","name:ja":"バガヌール","name:mn":"Багануур ᠪᠠᠭᠠᠨᠠᠭᠤᠷ","name:ru":"Багануур","name:zh":"巴嘎诺尔","int_name":"Baganuur","name:mn-Cyrl":"Багануур","name:mn-Mong":"ᠪᠠᠭᠠᠨᠠᠭᠤᠷ"},"display_name":"Багануур ᠪᠠᠭᠠᠨᠠᠭᠤᠷ, Улаанбаатар ᠤᠯᠠᠭᠠᠨᠪᠠᠭᠠᠲᠤᠷ, Монгол улс ᠮᠤᠩᠭᠤᠯ ᠤᠯᠤᠰ","address":{"city":"Багануур ᠪᠠᠭᠠᠨᠠᠭᠤᠷ","ISO3166-2-lvl4":"MN-1","country":"Монгол улс ᠮᠤᠩᠭᠤᠯ ᠤᠯᠤᠰ","country_code":"mn"},"population":22210,"osm_type":"node","osm_id":293942649,"type":"city","location":[108.3705783,47.7826686],"bbox":[108.2105783,47.6226686,108.5305783,47.9426686]}
{"name":"Баруун-Урт ᠪᠠᠷᠠᠭᠤᠨ ᠤᠷᠲᠤ","other_names":{"name:ar":"بارون-اورت","name:de":"Baruun-Urt","name:en":"Baruun-Urt","name:es":"Baruun-Urt","name:fr":"Baruun-Urt","name:ja":"バローン・オルト","name:lt":"Barun Urtas","name:mn":"Баруун-Урт","name:ru":"Баруун-Урт","name:zh":"西乌尔特","int_name":"Baruun-Urt","name:mn-Cyrl":"Баруун-Урт","name:mn-Mong":"ᠪᠠᠷᠠᠭᠤᠨ ᠤᠷᠲᠤ","name:mn-mong":"ᠪᠠᠷᠠᠭᠤᠨ ᠤᠷᠲᠤ","name:zh-Hans":"西乌尔特","name:zh-Hant":"西烏爾特"},"display_name":"Баруун-Урт ᠪᠠᠷᠠᠭᠤᠨ ᠤᠷᠲᠤ, Сүхбаатар ᠰᠦᠬᠡᠪᠠᠭᠠᠲᠤᠷ, Монгол улс ᠮᠤᠩᠭᠤᠯ ᠤᠯᠤᠰ","address":{"city":"Баруун-Урт ᠪᠠᠷᠠᠭᠤᠨ ᠤᠷᠲᠤ","state":"Сүхбаатар ᠰᠦᠬᠡᠪᠠᠭᠠᠲᠤᠷ","ISO3166-2-lvl4":"MN-051","country":"Монгол улс ᠮᠤᠩᠭᠤᠯ ᠤᠯᠤᠰ","country_code":"mn"},"population":14089,"osm_type":"node","osm_id":1968281574,"type":"city","location":[113.2845525,46.6807672],"bbox":[113.1245525,46.5207672,113.4445525,46.8407672],"border":[{"name":"Баруун-Урт","other_names":{"name:en":"Baruun-Urt","name:ja":"バローン・オルト","name:mn":"Баруун-Урт","name:ru":"Баруун-Урт"},"display_name":"Баруун-Урт, Сүхбаатар ᠰᠦᠬᠡᠪᠠᠭᠠᠲᠤᠷ, 22070, Монгол улс ᠮᠤᠩᠭᠤᠯ ᠤᠯᠤᠰ","address":{"city":"Баруун-Урт","state":"Сүхбаатар ᠰᠦᠬᠡᠪᠠᠭᠠᠲᠤᠷ","ISO3166-2-lvl4":"MN-051","postcode":"22070","country":"Монгол улс ᠮᠤᠩᠭᠤᠯ ᠤᠯᠤᠰ","country_code":"mn"},"osm_type":"way","osm_id":187787648,"type":"city","location":[113.28347783638328,46.68094],"bbox":[113.2553227,46.6646339,113.3049472,46.6971371]},{"name":"Баруун-Урт ᠪᠠᠷᠠᠭᠤᠨ ᠤᠷᠲᠤ","other_names":{"name:ar":"بارون-اورت","name:de":"Baruun-Urt","name:en":"Baruun-Urt","name:es":"Baruun-Urt","name:fr":"Baruun-Urt","name:ja":"バローン・オルト","name:lt":"Barun Urtas","name:mn":"Баруун-Урт","name:ru":"Баруун-Урт","name:zh":"西乌尔特","name:mn-Cyrl":"Баруун-Урт","name:mn-Mong":"ᠪᠠᠷᠠᠭᠤᠨ ᠤᠷᠲᠤ","name:mn-mong":"ᠪᠠᠷᠠᠭᠤᠨ ᠤᠷᠲᠤ","name:zh-Hans":"西乌尔特","name:zh-Hant":"西烏爾特","int_name":"Baruun-Urt"},"display_name":"Баруун-Урт ᠪᠠᠷᠠᠭᠤᠨ ᠤᠷᠲᠤ, Сүхбаатар ᠰᠦᠬᠡᠪᠠᠭᠠᠲᠤᠷ, 22070, Монгол улс ᠮᠤᠩᠭᠤᠯ ᠤᠯᠤᠰ","address":{"city":"Баруун-Урт ᠪᠠᠷᠠᠭᠤᠨ ᠤᠷᠲᠤ","state":"Сүхбаатар ᠰᠦᠬᠡᠪᠠᠭᠠᠲᠤᠷ","ISO3166-2-lvl4":"MN-051","postcode":"22070","country":"Монгол улс ᠮᠤᠩᠭᠤᠯ ᠤᠯᠤᠰ","country_code":"mn"},"population":14089,"osm_type":"relation","osm_id":7307122,"type":"administrative","location":[113.2845525,46.6807672],"bbox":[113.2299197,46.6522499,113.3295542,46.7121153]}]}
{"name":"Баянхонгор ᠪᠠᠶᠠᠨᠬᠣᠩᠭᠣᠷ","other_names":{"name:ar":"بايانخونغور","name:de":"Bajanchongor","name:en":"Bayankhongor","name:es":"Bayanhongor","name:fr":"Bayanhongor","name:hu":"Bajanhongor","name:ja":"バヤンホンゴル","name:lt":"Bajanchongoras","name:mn":"Баянхонгор","name:ru":"Баянхонгор","name:uk":"Баянхонґор","name:zh":"巴彦洪戈尔","int_name":"Баянхонгор","name:mn-Cyrl":"Баянхонгор","name:mn-Mong":"ᠪᠠᠶᠠᠨᠬᠣᠩᠭᠣᠷ","name:zh-Hans":"巴彦洪戈尔","name:zh-Hant":"巴彥洪戈爾"},"display_name":"Баянхонгор ᠪᠠᠶᠠᠨᠬᠣᠩᠭᠣᠷ, Монгол улс ᠮᠤᠩᠭᠤᠯ ᠤᠯᠤᠰ","address":{"city":"Баянхонгор ᠪᠠᠶᠠᠨᠬᠣᠩᠭᠣᠷ","state":"Баянхонгор ᠪᠠᠶᠠᠨᠬᠣᠩᠭᠣᠷ","ISO3166-2-lvl4":"MN-069","country":"Монгол улс ᠮᠤᠩᠭᠤᠯ ᠤᠯᠤᠰ","country_code":"mn"},"population":29817,"osm_type":"node","osm_id":293941554,"type":"city","location":[100.7142654,46.1936649],"bbox":[100.5542654,46.0336649,100.8742654,46.3536649],"border":{"name":"Баянхонгор ᠪᠠᠶᠠᠨᠬᠣᠩᠭᠣᠷ","other_names":{"name:ar":"بايانخونغور","name:de":"Bajanchongor","name:en":"Bayankhongor","name:es":"Bayanhongor","name:fr":"Bayanhongor","name:hu":"Bajanhongor","name:ja":"バヤンホンゴル","name:lt":"Bajanchongoras","name:mn":"Баянхонгор","name:ru":"Баянхонгор","name:uk":"Баянхонґор","name:zh":"巴彦洪戈尔","name:mn-Cyrl":"Баянхонгор","name:mn-Mong":"ᠪᠠᠶᠠᠨᠬᠣᠩᠭᠣᠷ","name:zh-Hans":"巴彦洪戈尔","name:zh-Hant":"巴彥洪戈爾","int_name":"Баянхонгор"},"display_name":"Баянхонгор ᠪᠠᠶᠠᠨᠬᠣᠩᠭᠣᠷ, Монгол улс ᠮᠤᠩᠭᠤᠯ ᠤᠯᠤᠰ","address":{"city":"Баянхонгор ᠪᠠᠶᠠᠨᠬᠣᠩᠭᠣᠷ","state":"Баянхонгор ᠪᠠᠶᠠᠨᠬᠣᠩᠭᠣᠷ","ISO3166-2-lvl4":"MN-069","country":"Монгол улс ᠮᠤᠩᠭᠤᠯ ᠤᠯᠤᠰ","country_code":"mn"},"population":29817,"osm_type":"relation","osm_id":7304756,"type":"administrative","location":[100.7142654,46.1936649],"bbox":[100.5747087,46.124199,100.7614048,46.2408775]}}
{"name":"Бор-Өндөр ᠪᠣᠷᠣ ᠥᠨᠳᠥᠷ","other_names":{"name:en":"Bor-Undur","name:ja":"ボル＝ウンドゥル","name:mn":"Бор-Өндөр","name:ru":"Бор-Ундер","name:zh":"包尔温都尔","int_name":"Бор-Өндөр","name:mn-Cyrl":"Бор-Өндөр","name:mn-Mong":"ᠪᠣᠷᠣ ᠥᠨᠳᠥᠷ"},"display_name":"Бор-Өндөр ᠪᠣᠷᠣ ᠥᠨᠳᠥᠷ, Дархан ᠳᠠᠷᠬᠠᠨ, Хэнтий ᠬᠡᠨᠲᠡᠢ, Монгол улс ᠮᠤᠩᠭᠤᠯ ᠤᠯᠤᠰ","address":{"city":"Бор-Өндөр ᠪᠣᠷᠣ ᠥᠨᠳᠥᠷ","county":"Дархан ᠳᠠᠷᠬᠠᠨ","state":"Хэнтий ᠬᠡᠨᠲᠡᠢ","ISO3166-2-lvl4":"MN-039","country":"Монгол улс ᠮᠤᠩᠭᠤᠯ ᠤᠯᠤᠰ","country_code":"mn"},"population":8080,"osm_type":"node","osm_id":647623219,"type":"city","location":[109.4226568,46.2549705],"bbox":[109.2626568,46.0949705,109.5826568,46.4149705]}
{"name":"Булган ᠪᠤᠯᠠᠭᠠᠨ","other_names":{"name:ar":"بولجان","name:de":"Bulgan","name:en":"Bulgan","name:es":"Bulgan","name:fa":"بولگان","name:fr":"Bulgan","name:ja":"ボルガン","name:lt":"Bulganas","name:mn":"Булган","name:ru":"Булган","name:zh":"布尔干","int_name":"Bulgan","name:azb":"بولقان","name:mn-Cyrl":"Булган","name:mn-Mong":"ᠪᠤᠯᠠᠭᠠᠨ","name:zh-Hans":"布尔干","name:zh-Hant":"布爾干"},"display_name":"Булган ᠪᠤᠯᠠᠭᠠᠨ, Монгол улс ᠮᠤᠩᠭᠤᠯ ᠤᠯᠤᠰ","address":{"city":"Булган ᠪᠤᠯᠠᠭᠠᠨ","state":"Булган ᠪᠤᠯᠠᠭᠠᠨ","ISO3166-2-lvl4":"MN-067","country":"Монгол улс ᠮᠤᠩᠭᠤᠯ ᠤᠯᠤᠰ","country_code":"mn"},"population":11320,"osm_type":"node","osm_id":308463710,"type":"city","location":[103.5322785,48.8129203],"bbox":[103.3722785,48.6529203,103.6922785,48.9729203],"border":{"name":"Булган ᠪᠤᠯᠠᠭᠠᠨ","other_names":{"name:ar":"بولجان","name:de":"Bulgan","name:en":"Bulgan","name:es":"Bulgan","name:fa":"بولگان","name:fr":"Bulgan","name:ja":"ボルガン","name:lt":"Bulganas","name:mn":"Булган","name:ru":"Булган","name:zh":"布尔干","name:azb":"بولقان","name:mn-Cyrl":"Булган","name:mn-Mong":"ᠪᠤᠯᠠᠭᠠᠨ","name:zh-Hans":"布尔干","name:zh-Hant":"布爾干","int_name":"Bulgan"},"display_name":"Булган ᠪᠤᠯᠠᠭᠠᠨ, Монгол улс ᠮᠤᠩᠭᠤᠯ ᠤᠯᠤᠰ","address":{"city":"Булган ᠪᠤᠯᠠᠭᠠᠨ","state":"Булган ᠪᠤᠯᠠᠭᠠᠨ","ISO3166-2-lvl4":"MN-067","country":"Монгол улс ᠮᠤᠩᠭᠤᠯ ᠤᠯᠤᠰ","country_code":"mn"},"population":11320,"osm_type":"relation","osm_id":7302596,"type":"administrative","location":[103.5322785,48.8129203],"bbox":[103.4025736,48.7829759,103.5918158,48.9200566]}}
{"name":"Даланзадгад ᠳᠠᠯᠠᠨᠵᠠᠳᠠᠭᠠᠳ","other_names":{"name:ar":"دالانزاغاد","name:en":"Dalanzadgad","name:es":"Dalanzadgad","name:fr":"Dalanzadgad","name:mn":"Даланзадгад","name:ru":"Даланзадгад","name:zh":"达兰扎德嘎德","int_name":"Dalanzadgad","name:mn-Cyrl":"Даланзадгад","name:mn-Mong":"ᠳᠠᠯᠠᠨᠵᠠᠳᠠᠭᠠᠳ","name:mn-mong":"ᠳᠠᠯᠠᠨᠵᠠᠳᠠᠭᠠᠳ","name:zh-Hans":"达兰扎德嘎德","name:zh-Hant":"達蘭扎達嘎德"},"display_name":"Даланзадгад ᠳᠠᠯᠠᠨᠵᠠᠳᠠᠭᠠᠳ, Өмнөговь ᠡᠮᠦᠨᠡᠭᠣᠪᠢ, Монгол улс ᠮᠤᠩᠭᠤᠯ ᠤᠯᠤᠰ","address":{"city":"Даланзадгад ᠳᠠᠯᠠᠨᠵᠠᠳᠠᠭᠠᠳ","state":"Өмнөговь ᠡᠮᠦᠨᠡᠭᠣᠪᠢ","ISO3166-2-lvl4":"MN-053","country":"Монгол улс ᠮᠤᠩᠭᠤᠯ ᠤᠯᠤᠰ","country_code":"mn"},"population":18700,"osm_type":"node","osm_id":297231370,"type":"city","location":[104.4259502,43.5717042],"bbox":[104.2659502,43.4117042,104.5859502,43.7317042],"border":[{"name":"Даланзадгад","other_names":{"name:en":"Dalanzadgad","name:mn":"Даланзадгад","name:ru":"Даланзадгад","int_name":"Dalanzadgad"},"display_name":"Даланзадгад, Өмнөговь ᠡᠮᠦᠨᠡᠭᠣᠪᠢ, Монгол улс ᠮᠤᠩᠭᠤᠯ ᠤᠯᠤᠰ","address":{"city":"Даланзадгад","state":"Өмнөговь ᠡᠮᠦᠨᠡᠭᠣᠪᠢ","ISO3166-2-lvl4":"MN-053","country":"Монгол улс ᠮᠤᠩᠭᠤᠯ ᠤᠯᠤᠰ","country_code":"mn"},"osm_type":"way","osm_id":40001190,"type":"city","location":[104.41499938836827,43.5797625],"bbox":[104.380726,43.5510099,104.4533461,43.6068431]},{"name":"Даланзадгад ᠳᠠᠯᠠᠨᠵᠠᠳᠠᠭᠠᠳ","other_names":{"name:ar":"دالانزاغاد","name:de":"Dalanzadgad","name:en":"Dalanzadgad","name:es":"Dalanzadgad","name:fr":"Dalanzadgad","name:mn":"Даланзадгад","name:ru":"Даланзадгад","name:zh":"达兰扎德嘎德","name:mn-Cyrl":"Даланзадгад","name:mn-Mong":"ᠳᠠᠯᠠᠨᠵᠠᠳᠠᠭᠠᠳ","name:mn-mong":"ᠳᠠᠯᠠᠨᠵᠠᠳᠠᠭᠠᠳ","name:zh-Hans":"达兰扎德嘎德","name:zh-Hant":"達蘭扎達嘎德","int_name":"Dalanzadgad"},"display_name":"Даланзадгад ᠳᠠᠯᠠᠨᠵᠠᠳᠠᠭᠠᠳ, Өмнөговь ᠡᠮᠦᠨᠡᠭᠣᠪᠢ, Монгол улс ᠮᠤᠩᠭᠤᠯ ᠤᠯᠤᠰ","address":{"city":"Даланзадгад ᠳᠠᠯᠠᠨᠵᠠᠳᠠᠭᠠᠳ","state":"Өмнөговь ᠡᠮᠦᠨᠡᠭᠣᠪᠢ","ISO3166-2-lvl4":"MN-053","country":"Монгол улс ᠮᠤᠩᠭᠤᠯ ᠤᠯᠤᠰ","country_code":"mn"},"population":18700,"osm_type":"relation","osm_id":7297546,"type":"administrative","location":[104.4259502,43.5717042],"bbox":[104.3005392,43.453655,104.6769497,43.6557222]}]}
{"name":"Дархан ᠳᠠᠷᠬᠠᠨ","other_names":{"name:af":"Darchan","name:ar":"دارخان","name:az":"Darxan","name:be":"Дархан","name:bg":"Дархан","name:ca":"Darkhan","name:ce":"Дархан","name:cs":"Darchan","name:da":"Darkhan","name:de":"Darchan","name:el":"Νταρχάν","name:en":"Darkhan","name:es":"Darjan","name:et":"Darhan","name:eu":"Darkhan","name:fa":"دارخن","name:fi":"Darhan","name:fr":"Darkhan","name:fy":"Darhan","name:he":"דרחאן","name:hi":"दरख़ान","name:hu":"Darhan","name:hy":"Դարխան","name:it":"Darhan","name:ja":"ダルハン","name:ka":"დარხანი","name:ko":"다르항","name:lt":"Darchanas","name:lv":"Darhana","name:mk":"Дархан","name:mn":"Дархан","name:nb":"Darkhan","name:nl":"Darhan","name:pl":"Darchan","name:pt":"Darhan","name:ru":"Дархан","name:sv":"Darchan","name:th":"ดาร์คาน","name:tr":"Darhan","name:uk":"Дархан","name:ur":"درخان","name:uz":"Darxan","name:vi":"Darkhan","name:zh":"达尔汗","alt_name":"Дархан","int_name":"Дархан","alt_name:ar":"درخان","name:mn-Cyrl":"Дархан","name:mn-Mong":"ᠳᠠᠷᠬᠠᠨ","name:zh-Hans":"达尔汗","name:zh-Hant":"達爾汗"},"display_name":"Дархан ᠳᠠᠷᠬᠠᠨ, Дархан-Уул ᠳᠠᠷᠬᠠᠨ ᠠᠭᠤᠯᠠ, Монгол улс ᠮᠤᠩᠭᠤᠯ ᠤᠯᠤᠰ","address":{"city":"Дархан ᠳᠠᠷᠬᠠᠨ","state":"Дархан-Уул ᠳᠠᠷᠬᠠᠨ ᠠᠭᠤᠯᠠ","ISO3166-2-lvl4":"MN-037","country":"Монгол улс ᠮᠤᠩᠭᠤᠯ ᠤᠯᠤᠰ","country_code":"mn"},"population":74738,"osm_type":"node","osm_id":293932417,"type":"city","location":[105.9361613,49.4922428],"bbox":[105.7761613,49.3322428,106.0961613,49.6522428],"border":{"name":"Дархан ᠳᠠᠷᠬᠠᠨ","other_names":{"name:ar":"دارخان","name:az":"Darxan","name:de":"Darchan","name:en":"Darkhan","name:es":"Darjan","name:fr":"Darkhan","name:ja":"ダルハン","name:lt":"Darchanas","name:mn":"Дархан","name:ru":"Дархан","name:uz":"Darxan","name:zh":"达尔汗","alt_name:ar":"درخان","name:mn-Cyrl":"Дархан","name:mn-Mong":"ᠳᠠᠷᠬᠠᠨ","name:zh-Hans":"达尔汗","name:zh-Hant":"達爾汗","name:af":"Darchan","name:be":"Дархан","name:bg":"Дархан","name:ca":"Darkhan","name:ce":"Дархан","name:cs":"Darchan","name:da":"Darkhan","name:el":"Νταρχάν","name:et":"Darhan","name:eu":"Darkhan","name:fa":"دارخن","name:fi":"Darhan","name:fy":"Darhan","name:he":"דרחאן","name:hi":"दरख़ान","name:hu":"Darhan","name:hy":"Դարխան","name:it":"Darhan","name:ka":"დარხანი","name:ko":"다르항","name:lv":"Darhana","name:mk":"Дархан","name:nb":"Darkhan","name:nl":"Darhan","name:pl":"Darchan","name:pt":"Darhan","name:sv":"Darchan","name:th":"ดาร์คาน","name:tr":"Darhan","name:uk":"Дархан","name:ur":"درخان","name:vi":"Darkhan","alt_name":"Дархан","int_name":"Дархан"},"display_name":"Дархан ᠳᠠᠷᠬᠠᠨ, Дархан-Уул ᠳᠠᠷᠬᠠᠨ ᠠᠭᠤᠯᠠ, Монгол улс ᠮᠤᠩᠭᠤᠯ ᠤᠯᠤᠰ","address":{"city":"Дархан ᠳᠠᠷᠬᠠᠨ","state":"Дархан-Уул ᠳᠠᠷᠬᠠᠨ ᠠᠭᠤᠯᠠ","ISO3166-2-lvl4":"MN-037","country":"Монгол улс ᠮᠤᠩᠭᠤᠯ ᠤᠯᠤᠰ","country_code":"mn"},"population":74738,"osm_type":"relation","osm_id":7302213,"type":"administrative","location":[105.9361613,49.4922428],"bbox":[105.8908677,49.3788585,106.020576,49.5265898]}}
{"name":"Зуунмод ᠵᠠᠭᠤᠨᠮᠣᠳᠤ","other_names":{"name:ar":"زونمود","name:de":"Dsuunmod","name:en":"Zuunmod","name:es":"Zuunmod","name:fa":"زونمود","name:fr":"Zuunmod","name:ja":"ゾーンモド","name:lt":"Zunmodas","name:mn":"Зуунмод","name:ru":"Зуунмод","name:zh":"宗莫德","name:azb":"زونمود","name:mn-Cyrl":"Зуунмод","name:mn-Mong":"ᠵᠠᠭᠤᠨᠮᠣᠳᠤ","name:zh-Hans":"宗莫德","name:zh-Hant":"宗莫德"},"display_name":"Зуунмод ᠵᠠᠭᠤᠨᠮᠣᠳᠤ, Төв ᠲᠥᠪ, Монгол улс ᠮᠤᠩᠭᠤᠯ ᠤᠯᠤᠰ","address":{"city":"Зуунмод ᠵᠠᠭᠤᠨᠮᠣᠳᠤ","county":"Зуунмод ᠵᠠᠭᠤᠨᠮᠣᠳᠤ","state":"Төв ᠲᠥᠪ","ISO3166-2-lvl4":"MN-047","country":"Монгол улс ᠮᠤᠩᠭᠤᠯ ᠤᠯᠤᠰ","country_code":"mn"},"population":13330,"osm_type":"node","osm_id":385713356,"type":"city","location":[106.9544868,47.7082682],"bbox":[106.7944868,47.5482682,107.1144868,47.8682682],"border":[{"name":"Зуунмод","other_names":{"name:de":"Dsuunmod","name:en":"Zuunmod","name:ja":"ゾーンモド","name:lt":"Zunmodas","name:mn":"Зуунмод","name:ru":"Зуунмод"},"display_name":"Зуунмод, Зуунмод ᠵᠠᠭᠤᠨᠮᠣᠳᠤ, Төв ᠲᠥᠪ, Монгол улс ᠮᠤᠩᠭᠤᠯ ᠤᠯᠤᠰ","address":{"city":"Зуунмод","county":"Зуунмод ᠵᠠᠭᠤᠨᠮᠣᠳᠤ","state":"Төв ᠲᠥᠪ","ISO3166-2-lvl4":"MN-047","country":"Монгол улс ᠮᠤᠩᠭᠤᠯ ᠤᠯᠤᠰ","country_code":"mn"},"osm_type":"way","osm_id":62113194,"type":"city","location":[106.95614419924442,47.703289049999995],"bbox":[106.9360258,47.6820221,107.0077481,47.723846]},{"name":"Зуунмод ᠵᠠᠭᠤᠨᠮᠣᠳᠤ","other_names":{"name:ar":"زونمود","name:de":"Dsuunmod","name:en":"Zuunmod","name:es":"Zuunmod","name:fa":"زونمود","name:fr":"Zuunmod","name:ja":"ゾーンモド","name:lt":"Zunmodas","name:mn":"Зуунмод","name:ru":"Зуунмод","name:zh":"宗莫德","name:azb":"زونمود","name:mn-Cyrl":"Зуунмод","name:mn-Mong":"ᠵᠠᠭᠤᠨᠮᠣᠳᠤ","name:zh-Hans":"宗莫德","name:zh-Hant":"宗莫德"},"display_name":"Зуунмод ᠵᠠᠭᠤᠨᠮᠣᠳᠤ, Төв ᠲᠥᠪ, Монгол улс ᠮᠤᠩᠭᠤᠯ ᠤᠯᠤᠰ","address":{"county":"Зуунмод ᠵᠠᠭᠤᠨᠮᠣᠳᠤ","state":"Төв ᠲᠥᠪ","ISO3166-2-lvl4":"MN-047","country":"Монгол улс ᠮᠤᠩᠭᠤᠯ ᠤᠯᠤᠰ","country_code":"mn"},"osm_type":"relation","osm_id":7302453,"type":"administrative","location":[106.946198112338,47.7013708],"bbox":[106.9158471,47.6777652,106.9755253,47.7283611]}]}
{"name":"Мандалговь ᠮᠠᠨᠳᠠᠯᠭᠣᠪᠢ","other_names":{"name:ar":"ماندالغوفي","name:de":"Mandalgobi","name:en":"Mandalgobi","name:es":"Mandalgobi","name:fr":"Mandalgovi","name:it":"Mandalgov'","name:ja":"マンダルゴビ","name:lt":"Mandalgobis","name:mn":"Мандалговь","name:ru":"Мандалгоби","name:zh":"曼达勒戈壁","int_name":"Mandalgovi","name:mn-Cyrl":"Мандалговь","name:mn-Mong":"ᠮᠠᠨᠳᠠᠯᠭᠣᠪᠢ","name:zh-Hans":"曼达勒戈壁","name:zh-Hant":"曼達勒戈壁"},"display_name":"Мандалговь ᠮᠠᠨᠳᠠᠯᠭᠣᠪᠢ, Мандалговь, Сайнцагаан ᠰᠠᠶᠢᠩ ᠴᠠᠭᠠᠨ, Дундговь ᠳᠤᠮᠳᠠᠭᠣᠪᠢ, 48000, Монгол улс ᠮᠤᠩᠭᠤᠯ ᠤᠯᠤᠰ","address":{"city":"Мандалговь ᠮᠠᠨᠳᠠᠯᠭᠣᠪᠢ","county":"Сайнцагаан ᠰᠠᠶᠢᠩ ᠴᠠᠭᠠᠨ","state":"Дундговь ᠳᠤᠮᠳᠠᠭᠣᠪᠢ","ISO3166-2-lvl4":"MN-059","postcode":"48000","country":"Монгол улс ᠮᠤᠩᠭᠤᠯ ᠤᠯᠤᠰ","country_code":"mn"},"population":10888,"osm_type":"node","osm_id":297275817,"type":"city","location":[106.2704145,45.7630435],"bbox":[106.1104145,45.6030435,106.4304145,45.9230435],"border":{"name":"Мандалговь","other_names":{"name:en":"Mandalgovi","name:ja":"マンダルゴビ","name:mn":"Мандалговь","name:ru":"Мандалгоби","name:zh":"曼达勒戈壁市","name:ar":"ماندالغوفي","name:de":"Mandalgobi","name:es":"Mandalgobi","name:fr":"Mandalgovi","name:it":"Mandalgov'","name:lt":"Mandalgobis","int_name":"Mandalgovi","name:mn-Cyrl":"Мандалговь","name:mn-Mong":"ᠮᠠᠨᠳᠠᠯᠭᠣᠪᠢ","name:zh-Hans":"曼达勒戈壁","name:zh-Hant":"曼達勒戈壁","alt":"Мандалговь ᠮᠠᠨᠳᠠᠯᠭᠣᠪᠢ","alt:en":"Mandalgobi","alt:zh":"曼达勒戈壁"},"display_name":"Мандалговь, Сайнцагаан ᠰᠠᠶᠢᠩ ᠴᠠᠭᠠᠨ, Дундговь ᠳᠤᠮᠳᠠᠭᠣᠪᠢ, 48000, Монгол улс ᠮᠤᠩᠭᠤᠯ ᠤᠯᠤᠰ","address":{"city":"Мандалговь","county":"Сайнцагаан ᠰᠠᠶᠢᠩ ᠴᠠᠭᠠᠨ","state":"Дундговь ᠳᠤᠮᠳᠠᠭᠣᠪᠢ","ISO3166-2-lvl4":"MN-059","postcode":"48000","country":"Монгол улс ᠮᠤᠩᠭᠤᠯ ᠤᠯᠤᠰ","country_code":"mn"},"population":10888,"osm_type":"way","osm_id":372833721,"type":"city","location":[106.2704145,45.7630435],"bbox":[106.2287807,45.745343,106.3075596,45.786381]}}
{"name":"Мөрөн ᠮᠥᠷᠡᠨ","other_names":{"name:be":"Мурэн","name:bg":"Мьорьон","name:ca":"Mörön","name:cs":"Mörön","name:de":"Mörön","name:en":"Murun","name:es":"Mörön","name:et":"Mörön","name:eu":"Moron","name:fa":"مورون","name:fi":"Mörön","name:fr":"Mörön","name:ga":"Mörön","name:he":"מורון","name:hi":"मोरोन","name:hu":"Mörön","name:hy":"Մուրէն","name:it":"Môrôn","name:ja":"モロン","name:ka":"მურენი","name:ko":"무룽","name:lt":"Murenas","name:mk":"Морон","name:mn":"Мөрөн","name:nl":"Mörön","name:pl":"Mörön","name:pt":"Mörön","name:ru":"Мурэн","name:sv":"Mörön","name:tr":"Mörön","name:uk":"Мурен","name:ur":"مورون","name:vi":"Mörön","name:zh":"木伦市","int_name":"Murun","name:ceb":"Murun-kuren","name:dsb":"Mörön","name:mzn":"مورون","name:nan":"Mörön","name:war":"Mörön","alt_name:en":"Mörön","alt_name:ja":"ムルン","name:mn-Cyrl":"Мөрөн","name:mn-Mong":"ᠮᠥᠷᠡᠨ","name:zh-Hans":"木伦市","name:zh-Hant":"木倫"},"display_name":"Мөрөн ᠮᠥᠷᠡᠨ, Хөвсгөл ᠬᠥᠪᠰᠦᠭᠦᠯ, Монгол улс ᠮᠤᠩᠭᠤᠯ ᠤᠯᠤᠰ","address":{"city":"Мөрөн ᠮᠥᠷᠡᠨ","state":"Хөвсгөл ᠬᠥᠪᠰᠦᠭᠦᠯ","ISO3166-2-lvl4":"MN-041","country":"Монгол улс ᠮᠤᠩᠭᠤᠯ ᠤᠯᠤᠰ","country_code":"mn"},"population":35789,"osm_type":"node","osm_id":1984004255,"type":"city","location":[100.1745571,49.6284811],"bbox":[100.0145571,49.4684811,100.3345571,49.7884811],"border":[{"name":"Мөрөн","other_names":{"name:de":"Mörön","name:en":"Murun","name:es":"Mörön","name:fr":"Mörön","name:ja":"モロン","name:ko":"무룽","name:lt":"Murenas","name:mn":"Мөрөн","name:ru":"Мурэн","name:uk":"Мурен","alt_name:en":"Mörön"},"display_name":"Мөрөн, Хөвсгөл ᠬᠥᠪᠰᠦᠭᠦᠯ, Монгол улс ᠮᠤᠩᠭᠤᠯ ᠤᠯᠤᠰ","address":{"city":"Мөрөн","state":"Хөвсгөл ᠬᠥᠪᠰᠦᠭᠦᠯ","ISO3166-2-lvl4":"MN-041","country":"Монгол улс ᠮᠤᠩᠭᠤᠯ ᠤᠯᠤᠰ","country_code":"mn"},"population":35789,"osm_type":"way","osm_id":187789427,"type":"city","location":[100.17002325371931,49.63197975],"bbox":[100.1283613,49.6086869,100.2258389,49.6570039]},{"name":"Мөрөн ᠮᠥᠷᠡᠨ","other_names":{"name:be":"Мурэн","name:bg":"Мьорьон","name:ca":"Mörön","name:cs":"Mörön","name:de":"Mörön","name:en":"Murun","name:es":"Mörön","name:et":"Mörön","name:eu":"Moron","name:fa":"مورون","name:fi":"Mörön","name:fr":"Mörön","name:ga":"Mörön","name:he":"מורון","name:hi":"मोरोन","name:hu":"Mörön","name:hy":"Մուրէն","name:it":"Môrôn","name:ja":"モロン","name:ka":"მურენი","name:ko":"무룽","name:lt":"Murenas","name:mk":"Морон","name:mn":"Мөрөн","name:nl":"Mörön","name:pl":"Mörön","name:pt":"Mörön","name:ru":"Мурэн","name:sv":"Mörön","name:tr":"Mörön","name:uk":"Мурен","name:ur":"مورون","name:vi":"Mörön","name:zh":"木伦","int_name":"Murun","name:ceb":"Murun-kuren","name:dsb":"Mörön","name:mzn":"مورون","name:nan":"Mörön","name:war":"Mörön","alt_name:en":"Mörön","alt_name:ja":"ムルン","name:mn-Cyrl":"Мөрөн","name:mn-Mong":"ᠮᠥᠷᠡᠨ","name:zh-Hans":"木伦","name:zh-Hant":"木倫","alt:zh":"木伦市","alt:zh-Hans":"木伦市"},"display_name":"Мөрөн ᠮᠥᠷᠡᠨ, Хөвсгөл ᠬᠥᠪᠰᠦᠭᠦᠯ, Монгол улс ᠮᠤᠩᠭᠤᠯ ᠤᠯᠤᠰ","address":{"city":"Мөрөн ᠮᠥᠷᠡᠨ","state":"Хөвсгөл ᠬᠥᠪᠰᠦᠭᠦᠯ","ISO3166-2-lvl4":"MN-041","country":"Монгол улс ᠮᠤᠩᠭᠤᠯ ᠤᠯᠤᠰ","country_code":"mn"},"population":35789,"osm_type":"relation","osm_id":7305539,"type":"administrative","location":[100.1745571,49.6284811],"bbox":[100.0787532,49.5915044,100.3389907,49.7330366]}]}
{"name":"Налайх ᠨᠠᠯᠠᠶᠢᠬᠤ","other_names":{"name:de":"Nalaich","name:en":"Nalaikh","name:fa":"نالایخ","name:he":"נאלאיח","name:ja":"ナライフ","name:mn":"Налайх","name:ru":"Налайх","name:zh":"纳来哈","int_name":"Налайх","name:mn-Cyrl":"Налайх","name:mn-Mong":"ᠨᠠᠯᠠᠶᠢᠬᠤ"},"display_name":"Налайх ᠨᠠᠯᠠᠶᠢᠬᠤ, Налайх, Монгол улс ᠮᠤᠩᠭᠤᠯ ᠤᠯᠤᠰ","address":{"city":"Налайх ᠨᠠᠯᠠᠶᠢᠬᠤ","country":"Монгол улс ᠮᠤᠩᠭᠤᠯ ᠤᠯᠤᠰ","country_code":"mn"},"population":30049,"osm_type":"node","osm_id":293940162,"type":"city","location":[107.2511905,47.7711646],"bbox":[107.0911905,47.6111646,107.4111905,47.9311646],"border":{"name":"Налайх ᠨᠠᠯᠠᠶᠢᠬᠤ","other_names":{"name:de":"Nalaich","name:en":"Nalaikh","name:fa":"نالایخ","name:he":"נאלאיח","name:ja":"ナライフ","name:mn":"Налайх","name:ru":"Налайх","name:mn-Cyrl":"Налайх","name:mn-Mong":"ᠨᠠᠯᠠᠶᠢᠬᠤ"},"display_name":"Налайх ᠨᠠᠯᠠᠶᠢᠬᠤ, Улаанбаатар ᠤᠯᠠᠭᠠᠨᠪᠠᠭᠠᠲᠤᠷ, 12770, Монгол улс ᠮᠤᠩᠭᠤᠯ ᠤᠯᠤᠰ","address":{"city_district":"Налайх ᠨᠠᠯᠠᠶᠢᠬᠤ","city":"Улаанбаатар ᠤᠯᠠᠭᠠᠨᠪᠠᠭᠠᠲᠤᠷ","ISO3166-2-lvl4":"MN-1","postcode":"12770","country":"Монгол улс ᠮᠤᠩᠭᠤᠯ ᠤᠯᠤᠰ","country_code":"mn"},"osm_type":"relation","osm_id":14669142,"type":"administrative","location":[107.42843269065685,47.822243],"bbox":[107.217627,47.646258,107.62131,48.000354]}}
{"name":"Өлгий ᠥᠯᠦᠭᠡᠢ","other_names":{"name:ar":"أولجي","name:de":"Ölgii","name:en":"Ölgii","name:fr":"Ölgii","name:ja":"ウルギー","name:kk":"Өлке","name:mn":"Өлгий","name:pl":"Ulgiy","name:ru":"Улгий","name:uk":"Улґий","name:zh":"乌列盖","alt_name":"Ulgii","int_name":"Ulgii","old_name:ru":"Улэгэй","name:kk-Arab":"ولكە‎","name:kk-Cyrl":"Өлке","name:kk-Latn":"Ölke","name:mn-Cyrl":"Өлгий","name:mn-Mong":"ᠥᠯᠦᠭᠡᠢ","name:zh-Hans":"乌列盖","name:zh-Hant":"烏列蓋"},"display_name":"Өлгий ᠥᠯᠦᠭᠡᠢ, Өлгий, Өлгий ᠥᠯᠦᠭᠡᠢ, Баян-Өлгий ᠪᠠᠶ᠋ᠠᠨ ᠥᠯᠦᠭᠡᠢ, 83120, Монгол улс ᠮᠤᠩᠭᠤᠯ ᠤᠯᠤᠰ","address":{"city":"Өлгий ᠥᠯᠦᠭᠡᠢ","county":"Өлгий ᠥᠯᠦᠭᠡᠢ","state":"Баян-Өлгий ᠪᠠᠶ᠋ᠠᠨ ᠥᠯᠦᠭᠡᠢ","ISO3166-2-lvl4":"MN-071","postcode":"83120","country":"Монгол улс ᠮᠤᠩᠭᠤᠯ ᠤᠯᠤᠰ","country_code":"mn"},"osm_type":"node","osm_id":293911735,"type":"city","location":[89.9621031,48.968159],"bbox":[89.8021031,48.808159,90.1221031,49.128159],"border":[{"name":"Өлгий","other_names":{"name:mn":"Өлгий","name:ar":"أولجي","name:de":"Ölgii","name:en":"Ölgii","name:fr":"Ölgii","name:ja":"ウルギー","name:kk":"Өлке","name:pl":"Ulgiy","name:ru":"Улгий","name:uk":"Улґий","name:zh":"乌列盖","alt_name":"Ulgii","int_name":"Ulgii","old_name:ru":"Улэгэй","name:kk-Arab":"ولكە‎","name:kk-Cyrl":"Өлке","name:kk-Latn":"Ölke","name:mn-Cyrl":"Өлгий","name:mn-Mong":"ᠥᠯᠦᠭᠡᠢ","name:zh-Hans":"乌列盖","name:zh-Hant":"烏列蓋","alt":"Өлгий ᠥᠯᠦᠭᠡᠢ"},"display_name":"Өлгий, Өлгий ᠥᠯᠦᠭᠡᠢ, Баян-Өлгий ᠪᠠᠶ᠋ᠠᠨ ᠥᠯᠦᠭᠡᠢ, 83120, Монгол улс ᠮᠤᠩᠭᠤᠯ ᠤᠯᠤᠰ","address":{"city":"Өлгий","county":"Өлгий ᠥᠯᠦᠭᠡᠢ","state":"Баян-Өлгий ᠪᠠᠶ᠋ᠠᠨ ᠥᠯᠦᠭᠡᠢ","ISO3166-2-lvl4":"MN-071","postcode":"83120","country":"Монгол улс ᠮᠤᠩᠭᠤᠯ ᠤᠯᠤᠰ","country_code":"mn"},"population":29392,"osm_type":"relation","osm_id":14489586,"type":"city","location":[89.9621031,48.968159],"bbox":[89.912161,48.9373657,89.9976081,48.9997451]},{"name":"Өлгий ᠥᠯᠦᠭᠡᠢ","other_names":{"name:ar":"أولجي","name:de":"Ölgii","name:en":"Ölgii","name:fr":"Ölgii","name:ja":"ウルギー","name:kk":"Өлке","name:mn":"Өлгий","name:pl":"Ulgiy","name:ru":"Улгий","name:uk":"Улґий","name:zh":"乌列盖","alt_name":"Ulgii","int_name":"Ulgii","old_name:ru":"Улэгэй","name:kk-Arab":"ولكە‎","name:kk-Cyrl":"Өлке","name:kk-Latn":"Ölke","name:mn-Cyrl":"Өлгий","name:mn-Mong":"ᠥᠯᠦᠭᠡᠢ","name:zh-Hans":"乌列盖","name:zh-Hant":"烏列蓋"},"display_name":"Өлгий ᠥᠯᠦᠭᠡᠢ, Баян-Өлгий ᠪᠠᠶ᠋ᠠᠨ ᠥᠯᠦᠭᠡᠢ, Монгол улс ᠮᠤᠩᠭᠤᠯ ᠤᠯᠤᠰ","address":{"county":"Өлгий ᠥᠯᠦᠭᠡᠢ","state":"Баян-Өлгий ᠪᠠᠶ᠋ᠠᠨ ᠥᠯᠦᠭᠡᠢ","ISO3166-2-lvl4":"MN-071","country":"Монгол улс ᠮᠤᠩᠭᠤᠯ ᠤᠯᠤᠰ","country_code":"mn"},"osm_type":"relation","osm_id":7305006,"type":"administrative","location":[89.9084129540775,48.9860113],"bbox":[89.8223314,48.9160304,90.004071,49.0407359]}]}
{"name":"Өндөрхаан ᠥᠨᠳᠦᠷᠬᠠᠨ","other_names":{"name:ar":"أوندورخان","name:de":"Enderkhaan","name:en":"Öndörkhaan","name:es":"Enderkhaan","name:fr":"Öndörkhaan","name:it":"Ôndôrhaan","name:ja":"ウンドゥルハーン","name:lt":"Underchanas","name:mn":"Чингис хот","name:pl":"Enderkhaan","name:pt":"Enderkhaan","name:ru":"Ундэрхаан","name:zh":"成吉思市","int_name":"Undurkhaan","alt_name:en":"Undurkhaan","alt_name:lt":"Undur Chanas","old_name:ru":"Ундерхан","name:mn-Cyrl":"Өндөрхаан","name:mn-Mong":"ᠥᠨᠳᠦᠷᠬᠠᠨ","name:zh-Hans":"成吉思市","name:zh-Hant":"成吉思市"},"display_name":"Өндөрхаан ᠥᠨᠳᠦᠷᠬᠠᠨ, Хэрлэн ᠬᠡᠷᠦᠯᠦᠨ, Хэнтий ᠬᠡᠨᠲᠡᠢ, 93110, Монгол улс ᠮᠤᠩᠭᠤᠯ ᠤᠯᠤᠰ","address":{"city":"Өндөрхаан ᠥᠨᠳᠦᠷᠬᠠᠨ","county":"Хэрлэн ᠬᠡᠷᠦᠯᠦᠨ","state":"Хэнтий ᠬᠡᠨᠲᠡᠢ","ISO3166-2-lvl4":"MN-039","postcode":"93110","country":"Монгол улс ᠮᠤᠩᠭᠤᠯ ᠤᠯᠤᠰ","country_code":"mn"},"population":18140,"osm_type":"node","osm_id":297576607,"type":"city","location":[110.6649133,47.3256114],"bbox":[110.5049133,47.1656114,110.8249133,47.4856114],"border":{"name":"Өндөрхаан","other_names":{"name:en":"Enderkhaan","name:ja":"ウンドゥルハーン","name:mn":"Өндөрхаан","name:ru":"Ундэрхаан"},"display_name":"Өндөрхаан, Хэрлэн ᠬᠡᠷᠦᠯᠦᠨ, Хэнтий ᠬᠡᠨᠲᠡᠢ, Монгол улс ᠮᠤᠩᠭᠤᠯ ᠤᠯᠤᠰ","address":{"city":"Өндөрхаан","county":"Хэрлэн ᠬᠡᠷᠦᠯᠦᠨ","state":"Хэнтий ᠬᠡᠨᠲᠡᠢ","ISO3166-2-lvl4":"MN-039","country":"Монгол улс ᠮᠤᠩᠭᠤᠯ ᠤᠯᠤᠰ","country_code":"mn"},"osm_type":"way","osm_id":61164211,"type":"city","location":[110.66562422755615,47.329063250000004],"bbox":[110.6271895,47.3080346,110.6908345,47.3489844]}}
{"name":"Сайншанд ᠰᠠᠶᠢᠨᠱᠠᠩᠳᠠ","other_names":{"name:ar":"سينشند","name:de":"Sainschand","name:en":"Sainshand","name:es":"Sainshand","name:fr":"Sainshand","name:ja":"サインシャンド","name:lt":"Sainšandas","name:mn":"»","name:ru":"Сайншанд","name:zh":"赛音山达","alt_name":"Saynshand","int_name":"Sainshand","name:mn-Cyrl":"Сайншанд","name:mn-mong":"ᠰᠠᠶᠢᠨᠱᠠᠩᠳᠠ","name:zh-Hans":"赛音山达","name:zh-Hant":"賽音山達"},"display_name":"Сайншанд ᠰᠠᠶᠢᠨᠱᠠᠩᠳᠠ, Дорноговь ᠳᠣᠷᠤᠨᠠᠭᠣᠪᠢ, Монгол улс ᠮᠤᠩᠭᠤᠯ ᠤᠯᠤᠰ","address":{"city":"Сайншанд ᠰᠠᠶᠢᠨᠱᠠᠩᠳᠠ","state":"Дорноговь ᠳᠣᠷᠤᠨᠠᠭᠣᠪᠢ","ISO3166-2-lvl4":"MN-063","country":"Монгол улс ᠮᠤᠩᠭᠤᠯ ᠤᠯᠤᠰ","country_code":"mn"},"population":19891,"osm_type":"node","osm_id":293971740,"type":"city","location":[110.1431263,44.8883913],"bbox":[109.9831263,44.7283913,110.3031263,45.0483913],"border":[{"name":"Сайншанд","other_names":{"name:ar":"سينشند","name:de":"Sainschand","name:en":"Sainshand","name:es":"Sainshand","name:fr":"Sainshand","name:ja":"サインシャンド","name:lt":"Sainšandas","name:mn":"Сайншанд","name:ru":"Сайншанд","name:zh":"赛音山达","alt_name":"Saynshand","int_name":"Sainshand","name:mn-mong":"ᠳᠠᠯᠠᠨᠵᠠᠳᠠᠭᠠᠳ","name:zh-Hant":"賽音山達"},"display_name":"Сайншанд, Дорноговь ᠳᠣᠷᠤᠨᠠᠭᠣᠪᠢ, Монгол улс ᠮᠤᠩᠭᠤᠯ ᠤᠯᠤᠰ","address":{"city":"Сайншанд","state":"Дорноговь ᠳᠣᠷᠤᠨᠠᠭᠣᠪᠢ","ISO3166-2-lvl4":"MN-063","country":"Монгол улс ᠮᠤᠩᠭᠤᠯ ᠤᠯᠤᠰ","country_code":"mn"},"osm_type":"way","osm_id":187786824,"type":"city","location":[110.13828703919984,44.89800305],"bbox":[110.1043792,44.8712687,110.1673349,44.9241901]},{"name":"Сайншанд ᠰᠠᠶᠢᠨᠱᠠᠩᠳᠠ","other_names":{"name:ar":"سينشند","name:de":"Sainschand","name:en":"Sainshand","name:es":"Sainshand","name:fr":"Sainshand","name:ja":"サインシャンド","name:lt":"Sainšandas","name:mn":"Сайншанд","name:ru":"Сайншанд","name:zh":"赛音山达","name:mn-Cyrl":"Сайншанд","name:mn-mong":"ᠰᠠᠶᠢᠨᠱᠠᠩᠳᠠ","name:zh-Hans":"赛音山达","name:zh-Hant":"賽音山達","alt_name":"Saynshand","int_name":"Sainshand","alt:mn":"»"},"display_name":"Сайншанд ᠰᠠᠶᠢᠨᠱᠠᠩᠳᠠ, Дорноговь ᠳᠣᠷᠤᠨᠠᠭᠣᠪᠢ, Монгол улс ᠮᠤᠩᠭᠤᠯ ᠤᠯᠤᠰ","address":{"city":"Сайншанд ᠰᠠᠶᠢᠨᠱᠠᠩᠳᠠ","state":"Дорноговь ᠳᠣᠷᠤᠨᠠᠭᠣᠪᠢ","ISO3166-2-lvl4":"MN-063","country":"Монгол улс ᠮᠤᠩᠭᠤᠯ ᠤᠯᠤᠰ","country_code":"mn"},"population":19891,"osm_type":"relation","osm_id":7304609,"type":"administrative","location":[110.1431263,44.8883913],"bbox":[109.4688812,44.290983,110.234972,45.0693763]}]}
{"name":"Сүхбаатар ᠰᠦᠬᠡᠪᠠᠭᠠᠲᠤᠷ","other_names":{"name:de":"Süchbaatar","name:en":"Sukhbaatar","name:es":"Sujbaatar","name:fr":"Sükhbaatar","name:ja":"スフバータル","name:ko":"수흐바타르","name:lt":"Suche Batoras","name:mn":"Сүхбаатар","name:ru":"Сухэ-Батор","name:zh":"苏赫巴托尔","int_name":"Сүхбаатар","name:mn-Cyrl":"Сүхбаатар","name:mn-Mong":"ᠰᠦᠬᠡᠪᠠᠭᠠᠲᠤᠷ","name:zh-Hans":"苏赫巴托尔","name:zh-Hant":"蘇赫巴托爾"},"display_name":"Сүхбаатар ᠰᠦᠬᠡᠪᠠᠭᠠᠲᠤᠷ, Сүхбаатар, Сүхбаатар ᠰᠦᠬᠡᠪᠠᠭᠠᠲᠤᠷ, Сэлэнгэ ᠰᠡᠯᠡᠩᠭᠡ, Монгол улс ᠮᠤᠩᠭᠤᠯ ᠤᠯᠤᠰ","address":{"city":"Сүхбаатар ᠰᠦᠬᠡᠪᠠᠭᠠᠲᠤᠷ","county":"Сүхбаатар ᠰᠦᠬᠡᠪᠠᠭᠠᠲᠤᠷ","state":"Сэлэнгэ ᠰᠡᠯᠡᠩᠭᠡ","ISO3166-2-lvl4":"MN-049","country":"Монгол улс ᠮᠤᠩᠭᠤᠯ ᠤᠯᠤᠰ","country_code":"mn"},"population":19662,"osm_type":"node","osm_id":293460811,"type":"city","location":[106.2094944,50.2358909],"bbox":[106.0494944,50.0758909,106.3694944,50.3958909],"border":[{"name":"Сүхбаатар","other_names":{"name:en":"Sükhbaatar","name:mn":"Сүхбаатар","name:ru":"Сухэ-Батор","name:de":"Süchbaatar","name:es":"Sujbaatar","name:fr":"Sükhbaatar","name:ja":"スフバータル","name:ko":"수흐바타르","name:lt":"Suche Batoras","name:zh":"苏赫巴托尔","int_name":"Сүхбаатар","name:mn-Cyrl":"Сүхбаатар","name:mn-Mong":"ᠰᠦᠬᠡᠪᠠᠭᠠᠲᠤᠷ","name:zh-Hans":"苏赫巴托尔","name:zh-Hant":"蘇赫巴托爾","alt":"Сүхбаатар ᠰᠦᠬᠡᠪᠠᠭᠠᠲᠤᠷ","alt:en":"Sukhbaatar"},"display_name":"Сүхбаатар, Сүхбаатар ᠰᠦᠬᠡᠪᠠᠭᠠᠲᠤᠷ, Сэлэнгэ ᠰᠡᠯᠡᠩᠭᠡ, Монгол улс ᠮᠤᠩᠭᠤᠯ ᠤᠯᠤᠰ","address":{"city":"Сүхбаатар","county":"Сүхбаатар ᠰᠦᠬᠡᠪᠠᠭᠠᠲᠤᠷ","state":"Сэлэнгэ ᠰᠡᠯᠡᠩᠭᠡ","ISO3166-2-lvl4":"MN-049","country":"Монгол улс ᠮᠤᠩᠭᠤᠯ ᠤᠯᠤᠰ","country_code":"mn"},"population":19662,"osm_type":"way","osm_id":41700355,"type":"city","location":[106.2094944,50.2358909],"bbox":[106.1728318,50.2233403,106.2464343,50.2533362]},{"name":"Сүхбаатар ᠰᠦᠬᠡᠪᠠᠭᠠᠲᠤᠷ","other_names":{"name:de":"Süchbaatar","name:en":"Sukhbaatar","name:es":"Sujbaatar","name:fr":"Sükhbaatar","name:ja":"スフバータル","name:ko":"수흐바타르","name:lt":"Suche Batoras","name:mn":"Сүхбаатар","name:ru":"Сухэ-Батор","name:zh":"苏赫巴托尔","name:mn-Cyrl":"Сүхбаатар","name:mn-Mong":"ᠰᠦᠬᠡᠪᠠᠭᠠᠲᠤᠷ","name:zh-Hans":"苏赫巴托尔","name:zh-Hant":"蘇赫巴托爾"},"display_name":"Сүхбаатар ᠰᠦᠬᠡᠪᠠᠭᠠᠲᠤᠷ, Сэлэнгэ ᠰᠡᠯᠡᠩᠭᠡ, Монгол улс ᠮᠤᠩᠭᠤᠯ ᠤᠯᠤᠰ","address":{"county":"Сүхбаатар ᠰᠦᠬᠡᠪᠠᠭᠠᠲᠤᠷ","state":"Сэлэнгэ ᠰᠡᠯᠡᠩᠭᠡ","ISO3166-2-lvl4":"MN-049","country":"Монгол улс ᠮᠤᠩᠭᠤᠯ ᠤᠯᠤᠰ","country_code":"mn"},"osm_type":"relation","osm_id":16031519,"type":"administrative","location":[106.22639446475068,50.22670075],"bbox":[106.1370917,50.1845003,106.2732011,50.2673091]}]}
{"name":"Улаанбаатар ᠤᠯᠠᠭᠠᠨᠪᠠᠭᠠᠲᠤᠷ","other_names":{"name:af":"Ulaanbaatar","name:am":"ኡላዓን ባዓታር","name:an":"Ulán Bator","name:ar":"أولان باتور","name:az":"Ulan-Bator","name:ba":"Улан-Батор","name:be":"Улан-Батар","name:bg":"Улан Батор","name:bn":"উলানবাটর","name:bo":"ཝུ་ལན་བ་ཐུར","name:br":"Ulaanbaatar","name:bs":"Ulan Bator","name:ca":"Ulan Bator","name:ce":"Улан-Батор","name:cs":"Ulánbátar","name:cu":"Оуланбатаръ","name:cv":"Улан Батор","name:cy":"Ulan Bator","name:da":"Ulan Bator","name:de":"Ulan Bator","name:el":"Ουλάν Μπατόρ","name:en":"Ulaanbaatar","name:eo":"Ulaanbaataro","name:es":"Ulán Bator","name:et":"Ulaanbaatar","name:eu":"Ulan Bator","name:fa":"اولان‌باتور","name:fi":"Ulaanbaatar","name:fr":"Oulan-Bator","name:fy":"Ulaanbaatar","name:ga":"Ulánbátar","name:gd":"Ulan Bator","name:gl":"Ulán Bátor","name:ha":"Ulan Bato","name:he":"אולן בטור","name:hi":"उलान बतोर","name:hr":"Ulan Bator","name:ht":"Oulan-Batò","name:hu":"Ulánbátor","name:hy":"Ուլան Բատոր","name:ia":"Ulan Bator","name:id":"Ulan Bator","name:ie":"Ulan-Bator","name:io":"Ulan Bator","name:is":"Úlan Bator","name:it":"Ulan Bator","name:ja":"ウランバートル","name:jv":"Ulaanbaatar","name:ka":"ულან-ბატორი","name:kk":"Ұланбатыр","name:kl":"Ulan Bator","name:km":"អ៊ូលេនបាធរ","name:kn":"ಉಲಾನ್ ಬತೊರ್","name:ko":"울란바토르","name:kv":"Улан-Батор","name:kw":"Ulaanbaatar","name:ky":"Улан-Баатыр","name:la":"Urga","name:lb":"Ulan Bator","name:lo":"ອູລານບາຕາ","name:lt":"Ulan Batoras","name:lv":"Ulanbatora","name:mg":"Ulan Bator","name:mk":"Улан Батор","name:ml":"ഉലാൻബാതാർ","name:mn":"Улаанбаатар","name:mr":"उलानबातर","name:ms":"Ulan Bator","name:my":"ဦလန်ဘာတာမြို့","name:nb":"Ulan Bator","name:ne":"उलानबटोर","name:nl":"Ulaanbaatar","name:nn":"Ulan Bator","name:no":"Ulan Bator","name:oc":"Ulaan Baatar","name:os":"Улан-Батор","name:pa":"ਉਲਾਨ ਬਤੋਰ","name:pl":"Ułan Bator","name:ps":"اولان باتور","name:pt":"Ulan Bator","name:ro":"Ulaanbaatar","name:ru":"Улан-Батор","name:sc":"Ulan Bator","name:sd":"الان باتر","name:sk":"Ulanbátar","name:sl":"Ulan Bator","name:sn":"Ulaanbaatar","name:so":"Ulan Bator","name:sq":"Ulan Bator","name:sr":"Улан Батор","name:sv":"Ulaanbaatar","name:sw":"Ulaanbaatar","name:ta":"ஊலான் பாடோர்","name:tg":"Улан-Батор","name:th":"อูลานบาตอร์","name:tl":"Ulan Bator","name:tr":"Ulan Batur","name:tt":"Ulan Bator","name:ug":"Ulanbatur","name:uk":"Улан-Батор","name:ur":"اولان‌ باتور","name:uz":"Ulan-Bator","name:vi":"Ulaanbaatar","name:vo":"Ulaanbaatar","name:yi":"אולאן באטאר","name:yo":"Ulan Bator","name:za":"Ulan Bator","name:zh":"乌兰巴托","int_name":"Ulaanbaatar","name:azb":"اولان‌باتور","name:bxr":"Улаан-Баатар","name:ckb":"ئولانباتۆر","name:diq":"Ulan Bator","name:hif":"Ulan Bator","name:kab":"Ulan Batur","name:lmo":"Ulan Bator","name:mhr":"Улан-Батор","name:myv":"Улан-Батор ош","name:mzn":"اولانباتار","name:pap":"Ulan Bator","name:sah":"Улаанбаатар","name:scn":"Ulan Bator","name:sco":"Ulan Bator","name:xal":"Улан Баатр","name:yue":"烏蘭巴托","old_name":"Урга;Хүрээ ᠬᠦᠷᠢᠶᠡᠨ;Нийслэл хүрээ ᠨᠡᠶᠢᠰᠯᠡᠯ ᠬᠦᠷᠢᠶᠡᠨ;Их хүрээ ᠶᠡᠬᠡ ᠬᠦᠷᠢᠶᠡᠨ;Номын хүрээ ᠨᠣᠮ ‍ᠤᠨ ᠬᠦᠷᠢᠶᠡᠨ;Өргөө ᠥᠷᠭᠦᠭᠡ;","ISO3166-2":"MN-1","alt_name:de":"Ulan-Bator","alt_name:vi":"Ulan Bator","old_name:ru":"Урга","name:kk-Arab":"ۇلانباتىر","name:kk-Cyrl":"Ұланбатыр","name:kk-Latn":"Ūlanbatyr","name:ky-Arab":"ۇلان۔بااتىر","name:ky-Cyrl":"Улан-Баатыр","name:mn-Cyrl":"Улаанбаатар","name:mn-Latn":"Ulan Bator","name:mn-Mong":"ᠤᠯᠠᠭᠠᠨᠪᠠᠭᠠᠲᠤᠷ","name:uz-Arab":"اولان‌باتور","name:uz-Cyrl":"Улан-Батор","name:uz-Latn":"Ulan-Bator","name:zh-Hans":"乌兰巴托","name:zh-Hant":"烏蘭巴托"},"display_name":"Улаанбаатар ᠤᠯᠠᠭᠠᠨᠪᠠᠭᠠᠲᠤᠷ, Монгол улс ᠮᠤᠩᠭᠤᠯ ᠤᠯᠤᠰ","address":{"city":"Улаанбаатар ᠤᠯᠠᠭᠠᠨᠪᠠᠭᠠᠲᠤᠷ","ISO3166-2-lvl2":"MN-1","ISO3166-2-lvl4":"MN-1","country":"Монгол улс ᠮᠤᠩᠭᠤᠯ ᠤᠯᠤᠰ","country_code":"mn"},"population":1401200,"osm_type":"node","osm_id":27547986,"type":"city","location":[106.9177016,47.9184676],"bbox":[106.7577016,47.7584676,107.0777016,48.0784676],"border":[{"name":"Улан-Батор","other_names":{"name:af":"Ulaanbaatar","name:am":"ኡላዓን ባዓታር","name:an":"Ulán Bator","name:ar":"أولان باتور","name:az":"Ulan-Bator","name:be":"Улан-Батар","name:bg":"Улан Батор","name:bn":"উলানবাটর","name:bo":"ཝུ་ལན་བ་ཐུར","name:br":"Ulaanbaatar","name:bs":"Ulan Bator","name:ca":"Ulan Bator","name:ce":"Улан-Батор","name:cs":"Ulánbátar","name:cv":"Улан Батор","name:cy":"Ulan Bator","name:da":"Ulan Bator","name:de":"Ulan Bator","name:el":"Ουλάν Μπατόρ","name:en":"Ulaanbaatar","name:eo":"Ulaanbaataro","name:es":"Ulán Bator","name:et":"Ulaanbaatar","name:eu":"Ulan Bator","name:fa":"اولان‌باتور","name:fi":"Ulaanbaatar","name:fr":"Oulan-Bator","name:fy":"Ulaanbaatar","name:ga":"Ulánbátar","name:gd":"Ulan Bator","name:gl":"Ulán Bátor - Улаанбаатар","name:he":"אולן בטור","name:hi":"उलान बतोर","name:hr":"Ulan Bator","name:ht":"Oulan-Batò","name:hu":"Ulánbátor","name:hy":"Ուլան Բատոր","name:ia":"Ulan Bator","name:id":"Ulan Bator","name:ie":"Ulan-Bator","name:io":"Ulan Bator","name:is":"Úlan Bator","name:it":"Ulan Bator","name:ja":"ウランバートル","name:ka":"ულან-ბატორი","name:kk":"Ұланбатыр","name:kl":"Ulan Bator","name:km":"អ៊ូលេនបាធរ","name:kn":"ಉಲಾನ್ ಬತೊರ್","name:ko":"울란바토르","name:kv":"Улан-Батор","name:la":"Urga","name:lb":"Ulan Bator","name:lt":"Ulan Batoras","name:lv":"Ulanbatora","name:mk":"Улан Батор","name:mn":"Улаанбаатар","name:mr":"उलानबातर","name:ms":"Ulan Bator","name:my":"ဦလန်ဘာတာမြို့","name:nl":"Ulaanbaatar","name:nn":"Ulan Bator","name:no":"Ulan Bator","name:oc":"Ulaan Baatar","name:os":"Улан-Батор","name:pa":"ਉਲਾਨ ਬਤੋਰ","name:pl":"Ułan Bator","name:pt":"Ulan Bator","name:ro":"Ulaanbaatar","name:ru":"Улан-Батор","name:sk":"Ulanbátar","name:sl":"Ulan Bator","name:so":"Ulan Bator","name:sq":"Ulan Bator","name:sr":"Улан Батор","name:sv":"Ulaanbaatar","name:sw":"Ulaanbaatar","name:ta":"ஊலான் பாடோர்","name:tg":"Улан-Батор","name:th":"อูลานบาตอร์","name:tl":"Ulan Bator","name:tr":"Ulan Batur","name:tt":"Ulan Bator","name:ug":"Ulanbatur","name:uk":"Улан-Батор","name:ur":"اولان‌ باتور","name:uz":"Ulan-Bator","name:vi":"Ulaanbaatar","name:yi":"אולאן באטאר","name:yo":"Ulan Bator","name:za":"Ulan Bator","name:zh":"乌兰巴托","int_name":"Ulaanbaatar","name:ace":"Ulan Bator","name:bxr":"Улаан-Баатар","name:ckb":"ئولانباتۆر","name:diq":"Ulan Bator","name:hif":"Ulan Bator","name:lmo":"Ulan Bator","name:mhr":"Улан-Батор","name:myv":"Улан-Батор ош","name:mzn":"اولانباتار","name:pap":"Ulan Bator","name:sah":"Улаанбаатар","name:scn":"Ulan Bator","name:sco":"Ulan Bator","name:xal":"Улан Баатр","name:yue":"烏蘭巴托","name:mn-Mong":"ᠤᠯᠠᠭᠠᠨ ᠪᠠᠭᠠᠲᠤᠷ","name:zh-Hans":"乌兰巴托","name:zh-Hant":"烏蘭巴托","name:be-tarask":"Улан-Батар","name:zh-Latn-pinyin":"Wū lán bā tuō"},"display_name":"Улан-Батор, Монгол улс ᠮᠤᠩᠭᠤᠯ ᠤᠯᠤᠰ","address":{"city":"Улан-Батор","country":"Монгол улс ᠮᠤᠩᠭᠤᠯ ᠤᠯᠤᠰ","country_code":"mn"},"osm_type":"relation","osm_id":4479697,"type":"city","location":[106.91796375225584,47.940974049999994],"bbox":[106.5345659,47.7328999,107.2200527,48.149007]},{"name":"Улаанбаатар ᠤᠯᠠᠭᠠᠨᠪᠠᠭᠠᠲᠤᠷ","other_names":{"name:af":"Ulaanbaatar","name:am":"ኡላዓን ባዓታር","name:an":"Ulán Bator","name:ar":"أولان باتور","name:az":"Ulan-Bator","name:ba":"Улан-Батор","name:be":"Улан-Батар","name:bg":"Улан Батор","name:bn":"উলানবাটর","name:bo":"ཝུ་ལན་བ་ཐུར","name:br":"Ulaanbaatar","name:bs":"Ulan Bator","name:ca":"Ulan Bator","name:ce":"Улан-Батор","name:cs":"Ulánbátar","name:cv":"Улан Батор","name:cy":"Ulan Bator","name:da":"Ulan Bator","name:de":"Ulaanbaatar","name:el":"Ουλάν Μπατόρ","name:en":"Ulaanbaatar","name:es":"Ulán Bator","name:et":"Ulaanbaatar","name:eu":"Ulan Bator","name:fa":"اولان‌باتور","name:fi":"Ulan Bator","name:fr":"Oulan-Bator","name:fy":"Ulaanbaatar","name:ga":"Ulánbátar","name:gd":"Ulan Bator","name:gl":"Ulán Bátor","name:ha":"Ulan Bato","name:he":"אולן בטור","name:hi":"उलान बतोर","name:hr":"Ulan Bator","name:ht":"Oulan-Batò","name:hu":"Ulánbátor","name:hy":"Ուլան Բատոր","name:id":"Ulan Bator","name:is":"Úlan Bator","name:it":"Ulan Bator","name:ja":"ウランバートル","name:jv":"Ulaanbaatar","name:ka":"ულან-ბატორი","name:kk":"Ұланбатыр","name:kl":"Ulan Bator","name:km":"អ៊ូឡង់បាទ័រ","name:kn":"ಉಲಾನ್ ಬತೊರ್","name:ko":"울란바토르","name:kv":"Улан-Батор","name:kw":"Ulaanbaatar","name:ky":"Улан-Баатыр","name:lb":"Ulan Bator","name:lt":"Ulan Batoras","name:lv":"Ulanbatora","name:mg":"Ulan Bator","name:mk":"Улан Батор","name:ml":"ഉലാൻബാതാർ","name:mn":"Улаанбаатар","name:mr":"उलानबातर","name:ms":"Ulan Bator","name:my":"ဦလန်ဘာတာမြို့","name:na":"Ulan Bator","name:ne":"उलानबटोर","name:nl":"Ulaanbaatar","name:nn":"Ulan Bator","name:no":"Ulan Bator","name:oc":"Ulaan Baatar","name:os":"Улан-Батор","name:pa":"ਉਲਾਨ ਬਾਤਰ","name:pl":"Ułan Bator","name:ps":"اولان باتور","name:pt":"Ulã Bator","name:ro":"Ulaanbaatar","name:ru":"Улан-Батор","name:sc":"Ulan Bator","name:sh":"Ulan Bator","name:sk":"Ulanbátar","name:sl":"Ulan Bator","name:sn":"Ulaanbaatar","name:so":"Ulan Bator","name:sq":"Ulan Batori","name:sr":"Улан Батор","name:sv":"Ulan Bator","name:sw":"Ulaanbaatar","name:ta":"உலான் பத்தூர்","name:tg":"Улан-Батор","name:th":"อูลานบาตาร์","name:tl":"Ulan Bator","name:tr":"Ulan Batur","name:tt":"Ulan Bator","name:ug":"Ulanbatur","name:uk":"Улан-Батор","name:ur":"اولان‌ باتور","name:uz":"Ulan-Bator","name:vi":"Ulaanbaatar","name:yi":"אולאן באטאר","name:yo":"Ulan Bator","name:za":"Ulan Bator","name:zh":"乌兰巴托市","name:ace":"Ulan Bator","name:arz":"اولان باتور","name:ast":"Ulán Bátor","name:azb":"اولان‌باتور","name:ban":"Ulaanbaatar","name:bcl":"Ulaanbaatar","name:bxr":"Улаан Баатар","name:cdo":"Ulaanbaatar","name:ceb":"Ulaanbaatar Hot","name:ckb":"ئولانباتۆر","name:diq":"Ulan Bator","name:dsb":"Ulaanbaatar","name:frr":"Ulan-Bator","name:hak":"Ulaanbaatar","name:hif":"Ulan Bator","name:hsb":"Ulaanbaatar","name:ilo":"Ulaanbaatar","name:kaa":"Ulan-bator","name:lez":"Улан-Батор","name:lij":"Ulaanbaatar","name:lmo":"Ulan Bator","name:lzh":"烏蘭巴托","name:mai":"उलानबटोर","name:mhr":"Улан-Батор","name:myv":"Улан-Батор ош","name:mzn":"اولان باتور","name:nah":"Ulanbatar","name:nan":"Ulaanbaatar","name:pap":"Ulan Bator","name:pih":"Ulan Bator","name:pms":"Ulaanbaatar","name:pnb":"اولان‌ باتور","name:sah":"Улаанбаатар","name:sat":"ᱩᱞᱟᱱᱵᱟᱴᱚᱨ","name:scn":"Ulan Bator","name:sco":"Ulan Bator","name:szl":"Ułan Bator","name:udm":"Улан-Батор","name:vep":"Ulanbatar","name:vls":"Oelan-Bator","name:war":"Ulaanbaatar","name:wuu":"乌兰巴托","name:xal":"Улан Баатр","name:xmf":"ულან-ბატორი","name:yue":"烏蘭巴托","ISO3166-2":"MN-1","alt_name:zh":"乌兰巴托","name:nds-nl":"Ulan Bator","name:mn-Cyrl":"Улаанбаатар","name:mn-Mong":"ᠤᠯᠠᠭᠠᠨᠪᠠᠭᠠᠲᠤᠷ","name:zh-Hans":"乌兰巴托市","name:zh-Hant":"烏蘭巴托市","name:cu":"Оуланбатаръ","name:eo":"Ulaanbaataro","name:ia":"Ulan Bator","name:ie":"Ulan-Bator","name:io":"Ulan Bator","name:la":"Urga","name:lo":"ອູລານບາຕາ","name:nb":"Ulan Bator","name:sd":"الان باتر","name:vo":"Ulaanbaatar","name:be-tarask":"Улан-Батар","int_name":"Ulaanbaatar","name:kab":"Ulan Batur","old_name":"Урга;Хүрээ ᠬᠦᠷᠢᠶᠡᠨ;Нийслэл хүрээ ᠨᠡᠶᠢᠰᠯᠡᠯ ᠬᠦᠷᠢᠶᠡᠨ;Их хүрээ ᠶᠡᠬᠡ ᠬᠦᠷᠢᠶᠡᠨ;Номын хүрээ ᠨᠣᠮ ‍ᠤᠨ ᠬᠦᠷᠢᠶᠡᠨ;Өргөө ᠥᠷᠭᠦᠭᠡ;","alt_name:de":"Ulan-Bator","alt_name:vi":"Ulan Bator","old_name:ru":"Урга","name:kk-Arab":"ۇلانباتىر","name:kk-Cyrl":"Ұланбатыр","name:kk-Latn":"Ūlanbatyr","name:ky-Arab":"ۇلان۔بااتىر","name:ky-Cyrl":"Улан-Баатыр","name:mn-Latn":"Ulan Bator","name:uz-Arab":"اولان‌باتور","name:uz-Cyrl":"Улан-Батор","name:uz-Latn":"Ulan-Bator","name:zh-Latn-pinyin":"Wū lán bā tuō","alt:de":"Ulan Bator","alt:fi":"Ulaanbaatar","alt:km":"អ៊ូលេនបាធរ","alt:pa":"ਉਲਾਨ ਬਤੋਰ","alt:pt":"Ulan Bator","alt:sq":"Ulan Bator","alt:sv":"Ulaanbaatar","alt:ta":"ஊலான் பாடோர்","alt:th":"อูลานบาตอร์","alt:zh":"乌兰巴托","alt:bxr":"Улаан-Баатар","alt:mzn":"اولانباتار","alt:zh-Hans":"乌兰巴托","alt:zh-Hant":"烏蘭巴托"},"display_name":"Улаанбаатар ᠤᠯᠠᠭᠠᠨᠪᠠᠭᠠᠲᠤᠷ, Монгол улс ᠮᠤᠩᠭᠤᠯ ᠤᠯᠤᠰ","address":{"city":"Улаанбаатар ᠤᠯᠠᠭᠠᠨᠪᠠᠭᠠᠲᠤᠷ","ISO3166-2-lvl4":"MN-1","country":"Монгол улс ᠮᠤᠩᠭᠤᠯ ᠤᠯᠤᠰ","country_code":"mn"},"population":1401200,"osm_type":"relation","osm_id":270090,"type":"administrative","location":[106.9177016,47.9184676],"bbox":[106.362609,47.3019581,108.5007801,48.271931]}]}
{"name":"Улаангом ᠤᠯᠠᠭᠠᠩᠭ᠋ᠣᠮ","other_names":{"name:ar":"أولانغوم","name:de":"Ulaangom","name:en":"Ulaangom","name:es":"Ulaangom","name:fr":"Ulaangom","name:ja":"オラーンゴム","name:ko":"올란곰","name:mn":"Улаангом","name:ru":"Улангом","name:zh":"乌兰固木","int_name":"Улаангом","name:mn-Cyrl":"Улаангом","name:mn-Mong":"ᠤᠯᠠᠭᠠᠩᠭ᠋ᠣᠮ","name:mn-mong":"ᠤᠯᠠᠭᠠᠩᠭ᠋ᠣᠮ","name:zh-Hans":"乌兰固木","name:zh-Hant":"烏蘭固木"},"display_name":"Улаангом ᠤᠯᠠᠭᠠᠩᠭ᠋ᠣᠮ, Увс ᠤᠪᠰᠤ, Монгол улс ᠮᠤᠩᠭᠤᠯ ᠤᠯᠤᠰ","address":{"city":"Улаангом ᠤᠯᠠᠭᠠᠩᠭ᠋ᠣᠮ","state":"Увс ᠤᠪᠰᠤ","ISO3166-2-lvl4":"MN-046","country":"Монгол улс ᠮᠤᠩᠭᠤᠯ ᠤᠯᠤᠰ","country_code":"mn"},"population":22300,"osm_type":"node","osm_id":250944260,"type":"city","location":[92.068851,49.9800327],"bbox":[91.908851,49.8200327,92.228851,50.1400327],"border":[{"name":"Улаангом","other_names":{"name:en":"Ulaangom","name:ja":"オラーンゴム","name:mn":"Улаангом","name:ru":"Улангом","name:zh":"乌兰固木市"},"display_name":"Улаангом, Увс ᠤᠪᠰᠤ, Монгол улс ᠮᠤᠩᠭᠤᠯ ᠤᠯᠤᠰ","address":{"city":"Улаангом","state":"Увс ᠤᠪᠰᠤ","ISO3166-2-lvl4":"MN-046","country":"Монгол улс ᠮᠤᠩᠭᠤᠯ ᠤᠯᠤᠰ","country_code":"mn"},"osm_type":"way","osm_id":63988528,"type":"city","location":[92.0717251606302,49.985177300000004],"bbox":[92.0400814,49.9527143,92.1022829,50.0192233]},{"name":"Улаангом ᠤᠯᠠᠭᠠᠩᠭ᠋ᠣᠮ","other_names":{"name:ar":"أولانغوم","name:de":"Ulaangom","name:en":"Ulaangom","name:es":"Ulaangom","name:fr":"Ulaangom","name:ja":"オラーンゴム","name:ko":"올란곰","name:mn":"Улаангом","name:ru":"Улангом","name:zh":"乌兰固木","name:mn-Cyrl":"Улаангом","name:mn-Mong":"ᠤᠯᠠᠭᠠᠩᠭ᠋ᠣᠮ","name:mn-mong":"ᠤᠯᠠᠭᠠᠩᠭ᠋ᠣᠮ","name:zh-Hans":"乌兰固木","name:zh-Hant":"烏蘭固木","int_name":"Улаангом"},"display_name":"Улаангом ᠤᠯᠠᠭᠠᠩᠭ᠋ᠣᠮ, Увс ᠤᠪᠰᠤ, Монгол улс ᠮᠤᠩᠭᠤᠯ ᠤᠯᠤᠰ","address":{"city":"Улаангом ᠤᠯᠠᠭᠠᠩᠭ᠋ᠣᠮ","state":"Увс ᠤᠪᠰᠤ","ISO3166-2-lvl4":"MN-046","country":"Монгол улс ᠮᠤᠩᠭᠤᠯ ᠤᠯᠤᠰ","country_code":"mn"},"population":22300,"osm_type":"relation","osm_id":7305282,"type":"administrative","location":[92.068851,49.9800327],"bbox":[91.2682372,49.5662815,92.4782074,50.58723]}]}
{"name":"Улиастай ᠤᠯᠢᠶᠠᠰᠤᠲᠠᠢ","other_names":{"name:ar":"ألياستاي","name:de":"Uliastai","name:en":"Uliastai","name:es":"Uliastay","name:fr":"Uliastay","name:ja":"ウリヤスタイ","name:lt":"Ulijastajus","name:mn":"Улиастай","name:ru":"Улиастай","name:zh":"乌里雅苏台","int_name":"Улиастай","old_name:ru":"Улясутай","name:mn-Cyrl":"Улиастай","name:mn-Mong":"ᠤᠯᠢᠶᠠᠰᠤᠲᠠᠢ","name:mn-mong":"ᠣᠯᡳᠶᠠᠰᠣᡨᠠᡳ","name:zh-Hans":"乌里雅苏台","name:zh-Hant":"烏里雅蘇臺"},"display_name":"Улиастай ᠤᠯᠢᠶᠠᠰᠤᠲᠠᠢ, Завхан ᠵᠠᠪᠬᠠᠨ, Монгол улс ᠮᠤᠩᠭᠤᠯ ᠤᠯᠤᠰ","address":{"city":"Улиастай ᠤᠯᠢᠶᠠᠰᠤᠲᠠᠢ","county":"Улиастай ᠤᠯᠢᠶᠠᠰᠤᠲᠠᠢ","state":"Завхан ᠵᠠᠪᠬᠠᠨ","ISO3166-2-lvl4":"MN-057","country":"Монгол улс ᠮᠤᠩᠭᠤᠯ ᠤᠯᠤᠰ","country_code":"mn"},"population":17468,"osm_type":"node","osm_id":293975982,"type":"city","location":[96.8474808,47.7415554],"bbox":[96.6874808,47.5815554,97.0074808,47.9015554],"border":[{"name":"Улиастай","other_names":{"name:en":"Uliastai","name:fr":"Ouliastaï","name:ja":"ウリヤスタイ","name:mn":"Улиастай","name:ru":"Улиастай"},"display_name":"Улиастай, Улиастай ᠤᠯᠢᠶᠠᠰᠤᠲᠠᠢ, Завхан ᠵᠠᠪᠬᠠᠨ, Монгол улс ᠮᠤᠩᠭᠤᠯ ᠤᠯᠤᠰ","address":{"city":"Улиастай","county":"Улиастай ᠤᠯᠢᠶᠠᠰᠤᠲᠠᠢ","state":"Завхан ᠵᠠᠪᠬᠠᠨ","ISO3166-2-lvl4":"MN-057","country":"Монгол улс ᠮᠤᠩᠭᠤᠯ ᠤᠯᠤᠰ","country_code":"mn"},"osm_type":"way","osm_id":187790489,"type":"city","location":[96.84135973044444,47.74412685],"bbox":[96.8212597,47.7379397,96.850915,47.7504007]},{"name":"Улиастай ᠤᠯᠢᠶᠠᠰᠤᠲᠠᠢ","other_names":{"name:ar":"ألياستاي","name:de":"Uliastai","name:en":"Uliastai","name:es":"Uliastay","name:fr":"Uliastay","name:ja":"ウリヤスタイ","name:lt":"Ulijastajus","name:mn":"Улиастай","name:ru":"Улиастай","name:zh":"乌里雅苏台","old_name:ru":"Улясутай","name:mn-Cyrl":"Улиастай","name:mn-Mong":"ᠤᠯᠢᠶᠠᠰᠤᠲᠠᠢ","name:mn-mong":"ᠣᠯᡳᠶᠠᠰᠣᡨᠠᡳ","name:zh-Hans":"乌里雅苏台","name:zh-Hant":"烏里雅蘇臺"},"display_name":"Улиастай ᠤᠯᠢᠶᠠᠰᠤᠲᠠᠢ, Завхан ᠵᠠᠪᠬᠠᠨ, Монгол улс ᠮᠤᠩᠭᠤᠯ ᠤᠯᠤᠰ","address":{"county":"Улиастай ᠤᠯᠢᠶᠠᠰᠤᠲᠠᠢ","state":"Завхан ᠵᠠᠪᠬᠠᠨ","ISO3166-2-lvl4":"MN-057","country":"Монгол улс ᠮᠤᠩᠭᠤᠯ ᠤᠯᠤᠰ","country_code":"mn"},"osm_type":"relation","osm_id":16006389,"type":"administrative","location":[96.85527681210107,47.74224925],"bbox":[96.8115116,47.6991238,96.9023634,47.7683105]}]}
{"name":"Хархорин ᠬᠠᠷᠠᠬᠣᠷᠢᠨ","other_names":{"name:de":"Charchorin","name:en":"Kharkhorin","name:ja":"ハラホリン","name:mn":"Хархорин","name:ru":"Каракорум","name:uk":"Хархорін","name:zh":"哈拉和林","name:mn-Cyrl":"Хархорин","name:mn-Mong":"ᠬᠠᠷᠠᠬᠣᠷᠢᠨ"},"display_name":"Хархорин ᠬᠠᠷᠠᠬᠣᠷᠢᠨ, Өвөрхангай ᠥᠪᠦᠷᠬᠠᠩᠭ᠋ᠠᠢ, Монгол улс ᠮᠤᠩᠭᠤᠯ ᠤᠯᠤᠰ","address":{"city":"Хархорин ᠬᠠᠷᠠᠬᠣᠷᠢᠨ","county":"Хархорин ᠬᠠᠷᠠᠬᠣᠷᠢᠨ","state":"Өвөрхангай ᠥᠪᠦᠷᠬᠠᠩᠭ᠋ᠠᠢ","ISO3166-2-lvl4":"MN-055","country":"Монгол улс ᠮᠤᠩᠭᠤᠯ ᠤᠯᠤᠰ","country_code":"mn"},"population":8411,"osm_type":"node","osm_id":690895589,"type":"city","location":[102.8202229,47.192824],"bbox":[102.6602229,47.032824,102.9802229,47.352824],"border":{"name":"Хархорин ᠬᠠᠷᠠᠬᠣᠷᠢᠨ","other_names":{"name:de":"Charchorin","name:en":"Kharkhorin","name:ja":"ハラホリン","name:mn":"Хархорин","name:ru":"Каракорум","name:mn-Cyrl":"Хархорин","name:mn-Mong":"ᠬᠠᠷᠠᠬᠣᠷᠢᠨ"},"display_name":"Хархорин ᠬᠠᠷᠠᠬᠣᠷᠢᠨ, Өвөрхангай ᠥᠪᠦᠷᠬᠠᠩᠭ᠋ᠠᠢ, Монгол улс ᠮᠤᠩᠭᠤᠯ ᠤᠯᠤᠰ","address":{"county":"Хархорин ᠬᠠᠷᠠᠬᠣᠷᠢᠨ","state":"Өвөрхангай ᠥᠪᠦᠷᠬᠠᠩᠭ᠋ᠠᠢ","ISO3166-2-lvl4":"MN-055","country":"Монгол улс ᠮᠤᠩᠭᠤᠯ ᠤᠯᠤᠰ","country_code":"mn"},"osm_type":"relation","osm_id":7297912,"type":"administrative","location":[103.04944580403384,47.144968399999996],"bbox":[102.6074272,46.8745884,103.4927318,47.413289]}}
{"name":"Ховд ᠬᠣᠪᠳᠤ","other_names":{"name:ar":"خوفد","name:de":"Chowd","name:en":"Khovd","name:es":"Hovd","name:fr":"Khovd","name:ja":"ホブド","name:mn":"Ховд","name:ru":"Ховд","name:uk":"Ховд","name:zh":"科布多","alt_name":"ᠬᠣᠪᠳᠤ","int_name":"Khovd","alt_name:en":"KHovd","old_name:en":"Khobdo","old_name:ru":"Кобдо","name:mn-Cyrl":"Ховд","name:mn-Mong":"ᠬᠣᠪᠳᠤ","name:zh-Hans":"科布多","name:zh-Hant":"科布多"},"display_name":"Ховд ᠬᠣᠪᠳᠤ, Жаргалант ᠵᠢᠷᠭᠠᠯᠠᠩᠲᠤ, Ховд ᠬᠣᠪᠳᠤ, 84000, Монгол улс ᠮᠤᠩᠭᠤᠯ ᠤᠯᠤᠰ","address":{"city":"Ховд ᠬᠣᠪᠳᠤ","county":"Жаргалант ᠵᠢᠷᠭᠠᠯᠠᠩᠲᠤ","state":"Ховд ᠬᠣᠪᠳᠤ","ISO3166-2-lvl4":"MN-043","postcode":"84000","country":"Монгол улс ᠮᠤᠩᠭᠤᠯ ᠤᠯᠤᠰ","country_code":"mn"},"population":28601,"osm_type":"node","osm_id":308452912,"type":"city","location":[91.6452415,48.0006353],"bbox":[91.4852415,47.8406353,91.8052415,48.1606353],"border":[{"name":"Ховд","other_names":{"name:de":"Chowd","name:en":"Khovd","name:mn":"Ховд","name:ru":"Ховд","name:uk":"Ховд","int_name":"Khovd","old_name:ru":"Кобдо"},"display_name":"Ховд, Жаргалант ᠵᠢᠷᠭᠠᠯᠠᠩᠲᠤ, Ховд ᠬᠣᠪᠳᠤ, 84000, Монгол улс ᠮᠤᠩᠭᠤᠯ ᠤᠯᠤᠰ","address":{"city":"Ховд","county":"Жаргалант ᠵᠢᠷᠭᠠᠯᠠᠩᠲᠤ","state":"Ховд ᠬᠣᠪᠳᠤ","ISO3166-2-lvl4":"MN-043","postcode":"84000","country":"Монгол улс ᠮᠤᠩᠭᠤᠯ ᠤᠯᠤᠰ","country_code":"mn"},"osm_type":"way","osm_id":41730940,"type":"city","location":[91.64179623502596,47.9957352],"bbox":[91.615575,47.9692308,91.6691279,48.0221301]},{"name":"Ховд ᠬᠣᠪᠳᠤ","other_names":{"name:ar":"خوفد","name:de":"Khovd","name:en":"Khovd","name:mn":"Ховд","name:uk":"Ховд","name:mn-Cyrl":"Ховд","name:mn-Mong":"ᠬᠣᠪᠳᠤ"},"display_name":"Ховд ᠬᠣᠪᠳᠤ, Монгол улс ᠮᠤᠩᠭᠤᠯ ᠤᠯᠤᠰ","address":{"county":"Ховд ᠬᠣᠪᠳᠤ","state":"Ховд ᠬᠣᠪᠳᠤ","ISO3166-2-lvl4":"MN-043","country":"Монгол улс ᠮᠤᠩᠭᠤᠯ ᠤᠯᠤᠰ","country_code":"mn"},"osm_type":"relation","osm_id":7304943,"type":"administrative","location":[91.26731219782693,48.0552065],"bbox":[90.8410346,47.722928,91.845201,48.3842782]}]}
{"name":"Хөтөл ᠬᠥᠲᠥᠯ","other_names":{"name:en":"Khötöl","name:mn":"Хөтөл","name:ru":"Кутул","name:zh":"赫拉特县","int_name":"Khutul","name:mn-Cyrl":"Хөтөл","name:mn-Mong":"ᠬᠥᠲᠥᠯ"},"display_name":"Хөтөл ᠬᠥᠲᠥᠯ, Сайхан ᠰᠠᠶᠢᠬᠠᠨ, Сэлэнгэ ᠰᠡᠯᠡᠩᠭᠡ, 43130, Монгол улс ᠮᠤᠩᠭᠤᠯ ᠤᠯᠤᠰ","address":{"city":"Хөтөл ᠬᠥᠲᠥᠯ","county":"Сайхан ᠰᠠᠶᠢᠬᠠᠨ","state":"Сэлэнгэ ᠰᠡᠯᠡᠩᠭᠡ","ISO3166-2-lvl4":"MN-049","postcode":"43130","country":"Монгол улс ᠮᠤᠩᠭᠤᠯ ᠤᠯᠤᠰ","country_code":"mn"},"osm_type":"node","osm_id":2337747955,"type":"city","location":[105.553112,49.0957565],"bbox":[105.393112,48.9357565,105.713112,49.2557565]}
{"name":"Цэцэрлэг ᠴᠡᠴᠡᠷᠯᠢᠭ","other_names":{"name:ar":"تستسرليغ","name:de":"Tsetserleg","name:en":"Tsetserleg","name:es":"Tsetserleg","name:fr":"Tsetserleg","name:hu":"Cecerleg","name:ja":"ツェツェルレグ","name:lt":"Cecerlegas","name:mn":"Цэцэрлэг","name:ru":"Цэцэрлэг","name:zh":"车车尔勒格","int_name":"Tsetserleg","name:mn-Cyrl":"Цэцэрлэг","name:mn-Mong":"ᠴᠡᠴᠡᠷᠯᠢᠭ","name:zh-Hans":"车车尔勒格","name:zh-Hant":"車車爾勒格"},"display_name":"Цэцэрлэг ᠴᠡᠴᠡᠷᠯᠢᠭ, Эрдэнэбулган ᠡᠷᠳᠡᠨᠢᠪᠤᠯᠠᠭᠠᠨ, Архангай ᠠᠷᠤᠬᠠᠩᠭ᠋ᠠᠢ, Монгол улс ᠮᠤᠩᠭᠤᠯ ᠤᠯᠤᠰ","address":{"city":"Цэцэрлэг ᠴᠡᠴᠡᠷᠯᠢᠭ","state":"Архангай ᠠᠷᠤᠬᠠᠩᠭ᠋ᠠᠢ","ISO3166-2-lvl4":"MN-073","country":"Монгол улс ᠮᠤᠩᠭᠤᠯ ᠤᠯᠤᠰ","country_code":"mn"},"population":20604,"osm_type":"node","osm_id":295657197,"type":"city","location":[101.4532887,47.476602],"bbox":[101.2932887,47.316602,101.6132887,47.636602],"border":{"name":"Эрдэнэбулган ᠡᠷᠳᠡᠨᠢᠪᠤᠯᠠᠭᠠᠨ","other_names":{"name:de":"Erdenebulgan","name:en":"Erdenebulgan","name:mn":"Эрдэнэбулган","alt_name:en":"Erdene-Bulgan","name:mn-Cyrl":"Эрдэнэбулган","name:mn-Mong":"ᠡᠷᠳᠡᠨᠢᠪᠤᠯᠠᠭᠠᠨ","name:ar":"تستسرليغ","name:es":"Tsetserleg","name:fr":"Tsetserleg","name:hu":"Cecerleg","name:ja":"ツェツェルレグ","name:lt":"Cecerlegas","name:ru":"Цэцэрлэг","name:zh":"车车尔勒格","int_name":"Tsetserleg","name:zh-Hans":"车车尔勒格","name:zh-Hant":"車車爾勒格","alt":"Цэцэрлэг ᠴᠡᠴᠡᠷᠯᠢᠭ","alt:de":"Tsetserleg","alt:en":"Tsetserleg","alt:mn":"Цэцэрлэг","alt:mn-Cyrl":"Цэцэрлэг","alt:mn-Mong":"ᠴᠡᠴᠡᠷᠯᠢᠭ"},"display_name":"Эрдэнэбулган ᠡᠷᠳᠡᠨᠢᠪᠤᠯᠠᠭᠠᠨ, Архангай ᠠᠷᠤᠬᠠᠩᠭ᠋ᠠᠢ, 65000, Монгол улс ᠮᠤᠩᠭᠤᠯ ᠤᠯᠤᠰ","address":{"city":"Эрдэнэбулган ᠡᠷᠳᠡᠨᠢᠪᠤᠯᠠᠭᠠᠨ","state":"Архангай ᠠᠷᠤᠬᠠᠩᠭ᠋ᠠᠢ","ISO3166-2-lvl4":"MN-073","postcode":"65000","country":"Монгол улс ᠮᠤᠩᠭᠤᠯ ᠤᠯᠤᠰ","country_code":"mn"},"population":20604,"osm_type":"relation","osm_id":7302547,"type":"administrative","location":[101.4532887,47.476602],"bbox":[101.2636597,47.2880303,101.6596371,47.5602379]}}
{"name":"Чойбалсан ᠴᠣᠶᠢᠪᠠᠯᠰᠠᠩ","other_names":{"name:ar":"تشويبالسان","name:be":"Чайбалсан","name:bg":"Чойбалсан","name:ca":"Choibalsan","name:cs":"Čojbalsan","name:da":"Tsjojbalsan","name:de":"Tschoibalsan","name:el":"Τσοϊμπαλσάν","name:en":"Choibalsan","name:eo":"Ĉoibalsan","name:es":"Choybalsan","name:et":"Tšojbalsan","name:eu":"Txoibalsan","name:fa":"چوی‌بالسان","name:fi":"Tšoibalsan","name:fr":"Tchoïbalsan","name:fy":"Tsjojbalsan","name:he":"צ'ויבלסאן","name:hi":"चोइबल्सान","name:hu":"Csojbalszan","name:it":"Choibalsan","name:ja":"チョイバルサン","name:ka":"ჩოიბალსანი","name:ko":"처이발상","name:lt":"Čoibalsanas","name:lv":"Čoibalsana","name:mk":"Чојбалсан","name:mn":"Чойбалсан","name:nb":"Tsjojbalsan","name:nl":"Tsjojbalsan","name:pl":"Czojbalsan","name:pt":"Choybalsan","name:ro":"Choibalsan","name:ru":"Чойбалсан","name:sv":"Tjojbalsan","name:th":"ชอยบัลซัน","name:tr":"Çoybalsan","name:uk":"Чойбалсан","name:ur":"چوئبالسان","name:uz":"Choybalsan","name:vi":"Choibalsan","name:zh":"乔巴山","alt_name":"Čojbalsan","int_name":"Choibalsan","name:mn-Cyrl":"Чойбалсан","name:mn-Mong":"ᠴᠣᠶᠢᠪᠠᠯᠰᠠᠩ","name:zh-Hans":"乔巴山","name:zh-Hant":"喬巴山"},"display_name":"Чойбалсан ᠴᠣᠶᠢᠪᠠᠯᠰᠠᠩ, Чойбалсан, Хэрлэн ᠬᠡᠷᠦᠯᠦᠨ, Дорнод ᠳᠣᠷᠤᠨᠠᠳᠤ, 21065, Монгол улс ᠮᠤᠩᠭᠤᠯ ᠤᠯᠤᠰ","address":{"city":"Чойбалсан ᠴᠣᠶᠢᠪᠠᠯᠰᠠᠩ","county":"Хэрлэн ᠬᠡᠷᠦᠯᠦᠨ","state":"Дорнод ᠳᠣᠷᠤᠨᠠᠳᠤ","ISO3166-2-lvl4":"MN-061","postcode":"21065","country":"Монгол улс ᠮᠤᠩᠭᠤᠯ ᠤᠯᠤᠰ","country_code":"mn"},"population":38537,"osm_type":"node","osm_id":293932664,"type":"city","location":[114.5241352,48.0688183],"bbox":[114.3641352,47.9088183,114.6841352,48.2288183],"border":{"name":"Чойбалсан","other_names":{"name:de":"Tschoibalsan","name:en":"Choibalsan","name:es":"Choybalsan","name:fr":"Tchoïbalsan","name:ja":"チョイバルサン","name:lt":"Čoibalsanas","name:mn":"Чойбалсан","name:ru":"Чойбалсан","alt_name":"Čojbalsan","name:ar":"تشويبالسان","name:be":"Чайбалсан","name:bg":"Чойбалсан","name:ca":"Choibalsan","name:cs":"Čojbalsan","name:da":"Tsjojbalsan","name:el":"Τσοϊμπαλσάν","name:eo":"Ĉoibalsan","name:et":"Tšojbalsan","name:eu":"Txoibalsan","name:fa":"چوی‌بالسان","name:fi":"Tšoibalsan","name:fy":"Tsjojbalsan","name:he":"צ'ויבלסאן","name:hi":"चोइबल्सान","name:hu":"Csojbalszan","name:it":"Choibalsan","name:ka":"ჩოიბალსანი","name:ko":"처이발상","name:lv":"Čoibalsana","name:mk":"Чојбалсан","name:nb":"Tsjojbalsan","name:nl":"Tsjojbalsan","name:pl":"Czojbalsan","name:pt":"Choybalsan","name:ro":"Choibalsan","name:sv":"Tjojbalsan","name:th":"ชอยบัลซัน","name:tr":"Çoybalsan","name:uk":"Чойбалсан","name:ur":"چوئبالسان","name:uz":"Choybalsan","name:vi":"Choibalsan","name:zh":"乔巴山","int_name":"Choibalsan","name:mn-Cyrl":"Чойбалсан","name:mn-Mong":"ᠴᠣᠶᠢᠪᠠᠯᠰᠠᠩ","name:zh-Hans":"乔巴山","name:zh-Hant":"喬巴山","alt":"Чойбалсан ᠴᠣᠶᠢᠪᠠᠯᠰᠠᠩ"},"display_name":"Чойбалсан, Хэрлэн ᠬᠡᠷᠦᠯᠦᠨ, Дорнод ᠳᠣᠷᠤᠨᠠᠳᠤ, 21065, Монгол улс ᠮᠤᠩᠭᠤᠯ ᠤᠯᠤᠰ","address":{"city":"Чойбалсан","county":"Хэрлэн ᠬᠡᠷᠦᠯᠦᠨ","state":"Дорнод ᠳᠣᠷᠤᠨᠠᠳᠤ","ISO3166-2-lvl4":"MN-061","postcode":"21065","country":"Монгол улс ᠮᠤᠩᠭᠤᠯ ᠤᠯᠤᠰ","country_code":"mn"},"population":38537,"osm_type":"way","osm_id":458963867,"type":"city","location":[114.5241352,48.0688183],"bbox":[114.4117856,47.9812368,114.7421164,48.1337751]}}
{"name":"Чойр ᠴᠣᠶᠢᠷ","other_names":{"name:ar":"شوير","name:de":"Tschoir","name:en":"Choir","name:es":"Choyr","name:fr":"Choyr","name:it":"Čojr","name:ja":"チョイル","name:lt":"Čoiras","name:mn":"Чойр","name:ru":"Чойр","name:zh":"乔伊尔","int_name":"Choir","name:mn-Cyrl":"Чойр","name:mn-Mong":"ᠴᠣᠶᠢᠷ","name:mn-mong":"ᠴᠣᠶᠢᠷ","name:zh-Hans":"乔伊尔","name:zh-Hant":"喬伊爾"},"display_name":"Чойр ᠴᠣᠶᠢᠷ, Сүмбэр ᠰᠦᠮᠪᠦᠷ, Говьсүмбэр ᠭᠣᠪᠢ ᠰᠦᠮᠪᠦᠷ, Монгол улс ᠮᠤᠩᠭᠤᠯ ᠤᠯᠤᠰ","address":{"city":"Чойр ᠴᠣᠶᠢᠷ","county":"Сүмбэр ᠰᠦᠮᠪᠦᠷ","state":"Говьсүмбэр ᠭᠣᠪᠢ ᠰᠦᠮᠪᠦᠷ","ISO3166-2-lvl4":"MN-064","country":"Монгол улс ᠮᠤᠩᠭᠤᠯ ᠤᠯᠤᠰ","country_code":"mn"},"population":8526,"osm_type":"node","osm_id":297282778,"type":"city","location":[108.3615542,46.3581241],"bbox":[108.2015542,46.1981241,108.5215542,46.5181241],"border":{"name":"Чойр","other_names":{"name:de":"Tschoir","name:en":"Choir","name:es":"Choyr","name:fr":"Choyr","name:it":"Čojr","name:ja":"チョイル","name:lt":"Čoiras","name:mn":"Чойр","name:ru":"Чойр","int_name":"Choir"},"display_name":"Чойр, Сүмбэр ᠰᠦᠮᠪᠦᠷ, Говьсүмбэр ᠭᠣᠪᠢ ᠰᠦᠮᠪᠦᠷ, Монгол улс ᠮᠤᠩᠭᠤᠯ ᠤᠯᠤᠰ","address":{"city":"Чойр","county":"Сүмбэр ᠰᠦᠮᠪᠦᠷ","state":"Говьсүмбэр ᠭᠣᠪᠢ ᠰᠦᠮᠪᠦᠷ","ISO3166-2-lvl4":"MN-064","country":"Монгол улс ᠮᠤᠩᠭᠤᠯ ᠤᠯᠤᠰ","country_code":"mn"},"osm_type":"way","osm_id":372835823,"type":"city","location":[108.36817990312318,46.36389685],"bbox":[108.347713,46.341892,108.3976621,46.3745575]}}
{"name":"Шарын гол ᠱᠠᠷ᠎ᠠ ᠶᠢᠨ ᠭᠣᠣᠯ","other_names":{"name:en":"Sharyn gol","name:ja":"シャリンゴル","name:mn":"Шарынгол","name:ru":"Шарынгол","name:zh":"夏林郭勒","int_name":"Шарынгол","name:mn-Cyrl":"Шарын гол","name:mn-Mong":"ᠱᠠᠷ᠎ᠠ ᠶᠢᠨ ᠭᠣᠣᠯ"},"display_name":"Шарын гол ᠱᠠᠷ᠎ᠠ ᠶᠢᠨ ᠭᠣᠣᠯ, Дархан-Уул ᠳᠠᠷᠬᠠᠨ ᠠᠭᠤᠯᠠ, 45010, Монгол улс ᠮᠤᠩᠭᠤᠯ ᠤᠯᠤᠰ","address":{"city":"Шарын гол ᠱᠠᠷ᠎ᠠ ᠶᠢᠨ ᠭᠣᠣᠯ","county":"Шарын гол ᠱᠠᠷ᠎ᠠ ᠶᠢᠨ ᠭᠣᠣᠯ","state":"Дархан-Уул ᠳᠠᠷᠬᠠᠨ ᠠᠭᠤᠯᠠ","ISO3166-2-lvl4":"MN-037","postcode":"45010","country":"Монгол улс ᠮᠤᠩᠭᠤᠯ ᠤᠯᠤᠰ","country_code":"mn"},"population":7795,"osm_type":"node","osm_id":294089020,"type":"city","location":[106.4221019,49.2465],"bbox":[106.2621019,49.0865,106.5821019,49.4065]}
{"name":"Эрдэнэт ᠡᠷᠳᠡᠨᠢᠲᠦ","other_names":{"name:af":"Erdenet","name:ar":"إردنيت","name:az":"Erdenet","name:ba":"Эрдэнэт","name:be":"Эрдэнэт","name:bg":"Ерденет","name:ca":"Erdenet","name:ce":"Эрдэнэт","name:cs":"Erdenet","name:da":"Erdenet","name:de":"Erdenet","name:el":"Ερντενέτ","name:en":"Erdenet","name:es":"Erdenet","name:et":"Erdenet","name:eu":"Erdenet","name:fa":"اردنت","name:fi":"Erdenet","name:fr":"Erdenet","name:fy":"Erdenet","name:ga":"Erdenet","name:he":"ארדנט","name:hi":"एरदेनेत","name:hu":"Erdenet","name:hy":"Էրդենեթ","name:id":"Erdenet","name:ie":"Erdenet","name:it":"Erdenet","name:ja":"エルデネト","name:ka":"ერდენეტი","name:ko":"에르데네트","name:lt":"Erdenetas","name:lv":"Erdeneta","name:mk":"Ерденет","name:mn":"Эрдэнэт","name:nb":"Erdenet","name:nl":"Erdenet","name:os":"Эрдэнэт","name:pl":"Erdenet","name:pt":"Erdenet","name:ro":"Erdenet","name:ru":"Эрдэнэт","name:sq":"Erdenet","name:sv":"Erdenet","name:th":"เอร์เดเนต","name:tr":"Erdenet","name:uk":"Ерденет","name:ur":"ایردینیت","name:vi":"Erdenet","name:zh":"额尔登特","int_name":"Erdenet","name:ckb":"ئەردەنێت","name:mn-Cyrl":"Эрдэнэт","name:mn-Mong":"ᠡᠷᠳᠡᠨᠢᠲᠦ","name:mn-mong":"ᠡᠷᠳᠡᠨᠢᠲᠦ","name:zh-Hans":"额尔登特","name:zh-Hant":"額爾登特"},"display_name":"Эрдэнэт ᠡᠷᠳᠡᠨᠢᠲᠦ, Баян-Өндөр ᠪᠠᠶ᠋ᠠᠨ ᠥᠨᠳᠦᠷ, Орхон ᠣᠷᠬᠤᠨ, 61020, Монгол улс ᠮᠤᠩᠭᠤᠯ ᠤᠯᠤᠰ","address":{"city":"Эрдэнэт ᠡᠷᠳᠡᠨᠢᠲᠦ","county":"Баян-Өндөр ᠪᠠᠶ᠋ᠠᠨ ᠥᠨᠳᠦᠷ","state":"Орхон ᠣᠷᠬᠤᠨ","ISO3166-2-lvl4":"MN-035","postcode":"61020","country":"Монгол улс ᠮᠤᠩᠭᠤᠯ ᠤᠯᠤᠰ","country_code":"mn"},"population":86866,"osm_type":"node","osm_id":293929556,"type":"city","location":[104.0443867,49.0276045],"bbox":[103.8843867,48.8676045,104.2043867,49.1876045],"border":{"name":"Эрдэнэт","other_names":{"name:az":"Erdenet","name:en":"Erdenet","name:fi":"Erdenet","name:ja":"エルデネト","name:mn":"Эрдэнэт","name:ru":"Эрдэнэт"},"display_name":"Эрдэнэт, Баян-Өндөр ᠪᠠᠶ᠋ᠠᠨ ᠥᠨᠳᠦᠷ, Орхон ᠣᠷᠬᠤᠨ, Монгол улс ᠮᠤᠩᠭᠤᠯ ᠤᠯᠤᠰ","address":{"city":"Эрдэнэт","county":"Баян-Өндөр ᠪᠠᠶ᠋ᠠᠨ ᠥᠨᠳᠦᠷ","state":"Орхон ᠣᠷᠬᠤᠨ","ISO3166-2-lvl4":"MN-035","country":"Монгол улс ᠮᠤᠩᠭᠤᠯ ᠤᠯᠤᠰ","country_code":"mn"},"osm_type":"way","osm_id":372836163,"type":"city","location":[104.0432529696895,49.0346023],"bbox":[103.9551904,48.9792067,104.1692691,49.0870192]}}
