{"name":"Byumba","display_name":"Byumba, Gicumbi, Majyaruguru, Rwanda","address":{"city":"Byumba","state":"Majyaruguru","ISO3166-2-lvl4":"RW-03","country":"Rwanda","country_code":"rw"},"population":70593,"osm_type":"node","osm_id":282222437,"type":"city","location":[30.0677684,-1.5792052],"bbox":[29.9077684,-1.7392052,30.2277684,-1.4192052],"border":[{"name":"Gicumbi","other_names":{"alt":"Byumba"},"display_name":"Gicumbi, Majyaruguru, Rwanda","address":{"city":"Gicumbi","state":"Majyaruguru","ISO3166-2-lvl4":"RW-03","country":"Rwanda","country_code":"rw"},"population":70593,"osm_type":"relation","osm_id":1711209,"type":"administrative","location":[30.0677684,-1.5792052],"bbox":[29.9422333,-1.8461507,30.2799648,-1.3824844]},{"name":"Byumba","other_names":{"name:ru":"Бьюмба"},"display_name":"Byumba, Gicumbi, Majyaruguru, Rwanda","address":{"city_district":"Byumba","city":"Gicumbi","state":"Majyaruguru","ISO3166-2-lvl4":"RW-03","country":"Rwanda","country_code":"rw"},"osm_type":"relation","osm_id":1796174,"type":"administrative","location":[30.05643857576075,-1.5754340500000001],"bbox":[30.0127849,-1.6354782,30.0877906,-1.517235]}]}
{"name":"Gisenyi","other_names":{"name:ko":"기세니"},"display_name":"Gisenyi, Rubavu, Iburengerazuba, Rwanda","address":{"city":"Gisenyi","county":"Rubavu","state":"Iburengerazuba","ISO3166-2-lvl4":"RW-04","country":"Rwanda","country_code":"rw"},"osm_type":"node","osm_id":271317488,"type":"city","location":[29.259855,-1.693545],"bbox":[29.099855,-1.853545,29.419855,-1.533545],"border":{"name":"Gisenyi","other_names":{"name:ko":"기세니"},"display_name":"Gisenyi, Rubavu, Iburengerazuba, Rwanda","address":{"city":"Gisenyi","county":"Rubavu","state":"Iburengerazuba","ISO3166-2-lvl4":"RW-04","country":"Rwanda","country_code":"rw"},"osm_type":"relation","osm_id":16361593,"type":"administrative","location":[29.259855,-1.693545],"bbox":[29.2437453,-1.7148138,29.2763246,-1.6659759]}}
{"name":"Huye","other_names":{"name:fa":"بوتیر","name:fr":"Huye","name:ko":"부타레","name:ru":"Бутаре","name:sr":"Бутаре","name:ur":"بوتارے","alt_name":"Butare","name:azb":"بوتیر","alt_name:fr":"Butare"},"display_name":"Huye, Ngoma, Huye, Amajvepfo, Rwanda","address":{"city":"Huye","village":"Ngoma","county":"Huye","state":"Amajvepfo","ISO3166-2-lvl4":"RW-05","country":"Rwanda","country_code":"rw"},"osm_type":"node","osm_id":435637541,"type":"city","location":[29.7401547,-2.6053426],"bbox":[29.5801547,-2.7653426,29.9001547,-2.4453426],"border":[{"name":"Huye","display_name":"Huye, Amajvepfo, Rwanda","address":{"county":"Huye","state":"Amajvepfo","ISO3166-2-lvl4":"RW-05","country":"Rwanda","country_code":"rw"},"osm_type":"relation","osm_id":1707124,"type":"administrative","location":[29.676718525398314,-2.5331023],"bbox":[29.5851577,-2.695629,29.8458858,-2.3697471]},{"name":"Huye","display_name":"Huye, Amajvepfo, Rwanda","address":{"city":"Huye","county":"Huye","state":"Amajvepfo","ISO3166-2-lvl4":"RW-05","country":"Rwanda","country_code":"rw"},"osm_type":"relation","osm_id":3952124,"type":"administrative","location":[29.697844073420317,-2.5849564000000003],"bbox":[29.6688879,-2.6262286,29.7406713,-2.5433976]}]}
{"name":"Kigali","other_names":{"name:am":"ኪጋሊ","name:ar":"كيغالي","name:az":"Kiqali","name:be":"Кігалі","name:bg":"Кигали","name:bo":"ཀི་ག་ལི།","name:br":"Kigali","name:ca":"Kigali","name:cv":"Кигали","name:de":"Kigali","name:el":"Κιγκάλι","name:en":"Kigali","name:eo":"Kigalo","name:fa":"کیگالی","name:fr":"Kigali","name:fy":"Kigaly","name:he":"קיגאלי","name:hi":"किगाली","name:hu":"Kigali","name:hy":"Կիգալի","name:is":"Kígalí","name:ja":"キガリ","name:ka":"კიგალი","name:kn":"ಕಿಗಾಲೀ","name:ko":"키갈리","name:ks":"کیگالی","name:ku":"Kîgalî","name:ky":"Кигали","name:lt":"Kigalis","name:mk":"Кигали","name:mr":"किगाली","name:oc":"Kigali","name:os":"Кигали","name:pl":"Kigali","name:pt":"Kigali","name:ru":"Кигали","name:si":"කිගාලි","name:sr":"Кигали","name:sv":"Kigali","name:ta":"கிகாலி","name:tg":"Кигали","name:th":"คิกาลี","name:uk":"Кігалі","name:ur":"کیگالی","name:zh":"吉佳利","name:azb":"کیقالی","name:ckb":"کیگالی","name:koi":"Кигали","name:mrj":"Кигали","name:pnb":"کیگالی","name:udm":"Кигали","name:az-Arab":"کیقالی"},"display_name":"Kigali, Akarere ka Nyarugenge, Umujyi wa Kigali, Rwanda","address":{"city":"Kigali","county":"Akarere ka Nyarugenge","state":"Umujyi wa Kigali","ISO3166-2-lvl4":"RW-01","country":"Rwanda","country_code":"rw"},"population":1132686,"osm_type":"node","osm_id":60485579,"type":"city","location":[30.061507,-1.950851],"bbox":[29.901507,-2.110851,30.221507,-1.790851]}
{"name":"Kimihurura","other_names":{"name:fr":"Kimihurura"},"display_name":"Kimihurura, Akarere ka Gasabo, Umujyi wa Kigali, Rwanda","address":{"city":"Kimihurura","county":"Akarere ka Gasabo","state":"Umujyi wa Kigali","ISO3166-2-lvl4":"RW-01","country":"Rwanda","country_code":"rw"},"osm_type":"way","osm_id":665449490,"type":"city","location":[30.09189027280454,-1.95716445],"bbox":[30.0757238,-1.966885,30.105118,-1.9454899]}
{"name":"Muhanga","other_names":{"name:ru":"Муханга","alt_name":"Gitarama","old_name":"Gitarama","old_name:ru":"Гитарама"},"display_name":"Muhanga, Nyamabuye, Akarere ka Muhanga, Amajvepfo, Rwanda","address":{"city":"Muhanga","county":"Akarere ka Muhanga","state":"Amajvepfo","ISO3166-2-lvl4":"RW-05","country":"Rwanda","country_code":"rw"},"osm_type":"node","osm_id":271318051,"type":"city","location":[29.7528767,-2.0845106],"bbox":[29.5928767,-2.2445106,29.9128767,-1.9245106],"border":{"name":"Muhanga","display_name":"Muhanga, Akarere ka Muhanga, Amajvepfo, Rwanda","address":{"city":"Muhanga","county":"Akarere ka Muhanga","state":"Amajvepfo","ISO3166-2-lvl4":"RW-05","country":"Rwanda","country_code":"rw"},"osm_type":"relation","osm_id":3952366,"type":"administrative","location":[29.71802273203935,-2.04308755],"bbox":[29.6780836,-2.0923484,29.7637806,-1.9939177]}}
{"display_name":"Musanze, Majyaruguru, Rwanda","address":{"city":"Musanze","state":"Majyaruguru","ISO3166-2-lvl4":"RW-03","country":"Rwanda","country_code":"rw"},"osm_type":"node","osm_id":11671691186,"type":"city","location":[29.5362497,-1.5073674],"bbox":[29.3762497,-1.6673674,29.6962497,-1.3473674]}
{"display_name":"Musanze, Majyaruguru, Rwanda","address":{"city":"Musanze","state":"Majyaruguru","ISO3166-2-lvl4":"RW-03","country":"Rwanda","country_code":"rw"},"osm_type":"node","osm_id":11671691184,"type":"city","location":[29.6472692,-1.5063345],"bbox":[29.4872692,-1.6663345,29.8072692,-1.3463345]}
{"display_name":"Musanze, Majyaruguru, Rwanda","address":{"city":"Musanze","state":"Majyaruguru","ISO3166-2-lvl4":"RW-03","country":"Rwanda","country_code":"rw"},"osm_type":"node","osm_id":11671691185,"type":"city","location":[29.5696619,-1.5072651],"bbox":[29.4096619,-1.6672651,29.7296619,-1.3472651]}
{"name":"Musanze","other_names":{"name:ko":"루헹게리","alt_name":"Musanze","alt_name_1":"Muhoza"},"display_name":"Musanze, Majyaruguru, Rwanda","address":{"city":"Musanze","state":"Majyaruguru","ISO3166-2-lvl4":"RW-03","country":"Rwanda","country_code":"rw"},"osm_type":"node","osm_id":271315342,"type":"city","location":[29.63631,-1.50405],"bbox":[29.47631,-1.66405,29.79631,-1.34405],"border":[{"name":"Musanze","other_names":{"name:ko":"루헹게리","alt_name":"Musanze","alt_name_1":"Muhoza"},"display_name":"Musanze, Majyaruguru, Rwanda","address":{"city":"Musanze","state":"Majyaruguru","ISO3166-2-lvl4":"RW-03","country":"Rwanda","country_code":"rw"},"osm_type":"relation","osm_id":1711187,"type":"administrative","location":[29.63631,-1.50405],"bbox":[29.4503258,-1.59874,29.7661176,-1.3845769]},{"name":"Muhoza","display_name":"Muhoza, Musanze, Majyaruguru, Rwanda","address":{"city_district":"Muhoza","city":"Musanze","state":"Majyaruguru","ISO3166-2-lvl4":"RW-03","country":"Rwanda","country_code":"rw"},"osm_type":"relation","osm_id":1756510,"type":"administrative","location":[29.647005948926253,-1.51386135],"bbox":[29.6072207,-1.5359186,29.6797367,-1.4917716]}]}
{"name":"Nyanza","other_names":{"name:de":"Nyanza","name:fr":"Nyanza","name:hy":"Նիանզա","name:ru":"Ньянза","name:sr":"Њанза","name:ur":"نیانزا"},"display_name":"Nyanza, Busasamana, Nyanza, Amajvepfo, Rwanda","address":{"city":"Nyanza","county":"Nyanza","state":"Amajvepfo","ISO3166-2-lvl4":"RW-05","country":"Rwanda","country_code":"rw"},"osm_type":"node","osm_id":281680652,"type":"city","location":[29.7504906,-2.3524553],"bbox":[29.5904906,-2.5124553,29.9104906,-2.1924553],"border":{"name":"Nyanza","display_name":"Nyanza, Amajvepfo, Rwanda","address":{"county":"Nyanza","state":"Amajvepfo","ISO3166-2-lvl4":"RW-05","country":"Rwanda","country_code":"rw"},"osm_type":"relation","osm_id":1707126,"type":"administrative","location":[29.770224144656872,-2.3430532],"bbox":[29.5816306,-2.4546411,29.9847853,-2.2314082]}}
{"name":"Rusizi","other_names":{"name:fr":"Rusizi","name:ru":"Чьянгугу","old_name":"Cyangugu"},"display_name":"Rusizi, Kamembe, Rusizi, Iburengerazuba, Rwanda","address":{"city":"Rusizi","county":"Rusizi","state":"Iburengerazuba","ISO3166-2-lvl4":"RW-04","country":"Rwanda","country_code":"rw"},"osm_type":"node","osm_id":435390255,"type":"city","location":[28.8958127,-2.4887775],"bbox":[28.7358127,-2.6487775,29.0558127,-2.3287775],"border":{"name":"Rusizi","display_name":"Rusizi, Iburengerazuba, Rwanda","address":{"county":"Rusizi","state":"Iburengerazuba","ISO3166-2-lvl4":"RW-04","country":"Rwanda","country_code":"rw"},"osm_type":"relation","osm_id":1708895,"type":"administrative","location":[29.193053856797853,-2.5573464],"bbox":[28.861696,-2.7433958,29.3689572,-2.3712181]}}
{"name":"Rwamagana","display_name":"Rwamagana, Kigabiro, Rwamagana District, Iburasirasuba, Rwanda","address":{"city":"Rwamagana","county":"Rwamagana District","state":"Iburasirasuba","ISO3166-2-lvl4":"RW-02","country":"Rwanda","country_code":"rw"},"osm_type":"node","osm_id":277547195,"type":"city","location":[30.434885,-1.951239],"bbox":[30.274885,-2.111239,30.594885,-1.791239]}
