{"name":"Andijon","other_names":{"name:ar":"أنديجان","name:az":"اندیجان شهری","name:ba":"Андижан","name:be":"Андыжан","name:bg":"Андижан","name:bn":"আন্দিজান","name:bs":"Andijan","name:ca":"Andidjan","name:ce":"Андижан","name:cs":"Andižan","name:da":"Andisjan","name:el":"Αντιτζάν","name:en":"Andijan","name:eo":"Andiĝono","name:eu":"Andijon","name:fa":"اندیجان","name:fi":"Andižan","name:fr":"Andijan","name:he":"אנדיז'ן","name:hi":"अन्दीझ़ान","name:hr":"Andijan","name:id":"Andizhon","name:ja":"アンディジャン","name:ka":"ანდიჟანი","name:ki":"Andijan","name:kk":"Әндіжан","name:ko":"안디잔","name:ky":"Анжыян","name:lt":"Andižanas","name:lv":"Andidžona","name:ml":"അന്ദീജാൻ","name:mn":"Андижан","name:ms":"Andijan","name:nb":"Andizjan","name:nl":"Andizan","name:os":"Андижан","name:pa":"ਅੰਦੀਜਾਨ","name:pl":"Andiżan","name:pt":"Andijã","name:ro":"Andijan","name:ru":"Андижан","name:sl":"Andižan","name:sr":"Андижан","name:sv":"Andizjan","name:ta":"ஆண்டிஜன்","name:tg":"Андиҷон","name:th":"แอนดีจ็อน","name:tk":"Andijan","name:tl":"Andijan","name:tr":"Andican","name:tt":"Әндиҗан","name:uk":"Андижан","name:ur":"اندیجان","name:uz":"Andijon","name:vi":"Andijan","name:zh":"安集延","name:uz-cyr":"Андижон","name:az-Latn":"Əndican","name:uz-Arab":"اندیجان","name:uz-Cyrl":"Андижон","name:uz-Latn":"Andijon"},"display_name":"Andijon, Andijon shahri, Andijon Viloyati, 170100, Oʻzbekiston","address":{"city":"Andijon","state":"Andijon Viloyati","ISO3166-2-lvl4":"UZ-AN","postcode":"170100","country":"Oʻzbekiston","country_code":"uz"},"population":468100,"osm_type":"node","osm_id":246965597,"type":"city","location":[72.3506746,40.7833471],"bbox":[72.1906746,40.6233471,72.5106746,40.9433471],"border":[{"name":"Andijon","other_names":{"name:en":"Andijan","name:fr":"Andijan","name:ja":"アンディジャン","name:ru":"Андижан","name:uk":"Андижан","name:kaa":"Ándijan"},"display_name":"Andijon, Andijon Viloyati, 170100, Oʻzbekiston","address":{"city":"Andijon","state":"Andijon Viloyati","ISO3166-2-lvl4":"UZ-AN","postcode":"170100","country":"Oʻzbekiston","country_code":"uz"},"population":425500,"osm_type":"way","osm_id":331189322,"type":"city","location":[72.34196601186889,40.7727796],"bbox":[72.2801623,40.7168653,72.3989618,40.8296183]},{"name":"Andijon shahri","other_names":{"name:az":"اندیجان شهری","name:en":"Andijan City","name:fa":"شهر اندیجان","name:he":"עיר אנדיז'ן","name:ru":"Андижан","name:tg":"Шаҳри Андиҷон","name:tr":"Andican Şehri","name:uz":"Andijon shahri","name:az-Latn":"Əndican şəhəri","name:uz-Arab":"اندیجان شهری","name:uz-Cyrl":"Андижон шаҳри","name:uz-Latn":"Andijon shahri","name:ar":"أنديجان","name:ba":"Андижан","name:be":"Андыжан","name:bg":"Андижан","name:bn":"আন্দিজান","name:bs":"Andijan","name:ca":"Andidjan","name:ce":"Андижан","name:cs":"Andižan","name:da":"Andisjan","name:el":"Αντιτζάν","name:eo":"Andiĝono","name:eu":"Andijon","name:fi":"Andižan","name:fr":"Andijan","name:hi":"अन्दीझ़ान","name:hr":"Andijan","name:id":"Andizhon","name:ja":"アンディジャン","name:ka":"ანდიჟანი","name:ki":"Andijan","name:kk":"Әндіжан","name:ko":"안디잔","name:ky":"Анжыян","name:lt":"Andižanas","name:lv":"Andidžona","name:ml":"അന്ദീജാൻ","name:mn":"Андижан","name:ms":"Andijan","name:nb":"Andizjan","name:nl":"Andizan","name:os":"Андижан","name:pa":"ਅੰਦੀਜਾਨ","name:pl":"Andiżan","name:pt":"Andijã","name:ro":"Andijan","name:sl":"Andižan","name:sr":"Андижан","name:sv":"Andizjan","name:ta":"ஆண்டிஜன்","name:th":"แอนดีจ็อน","name:tk":"Andijan","name:tl":"Andijan","name:tt":"Әндиҗан","name:uk":"Андижан","name:ur":"اندیجان","name:vi":"Andijan","name:zh":"安集延","name:uz-cyr":"Андижон","alt":"Andijon","alt:en":"Andijan","alt:fa":"اندیجان","alt:he":"אנדיז'ן","alt:tg":"Андиҷон","alt:tr":"Andican","alt:uz":"Andijon","alt:az-Latn":"Əndican","alt:uz-Arab":"اندیجان","alt:uz-Cyrl":"Андижон","alt:uz-Latn":"Andijon"},"display_name":"Andijon shahri, Andijon Viloyati, Oʻzbekiston","address":{"city":"Andijon shahri","state":"Andijon Viloyati","ISO3166-2-lvl4":"UZ-AN","country":"Oʻzbekiston","country_code":"uz"},"population":468100,"osm_type":"relation","osm_id":15534510,"type":"administrative","location":[72.3506746,40.7833471],"bbox":[72.2789221,40.7018788,72.4255597,40.8310953]}]}
{"name":"Angren","other_names":{"name:ar":"أنقرين","name:de":"Angren","name:en":"Angren","name:ja":"アングレン","name:ml":"അംഗ്രെൻ","name:ru":"Ангрен","name:zh":"安格连","alt_name":"Турк;Ангреншахцтрой;Турн","int_name":"Angren","alt_name:en":"Turk;Angrenshakhtstroy;Turn"},"display_name":"Angren, Toshkent Viloyati, 110200, Oʻzbekiston","address":{"city":"Angren","town":"Angren","state":"Toshkent Viloyati","ISO3166-2-lvl4":"UZ-TO","postcode":"110200","country":"Oʻzbekiston","country_code":"uz"},"population":126962,"osm_type":"node","osm_id":246175637,"type":"city","location":[70.0795361,41.0212207],"bbox":[69.9195361,40.8612207,70.2395361,41.1812207]}
{"name":"Arnasoy QFY","other_names":{"name:ru":"Арнасой"},"display_name":"Arnasoy QFY, Forish Tumani, Jizzax Viloyati, Oʻzbekiston","address":{"city":"Arnasoy QFY","county":"Forish Tumani","state":"Jizzax Viloyati","ISO3166-2-lvl4":"UZ-JI","country":"Oʻzbekiston","country_code":"uz"},"osm_type":"relation","osm_id":15640319,"type":"administrative","location":[67.86176634394735,41.0949287],"bbox":[67.5972887,41.009158,68.1274869,41.1820391],"inferred_type":"city"}
{"name":"Asaka","other_names":{"name:ar":"مقاطعة أساكا","name:en":"Asaka","name:fa":"اسکه","name:ja":"アサカ","name:ml":"അസക്ക","name:ru":"Асака","name:tg":"Асака","name:tr":"Asaka","name:uz":"Asaka","old_name":"Асаке;Зеленск;Ленинск","name:uz-Arab":"اسکه","name:uz-Cyrl":"Асака","name:uz-Latn":"Asaka"},"display_name":"Asaka, Asaka tumani, Andijon Viloyati, 170200, Oʻzbekiston","address":{"city":"Asaka","county":"Asaka tumani","state":"Andijon Viloyati","ISO3166-2-lvl4":"UZ-AN","postcode":"170200","country":"Oʻzbekiston","country_code":"uz"},"osm_type":"node","osm_id":246987846,"type":"city","location":[72.2489005,40.6462095],"bbox":[72.0889005,40.4862095,72.4089005,40.8062095]}
{"name":"Avayxon mahalla","other_names":{"name:en":"Avaykhan mahalla","name:ru":"Авайхан махалля"},"display_name":"Avayxon mahalla, Oʻzbekiston","address":{"city":"Avayxon mahalla","country":"Oʻzbekiston","country_code":"uz"},"osm_type":"way","osm_id":1055079753,"type":"administrative","location":[69.34965176059484,41.31721915],"bbox":[69.3417186,41.3091868,69.355721,41.3251071],"inferred_type":"city"}
{"name":"Bekobod","other_names":{"name:ar":"بيك آباد","name:en":"Bekabad","name:eo":"Bekabad","name:ja":"ベカバード","name:ml":"ബേക്കാബാദ്","name:ru":"Бекабад","name:ur":"بیک آباد","name:uz":"Bekobod","alt_name":"Бекабад;Беговат;Багеват;Биговат;Бегоwат","old_name":"Посёлок Запорожский","alt_name:en":"Bekabad;Begovat;Bagevat;Bigovat;Begowat","alt_name:ru":"Бекабад;Беговат","name:uz-cyr":"Бекобод","old_name:ru":"Посёлок Запорожский"},"display_name":"Bekobod, Toshkent Viloyati, 110515, Oʻzbekiston","address":{"city":"Bekobod","county":"Bekobod","state":"Toshkent Viloyati","ISO3166-2-lvl4":"UZ-TO","postcode":"110515","country":"Oʻzbekiston","country_code":"uz"},"population":101292,"osm_type":"node","osm_id":3019559323,"type":"city","location":[69.2531407,40.2320291],"bbox":[69.0931407,40.0720291,69.4131407,40.3920291]}
{"name":"Bo‘yrachi MFY","other_names":{"name:ru":"Буйрачи МФИ","name:uz-Cyrl":"Бўйрачи МФЙ"},"display_name":"Bo‘yrachi MFY, Showot Tumani, Xorazm Viloyati, Oʻzbekiston","address":{"city":"Bo‘yrachi MFY","county":"Showot Tumani","state":"Xorazm Viloyati","ISO3166-2-lvl4":"UZ-XO","country":"Oʻzbekiston","country_code":"uz"},"osm_type":"relation","osm_id":17707171,"type":"administrative","location":[60.40996353643381,41.6572277],"bbox":[60.3873825,41.6444167,60.4222701,41.6699204],"inferred_type":"city","border":{"name":"Bo‘yrachi MFY","other_names":{"name:ru":"Буйрачи МФИ","name:uz-Cyrl":"Бўйрачи МФЙ"},"display_name":"Bo‘yrachi MFY, Showot Tumani, Xorazm Viloyati, Oʻzbekiston","address":{"city":"Bo‘yrachi MFY","county":"Showot Tumani","state":"Xorazm Viloyati","ISO3166-2-lvl4":"UZ-XO","country":"Oʻzbekiston","country_code":"uz"},"osm_type":"way","osm_id":1291639775,"type":"administrative","location":[60.40996353643381,41.6572277],"bbox":[60.3873825,41.6444167,60.4222701,41.6699204]}}
{"name":"Bog‘bon MFY","other_names":{"name:ru":"Богбон МФИ","name:uz-Cyrl":"Боғбон МФЙ"},"display_name":"Bog‘bon MFY, Showot Tumani, Xorazm Viloyati, Oʻzbekiston","address":{"city":"Bog‘bon MFY","county":"Showot Tumani","state":"Xorazm Viloyati","ISO3166-2-lvl4":"UZ-XO","country":"Oʻzbekiston","country_code":"uz"},"osm_type":"way","osm_id":1290819100,"type":"administrative","location":[60.41026854882902,41.6727367],"bbox":[60.3969136,41.6454322,60.4406018,41.7000422],"inferred_type":"city","border":{"name":"Bog‘bon MFY","other_names":{"name:ru":"Богбон МФИ","name:uz-Cyrl":"Боғбон МФЙ"},"display_name":"Bog‘bon MFY, Showot Tumani, Xorazm Viloyati, Oʻzbekiston","address":{"city":"Bog‘bon MFY","county":"Showot Tumani","state":"Xorazm Viloyati","ISO3166-2-lvl4":"UZ-XO","country":"Oʻzbekiston","country_code":"uz"},"osm_type":"relation","osm_id":17698042,"type":"administrative","location":[60.41026854882902,41.6727367],"bbox":[60.3969136,41.6454322,60.4406018,41.7000422]}}
{"name":"Boshdarxon MFY","other_names":{"name:ru":"Бошдарксон"},"display_name":"Boshdarxon MFY, Oqdaryo tumani, Samarqand Viloyati, 140000, Oʻzbekiston","address":{"city":"Boshdarxon MFY","county":"Oqdaryo tumani","state":"Samarqand Viloyati","ISO3166-2-lvl4":"UZ-SA","postcode":"140000","country":"Oʻzbekiston","country_code":"uz"},"osm_type":"relation","osm_id":17544823,"type":"administrative","location":[66.99305386129554,39.72116975],"bbox":[66.9668118,39.6937933,67.0542731,39.7486273],"inferred_type":"city"}
{"name":"Bunyodkor MFY","other_names":{"name:ru":"Бунёдкор"},"display_name":"Bunyodkor MFY, Urgut tumani, Samarqand Viloyati, 140000, Oʻzbekiston","address":{"city":"Bunyodkor MFY","county":"Urgut tumani","state":"Samarqand Viloyati","ISO3166-2-lvl4":"UZ-SA","postcode":"140000","country":"Oʻzbekiston","country_code":"uz"},"osm_type":"relation","osm_id":17544717,"type":"administrative","location":[67.16102317528251,39.420409750000005],"bbox":[67.1523295,39.4087779,67.1723553,39.4317887],"inferred_type":"city","border":{"name":"Bunyodkor MFY","other_names":{"name:ru":"Бунёдкор"},"display_name":"Bunyodkor MFY, Urgut tumani, Samarqand Viloyati, 140000, Oʻzbekiston","address":{"city":"Bunyodkor MFY","county":"Urgut tumani","state":"Samarqand Viloyati","ISO3166-2-lvl4":"UZ-SA","postcode":"140000","country":"Oʻzbekiston","country_code":"uz"},"osm_type":"way","osm_id":1255549809,"type":"administrative","location":[67.16102317528251,39.420409750000005],"bbox":[67.1523295,39.4087779,67.1723553,39.4317887]}}
{"name":"Buxoro","other_names":{"name:ar":"بخارى","name:az":"Buxara","name:da":"Bukhara","name:de":"Buchara","name:en":"Bukhara","name:es":"Bujara","name:et":"Buhhaara","name:fa":"بخارا","name:fr":"Boukhara","name:he":"בוכרה","name:ja":"ブハラ","name:kk":"Бұхара","name:ko":"부하라","name:ky":"Бухара","name:lt":"Buchara","name:ml":"ബുഖാറ","name:nl":"Buchara","name:pl":"Buchara","name:ru":"Бухара","name:sk":"Buchara","name:tg":"Бухоро","name:tk":"Buhara","name:tr":"Buhara","name:ug":"بۇخارا","name:uk":"Бухара","name:uz":"Buxoro","name:zh":"布哈拉","int_name":"Bukhara","name:azb":"بوخارا","old_name":"Хара","name:kk-Arab":"بۇحارا","name:kk-Cyrl":"Бұхара","name:kk-Latn":"Būxara","name:ky-Arab":"بۇحارا","name:tk-Arab":"بوحارا","name:uz-Arab":"بوخارا","name:uz-Cyrl":"Бухоро","name:uz-Latn":"Buxoro"},"display_name":"Buxoro, Buxoro shahri, Buxoro Viloyati, 200100, Oʻzbekiston","address":{"city":"Buxoro","state":"Buxoro Viloyati","ISO3166-2-lvl4":"UZ-BU","postcode":"200100","country":"Oʻzbekiston","country_code":"uz"},"population":289200,"osm_type":"node","osm_id":29926754,"type":"city","location":[64.415153,39.7759835],"bbox":[64.255153,39.6159835,64.575153,39.9359835],"border":{"name":"Buxoro shahri","other_names":{"name:an":"Bukhara","name:ar":"بخارى","name:az":"Buxara şəhəri","name:be":"Бухара","name:bg":"Бухара","name:bn":"বোখারা","name:ca":"Bukharà","name:cs":"Buchara","name:da":"Bukhara","name:de":"Buchara","name:el":"Μπουχάρα","name:en":"Bukhara","name:eo":"Buĥaro","name:es":"Bujara","name:eu":"Bukhara","name:fa":"بخارا","name:fi":"Buhara","name:fr":"Boukhara","name:he":"עיר בוכרה","name:hi":"बुख़ारा","name:hr":"Buhara","name:hu":"Buhara","name:id":"Bukhara","name:it":"Bukhara","name:ja":"ブハラ","name:ka":"ბუხარა","name:kk":"Бұхара қаласы","name:ko":"부하라","name:ky":"Бухара шаары","name:la":"Bochara","name:lt":"Buchara","name:lv":"Buhāra","name:mk":"Бухара","name:ml":"ബുഖാറ","name:mn":"Бухар","name:mr":"बुखारा","name:ms":"Bukhara","name:nl":"Buchara (stad)","name:no":"Bukhara","name:os":"Бухара","name:pa":"ਬੁਖਾਰਾ","name:pl":"Buchara","name:ps":"بخارا","name:pt":"Bucara","name:ro":"Buhara","name:ru":"Бухара","name:sk":"Buchara","name:sl":"Buhara","name:so":"Bukhaara","name:sr":"Бухара","name:sv":"Buchara","name:sw":"Bukhara","name:ta":"புகாரா","name:tg":"Шаҳри Бухоро","name:tk":"Buhara şäheri","name:tr":"Buhara Şehri","name:ug":"بۇخارا شەھىرى","name:uk":"Бухара","name:ur":"بخارا","name:uz":"Buxoro shahri","name:vi":"Bukhara","name:zh":"布哈拉","int_name":"Bukhara","name:azb":"بوخارا شهری","name:kaa":"Buxara","name:kk-Arab":"بۇحارا قالاسى","name:kk-Cyrl":"Бұхара қаласы","name:kk-Latn":"Būxara qalasy","name:ky-Arab":"بۇحارا شاارى","name:tk-Arab":"بوحارا شأهری","name:uz-Arab":"بوخارا شهری","name:uz-Cyrl":"Бухоро шаҳри","name:uz-Latn":"Buxoro shahri","name:et":"Buhhaara","name:be-tarask":"Бухара","old_name":"Хара","alt":"Buxoro","alt:az":"Buxara","alt:he":"בוכרה","alt:kk":"Бұхара","alt:ky":"Бухара","alt:nl":"Buchara","alt:tg":"Бухоро","alt:tk":"Buhara","alt:tr":"Buhara","alt:ug":"بۇخارا","alt:uz":"Buxoro","alt:azb":"بوخارا","alt:kk-Arab":"بۇحارا","alt:kk-Cyrl":"Бұхара","alt:kk-Latn":"Būxara","alt:ky-Arab":"بۇحارا","alt:tk-Arab":"بوحارا","alt:uz-Arab":"بوخارا","alt:uz-Cyrl":"Бухоро","alt:uz-Latn":"Buxoro"},"display_name":"Buxoro shahri, Buxoro Viloyati, Oʻzbekiston","address":{"city":"Buxoro shahri","state":"Buxoro Viloyati","ISO3166-2-lvl4":"UZ-BU","country":"Oʻzbekiston","country_code":"uz"},"population":272500,"osm_type":"relation","osm_id":13070474,"type":"administrative","location":[64.415153,39.7759835],"bbox":[64.3793628,39.7231685,64.4999666,39.8231883]}}
{"name":"Chirchiq","other_names":{"name:ar":"تشيرتشيق","name:de":"Chirchik","name:en":"Chirchik","name:eo":"Chirchik","name:es":"Chirchik","name:fr":"Tchirtchik","name:ja":"チルチク","name:ml":"ചിർചിക്ക്","name:ru":"Чирчик","int_name":"Chirchik","name:kaa":"Shırshıq"},"display_name":"Chirchiq, Qibray Tumani, Toshkent Viloyati, 111700, Oʻzbekiston","address":{"city":"Chirchiq","county":"Qibray Tumani","state":"Toshkent Viloyati","ISO3166-2-lvl4":"UZ-TO","postcode":"111700","country":"Oʻzbekiston","country_code":"uz"},"population":143600,"osm_type":"node","osm_id":245385393,"type":"city","location":[69.5811915,41.4726157],"bbox":[69.4211915,41.3126157,69.7411915,41.6326157],"border":{"name":"Chirchiq","other_names":{"name:ar":"تشيرتشيق","name:de":"Tschirtschik","name:en":"Chirchik","name:eo":"Chirchik","name:ja":"チルチク","name:ru":"Чирчик","name:kaa":"Shırshıq","name:es":"Chirchik","name:fr":"Tchirtchik","name:ml":"ചിർചിക്ക്","int_name":"Chirchik","alt:de":"Chirchik"},"display_name":"Chirchiq, Qibray Tumani, Toshkent Viloyati, 111700, Oʻzbekiston","address":{"city":"Chirchiq","county":"Qibray Tumani","state":"Toshkent Viloyati","ISO3166-2-lvl4":"UZ-TO","postcode":"111700","country":"Oʻzbekiston","country_code":"uz"},"population":143600,"osm_type":"relation","osm_id":7723809,"type":"administrative","location":[69.5811915,41.4726157],"bbox":[69.5245764,41.42216,69.6427302,41.5288348]}}
{"name":"Cho'lquvar QFY","other_names":{"name:ru":"Чолкувар"},"display_name":"Cho'lquvar QFY, Arnasoy Tumani, Jizzax Viloyati, Oʻzbekiston","address":{"city":"Cho'lquvar QFY","county":"Arnasoy Tumani","state":"Jizzax Viloyati","ISO3166-2-lvl4":"UZ-JI","country":"Oʻzbekiston","country_code":"uz"},"osm_type":"relation","osm_id":13490541,"type":"administrative","location":[67.84698171349397,40.705815799999996],"bbox":[67.7723753,40.6437417,67.947502,40.7655825],"inferred_type":"city"}
{"name":"Darvoza QFY","other_names":{"name:ru":"Дарвоза"},"display_name":"Darvoza QFY, Forish Tumani, Jizzax Viloyati, Oʻzbekiston","address":{"city":"Darvoza QFY","county":"Forish Tumani","state":"Jizzax Viloyati","ISO3166-2-lvl4":"UZ-JI","country":"Oʻzbekiston","country_code":"uz"},"osm_type":"relation","osm_id":15640336,"type":"administrative","location":[67.17485189705798,41.0529124],"bbox":[66.6433634,40.920598,67.7381601,41.1820391],"inferred_type":"city"}
{"name":"Dashtobod","other_names":{"name:ar":"دشت آباد","name:en":"Dashtabad","name:ja":"ダシュタバード","name:ml":"ദഷ്താബാദ്","name:ru":"Даштабад","name:ur":"دشت آباد","old_name":"ст. Обручево;Ульяново"},"display_name":"Dashtobod, Zomin Tumani, Jizzax Viloyati, Oʻzbekiston","address":{"city":"Dashtobod","county":"Zomin Tumani","state":"Jizzax Viloyati","ISO3166-2-lvl4":"UZ-JI","country":"Oʻzbekiston","country_code":"uz"},"osm_type":"node","osm_id":247137923,"type":"city","location":[68.4922483,40.1311108],"bbox":[68.3322483,39.9711108,68.6522483,40.2911108]}
{"name":"Denov","other_names":{"name:en":"Denov","name:fa":"دهنو","name:fr":"Denaou","name:ja":"デナウ","name:ml":"ദെഹ്നവ്","name:ru":"Денау","name:zh":"德诺夫"},"display_name":"Denov, Denov Tumani, Surxondaryo Viloyati, 190500, Oʻzbekiston","address":{"city":"Denov","county":"Denov Tumani","state":"Surxondaryo Viloyati","ISO3166-2-lvl4":"UZ-SU","postcode":"190500","country":"Oʻzbekiston","country_code":"uz"},"population":104393,"osm_type":"node","osm_id":245660119,"type":"city","location":[67.8951071,38.2753782],"bbox":[67.7351071,38.1153782,68.0551071,38.4353782],"border":{"name":"Denov","other_names":{"name:en":"Denov","name:fr":"Denaou","name:ja":"デナウ","name:ru":"Денау","name:fa":"دهنو","name:ml":"ദെഹ്നവ്","name:zh":"德诺夫"},"display_name":"Denov, Denov Tumani, Surxondaryo Viloyati, 190500, Oʻzbekiston","address":{"city":"Denov","county":"Denov Tumani","state":"Surxondaryo Viloyati","ISO3166-2-lvl4":"UZ-SU","postcode":"190500","country":"Oʻzbekiston","country_code":"uz"},"population":104393,"osm_type":"way","osm_id":38154823,"type":"city","location":[67.8951071,38.2753782],"bbox":[67.8691416,38.2484085,67.9550267,38.3007667]}}
{"name":"Farg'ona","other_names":{"name:ar":"فرغانة","name:az":"Fərqanə","name:ba":"Фәрғәнә","name:be":"Фергана","name:bg":"Фергана","name:bn":"ফারগানা","name:bs":"Fergana","name:ca":"Fergana","name:ce":"Фергана","name:cs":"Fergana","name:cv":"Фергана","name:da":"Fergana","name:de":"Fargʻona","name:el":"Φεργκάνα","name:en":"Fergana","name:eo":"Fergana","name:es":"Ferganá","name:et":"Fergana","name:eu":"Fergana","name:fa":"فرغانه","name:fi":"Fergana","name:fr":"Ferghana","name:he":"פרע'אנה","name:hi":"फ़रग़ाना","name:hu":"Fergana","name:hy":"Ֆերգանա","name:id":"Fergana","name:it":"Fergana","name:ja":"フェルガナ","name:ki":"Fergana","name:kk":"Ферғана","name:ko":"페르가나","name:ks":"فرغانہ","name:kv":"Фергана","name:ky":"Фергана","name:lb":"Fergana","name:lt":"Fergana","name:lv":"Fergāna","name:ml":"ഫെർഗാന","name:mn":"Фергана","name:nb":"Fergana","name:nl":"Farg'ona","name:os":"Фергана","name:pa":"ਫ਼ਰਗਨਾ","name:pl":"Fergana","name:pt":"Fergana","name:ro":"Fergana","name:ru":"Фергана","name:sq":"Fergana","name:sr":"Фергана","name:sv":"Fergana","name:ta":"பெர்கானா","name:tg":"Фарғона","name:tk":"Fergana","name:tr":"Fergana","name:tt":"Фәрганә","name:ug":"فەرغانە","name:uk":"Фергана","name:ur":"فرغانہ","name:uz":"Fargʻona","name:vi":"Fergana","name:zh":"费尔干纳","int_name":"Fergana","name:arz":"فرجانه","name:azb":"فرغانه","name:pnb":"فرغانہ","old_name":"Новый Маргилан;Скобелев","name:az-Arab":"فیرغانا","name:kk-Arab":"فەرعانا","name:uz-Arab":"فرغانه","name:uz-Cyrl":"Фарғона"},"display_name":"Farg'ona, Fargʻona shahri, Farg'ona Viloyati, 150100, Oʻzbekiston","address":{"city":"Farg'ona","state":"Farg'ona Viloyati","ISO3166-2-lvl4":"UZ-FA","postcode":"150100","country":"Oʻzbekiston","country_code":"uz"},"population":305600,"osm_type":"node","osm_id":245554685,"type":"city","location":[71.7913193,40.3764879],"bbox":[71.6313193,40.2164879,71.9513193,40.5364879],"border":[{"name":"Farg'ona","other_names":{"name:ar":"فرغانة","name:cs":"Fergana","name:de":"Fargʻona","name:el":"Φεργκάνα","name:en":"Fergana","name:eo":"Fergana","name:es":"Ferganá","name:fa":"فرغانه","name:fr":"Ferghana","name:hy":"Ֆերգանա","name:ja":"フェルガナ","name:ks":"فرغانہ","name:ru":"Фергана","name:tg":"Фарғона","name:ug":"فەرغانە","name:uk":"Фергана","name:ur":"فرغانہ","name:uz":"Farg'ona","name:arz":"فرجانه","name:azb":"فیرغانا","name:kaa":"Ferǵana","name:pnb":"فرغانہ","old_name":"Новый Маргилан;Скобелев","name:az-Arab":"فیرغانا","name:kk-Arab":"فەرعانا"},"display_name":"Farg'ona, Farg'ona Viloyati, 150100, Oʻzbekiston","address":{"city":"Farg'ona","state":"Farg'ona Viloyati","ISO3166-2-lvl4":"UZ-FA","postcode":"150100","country":"Oʻzbekiston","country_code":"uz"},"population":340600,"osm_type":"way","osm_id":27143452,"type":"city","location":[71.78755737387597,40.3983651],"bbox":[71.7193692,40.3339754,71.8738649,40.4577725]},{"name":"Fargʻona shahri","other_names":{"name:az":"فرغانه شهری","name:en":"Fergana City","name:fa":"شهر فرغانه","name:he":"עיר פרע'אנה","name:ru":"Фергана","name:tg":"Шаҳри Фарғона","name:tr":"Fergana Şehri","name:uz":"Fargʻona shahri","name:zh":"费尔干纳市","name:az-Latn":"Fərqanə şəhəri","name:uz-Arab":"فرغانه شهری","name:uz-Cyrl":"Фарғона шаҳри","name:uz-Latn":"Fargʻona shahri","name:ar":"فرغانة","name:ba":"Фәрғәнә","name:be":"Фергана","name:bg":"Фергана","name:bn":"ফারগানা","name:bs":"Fergana","name:ca":"Fergana","name:ce":"Фергана","name:cs":"Fergana","name:cv":"Фергана","name:da":"Fergana","name:de":"Fargʻona","name:el":"Φεργκάνα","name:eo":"Fergana","name:es":"Ferganá","name:et":"Fergana","name:eu":"Fergana","name:fi":"Fergana","name:fr":"Ferghana","name:hi":"फ़रग़ाना","name:hu":"Fergana","name:hy":"Ֆերգանա","name:id":"Fergana","name:it":"Fergana","name:ja":"フェルガナ","name:ki":"Fergana","name:kk":"Ферғана","name:ko":"페르가나","name:ks":"فرغانہ","name:kv":"Фергана","name:ky":"Фергана","name:lb":"Fergana","name:lt":"Fergana","name:lv":"Fergāna","name:ml":"ഫെർഗാന","name:mn":"Фергана","name:nb":"Fergana","name:nl":"Farg'ona","name:os":"Фергана","name:pa":"ਫ਼ਰਗਨਾ","name:pl":"Fergana","name:pt":"Fergana","name:ro":"Fergana","name:sq":"Fergana","name:sr":"Фергана","name:sv":"Fergana","name:ta":"பெர்கானா","name:tk":"Fergana","name:tt":"Фәрганә","name:ug":"فەرغانە","name:uk":"Фергана","name:ur":"فرغانہ","name:vi":"Fergana","int_name":"Fergana","name:arz":"فرجانه","name:azb":"فرغانه","name:pnb":"فرغانہ","old_name":"Новый Маргилан;Скобелев","name:az-Arab":"فیرغانا","name:kk-Arab":"فەرعانا","alt":"Farg'ona","alt:az":"Fərqanə","alt:en":"Fergana","alt:fa":"فرغانه","alt:he":"פרע'אנה","alt:tg":"Фарғона","alt:tr":"Fergana","alt:uz":"Fargʻona","alt:zh":"费尔干纳","alt:uz-Arab":"فرغانه","alt:uz-Cyrl":"Фарғона"},"display_name":"Fargʻona shahri, Farg'ona Viloyati, Oʻzbekiston","address":{"city":"Fargʻona shahri","state":"Farg'ona Viloyati","ISO3166-2-lvl4":"UZ-FA","country":"Oʻzbekiston","country_code":"uz"},"population":305600,"osm_type":"relation","osm_id":15537982,"type":"administrative","location":[71.7913193,40.3764879],"bbox":[71.7235674,40.3261914,71.8640937,40.4604513]}]}
{"name":"Forish QFY","other_names":{"name:ru":"Фориш"},"display_name":"Forish QFY, Forish Tumani, Jizzax Viloyati, 131200, Oʻzbekiston","address":{"city":"Forish QFY","county":"Forish Tumani","state":"Jizzax Viloyati","ISO3166-2-lvl4":"UZ-JI","postcode":"131200","country":"Oʻzbekiston","country_code":"uz"},"osm_type":"relation","osm_id":15640249,"type":"administrative","location":[67.09065373854469,40.462016],"bbox":[66.9372849,40.3299878,67.2557091,40.5813157],"inferred_type":"city"}
{"name":"G'ijduvon","other_names":{"name:ar":"غيجدوان","name:az":"Gicduvan","name:en":"Gijduvan","name:fa":"غجدوان","name:ja":"ギジュドゥヴァン","name:kk":"Ғиждуван","name:ky":"Гиждуван","name:ml":"ഗിജ്ദുവാൻ","name:ru":"Гиждуван","name:tg":"Ғиждувон","name:tk":"Gijduwan","name:tr":"Gicduvan","name:ug":"غىجدۇۋان","name:uz":"G'ijduvon","name:zh":"吉日杜万","name:azb":"غیجدوان","alt_name:fa":"غیجدوان","old_name:fa":"گیج‌دوان","name:kk-Arab":"عيجدۋۆان","name:kk-Cyrl":"Ғиждуван","name:kk-Latn":"Ğijduvan","name:ky-Arab":"گىجدۇۋان","name:tk-Arab":"غیجدوان","name:uz-Arab":"غجدوان","name:uz-Cyrl":"Ғиждувон","name:uz-Latn":"G'ijduvon"},"display_name":"G'ijduvon, Gʻijduvon, G'ijduvon tumani, Buxoro Viloyati, 500200, Oʻzbekiston","address":{"city":"G'ijduvon","county":"G'ijduvon tumani","state":"Buxoro Viloyati","ISO3166-2-lvl4":"UZ-BU","postcode":"500200","country":"Oʻzbekiston","country_code":"uz"},"population":40800,"osm_type":"node","osm_id":246512666,"type":"city","location":[64.6828621,40.1029573],"bbox":[64.5228621,39.9429573,64.8428621,40.2629573]}
{"name":"Gʻuzor","other_names":{"name:ar":"غوزار","name:az":"Ğüzar","name:en":"Guzar","name:fa":"گذار","name:ja":"グザル","name:kk":"Ғұзар","name:ky":"Гузар","name:ml":"ഗുസാർ","name:ru":"Гузар","name:tg":"Гузор","name:tk":"Güzar","name:tr":"Güzar","name:ug":"غۈزار","name:uz":"Gʻuzor","name:azb":"غوزار","alt_name:en":"Guzar","alt_name:fa":"غزار","name:kk-Arab":"عۇزار","name:kk-Cyrl":"Ғұзар","name:kk-Latn":"Ğūzar","name:ky-Arab":"عۇزار","name:tk-Arab":"غۆزار","name:uz-Arab":"غوزار","name:uz-Cyrl":"Ғузoр","name:uz-Latn":"Gʻuzor"},"display_name":"Gʻuzor, Gʻuzor tumani, Qashqadaryo Viloyati, 180300, Oʻzbekiston","address":{"city":"Gʻuzor","county":"Gʻuzor tumani","state":"Qashqadaryo Viloyati","ISO3166-2-lvl4":"UZ-QA","postcode":"180300","country":"Oʻzbekiston","country_code":"uz"},"population":26592,"osm_type":"node","osm_id":245588199,"type":"city","location":[66.2522694,38.6215969],"bbox":[66.0922694,38.4615969,66.4122694,38.7815969]}
{"name":"Guliston","other_names":{"name:ar":"كولستان","name:en":"Gulistan","name:eo":"Gulistan","name:fr":"Goulistan","name:ja":"グリスタン","name:ml":"ഗുലിസ്ഥാൻ","name:ru":"Гулистан","name:uk":"Гулістан","old_name":"ст. Голодная степь","alt_name:en":"Mirzachul","alt_name:ru":"Мирзачуль"},"display_name":"Guliston, Sirdaryo Viloyati, Oʻzbekiston","address":{"city":"Guliston","region":"Sirdaryo Viloyati","ISO3166-2-lvl4":"UZ-SI","country":"Oʻzbekiston","country_code":"uz"},"population":77300,"osm_type":"node","osm_id":245531332,"type":"city","location":[68.7758675,40.4959816],"bbox":[68.6158675,40.3359816,68.9358675,40.6559816],"border":[{"name":"Guliston","other_names":{"name:en":"Gulistan","name:eo":"Gulistan","name:fr":"Goulistan","name:ja":"グリスタン","name:ru":"Гулистан","name:uk":"Гулістан","name:kaa":"Gúlistan","old_name":"Mirzachul","name:ar":"كولستان","name:ml":"ഗുലിസ്ഥാൻ","_place_old_name":"ст. Голодная степь","alt_name:en":"Mirzachul","alt_name:ru":"Мирзачуль"},"display_name":"Guliston, Sirdaryo Viloyati, 120100, Oʻzbekiston","address":{"city":"Guliston","region":"Sirdaryo Viloyati","ISO3166-2-lvl4":"UZ-SI","postcode":"120100","country":"Oʻzbekiston","country_code":"uz"},"population":77300,"osm_type":"relation","osm_id":11086478,"type":"city","location":[68.7758675,40.4959816],"bbox":[68.7202012,40.4738908,68.8248383,40.5709266]},{"name":"Guliston","other_names":{"name:ar":"كولستان","name:en":"Gulistan","name:eo":"Gulistan","name:fr":"Goulistan","name:ja":"グリスタン","name:ml":"ഗുലിസ്ഥാൻ","name:ru":"Гулистан","name:uk":"Гулістан","old_name":"Mirzachul"},"display_name":"Guliston, Sirdaryo Viloyati, 120100, Oʻzbekiston","address":{"town":"Guliston","region":"Sirdaryo Viloyati","ISO3166-2-lvl4":"UZ-SI","postcode":"120100","country":"Oʻzbekiston","country_code":"uz"},"population":77300,"osm_type":"relation","osm_id":8310445,"type":"administrative","location":[68.78032001983541,40.522099049999994],"bbox":[68.7202012,40.4738908,68.8248383,40.5709266]}]}
{"name":"Ipak-Yo'li QFY","other_names":{"name:ru":"Ипак-Йули"},"display_name":"Ipak-Yo'li QFY, Mirzacho`l Tumani, Jizzax Viloyati, Oʻzbekiston","address":{"city":"Ipak-Yo'li QFY","county":"Mirzacho`l Tumani","state":"Jizzax Viloyati","ISO3166-2-lvl4":"UZ-JI","country":"Oʻzbekiston","country_code":"uz"},"osm_type":"relation","osm_id":15651650,"type":"administrative","location":[68.18256807538489,40.621707400000005],"bbox":[68.1330106,40.5594492,68.2484207,40.6877089],"inferred_type":"city"}
{"name":"Ishtixon","other_names":{"name:ar":"اشتيخان","name:az":"İştixan","name:en":"Ishtykhan","name:fa":"اشتیخان","name:ja":"イシュティハン","name:kk":"Иштихан","name:ky":"Иштихан","name:ml":"ഇഷ്തിഖാൻ","name:ru":"Иштыхан","name:tg":"Иштихон","name:tk":"Iştihan","name:tr":"İştihan","name:ug":"ئىشتىخان","name:uz":"Ishtixon","name:azb":"ایشتیخان","name:kk-Arab":"يشتيحان","name:kk-Cyrl":"Иштихан","name:kk-Latn":"İştixan","name:ky-Arab":"ئشتىحان","name:tk-Arab":"ایشتیخان","name:uz-Arab":"اشتیخان","name:uz-Cyrl":"Иштихон","name:uz-Latn":"Ishtixon"},"display_name":"Ishtixon, Ishtixon tumani, Samarqand Viloyati, 140700, Oʻzbekiston","address":{"city":"Ishtixon","county":"Ishtixon tumani","state":"Samarqand Viloyati","ISO3166-2-lvl4":"UZ-SA","postcode":"140700","country":"Oʻzbekiston","country_code":"uz"},"osm_type":"node","osm_id":247160518,"type":"city","location":[66.4840172,39.965217],"bbox":[66.3240172,39.805217,66.6440172,40.125217]}
{"name":"Jizzax","other_names":{"name:ar":"جيزك","name:en":"Jizzakh","name:fr":"Djizak","name:ja":"ジザフ","name:ml":"ജിസാഖ്","name:ru":"Джизак","name:uk":"Джізак","name:uz":"Jizzax","name:zh":"吉扎克","int_name":"Jizzakh"},"display_name":"Jizzax, Jizzax Viloyati, 130100, Oʻzbekiston","address":{"city":"Jizzax","state":"Jizzax Viloyati","ISO3166-2-lvl4":"UZ-JI","postcode":"130100","country":"Oʻzbekiston","country_code":"uz"},"population":165000,"osm_type":"node","osm_id":2460428648,"type":"city","location":[67.8234081,40.1331797],"bbox":[67.6634081,39.9731797,67.9834081,40.2931797],"border":{"name":"Jizzax","other_names":{"name:en":"Jizzakh","name:ja":"ジザフ","name:ru":"Джизак","name:uk":"Джизак","name:uz":"Jizzax","int_name":"Jizzakh","name:ar":"جيزك","name:fr":"Djizak","name:ml":"ജിസാഖ്","name:zh":"吉扎克","alt:uk":"Джізак"},"display_name":"Jizzax, Jizzax Viloyati, 130100, Oʻzbekiston","address":{"city":"Jizzax","state":"Jizzax Viloyati","ISO3166-2-lvl4":"UZ-JI","postcode":"130100","country":"Oʻzbekiston","country_code":"uz"},"population":165000,"osm_type":"way","osm_id":173931100,"type":"city","location":[67.8234081,40.1331797],"bbox":[67.7599007,40.0881722,67.9142551,40.1839271]}}
{"name":"Joʻrabek mahallasi","other_names":{"name:en":"Jurabek mahalla","name:ru":"Джурабек махалля"},"display_name":"Joʻrabek mahallasi, 100074, Oʻzbekiston","address":{"city":"Joʻrabek mahallasi","postcode":"100074","country":"Oʻzbekiston","country_code":"uz"},"osm_type":"way","osm_id":165516207,"type":"administrative","location":[69.31208019867623,41.2799995],"bbox":[69.3039722,41.273279,69.3191498,41.2866022],"inferred_type":"city"}
{"name":"Jomboy","other_names":{"name:ar":"جامباي","name:az":"Cambay","name:en":"Jambay","name:fa":"جام‌بای","name:ja":"ジャムバイ","name:kk":"Жамбай","name:ky":"Жамбай","name:ml":"ജാംബായ്","name:ru":"Джамбай","name:tg":"Жомбой","name:tk":"Jambaý","name:tr":"Cambay","name:ug":"جامباي","name:uz":"Jomboy","name:azb":"جام‌بای","name:kk-Arab":"جامباي","name:kk-Cyrl":"Жамбай","name:kk-Latn":"Jambai","name:ky-Arab":"جامباي","name:tk-Arab":"جام‌بای","name:uz-Arab":"جامبای","name:uz-Cyrl":"Жомбой","name:uz-Latn":"Jomboy"},"display_name":"Jomboy, Jomboy tumani, Samarqand Viloyati, 140000, Oʻzbekiston","address":{"city":"Jomboy","county":"Jomboy tumani","state":"Samarqand Viloyati","ISO3166-2-lvl4":"UZ-SA","postcode":"140000","country":"Oʻzbekiston","country_code":"uz"},"population":11308,"osm_type":"node","osm_id":246035694,"type":"city","location":[67.1011954,39.6945962],"bbox":[66.9411954,39.5345962,67.2611954,39.8545962]}
{"name":"Jozmon MFY","other_names":{"name:ru":"Джозмон"},"display_name":"Jozmon MFY, Urgut tumani, Samarqand Viloyati, 140000, Oʻzbekiston","address":{"city":"Jozmon MFY","county":"Urgut tumani","state":"Samarqand Viloyati","ISO3166-2-lvl4":"UZ-SA","postcode":"140000","country":"Oʻzbekiston","country_code":"uz"},"osm_type":"relation","osm_id":17544688,"type":"administrative","location":[67.14585021160039,39.48131705],"bbox":[67.1275343,39.4618628,67.1752869,39.5008119],"inferred_type":"city","border":{"name":"Jozmon MFY","other_names":{"name:ru":"Джазман"},"display_name":"Jozmon MFY, Urgut tumani, Samarqand Viloyati, 140000, Oʻzbekiston","address":{"city":"Jozmon MFY","county":"Urgut tumani","state":"Samarqand Viloyati","ISO3166-2-lvl4":"UZ-SA","postcode":"140000","country":"Oʻzbekiston","country_code":"uz"},"osm_type":"way","osm_id":1255466525,"type":"administrative","location":[67.14585021160039,39.48131705],"bbox":[67.1275343,39.4618628,67.1752869,39.5008119]}}
{"name":"Katta Chilonzor-1 MFY","other_names":{"name:en":"Katta Chilanzar-1MFY","name:ru":"Катта Чиланзар-1 МФЙ"},"display_name":"Katta Chilonzor-1 MFY, Oʻzbekiston","address":{"city":"Katta Chilonzor-1 MFY","country":"Oʻzbekiston","country_code":"uz"},"osm_type":"way","osm_id":1311076036,"type":"administrative","location":[69.22959789631858,41.28372295],"bbox":[69.224054,41.2793465,69.2349607,41.2882545],"inferred_type":"city"}
{"name":"Katta Chilonzor-2 MFY","other_names":{"name:en":"Katta Chilanzar-2 MFY","name:ru":"Катта Чиланзар-2 МФЙ"},"display_name":"Katta Chilonzor-2 MFY, 100115, Oʻzbekiston","address":{"city":"Katta Chilonzor-2 MFY","postcode":"100115","country":"Oʻzbekiston","country_code":"uz"},"osm_type":"way","osm_id":1311076035,"type":"administrative","location":[69.22371937041278,41.2786044],"bbox":[69.2176913,41.2739996,69.2304241,41.2834602],"inferred_type":"city"}
{"name":"Katta Chilonzor-3 MFY","other_names":{"name:en":"Katta Chilanzar-3 MFY","name:ru":"Катта Чиланзар-3 МФЙ"},"display_name":"Katta Chilonzor-3 MFY, 100038, Oʻzbekiston","address":{"city":"Katta Chilonzor-3 MFY","postcode":"100038","country":"Oʻzbekiston","country_code":"uz"},"osm_type":"way","osm_id":1311076037,"type":"administrative","location":[69.22216430546626,41.28468355],"bbox":[69.217166,41.2787869,69.2293516,41.2902975],"inferred_type":"city"}
{"name":"Katta Qozirobod MFY","other_names":{"name:en":"Katta Kazirabad MFY","name:ru":"Катта Казирбабад МФЙ"},"display_name":"Katta Qozirobod MFY, 100118, Oʻzbekiston","address":{"city":"Katta Qozirobod MFY","postcode":"100118","country":"Oʻzbekiston","country_code":"uz"},"osm_type":"way","osm_id":1311076038,"type":"administrative","location":[69.2153911177505,41.2738415],"bbox":[69.2047173,41.2655005,69.2251992,41.2821632],"inferred_type":"city"}
{"name":"Kattaqo'rg'on","other_names":{"name:ar":"كته قورغان","name:az":"Kəttə Qorğan","name:en":"Kattakurgan","name:fa":"کته‌قرغان","name:he":"קטה קורגאן","name:ja":"カッタクルガン","name:kk":"Қаттақорған","name:ky":"Каттакурган","name:ml":"കട്ടഖുർഗാൻ","name:ru":"Каттакурган","name:tg":"Каттақурғон","name:tk":"Katte Kurgan","name:tr":"Kattakurgan","name:ug":"كەتتە قورغان","name:uk":"Каттакурґан","name:uz":"Kattaqo'rg'on","int_name":"Katta-Kurgan","name:azb":"کته قورغان","name:kaa":"Kattaqorǵan","alt_name:en":"Kattaqorghan","name:kk-Arab":"قاتتاقورعان","name:kk-Cyrl":"Қаттақорған","name:kk-Latn":"Qattaqorğan","name:ky-Arab":"قاتتاقۇرعان","name:tk-Arab":"کتته قوُرغان","name:uz-Arab":"کتته قۉرغان","name:uz-Cyrl":"Каттақўрғон","name:uz-Latn":"Kattaqo'rg'on"},"display_name":"Kattaqo'rg'on, Kattaqo'rg'on shahri, Samarqand Viloyati, 140800, Oʻzbekiston","address":{"city":"Kattaqo'rg'on","state":"Samarqand Viloyati","ISO3166-2-lvl4":"UZ-SA","postcode":"140800","country":"Oʻzbekiston","country_code":"uz"},"population":76562,"osm_type":"node","osm_id":246037382,"type":"city","location":[66.2684943,39.9018122],"bbox":[66.1084943,39.7418122,66.4284943,40.0618122],"border":{"name":"Kattaqo'rg'on shahri","other_names":{"name:ar":"مدينة كته قورغان","name:az":"Kəttə Qorğan şəhəri","name:en":"Kattakurgan City","name:fa":"شهر کته‌قرغان","name:he":"עיר קטה קורגאן","name:kk":"Қаттақорған қаласы","name:ky":"Каттакурган шаары","name:ru":"Каттакурган","name:tg":"Шаҳри Каттақурғон","name:tk":"Katte Kurgan şäheri","name:tr":"Kattakurgan Şehri","name:ug":"كەتتە قورغان شەھىرى","name:uz":"Kattaqo'rg'on shahri","name:azb":"کته قورغان شهری","name:kaa":"Kattaqorǵan qalası","name:kk-Arab":"قاتتاقورعان قالاسى","name:kk-Cyrl":"Қаттақорған қаласы","name:kk-Latn":"Qattaqorğan qalasy","name:ky-Arab":"قاتتاقۇرعان شاارى","name:tk-Arab":"کتته قوُرغان شأهری","name:uz-Arab":"کتته قۉرغان شهری","name:uz-Cyrl":"Каттақўрғон шаҳри","name:uz-Latn":"Kattaqo'rg'on shahri","name:ja":"カッタクルガン","name:ml":"കട്ടഖുർഗാൻ","name:uk":"Каттакурґан","int_name":"Katta-Kurgan","alt_name:en":"Kattaqorghan","alt":"Kattaqo'rg'on","alt:ar":"كته قورغان","alt:az":"Kəttə Qorğan","alt:en":"Kattakurgan","alt:fa":"کته‌قرغان","alt:he":"קטה קורגאן","alt:kk":"Қаттақорған","alt:ky":"Каттакурган","alt:tg":"Каттақурғон","alt:tk":"Katte Kurgan","alt:tr":"Kattakurgan","alt:ug":"كەتتە قورغان","alt:uz":"Kattaqo'rg'on","alt:azb":"کته قورغان","alt:kaa":"Kattaqorǵan","alt:kk-Arab":"قاتتاقورعان","alt:kk-Cyrl":"Қаттақорған","alt:kk-Latn":"Qattaqorğan","alt:ky-Arab":"قاتتاقۇرعان","alt:tk-Arab":"کتته قوُرغان","alt:uz-Arab":"کتته قۉرغان","alt:uz-Cyrl":"Каттақўрғон","alt:uz-Latn":"Kattaqo'rg'on"},"display_name":"Kattaqo'rg'on shahri, Samarqand Viloyati, 140000, Oʻzbekiston","address":{"city":"Kattaqo'rg'on shahri","state":"Samarqand Viloyati","ISO3166-2-lvl4":"UZ-SA","postcode":"140000","country":"Oʻzbekiston","country_code":"uz"},"population":76562,"osm_type":"relation","osm_id":15596345,"type":"administrative","location":[66.2684943,39.9018122],"bbox":[66.2317508,39.8827048,66.3068768,39.9282588]}}
{"name":"Kitob","other_names":{"name:az":"Kitab","name:en":"Kitab","name:fa":"کتاب","name:ja":"キタブ","name:kk":"Кітап","name:ky":"Китеп","name:ml":"കിത്താബ്","name:ru":"Китаб","name:tg":"Китоб","name:tk":"Kitap","name:tr":"Kitap","name:ug":"كىتاب","name:ur":"کتاب","name:uz":"Kitob","name:azb":"کیتاب","name:kk-Arab":"كىتاپ","name:kk-Cyrl":"Кітап","name:kk-Latn":"Kıtap","name:ky-Arab":"كىتەپ","name:tk-Arab":"کیتاپ","name:uz-Arab":"کتاب","name:uz-Cyrl":"Китоб","name:uz-Latn":"Kitob"},"display_name":"Kitob, Kitob tumani, Qashqadaryo Viloyati, 180700, Oʻzbekiston","address":{"city":"Kitob","county":"Kitob tumani","state":"Qashqadaryo Viloyati","ISO3166-2-lvl4":"UZ-QA","postcode":"180700","country":"Oʻzbekiston","country_code":"uz"},"population":45734,"osm_type":"node","osm_id":247156109,"type":"city","location":[66.8736273,39.1179598],"bbox":[66.7136273,38.9579598,67.0336273,39.2779598]}
{"name":"Kogon","other_names":{"name:ar":"كاغان","name:az":"Kağan","name:en":"Kagan","name:fa":"کاگان","name:he":"כאגאן","name:ja":"カガン","name:kk":"Қаған","name:ky":"Каган","name:ml":"കാഗാൻ","name:ru":"Каган","name:tg":"Когон","name:tk":"Kagan","name:tr":"Şehri","name:ug":"كاغان","name:uz":"Kogon","name:azb":"کاغان","alt_name:en":"Kagan","name:kk-Arab":"قاعان","name:kk-Cyrl":"Қаған","name:kk-Latn":"Qağan","name:ky-Arab":"قاعان","name:tk-Arab":"کاغان","name:uz-Arab":"کاگان","name:uz-Cyrl":"Когон","name:uz-Latn":"Kogon"},"display_name":"Kogon, Kogon shahri, Buxoro Viloyati, 200700, Oʻzbekiston","address":{"city":"Kogon","state":"Buxoro Viloyati","ISO3166-2-lvl4":"UZ-BU","postcode":"200700","country":"Oʻzbekiston","country_code":"uz"},"population":57800,"osm_type":"node","osm_id":245572050,"type":"city","location":[64.5451844,39.7244996],"bbox":[64.3851844,39.5644996,64.7051844,39.8844996]}
{"name":"Komiljon Otaniyozov MFY","other_names":{"name:ru":"Камилжан Атаниязов МФИ","name:uz-Cyrl":"Комилжон Отаниязов МФЙ"},"display_name":"Komiljon Otaniyozov MFY, Showot Tumani, Xorazm Viloyati, Oʻzbekiston","address":{"city":"Komiljon Otaniyozov MFY","county":"Showot Tumani","state":"Xorazm Viloyati","ISO3166-2-lvl4":"UZ-XO","country":"Oʻzbekiston","country_code":"uz"},"osm_type":"way","osm_id":1288011801,"type":"administrative","location":[60.41289753218254,41.6383426],"bbox":[60.3722263,41.6285908,60.4637866,41.6479337],"inferred_type":"city","border":{"name":"Komiljon Otaniyozov MFY","other_names":{"name:ru":"Камилжан Атаниязов МФЙ","name:uz-Cyrl":"Комилжон Отаниязов МФЙ"},"display_name":"Komiljon Otaniyozov MFY, Showot Tumani, Xorazm Viloyati, Oʻzbekiston","address":{"city":"Komiljon Otaniyozov MFY","county":"Showot Tumani","state":"Xorazm Viloyati","ISO3166-2-lvl4":"UZ-XO","country":"Oʻzbekiston","country_code":"uz"},"osm_type":"relation","osm_id":17652780,"type":"administrative","location":[60.41289753218254,41.6383426],"bbox":[60.3722263,41.6285908,60.4637866,41.6479337]}}
{"name":"Marg'ilon","other_names":{"name:ar":"مرغيلان","name:az":"مرغیلان","name:de":"Margʻilon","name:en":"Margilan","name:es":"Marg‘ilon","name:fa":"مرغیلان","name:fr":"Marguilan","name:he":"מרע'ילאן","name:ja":"マルギラン","name:ml":"മർഗീലാൻ","name:pl":"Margʻilon","name:ru":"Маргилан","name:tg":"Марғилон","name:tr":"Margilan","name:uk":"Маргилан","name:uz":"Marg'ilon","name:zh":"马尔吉兰","old_name:tr":"Mergînân","name:az-Latn":"Mərğilan","name:uz-Arab":"مرغیلان","name:uz-Cyrl":"Марғилон","name:uz-Latn":"Marg'ilon"},"display_name":"Marg'ilon, Marg'ilon shahri, Farg'ona Viloyati, 151100, Oʻzbekiston","address":{"city":"Marg'ilon","state":"Farg'ona Viloyati","ISO3166-2-lvl4":"UZ-FA","postcode":"151100","country":"Oʻzbekiston","country_code":"uz"},"population":246700,"osm_type":"node","osm_id":246212257,"type":"city","location":[71.719491,40.4694865],"bbox":[71.559491,40.3094865,71.879491,40.6294865],"border":[{"name":"Margilon","other_names":{"name:en":"Margilan","name:ja":"マルギラン","name:ru":"Маргилан"},"display_name":"Margilon, Farg'ona Viloyati, 151100, Oʻzbekiston","address":{"city":"Margilon","state":"Farg'ona Viloyati","ISO3166-2-lvl4":"UZ-FA","postcode":"151100","country":"Oʻzbekiston","country_code":"uz"},"population":215400,"osm_type":"way","osm_id":27143436,"type":"city","location":[71.72407630748998,40.47394285],"bbox":[71.6632561,40.422461,71.787254,40.5258982]},{"name":"Marg'ilon shahri","other_names":{"name:ar":"مدينة مرغيلان","name:az":"مرغیلان شهری","name:en":"Margilan City","name:fa":"شهر مرغیلان","name:he":"עיר מרע'ילאן","name:ru":"Маргилан","name:tg":"Шаҳри Марғилон","name:tr":"Margilan Şehri","name:uz":"Marg'ilon shahri","name:az-Latn":"Mərğilan şəhəri","name:uz-Arab":"مرغیلان شهری","name:uz-Cyrl":"Марғилон шаҳри","name:uz-Latn":"Marg'ilon shahri","name:de":"Margʻilon","name:es":"Marg‘ilon","name:fr":"Marguilan","name:ja":"マルギラン","name:ml":"മർഗീലാൻ","name:pl":"Margʻilon","name:uk":"Маргилан","name:zh":"马尔吉兰","old_name:tr":"Mergînân","alt":"Marg'ilon","alt:ar":"مرغيلان","alt:az":"مرغیلان","alt:en":"Margilan","alt:fa":"مرغیلان","alt:he":"מרע'ילאן","alt:tg":"Марғилон","alt:tr":"Margilan","alt:uz":"Marg'ilon","alt:az-Latn":"Mərğilan","alt:uz-Arab":"مرغیلان","alt:uz-Cyrl":"Марғилон","alt:uz-Latn":"Marg'ilon"},"display_name":"Marg'ilon shahri, Farg'ona Viloyati, Oʻzbekiston","address":{"city":"Marg'ilon shahri","state":"Farg'ona Viloyati","ISO3166-2-lvl4":"UZ-FA","country":"Oʻzbekiston","country_code":"uz"},"population":246700,"osm_type":"relation","osm_id":15540055,"type":"administrative","location":[71.719491,40.4694865],"bbox":[71.6875112,40.4368942,71.7895317,40.4953039]}]}
{"name":"Minglola mahalla","other_names":{"name:en":"Minglola mahalla","name:ru":"Минглола махалля"},"display_name":"Minglola mahalla, Oʻzbekiston","address":{"city":"Minglola mahalla","country":"Oʻzbekiston","country_code":"uz"},"osm_type":"way","osm_id":1055411954,"type":"administrative","location":[69.3614492770175,41.3227477],"bbox":[69.3511087,41.3187886,69.3645896,41.326664],"inferred_type":"city"}
{"name":"Mirzaqishloq MFY","other_names":{"name:ru":"Мирзакишлак МФИ","name:uz-Cyrl":"Мирзоқишлоқ МФЙ"},"display_name":"Mirzaqishloq MFY, Urgut tumani, Samarqand Viloyati, 140000, Oʻzbekiston","address":{"city":"Mirzaqishloq MFY","county":"Urgut tumani","state":"Samarqand Viloyati","ISO3166-2-lvl4":"UZ-SA","postcode":"140000","country":"Oʻzbekiston","country_code":"uz"},"osm_type":"relation","osm_id":17572491,"type":"administrative","location":[67.18573009898549,39.44936275],"bbox":[67.1645816,39.4320154,67.1985548,39.4671488],"inferred_type":"city","border":{"name":"Mirzaqishloq MFY","other_names":{"name:ru":"Мирзакишлак МФИ","name:uz-Cyrl":"Мирзоқишлоқ МФЙ"},"display_name":"Mirzaqishloq MFY, Urgut tumani, Samarqand Viloyati, 140000, Oʻzbekiston","address":{"city":"Mirzaqishloq MFY","county":"Urgut tumani","state":"Samarqand Viloyati","ISO3166-2-lvl4":"UZ-SA","postcode":"140000","country":"Oʻzbekiston","country_code":"uz"},"osm_type":"way","osm_id":1280802228,"type":"administrative","location":[67.18573009898549,39.44936275],"bbox":[67.1645816,39.4320154,67.1985548,39.4671488]}}
{"name":"Muborak","other_names":{"name:ar":"مبارك","name:az":"Mübarək","name:en":"Mubarek","name:fa":"مبارک","name:ja":"ムバレク","name:kk":"Мүбарак","name:ky":"Мубарак","name:ml":"മുബാറക്ക്","name:ru":"Мубарек","name:tg":"Муборак","name:tk":"Mübärek","name:tr":"Mubarek","name:ug":"مۇبارەك","name:uz":"Muborak","name:zh":"穆博拉克","name:azb":"موبارک","alt_name:en":"Mubarak","alt_name:ru":"Город Мубарек","name:kk-Arab":"مۇباراك","name:kk-Cyrl":"Мүбарак","name:kk-Latn":"Mübarak","name:ky-Arab":"مۇباراك","name:tk-Arab":"مۆبأرک","name:uz-Arab":"مبارک","name:uz-Cyrl":"Муборак","name:uz-Latn":"Muborak"},"display_name":"Muborak, Muborak tumani, Qashqadaryo Viloyati, 180000, Oʻzbekiston","address":{"city":"Muborak","county":"Muborak tumani","state":"Qashqadaryo Viloyati","ISO3166-2-lvl4":"UZ-QA","postcode":"180000","country":"Oʻzbekiston","country_code":"uz"},"population":24000,"osm_type":"node","osm_id":245573611,"type":"city","location":[65.1580462,39.2615453],"bbox":[64.9980462,39.1015453,65.3180462,39.4215453]}
{"name":"Namangan","other_names":{"name:ar":"نمنقان","name:az":"Nəməngan","name:be":"Наманган","name:bg":"Наманган","name:ce":"Наманган","name:de":"Namangan","name:en":"Namangan","name:eo":"Namangano","name:es":"Namangán","name:eu":"Namangan","name:fa":"نمنگان","name:fr":"Namangan","name:he":"נמנגן","name:hi":"नामंगन","name:hy":"Նամանգան","name:ja":"ナマンガン","name:kk":"Наманған","name:ko":"나망간","name:ky":"Наманган","name:lt":"Namanganas","name:lv":"Namangana","name:ml":"നമൻഗാൻ","name:mn":"Наманган","name:mr":"नमनगन","name:os":"Наманган","name:pa":"ਨਮਾਗਾਨ","name:pl":"Namangan","name:pt":"Namangã","name:ru":"Наманган","name:tg":"Намангон","name:th":"นามังแกน","name:tr":"Nemengan","name:tt":"Нәмәнгән","name:uk":"Наманган","name:ur":"نمنگان","name:uz":"Namangan","name:zh":"納曼干","alt_name:ar":"نمنغان;نمنجان","name:uz-cyr":"Наманган","name:az-Arab":"نمنقان","name:uz-Arab":"نمنگان","name:uz-Cyrl":"Наманган","name:uz-Latn":"Namangan"},"display_name":"Namangan, Namangan shahri, Namangan Viloyati, 160100, Oʻzbekiston","address":{"city":"Namangan","region":"Namangan Viloyati","ISO3166-2-lvl4":"UZ-NG","postcode":"160100","country":"Oʻzbekiston","country_code":"uz"},"population":678200,"osm_type":"node","osm_id":245554769,"type":"city","location":[71.6726238,40.9996482],"bbox":[71.5126238,40.8396482,71.8326238,41.1596482],"border":{"name":"Namangan shahri","other_names":{"name:ar":"مدينة نمنقان","name:az":"نمنقان شهری","name:en":"Namangan City","name:fa":"شهر نمنگان","name:he":"עיר נמנגן","name:ru":"Наманган","name:tg":"Шаҳри Намангон","name:tr":"Nemengan Şehri","name:uz":"Namangan shahri","name:az-Latn":"Nəməngan şəhəri","name:uz-Arab":"نمنگان شهری","name:uz-Cyrl":"Наманган шаҳри","name:uz-Latn":"Namangan shahri","name:be":"Наманган","name:bg":"Наманган","name:ce":"Наманган","name:de":"Namangan","name:eo":"Namangano","name:es":"Namangán","name:eu":"Namangan","name:fr":"Namangan","name:hi":"नामंगन","name:hy":"Նամանգան","name:ja":"ナマンガン","name:kk":"Наманған","name:ko":"나망간","name:ky":"Наманган","name:lt":"Namanganas","name:lv":"Namangana","name:ml":"നമൻഗാൻ","name:mn":"Наманган","name:mr":"नमनगन","name:os":"Наманган","name:pa":"ਨਮਾਗਾਨ","name:pl":"Namangan","name:pt":"Namangã","name:th":"นามังแกน","name:tt":"Нәмәнгән","name:uk":"Наманган","name:ur":"نمنگان","name:zh":"納曼干","alt_name:ar":"نمنغان;نمنجان","name:uz-cyr":"Наманган","name:az-Arab":"نمنقان","alt":"Namangan","alt:ar":"نمنقان","alt:az":"Nəməngan","alt:en":"Namangan","alt:fa":"نمنگان","alt:he":"נמנגן","alt:tg":"Намангон","alt:tr":"Nemengan","alt:uz":"Namangan","alt:uz-Arab":"نمنگان","alt:uz-Cyrl":"Наманган","alt:uz-Latn":"Namangan"},"display_name":"Namangan shahri, Namangan Viloyati, Oʻzbekiston","address":{"city":"Namangan shahri","region":"Namangan Viloyati","ISO3166-2-lvl4":"UZ-NG","country":"Oʻzbekiston","country_code":"uz"},"population":678200,"osm_type":"relation","osm_id":15550186,"type":"administrative","location":[71.6726238,40.9996482],"bbox":[71.5197569,40.9594166,71.7528648,41.1501172]}}
{"name":"Navoiy","other_names":{"name:ar":"نواوي","name:az":"Nəvai","name:de":"Navoiy","name:en":"Navoiy","name:eu":"Navoiy","name:fa":"نوایی","name:fr":"Navoï","name:he":"נבואי","name:ja":"ナヴァーイー","name:kk":"Науаи","name:ky":"Навои","name:ml":"നവോയ്","name:pl":"Nawoi","name:ru":"Навои","name:tg":"Навоӣ","name:tk":"Nowaýy","name:tr":"Nevai","name:ug":"نەۋايى","name:uk":"Навої","name:uz":"Navoiy","name:zh":"纳沃伊","name:azb":"نوایی","old_name":"Кермине","alt_name:en":"Navai","old_name:pl":"Kermine","name:kk-Arab":"ناۋاي","name:kk-Cyrl":"Науаи","name:kk-Latn":"Nauai","name:ky-Arab":"ناۋوى","name:tk-Arab":"نوْوایٛی","name:uz-Arab":"نوایی","name:uz-Cyrl":"Навоий","name:uz-Latn":"Navoiy"},"display_name":"Navoiy, Navoiy shahri, Navoiy Viloyati, 210100, Oʻzbekiston","address":{"city":"Navoiy","state":"Navoiy Viloyati","ISO3166-2-lvl4":"UZ-NW","postcode":"210100","country":"Oʻzbekiston","country_code":"uz"},"population":215500,"osm_type":"node","osm_id":246490714,"type":"city","location":[65.3734221,40.1034582],"bbox":[65.2134221,39.9434582,65.5334221,40.2634582],"border":{"name":"Navoiy shahri","other_names":{"name:ar":"مدينة نواوي","name:az":"Nəvai şəhəri","name:en":"Navoiy City","name:fa":"شهر نوایی","name:fr":"Navoï","name:he":"עיר נבואי","name:ja":"ナヴァーイー","name:kk":"Науаи қаласы","name:ky":"Навои шаары","name:pl":"Nawoi","name:ru":"Навои","name:tg":"Шаҳри Навоӣ","name:tk":"Nowaýy şäheri","name:tr":"Nevai Şehri","name:ug":"نەۋايى شەھىرى","name:uk":"Навої","name:uz":"Navoiy shahri","name:azb":"نوایی شهری","name:kaa":"Nawayı","name:kk-Arab":"ناۋاي قالاسى","name:kk-Cyrl":"Науаи қаласы","name:kk-Latn":"Nauai qalasy","name:ky-Arab":"ناۋوى شاارى","name:tk-Arab":"نوْوایٛی شأهری","name:uz-Arab":"نوایی شهری","name:uz-Cyrl":"Навоий шаҳри","name:uz-Latn":"Navoiy shahri","name:de":"Navoiy","name:eu":"Navoiy","name:ml":"നവോയ്","name:zh":"纳沃伊","old_name":"Кермине","alt_name:en":"Navai","old_name:pl":"Kermine","alt":"Navoiy","alt:ar":"نواوي","alt:az":"Nəvai","alt:en":"Navoiy","alt:fa":"نوایی","alt:he":"נבואי","alt:kk":"Науаи","alt:ky":"Навои","alt:tg":"Навоӣ","alt:tk":"Nowaýy","alt:tr":"Nevai","alt:ug":"نەۋايى","alt:uz":"Navoiy","alt:azb":"نوایی","alt:kk-Arab":"ناۋاي","alt:kk-Cyrl":"Науаи","alt:kk-Latn":"Nauai","alt:ky-Arab":"ناۋوى","alt:tk-Arab":"نوْوایٛی","alt:uz-Arab":"نوایی","alt:uz-Cyrl":"Навоий","alt:uz-Latn":"Navoiy"},"display_name":"Navoiy shahri, Navoiy Viloyati, 210100, Oʻzbekiston","address":{"city":"Navoiy shahri","state":"Navoiy Viloyati","ISO3166-2-lvl4":"UZ-NW","postcode":"210100","country":"Oʻzbekiston","country_code":"uz"},"population":215500,"osm_type":"relation","osm_id":15613446,"type":"administrative","location":[65.3734221,40.1034582],"bbox":[65.2573093,40.0688488,65.4345714,40.1303829]}}
{"name":"Nisbot MFY","other_names":{"name:ru":"Нисбат МФИ","name:uz-Cyrl":"Нисбот МФИ"},"display_name":"Nisbot MFY, Urgut tumani, Samarqand Viloyati, 140000, Oʻzbekiston","address":{"city":"Nisbot MFY","county":"Urgut tumani","state":"Samarqand Viloyati","ISO3166-2-lvl4":"UZ-SA","postcode":"140000","country":"Oʻzbekiston","country_code":"uz"},"osm_type":"way","osm_id":1281352860,"type":"administrative","location":[67.1169882369156,39.4440681],"bbox":[67.0991384,39.4268118,67.1344743,39.4615198],"inferred_type":"city","border":{"name":"Nisbot MFY","other_names":{"name:ru":"Нисбот МФИ","name:uz-Cyrl":"Нисбот МФЙ"},"display_name":"Nisbot MFY, Urgut tumani, Samarqand Viloyati, 140000, Oʻzbekiston","address":{"city":"Nisbot MFY","county":"Urgut tumani","state":"Samarqand Viloyati","ISO3166-2-lvl4":"UZ-SA","postcode":"140000","country":"Oʻzbekiston","country_code":"uz"},"osm_type":"relation","osm_id":17579158,"type":"administrative","location":[67.1169882369156,39.4440681],"bbox":[67.0991384,39.4268118,67.1344743,39.4615198]}}
{"name":"Nókis","other_names":{"name:ar":"نكوص","name:en":"Nukus","name:eu":"Nukus","name:fa":"نوکوس","name:fr":"Noukous","name:ja":"ヌクス","name:kk":"Нөкiс","name:ml":"നുക്കൂസ്","name:ru":"Нукус","name:tk":"Nöküs","name:uk":"Нукус","name:uz":"Nukus","name:zh":"努库斯","alt_name":"Karakalpak","name:kaa":"Nókis","name:kaa-cyr":"Нөкис"},"display_name":"Nókis, Nókis qalası hákimiyatı, Qaraqalpaqstan Respublikası, 230100, Oʻzbekiston","address":{"city":"Nókis","county":"Nókis qalası hákimiyatı","state":"Qaraqalpaqstan Respublikası","ISO3166-2-lvl3":"UZ-QR","postcode":"230100","country":"Oʻzbekiston","country_code":"uz"},"population":335491,"osm_type":"node","osm_id":245552720,"type":"city","location":[59.6176603,42.4600229],"bbox":[59.4576603,42.3000229,59.7776603,42.6200229],"border":{"name":"Nókis","other_names":{"name:en":"Nukus","name:fa":"نوکوس","name:fr":"Noukous","name:ja":"ヌクス","name:kk":"Нөкiс","name:ru":"Нукус","name:tk":"Nöküs","name:uk":"Нукус","name:uz":"Nukus","alt_name":"Karakalpak","name:kaa":"Nókis","name:kaa-cyr":"Нөкис","name:ar":"نكوص","name:eu":"Nukus","name:ml":"നുക്കൂസ്","name:zh":"努库斯"},"display_name":"Nókis, Nókis qalası hákimiyatı, Qaraqalpaqstan Respublikası, 230100, Oʻzbekiston","address":{"city":"Nókis","county":"Nókis qalası hákimiyatı","state":"Qaraqalpaqstan Respublikası","ISO3166-2-lvl3":"UZ-QR","postcode":"230100","country":"Oʻzbekiston","country_code":"uz"},"population":335491,"osm_type":"relation","osm_id":7284011,"type":"city","location":[59.6176603,42.4600229],"bbox":[59.5427808,42.3543993,59.6801982,42.5585162]}}
{"name":"Nurafshon","other_names":{"name:ar":"نورافشون","name:en":"Nurafshan (Toytepa)","name:ml":"നൂറാഫ്ഷാൻ","name:ru":"Нурафшан (Тойтепа)","name:uz":"Nurafshon (Toytepa)","int_name":"Toytepa","old_name":"To'ytepa","old_name:en":"Toytepa","old_name:ja":"トイテパ","old_name:ru":"Тойтепа"},"display_name":"Nurafshon, Toshkent Viloyati, 111500, Oʻzbekiston","address":{"city":"Nurafshon","state":"Toshkent Viloyati","ISO3166-2-lvl4":"UZ-TO","postcode":"111500","country":"Oʻzbekiston","country_code":"uz"},"population":29000,"osm_type":"node","osm_id":246180265,"type":"city","location":[69.3578473,41.0429158],"bbox":[69.1978473,40.8829158,69.5178473,41.2029158],"border":{"name":"Nurafshon","other_names":{"name:en":"Nurafshan (Toytepa)","name:fa":"تورافشاk","name:ru":"Нурафшан (Тойтепа)","name:uz":"Nurafshon (Toytepa)","int_name":"Toytepa","old_name":"To'ytepa","alt_name:uz":"Тўйтепа","old_name:ja":"トイテパ","old_name:ru":"Тойтепа","name:ar":"نورافشون","name:ml":"നൂറാഫ്ഷാൻ","old_name:en":"Toytepa"},"display_name":"Nurafshon, Toshkent Viloyati, 111500, Oʻzbekiston","address":{"city":"Nurafshon","state":"Toshkent Viloyati","ISO3166-2-lvl4":"UZ-TO","postcode":"111500","country":"Oʻzbekiston","country_code":"uz"},"population":29000,"osm_type":"relation","osm_id":18507227,"type":"administrative","location":[69.3578473,41.0429158],"bbox":[69.3143983,41.0236082,69.3862127,41.0708435]}}
{"name":"Nurota","other_names":{"name:ar":"نورآته","name:az":"Nürata","name:en":"Nurata","name:fa":"نورآتا","name:fr":"Nourata","name:ja":"ヌラタ","name:kk":"Нұрата","name:ky":"Нурата","name:ml":"നൂറാത്ത","name:ru":"Нурата","name:tg":"Нурато","name:tk":"Nurata","name:tr":"Nürata","name:ug":"نۇراتە","name:uz":"Nurota","name:zh":"努罗塔","name:azb":"نورآتا","alt_name:en":"Nurata","alt_name:fa":"نورآته","old_name:fa":"نورعطا","name:kk-Arab":"نۇراتا","name:kk-Cyrl":"Нұрата","name:kk-Latn":"Nūrata","name:ky-Arab":"نۇراتا","name:tk-Arab":"نورآتا","name:uz-Arab":"نورآته","name:uz-Cyrl":"Нурота","name:uz-Latn":"Nurota"},"display_name":"Nurota, Nurota tumani, Navoiy Viloyati, 210700, Oʻzbekiston","address":{"city":"Nurota","county":"Nurota tumani","state":"Navoiy Viloyati","ISO3166-2-lvl4":"UZ-NW","postcode":"210700","country":"Oʻzbekiston","country_code":"uz"},"population":28200,"osm_type":"node","osm_id":246514411,"type":"city","location":[65.6903621,40.5627799],"bbox":[65.5303621,40.4027799,65.8503621,40.7227799],"border":{"name":"Nurota tumani","other_names":{"name:ar":"مقاطعة نورآته","name:az":"Nürata rayonu","name:en":"Nurata District","name:fa":"ناحیه‌ی نورآتا","name:kk":"Нұрата ауданы","name:ky":"Нурата району","name:ru":"Нуратинский район","name:tg":"Ноҳияи Нурато","name:tk":"Nurata etraby","name:tr":"Nürata İlçesi","name:ug":"نۇراتە ناھىيىسى","name:uz":"Nurota tumani","name:azb":"نورآتا بؤلگه‌سی","alt_name:fa":"ناحیه‌ی نورآته","old_name:fa":"ناحیه‌ی نورعطا","name:kk-Arab":"نۇراتا اۋدانى","name:kk-Cyrl":"Нұрата ауданы","name:kk-Latn":"Nūrata audany","name:ky-Arab":"نۇراتا وودانى","name:tk-Arab":"نورآتا اترابی","name:uz-Arab":"نورآته تومنی","name:uz-Cyrl":"Нурота тумани","name:uz-Latn":"Nurota tumani","alt":"Nurota Tumani","alt:ar":"نورآته"},"display_name":"Nurota tumani, Navoiy Viloyati, Oʻzbekiston","address":{"county":"Nurota tumani","state":"Navoiy Viloyati","ISO3166-2-lvl4":"UZ-NW","country":"Oʻzbekiston","country_code":"uz"},"osm_type":"relation","osm_id":11158818,"type":"administrative","location":[66,40.666667],"bbox":[65.3482002,40.298452,66.7778301,41.111816]}}
{"name":"Olmaliq","other_names":{"name:de":"Olmaliq","name:en":"Almalyk","name:es":"Olmaliq","name:fa":"آلمالیق","name:fr":"Almalyk","name:ja":"アルマリク","name:ml":"ആൽമാലീക്ക്","name:ru":"Алмалык","name:zh":"阿尔马雷克","alt_name":"Almalyk","alt_name:uz":"Олмалиқ","name:uz-Arab":"آلمه‌لیق"},"display_name":"Olmaliq, Toshkent Viloyati, 110100, Oʻzbekiston","address":{"city":"Olmaliq","town":"Olmaliq","state":"Toshkent Viloyati","ISO3166-2-lvl4":"UZ-TO","postcode":"110100","country":"Oʻzbekiston","country_code":"uz"},"population":138000,"osm_type":"node","osm_id":245233136,"type":"city","location":[69.6071609,40.845729],"bbox":[69.4471609,40.685729,69.7671609,41.005729]}
{"name":"Omongeldi QFY","other_names":{"name:ru":"Омонгелди"},"display_name":"Omongeldi QFY, Forish Tumani, Jizzax Viloyati, Oʻzbekiston","address":{"city":"Omongeldi QFY","county":"Forish Tumani","state":"Jizzax Viloyati","ISO3166-2-lvl4":"UZ-JI","country":"Oʻzbekiston","country_code":"uz"},"osm_type":"relation","osm_id":15640335,"type":"administrative","location":[67.70371321473394,40.962330300000005],"bbox":[67.4705755,40.8586874,68.0963611,41.0660212],"inferred_type":"city"}
{"name":"Qarshi","other_names":{"name:ar":"قرشي","name:az":"Qarşi","name:en":"Karshi","name:eu":"Karxi","name:fa":"قرشی","name:fr":"Karchi","name:he":"קרשי","name:ja":"カルシ","name:kk":"Қаршы","name:ko":"카르시","name:ky":"Каршы","name:ml":"കർഷി","name:ru":"Карши","name:tg":"Қаршӣ","name:tk":"Garşy","name:tr":"Karşi","name:ug":"قەرشى","name:uk":"Карші","name:uz":"Qarshi","name:azb":"قرشی","alt_name:fa":"نخشب","old_name:ar":"نسف","name:kk-Arab":"قارشى","name:kk-Cyrl":"Қаршы","name:kk-Latn":"Qarşy","name:ky-Arab":"قارشى","name:tk-Arab":"قأرشی","name:uz-Arab":"قرشی","name:uz-Cyrl":"Қарши","name:uz-Latn":"Qarshi"},"display_name":"Qarshi, Qarshi shahri, Qashqadaryo Viloyati, 180100, Oʻzbekiston","address":{"city":"Qarshi","state":"Qashqadaryo Viloyati","ISO3166-2-lvl4":"UZ-QA","postcode":"180100","country":"Oʻzbekiston","country_code":"uz"},"population":289600,"osm_type":"node","osm_id":245544300,"type":"city","location":[65.7927794,38.839824],"bbox":[65.6327794,38.679824,65.9527794,38.999824],"border":[{"name":"Qarshi","other_names":{"name:en":"Karshi","name:fa":"نخشب","name:fr":"Karchi","name:ja":"カルシ","name:ru":"Карши","name:uz":"Qarshi","name:kaa":"Qarshı"},"display_name":"Qarshi, Qarshi Tumani, Qashqadaryo Viloyati, 180100, Oʻzbekiston","address":{"city":"Qarshi","county":"Qarshi Tumani","state":"Qashqadaryo Viloyati","ISO3166-2-lvl4":"UZ-QA","postcode":"180100","country":"Oʻzbekiston","country_code":"uz"},"population":278251,"osm_type":"way","osm_id":1135397662,"type":"city","location":[65.80046230609103,38.8405638],"bbox":[65.7302253,38.7852573,65.8598503,38.8959327]},{"name":"Qarshi shahri","other_names":{"name:ar":"مدينة قرشي","name:az":"Qarşi şəhəri","name:en":"Karshi City","name:fa":"شهر قرشی","name:he":"עיר קרשי","name:kk":"Қаршы қаласы","name:ky":"Каршы шаары","name:ru":"Карши","name:tg":"Шаҳри Қаршӣ","name:tk":"Garşy şäheri","name:tr":"Karşi Şehri","name:ug":"قەرشى شەھىرى","name:uz":"Qarshi shahri","name:azb":"قرشی شهری","name:kaa":"Qarshı qalası","name:kk-Arab":"قارشى قالاسى","name:kk-Cyrl":"Қаршы қаласы","name:kk-Latn":"Qarşy qalasy","name:ky-Arab":"قارشى شاارى","name:tk-Arab":"قأرشی شأهری","name:uz-Arab":"قرشی شهری","name:uz-Cyrl":"Қарши шаҳри","name:uz-Latn":"Qarshi shahri","name:eu":"Karxi","name:fr":"Karchi","name:ja":"カルシ","name:ko":"카르시","name:ml":"കർഷി","name:uk":"Карші","alt_name:fa":"نخشب","old_name:ar":"نسف","alt":"Qarshi","alt:ar":"قرشي","alt:az":"Qarşi","alt:en":"Karshi","alt:fa":"قرشی","alt:he":"קרשי","alt:kk":"Қаршы","alt:ky":"Каршы","alt:tg":"Қаршӣ","alt:tk":"Garşy","alt:tr":"Karşi","alt:ug":"قەرشى","alt:uz":"Qarshi","alt:azb":"قرشی","alt:kk-Arab":"قارشى","alt:kk-Cyrl":"Қаршы","alt:kk-Latn":"Qarşy","alt:ky-Arab":"قارشى","alt:tk-Arab":"قأرشی","alt:uz-Arab":"قرشی","alt:uz-Cyrl":"Қарши","alt:uz-Latn":"Qarshi"},"display_name":"Qarshi shahri, Qashqadaryo Viloyati, 180000, Oʻzbekiston","address":{"city":"Qarshi shahri","state":"Qashqadaryo Viloyati","ISO3166-2-lvl4":"UZ-QA","postcode":"180000","country":"Oʻzbekiston","country_code":"uz"},"population":289600,"osm_type":"relation","osm_id":15606915,"type":"administrative","location":[65.7927794,38.839824],"bbox":[65.7298402,38.785366,65.862412,38.903644]}]}
{"name":"Qashqar mahalla","other_names":{"name:en":"Kashgar mahalla","name:ru":"Кашгар махалля"},"display_name":"Qashqar mahalla, 100084, Oʻzbekiston","address":{"city":"Qashqar mahalla","postcode":"100084","country":"Oʻzbekiston","country_code":"uz"},"osm_type":"way","osm_id":1006384228,"type":"administrative","location":[69.27299995892804,41.3162678],"bbox":[69.2599787,41.309127,69.281772,41.3232498],"inferred_type":"city"}
{"name":"Qaynar MFY","other_names":{"name:ru":"МСГ Кайнар"},"display_name":"Qaynar MFY, Kitob tumani, Qashqadaryo Viloyati, 180700, Oʻzbekiston","address":{"city":"Qaynar MFY","county":"Kitob tumani","state":"Qashqadaryo Viloyati","ISO3166-2-lvl4":"UZ-QA","postcode":"180700","country":"Oʻzbekiston","country_code":"uz"},"population":3000,"osm_type":"way","osm_id":1085266685,"type":"administrative","location":[66.91516021020084,39.223501299999995],"bbox":[66.8778128,39.186575,66.9271011,39.2591348],"inferred_type":"city"}
{"name":"Qo‘qon","other_names":{"name:ar":"خوقند","name:az":"قوقان","name:en":"Kokand","name:eu":"Kokand","name:fa":"خوقند","name:fr":"Kokand","name:he":"קוקנד","name:ja":"コーカンド","name:ml":"കോക്കന്ദ്","name:pl":"Kokand","name:ru":"Коканд","name:tg":"Қӯқанд","name:tr":"Hokand","name:uk":"Коканд","name:uz":"Qoʻqon","name:zh":"浩罕","name:az-Latn":"Kokand","name:uz-Arab":"خوقند","name:uz-Cyrl":"Қўқон","name:uz-Latn":"Qoʻqon"},"display_name":"Qo‘qon, Qoʻqon shahri, Farg'ona Viloyati, 150700, Oʻzbekiston","address":{"city":"Qo‘qon","state":"Farg'ona Viloyati","ISO3166-2-lvl4":"UZ-FA","postcode":"150700","country":"Oʻzbekiston","country_code":"uz"},"population":264100,"osm_type":"node","osm_id":246197109,"type":"city","location":[70.9473889,40.5408463],"bbox":[70.7873889,40.3808463,71.1073889,40.7008463],"border":[{"name":"Qo‘qon","other_names":{"name:en":"Kokand","name:fa":"خوقند","name:ja":"コーカンド","name:ml":"കോക്കണ്ട്","name:ru":"Коканд","name:kaa":"Qoqan"},"display_name":"Qo‘qon, Farg'ona Viloyati, 150700, Oʻzbekiston","address":{"city":"Qo‘qon","state":"Farg'ona Viloyati","ISO3166-2-lvl4":"UZ-FA","postcode":"150700","country":"Oʻzbekiston","country_code":"uz"},"population":246055,"osm_type":"way","osm_id":922525016,"type":"city","location":[70.94009009100594,40.5331676],"bbox":[70.8904786,40.5016395,70.9895619,40.565017]},{"name":"Qoʻqon shahri","other_names":{"name:ar":"مدينة خوقند","name:az":"قوقان شهری","name:en":"Qoqand City","name:fa":"شهر خوقند","name:he":"עיר קוקנד","name:ru":"Коканд","name:tg":"Шаҳри Қӯқанд","name:tr":"Hokand Şehri","name:uz":"Qoʻqon shahri","name:az-Latn":"Kokand şəhəri","name:uz-Arab":"خوقند شهری","name:uz-Cyrl":"Қўқон шаҳри","name:uz-Latn":"Qoʻqon shahri","name:eu":"Kokand","name:fr":"Kokand","name:ja":"コーカンド","name:ml":"കോക്കന്ദ്","name:pl":"Kokand","name:uk":"Коканд","name:zh":"浩罕","alt":"Qo‘qon","alt:ar":"خوقند","alt:az":"قوقان","alt:en":"Kokand","alt:fa":"خوقند","alt:he":"קוקנד","alt:tg":"Қӯқанд","alt:tr":"Hokand","alt:uz":"Qoʻqon","alt:az-Latn":"Kokand","alt:uz-Arab":"خوقند","alt:uz-Cyrl":"Қўқон","alt:uz-Latn":"Qoʻqon"},"display_name":"Qoʻqon shahri, Farg'ona Viloyati, Oʻzbekiston","address":{"city":"Qoʻqon shahri","state":"Farg'ona Viloyati","ISO3166-2-lvl4":"UZ-FA","country":"Oʻzbekiston","country_code":"uz"},"population":264100,"osm_type":"relation","osm_id":15537298,"type":"administrative","location":[70.9473889,40.5408463],"bbox":[70.8795226,40.4575884,71.0013665,40.5893755]}]}
{"name":"Qorako’l","other_names":{"name:ar":"قرة قول","name:az":"Qaragöl","name:en":"Karakul","name:fa":"قره‌کول","name:ja":"カラクル","name:kk":"Қаракөл","name:ky":"Каракөл","name:ml":"ഖറക്കുൽ","name:ru":"Каракуль","name:tg":"Қаракӯл","name:tk":"Garaköl","name:tr":"Karagöl","name:ug":"قاراكۆل","name:uz":"Qorako’l","int_name":"Karakul","name:azb":"قاراگؤل","old_name":"Poykent","alt_name:en":"Karakul","name:kk-Arab":"قاراكول","name:kk-Cyrl":"Қаракөл","name:kk-Latn":"Qaraköl","name:ky-Arab":"قاراكۅل","name:tk-Arab":"قاراکؤل","name:uz-Arab":"قره کۉل","name:uz-Cyrl":"Қоракўл","name:uz-Latn":"Qorako’l"},"display_name":"Qorako’l, Qorako’l tumani, Buxoro Viloyati, 200801, Oʻzbekiston","address":{"city":"Qorako’l","county":"Qorako’l tumani","state":"Buxoro Viloyati","ISO3166-2-lvl4":"UZ-BU","postcode":"200801","country":"Oʻzbekiston","country_code":"uz"},"population":20900,"osm_type":"node","osm_id":247315529,"type":"city","location":[63.8424719,39.5186832],"bbox":[63.6824719,39.3586832,64.0024719,39.6786832]}
{"name":"Quvasoy","other_names":{"name:az":"قوه سای","name:en":"Kuvasay","name:fa":"قوه سای","name:he":"קווה סאי","name:ja":"クヴァサイ","name:ml":"കുവസായ്","name:ru":"Кувасай","name:tg":"Қувасой","name:uz":"Quvasoy","name:uz-Arab":"قوه سای","name:uz-Cyrl":"Қувасой","name:uz-Latn":"Quvasoy"},"display_name":"Quvasoy, Quvasoy shahri, Farg'ona Viloyati, 150900, Oʻzbekiston","address":{"city":"Quvasoy","county":"Quvasoy shahri","state":"Farg'ona Viloyati","ISO3166-2-lvl4":"UZ-FA","postcode":"150900","country":"Oʻzbekiston","country_code":"uz"},"population":60000,"osm_type":"node","osm_id":246215866,"type":"city","location":[71.9851035,40.2939148],"bbox":[71.8251035,40.1339148,72.1451035,40.4539148],"border":{"name":"Quvasoy shahri","other_names":{"name:az":"قوه سای شهری","name:en":"Quvasoy City","name:fa":"شهر قوه سای","name:he":"עיר קווה סאי","name:ru":"Кувасай","name:tg":"Шаҳри Қувасой","name:uz":"Quvasoy shahri","name:uz-Arab":"قوه سای شهری","name:uz-Cyrl":"Қувасой шаҳри","name:uz-Latn":"Quvasoy shahri"},"display_name":"Quvasoy shahri, Farg'ona Viloyati, Oʻzbekiston","address":{"county":"Quvasoy shahri","state":"Farg'ona Viloyati","ISO3166-2-lvl4":"UZ-FA","country":"Oʻzbekiston","country_code":"uz"},"osm_type":"relation","osm_id":15537983,"type":"administrative","location":[71.95112586176904,40.3677905],"bbox":[71.822678,40.2558758,72.085113,40.4803918]}}
{"name":"Romitan","other_names":{"name:ar":"راميتان","name:az":"Ramitən","name:en":"Romitan","name:fa":"رامیتن","name:ja":"ロミタン","name:kk":"Ромитан","name:ky":"Ромитан","name:ml":"റാമിത്തൻ","name:ru":"Ромитан","name:tg":"Ромитан","name:tk":"Ramitan","name:tr":"Romitan","name:ug":"رامىتەن","name:uz":"Romitan","name:azb":"رامیتن","alt_name:en":"Ramitan","name:kk-Arab":"روميتان","name:kk-Cyrl":"Ромитан","name:kk-Latn":"Romitan","name:ky-Arab":"رومىتان","name:tk-Arab":"رامیتان","name:uz-Arab":"رامیتن","name:uz-Cyrl":"Ромитан","name:uz-Latn":"Romitan"},"display_name":"Romitan, Romitan tumani, Buxoro Viloyati, 201000, Oʻzbekiston","address":{"city":"Romitan","county":"Romitan tumani","state":"Buxoro Viloyati","ISO3166-2-lvl4":"UZ-BU","postcode":"201000","country":"Oʻzbekiston","country_code":"uz"},"osm_type":"node","osm_id":247146555,"type":"city","location":[64.3826789,39.9331585],"bbox":[64.2226789,39.7731585,64.5426789,40.0931585]}
{"name":"Samarqand","other_names":{"name:af":"Samarkand","name:am":"ሳማርቃንድ","name:an":"Sarmagant","name:ar":"سمرقند","name:av":"Самаркъанд","name:az":"Səmərqənd","name:ba":"Сәмәрҡәнд","name:be":"Самарканд","name:bg":"Самарканд","name:bn":"সমরকন্দ","name:br":"Samarkand","name:bs":"Samarkand","name:ca":"Samarcanda","name:ce":"Самарканд","name:cs":"Samarkand","name:cv":"Самарканд","name:cy":"Samarcand","name:da":"Samarkand","name:de":"Samarkand","name:el":"Σαμαρκάνδη","name:en":"Samarkand","name:eo":"Samarkando","name:es":"Samarcanda","name:et":"Samarkand","name:eu":"Samarkanda","name:fa":"سمرقند","name:fi":"Samarkand","name:fr":"Samarcande","name:fy":"Samarkand","name:gl":"Samarcanda","name:he":"סמרקנד","name:hi":"समरक़न्द","name:hr":"Samarkand","name:hu":"Szamarkand","name:hy":"Սամարղանդ","name:io":"Samarkand","name:is":"Samarkand","name:it":"Samarcanda","name:ja":"サマルカンド","name:ka":"სამარყანდი","name:ki":"Samarkand","name:kk":"Самарқан","name:ko":"사마르칸트","name:ku":"Semerkand","name:kw":"Samarkand","name:ky":"Самаркан","name:la":"Maracanda","name:lt":"Samarkandas","name:lv":"Samarkanda","name:mk":"Самарканд","name:ml":"സമർഖന്ദ്","name:mn":"Самарканд","name:mr":"समरकंद","name:ms":"Samarkand","name:mt":"Samarkanda","name:nb":"Samarkand","name:nl":"Samarkand","name:nn":"Samarkand","name:ny":"Samarkand","name:oc":"Samarcanda","name:os":"Самарканд","name:pa":"ਸਮਰਕੰਦ","name:pl":"Samarkanda","name:ps":"سمرقند","name:pt":"Samarcanda","name:ro":"Samarkand","name:ru":"Самарканд","name:sk":"Samarkand","name:sl":"Samarkand","name:so":"Samarqanda","name:sq":"Samerkandi","name:sr":"Самарканд","name:sv":"Samarkand","name:sw":"Samarkand","name:ta":"சமர்கந்து","name:te":"సమర్‌కండ్","name:tg":"Самарқанд","name:th":"ซามาร์กันต์","name:tk":"Samarkand","name:tr":"Semerkant","name:tt":"Сәмәрканд","name:ug":"سەمەرقەنت","name:uk":"Самарканд","name:ur":"سمرقند","name:uz":"Samarqand","name:vi":"Samarkand","name:wa":"Samarcande","name:yi":"סאמארקאנד","name:zh":"撒马尔罕","alt_name":"Самарканд","name:azb":"سمرقند","old_name":"Согдиана;Мараканда","alt_name:en":"Samarkand","alt_name:tr":"Semerkand","name:kk-Arab":"سامارقان","name:kk-Cyrl":"Самарқан","name:kk-Latn":"Samarqan","name:ky-Arab":"سامارقان","name:tk-Arab":"سمرقند","name:uz-Arab":"سمرقند","name:uz-Cyrl":"Самарқанд","name:uz-Latn":"Samarqand"},"display_name":"Samarqand, Samarqand shahri, Samarqand Viloyati, 140100, Oʻzbekiston","address":{"city":"Samarqand","state":"Samarqand Viloyati","ISO3166-2-lvl4":"UZ-SA","postcode":"140100","country":"Oʻzbekiston","country_code":"uz"},"population":573200,"osm_type":"node","osm_id":245542318,"type":"city","location":[66.9756954,39.6550017],"bbox":[66.8156954,39.4950017,67.1356954,39.8150017],"border":{"name":"Samarqand shahri","other_names":{"name:ar":"مدينة سمرقند","name:az":"Səmərqənd şəhəri","name:ca":"Ciutat de Samarcanda","name:en":"Samarkand City","name:fa":"شهر سمرقند","name:fr":"Ville de Samarcande","name:he":"עיר סמרקנד","name:kk":"Самарқан қаласы","name:ky":"Самаркан шаары","name:ru":"Самарканд","name:sk":"Samarkand","name:tg":"Шаҳри Самарқанд","name:tk":"Samarkand şäheri","name:tr":"Semerkant Şehri","name:ug":"سەمەرقەنت شەھىرى","name:uz":"Samarqand shahri","name:azb":"سمرقند شهری","name:kk-Arab":"سامارقان قالاسى","name:kk-Cyrl":"Самарқан қаласы","name:kk-Latn":"Samarqan qalasy","name:ky-Arab":"سامارقان شاارى","name:tk-Arab":"سمرقند شأهری","name:uz-Arab":"سمرقند شهری","name:uz-Cyrl":"Самарқанд шаҳри","name:uz-Latn":"Samarqand shahri","name:af":"Samarkand","name:am":"ሳማርቃንድ","name:an":"Sarmagant","name:av":"Самаркъанд","name:ba":"Сәмәрҡәнд","name:be":"Самарканд","name:bg":"Самарканд","name:bn":"সমরকন্দ","name:br":"Samarkand","name:bs":"Samarkand","name:ce":"Самарканд","name:cs":"Samarkand","name:cv":"Самарканд","name:cy":"Samarcand","name:da":"Samarkand","name:de":"Samarkand","name:el":"Σαμαρκάνδη","name:eo":"Samarkando","name:es":"Samarcanda","name:et":"Samarkand","name:eu":"Samarkanda","name:fi":"Samarkand","name:fy":"Samarkand","name:gl":"Samarcanda","name:hi":"समरक़न्द","name:hr":"Samarkand","name:hu":"Szamarkand","name:hy":"Սամարղանդ","name:io":"Samarkand","name:is":"Samarkand","name:it":"Samarcanda","name:ja":"サマルカンド","name:ka":"სამარყანდი","name:ki":"Samarkand","name:ko":"사마르칸트","name:ku":"Semerkand","name:kw":"Samarkand","name:la":"Maracanda","name:lt":"Samarkandas","name:lv":"Samarkanda","name:mk":"Самарканд","name:ml":"സമർഖന്ദ്","name:mn":"Самарканд","name:mr":"समरकंद","name:ms":"Samarkand","name:mt":"Samarkanda","name:nb":"Samarkand","name:nl":"Samarkand","name:nn":"Samarkand","name:ny":"Samarkand","name:oc":"Samarcanda","name:os":"Самарканд","name:pa":"ਸਮਰਕੰਦ","name:pl":"Samarkanda","name:ps":"سمرقند","name:pt":"Samarcanda","name:ro":"Samarkand","name:sl":"Samarkand","name:so":"Samarqanda","name:sq":"Samerkandi","name:sr":"Самарканд","name:sv":"Samarkand","name:sw":"Samarkand","name:ta":"சமர்கந்து","name:te":"సమర్‌కండ్","name:th":"ซามาร์กันต์","name:tt":"Сәмәрканд","name:uk":"Самарканд","name:ur":"سمرقند","name:vi":"Samarkand","name:wa":"Samarcande","name:yi":"סאמארקאנד","name:zh":"撒马尔罕","alt_name":"Самарканд","old_name":"Согдиана;Мараканда","alt_name:en":"Samarkand","alt_name:tr":"Semerkand","alt":"Samarqand","alt:ar":"سمرقند","alt:az":"Səmərqənd","alt:ca":"Samarcanda","alt:en":"Samarkand","alt:fa":"سمرقند","alt:fr":"Samarcande","alt:he":"סמרקנד","alt:kk":"Самарқан","alt:ky":"Самаркан","alt:tg":"Самарқанд","alt:tk":"Samarkand","alt:tr":"Semerkant","alt:ug":"سەمەرقەنت","alt:uz":"Samarqand","alt:azb":"سمرقند","alt:kk-Arab":"سامارقان","alt:kk-Cyrl":"Самарқан","alt:kk-Latn":"Samarqan","alt:ky-Arab":"سامارقان","alt:tk-Arab":"سمرقند","alt:uz-Arab":"سمرقند","alt:uz-Cyrl":"Самарқанд","alt:uz-Latn":"Samarqand"},"display_name":"Samarqand shahri, Samarqand Viloyati, 140000, Oʻzbekiston","address":{"city":"Samarqand shahri","state":"Samarqand Viloyati","ISO3166-2-lvl4":"UZ-SA","postcode":"140000","country":"Oʻzbekiston","country_code":"uz"},"population":573200,"osm_type":"relation","osm_id":15589846,"type":"administrative","location":[66.9756954,39.6550017],"bbox":[66.8137707,39.6151251,67.0683071,39.7277007]}}
{"name":"Sariqtepa MFY","other_names":{"name:ru":"Сарыктепа МФИ","name:uz-Cyrl":"Сариқтепа МФЙ"},"display_name":"Sariqtepa MFY, Urgut tumani, Samarqand Viloyati, 140000, Oʻzbekiston","address":{"city":"Sariqtepa MFY","county":"Urgut tumani","state":"Samarqand Viloyati","ISO3166-2-lvl4":"UZ-SA","postcode":"140000","country":"Oʻzbekiston","country_code":"uz"},"osm_type":"way","osm_id":1280837912,"type":"administrative","location":[67.12543985830195,39.409742050000006],"bbox":[67.1063998,39.375424,67.1500639,39.4430615],"inferred_type":"city","border":{"name":"Sariqtepa  MFY","other_names":{"name:ru":"Сарыктепа МФИ","name:uz-Cyrl":"Сариқтепа МФЙ"},"display_name":"Sariqtepa  MFY, Urgut tumani, Samarqand Viloyati, 140000, Oʻzbekiston","address":{"city":"Sariqtepa  MFY","county":"Urgut tumani","state":"Samarqand Viloyati","ISO3166-2-lvl4":"UZ-SA","postcode":"140000","country":"Oʻzbekiston","country_code":"uz"},"osm_type":"relation","osm_id":17572983,"type":"administrative","location":[67.12543985830195,39.409742050000006],"bbox":[67.1063998,39.375424,67.1500639,39.4430615]}}
{"name":"Shahrisabz","other_names":{"name:ar":"شهرسبز","name:az":"Şəhrisəbz","name:de":"Shahrisabz","name:en":"Shahrisabz","name:eu":"Shahrisabz","name:fa":"شهرسبز","name:fr":"Chakhrisabz","name:he":"שאחריסאבז","name:kk":"Шаһрисабз","name:ko":"샤흐리삽스","name:ky":"Шахрисабз","name:ml":"ഷഹ്റിസബ്സ്","name:ru":"Шахрисабз","name:tg":"Шаҳрисабз","name:tk":"Şahrisabz","name:tr":"Şehr-i-Sebz","name:ug":"شەھىرىسەبز","name:ur":"شہرِ سبز","name:uz":"Shahrisabz","name:zh":"沙赫里萨布兹","name:azb":"شهری‌سبز","name:pnb":"شہرِ سبز","name:kk-Arab":"شاحريسابز","name:kk-Cyrl":"Шаһрисабз","name:kk-Latn":"Şahrisabz","name:ky-Arab":"شاحرىسابز","name:tk-Arab":"شهری‌سبز","name:uz-Arab":"شهری‌سبز","name:uz-Cyrl":"Шаҳрисабз","name:uz-Latn":"Shahrisabz"},"display_name":"Shahrisabz, Shahrisabz shahri, Qashqadaryo Viloyati, 181302, Oʻzbekiston","address":{"city":"Shahrisabz","state":"Qashqadaryo Viloyati","ISO3166-2-lvl4":"UZ-QA","postcode":"181302","country":"Oʻzbekiston","country_code":"uz"},"population":100300,"osm_type":"node","osm_id":5358612795,"type":"city","location":[66.8278643,39.0525821],"bbox":[66.6678643,38.8925821,66.9878643,39.2125821],"border":[{"name":"Шахрисабз","other_names":{"name:ru":"Шахрисабз"},"display_name":"Шахрисабз, Qashqadaryo Viloyati, 181302, Oʻzbekiston","address":{"city":"Шахрисабз","state":"Qashqadaryo Viloyati","ISO3166-2-lvl4":"UZ-QA","postcode":"181302","country":"Oʻzbekiston","country_code":"uz"},"osm_type":"relation","osm_id":19098868,"type":"city","location":[66.83489718054733,39.065713349999996],"bbox":[66.7896433,39.0309081,66.863722,39.1013265]},{"name":"Shahrisabz shahri","other_names":{"name:ar":"مدينة شهرسبز","name:az":"Şəhrisəbz şəhəri","name:en":"Shahrisabz City","name:fa":"شهر شهرسبز","name:he":"עיר שאחריסאבז","name:kk":"Шаһрисабз қаласы","name:ky":"Шахрисабз шаары","name:ru":"Шахрисабз","name:tg":"Шаҳри Шаҳрисабз","name:tk":"Şahrisabz şäheri","name:tr":"Şehr-i-Sebz Şehri","name:ug":"شەھىرىسەبز شەھىرى","name:uz":"Shahrisabz shahri","name:azb":"شهری‌سبز شهری","name:kk-Arab":"شاحريسابز قالاسى","name:kk-Cyrl":"Шаһрисабз қаласы","name:kk-Latn":"Şahrisabz qalasy","name:ky-Arab":"شاحرىسابز شاارى","name:tk-Arab":"شهری‌سبز شأهری","name:uz-Arab":"شهری‌سبز شهری","name:uz-Cyrl":"Шаҳрисабз шаҳри","name:uz-Latn":"Shahrisabz shahri","name:de":"Shahrisabz","name:eu":"Shahrisabz","name:fr":"Chakhrisabz","name:ko":"샤흐리삽스","name:ml":"ഷഹ്റിസബ്സ്","name:ur":"شہرِ سبز","name:zh":"沙赫里萨布兹","name:pnb":"شہرِ سبز","alt":"Shahrisabz","alt:ar":"شهرسبز","alt:az":"Şəhrisəbz","alt:en":"Shahrisabz","alt:fa":"شهرسبز","alt:he":"שאחריסאבז","alt:kk":"Шаһрисабз","alt:ky":"Шахрисабз","alt:tg":"Шаҳрисабз","alt:tk":"Şahrisabz","alt:tr":"Şehr-i-Sebz","alt:ug":"شەھىرىسەبز","alt:uz":"Shahrisabz","alt:azb":"شهری‌سبز","alt:kk-Arab":"شاحريسابز","alt:kk-Cyrl":"Шаһрисабз","alt:kk-Latn":"Şahrisabz","alt:ky-Arab":"شاحرىسابز","alt:tk-Arab":"شهری‌سبز","alt:uz-Arab":"شهری‌سبز","alt:uz-Cyrl":"Шаҳрисабз","alt:uz-Latn":"Shahrisabz"},"display_name":"Shahrisabz shahri, Qashqadaryo Viloyati, 180000, Oʻzbekiston","address":{"city":"Shahrisabz shahri","state":"Qashqadaryo Viloyati","ISO3166-2-lvl4":"UZ-QA","postcode":"180000","country":"Oʻzbekiston","country_code":"uz"},"population":100300,"osm_type":"relation","osm_id":15602076,"type":"administrative","location":[66.8278643,39.0525821],"bbox":[66.7896433,39.018656,66.8811761,39.1058604]}]}
{"name":"Shahrixon","other_names":{"name:ar":"شهرخان","name:en":"Sharihan","name:fa":"شهرخان","name:ja":"シャフリハン","name:ml":"ഷഹ്രിഖാൻ","name:ru":"Шахрихан","name:tg":"Шаҳрихон","name:tr":"Şahrihan","name:uz":"Shahrixon","name:uz-Arab":"شهرخان","name:uz-Cyrl":"Чаҳрихон"},"display_name":"Shahrixon, Shahrixon tumani, Andijon Viloyati, 171600, Oʻzbekiston","address":{"city":"Shahrixon","county":"Shahrixon tumani","state":"Andijon Viloyati","ISO3166-2-lvl4":"UZ-AN","postcode":"171600","country":"Oʻzbekiston","country_code":"uz"},"osm_type":"node","osm_id":247033288,"type":"city","location":[72.0577601,40.7090399],"bbox":[71.8977601,40.5490399,72.2177601,40.8690399]}
{"name":"Shofirkon","other_names":{"name:ar":"شافيركان","name:az":"Şafirkan","name:en":"Shafirkan","name:fa":"شاپورکام","name:ja":"シャフィルカン","name:kk":"Шафиркан","name:ky":"Шафиркан","name:ml":"ഷാഫിർകാൻ","name:ru":"Шафиркан","name:tg":"Шофирком","name:tk":"Şafyrkan","name:tr":"Şafirkan","name:ug":"شاپىركان","name:uz":"Shofirkon","name:azb":"شافیرکان","alt_name:en":"Shafirkan","alt_name:fa":"شافیرکان","alt_name:ml":"ഷാപൂർകാം","name:kk-Arab":"شافيركان","name:kk-Cyrl":"Шафиркан","name:kk-Latn":"Şafirkan","name:ky-Arab":"شافىرقان","name:tk-Arab":"شافیٛرکان","name:uz-Arab":"شافیرکان","name:uz-Cyrl":"Шофиркон","name:uz-Latn":"Shofirkon"},"display_name":"Shofirkon, Shofirkon tumani, Buxoro Viloyati, Oʻzbekiston","address":{"city":"Shofirkon","county":"Shofirkon tumani","state":"Buxoro Viloyati","ISO3166-2-lvl4":"UZ-BU","country":"Oʻzbekiston","country_code":"uz"},"population":17000,"osm_type":"node","osm_id":247146326,"type":"city","location":[64.5022273,40.1186169],"bbox":[64.3422273,39.9586169,64.6622273,40.2786169]}
{"name":"Termiz","other_names":{"name:ar":"ترمذ","name:be":"Тэрмез","name:bg":"Термез","name:de":"Termiz","name:en":"Termez","name:fa":"ترمذ","name:fr":"Termiz","name:hy":"Թերմեզ","name:ja":"テルメズ","name:ko":"테르메스","name:ks":"ترمذ","name:ml":"തിർമിസ്","name:pa":"ਤਿਰਮਿਜ਼","name:ru":"Термез","name:tg":"Тирмиз","name:tr":"Tirmiz","name:tt":"Тирмез","name:uk":"Термез","name:ur":"ترمذ","name:uz":"Termiz","name:azb":"تئرمیز","name:hsb":"Termiz","name:pnb":"ترمذ","name:az-Arab":"تئرمیز"},"display_name":"Termiz, Termiz Tumani, Surxondaryo Viloyati, Oʻzbekiston","address":{"city":"Termiz","county":"Termiz Tumani","state":"Surxondaryo Viloyati","ISO3166-2-lvl4":"UZ-SU","country":"Oʻzbekiston","country_code":"uz"},"population":195900,"osm_type":"node","osm_id":245557356,"type":"city","location":[67.283151,37.2442466],"bbox":[67.123151,37.0842466,67.443151,37.4042466],"border":[{"name":"Termiz","other_names":{"name:ar":"ترمذ","name:be":"Тэрмез","name:bg":"Термез","name:de":"Termiz","name:en":"Termez","name:fa":"ترمذ","name:fr":"Termiz","name:hy":"Թերմեզ","name:ja":"テルメズ","name:ko":"테르메스","name:ks":"ترمذ","name:ml":"തിർമിസ്","name:pa":"ਤਿਰਮਿਜ਼","name:ru":"Термез","name:tg":"Тирмиз","name:tr":"Tirmiz","name:tt":"Тирмез","name:uk":"Термез","name:ur":"ترمذ","name:uz":"Termiz","name:azb":"تئرمیز","name:hsb":"Termiz","name:pnb":"ترمذ","name:az-Arab":"تئرمیز"},"display_name":"Termiz, Termiz Tumani, Surxondaryo Viloyati, Oʻzbekiston","address":{"city":"Termiz","county":"Termiz Tumani","state":"Surxondaryo Viloyati","ISO3166-2-lvl4":"UZ-SU","country":"Oʻzbekiston","country_code":"uz"},"population":136200,"osm_type":"relation","osm_id":15352026,"type":"city","location":[67.283151,37.2442466],"bbox":[67.2340173,37.198216,67.324959,37.2604055]},{"name":"Termiz","other_names":{"name:ar":"ترمذ","name:be":"Тэрмез","name:bg":"Термез","name:de":"Termiz","name:en":"Termez","name:fr":"Termez","name:hy":"Թերմեզ","name:ja":"テルメズ","name:ko":"테르메스","name:ks":"ترمذ","name:pa":"ਤਿਰਮਿਜ਼","name:ru":"Термез","name:tg":"Тирмиз","name:tt":"Тирмез","name:uk":"Термез","name:ur":"ترمذ","name:uz":"Termiz","name:azb":"تئرمیز","name:hsb":"Termiz","name:pnb":"ترمذ","name:az-Arab":"تئرمیز","name:fa":"ترمذ","name:ml":"തിർമിസ്","name:tr":"Tirmiz","alt:fr":"Termiz"},"display_name":"Termiz, Termiz Tumani, Surxondaryo Viloyati, Oʻzbekiston","address":{"city":"Termiz","county":"Termiz Tumani","state":"Surxondaryo Viloyati","ISO3166-2-lvl4":"UZ-SU","country":"Oʻzbekiston","country_code":"uz"},"population":136200,"osm_type":"way","osm_id":38154445,"type":"city","location":[67.283151,37.2442466],"bbox":[67.2340173,37.198216,67.324959,37.2604055]}]}
{"name":"Tórtkúl","other_names":{"name:ar":"تورتكول","name:en":"Turtkul","name:fa":"تورت‌کول","name:fr":"Turtkul","name:ja":"トゥルトクル","name:kk":"Төрткөл","name:ml":"തുർത്കുൽ","name:ru":"Турткуль","name:uz":"Toʻrtkoʻl","name:zh":"图尔特库里","int_name":"Turtkul","name:kaa":"Tórtkúl","old_name":"Shoraxan;Petroaleksandrovsk","old_name:ru":"Шорахан;Петроалександровск","name:kk-Arab":"تورتكول","name:kk-Cyrl":"Төрткөл","name:kk-Latn":"Törtköl","name:uz-Arab":"تۉرت‌کۉل","name:uz-Cyrl":"Тўрткўл","name:uz-Latn":"Toʻrtkoʻl","name:kaa-Arab":"ٴتورت‌كۇل","name:kaa-Cyrl":"Төрткүл","name:kaa-Latn":"Tórtkúl"},"display_name":"Tórtkúl, Tórtkúl rayonı, Qaraqalpaqstan Respublikası, 231200, Oʻzbekiston","address":{"city":"Tórtkúl","county":"Tórtkúl rayonı","state":"Qaraqalpaqstan Respublikası","ISO3166-2-lvl3":"UZ-QR","postcode":"231200","country":"Oʻzbekiston","country_code":"uz"},"population":62131,"osm_type":"node","osm_id":246341040,"type":"city","location":[61.0002405,41.5544131],"bbox":[60.8402405,41.3944131,61.1602405,41.7144131]}
{"name":"Toshkent","other_names":{"name:ab":"Ташкент","name:af":"Tasjkent","name:am":"ታሽኬንት","name:an":"Tashkent","name:ar":"طشقند","name:av":"Ташкент","name:az":"Daşkənd","name:ba":"Ташкент","name:be":"Ташкент","name:bg":"Ташкент","name:bn":"তাশখন্দ","name:bo":"ཐ་ཧྲི་ཀན།","name:br":"Tochkent","name:bs":"Taškent","name:ca":"Taixkent","name:ce":"Ташкент","name:cs":"Taškent","name:cv":"Ташкент","name:cy":"Tashkent","name:da":"Tasjkent","name:de":"Taschkent","name:el":"Τασκένδη","name:en":"Tashkent","name:eo":"Taŝkento","name:es":"Taskent","name:et":"Taškent","name:eu":"Taxkent","name:fa":"تاشکند","name:fi":"Taškent","name:fr":"Tachkent","name:fy":"Tasjkent","name:ga":"Tashkent","name:gd":"Tashkent","name:gl":"Tashkent","name:gn":"Taskent","name:he":"טשקנט","name:hi":"ताशकन्द","name:hr":"Taškent","name:ht":"Tachkènt","name:hu":"Taskent","name:hy":"Տաշքենդ","name:ia":"Tashkent","name:id":"Tashkent","name:ie":"Tashkent","name:io":"Tashkent","name:is":"Taskent","name:it":"Tashkent","name:ja":"タシュケント","name:ka":"ტაშკენტი","name:ki":"Tashkent","name:kk":"Ташкент","name:kn":"ತಾಷ್ಕೆಂಟ್","name:ko":"타슈켄트","name:ku":"Taşkent","name:kv":"Ташкент","name:ky":"Ташкен","name:la":"Lithopolis","name:lb":"Taschkent","name:lo":"ຕັສ​ເກັນ","name:lt":"Taškentas","name:lv":"Taškenta","name:mk":"Ташкент","name:ml":"താഷ്കന്ദ്","name:mn":"Ташкент","name:mr":"ताश्कंद","name:ms":"Tashkent","name:mt":"Tashkent","name:my":"တာ့ရှ်ကန့်မြို့","name:nb":"Tasjkent","name:ne":"तास्केन्त","name:nl":"Tasjkent","name:nn":"Tasjkent","name:no":"Tasjkent","name:nv":"Tsébeekin Haalʼáhí","name:ny":"Tashkent","name:oc":"Tashkent","name:os":"Ташкент","name:pa":"ਤਾਸ਼ਕੰਤ","name:pl":"Taszkent","name:ps":"تاشكند","name:pt":"Tashkent","name:ro":"Tașkent","name:ru":"Ташкент","name:sc":"Tashkent","name:sd":"تاشقند","name:sh":"Taškent","name:sk":"Taškent","name:sl":"Taškent","name:sn":"Tashkent","name:sq":"Tashkenti","name:sr":"Ташкент","name:sv":"Tasjkent","name:sw":"Tashkent","name:ta":"தாஷ்கந்து","name:te":"తాష్కెంట్","name:tg":"Тошканд","name:th":"ทาชเคนต์","name:tk":"Daşkent","name:tl":"Tashkent","name:tr":"Taşkent","name:tt":"Ташкәнт","name:ug":"Tashkent","name:uk":"Ташкент","name:ur":"تاشقند","name:uz":"Toshkent","name:vi":"Tashkent","name:vo":"Toshkent","name:yi":"טאשקענט","name:yo":"Tashkent","name:zh":"塔什干","int_name":"Tashkent","name:ace":"Tashkent","name:ckb":"تاشکەند","name:crh":"Taşkent","name:hif":"Tashkent","name:hsb":"Taškent","name:kaa":"Tashkent","name:lmo":"Taškent","name:mhr":"Ташкент","name:myv":"Ташкент","name:mzn":"تاشکند","name:nan":"Tashkent","name:nov":"Tashkent","name:pms":"Tashkent","name:pnb":"تاشقند","name:sah":"Ташкент","name:sco":"Tashkent","name:tlh":"mIw'a'","name:udm":"Ташкент","name:vec":"Taškent","name:vep":"Taškent","name:war":"Tashkent","old_name":"Chach","ISO3166-2":"UZ-TK","short_name":"TAS","alt_name:ru":"Ташкентъ","alt_name:uz":"Тошкент","alt_name:vi":"Toshkent","name:simple":"Tashkent","old_name:ru":"Ташкентъ;Чач;Шаш;Джадж;Бинкент","old_name:uz":"Тошкент","old_name:vi":"Khang Cư","name:be-tarask":"Ташкент"},"display_name":"Toshkent, 100128, Oʻzbekiston","address":{"city":"Toshkent","ISO3166-2-lvl2":"UZ-TK","ISO3166-2-lvl4":"UZ-TK","postcode":"100128","country":"Oʻzbekiston","country_code":"uz"},"population":2956384,"osm_type":"node","osm_id":27524773,"type":"city","location":[69.2787079,41.3123363],"bbox":[69.1187079,41.1523363,69.4387079,41.4723363],"border":{"name":"Toshkent","other_names":{"name:af":"Tasjkent","name:am":"ታሽኬንት","name:ar":"طشقند","name:az":"Daşkənd","name:be":"Ташкент","name:bg":"Ташкент","name:bn":"তাশখন্দ","name:bo":"ཐ་ཧྲི་ཀན།","name:br":"Tochkent","name:bs":"Taškent","name:ca":"Taixkent","name:cs":"Taškent","name:cv":"Ташкент","name:cy":"Tashkent","name:da":"Tasjkent","name:de":"Taschkent","name:el":"Τασκένδη","name:en":"Tashkent","name:eo":"Taŝkento","name:es":"Taskent","name:et":"Toshkent","name:eu":"Tashkent","name:fa":"تاشکند","name:fi":"Taškent","name:fr":"Tachkent","name:fy":"Tasjkent","name:ga":"Tashkent","name:gd":"Tashkent","name:gl":"Tashkent","name:he":"טשקנט","name:hi":"ताशकन्द","name:hr":"Taškent","name:ht":"Tachkènt","name:hu":"Taskent","name:hy":"Տաշքենդ","name:id":"Tashkent","name:ie":"Tashkent","name:io":"Tashkent","name:is":"Taskent","name:it":"Tashkent","name:ja":"タシュケント","name:ka":"ტაშკენტი","name:kk":"Ташкент","name:kn":"ತಾಷ್ಕೆಂಟ್","name:ko":"타슈켄트","name:ku":"Taşkent","name:kv":"Ташкент","name:ky":"Ташкен","name:la":"Taskentum","name:lt":"Taškentas","name:lv":"Taškenta","name:mk":"Ташкент","name:ml":"താഷ്കന്റ്","name:mn":"Ташкент","name:mr":"ताश्कंद","name:ms":"Tashkent","name:nl":"Tasjkent","name:nn":"Tasjkent","name:no":"Tasjkent","name:oc":"Tashkent","name:os":"Ташкент","name:pl":"Taszkent","name:ps":"تاشكند","name:pt":"Tashkent","name:ro":"Tașkent","name:ru":"Ташкент","name:sh":"Taškent","name:sk":"Taškent","name:sq":"Tashkenti","name:sr":"Ташкент","name:sv":"Tasjkent","name:sw":"Tashkent","name:ta":"தாஷ்கந்து","name:te":"తాష్కెంట్","name:tg":"Тошканд","name:th":"ทาชเคนต์","name:tk":"Daşkent","name:tl":"Tashkent","name:tr":"Taşkent","name:tt":"Ташкент","name:ug":"Tashkent","name:uk":"Ташкент","name:ur":"تاشقند","name:uz":"Toshkent","name:vi":"Tashkent","name:vo":"Toshkent","name:yi":"טאשקענט","name:yo":"Tashkent","name:zh":"塔什干","int_name":"Tashkent","name:ace":"Tashkent","name:ckb":"تاشکەند","name:crh":"Taşkent","name:hif":"Tashkent","name:hsb":"Taškent","name:kaa":"Tashkent","name:lmo":"Taškent","name:mhr":"Ташкент","name:myv":"Ташкент ош","name:mzn":"تاشکند","name:nan":"Tashkent","name:nov":"Tashkent","name:pms":"Tashkent","name:pnb":"تاشقند","name:sah":"Ташкент","name:sco":"Tashkent","name:tlh":"mIw'a'","name:udm":"Ташкент","name:vec":"Taškent","name:vep":"Taškent","name:war":"Tashkent","old_name":"Chach","ISO3166-2":"UZ-TK","alt_name:ru":"Ташкентъ","alt_name:uz":"Тошкент","alt_name:vi":"Toshkent","name:simple":"Tashkent","old_name:ru":"Ташкентъ;Чач;Шаш;Джадж;Бинкент","old_name:vi":"Khang Cư","name:ab":"Ташкент","name:an":"Tashkent","name:av":"Ташкент","name:ba":"Ташкент","name:ce":"Ташкент","name:gn":"Taskent","name:ia":"Tashkent","name:ki":"Tashkent","name:lb":"Taschkent","name:lo":"ຕັສ​ເກັນ","name:mt":"Tashkent","name:my":"တာ့ရှ်ကန့်မြို့","name:nb":"Tasjkent","name:ne":"तास्केन्त","name:nv":"Tsébeekin Haalʼáhí","name:ny":"Tashkent","name:pa":"ਤਾਸ਼ਕੰਤ","name:sc":"Tashkent","name:sd":"تاشقند","name:sl":"Taškent","name:sn":"Tashkent","name:be-tarask":"Ташкент","short_name":"TAS","old_name:uz":"Тошкент","alt:et":"Taškent","alt:eu":"Taxkent","alt:la":"Lithopolis","alt:ml":"താഷ്കന്ദ്","alt:tt":"Ташкәнт","alt:myv":"Ташкент"},"display_name":"Toshkent, 100000, Oʻzbekiston","address":{"city":"Toshkent","ISO3166-2-lvl4":"UZ-TK","postcode":"100000","country":"Oʻzbekiston","country_code":"uz"},"population":2956384,"osm_type":"relation","osm_id":2216724,"type":"administrative","location":[69.2787079,41.3123363],"bbox":[69.121797,41.1577334,69.525908,41.4224955]}}
{"name":"Uchquduq","other_names":{"name:ar":"أوج قدوق","name:az":"Üçquduq","name:en":"Uchquduq","name:fa":"اوچ‌قدوق","name:ja":"ウチュクドゥク","name:kk":"Үшқұдық","name:ky":"Учкудук","name:ru":"Учкудук","name:tg":"Учқудуқ","name:tk":"Uçkuduk","name:tr":"Üçkuduk","name:tt":"Өчкодык","name:ug":"ئۈچ قۇدۇق","name:uz":"Uchquduq","name:zh":"于其杜库克","name:azb":"اوچ‌قدوق","name:kaa":"Úshquduq","name:kk-Arab":"ۇشقۇدىق","name:kk-Cyrl":"Үшқұдық","name:kk-Latn":"Üşqūdyq","name:ky-Arab":"ۇچقۇدۇق","name:tk-Arab":"اوُچ‌قوُدوُق","name:uz-Arab":"اوچ‌قدوق","name:uz-Cyrl":"Учқудуқ","name:uz-Latn":"Uchquduq"},"display_name":"Uchquduq, Uchquduq tumani, Navoiy Viloyati, 210900, Oʻzbekiston","address":{"city":"Uchquduq","county":"Uchquduq tumani","state":"Navoiy Viloyati","ISO3166-2-lvl4":"UZ-NW","postcode":"210900","country":"Oʻzbekiston","country_code":"uz"},"population":28000,"osm_type":"node","osm_id":2063162979,"type":"city","location":[63.5622099,42.1532768],"bbox":[63.4022099,41.9932768,63.7222099,42.3132768]}
{"name":"Urganch","other_names":{"name:ar":"أورقنج","name:en":"Urgench","name:fa":"گرگانج","name:fr":"Ourguentch","name:ja":"ウルゲンチ","name:ko":"우르겐치","name:ml":"ഉർഗഞ്ച്","name:ru":"Ургенч","name:tk":"Urgenç","int_name":"Urgench","name:kaa":"Úrgenish","old_name":"Гургандж","old_name:ar":"جرجانية","old_name:ru":"Гургандж"},"display_name":"Urganch, Urganch Tumani, Xorazm Viloyati, 220100, Oʻzbekiston","address":{"city":"Urganch","county":"Urganch Tumani","state":"Xorazm Viloyati","ISO3166-2-lvl4":"UZ-XO","postcode":"220100","country":"Oʻzbekiston","country_code":"uz"},"population":137300,"osm_type":"node","osm_id":245550581,"type":"city","location":[60.631281,41.5517903],"bbox":[60.471281,41.3917903,60.791281,41.7117903],"border":[{"name":"Urganch","other_names":{"name:en":"Urgench","name:fa":"اورگنچ","name:fr":"Ourguentch","name:ja":"ウルゲンチ","name:ru":"Ургенч","name:tk":"Ürgenç","name:tr":"Ürgenç","int_name":"Urgench","name:kaa":"Úrgenish","old_name":"Гургандж","old_name:ru":"Гургандж","name:ar":"أورقنج","name:ko":"우르겐치","name:ml":"ഉർഗഞ്ച്","old_name:ar":"جرجانية","alt:fa":"گرگانج","alt:tk":"Urgenç"},"display_name":"Urganch, Urganch Tumani, Xorazm Viloyati, 220100, Oʻzbekiston","address":{"city":"Urganch","county":"Urganch Tumani","state":"Xorazm Viloyati","ISO3166-2-lvl4":"UZ-XO","postcode":"220100","country":"Oʻzbekiston","country_code":"uz"},"population":146709,"osm_type":"way","osm_id":110132970,"type":"city","location":[60.631281,41.5517903],"bbox":[60.584836,41.5225355,60.6758095,41.5879737]},{"name":"Urganch Tumani","other_names":{"name:ar":"أورقنج","name:en":"Urgench","name:id":"Distrik Urgench","name:it":"Distretto di Urgench","name:ms":"Daerah Urganch","name:ru":"Ургенчский район"},"display_name":"Urganch Tumani, Xorazm Viloyati, Oʻzbekiston","address":{"county":"Urganch Tumani","state":"Xorazm Viloyati","ISO3166-2-lvl4":"UZ-XO","country":"Oʻzbekiston","country_code":"uz"},"osm_type":"relation","osm_id":2097690,"type":"administrative","location":[60.599912,41.5753394],"bbox":[60.3697013,41.4829936,60.8621553,41.7114344]}]}
{"name":"Urgut","other_names":{"name:ar":"أورقوت","name:az":"Ügrüt","name:en":"Urgut","name:fa":"اوگروت","name:ja":"ウルグト","name:kk":"Үргут","name:ky":"Ургут","name:ml":"ഉർഗുത്ത്","name:ru":"Ургут","name:tg":"Ургут","name:tk":"Urgut","name:tr":"Ügrüt","name:ug":"ئۈگرۈت","name:uz":"Ugrut","name:zh":"乌尔古特","name:azb":"اۆگرۆت","name:uz-cyr":"Ургут","name:kk-Arab":"ۇرگۋت","name:kk-Cyrl":"Үргут","name:kk-Latn":"Ürgut","name:ky-Arab":"ۇرگۇت","name:tk-Arab":"اوُرگوُت","name:uz-Arab":"اوگروت","name:uz-Cyrl":"Ургут","name:uz-Latn":"Ugrut"},"display_name":"Urgut, Urgut tumani, Samarqand Viloyati, 140000, Oʻzbekiston","address":{"city":"Urgut","county":"Urgut tumani","state":"Samarqand Viloyati","ISO3166-2-lvl4":"UZ-SA","postcode":"140000","country":"Oʻzbekiston","country_code":"uz"},"population":35000,"osm_type":"node","osm_id":246038325,"type":"city","location":[67.2494167,39.4092386],"bbox":[67.0894167,39.2492386,67.4094167,39.5692386]}
{"name":"Uzun","other_names":{"name:en":"Uzun","name:ru":"Узун","alt_name":"Сары Ассия;Узун-Кишлак","alt_name:en":"Sary Assiya;Uzun-Kishlak"},"display_name":"Uzun, Uzun tumani, Surxondaryo Viloyati, 191100, Oʻzbekiston","address":{"town":"Uzun","county":"Uzun tumani","state":"Surxondaryo Viloyati","ISO3166-2-lvl4":"UZ-SU","postcode":"191100","country":"Oʻzbekiston","country_code":"uz"},"osm_type":"way","osm_id":350579149,"type":"city","location":[68.0066697,38.3653682],"bbox":[67.9862634,38.339386,68.0266432,38.3871834]}
{"name":"Vobkent","other_names":{"name:ar":"وابكند","name:az":"Vabkənd","name:de":"Vabkent","name:en":"Vobkent","name:fa":"وابکند","name:ja":"ヴァブケント","name:kk":"Вабкент","name:ky":"Вабкент","name:ml":"വാബ്കന്ദ്","name:ru":"Вабкент","name:tg":"Вобканд","name:tk":"Wabkent","name:tr":"Vabkent","name:ug":"ۋابكەنت","name:uz":"Vobkent","name:azb":"وابکند","name:kk-Arab":"ۆابكەنت","name:kk-Cyrl":"Вабкент","name:kk-Latn":"Vabkent","name:ky-Arab":"ۋابكەنت","name:tk-Arab":"وابکنت","name:uz-Arab":"وابکند","name:uz-Cyrl":"Вобканд","name:uz-Latn":"Vobkent"},"display_name":"Vobkent, Vobkent tumani, Buxoro Viloyati, Oʻzbekiston","address":{"city":"Vobkent","county":"Vobkent tumani","state":"Buxoro Viloyati","ISO3166-2-lvl4":"UZ-BU","country":"Oʻzbekiston","country_code":"uz"},"population":16600,"osm_type":"node","osm_id":1985540962,"type":"city","location":[64.5179242,40.0211793],"bbox":[64.3579242,39.8611793,64.6779242,40.1811793]}
{"name":"Xojeli","other_names":{"name:ar":"خوجيلي","name:en":"Khujayli","name:ja":"ホジェリ","name:ru":"Ходжейли","name:tk":"Hojeýli","name:uk":"Ходжейлі","name:uz":"Xo`jayli","alt_name":"Хожели;Ходжеили;Ходжейли;Xojeli","int_name":"Khujayli","name:kaa":"Xojeli","alt_name:en":"Khojeili;Khodzheili;Khodzheyli"},"display_name":"Xojeli, Xojeli rayonı, Qaraqalpaqstan Respublikası, 231300, Oʻzbekiston","address":{"city":"Xojeli","county":"Xojeli rayonı","state":"Qaraqalpaqstan Respublikası","ISO3166-2-lvl3":"UZ-QR","postcode":"231300","country":"Oʻzbekiston","country_code":"uz"},"population":70827,"osm_type":"node","osm_id":246346348,"type":"city","location":[59.452518,42.4132703],"bbox":[59.292518,42.2532703,59.612518,42.5732703],"border":{"name":"Xojeli","other_names":{"name:en":"Khujayli","name:ja":"ホジェリ","name:ru":"Ходжейли","name:tk":"Hojeýli","name:uk":"Ходжейлі","name:uz":"Xo`jayli","alt_name":"Хожели;Ходжеили;Ходжейли;Xojeli","int_name":"Khujayli","name:kaa":"Xojeli","alt_name:en":"Khojeili;Khodzheili;Khodzheyli","name:ar":"خوجيلي"},"display_name":"Xojeli, Xojeli rayonı, Qaraqalpaqstan Respublikası, 231300, Oʻzbekiston","address":{"city":"Xojeli","county":"Xojeli rayonı","state":"Qaraqalpaqstan Respublikası","ISO3166-2-lvl3":"UZ-QR","postcode":"231300","country":"Oʻzbekiston","country_code":"uz"},"population":70827,"osm_type":"way","osm_id":273457023,"type":"city","location":[59.452518,42.4132703],"bbox":[59.404378,42.3874772,59.5068839,42.4423183]}}
{"name":"Yangiyer","other_names":{"name:ar":"يانجير","name:ja":"ヤンギイェル","name:ml":"യംഗിയെർ","name:ru":"Янгиер"},"display_name":"Yangiyer, Sirdaryo Viloyati, 121003, Oʻzbekiston","address":{"city":"Yangiyer","town":"Yangiyer","region":"Sirdaryo Viloyati","ISO3166-2-lvl4":"UZ-SI","postcode":"121003","country":"Oʻzbekiston","country_code":"uz"},"osm_type":"node","osm_id":246154460,"type":"city","location":[68.8165984,40.2700751],"bbox":[68.6565984,40.1100751,68.9765984,40.4300751],"border":{"name":"Yangiyer","other_names":{"name:ar":"يانجير","name:ja":"ヤンギイェル","name:ru":"Янгиер"},"display_name":"Yangiyer, Sirdaryo Viloyati, Oʻzbekiston","address":{"town":"Yangiyer","region":"Sirdaryo Viloyati","ISO3166-2-lvl4":"UZ-SI","country":"Oʻzbekiston","country_code":"uz"},"osm_type":"relation","osm_id":11086479,"type":"administrative","location":[68.82324967766586,40.2785641],"bbox":[68.778274,40.2478256,68.8511239,40.3093558]}}
{"name":"Yangiyo'l","other_names":{"name:ar":"يانقي أول","name:en":"Yangiyul","name:ja":"ヤンギユル","name:ml":"യങ്കിയോൾ","name:ru":"Янгиюль","name:uk":"Янґіюль","int_name":"Yangiyul","old_name":"ст. Кауфманская"},"display_name":"Yangiyo'l, Toshkent Viloyati, 112000, Oʻzbekiston","address":{"city":"Yangiyo'l","town":"Yangiyo'l","state":"Toshkent Viloyati","ISO3166-2-lvl4":"UZ-TO","postcode":"112000","country":"Oʻzbekiston","country_code":"uz"},"population":72500,"osm_type":"node","osm_id":246177830,"type":"city","location":[69.0568128,41.1195985],"bbox":[68.8968128,40.9595985,69.2168128,41.2795985],"border":{"name":"Yangiyo'l","other_names":{"name:en":"Yangiiul","name:ja":"ヤンギユル","name:ru":"Янгиюль","name:uk":"Янґіюль","alt_name":"Каунчи","int_name":"Yangiyul","old_name":"ст. Кауфманская","name:ar":"يانقي أول","name:ml":"യങ്കിയോൾ","alt:en":"Yangiyul"},"display_name":"Yangiyo'l, Toshkent Viloyati, 112000, Oʻzbekiston","address":{"town":"Yangiyo'l","state":"Toshkent Viloyati","ISO3166-2-lvl4":"UZ-TO","postcode":"112000","country":"Oʻzbekiston","country_code":"uz"},"population":72500,"osm_type":"relation","osm_id":7163853,"type":"administrative","location":[69.0568128,41.1195985],"bbox":[69.0290805,41.093899,69.0805914,41.1439183]}}
{"name":"Zarafshon","other_names":{"name:ar":"زرافشان","name:az":"Zərəfşan","name:en":"Zarafshan","name:fa":"زرافشان","name:fr":"Zarafchan","name:he":"זראפשאן","name:hi":"ज़रफ़शान","name:ja":"ザラフシャン","name:kk":"Зарафшан","name:ky":"Зарафшан","name:lt":"Zarafšanas","name:ru":"Зарафшан","name:tg":"Зарафшон","name:tk":"Zarafşan","name:tr":"Zarafşan","name:ug":"زارافشان","name:uk":"Зарафшан","name:ur":"زرافشان","name:uz":"Zarafshon","name:zh":"扎拉夫尚","name:azb":"زرافشان","alt_name:en":"Zarafshan","alt_name:fr":"Zeravchan","name:kk-Arab":"زارافشان","name:kk-Cyrl":"Зарафшан","name:kk-Latn":"Zarafşan","name:ky-Arab":"زارافشان","name:tk-Arab":"زارافشان","name:uz-Arab":"زرافشان","name:uz-Cyrl":"Зарафшон","name:uz-Latn":"Zarafshon"},"display_name":"Zarafshon, Zarafshon shahri, Navoiy Viloyati, Oʻzbekiston","address":{"city":"Zarafshon","state":"Navoiy Viloyati","ISO3166-2-lvl4":"UZ-NW","country":"Oʻzbekiston","country_code":"uz"},"population":80000,"osm_type":"node","osm_id":246399889,"type":"city","location":[64.2053263,41.5715707],"bbox":[64.0453263,41.4115707,64.3653263,41.7315707]}
{"name":"Zomin","other_names":{"name:ar":"زامين","name:en":"Zaamin","name:ja":"ザーミン","name:ml":"സാമീൻ","name:ru":"Заамин","int_name":"Zaamin"},"display_name":"Zomin, Zomin Tumani, Jizzax Viloyati, 130800, Oʻzbekiston","address":{"city":"Zomin","county":"Zomin Tumani","state":"Jizzax Viloyati","ISO3166-2-lvl4":"UZ-JI","postcode":"130800","country":"Oʻzbekiston","country_code":"uz"},"population":14215,"osm_type":"node","osm_id":246085937,"type":"city","location":[68.3969972,39.9619506],"bbox":[68.2369972,39.8019506,68.5569972,40.1219506],"border":{"name":"Zomin","other_names":{"name:ar":"زامين","name:en":"Zaamin","name:ja":"ザーミン","name:ml":"സാമീൻ","name:ru":"Заамин","int_name":"Zaamin"},"display_name":"Zomin, Zomin Tumani, Jizzax Viloyati, 130800, Oʻzbekiston","address":{"city":"Zomin","county":"Zomin Tumani","state":"Jizzax Viloyati","ISO3166-2-lvl4":"UZ-JI","postcode":"130800","country":"Oʻzbekiston","country_code":"uz"},"population":14215,"osm_type":"way","osm_id":1380186851,"type":"city","location":[68.3969972,39.9619506],"bbox":[68.3787586,39.9388259,68.4407284,39.9961791]}}
