{"name":"Nukuʻalofa","other_names":{"name:am":"ኑኩአሎፋ","name:ar":"نوكو ألوفا","name:az":"Nukualofa","name:be":"Нукуалофа","name:bg":"Нукуалофа","name:bo":"ནུ་ཁུ་ཨ་ལོ་ཧྥ།","name:ca":"Nuku'alofa","name:cs":"Nuku'alofa","name:cy":"Nuku'alofa","name:da":"Nuku'alofa","name:de":"Nukuʻalofa","name:el":"Νουκουαλόφα","name:en":"Nuku'alofa","name:eo":"Nukualofo","name:es":"Nukualofa","name:et":"Nuku‘alofa","name:eu":"Nuku'alofa","name:fa":"نوکوآلوفا","name:fi":"Nukuʻalofa","name:fr":"Nukuʻalofa","name:fy":"Nuku'alofa","name:gd":"Nuku'alofa","name:gl":"Nuku'alofa","name:he":"נוקואלופה","name:hi":"नुकुअलोफ़ा","name:hr":"Nuku'alofa","name:ht":"Noukou'alofa","name:hu":"Nuku'alofa","name:hy":"Նուկուալոֆա","name:id":"Nukuʻalofa","name:io":"Nuku'alofa","name:is":"Nukuʻalofa","name:it":"Nuku'alofa","name:ja":"ヌクアロファ","name:ka":"ნუკუალოფა","name:kk":"Нукуалофа","name:ko":"누쿠알로파","name:ku":"Nukuelofa","name:ky":"Нукуалофа","name:la":"Nukualofa","name:lb":"Nuku'alofa","name:lt":"Nukualofa","name:lv":"Nukualofa","name:mk":"Нукуалофа","name:ml":"നുക്കുവാലോഫ","name:mr":"नुकु-अलोफा","name:ms":"Nukuʻalofa","name:nl":"Nuku'alofa","name:nn":"Nuku'alofa","name:no":"Nuku'alofa","name:oc":"Nuku'alofa","name:pa":"ਨੁਕੂ ਅਲੋਫ਼ਾ","name:pl":"Nuku'alofa","name:ps":"نوکوالوفا","name:pt":"Nucualofa","name:ro":"Nuku'alofa","name:ru":"Нукуалофа","name:sh":"Nuku'alofa","name:sk":"Nuku’alofa","name:sq":"Nuku'alofa","name:sr":"Нукуалофа","name:sv":"Nuku'alofa","name:sw":"Nuku'alofa","name:ta":"நுக்கு'அலோபா","name:tg":"Нукуалофа","name:th":"นูกูอะโลฟา","name:tl":"Nukualofa","name:tr":"Nuku'alofa","name:ty":"Nuku’alofa","name:uk":"Нуку'алофа","name:ur":"نوکوالوفا","name:uz":"Nukualofa","name:vi":"Nukuʻalofa","name:zh":"努库阿洛法/努庫阿洛法","name:ast":"Nuku'alofa","name:ckb":"نوکوئەلۆفا","name:hak":"Nuku'alofa","name:hif":"Nukualofa","name:lmo":"Nuku'alofa","name:mrj":"Нукуалофа","name:mzn":"نوکوآلوفا","name:nah":"Nukualofa","name:nan":"Nuku'alofa","name:pms":"Nuku'alofa","name:xmf":"ნუკუალოფა","alt_name:es":"Nukuʻalofa","alt_name:pt":"Nuku'alofa","name:zh-Hans":"努库阿洛法","name:zh-Hant":"努庫阿洛法","name:be-tarask":"Нукуалофа"},"display_name":"Nukuʻalofa, Vahe Kolofo'ou, Tongatapu, Tonga","address":{"city":"Nukuʻalofa","state_district":"Vahe Kolofo'ou","state":"Tongatapu","ISO3166-2-lvl4":"TO-04","country":"Tonga","country_code":"to"},"population":24500,"osm_type":"node","osm_id":1082208696,"type":"city","location":[-175.201808,-21.1343401],"bbox":[-175.361808,-21.2943401,-175.041808,-20.9743401]}
