{"name":"Banská Bystrica","other_names":{"name:ar":"بانسكا بيستريتسا","name:de":"Neusohl","name:en":"Banská Bystrica","name:es":"Banská Bystrica","name:fr":"Banská Bystrica","name:hu":"Besztercebánya","name:it":"Banská Bystrica","name:la":"Neosolium","name:pl":"Bańska Bystrzyca","name:ru":"Банска-Бистрица","name:sk":"Banská Bystrica","name:sr":"Банска Бистрица","name:uk":"Банська Бистриця","loc_name":"Banska Bystrica;Banská Bystrica;Bańska Bystrzyca;Besztercebanya","old_name":"Baňská Bystrica"},"display_name":"Banská Bystrica, okres Banská Bystrica, Banskobystrický kraj, Stredné Slovensko, Slovensko","address":{"city":"Banská Bystrica","county":"okres Banská Bystrica","state":"Banskobystrický kraj","ISO3166-2-lvl4":"SK-BC","region":"Stredné Slovensko","country":"Slovensko","country_code":"sk"},"population":80466,"osm_type":"node","osm_id":26037873,"type":"city","location":[19.1585805,48.7383895],"bbox":[18.9985805,48.5783895,19.3185805,48.8983895],"border":[{"name":"Banská Bystrica","other_names":{"ref":"508438","name:de":"Neusohl","name:pl":"Bańska Bystrzyca","name:sk":"Banská Bystrica","alt_name":"BB;BBystrica;B. Bystrica","name:ar":"بانسكا بيستريتسا","name:en":"Banská Bystrica","name:es":"Banská Bystrica","name:fr":"Banská Bystrica","name:hu":"Besztercebánya","name:it":"Banská Bystrica","name:la":"Neosolium","name:ru":"Банска-Бистрица","name:sr":"Банска Бистрица","name:uk":"Банська Бистриця","loc_name":"Banska Bystrica;Banská Bystrica;Bańska Bystrzyca;Besztercebanya","old_name":"Baňská Bystrica"},"display_name":"Banská Bystrica, okres Banská Bystrica, Banskobystrický kraj, Stredné Slovensko, Slovensko","address":{"city":"Banská Bystrica","county":"okres Banská Bystrica","state":"Banskobystrický kraj","ISO3166-2-lvl4":"SK-BC","region":"Stredné Slovensko","country":"Slovensko","country_code":"sk"},"population":80466,"osm_type":"relation","osm_id":2265296,"type":"administrative","location":[19.1585805,48.7383895],"bbox":[18.996387,48.6735931,19.2656095,48.8042628]},{"name":"Banská Bystrica","other_names":{"ref":"801062","name:de":"Neusohl","name:pl":"Bańska Bystrzyca","name:sk":"Banská Bystrica","name:ar":"بانسكا بيستريتسا","name:en":"Banská Bystrica","name:es":"Banská Bystrica","name:fr":"Banská Bystrica","name:hu":"Besztercebánya","name:it":"Banská Bystrica","name:la":"Neosolium","name:ru":"Банска-Бистрица","name:sr":"Банска Бистрица","name:uk":"Банська Бистриця","loc_name":"Banska Bystrica;Banská Bystrica;Bańska Bystrzyca;Besztercebanya","old_name":"Baňská Bystrica"},"display_name":"Banská Bystrica, okres Banská Bystrica, Banskobystrický kraj, Stredné Slovensko, Slovensko","address":{"city":"Banská Bystrica","county":"okres Banská Bystrica","state":"Banskobystrický kraj","ISO3166-2-lvl4":"SK-BC","region":"Stredné Slovensko","country":"Slovensko","country_code":"sk"},"population":80466,"osm_type":"relation","osm_id":2265245,"type":"administrative","location":[19.1585805,48.7383895],"bbox":[19.1117235,48.7063823,19.1945407,48.7553929]}]}
{"name":"Bratislava","other_names":{"name:am":"ብራቲስላቫ","name:ar":"براتيسلافا","name:av":"Братислава","name:ba":"Братислава","name:be":"Браціслава","name:bg":"Братислава","name:bn":"ব্রাতিস্লাভা","name:bo":"བ་ར་ཏིསི་ལ་བ།","name:br":"Bratislava","name:ca":"Bratislava","name:ce":"Братислава","name:cs":"Bratislava","name:cu":"Братислава","name:cv":"Братислава","name:de":"Bratislava","name:el":"Μπρατισλάβα","name:en":"Bratislava","name:eo":"Bratislavo","name:es":"Bratislava","name:fa":"براتیسلاوا","name:fr":"Bratislava","name:ga":"An Bhratasláiv","name:he":"ברטיסלאבה","name:hi":"ब्रातिस्लावा","name:hr":"Bratislava","name:hu":"Pozsony","name:hy":"Բրատիսլավա","name:it":"Bratislava","name:ja":"ブラチスラヴァ","name:ka":"ბრატისლავა","name:kk":"Братислава","name:kn":"ಬ್ರಾಟಿಸ್ಲಾವಾ","name:ko":"브라티슬라바","name:ku":"Bratîslava","name:kv":"Братислава","name:ky":"Братислава","name:la":"Posonium","name:lt":"Bratislava","name:mk":"Братислава","name:ml":"ബ്രാട്ടിസ്ലാവ","name:mn":"Братислав","name:mr":"ब्रातिस्लाव्हा","name:ne":"ब्रातिस्लाभा","name:nl":"Bratislava","name:no":"Bratislava","name:oc":"Bratislava","name:os":"Братиславæ","name:pa":"ਬ੍ਰਾਤਿਸਲਾਵਾ","name:pl":"Bratysława","name:ps":"براتیسلاوا","name:pt":"Bratislava","name:ro":"Bratislava","name:ru":"Братислава","name:sd":"براٽيسلاوا","name:sk":"Bratislava","name:sq":"Bratisllava","name:sr":"Братислава","name:sv":"Bratislava","name:ta":"பிராத்திஸ்லாவா","name:tg":"Братислава","name:th":"บราติสลาวา","name:tr":"Bratislava","name:tt":"Братислава","name:tw":"Bratislawa","name:ug":"براتىسلاۋا","name:uk":"Братислава","name:ur":"براٹیسلاوا","name:wo":"Baratislawa","name:yi":"בראטיסלאווא","name:zh":"布拉迪斯拉發","int_name":"Bratislava","name:arc":"ܒܪܛܝܣܠܐܒܐ","name:azb":"براتیسلاوا","name:bar":"Pressburg","name:ckb":"براتسیلاڤا","name:diq":"Bratislawa","name:grc":"Ἰστρόπολις","name:koi":"Братислава","name:nds":"Pressburg","name:pnb":"براتسلاوا","name:rue":"Братїслава","name:sah":"Братислава","name:syc":"ܒܪܛܝܣܠܐܒܐ","name:udm":"Братислава","name:vep":"Bratislav","name:yue":"布拉迪斯拉發","alt_name:de":"Bratislava","old_name:cs":"Prešpurk","old_name:de":"Preßburg","old_name:el":"Istropolis","old_name:en":"Pressburg","old_name:es":"Presburgo","old_name:hr":"Požun","old_name:hu":"Pozsony","old_name:la":"Posonium","old_name:sk":"Prešporok","reg_name:de":"Pressburg","name:zh-Hans":"布拉迪斯拉发","name:zh-Hant":"布拉迪斯拉發","old_name:bar":"Preßburg","old_name:nds":"Preßburg","name:be-tarask":"Браціслава"},"display_name":"Bratislava, Bratislavský kraj, Slovensko","address":{"city":"Bratislava","state":"Bratislavský kraj","ISO3166-2-lvl4":"SK-BL","country":"Slovensko","country_code":"sk"},"population":432801,"osm_type":"node","osm_id":530544342,"type":"city","location":[17.1093063,48.1516988],"bbox":[16.9493063,47.9916988,17.2693063,48.3116988],"border":[{"name":"Bratislava","other_names":{"name:ar":"براتيسلافا","name:be":"Браціслава","name:ca":"Bratislava","name:cu":"Братислава","name:cv":"Братислава","name:de":"Bratislava","name:el":"Μπρατισλάβα","name:en":"Bratislava","name:eo":"Bratislavo","name:es":"Bratislava","name:fa":"براتیسلاوا","name:hr":"Bratislava","name:hu":"Pozsony","name:it":"Bratislava","name:ja":"ブラチスラヴァ","name:ka":"ბრატისლავა","name:kk":"Братислава","name:kn":"ಬ್ರಾಟಿಸ್ಲಾವಾ","name:ko":"브라티슬라바","name:ku":"Bratîslava","name:kv":"Братислава","name:la":"Posonium","name:lt":"Bratislava","name:mk":"Братислава","name:ml":"ബ്രാട്ടിസ്‌ലാവ","name:mn":"Братислав","name:mr":"ब्रातिस्लाव्हा","name:nl":"Bratislava","name:no":"Bratislava","name:os":"Братиславæ","name:pl":"Bratysława","name:pt":"Bratislava","name:ru":"Братислава","name:sk":"Bratislava","name:sq":"Bratisllava","name:sr":"Братислава","name:sv":"Bratislava","name:ta":"பிராத்திஸ்லாவா","name:tg":"Братислава","name:th":"บราติสลาวา","name:tt":"Братислава","name:ug":"براتىسلاۋا","name:uk":"Братислава","name:ur":"براٹیسلاوا","name:yi":"בראטיסלאווא","name:zh":"布拉迪斯拉發","name:arc":"ܒܪܛܝܣܠܐܒܐ","name:azb":"براتیسلاوا","name:ckb":"براتسیلاڤا","name:diq":"Bratislawa","name:grc":"Ἰστρόπολις","name:jbo":"bratislavas","name:koi":"Братислава","name:nds":"Preßburg","name:pnb":"براتسلاوا","name:rue":"Братїслава","name:sah":"Братислава","name:syc":"ܒܪܛܝܣܠܐܒܐ","name:udm":"Братислава","name:vep":"Bratislav","name:yue":"布拉迪斯拉發","old_name:cs":"Prešpurk","old_name:de":"Preßburg","old_name:en":"Pressburg","old_name:es":"Presburgo","old_name:hr":"Požun","old_name:hu":"Pozsony","old_name:la":"Posonium","old_name:sk":"Prešporok","name:sr-Latn":"Bratislava","name:zh-Hans":"布拉迪斯拉发","name:zh-Hant":"布拉迪斯拉發","old_name:nds":"Preßburg","name:be-tarask":"Браціслава"},"display_name":"Bratislava, Bratislavský kraj, Slovensko","address":{"city":"Bratislava","state":"Bratislavský kraj","ISO3166-2-lvl4":"SK-BL","country":"Slovensko","country_code":"sk"},"population":432801,"osm_type":"relation","osm_id":3992676,"type":"city","location":[17.131420337823194,48.1557669],"bbox":[16.9658985,48.0178865,17.2400529,48.2545452]},{"name":"Bratislava","other_names":{"name:ar":"براتيسلافا","name:be":"Браціслава","name:cs":"Bratislava","name:de":"Bratislava","name:el":"Ἰστρόπολις","name:en":"Bratislava","name:eo":"Bratislavo","name:es":"Bratislava","name:fa":"براتیسلاوا","name:hr":"Bratislava","name:hu":"Pozsony","name:lt":"Bratislava","name:pl":"Bratysława","name:ru":"Братислава","name:sk":"Bratislava","name:sr":"Братислава","name:ug":"براتىسلاۋا","name:uk":"Братислава","name:ur":"براٹیسلاوا","name:arc":"ܒܪܛܝܣܠܐܒܐ","name:azb":"براتیسلاوا","name:grc":"Ἰστρόπολις","name:syc":"ܒܪܛܝܣܠܐܒܐ","alt_name:de":"Bratislava","old_name:cs":"Prešpurk","old_name:de":"Preßburg","old_name:en":"Pressburg","old_name:es":"Presburgo","old_name:hr":"Požun","old_name:hu":"Pozsony","old_name:la":"Posonium","old_name:sk":"Prešporok","name:sr-Latn":"Bratislava","old_name:nds":"Preßburg","name:am":"ብራቲስላቫ","name:av":"Братислава","name:ba":"Братислава","name:bg":"Братислава","name:bn":"ব্রাতিস্লাভা","name:bo":"བ་ར་ཏིསི་ལ་བ།","name:br":"Bratislava","name:ca":"Bratislava","name:ce":"Братислава","name:cu":"Братислава","name:cv":"Братислава","name:fr":"Bratislava","name:ga":"An Bhratasláiv","name:he":"ברטיסלאבה","name:hi":"ब्रातिस्लावा","name:hy":"Բրատիսլավա","name:it":"Bratislava","name:ja":"ブラチスラヴァ","name:ka":"ბრატისლავა","name:kk":"Братислава","name:kn":"ಬ್ರಾಟಿಸ್ಲಾವಾ","name:ko":"브라티슬라바","name:ku":"Bratîslava","name:kv":"Братислава","name:ky":"Братислава","name:la":"Posonium","name:mk":"Братислава","name:ml":"ബ്രാട്ടിസ്ലാവ","name:mn":"Братислав","name:mr":"ब्रातिस्लाव्हा","name:ne":"ब्रातिस्लाभा","name:nl":"Bratislava","name:no":"Bratislava","name:oc":"Bratislava","name:os":"Братиславæ","name:pa":"ਬ੍ਰਾਤਿਸਲਾਵਾ","name:ps":"براتیسلاوا","name:pt":"Bratislava","name:ro":"Bratislava","name:sd":"براٽيسلاوا","name:sq":"Bratisllava","name:sv":"Bratislava","name:ta":"பிராத்திஸ்லாவா","name:tg":"Братислава","name:th":"บราติสลาวา","name:tr":"Bratislava","name:tt":"Братислава","name:tw":"Bratislawa","name:wo":"Baratislawa","name:yi":"בראטיסלאווא","name:zh":"布拉迪斯拉發","name:be-tarask":"Браціслава","int_name":"Bratislava","name:bar":"Pressburg","name:ckb":"براتسیلاڤا","name:diq":"Bratislawa","name:koi":"Братислава","name:nds":"Pressburg","name:pnb":"براتسلاوا","name:rue":"Братїслава","name:sah":"Братислава","name:udm":"Братислава","name:vep":"Bratislav","name:yue":"布拉迪斯拉發","old_name:el":"Istropolis","reg_name:de":"Pressburg","name:zh-Hans":"布拉迪斯拉发","name:zh-Hant":"布拉迪斯拉發","old_name:bar":"Preßburg","alt:el":"Μπρατισλάβα"},"display_name":"Bratislava, Bratislavský kraj, Slovensko","address":{"city":"Bratislava","state":"Bratislavský kraj","ISO3166-2-lvl4":"SK-BL","country":"Slovensko","country_code":"sk"},"population":432801,"osm_type":"relation","osm_id":1702499,"type":"administrative","location":[17.1093063,48.1516988],"bbox":[16.946044,48.0066643,17.284531,48.2650685]}]}
{"name":"Jakub","other_names":{"name:sk":"Jakub"},"display_name":"Jakub, okres Banská Bystrica, Banskobystrický kraj, Stredné Slovensko, Slovensko","address":{"city":"Jakub","county":"okres Banská Bystrica","state":"Banskobystrický kraj","ISO3166-2-lvl4":"SK-BC","region":"Stredné Slovensko","country":"Slovensko","country_code":"sk"},"osm_type":"relation","osm_id":3507140,"type":"administrative","location":[19.148080474620848,48.77230055],"bbox":[19.1070404,48.7586854,19.1556426,48.7858293],"inferred_type":"city"}
{"name":"Košice","other_names":{"name:ar":"كوشيتسه","name:az":"Koşitse","name:ba":"Кошице","name:be":"Кошыцы","name:bg":"Кошице","name:ce":"Кошици","name:cs":"Košice","name:cu":"Кошицє","name:de":"Kaschau","name:el":"Κόσιτσε","name:en":"Košice","name:es":"Košice","name:fa":"کوشیتسه","name:fr":"Košice","name:he":"קושיצה","name:hu":"Kassa","name:hy":"Կոշիցե","name:ja":"コシツェ","name:ka":"კოშიცე","name:ko":"코시체","name:ky":"Кошице","name:la":"Cassovia","name:lt":"Košicė","name:mk":"Кошице","name:mr":"कोशित्सा","name:nl":"Košice","name:os":"Кошице","name:pl":"Koszyce","name:ps":"کوشیتسه","name:ro":"Cașovia","name:ru":"Кошице","name:sk":"Košice","name:sq":"Koshice","name:sr":"Кошице","name:th":"กอชิตเซ","name:tr":"Kaşa","name:tt":"Кошице","name:uk":"Кошиці","name:ur":"کوشیسہ","name:uz":"Koshitse","name:yi":"קאשוי","name:zh":"科希策","name:azb":"کوشیتسه","name:pnb":"کوشیسے","name:rue":"Кошіцї","name:wuu":"科希策","name:yue":"高溪樹","old_name":"Kassa","old_name:fr":"Cassovie","name:az-Arab":"کوشیتسه"},"display_name":"Košice, Košický kraj, Východné Slovensko, Slovensko","address":{"city":"Košice","state":"Košický kraj","ISO3166-2-lvl4":"SK-KI","region":"Východné Slovensko","country":"Slovensko","country_code":"sk"},"population":238593,"osm_type":"node","osm_id":530544488,"type":"city","location":[21.2496774,48.7172272],"bbox":[21.0896774,48.5572272,21.4096774,48.8772272],"border":{"name":"Košice","other_names":{"name:ar":"كوشيتسه","name:cs":"Košice","name:de":"Kaschau","name:el":"Κόσιτσε","name:fa":"کوشیتسه","name:hu":"Kassa","name:hy":"Կոշիցե","name:pl":"Koszyce","name:ps":"کوشیتسه","name:sk":"Košice","name:uk":"Кошиці","name:ur":"کوشیسہ","name:zh":"科希策","name:azb":"کوشیتسه","name:pnb":"کوشیسے","name:az-Arab":"کوشیتسه","name:pa-Arab":"کوشیسے","name:az":"Koşitse","name:ba":"Кошице","name:be":"Кошыцы","name:bg":"Кошице","name:ce":"Кошици","name:cu":"Кошицє","name:en":"Košice","name:es":"Košice","name:fr":"Košice","name:he":"קושיצה","name:ja":"コシツェ","name:ka":"კოშიცე","name:ko":"코시체","name:ky":"Кошице","name:la":"Cassovia","name:lt":"Košicė","name:mk":"Кошице","name:mr":"कोशित्सा","name:nl":"Košice","name:os":"Кошице","name:ro":"Cașovia","name:ru":"Кошице","name:sq":"Koshice","name:sr":"Кошице","name:th":"กอชิตเซ","name:tr":"Kaşa","name:tt":"Кошице","name:uz":"Koshitse","name:yi":"קאשוי","name:rue":"Кошіцї","name:wuu":"科希策","name:yue":"高溪樹","old_name":"Kassa","old_name:fr":"Cassovie"},"display_name":"Košice, Košický kraj, Východné Slovensko, Slovensko","address":{"city":"Košice","state":"Košický kraj","ISO3166-2-lvl4":"SK-KI","region":"Východné Slovensko","country":"Slovensko","country_code":"sk"},"population":238593,"osm_type":"relation","osm_id":1690324,"type":"administrative","location":[21.2496774,48.7172272],"bbox":[21.119956,48.570039,21.358213,48.824512]}}
{"name":"Kremnička","other_names":{"name:sk":"Kremnička"},"display_name":"Kremnička, okres Banská Bystrica, Banskobystrický kraj, Stredné Slovensko, 974 03, Slovensko","address":{"city":"Kremnička","county":"okres Banská Bystrica","state":"Banskobystrický kraj","ISO3166-2-lvl4":"SK-BC","region":"Stredné Slovensko","postcode":"974 03","country":"Slovensko","country_code":"sk"},"osm_type":"relation","osm_id":3506142,"type":"administrative","location":[19.11571128552801,48.6942358],"bbox":[19.0900086,48.6803603,19.1388923,48.7080996],"inferred_type":"city","border":{"name":"Kremnička","other_names":{"ref":"801381","name:sk":"Kremnička"},"display_name":"Kremnička, Banská Bystrica, okres Banská Bystrica, Banskobystrický kraj, Stredné Slovensko, 974 03, Slovensko","address":{"suburb":"Kremnička","city":"Banská Bystrica","county":"okres Banská Bystrica","state":"Banskobystrický kraj","ISO3166-2-lvl4":"SK-BC","region":"Stredné Slovensko","postcode":"974 03","country":"Slovensko","country_code":"sk"},"osm_type":"relation","osm_id":2265260,"type":"administrative","location":[19.1282978,48.69731],"bbox":[19.0900086,48.6735931,19.139831,48.7080996]}}
{"name":"Nitra","other_names":{"name:ar":"نيترا","name:de":"Neutra","name:en":"Nitra","name:eo":"Nitro","name:es":"Nitra","name:fr":"Nitra","name:hu":"Nyitra","name:ka":"ნიტრა","name:pl":"Nitra","name:ru":"Нитра","name:sk":"Nitra","name:sr":"Њитра","name:uk":"Нітра","loc_name":"Neutra;Nyitra"},"display_name":"Nitra, okres Nitra, Nitriansky kraj, Západné Slovensko, Slovensko","address":{"city":"Nitra","county":"okres Nitra","state":"Nitriansky kraj","ISO3166-2-lvl4":"SK-NI","region":"Západné Slovensko","country":"Slovensko","country_code":"sk"},"population":84444,"osm_type":"node","osm_id":530544371,"type":"city","location":[18.0894593,48.31295],"bbox":[17.9294593,48.15295,18.2494593,48.47295],"border":[{"name":"Nitra","other_names":{"ref":"500011","name:sk":"Nitra","name:ar":"نيترا","name:de":"Neutra","name:en":"Nitra","name:eo":"Nitro","name:es":"Nitra","name:fr":"Nitra","name:hu":"Nyitra","name:ka":"ნიტრა","name:pl":"Nitra","name:ru":"Нитра","name:sr":"Њитра","name:uk":"Нітра","loc_name":"Neutra;Nyitra"},"display_name":"Nitra, okres Nitra, Nitriansky kraj, Západné Slovensko, Slovensko","address":{"city":"Nitra","county":"okres Nitra","state":"Nitriansky kraj","ISO3166-2-lvl4":"SK-NI","region":"Západné Slovensko","country":"Slovensko","country_code":"sk"},"population":84444,"osm_type":"relation","osm_id":2210192,"type":"administrative","location":[18.0894593,48.31295],"bbox":[18.0006971,48.2377196,18.1758762,48.3850701]},{"name":"Nitra","other_names":{"ref":"839914","name:sk":"Nitra","name:ar":"نيترا","name:de":"Neutra","name:en":"Nitra","name:eo":"Nitro","name:es":"Nitra","name:fr":"Nitra","name:hu":"Nyitra","name:ka":"ნიტრა","name:pl":"Nitra","name:ru":"Нитра","name:sr":"Њитра","name:uk":"Нітра","loc_name":"Neutra;Nyitra"},"display_name":"Nitra, okres Nitra, Nitriansky kraj, Západné Slovensko, Slovensko","address":{"city":"Nitra","county":"okres Nitra","state":"Nitriansky kraj","ISO3166-2-lvl4":"SK-NI","region":"Západné Slovensko","country":"Slovensko","country_code":"sk"},"population":84444,"osm_type":"relation","osm_id":2210095,"type":"administrative","location":[18.0894593,48.31295],"bbox":[18.0397551,48.2844968,18.1014188,48.3230542]}]}
{"name":"Prešov","other_names":{"name:ar":"بريشوف","name:de":"Eperies","name:en":"Prešov","name:es":"Prešov","name:fr":"Prešov","name:hu":"Eperjes","name:lt":"Prešovas","name:pl":"Preszów","name:ru":"Прешов","name:sk":"Prešov","name:sr":"Прешов","name:uk":"Пряшів","loc_name":"Eperjes;Presov;Presova;Preszow;Preszów;Prešov;Prešova"},"display_name":"Prešov, okres Prešov, Prešovský kraj, Východné Slovensko, Slovensko","address":{"city":"Prešov","county":"okres Prešov","state":"Prešovský kraj","ISO3166-2-lvl4":"SK-PV","region":"Východné Slovensko","country":"Slovensko","country_code":"sk"},"population":91498,"osm_type":"node","osm_id":26037569,"type":"city","location":[21.2392122,49.0000074],"bbox":[21.0792122,48.8400074,21.3992122,49.1600074],"border":[{"name":"Prešov","other_names":{"ref":"524140","name:hu":"Eperjes","name:lt":"Prešovas","name:pl":"Preszów","name:sk":"Prešov","old_name:de":"Eperies","name:ar":"بريشوف","name:de":"Eperies","name:en":"Prešov","name:es":"Prešov","name:fr":"Prešov","name:ru":"Прешов","name:sr":"Прешов","name:uk":"Пряшів","loc_name":"Eperjes;Presov;Presova;Preszow;Preszów;Prešov;Prešova"},"display_name":"Prešov, okres Prešov, Prešovský kraj, Východné Slovensko, Slovensko","address":{"city":"Prešov","county":"okres Prešov","state":"Prešovský kraj","ISO3166-2-lvl4":"SK-PV","region":"Východné Slovensko","country":"Slovensko","country_code":"sk"},"population":91498,"osm_type":"relation","osm_id":2320257,"type":"administrative","location":[21.2392122,49.0000074],"bbox":[21.1569866,48.9449997,21.3354271,49.0468381]},{"name":"Prešov","other_names":{"ref":"849502","name:lt":"Prešovas","name:pl":"Preszów","name:sk":"Prešov","old_name:de":"Eperies","name:ar":"بريشوف","name:de":"Eperies","name:en":"Prešov","name:es":"Prešov","name:fr":"Prešov","name:hu":"Eperjes","name:ru":"Прешов","name:sr":"Прешов","name:uk":"Пряшів","loc_name":"Eperjes;Presov;Presova;Preszow;Preszów;Prešov;Prešova"},"display_name":"Prešov, okres Prešov, Prešovský kraj, Východné Slovensko, Slovensko","address":{"city":"Prešov","county":"okres Prešov","state":"Prešovský kraj","ISO3166-2-lvl4":"SK-PV","region":"Východné Slovensko","country":"Slovensko","country_code":"sk"},"population":91498,"osm_type":"relation","osm_id":2320148,"type":"administrative","location":[21.219098686200198,48.9889341],"bbox":[21.2044044,48.9638099,21.2694673,49.0140439]}]}
{"name":"Radvaň","other_names":{"name:sk":"Radvaň"},"display_name":"Radvaň, okres Banská Bystrica, Banskobystrický kraj, Stredné Slovensko, Slovensko","address":{"city":"Radvaň","county":"okres Banská Bystrica","state":"Banskobystrický kraj","ISO3166-2-lvl4":"SK-BC","region":"Stredné Slovensko","country":"Slovensko","country_code":"sk"},"osm_type":"relation","osm_id":3506255,"type":"administrative","location":[19.10385769935723,48.72620555],"bbox":[18.996387,48.706729,19.1383056,48.7456817],"inferred_type":"city","border":{"name":"Radvaň","other_names":{"ref":"801241","name:de":"Burgstädtl","name:sk":"Radvaň","alt_name:de":"Radwan"},"display_name":"Radvaň, Banská Bystrica, okres Banská Bystrica, Banskobystrický kraj, Stredné Slovensko, 974 05, Slovensko","address":{"suburb":"Radvaň","city":"Banská Bystrica","county":"okres Banská Bystrica","state":"Banskobystrický kraj","ISO3166-2-lvl4":"SK-BC","region":"Stredné Slovensko","postcode":"974 05","country":"Slovensko","country_code":"sk"},"osm_type":"relation","osm_id":2265277,"type":"administrative","location":[19.1317725,48.7228639],"bbox":[18.996387,48.6782994,19.1761014,48.7456817]}}
{"name":"Šalková","other_names":{"name:sk":"Šalková"},"display_name":"Šalková, okres Banská Bystrica, Banskobystrický kraj, Stredné Slovensko, Slovensko","address":{"city":"Šalková","county":"okres Banská Bystrica","state":"Banskobystrický kraj","ISO3166-2-lvl4":"SK-BC","region":"Stredné Slovensko","country":"Slovensko","country_code":"sk"},"osm_type":"relation","osm_id":3507144,"type":"administrative","location":[19.224659655069345,48.7400818],"bbox":[19.1852478,48.7221884,19.2656095,48.7579077],"inferred_type":"city","border":{"name":"Šalková","other_names":{"ref":"801402","name:de":"Schalksdorf","name:sk":"Šalková"},"display_name":"Šalková, Banská Bystrica, okres Banská Bystrica, Banskobystrický kraj, Stredné Slovensko, Slovensko","address":{"suburb":"Šalková","city":"Banská Bystrica","county":"okres Banská Bystrica","state":"Banskobystrický kraj","ISO3166-2-lvl4":"SK-BC","region":"Stredné Slovensko","country":"Slovensko","country_code":"sk"},"osm_type":"relation","osm_id":2265293,"type":"administrative","location":[19.2172977,48.7403182],"bbox":[19.1852478,48.7221884,19.2656095,48.7579077]}}
{"name":"Senica","other_names":{"name:sk":"Senica"},"display_name":"Senica, okres Banská Bystrica, Banskobystrický kraj, Stredné Slovensko, Slovensko","address":{"city":"Senica","county":"okres Banská Bystrica","state":"Banskobystrický kraj","ISO3166-2-lvl4":"SK-BC","region":"Stredné Slovensko","country":"Slovensko","country_code":"sk"},"osm_type":"relation","osm_id":3507142,"type":"administrative","location":[19.19404601063157,48.745665599999995],"bbox":[19.1738999,48.7376358,19.2127471,48.7539471],"inferred_type":"city","border":{"name":"Senica","other_names":{"ref":"801411","name:sk":"Senica"},"display_name":"Senica, Banská Bystrica, okres Banská Bystrica, Banskobystrický kraj, Stredné Slovensko, Slovensko","address":{"suburb":"Senica","city":"Banská Bystrica","county":"okres Banská Bystrica","state":"Banskobystrický kraj","ISO3166-2-lvl4":"SK-BC","region":"Stredné Slovensko","country":"Slovensko","country_code":"sk"},"osm_type":"relation","osm_id":2265281,"type":"administrative","location":[19.1888533,48.7487265],"bbox":[19.1738999,48.7376358,19.2127471,48.7539471]}}
{"name":"Trenčín","other_names":{"name:ar":"ترنتشين","name:de":"Trentschin","name:en":"Trenčín","name:es":"Trenčín","name:fr":"Trenčín","name:hu":"Trencsén","name:la":"Trentsinium;Laugaricio","name:pl":"Trenczyn","name:ru":"Тренчин","name:sk":"Trenčín","name:sr":"Тренчин","name:uk":"Тренчин","loc_name":"Trencin;Trencsen;Trencsén;Trenczyn;Trentschin;Trentsen;Trenčin;Trenčín","old_name:de":"Trencsin"},"display_name":"Trenčín, okres Trenčín, Trenčiansky kraj, Západné Slovensko, Slovensko","address":{"city":"Trenčín","county":"okres Trenčín","state":"Trenčiansky kraj","ISO3166-2-lvl4":"SK-TC","region":"Západné Slovensko","country":"Slovensko","country_code":"sk"},"population":56759,"osm_type":"node","osm_id":26037142,"type":"city","location":[18.0387465,48.8922719],"bbox":[17.8787465,48.7322719,18.1987465,49.0522719],"border":[{"name":"Trenčín","other_names":{"ref":"505820","name:sk":"Trenčín","name:ar":"ترنتشين","name:de":"Trentschin","name:en":"Trenčín","name:es":"Trenčín","name:fr":"Trenčín","name:hu":"Trencsén","name:la":"Trentsinium;Laugaricio","name:pl":"Trenczyn","name:ru":"Тренчин","name:sr":"Тренчин","name:uk":"Тренчин","loc_name":"Trencin;Trencsen;Trencsén;Trenczyn;Trentschin;Trentsen;Trenčin;Trenčín","old_name:de":"Trencsin"},"display_name":"Trenčín, okres Trenčín, Trenčiansky kraj, Západné Slovensko, Slovensko","address":{"city":"Trenčín","county":"okres Trenčín","state":"Trenčiansky kraj","ISO3166-2-lvl4":"SK-TC","region":"Západné Slovensko","country":"Slovensko","country_code":"sk"},"population":56759,"osm_type":"relation","osm_id":1799254,"type":"administrative","location":[18.0387465,48.8922719],"bbox":[17.9499657,48.8495976,18.1653242,48.9472334]},{"name":"Trenčín","other_names":{"ref":"864528","name:de":"Trentschin","name:pl":"Trenczyn","name:sk":"Trenčín","name:ar":"ترنتشين","name:en":"Trenčín","name:es":"Trenčín","name:fr":"Trenčín","name:hu":"Trencsén","name:la":"Trentsinium;Laugaricio","name:ru":"Тренчин","name:sr":"Тренчин","name:uk":"Тренчин","loc_name":"Trencin;Trencsen;Trencsén;Trenczyn;Trentschin;Trentsen;Trenčin;Trenčín","old_name:de":"Trencsin"},"display_name":"Trenčín, okres Trenčín, Trenčiansky kraj, Západné Slovensko, Slovensko","address":{"city":"Trenčín","county":"okres Trenčín","state":"Trenčiansky kraj","ISO3166-2-lvl4":"SK-TC","region":"Západné Slovensko","country":"Slovensko","country_code":"sk"},"population":56759,"osm_type":"relation","osm_id":1799251,"type":"administrative","location":[18.0387465,48.8922719],"bbox":[18.0152265,48.8495976,18.0732596,48.9037889]}]}
{"name":"Trnava","other_names":{"name:ar":"ترنافا","name:de":"Tyrnau","name:en":"Trnava","name:es":"Trnava","name:fr":"Trnava","name:hu":"Nagyszombat","name:la":"Tyrnavia","name:pl":"Trnawa","name:ru":"Трнава","name:sk":"Trnava","name:sr":"Трнава","name:uk":"Трнава"},"display_name":"Trnava, okres Trnava, Trnavský kraj, Západné Slovensko, Slovensko","address":{"city":"Trnava","county":"okres Trnava","state":"Trnavský kraj","ISO3166-2-lvl4":"SK-TA","region":"Západné Slovensko","country":"Slovensko","country_code":"sk"},"population":68038,"osm_type":"node","osm_id":26037632,"type":"city","location":[17.5858175,48.3767652],"bbox":[17.4258175,48.2167652,17.7458175,48.5367652],"border":[{"name":"Trnava","display_name":"Trnava, okres Trnava, Trnavský kraj, Západné Slovensko, Slovensko","address":{"city":"Trnava","county":"okres Trnava","state":"Trnavský kraj","ISO3166-2-lvl4":"SK-TA","region":"Západné Slovensko","country":"Slovensko","country_code":"sk"},"osm_type":"way","osm_id":289862512,"type":"city","location":[17.58092991222602,48.37421795],"bbox":[17.5403857,48.3491473,17.621498,48.3994225]},{"name":"Trnava","other_names":{"ref":"506745","name:de":"Tyrnau","name:pl":"Trnawa","name:sk":"Trnava","name:ar":"ترنافا","name:en":"Trnava","name:es":"Trnava","name:fr":"Trnava","name:hu":"Nagyszombat","name:la":"Tyrnavia","name:ru":"Трнава","name:sr":"Трнава","name:uk":"Трнава"},"display_name":"Trnava, okres Trnava, Trnavský kraj, Západné Slovensko, Slovensko","address":{"city":"Trnava","county":"okres Trnava","state":"Trnavský kraj","ISO3166-2-lvl4":"SK-TA","region":"Západné Slovensko","country":"Slovensko","country_code":"sk"},"population":68038,"osm_type":"relation","osm_id":2204009,"type":"administrative","location":[17.5858175,48.3767652],"bbox":[17.4874416,48.3185992,17.659514,48.4278428]},{"name":"Trnava","other_names":{"ref":"864790","name:de":"Tyrnau","name:pl":"Trnawa","name:sk":"Trnava","name:ar":"ترنافا","name:en":"Trnava","name:es":"Trnava","name:fr":"Trnava","name:hu":"Nagyszombat","name:la":"Tyrnavia","name:ru":"Трнава","name:sr":"Трнава","name:uk":"Трнава"},"display_name":"Trnava, okres Trnava, Trnavský kraj, Západné Slovensko, Slovensko","address":{"city":"Trnava","county":"okres Trnava","state":"Trnavský kraj","ISO3166-2-lvl4":"SK-TA","region":"Západné Slovensko","country":"Slovensko","country_code":"sk"},"population":68038,"osm_type":"relation","osm_id":2203958,"type":"administrative","location":[17.5858175,48.3767652],"bbox":[17.4874416,48.3373658,17.659514,48.4278428]}]}
{"name":"Žilina","other_names":{"name:ar":"جيلينا","name:be":"Жыліна","name:de":"Sillein","name:en":"Žilina","name:es":"Žilina","name:fr":"Žilina","name:hu":"Zsolna","name:la":"Solna","name:pl":"Żylina","name:ru":"Жилина","name:sk":"Žilina","name:sr":"Жилина","name:uk":"Жиліна","alt_name:de":"Silein"},"display_name":"Žilina, okres Žilina, Žilinský kraj, Stredné Slovensko, Slovensko","address":{"city":"Žilina","county":"okres Žilina","state":"Žilinský kraj","ISO3166-2-lvl4":"SK-ZI","region":"Stredné Slovensko","country":"Slovensko","country_code":"sk"},"population":81494,"osm_type":"node","osm_id":26037035,"type":"city","location":[18.7393139,49.2234674],"bbox":[18.5793139,49.0634674,18.8993139,49.3834674],"border":[{"name":"Žilina","other_names":{"ref":"517402","name:sk":"Žilina","name:ar":"جيلينا","name:be":"Жыліна","name:de":"Sillein","name:en":"Žilina","name:es":"Žilina","name:fr":"Žilina","name:hu":"Zsolna","name:la":"Solna","name:pl":"Żylina","name:ru":"Жилина","name:sr":"Жилина","name:uk":"Жиліна","alt_name:de":"Silein"},"display_name":"Žilina, okres Žilina, Žilinský kraj, Stredné Slovensko, Slovensko","address":{"city":"Žilina","county":"okres Žilina","state":"Žilinský kraj","ISO3166-2-lvl4":"SK-ZI","region":"Stredné Slovensko","country":"Slovensko","country_code":"sk"},"population":81494,"osm_type":"relation","osm_id":1859537,"type":"administrative","location":[18.7393139,49.2234674],"bbox":[18.6615086,49.1630267,18.8364391,49.27799]},{"name":"Žilina","other_names":{"ref":"874604","name:sk":"Žilina","name:ar":"جيلينا","name:be":"Жыліна","name:de":"Sillein","name:en":"Žilina","name:es":"Žilina","name:fr":"Žilina","name:hu":"Zsolna","name:la":"Solna","name:pl":"Żylina","name:ru":"Жилина","name:sr":"Жилина","name:uk":"Жиліна","alt_name:de":"Silein"},"display_name":"Žilina, okres Žilina, Žilinský kraj, Stredné Slovensko, Slovensko","address":{"city":"Žilina","county":"okres Žilina","state":"Žilinský kraj","ISO3166-2-lvl4":"SK-ZI","region":"Stredné Slovensko","country":"Slovensko","country_code":"sk"},"population":81494,"osm_type":"relation","osm_id":1859535,"type":"administrative","location":[18.7393139,49.2234674],"bbox":[18.7081127,49.195703,18.8019366,49.2369186]}]}
