{"name":"Anaka","display_name":"Anaka, Nwoya, Northern Region, Uganda","address":{"town":"Anaka","state":"Nwoya","ISO3166-2-lvl4":"UG-328","ISO3166-2-lvl3":"UG-N","country":"Uganda","country_code":"ug"},"osm_type":"way","osm_id":610001862,"type":"city","location":[31.9472678,2.5988654],"bbox":[31.9418687,2.5899914,31.9585038,2.6038704]}
{"name":"Bukwo","display_name":"Bukwo, Eastern Region, Uganda","address":{"city":"Bukwo","state":"Bukwo","ISO3166-2-lvl4":"UG-220","region":"Eastern Region","ISO3166-2-lvl3":"UG-E","country":"Uganda","country_code":"ug"},"osm_type":"node","osm_id":3984705258,"type":"city","location":[34.7410148,1.2890215],"bbox":[34.5810148,1.1290215,34.9010148,1.4490215]}
{"name":"Endiinzi Town board","other_names":{"alt_name":"Endinzi Town board"},"display_name":"Endiinzi Town board, Isingiro, Western Region, Uganda","address":{"city":"Endiinzi Town board","state":"Isingiro","ISO3166-2-lvl4":"UG-418","ISO3166-2-lvl3":"UG-W","country":"Uganda","country_code":"ug"},"osm_type":"relation","osm_id":8346571,"type":"administrative","location":[31.14405298596675,-0.8784562],"bbox":[31.1205951,-0.9115849,31.1580271,-0.845029],"inferred_type":"city"}
{"name":"Entebbe","other_names":{"name:ko":"엔테베"},"display_name":"Entebbe, Entebbe City, Central Region, Uganda","address":{"city":"Entebbe","state":"Central Region","ISO3166-2-lvl3":"UG-C","country":"Uganda","country_code":"ug"},"population":69958,"osm_type":"node","osm_id":2099387574,"type":"city","location":[32.4698564,0.0611715],"bbox":[32.3098564,-0.0988285,32.6298564,0.2211715],"border":{"name":"Entebbe City","other_names":{"name:ko":"엔테베","alt":"Entebbe"},"display_name":"Entebbe City, Central Region, Uganda","address":{"city":"Entebbe City","state":"Central Region","ISO3166-2-lvl3":"UG-C","country":"Uganda","country_code":"ug"},"population":69958,"osm_type":"relation","osm_id":14723820,"type":"administrative","location":[32.4698564,0.0611715],"bbox":[32.2119828,-0.1530358,32.6193644,0.2419655]}}
{"name":"Fort Portal","other_names":{"name:ko":"포트포털","name:ru":"Форт-Портал"},"display_name":"Fort Portal, Fort Portal City, Western Region, Uganda","address":{"city":"Fort Portal","state":"Western Region","ISO3166-2-lvl3":"UG-W","country":"Uganda","country_code":"ug"},"population":54275,"osm_type":"node","osm_id":311747244,"type":"city","location":[30.2779432,0.6561907],"bbox":[30.1179432,0.4961907,30.4379432,0.8161907],"border":{"name":"Fort Portal City","other_names":{"name:ko":"포트포털","name:ru":"Форт-Портал","alt":"Fort Portal"},"display_name":"Fort Portal City, Western Region, Uganda","address":{"city":"Fort Portal City","state":"Western Region","ISO3166-2-lvl3":"UG-W","country":"Uganda","country_code":"ug"},"population":54275,"osm_type":"relation","osm_id":14693932,"type":"administrative","location":[30.2779432,0.6561907],"bbox":[30.1660748,0.5758831,30.3259626,0.7001926]}}
{"name":"Gulu","other_names":{"name:en":"Gulu","name:ko":"굴루","name:ru":"Гулу","name:uk":"Гулу"},"display_name":"Gulu, Gulu City, Northern Region, Uganda","address":{"city":"Gulu","state":"Northern Region","ISO3166-2-lvl3":"UG-N","country":"Uganda","country_code":"ug"},"population":152276,"osm_type":"node","osm_id":304816313,"type":"city","location":[32.3044273,2.770239],"bbox":[32.1444273,2.610239,32.4644273,2.930239],"border":{"name":"Gulu City","other_names":{"name:en":"Gulu","name:ko":"굴루","name:ru":"Гулу","name:uk":"Гулу","alt":"Gulu"},"display_name":"Gulu City, Northern Region, Uganda","address":{"city":"Gulu City","state":"Northern Region","ISO3166-2-lvl3":"UG-N","country":"Uganda","country_code":"ug"},"population":152276,"osm_type":"relation","osm_id":18489006,"type":"administrative","location":[32.3044273,2.770239],"bbox":[32.1696211,2.6907154,32.3927943,2.8852869]}}
{"name":"Hoima","display_name":"Hoima, Hoima City, Western Region, Uganda","address":{"city":"Hoima","state":"Western Region","ISO3166-2-lvl3":"UG-W","country":"Uganda","country_code":"ug"},"population":100625,"osm_type":"node","osm_id":309083090,"type":"city","location":[31.352512,1.430976],"bbox":[31.192512,1.270976,31.512512,1.590976],"border":{"name":"Hoima City","other_names":{"alt":"Hoima"},"display_name":"Hoima City, Western Region, Uganda","address":{"city":"Hoima City","state":"Western Region","ISO3166-2-lvl3":"UG-W","country":"Uganda","country_code":"ug"},"population":100625,"osm_type":"relation","osm_id":18488950,"type":"administrative","location":[31.352512,1.430976],"bbox":[31.2671684,1.3565951,31.4366164,1.5147661]}}
{"display_name":"Ibanda, Western Region, Uganda","address":{"state":"Ibanda","ISO3166-2-lvl4":"UG-417","ISO3166-2-lvl3":"UG-W","country":"Uganda","country_code":"ug"},"osm_type":"way","osm_id":1246848876,"type":"city","location":[30.406057858632707,-0.21819865],"bbox":[30.3958315,-0.2277219,30.4141778,-0.2115]}
{"name":"Iganga","display_name":"Iganga, Eastern Region, Uganda","address":{"city":"Iganga","state":"Iganga","ISO3166-2-lvl4":"UG-203","region":"Eastern Region","ISO3166-2-lvl3":"UG-E","country":"Uganda","country_code":"ug"},"osm_type":"node","osm_id":311733271,"type":"city","location":[33.4794594,0.6154854],"bbox":[33.3194594,0.4554854,33.6394594,0.7754854]}
{"name":"Jinja","other_names":{"name:ko":"진자","name:lt":"Džindža","name:ru":"Джинджа"},"display_name":"Jinja, Jinja City, Eastern Region, Uganda","address":{"city":"Jinja","ISO3166-2-lvl4":"UG-204","region":"Eastern Region","ISO3166-2-lvl3":"UG-E","country":"Uganda","country_code":"ug"},"population":72931,"osm_type":"node","osm_id":294001845,"type":"city","location":[33.2055568,0.4353036],"bbox":[33.0455568,0.2753036,33.3655568,0.5953036],"border":{"name":"Jinja City","other_names":{"ISO3166-2":"UG-204","name:ko":"진자","name:lt":"Džindža","name:ru":"Джинджа","alt":"Jinja"},"display_name":"Jinja City, Eastern Region, Uganda","address":{"city":"Jinja City","ISO3166-2-lvl4":"UG-204","region":"Eastern Region","ISO3166-2-lvl3":"UG-E","country":"Uganda","country_code":"ug"},"population":72931,"osm_type":"relation","osm_id":14705113,"type":"administrative","location":[33.2055568,0.4353036],"bbox":[33.0922132,0.3915991,33.2814389,0.5779965]}}
{"name":"Kampala","other_names":{"name:am":"ካምፓላ","name:ar":"كمبالا","name:ba":"Кампала","name:be":"Кампала","name:bg":"Кампала","name:bn":"কাম্পালা","name:bo":"ཀམ་པ་ལ།","name:br":"Kampala","name:ca":"Kampala","name:ce":"Кампала","name:cv":"Кампала","name:de":"Kampala","name:el":"Καμπάλα","name:en":"Kampala","name:eo":"Kampalo","name:es":"Kampala","name:fa":"کامپالا","name:fr":"Kampala","name:gn":"Kampála","name:gu":"કંપાલા","name:he":"קמפלה","name:hi":"कंपाला","name:ht":"Kanpala","name:hu":"Kampala","name:hy":"Կամպալա","name:it":"Kampala","name:ja":"カンパラ","name:ka":"კამპალა","name:kk":"Кампала","name:kn":"ಕಂಪಾಲಾ","name:ko":"캄팔라","name:ku":"Kampala","name:ky":"Кампала","name:mk":"Кампала","name:ml":"കം‌പാല","name:mr":"कंपाला","name:nl":"Kampala","name:no":"Kampala","name:nv":"Deeyisdiz Dah Shijéʼé","name:oc":"Kampala","name:os":"Кампалæ","name:pa":"ਕੰਪਾਲਾ","name:pl":"Kampala","name:ps":"کامپالا","name:pt":"Kampala","name:ru":"Кампала","name:sd":"ڪمپالا","name:so":"Kambaala","name:sr":"Кампала","name:sv":"Kampala","name:ta":"கம்பாலா","name:tg":"Кампала","name:th":"กัมปาลา","name:tr":"Kampala","name:tt":"Кампала","name:ug":"كامپالا","name:uk":"Кампала","name:ur":"کمپالا","name:xh":"IKampala","name:yi":"קאמפאלא","name:zh":"坎帕拉","name:arz":"كمبالا","name:azb":"کامپالا","name:ckb":"کامپالا","name:mrj":"Кампала","name:pnb":"کمپالا","name:udm":"Кампала","alt_name:ar":"كامبالا"},"display_name":"Kampala, Kampala Capital City, Kampala, Central Region, Uganda","address":{"city":"Kampala","ISO3166-2-lvl4":"UG-102","state":"Central Region","ISO3166-2-lvl3":"UG-C","country":"Uganda","country_code":"ug"},"population":1516210,"osm_type":"node","osm_id":773119937,"type":"city","location":[32.5813539,0.3177137],"bbox":[32.4213539,0.1577137,32.7413539,0.4777137],"border":[{"name":"Kampala","other_names":{"name:ar":"كمبالا","name:fa":"کامپالا","name:ps":"کامپالا","name:ug":"كامپالا","name:ur":"کمپالا","name:azb":"کامپالا","name:ckb":"کامپالا","name:pnb":"کمپالا","ISO3166-2":"UG-102","alt_name:ar":"كامبالا","name:am":"ካምፓላ","name:ba":"Кампала","name:be":"Кампала","name:bg":"Кампала","name:bn":"কাম্পালা","name:bo":"ཀམ་པ་ལ།","name:br":"Kampala","name:ca":"Kampala","name:ce":"Кампала","name:cv":"Кампала","name:de":"Kampala","name:el":"Καμπάλα","name:en":"Kampala","name:eo":"Kampalo","name:es":"Kampala","name:fr":"Kampala","name:gn":"Kampála","name:gu":"કંપાલા","name:he":"קמפלה","name:hi":"कंपाला","name:ht":"Kanpala","name:hu":"Kampala","name:hy":"Կամպալա","name:it":"Kampala","name:ja":"カンパラ","name:ka":"კამპალა","name:kk":"Кампала","name:kn":"ಕಂಪಾಲಾ","name:ko":"캄팔라","name:ku":"Kampala","name:ky":"Кампала","name:mk":"Кампала","name:ml":"കം‌പാല","name:mr":"कंपाला","name:nl":"Kampala","name:no":"Kampala","name:nv":"Deeyisdiz Dah Shijéʼé","name:oc":"Kampala","name:os":"Кампалæ","name:pa":"ਕੰਪਾਲਾ","name:pl":"Kampala","name:pt":"Kampala","name:ru":"Кампала","name:sd":"ڪمپالا","name:so":"Kambaala","name:sr":"Кампала","name:sv":"Kampala","name:ta":"கம்பாலா","name:tg":"Кампала","name:th":"กัมปาลา","name:tr":"Kampala","name:tt":"Кампала","name:uk":"Кампала","name:xh":"IKampala","name:yi":"קאמפאלא","name:zh":"坎帕拉","name:arz":"كمبالا","name:mrj":"Кампала","name:udm":"Кампала"},"display_name":"Kampala, Central Region, Uganda","address":{"city":"Kampala","ISO3166-2-lvl4":"UG-102","state":"Central Region","ISO3166-2-lvl3":"UG-C","country":"Uganda","country_code":"ug"},"population":1516210,"osm_type":"relation","osm_id":5457274,"type":"administrative","location":[32.5813539,0.3177137],"bbox":[32.5098753,0.2143285,32.6687413,0.4057676]},{"name":"Kampala Capital City","other_names":{"name:ar":"مدينة كمبالا العاصمة","name:am":"ካምፓላ","name:ba":"Кампала","name:be":"Кампала","name:bg":"Кампала","name:bn":"কাম্পালা","name:bo":"ཀམ་པ་ལ།","name:br":"Kampala","name:ca":"Kampala","name:ce":"Кампала","name:cv":"Кампала","name:de":"Kampala","name:el":"Καμπάλα","name:en":"Kampala","name:eo":"Kampalo","name:es":"Kampala","name:fa":"کامپالا","name:fr":"Kampala","name:gn":"Kampála","name:gu":"કંપાલા","name:he":"קמפלה","name:hi":"कंपाला","name:ht":"Kanpala","name:hu":"Kampala","name:hy":"Կամպալա","name:it":"Kampala","name:ja":"カンパラ","name:ka":"კამპალა","name:kk":"Кампала","name:kn":"ಕಂಪಾಲಾ","name:ko":"캄팔라","name:ku":"Kampala","name:ky":"Кампала","name:mk":"Кампала","name:ml":"കം‌പാല","name:mr":"कंपाला","name:nl":"Kampala","name:no":"Kampala","name:nv":"Deeyisdiz Dah Shijéʼé","name:oc":"Kampala","name:os":"Кампалæ","name:pa":"ਕੰਪਾਲਾ","name:pl":"Kampala","name:ps":"کامپالا","name:pt":"Kampala","name:ru":"Кампала","name:sd":"ڪمپالا","name:so":"Kambaala","name:sr":"Кампала","name:sv":"Kampala","name:ta":"கம்பாலா","name:tg":"Кампала","name:th":"กัมปาลา","name:tr":"Kampala","name:tt":"Кампала","name:ug":"كامپالا","name:uk":"Кампала","name:ur":"کمپالا","name:xh":"IKampala","name:yi":"קאמפאלא","name:zh":"坎帕拉","name:arz":"كمبالا","name:azb":"کامپالا","name:ckb":"کامپالا","name:mrj":"Кампала","name:pnb":"کمپالا","name:udm":"Кампала","alt_name:ar":"كامبالا","alt":"Kampala","alt:ar":"كمبالا"},"display_name":"Kampala Capital City, Kampala, Central Region, Uganda","address":{"city":"Kampala Capital City","ISO3166-2-lvl4":"UG-102","state":"Central Region","ISO3166-2-lvl3":"UG-C","country":"Uganda","country_code":"ug"},"population":1516210,"osm_type":"relation","osm_id":10546821,"type":"administrative","location":[32.5813539,0.3177137],"bbox":[32.5098753,0.2143285,32.6687413,0.4057676]}]}
{"name":"Kanoni","display_name":"Kanoni, Gomba, Central Region, Uganda","address":{"city":"Kanoni","state":"Gomba","ISO3166-2-lvl4":"UG-121","ISO3166-2-lvl3":"UG-C","country":"Uganda","country_code":"ug"},"osm_type":"node","osm_id":3983937285,"type":"city","location":[31.9064746,0.1726457],"bbox":[31.7464746,0.0126457,32.0664746,0.3326457]}
{"name":"Kasese","other_names":{"name:ru":"Касесе"},"display_name":"Kasese, Western Region, Uganda","address":{"city":"Kasese","state":"Kasese","ISO3166-2-lvl4":"UG-406","ISO3166-2-lvl3":"UG-W","country":"Uganda","country_code":"ug"},"population":101679,"osm_type":"node","osm_id":2685125666,"type":"city","location":[30.085695,0.1723828],"bbox":[29.925695,0.0123828,30.245695,0.3323828]}
{"name":"Kira","other_names":{"name:ko":"키라","alt_name":"Kiira"},"display_name":"Kira, Wakiso, Central Region, Uganda","address":{"city":"Kira","state":"Wakiso","ISO3166-2-lvl4":"UG-113","ISO3166-2-lvl3":"UG-C","country":"Uganda","country_code":"ug"},"population":313761,"osm_type":"node","osm_id":2163191058,"type":"city","location":[32.6391845,0.4003408],"bbox":[32.4791845,0.2403408,32.7991845,0.5603408]}
{"display_name":"Kitgum, Northern Region, Uganda","address":{"state":"Kitgum","ISO3166-2-lvl4":"UG-305","ISO3166-2-lvl3":"UG-N","country":"Uganda","country_code":"ug"},"osm_type":"way","osm_id":1156607165,"type":"city","location":[33.48790526631403,3.5554993],"bbox":[33.4813225,3.5515587,33.49365,3.5592578]}
{"name":"Lira","other_names":{"name:ru":"Лира"},"display_name":"Lira, Ojwina, Lira Municipality, Lira City, Northern Region, Uganda","address":{"city":"Lira","county":"Lira Municipality","state":"Lira City","ISO3166-2-lvl3":"UG-N","country":"Uganda","country_code":"ug"},"population":99059,"osm_type":"node","osm_id":305377332,"type":"city","location":[32.896244,2.2456918],"bbox":[32.736244,2.0856918,33.056244,2.4056918]}
{"name":"Masaka","other_names":{"name:ru":"Масака"},"display_name":"Masaka, Masaka City, Central Region, Uganda","address":{"city":"Masaka","state":"Central Region","ISO3166-2-lvl3":"UG-C","country":"Uganda","country_code":"ug"},"population":103829,"osm_type":"node","osm_id":311748711,"type":"city","location":[31.7465839,-0.3390264],"bbox":[31.5865839,-0.4990264,31.9065839,-0.1790264],"border":{"name":"Masaka City","other_names":{"name:ru":"Масака","alt":"Masaka"},"display_name":"Masaka City, Central Region, Uganda","address":{"city":"Masaka City","state":"Central Region","ISO3166-2-lvl3":"UG-C","country":"Uganda","country_code":"ug"},"population":103829,"osm_type":"relation","osm_id":14723415,"type":"administrative","location":[31.7465839,-0.3390264],"bbox":[31.5832895,-0.456909,31.8741021,-0.2297547]}}
{"name":"Masindi","other_names":{"name:lt":"Masindis"},"display_name":"Masindi, Western Region, Uganda","address":{"city":"Masindi","state":"Masindi","ISO3166-2-lvl4":"UG-409","ISO3166-2-lvl3":"UG-W","country":"Uganda","country_code":"ug"},"population":94622,"osm_type":"node","osm_id":1277061228,"type":"city","location":[31.7205937,1.6852537],"bbox":[31.5605937,1.5252537,31.8805937,1.8452537]}
{"name":"Mbale City","other_names":{"name:ru":"Мбале"},"display_name":"Mbale City, Eastern Region, Uganda","address":{"city":"Mbale City","region":"Eastern Region","ISO3166-2-lvl3":"UG-E","country":"Uganda","country_code":"ug"},"population":96189,"osm_type":"node","osm_id":304491931,"type":"city","location":[34.1749506,1.0711896],"bbox":[34.0149506,0.9111896,34.3349506,1.2311896],"border":{"name":"Mbale City","other_names":{"name:ru":"Мбале"},"display_name":"Mbale City, Eastern Region, Uganda","address":{"city":"Mbale City","region":"Eastern Region","ISO3166-2-lvl3":"UG-E","country":"Uganda","country_code":"ug"},"population":96189,"osm_type":"relation","osm_id":14698374,"type":"administrative","location":[34.1749506,1.0711896],"bbox":[34.1084142,1.0313985,34.2546181,1.1745767]}}
{"name":"Mbarara","other_names":{"name:ko":"음바라라","name:ru":"Мбарара","loc_name":"Mutti"},"display_name":"Mbarara, Mbarara City, Western Region, Uganda","address":{"city":"Mbarara","state":"Western Region","ISO3166-2-lvl3":"UG-W","country":"Uganda","country_code":"ug"},"population":195013,"osm_type":"node","osm_id":293918338,"type":"city","location":[30.6533181,-0.6107896],"bbox":[30.4933181,-0.7707896,30.8133181,-0.4507896],"border":{"name":"Mbarara City","other_names":{"name:ko":"음바라라","name:ru":"Мбарара","loc_name":"Mutti","alt":"Mbarara"},"display_name":"Mbarara City, Western Region, Uganda","address":{"city":"Mbarara City","state":"Western Region","ISO3166-2-lvl3":"UG-W","country":"Uganda","country_code":"ug"},"population":195013,"osm_type":"relation","osm_id":14723588,"type":"administrative","location":[30.6533181,-0.6107896],"bbox":[30.5255357,-0.7662984,30.8201768,-0.4800611]}}
{"name":"Mityana","display_name":"Mityana, Central Region, Uganda","address":{"city":"Mityana","state":"Mityana","ISO3166-2-lvl4":"UG-115","ISO3166-2-lvl3":"UG-C","country":"Uganda","country_code":"ug"},"osm_type":"node","osm_id":1217463192,"type":"city","location":[32.0450101,0.4020509],"bbox":[31.8850101,0.2420509,32.2050101,0.5620509]}
{"name":"Mpigi","display_name":"Mpigi, Central Region, Uganda","address":{"city":"Mpigi","state":"Mpigi","ISO3166-2-lvl4":"UG-106","ISO3166-2-lvl3":"UG-C","country":"Uganda","country_code":"ug"},"osm_type":"node","osm_id":4042798428,"type":"city","location":[32.3198552,0.2283313],"bbox":[32.1598552,0.0683313,32.4798552,0.3883313]}
{"name":"Nansana","display_name":"Nansana, Wakiso, Central Region, Uganda","address":{"city":"Nansana","state":"Wakiso","ISO3166-2-lvl4":"UG-113","ISO3166-2-lvl3":"UG-C","country":"Uganda","country_code":"ug"},"population":144441,"osm_type":"node","osm_id":3500961528,"type":"city","location":[32.529226,0.365816],"bbox":[32.369226,0.205816,32.689226,0.525816]}
{"name":"Njeru","display_name":"Njeru, Buikwe, Central Region, Uganda","address":{"city":"Njeru","state":"Buikwe","ISO3166-2-lvl4":"UG-117","ISO3166-2-lvl3":"UG-C","country":"Uganda","country_code":"ug"},"osm_type":"node","osm_id":2229121881,"type":"city","location":[33.1503623,0.4307],"bbox":[32.9903623,0.2707,33.3103623,0.5907]}
{"name":"Wakiso","display_name":"Wakiso, Central Region, Uganda","address":{"city":"Wakiso","state":"Wakiso","ISO3166-2-lvl4":"UG-113","ISO3166-2-lvl3":"UG-C","country":"Uganda","country_code":"ug"},"osm_type":"node","osm_id":3227589041,"type":"city","location":[32.4800899,0.3985735],"bbox":[32.3200899,0.2385735,32.6400899,0.5585735]}
{"name":"Yumbe","display_name":"Yumbe, Northern Region, Uganda","address":{"city":"Yumbe","state":"Yumbe","ISO3166-2-lvl4":"UG-313","ISO3166-2-lvl3":"UG-N","country":"Uganda","country_code":"ug"},"osm_type":"node","osm_id":3984083146,"type":"city","location":[31.2458678,3.4674131],"bbox":[31.0858678,3.3074131,31.4058678,3.6274131]}
