{"name":"Città di San Marino","other_names":{"name:af":"San Marino","name:am":"ሳን ማሪኖ","name:an":"Ciudad de San Marino","name:ar":"مدينة سان مارينو","name:be":"Сан-Марына","name:bg":"Сан Марино","name:bo":"སན་མ་རི་ནོ།","name:br":"Kêr San Marino","name:bs":"San Marino","name:ca":"Ciutat de San Marino","name:cs":"San Marino","name:cy":"Dinas San Marino","name:da":"San Marino","name:de":"Stadt San Marino","name:el":"Άγιος Μαρίνος","name:en":"City of San Marino","name:eo":"San-Marino","name:es":"San Marino","name:et":"San Marino","name:eu":"San Marino","name:fa":"شهر سان مارینو","name:fi":"San Marino","name:fr":"Ville de Saint-Marin","name:fy":"San Marino","name:ga":"Cathair San Mairíne, San Mairíne","name:gd":"San Marino","name:gl":"Cidade de San Mariño - Città di San Marino","name:gv":"San Marino","name:he":"סן מרינו","name:hr":"San Marino","name:ht":"Sen Maren","name:hu":"San Marino","name:hy":"Սան Մարինո","name:id":"San Marino","name:ie":"San Marino","name:io":"San Marino","name:is":"San Marínó","name:it":"Città di San Marino","name:ja":"サンマリノ市","name:jv":"San Marino","name:ka":"სან-მარინო","name:kk":"Сан-Марино","name:ko":"산마리노","name:ks":"سان مارینو","name:la":"Marinum","name:lb":"San Marino","name:lt":"San Marinas","name:lv":"Sanmarīno","name:mk":"Сан Марино","name:ml":"സാൻ മറിനോ നഗരം","name:mr":"सान मारिनो","name:nl":"San Marino","name:nn":"San Marino i San Marino","name:no":"San Marino by","name:oc":"Sant Marin","name:os":"Сан-Марино","name:pa":"ਸਾਨ ਮਰੀਨੋ","name:pl":"San Marino","name:ps":"سان مارینو","name:pt":"San Marino","name:qu":"San Marino","name:ro":"Orașul San Marino","name:sd":"سان مارينو","name:sk":"San Maríno","name:sl":"San Marino","name:sq":"San Marino","name:sr":"Сан Марино","name:sv":"San Marino","name:ta":"சான் மரீனோ","name:tl":"San Marino, San Marino","name:tr":"San Marino şehri","name:ug":"سان مارىنو","name:uk":"Сан-Марино","name:ur":"سان مارینو شہر","name:vi":"Thành phố San Marino","name:vo":"San Marino","name:yo":"Ìlú San Màrínò","name:zh":"聖馬力諾","name:arc":"ܣܢ ܡܪܝܢܘ","name:ast":"Ciudá de San Marín","name:azb":"سان مارینو","name:ckb":"سان مارینۆ","name:frr":"San Marino","name:grc":"Ἁγιομαρινούπολις","name:kmr":"سان مارینۆ","name:mzn":"سان مارینو","name:pms":"Sità ëd San Marin","name:pnb":"سان مرینو شہر","name:sco":"Ceety o San Marino","name:syc":"ܣܢ ܡܪܝܢܘ","name:szl":"San Marino","name:udm":"Сан-Марино","name:vec":"Sità de San Marin","name:vro":"San Marino","name:war":"San Marino, San Marino","alt_name:la":"Fanum Sancti Marini","name:simple":"San Marino City","name:az-Arab":"سان مارینو","name:bat-smg":"San Marins","name:kk-Arab":"سان مارىينو","name:ku-Arab":"سان مارینۆ","name:zh-Hans":"圣马力诺","name:zh-Hant":"聖馬力諾","name:kab-Arab":"سان مارين","name:roa-tara":"Cetate de San Marine","name:be-tarask":"Сан-Марына"},"display_name":"Città di San Marino, 47890, San Marino","address":{"town":"Città di San Marino","ISO3166-2-lvl8":"SM-07","postcode":"47890","country":"San Marino","country_code":"sm"},"population":4211,"osm_type":"node","osm_id":280982720,"type":"town","location":[12.4466991,43.9363996],"bbox":[12.4066991,43.8963996,12.4866991,43.9763996],"border":{"name":"Città di San Marino","other_names":{"name:ar":"مدينة سان مارينو","name:de":"Stadt San Marino","name:es":"Ciudad de San Marino","name:fa":"شهر سان مارینو","name:it":"Città di San Marino","name:ks":"سان مارینو","name:pa":"ਸਾਨ ਮਰੀਨੋ","name:ps":"سان مارینو","name:sd":"سان مارينو","name:ug":"سان مارىنو","name:ur":"سان مارینو شہر","name:arc":"ܡܕܝܢܬܐ ܕܣܢ ܡܪܝܢܘ","name:azb":"سان مارینو","name:ckb":"سان مارینۆ","name:grc":"Ἁγιομαρινούπολις","name:kmr":"سان مارینۆ","name:mzn":"سان مارینو","name:pnb":"سان مرینو شہر","name:syc":"ܡܕܝܢܬܐ ܕܣܢ ܡܪܝܢܘ","ISO3166-2":"SM-07","name:az-Arab":"سان مارینو","name:kk-Arab":"سان مارىينو","name:ku-Arab":"سان مارینۆ","name:kab-Arab":"سان مارين","official_name":"Castello Città di San Marino","name:af":"San Marino","name:am":"ሳን ማሪኖ","name:an":"Ciudad de San Marino","name:be":"Сан-Марына","name:bg":"Сан Марино","name:bo":"སན་མ་རི་ནོ།","name:br":"Kêr San Marino","name:bs":"San Marino","name:ca":"Ciutat de San Marino","name:cs":"San Marino","name:cy":"Dinas San Marino","name:da":"San Marino","name:el":"Άγιος Μαρίνος","name:en":"City of San Marino","name:eo":"San-Marino","name:et":"San Marino","name:eu":"San Marino","name:fi":"San Marino","name:fr":"Ville de Saint-Marin","name:fy":"San Marino","name:ga":"Cathair San Mairíne, San Mairíne","name:gd":"San Marino","name:gl":"Cidade de San Mariño - Città di San Marino","name:gv":"San Marino","name:he":"סן מרינו","name:hr":"San Marino","name:ht":"Sen Maren","name:hu":"San Marino","name:hy":"Սան Մարինո","name:id":"San Marino","name:ie":"San Marino","name:io":"San Marino","name:is":"San Marínó","name:ja":"サンマリノ市","name:jv":"San Marino","name:ka":"სან-მარინო","name:kk":"Сан-Марино","name:ko":"산마리노","name:la":"Marinum","name:lb":"San Marino","name:lt":"San Marinas","name:lv":"Sanmarīno","name:mk":"Сан Марино","name:ml":"സാൻ മറിനോ നഗരം","name:mr":"सान मारिनो","name:nl":"San Marino","name:nn":"San Marino i San Marino","name:no":"San Marino by","name:oc":"Sant Marin","name:os":"Сан-Марино","name:pl":"San Marino","name:pt":"San Marino","name:qu":"San Marino","name:ro":"Orașul San Marino","name:sk":"San Maríno","name:sl":"San Marino","name:sq":"San Marino","name:sr":"Сан Марино","name:sv":"San Marino","name:ta":"சான் மரீனோ","name:tl":"San Marino, San Marino","name:tr":"San Marino şehri","name:uk":"Сан-Марино","name:vi":"Thành phố San Marino","name:vo":"San Marino","name:yo":"Ìlú San Màrínò","name:zh":"聖馬力諾","name:ast":"Ciudá de San Marín","name:frr":"San Marino","name:pms":"Sità ëd San Marin","name:sco":"Ceety o San Marino","name:szl":"San Marino","name:udm":"Сан-Марино","name:vec":"Sità de San Marin","name:vro":"San Marino","name:war":"San Marino, San Marino","official_name:ar":"قلعة مدينة سان مارينو","official_name:es":"Castillo Ciudad de San Marino","official_name:fa":"قلعه شهر سان مارینو","official_name:ps":"د سان مارینو کیسل ښار","official_name:ur":"سان مارینو کا کیسل سٹی","alt_name:la":"Fanum Sancti Marini","name:simple":"San Marino City","name:bat-smg":"San Marins","name:zh-Hans":"圣马力诺","name:zh-Hant":"聖馬力諾","name:roa-tara":"Cetate de San Marine","name:be-tarask":"Сан-Марына","alt:es":"San Marino","alt:arc":"ܣܢ ܡܪܝܢܘ","alt:syc":"ܣܢ ܡܪܝܢܘ"},"display_name":"Città di San Marino, 47890, San Marino","address":{"town":"Città di San Marino","ISO3166-2-lvl8":"SM-07","postcode":"47890","country":"San Marino","country_code":"sm"},"population":4211,"osm_type":"relation","osm_id":3012945,"type":"administrative","location":[12.4466991,43.9363996],"bbox":[12.4119606,43.9141317,12.4567428,43.9425882]}}
{"name":"Serravalle","other_names":{"name:ar":"سرافاله","name:bg":"Серавале","name:cs":"Serravalle","name:de":"Serravalle","name:en":"Serravalle","name:eo":"Serravalle","name:fa":"سرواله","name:fi":"Serravalle","name:fr":"Serravalle","name:he":"סראוואלה","name:id":"Serravalle","name:ja":"セラヴァッレ","name:ko":"세라발레","name:la":"Olnanum","name:lb":"Serravalle","name:lt":"Seravalė","name:mk":"Серавале","name:nl":"Serravalle","name:os":"Серравалле","name:pl":"Serravalle","name:rn":"Serravalle","name:ro":"Serravalle","name:ru":"Серравалле","name:sr":"Серавале","name:uk":"Серравалле","name:vi":"Serravalle","name:zh":"塞拉瓦莱"},"display_name":"Serravalle, 47899, San Marino","address":{"town":"Serravalle","ISO3166-2-lvl8":"SM-09","postcode":"47899","country":"San Marino","country_code":"sm"},"population":10601,"osm_type":"node","osm_id":280981759,"type":"town","location":[12.4802946,43.9699026],"bbox":[12.4402946,43.9299026,12.5202946,44.0099026],"border":{"name":"Serravalle","other_names":{"name:it":"Serravalle","ISO3166-2":"SM-09","official_name":"Castello di Serravalle","name:ar":"سرافاله","name:bg":"Серавале","name:cs":"Serravalle","name:de":"Serravalle","name:en":"Serravalle","name:eo":"Serravalle","name:fa":"سرواله","name:fi":"Serravalle","name:fr":"Serravalle","name:he":"סראוואלה","name:id":"Serravalle","name:ja":"セラヴァッレ","name:ko":"세라발레","name:la":"Olnanum","name:lb":"Serravalle","name:lt":"Seravalė","name:mk":"Серавале","name:nl":"Serravalle","name:os":"Серравалле","name:pl":"Serravalle","name:rn":"Serravalle","name:ro":"Serravalle","name:ru":"Серравалле","name:sr":"Серавале","name:uk":"Серравалле","name:vi":"Serravalle","name:zh":"塞拉瓦莱"},"display_name":"Serravalle, San Marino","address":{"town":"Serravalle","ISO3166-2-lvl8":"SM-09","country":"San Marino","country_code":"sm"},"population":10601,"osm_type":"relation","osm_id":3012946,"type":"administrative","location":[12.4802946,43.9699026],"bbox":[12.4488121,43.956043,12.5159305,43.992042]}}
