{"name":"강릉시","other_names":{"name:ca":"Gangneung","name:de":"Gangneung","name:el":"Γκάνγκνουνγκ","name:en":"Gangneung","name:es":"Gangneung","name:et":"Gangneung","name:fa":"گانگ‌نونگ","name:fr":"Gangneung","name:ja":"江陵市","name:ko":"강릉시","name:ru":"Каннын","name:uk":"Каннин","name:vi":"Gangneung","name:zh":"江陵市","int_name":"Gangneung","alt_name:vi":"Giang Lăng","name:ja-Hira":"かんぬんし","name:ko-Hani":"江陵市","name:ko-Latn":"Gangneung-si","name:zh-Hant":"江陵市","official_name:en":"Gangneung City"},"display_name":"강릉시, 강원특별자치도, 대한민국","address":{"city":"강릉시","province":"강원특별자치도","ISO3166-2-lvl4":"KR-42","country":"대한민국","country_code":"kr"},"population":213952,"osm_type":"node","osm_id":415153024,"type":"city","location":[128.8759523,37.7525313],"bbox":[128.7159523,37.5925313,129.0359523,37.9125313],"border":{"name":"강릉시","other_names":{"name:de":"Gangneung","name:en":"Gangneung-si","name:fa":"شهر گانگ‌نونگ","name:ja":"江陵市","name:ko":"강릉시","name:ru":"Кангнунг","name:zh":"江陵市","name:ko-Hani":"江陵市","name:zh-Hant":"江陵市","name:ca":"Gangneung","name:el":"Γκάνγκνουνγκ","name:es":"Gangneung","name:et":"Gangneung","name:fr":"Gangneung","name:uk":"Каннин","name:vi":"Gangneung","int_name":"Gangneung","alt_name:vi":"Giang Lăng","name:ja-Hira":"かんぬんし","name:ko-Latn":"Gangneung-si","official_name:en":"Gangneung City","alt:en":"Gangneung","alt:fa":"گانگ‌نونگ","alt:ru":"Каннын"},"display_name":"강릉시, 강원특별자치도, 대한민국","address":{"city":"강릉시","province":"강원특별자치도","ISO3166-2-lvl4":"KR-42","country":"대한민국","country_code":"kr"},"population":213952,"osm_type":"relation","osm_id":2537817,"type":"administrative","location":[128.8759523,37.7525313],"bbox":[128.580361,37.5032959,129.2757493,38.0562167]}}
{"name":"거제시","other_names":{"name:ca":"Geoje","name:de":"Geoje","name:el":"Γκότζε","name:en":"Geoje","name:es":"Geoje","name:et":"Geoje","name:eu":"Geoje","name:fr":"Geoje","name:ja":"巨済市","name:ko":"거제시","name:ru":"Кодже","name:th":"คอเจ","name:zh":"巨濟市","int_name":"Geoje","name:ja_kana":"こじぇ","name:ko-Hani":"巨濟市","name:ko-Latn":"Geoje-si","name:zh-Hans":"巨济市","name:zh-Hant":"巨濟市","official_name:en":"Geoje City"},"display_name":"거제시, 경상남도, 대한민국","address":{"city":"거제시","province":"경상남도","ISO3166-2-lvl4":"KR-48","country":"대한민국","country_code":"kr"},"population":254073,"osm_type":"node","osm_id":358015380,"type":"city","location":[128.621207,34.8804677],"bbox":[128.461207,34.7204677,128.781207,35.0404677],"border":{"name":"거제시","other_names":{"name:en":"Geoje-si","name:ja":"巨済市","name:ko":"거제시","name:zh":"巨濟市","name:ko-Hani":"巨濟市","name:zh-Hans":"巨济市","name:zh-Hant":"巨濟市","name:ca":"Geoje","name:de":"Geoje","name:el":"Γκότζε","name:es":"Geoje","name:et":"Geoje","name:eu":"Geoje","name:fr":"Geoje","name:ru":"Кодже","name:th":"คอเจ","int_name":"Geoje","name:ja_kana":"こじぇ","name:ko-Latn":"Geoje-si","official_name:en":"Geoje City","alt:en":"Geoje"},"display_name":"거제시, 경상남도, 대한민국","address":{"city":"거제시","province":"경상남도","ISO3166-2-lvl4":"KR-48","country":"대한민국","country_code":"kr"},"population":254073,"osm_type":"relation","osm_id":7831149,"type":"administrative","location":[128.621207,34.8804677],"bbox":[128.4498739,34.5099527,128.9485256,35.0527911]}}
{"name":"경산시","other_names":{"name:ca":"Gyeongsan","name:de":"Gyeongsan","name:el":"Γκιόνγκσαν","name:en":"Gyeongsan","name:es":"Gyeongsan","name:et":"Gyeongsan","name:fr":"Gyeongsan","name:ja":"慶山市","name:ko":"경산시","name:ru":"Кёнсан","name:zh":"慶山市","int_name":"Gyeongsan","name:ko-Hani":"慶山市","name:ko-Latn":"Gyeongsan-si","name:zh-Hans":"庆山市","name:zh-Hant":"慶山市","official_name:en":"Gyeongsan City"},"display_name":"경산시, 경상북도, 대한민국","address":{"city":"경산시","province":"경상북도","ISO3166-2-lvl4":"KR-47","country":"대한민국","country_code":"kr"},"population":257592,"osm_type":"node","osm_id":358015360,"type":"city","location":[128.741329,35.825122],"bbox":[128.581329,35.665122,128.901329,35.985122],"border":{"name":"경산시","other_names":{"name:en":"Gyeongsan-si","name:ja":"慶山市","name:ko":"경산시","name:zh":"慶山市","name:ko-Hani":"慶山市","name:zh-Hans":"庆山市","name:zh-Hant":"慶山市","name:ca":"Gyeongsan","name:de":"Gyeongsan","name:el":"Γκιόνγκσαν","name:es":"Gyeongsan","name:et":"Gyeongsan","name:fr":"Gyeongsan","name:ru":"Кёнсан","int_name":"Gyeongsan","name:ko-Latn":"Gyeongsan-si","official_name:en":"Gyeongsan City","alt:en":"Gyeongsan"},"display_name":"경산시, 경상북도, 대한민국","address":{"city":"경산시","province":"경상북도","ISO3166-2-lvl4":"KR-47","country":"대한민국","country_code":"kr"},"population":257592,"osm_type":"relation","osm_id":7741682,"type":"administrative","location":[128.741329,35.825122],"bbox":[128.6816147,35.7000759,128.9713812,35.9939452]}}
{"name":"경주시","other_names":{"name:ca":"Gyeongju","name:de":"Gyeongju","name:el":"Γκιόνγκτζου","name:en":"Gyeongju","name:es":"Gyeongju","name:et":"Gyeongju","name:eu":"Gyeongju","name:fr":"Gyeongju","name:ja":"慶州市","name:ko":"경주시","name:ru":"Кёнджу","name:th":"คย็องจู","name:zh":"慶州市","int_name":"Gyeongju","name:ko-Hani":"慶州市","name:ko-Latn":"Gyeongju-si","name:zh-Hans":"庆州市","name:zh-Hant":"慶州市","official_name:en":"Gyeongju City"},"display_name":"경주시, 경상북도, 대한민국","address":{"city":"경주시","province":"경상북도","ISO3166-2-lvl4":"KR-47","country":"대한민국","country_code":"kr"},"population":258156,"osm_type":"node","osm_id":257370656,"type":"city","location":[129.2248811,35.8556705],"bbox":[129.0648811,35.6956705,129.3848811,36.0156705],"border":{"name":"경주시","other_names":{"name:en":"Gyeongju-si","name:ja":"慶州市","name:ko":"경주시","name:ko-Hani":"慶州市","name:zh-Hans":"庆州市","name:zh-Hant":"慶州市","name:ca":"Gyeongju","name:de":"Gyeongju","name:el":"Γκιόνγκτζου","name:es":"Gyeongju","name:et":"Gyeongju","name:eu":"Gyeongju","name:fr":"Gyeongju","name:ru":"Кёнджу","name:th":"คย็องจู","name:zh":"慶州市","int_name":"Gyeongju","name:ko-Latn":"Gyeongju-si","official_name:en":"Gyeongju City","alt:en":"Gyeongju"},"display_name":"경주시, 경상북도, 대한민국","address":{"city":"경주시","province":"경상북도","ISO3166-2-lvl4":"KR-47","country":"대한민국","country_code":"kr"},"population":258156,"osm_type":"relation","osm_id":7740688,"type":"administrative","location":[129.2248811,35.8556705],"bbox":[128.9701795,35.6334917,129.5543,36.0793495]}}
{"name":"계룡시","other_names":{"name:ca":"Gyeryong","name:de":"Gyeryong","name:el":"Γκιέριονγκ","name:en":"Gyeryong","name:es":"Gyeryong","name:fr":"Gyeryong","name:ja":"鶏龍市","name:ko":"계룡시","name:ru":"Керён","name:zh":"雞龍市","int_name":"Gyeryong","name:ko-Hani":"鶏龍市","name:ko-Latn":"Gyeryong-si","name:zh-Hans":"鶏龙市","name:zh-Hant":"鶏龍市","official_name:en":"Gyeryong City"},"display_name":"계룡시, 충청남도, 대한민국","address":{"city":"계룡시","province":"충청남도","ISO3166-2-lvl4":"KR-44","country":"대한민국","country_code":"kr"},"population":44042,"osm_type":"node","osm_id":415161986,"type":"city","location":[127.2472702,36.275523],"bbox":[127.0872702,36.115523,127.4072702,36.435523],"border":{"name":"계룡시","other_names":{"name:en":"Gyeryong-si","name:ja":"鶏龍市","name:ko":"계룡시","name:zh":"雞龍市","name:ko-Hani":"鷄龍市","name:zh-Hans":"鸡龙市","name:zh-Hant":"鷄龍市","name:ca":"Gyeryong","name:de":"Gyeryong","name:el":"Γκιέριονγκ","name:es":"Gyeryong","name:fr":"Gyeryong","name:ru":"Керён","int_name":"Gyeryong","name:ko-Latn":"Gyeryong-si","official_name:en":"Gyeryong City","alt:en":"Gyeryong","alt:ko-Hani":"鶏龍市","alt:zh-Hans":"鶏龙市","alt:zh-Hant":"鶏龍市"},"display_name":"계룡시, 충청남도, 대한민국","address":{"city":"계룡시","province":"충청남도","ISO3166-2-lvl4":"KR-44","country":"대한민국","country_code":"kr"},"population":44042,"osm_type":"relation","osm_id":7580846,"type":"administrative","location":[127.2472702,36.275523],"bbox":[127.1964454,36.2315698,127.2915462,36.3503542]}}
{"name":"고양시","other_names":{"name:ca":"Goyang","name:de":"Goyang","name:el":"Γκόγιανγκ","name:en":"Goyang","name:es":"Goyang","name:et":"Goyang","name:fr":"Goyang","name:ja":"高陽市","name:ko":"고양시","name:lt":"Kojangas","name:pt":"Goyang","name:ru":"Коян","name:vi":"Goyang","name:zh":"高陽市","int_name":"Goyang","alt_name:vi":"Cao Dương","name:ko-Hani":"高陽市","name:ko-Latn":"Goyang-si","name:zh-Hans":"高阳市","name:zh-Hant":"高陽市","official_name:en":"Goyang City"},"display_name":"고양시, 경기도, 대한민국","address":{"city":"고양시","province":"경기도","ISO3166-2-lvl4":"KR-41","country":"대한민국","country_code":"kr"},"population":1045497,"osm_type":"node","osm_id":358015198,"type":"city","location":[126.8319452,37.6581862],"bbox":[126.6719452,37.4981862,126.9919452,37.8181862],"border":{"name":"고양시","other_names":{"name:el":"Γκόγιανγκ","name:en":"Goyang-si","name:ja":"高陽市","name:ko":"고양시","name:ru":"Коян","name:zh":"高陽市","name:ko-Hani":"高陽市","name:zh-Hans":"高阳市","name:zh-Hant":"高陽市","name:ca":"Goyang","name:de":"Goyang","name:es":"Goyang","name:et":"Goyang","name:fr":"Goyang","name:lt":"Kojangas","name:pt":"Goyang","name:vi":"Goyang","int_name":"Goyang","alt_name:vi":"Cao Dương","name:ko-Latn":"Goyang-si","official_name:en":"Goyang City","alt:en":"Goyang"},"display_name":"고양시, 경기도, 대한민국","address":{"city":"고양시","province":"경기도","ISO3166-2-lvl4":"KR-41","country":"대한민국","country_code":"kr"},"population":1045497,"osm_type":"relation","osm_id":2409166,"type":"administrative","location":[126.8319452,37.6581862],"bbox":[126.6703901,37.5717872,126.9942694,37.7485126]}}
{"name":"공주시","other_names":{"name:ca":"Gongju","name:de":"Gongju","name:el":"Γκόνγκτζου","name:en":"Gongju","name:es":"Gongju","name:et":"Gongju","name:fr":"Gongju","name:ja":"公州市","name:ko":"공주시","name:ru":"Конджу","name:zh":"公州市","int_name":"Gongju","name:ko-Hani":"公州市","name:ko-Latn":"Gongju-si","name:zh-Hans":"公州市","name:zh-Hant":"公州市","official_name:en":"Gongju City"},"display_name":"공주시, 충청남도, 대한민국","address":{"city":"공주시","province":"충청남도","ISO3166-2-lvl4":"KR-44","country":"대한민국","country_code":"kr"},"population":110428,"osm_type":"node","osm_id":415161922,"type":"city","location":[127.09124,36.47257],"bbox":[126.93124,36.31257,127.25124,36.63257],"border":{"name":"공주시","other_names":{"name:en":"Gongju-si","name:ja":"公州市","name:ko":"공주시","name:zh":"公州市","name:ko-Hani":"公州市","name:zh-Hant":"公州市","name:ca":"Gongju","name:de":"Gongju","name:el":"Γκόνγκτζου","name:es":"Gongju","name:et":"Gongju","name:fr":"Gongju","name:ru":"Конджу","int_name":"Gongju","name:ko-Latn":"Gongju-si","name:zh-Hans":"公州市","official_name:en":"Gongju City","alt:en":"Gongju"},"display_name":"공주시, 충청남도, 대한민국","address":{"city":"공주시","province":"충청남도","ISO3166-2-lvl4":"KR-44","country":"대한민국","country_code":"kr"},"population":110428,"osm_type":"relation","osm_id":7578884,"type":"administrative","location":[127.09124,36.47257],"bbox":[126.8841962,36.2751492,127.2823194,36.6794321]}}
{"name":"과천시","other_names":{"name:de":"Gwacheon","name:el":"Γκουάτσον","name:en":"Gwacheon","name:es":"Gwacheon","name:et":"Gwacheon","name:fr":"Gwacheon","name:ja":"果川市","name:ko":"과천시","name:ru":"Квачхон","name:zh":"果川市","name:ko-Hani":"果川市","name:ko-Latn":"Gwacheon-si","name:zh-Hans":"果川市","name:zh-Hant":"果川市","official_name:en":"Gwacheon City"},"display_name":"과천시, 경기도, 대한민국","address":{"city":"과천시","province":"경기도","ISO3166-2-lvl4":"KR-41","country":"대한민국","country_code":"kr"},"population":58018,"osm_type":"node","osm_id":1910974426,"type":"city","location":[126.9881655,37.4289037],"bbox":[126.8281655,37.2689037,127.1481655,37.5889037],"border":{"name":"과천시","other_names":{"name:en":"Gwacheon-si","name:ja":"果川市","name:ko":"과천시","name:zh":"果川市","name:ko-Hani":"果川市","name:zh-Hant":"果川市","name:de":"Gwacheon","name:el":"Γκουάτσον","name:es":"Gwacheon","name:et":"Gwacheon","name:fr":"Gwacheon","name:ru":"Квачхон","name:ko-Latn":"Gwacheon-si","name:zh-Hans":"果川市","official_name:en":"Gwacheon City","alt:en":"Gwacheon"},"display_name":"과천시, 경기도, 대한민국","address":{"city":"과천시","province":"경기도","ISO3166-2-lvl4":"KR-41","country":"대한민국","country_code":"kr"},"population":58018,"osm_type":"relation","osm_id":2409169,"type":"administrative","location":[126.9881655,37.4289037],"bbox":[126.9609252,37.4006016,127.0475326,37.4676896]}}
{"name":"광명시","other_names":{"name:ca":"Gwangmyeong","name:de":"Gwangmyeong","name:el":"Γκουάνγκμιονγκ","name:en":"Gwangmyeong","name:es":"Gwangmyeong","name:et":"Gwangmyeong","name:fr":"Gwangmyeong","name:ja":"光明市","name:ko":"광명시","name:ru":"Кванмён","name:zh":"光明市","int_name":"Gwangmyeong","short_name":"광명","name:ja-Hira":"くぁんみょんし","name:ko-Hani":"光明市","name:ko-Latn":"Gwangmyeong-si","name:zh-Hans":"光明市","name:zh-Hant":"光明市","short_name:ko":"광명","official_name:en":"Gwangmyeong City"},"display_name":"광명시, 경기도, 대한민국","address":{"city":"광명시","province":"경기도","ISO3166-2-lvl4":"KR-41","country":"대한민국","country_code":"kr"},"population":298116,"osm_type":"node","osm_id":1912558055,"type":"city","location":[126.8643937,37.4785475],"bbox":[126.7043937,37.3185475,127.0243937,37.6385475],"border":{"name":"광명시","other_names":{"name:de":"Gwangmyeong","name:en":"Gwangmyeong","name:ja":"光明市","name:ko":"광명시","name:zh":"光明市","name:ko-Hani":"光明市","name:zh-Hant":"光明市","name:ca":"Gwangmyeong","name:el":"Γκουάνγκμιονγκ","name:es":"Gwangmyeong","name:et":"Gwangmyeong","name:fr":"Gwangmyeong","name:ru":"Кванмён","int_name":"Gwangmyeong","short_name":"광명","name:ja-Hira":"くぁんみょんし","name:ko-Latn":"Gwangmyeong-si","name:zh-Hans":"光明市","short_name:ko":"광명","official_name:en":"Gwangmyeong City"},"display_name":"광명시, 경기도, 대한민국","address":{"city":"광명시","province":"경기도","ISO3166-2-lvl4":"KR-41","country":"대한민국","country_code":"kr"},"population":298116,"osm_type":"relation","osm_id":2409171,"type":"administrative","location":[126.8643937,37.4785475],"bbox":[126.8260792,37.4015061,126.8997899,37.4951597]}}
{"name":"광양시","other_names":{"name:ca":"Gwangyang","name:de":"Gwangyang","name:el":"Γκουάνγιανγκ","name:en":"Gwangyang","name:es":"Gwangyang","name:et":"Gwangyang","name:fr":"Gwangyang","name:ja":"光陽市","name:ko":"광양시","name:ru":"Кванъян","name:zh":"光陽市","int_name":"Gwangyang","name:ja_kana":"クァンヤンし","name:ko-Hani":"光陽市","name:ko-Latn":"Gwangyang-si","name:zh-Hans":"光阳市","name:zh-Hant":"光陽市","official_name:en":"Gwangyang City"},"display_name":"광양시, 전라남도, 대한민국","address":{"city":"광양시","province":"전라남도","ISO3166-2-lvl4":"KR-46","country":"대한민국","country_code":"kr"},"population":151834,"osm_type":"node","osm_id":358015462,"type":"city","location":[127.6959512,34.9406452],"bbox":[127.5359512,34.7806452,127.8559512,35.1006452],"border":{"name":"광양시","other_names":{"name:en":"Gwangyang-si","name:ja":"光陽市","name:ko":"광양시","name:zh":"光陽市","name:ko-Hani":"光陽市","name:zh-Hans":"光阳市","name:zh-Hant":"光陽市","name:ca":"Gwangyang","name:de":"Gwangyang","name:el":"Γκουάνγιανγκ","name:es":"Gwangyang","name:et":"Gwangyang","name:fr":"Gwangyang","name:ru":"Кванъян","int_name":"Gwangyang","name:ja_kana":"クァンヤンし","name:ko-Latn":"Gwangyang-si","official_name:en":"Gwangyang City","alt:en":"Gwangyang"},"display_name":"광양시, 전라남도, 대한민국","address":{"city":"광양시","province":"전라남도","ISO3166-2-lvl4":"KR-46","country":"대한민국","country_code":"kr"},"population":151834,"osm_type":"relation","osm_id":7680385,"type":"administrative","location":[127.6959512,34.9406452],"bbox":[127.5251984,34.8672008,127.7972121,35.1837804]}}
{"name":"광주광역시","other_names":{"name:af":"Gwangju","name:ar":"غوانغجو","name:bg":"Куанджу","name:bi":"Gwangju","name:ca":"Gwangju","name:cs":"Kwangdžu","name:da":"Gwangju","name:de":"Gwangju","name:el":"Γκουάνγκτζου","name:en":"Gwangju","name:eo":"Gŭangĝu","name:es":"Gwangju","name:et":"Gwangju","name:eu":"Gwangju","name:fa":"گوانگجو","name:fi":"Gwangju","name:fr":"Gwangju","name:he":"קוואנגג'ו","name:ht":"Gouanjou","name:id":"Gwangju","name:io":"Gwangju","name:it":"Gwangju","name:ja":"光州広域市","name:kl":"Gwangju","name:ko":"광주광역시","name:la":"Quansua","name:lt":"Kvandžu","name:mi":"Gwangju","name:mn":"Куанжү","name:mr":"ग्वांगजू","name:ms":"Gwangju","name:nl":"Gwangju","name:no":"Gwangju","name:oc":"Kwangju","name:pl":"Gwangju","name:pt":"Gwangju","name:ro":"Gwangju","name:ru":"Кванджу","name:sr":"Квангџу","name:sv":"Gwangju","name:sw":"Gwangju","name:th":"ควังจู","name:tl":"Gwangju","name:tr":"Gwangju","name:uk":"Кванджу","name:vi":"Gwangju","name:vo":"Gwangju","name:zh":"光州广域市","short_name":"광주","alt_name:zh":"光州","loc_name:ko":"광주시","name:ko-Hani":"光州廣域市","name:zh-Hans":"光州广域市","name:zh-Hant":"光州廣域市","official_name":"광주광역시","short_name:ko":"광주","official_name:en":"Gwangju Metropolitan City","official_name:ja":"光州広域市","official_name:ko":"광주광역시","official_name:zh":"光州广域市","official_name:ko-Hani":"光州廣域市","official_name:zh-Hant":"光州廣域市"},"display_name":"광주광역시, 대한민국","address":{"city":"광주광역시","ISO3166-2-lvl4":"KR-29","country":"대한민국","country_code":"kr"},"population":1460745,"osm_type":"node","osm_id":358015168,"type":"city","location":[126.8515034,35.1594647],"bbox":[126.6915034,34.9994647,127.0115034,35.3194647],"border":{"name":"광주광역시","other_names":{"name:af":"Gwangju","name:ar":"غوانغجو","name:bg":"Куанджу","name:bi":"Gwangju","name:ca":"Gwangju","name:cs":"Kwangdžu","name:da":"Gwangju","name:de":"Gwangju","name:el":"Γκουάνγκτζου","name:en":"Gwangju","name:eo":"Kŭangĵuo","name:es":"Gwangju","name:et":"Gwangju","name:eu":"Gwangju","name:fa":"گوانگجو","name:fi":"Gwangju","name:fr":"Gwangju","name:he":"קוואנגג'ו","name:ht":"Gouanjou","name:id":"Gwangju","name:io":"Gwangju","name:it":"Gwangju","name:ja":"光州","name:kl":"Gwangju","name:ko":"광주광역시","name:la":"Quansua","name:lt":"Kvandžu","name:mi":"Gwangju","name:mn":"Куанжү","name:mr":"ग्वांगजू","name:ms":"Gwangju","name:nl":"Gwangju","name:no":"Gwangju","name:pl":"Gwangju","name:pt":"Gwangju","name:ro":"Gwangju","name:ru":"Кванджу","name:sr":"Квангџу","name:sv":"Gwangju","name:sw":"Gwangju","name:th":"ควังจู","name:tl":"Gwangju","name:tr":"Gwangju","name:uk":"Кванджу","name:vi":"Gwangju","name:vo":"Gwangju","name:zh":"光州廣域市","loc_name":"광주","ISO3166-2":"KR-29","short_name":"광주","loc_name:ko":"광주","name:ko-Hani":"光州廣域市","name:zh-Hans":"光州广域市","name:zh-Hant":"光州廣域市","official_name":"광주광역시","short_name:ko":"광주","short_name:zh":"光州","name:oc":"Kwangju","official_name:ja":"光州広域市","official_name:ko":"광주광역시","official_name:zh":"光州广域市","alt_name:zh":"光州","_place_loc_name:ko":"광주시","short_name:ko-Hani":"光州","official_name:ko-Hani":"光州廣域市","official_name:zh-Hant":"光州廣域市","official_name:en":"Gwangju Metropolitan City","alt:eo":"Gŭangĝu","alt:ja":"光州広域市","alt:zh":"光州广域市"},"display_name":"광주광역시, 대한민국","address":{"city":"광주광역시","ISO3166-2-lvl4":"KR-29","country":"대한민국","country_code":"kr"},"population":1467996,"osm_type":"relation","osm_id":2399220,"type":"administrative","location":[126.8515034,35.1594647],"bbox":[126.6447028,35.052416,127.0232992,35.2588841]}}
{"name":"광주시","other_names":{"name:ca":"Goangju","name:cs":"Kwangdžu","name:de":"Gwangju","name:el":"Γκουάνγκτζου","name:en":"Gwangju","name:es":"Gwangju","name:et":"Gwangju","name:fr":"Gwangju","name:ja":"広州市","name:ko":"광주시","name:ru":"Кванджу","name:zh":"廣州市","alt_name":"경기광주;경기광주시","int_name":"Gwangju","name:ko-Hani":"廣州市","name:ko-Latn":"Gwangju-si","name:zh-Hans":"广州市","name:zh-Hant":"廣州市","official_name:en":"Gwangju City"},"display_name":"광주시, 경기도, 대한민국","address":{"city":"광주시","province":"경기도","ISO3166-2-lvl4":"KR-41","country":"대한민국","country_code":"kr"},"population":385141,"osm_type":"node","osm_id":415155086,"type":"city","location":[127.255189,37.4290844],"bbox":[127.095189,37.2690844,127.415189,37.5890844],"border":{"name":"광주시","other_names":{"name:cs":"Kwangdžu","name:en":"Gwangju-si","name:ja":"広州市","name:ko":"광주시","name:zh":"廣州市","name:ko-Hani":"廣州市","name:zh-Hans":"广州市","name:zh-Hant":"廣州市","name:ca":"Goangju","name:de":"Gwangju","name:el":"Γκουάνγκτζου","name:es":"Gwangju","name:et":"Gwangju","name:fr":"Gwangju","name:ru":"Кванджу","alt_name":"경기광주;경기광주시","int_name":"Gwangju","name:ko-Latn":"Gwangju-si","official_name:en":"Gwangju City","alt:en":"Gwangju"},"display_name":"광주시, 경기도, 대한민국","address":{"city":"광주시","province":"경기도","ISO3166-2-lvl4":"KR-41","country":"대한민국","country_code":"kr"},"population":385141,"osm_type":"relation","osm_id":2409170,"type":"administrative","location":[127.255189,37.4290844],"bbox":[127.1324795,37.2649944,127.4466436,37.5358663]}}
{"name":"구리시","other_names":{"name:ca":"Guri","name:de":"Guri","name:el":"Γκούρι","name:en":"Guri","name:es":"Guri","name:et":"Guri","name:fr":"Guri","name:ja":"九里市","name:ko":"구리시","name:ru":"Кури","name:zh":"九里市","int_name":"Guri","name:ko-Hani":"九里市","name:ko-Latn":"Guri-si","name:zh-Hans":"九里市","name:zh-Hant":"九里市","official_name:en":"Guri City"},"display_name":"구리시, 경기도, 대한민국","address":{"city":"구리시","province":"경기도","ISO3166-2-lvl4":"KR-41","country":"대한민국","country_code":"kr"},"population":192051,"osm_type":"node","osm_id":415154093,"type":"city","location":[127.1297917,37.5935948],"bbox":[126.9697917,37.4335948,127.2897917,37.7535948],"border":{"name":"구리시","other_names":{"name:en":"Guri-si","name:ja":"九里市","name:ko":"구리시","name:zh":"九里市","name:ko-Hani":"九里市","name:zh-Hant":"九里市","official_name":"구리시","name:ca":"Guri","name:de":"Guri","name:el":"Γκούρι","name:es":"Guri","name:et":"Guri","name:fr":"Guri","name:ru":"Кури","int_name":"Guri","name:ko-Latn":"Guri-si","name:zh-Hans":"九里市","official_name:en":"Guri City","alt:en":"Guri"},"display_name":"구리시, 경기도, 대한민국","address":{"city":"구리시","province":"경기도","ISO3166-2-lvl4":"KR-41","country":"대한민국","country_code":"kr"},"population":192051,"osm_type":"relation","osm_id":2409168,"type":"administrative","location":[127.1297917,37.5935948],"bbox":[127.1009579,37.5556364,127.1714905,37.6460349]}}
{"name":"구미시","other_names":{"name:ca":"Gumi","name:de":"Gumi","name:el":"Γκούμι","name:en":"Gumi","name:es":"Gumi","name:et":"Gumi","name:eu":"Gumi","name:fr":"Gumi","name:ja":"亀尾市","name:ko":"구미시","name:ru":"Куми","name:th":"คูมี","name:zh":"龜尾市","int_name":"Gumi","name:ko-Hani":"龜尾市","name:ko-Latn":"Gumi-si","name:zh-Hans":"龟尾市","name:zh-Hant":"龜尾市","official_name:en":"Gumi City"},"display_name":"구미시, 경상북도, 대한민국","address":{"city":"구미시","province":"경상북도","ISO3166-2-lvl4":"KR-47","country":"대한민국","country_code":"kr"},"population":421799,"osm_type":"node","osm_id":358015287,"type":"city","location":[128.3444692,36.1195513],"bbox":[128.1844692,35.9595513,128.5044692,36.2795513],"border":{"name":"구미시","other_names":{"name:en":"Gumi-si","name:ja":"亀尾市","name:ko":"구미시","name:zh":"龜尾市","name:ko-Hani":"龜尾市","name:zh-Hans":"龟尾市","name:zh-Hant":"龜尾市","name:ca":"Gumi","name:de":"Gumi","name:el":"Γκούμι","name:es":"Gumi","name:et":"Gumi","name:eu":"Gumi","name:fr":"Gumi","name:ru":"Куми","name:th":"คูมี","int_name":"Gumi","name:ko-Latn":"Gumi-si","official_name:en":"Gumi City","alt:en":"Gumi"},"display_name":"구미시, 경상북도, 대한민국","address":{"city":"구미시","province":"경상북도","ISO3166-2-lvl4":"KR-47","country":"대한민국","country_code":"kr"},"population":421799,"osm_type":"relation","osm_id":7816731,"type":"administrative","location":[128.3444692,36.1195513],"bbox":[128.1340598,36.0607075,128.5639552,36.3633148]}}
{"name":"군산시","other_names":{"name:ca":"Gunsan","name:cs":"Kunsen","name:de":"Gunsan","name:el":"Γκούνσαν","name:en":"Gunsan","name:es":"Gunsan","name:et":"Gunsan","name:eu":"Gunsan","name:fr":"Gunsan","name:ja":"群山市","name:ko":"군산시","name:ru":"Кунсан","name:uk":"Кунсан","name:zh":"群山市","int_name":"Gunsan","name:ja_kana":"くんさん","name:ko-Hani":"群山市","name:ko-Latn":"Gunsan-si","name:zh-Hant":"群山市","official_name:en":"Gunsan City"},"display_name":"군산시, 전북특별자치도, 대한민국","address":{"city":"군산시","province":"전북특별자치도","ISO3166-2-lvl4":"KR-45","country":"대한민국","country_code":"kr"},"population":274997,"osm_type":"node","osm_id":358015322,"type":"city","location":[126.7369036,35.9679984],"bbox":[126.5769036,35.8079984,126.8969036,36.1279984],"border":{"name":"군산시","other_names":{"name:cs":"Kunsen","name:en":"Gunsan-si","name:ja":"群山市","name:ko":"군산시","name:zh":"群山市","name:ko-Hani":"群山市","name:zh-Hant":"群山市","name:ca":"Gunsan","name:de":"Gunsan","name:el":"Γκούνσαν","name:es":"Gunsan","name:et":"Gunsan","name:eu":"Gunsan","name:fr":"Gunsan","name:ru":"Кунсан","name:uk":"Кунсан","int_name":"Gunsan","name:ja_kana":"くんさん","name:ko-Latn":"Gunsan-si","official_name:en":"Gunsan City","alt:en":"Gunsan"},"display_name":"군산시, 전북특별자치도, 대한민국","address":{"city":"군산시","province":"전북특별자치도","ISO3166-2-lvl4":"KR-45","country":"대한민국","country_code":"kr"},"population":274997,"osm_type":"relation","osm_id":7619922,"type":"administrative","location":[126.7369036,35.9679984],"bbox":[125.5233697,35.6616201,126.9153499,36.2782091]}}
{"name":"군포시","other_names":{"name:ca":"Gunpo","name:de":"Gunpo","name:el":"Γκούνπο","name:en":"Gunpo","name:es":"Gunpo","name:et":"Gunpo","name:fr":"Gunpo","name:ja":"軍浦市","name:ko":"군포시","name:ru":"Кунпхо","name:zh":"軍浦市","int_name":"Gunpo","name:ko-Hani":"軍浦市","name:ko-Latn":"Gunpo-si","name:zh-Hans":"军浦市","name:zh-Hant":"軍浦市","official_name:en":"Gunpo City"},"display_name":"군포시, 경기도, 대한민국","address":{"city":"군포시","province":"경기도","ISO3166-2-lvl4":"KR-41","country":"대한민국","country_code":"kr"},"population":275571,"osm_type":"node","osm_id":358015330,"type":"city","location":[126.9349025,37.3615229],"bbox":[126.7749025,37.2015229,127.0949025,37.5215229],"border":{"name":"군포시","other_names":{"name:el":"Γκούνπο","name:en":"Gunpo-si","name:ja":"軍浦市","name:ko":"군포시","name:zh":"軍浦市","name:ko-Hani":"軍浦市","name:zh-Hans":"军浦市","name:zh-Hant":"軍浦市","name:ca":"Gunpo","name:de":"Gunpo","name:es":"Gunpo","name:et":"Gunpo","name:fr":"Gunpo","name:ru":"Кунпхо","int_name":"Gunpo","name:ko-Latn":"Gunpo-si","official_name:en":"Gunpo City","alt:en":"Gunpo"},"display_name":"군포시, 경기도, 대한민국","address":{"city":"군포시","province":"경기도","ISO3166-2-lvl4":"KR-41","country":"대한민국","country_code":"kr"},"population":275571,"osm_type":"relation","osm_id":2409167,"type":"administrative","location":[126.9349025,37.3615229],"bbox":[126.8732311,37.3050379,126.9624411,37.3793066]}}
{"name":"김제시","other_names":{"name:ca":"Gimje","name:de":"Gimje","name:el":"Γκίμτζε","name:en":"Gimje","name:es":"Gimje","name:fr":"Gimje","name:ja":"金堤市","name:ko":"김제시","name:ru":"Кимдже","name:zh":"金堤市","int_name":"Gimje","name:ja-Hira":"きむじぇ","name:ko-Hani":"金堤市","name:ko-Latn":"Gimje-si","name:zh-Hant":"金堤市","official_name:en":"Gimje City"},"display_name":"김제시, 전북특별자치도, 대한민국","address":{"city":"김제시","province":"전북특별자치도","ISO3166-2-lvl4":"KR-45","country":"대한민국","country_code":"kr"},"population":87782,"osm_type":"node","osm_id":358015517,"type":"city","location":[126.880557,35.803815],"bbox":[126.720557,35.643815,127.040557,35.963815],"border":{"name":"김제시","other_names":{"name:en":"Gimje-si","name:ja":"金堤市","name:ko":"김제시","name:zh":"金堤市","name:ko-Hani":"金堤市","name:zh-Hant":"金堤市","name:ca":"Gimje","name:de":"Gimje","name:el":"Γκίμτζε","name:es":"Gimje","name:fr":"Gimje","name:ru":"Кимдже","int_name":"Gimje","name:ja-Hira":"きむじぇ","name:ko-Latn":"Gimje-si","official_name:en":"Gimje City","alt:en":"Gimje"},"display_name":"김제시, 전북특별자치도, 대한민국","address":{"city":"김제시","province":"전북특별자치도","ISO3166-2-lvl4":"KR-45","country":"대한민국","country_code":"kr"},"population":87782,"osm_type":"relation","osm_id":7619923,"type":"administrative","location":[126.880557,35.803815],"bbox":[126.4620779,35.6661432,127.0868396,35.9192056]}}
{"name":"김천시","other_names":{"name:ca":"Gimcheon","name:de":"Gimcheon","name:el":"Γκίμτσον","name:en":"Gimcheon","name:es":"Gimcheon","name:et":"Gimcheon","name:fr":"Gimcheon","name:ja":"金泉市","name:ko":"김천시","name:ru":"Кимчхон","name:zh":"金泉市","int_name":"Gimcheon","name:ko-Hani":"金泉市","name:ko-Latn":"Gimcheon-si","name:zh-Hant":"金泉市","official_name:en":"Gimcheon City"},"display_name":"김천시, 경상북도, 39547, 대한민국","address":{"city":"김천시","county":"김천시","province":"경상북도","ISO3166-2-lvl4":"KR-47","postcode":"39547","country":"대한민국","country_code":"kr"},"population":143056,"osm_type":"node","osm_id":415162581,"type":"city","location":[128.1139534,36.1398035],"bbox":[127.9539534,35.9798035,128.2739534,36.2998035],"border":{"name":"김천시","other_names":{"name:en":"Gimcheon-si","name:ja":"金泉市","name:ko":"김천시","name:zh":"金泉市","name:ko-Hani":"金泉市","name:zh-Hant":"金泉市"},"display_name":"김천시, 경상북도, 대한민국","address":{"county":"김천시","province":"경상북도","ISO3166-2-lvl4":"KR-47","country":"대한민국","country_code":"kr"},"osm_type":"relation","osm_id":7715625,"type":"administrative","location":[128.04937322867417,36.044077349999995],"bbox":[127.8752707,35.829482,128.3014726,36.258601]}}
{"name":"김포시","other_names":{"name:ca":"Gimpo","name:de":"Gimpo","name:el":"Γκίμπο","name:en":"Gimpo","name:es":"Gimpo","name:et":"Gimpo","name:fr":"Gimpo","name:ja":"金浦市","name:ko":"김포시","name:ru":"Кимпхо","name:zh":"金浦市","int_name":"Gimpo","name:ko-Hani":"金浦市","name:ko-Latn":"Gimpo-si","name:zh-Hant":"金浦市","official_name:en":"Gimpo City"},"display_name":"김포시, 경기도, 대한민국","address":{"city":"김포시","province":"경기도","ISO3166-2-lvl4":"KR-41","country":"대한민국","country_code":"kr"},"population":392092,"osm_type":"node","osm_id":4909017636,"type":"city","location":[126.7157798,37.6155683],"bbox":[126.5557798,37.4555683,126.8757798,37.7755683],"border":{"name":"김포시","other_names":{"name:el":"Γκίμπο","name:en":"Gimpo-si","name:ja":"金浦市","name:ko":"김포시","name:zh":"金浦市","name:ko-Hani":"金浦市","name:ko-Latn":"Gimpo-si","name:zh-Hant":"金浦市","name:ca":"Gimpo","name:de":"Gimpo","name:es":"Gimpo","name:et":"Gimpo","name:fr":"Gimpo","name:ru":"Кимпхо","int_name":"Gimpo","official_name:en":"Gimpo City","alt:en":"Gimpo"},"display_name":"김포시, 경기도, 대한민국","address":{"city":"김포시","province":"경기도","ISO3166-2-lvl4":"KR-41","country":"대한민국","country_code":"kr"},"population":392092,"osm_type":"relation","osm_id":2409165,"type":"administrative","location":[126.7157798,37.6155683],"bbox":[126.5151715,37.579557,126.8025933,37.7920214]}}
{"name":"김해시","other_names":{"name:ca":"Gimhae","name:de":"Gimhae","name:el":"Γκίμχε","name:en":"Gimhae","name:es":"Gimhae","name:et":"Gimhae","name:fr":"Gimhae","name:ja":"金海市","name:ko":"김해시","name:ru":"Кимхэ","name:zh":"金海市","int_name":"Gimhae","name:ko-Hani":"金海市","name:ko-Latn":"Gimhae","name:zh-Hant":"金海市","official_name:en":"Gimhae City"},"display_name":"김해시, 경상남도, 대한민국","address":{"city":"김해시","province":"경상남도","ISO3166-2-lvl4":"KR-48","country":"대한민국","country_code":"kr"},"population":532132,"osm_type":"node","osm_id":358015263,"type":"city","location":[128.8908228,35.2310947],"bbox":[128.7308228,35.0710947,129.0508228,35.3910947],"border":{"name":"김해시","other_names":{"name:en":"Gimhae-si","name:ja":"金海市","name:ko":"김해시","name:zh":"金海市","name:ko-Hani":"金海市","name:ko-Latn":"Gimhaesi","name:zh-Hant":"金海市","name:ca":"Gimhae","name:de":"Gimhae","name:el":"Γκίμχε","name:es":"Gimhae","name:et":"Gimhae","name:fr":"Gimhae","name:ru":"Кимхэ","int_name":"Gimhae","official_name:en":"Gimhae City","alt:en":"Gimhae","alt:ko-Latn":"Gimhae"},"display_name":"김해시, 경상남도, 대한민국","address":{"city":"김해시","province":"경상남도","ISO3166-2-lvl4":"KR-48","country":"대한민국","country_code":"kr"},"population":532132,"osm_type":"relation","osm_id":7224485,"type":"administrative","location":[128.8908228,35.2310947],"bbox":[128.6955428,35.1511777,129.0142563,35.3951116]}}
{"name":"나주시","other_names":{"name:ca":"Naju","name:de":"Naju","name:el":"Νάτζου","name:en":"Naju","name:es":"Naju","name:et":"Naju","name:fr":"Naju","name:ja":"羅州市","name:ko":"나주시","name:ru":"Наджу","name:zh":"羅州市","int_name":"Naju","name:ja_kana":"なじゅ","name:ko-Hani":"羅州市","name:ko-Latn":"Naju-si","name:zh-Hans":"罗州市","name:zh-Hant":"羅州市","official_name:en":"Naju City"},"display_name":"나주시, 전라남도, 대한민국","address":{"city":"나주시","province":"전라남도","ISO3166-2-lvl4":"KR-46","country":"대한민국","country_code":"kr"},"population":110110,"osm_type":"node","osm_id":358015553,"type":"city","location":[126.7108313,35.0158859],"bbox":[126.5508313,34.8558859,126.8708313,35.1758859],"border":{"name":"나주시","other_names":{"name:en":"Naju-si","name:ja":"羅州市","name:ko":"나주시","name:zh":"羅州市","name:ko-Hani":"羅州市","name:zh-Hans":"罗州市","name:zh-Hant":"羅州市","name:ca":"Naju","name:de":"Naju","name:el":"Νάτζου","name:es":"Naju","name:et":"Naju","name:fr":"Naju","name:ru":"Наджу","int_name":"Naju","name:ja_kana":"なじゅ","name:ko-Latn":"Naju-si","official_name:en":"Naju City","alt:en":"Naju"},"display_name":"나주시, 전라남도, 대한민국","address":{"city":"나주시","province":"전라남도","ISO3166-2-lvl4":"KR-46","country":"대한민국","country_code":"kr"},"population":110110,"osm_type":"relation","osm_id":7624183,"type":"administrative","location":[126.7108313,35.0158859],"bbox":[126.5133096,34.8681338,126.8987846,35.1148553]}}
{"name":"남양주시","other_names":{"name:ca":"Namyangju","name:el":"Νάμιανγκτζου","name:en":"Namyangju","name:et":"Namyangju","name:ja":"南楊州市","name:ko":"남양주시","name:ru":"Намъянджу","name:vi":"Namyangju","name:zh":"南楊州市","alt_name:vi":"Nam Dương Châu","name:ko-Hani":"南楊州市","name:ko-Latn":"Namyangju-si","name:zh-Hans":"南杨州市","name:zh-Hant":"南楊州市","official_name:en":"Namyangju City"},"display_name":"남양주시, 경기도, 대한민국","address":{"city":"남양주시","province":"경기도","ISO3166-2-lvl4":"KR-41","country":"대한민국","country_code":"kr"},"population":723215,"osm_type":"node","osm_id":415154165,"type":"city","location":[127.2165051,37.6359398],"bbox":[127.0565051,37.4759398,127.3765051,37.7959398],"border":{"name":"남양주시","other_names":{"name:en":"Namyangju-si","name:ja":"南楊州市","name:ko":"남양주시","name:zh":"南楊州市","name:ko-Hani":"南楊州市","name:zh-Hans":"南杨州市","name:zh-Hant":"南楊州市","official_name":"남양주","name:ca":"Namyangju","name:el":"Νάμιανγκτζου","name:et":"Namyangju","name:ru":"Намъянджу","name:vi":"Namyangju","alt_name:vi":"Nam Dương Châu","name:ko-Latn":"Namyangju-si","official_name:en":"Namyangju City","alt:en":"Namyangju"},"display_name":"남양주시, 경기도, 대한민국","address":{"city":"남양주시","province":"경기도","ISO3166-2-lvl4":"KR-41","country":"대한민국","country_code":"kr"},"population":723215,"osm_type":"relation","osm_id":2409175,"type":"administrative","location":[127.2165051,37.6359398],"bbox":[127.0804212,37.5054992,127.3795204,37.7802867]}}
{"name":"남원시","other_names":{"name:ca":"Namwon","name:de":"Namwon","name:el":"Νάμουον","name:en":"Namwon","name:es":"Namwon","name:fr":"Namwon","name:ja":"南原市","name:ko":"남원시","name:ru":"Намвон","name:zh":"南原市","name:ja_kana":"なむうぉん","name:ko-Hani":"南原市","name:ko-Latn":"Namwon-si","name:zh-Hant":"南原市","official_name:en":"Namwon City"},"display_name":"남원시, 전북특별자치도, 대한민국","address":{"city":"남원시","province":"전북특별자치도","ISO3166-2-lvl4":"KR-45","country":"대한민국","country_code":"kr"},"population":84856,"osm_type":"node","osm_id":358015558,"type":"city","location":[127.3903713,35.4163118],"bbox":[127.2303713,35.2563118,127.5503713,35.5763118],"border":{"name":"남원시","other_names":{"name:en":"Namwon-si","name:ja":"南原市","name:ko":"남원시","name:zh":"南原市","name:ko-Hani":"南原市","name:zh-Hant":"南原市","name:ca":"Namwon","name:de":"Namwon","name:el":"Νάμουον","name:es":"Namwon","name:fr":"Namwon","name:ru":"Намвон","name:ja_kana":"なむうぉん","name:ko-Latn":"Namwon-si","official_name:en":"Namwon City","alt:en":"Namwon"},"display_name":"남원시, 전북특별자치도, 대한민국","address":{"city":"남원시","province":"전북특별자치도","ISO3166-2-lvl4":"KR-45","country":"대한민국","country_code":"kr"},"population":84856,"osm_type":"relation","osm_id":7621810,"type":"administrative","location":[127.3903713,35.4163118],"bbox":[127.1840022,35.3032768,127.6732366,35.5590434]}}
{"name":"논산시","other_names":{"name:ca":"Nonsan","name:cs":"Nonsan","name:de":"Nonsan","name:el":"Νόνσαν","name:en":"Nonsan","name:es":"Nonsan","name:et":"Nonsan","name:fr":"Nonsan","name:ja":"論山市","name:ko":"논산시","name:ru":"Нонсан","name:zh":"論山市","int_name":"Nonsan","name:ja_kana":"のんさん","name:ko-Hani":"論山市","name:ko-Latn":"Nonsan","name:zh-Hans":"论山市","name:zh-Hant":"論山市","official_name:en":"Nonsan City"},"display_name":"논산시, 충청남도, 대한민국","address":{"city":"논산시","province":"충청남도","ISO3166-2-lvl4":"KR-44","country":"대한민국","country_code":"kr"},"population":122630,"osm_type":"node","osm_id":358015455,"type":"city","location":[127.0987538,36.1868154],"bbox":[126.9387538,36.0268154,127.2587538,36.3468154],"border":{"name":"논산시","other_names":{"name:cs":"Nonsan","name:en":"Nonsan-si","name:ja":"論山市","name:ko":"논산시","name:zh":"論山市","name:ko-Hani":"論山市","name:zh-Hans":"论山市","name:zh-Hant":"論山市","name:ca":"Nonsan","name:de":"Nonsan","name:el":"Νόνσαν","name:es":"Nonsan","name:et":"Nonsan","name:fr":"Nonsan","name:ru":"Нонсан","int_name":"Nonsan","name:ja_kana":"のんさん","name:ko-Latn":"Nonsan","official_name:en":"Nonsan City","alt:en":"Nonsan"},"display_name":"논산시, 충청남도, 대한민국","address":{"city":"논산시","province":"충청남도","ISO3166-2-lvl4":"KR-44","country":"대한민국","country_code":"kr"},"population":122630,"osm_type":"relation","osm_id":7580853,"type":"administrative","location":[127.0987538,36.1868154],"bbox":[126.9842559,36.0628546,127.3338157,36.3389385]}}
{"name":"당진시","other_names":{"name:ca":"Dangjin","name:de":"Dangjin","name:el":"Ντάνγκτζιν","name:en":"Dangjin","name:es":"Dangjin","name:et":"Dangjin","name:fr":"Dangjin","name:ja":"唐津市","name:ko":"당진시","name:ru":"Танджин","name:zh":"唐津市","int_name":"Dangjin","name:ja-Hira":"たんじんし","name:ko-Hani":"唐津市","name:ko-Latn":"Dangjin-si","name:zh-Hant":"唐津市","official_name:en":"Dangjin City"},"display_name":"당진시, 충청남도, 대한민국","address":{"city":"당진시","province":"충청남도","ISO3166-2-lvl4":"KR-44","country":"대한민국","country_code":"kr"},"population":166630,"osm_type":"node","osm_id":3428290497,"type":"city","location":[126.6461833,36.8904083],"bbox":[126.4861833,36.7304083,126.8061833,37.0504083],"border":{"name":"당진시","other_names":{"name:en":"Dangjin-si","name:ja":"唐津市","name:ko":"당진시","name:zh":"唐津市","name:ko-Hani":"唐津市","name:zh-Hant":"唐津市","name:ca":"Dangjin","name:de":"Dangjin","name:el":"Ντάνγκτζιν","name:es":"Dangjin","name:et":"Dangjin","name:fr":"Dangjin","name:ru":"Танджин","int_name":"Dangjin","name:ja-Hira":"たんじんし","name:ko-Latn":"Dangjin-si","official_name:en":"Dangjin City","alt:en":"Dangjin"},"display_name":"당진시, 충청남도, 대한민국","address":{"city":"당진시","province":"충청남도","ISO3166-2-lvl4":"KR-44","country":"대한민국","country_code":"kr"},"population":166630,"osm_type":"relation","osm_id":2546884,"type":"administrative","location":[126.6461833,36.8904083],"bbox":[126.3543386,36.7481089,126.858629,37.0960486]}}
{"name":"대구광역시","other_names":{"name:af":"Daegu","name:ar":"ديغو","name:az":"Tequ","name:be":"Тэгу","name:bg":"Тегу","name:ca":"Daegu","name:cs":"Tegu","name:da":"Daegu","name:de":"Daegu","name:el":"Ντέγκου","name:en":"Daegu","name:eo":"Taeguo","name:es":"Daegu","name:et":"Daegu","name:eu":"Daegu","name:fa":"دائجو","name:fi":"Daegu","name:fr":"Daegu","name:he":"טגו","name:hr":"Daegu","name:id":"Daegu","name:io":"Daegu","name:it":"Taegu","name:ja":"大邱広域市","name:kl":"Daegu","name:ko":"대구광역시","name:la":"Daegu","name:lt":"Tegu","name:lv":"Tegu","name:mi":"Daegu","name:ml":"ദേഗു","name:mn":"Тэгү","name:mr":"दैगू","name:ms":"Daegu","name:nl":"Daegu","name:nn":"Daegu","name:no":"Daegu","name:oc":"Taegu","name:os":"Тэгу","name:pt":"Daegu","name:ro":"Daegu","name:ru":"Тэгу","name:sk":"Tägu","name:sr":"Тегу","name:sv":"Daegu","name:sw":"Daegu","name:th":"แทกู","name:tl":"Daegu","name:tr":"Daegu","name:uk":"Тегу","name:vi":"Daegu","name:zh":"大邱广域市","short_name":"대구","alt_name:zh":"大邱","loc_name:ko":"대구시","name:ko-Hani":"大邱廣域市","name:zh-Hans":"大邱广域市","name:zh-Hant":"大邱廣域市","official_name":"대구광역시","short_name:ko":"대구","official_name:en":"Daegu Metropolitan City","official_name:ja":"大邱広域市","official_name:ko":"대구광역시","official_name:zh":"大邱广域市","official_name:ko-Hani":"大邱廣域市","official_name:zh-Hant":"大邱廣域市"},"display_name":"대구광역시, 대한민국","address":{"city":"대구광역시","ISO3166-2-lvl4":"KR-27","country":"대한민국","country_code":"kr"},"population":2468222,"osm_type":"node","osm_id":257363453,"type":"city","location":[128.6018,35.8713],"bbox":[128.4418,35.7113,128.7618,36.0313],"border":{"name":"대구광역시","other_names":{"name:af":"Daegu","name:ar":"ديغو","name:bg":"Тегу","name:ca":"Daegu","name:cs":"Tegu","name:da":"Daegu","name:de":"Daegu","name:el":"Ντέγκου","name:en":"Daegu","name:eo":"Teguo","name:es":"Daegu","name:et":"Daegu","name:eu":"Daegu","name:fa":"دائجو","name:fi":"Daegu","name:fr":"Daegu","name:he":"טגו","name:id":"Daegu","name:io":"Daegu","name:it":"Daegu","name:ja":"大邱","name:kl":"Daegu","name:ko":"대구광역시","name:la":"Daegu","name:lt":"Tegu","name:lv":"Tegu","name:mi":"Daegu","name:ml":"ദേഗു","name:mn":"Тэгү","name:mr":"दैगू","name:ms":"Daegu","name:nl":"Daegu","name:nn":"Daegu","name:no":"Daegu","name:os":"Тэгу","name:pl":"Daegu","name:pt":"Daegu","name:ro":"Daegu","name:ru":"Тэгу","name:sk":"Tägu","name:sr":"Тегу","name:sv":"Daegu","name:sw":"Daegu","name:th":"แทกู","name:tl":"Daegu","name:tr":"Daegu","name:uk":"Тегу","name:vi":"Daegu","name:zh":"大邱广域市","ISO3166-2":"KR-27","short_name":"대구","loc_name:en":"Daegu city","loc_name:ja":"大邱市","loc_name:ko":"대구시","loc_name:zh":"大邱市","old_name:en":"Taegu","name:ko-Hani":"大邱廣域市","name:ko-Latn":"Daegu","name:zh-Hans":"大邱广域市","name:zh-Hant":"大邱廣域市","official_name":"대구광역시","short_name:ja":"大邱","short_name:ko":"대구","short_name:zh":"大邱","name:az":"Tequ","name:be":"Тэгу","name:hr":"Daegu","name:oc":"Taegu","loc_name:ko-Hani":"大邱市","loc_name:ko-Latn":"Daegu-si","official_name:en":"Daegu Metropolitan City","official_name:ja":"大邱広域市","official_name:ko":"대구광역시","official_name:zh":"大邱广域市","alt_name:zh":"大邱","short_name:ko-Hani":"大邱","short_name:ko-Latn":"Daegu","official_name:zh-Hans":"大邱广域市","official_name:zh-Hant":"大邱廣域市","official_name:ko-Hani":"大邱廣域市","alt:eo":"Taeguo","alt:it":"Taegu","alt:ja":"大邱広域市"},"display_name":"대구광역시, 대한민국","address":{"city":"대구광역시","ISO3166-2-lvl4":"KR-27","country":"대한민국","country_code":"kr"},"population":2528933,"osm_type":"relation","osm_id":2395674,"type":"administrative","location":[128.6018,35.8713],"bbox":[128.3511837,35.6067585,128.8994336,36.3271116]}}
{"name":"대전광역시","other_names":{"name:af":"Daejeon","name:ar":"دايجيون","name:bg":"Теджън","name:bi":"Daejeon","name:ca":"Daejeon","name:cs":"Tedžon","name:da":"Daejeon","name:de":"Daejeon","name:el":"Ντέτζον","name:en":"Daejeon","name:eo":"Deĝon","name:es":"Daejeon","name:et":"Daejeon","name:eu":"Daejeon","name:fa":"دائجونگ","name:fi":"Daejeon","name:fr":"Daejeon","name:he":"טג'אן","name:ia":"Daejeon","name:id":"Daejeon","name:io":"Daejon","name:it":"Daejeon","name:ja":"大田広域市","name:kl":"Daejeon","name:ko":"대전광역시","name:la":"Daejeon","name:lt":"Tedžonas","name:mi":"Daejeon","name:mn":"Тэжон","name:mr":"देजॉन","name:ms":"Daejeon","name:nl":"Daejeon","name:no":"Daejeon","name:pl":"Daejeon","name:pt":"Daejeon","name:ro":"Daejeon","name:ru":"Тэджон","name:sv":"Daejeon","name:sw":"Daejeon","name:th":"แทจ็อน","name:tl":"Daejeon","name:uk":"Теджон","name:uz":"Daejeon","name:vi":"Daejeon","name:zh":"大田广域市","short_name":"대전","alt_name:zh":"大田","old_name:cs":"Tedžen","name:ko-Hani":"大田廣域市","name:zh-Hans":"大田广域市","name:zh-Hant":"大田廣域市","official_name":"대전광역시","short_name:ko":"대전","official_name:en":"Daejeon Metropolitan City","official_name:ja":"大田広域市","official_name:zh":"大田广域市","official_name:ko-Hani":"大田廣域市","official_name:zh-Hant":"大田廣域市"},"display_name":"대전광역시, 대한민국","address":{"city":"대전광역시","ISO3166-2-lvl4":"KR-30","country":"대한민국","country_code":"kr"},"population":1440558,"osm_type":"node","osm_id":257363455,"type":"city","location":[127.3849016,36.3497007],"bbox":[127.2249016,36.1897007,127.5449016,36.5097007],"border":{"name":"대전광역시","other_names":{"name:af":"Daejeon","name:ar":"دايجيون","name:bg":"Теджън","name:bi":"Daejeon","name:ca":"Daejeon","name:cs":"Tedžon","name:da":"Daejeon","name:de":"Daejeon","name:el":"Ντέτζον","name:en":"Daejeon","name:eo":"Deĝon","name:es":"Daejeon","name:et":"Daejeon","name:eu":"Daejeon","name:fa":"دائجونگ","name:fi":"Daejeon","name:fr":"Daejeon","name:he":"טג'אן","name:ia":"Daejeon","name:id":"Daejeon","name:io":"Daejon","name:it":"Daejeon","name:ja":"大田","name:kl":"Daejeon","name:ko":"대전광역시","name:la":"Daejeon","name:lt":"Tedžonas","name:mi":"Daejeon","name:mn":"Тэжон","name:mr":"देजॉन","name:ms":"Daejeon","name:nl":"Daejeon","name:no":"Daejeon","name:pl":"Daejeon","name:pt":"Daejeon","name:ro":"Daejeon","name:ru":"Тэджон","name:sv":"Daejeon","name:sw":"Daejeon","name:th":"แทจ็อน","name:tl":"Daejeon","name:uk":"Теджон","name:uz":"Daejeon","name:vi":"Daejeon","name:zh":"大田廣域市","ISO3166-2":"KR-30","short_name":"대전","alt_name:en":"Taejŏn","loc_name:ko":"대전시","old_name:cs":"Tedžen","old_name:en":"Taejon","name:ko-Hani":"大田廣域市","name:zh-Hans":"大田广域市","name:zh-Hant":"大田廣域市","official_name":"대전광역시","short_name:ko":"대전","short_name:zh":"大田","official_name:en":"Daejeon Metropolitan City","official_name:ja":"大田広域市","official_name:ko":"대전광역시","official_name:zh":"大田广域市","alt_name:zh":"大田","short_name:ko-Hani":"大田","official_name:ko-Hani":"大田廣域市","official_name:zh-Hant":"大田廣域市","alt:ja":"大田広域市","alt:zh":"大田广域市"},"display_name":"대전광역시, 대한민국","address":{"city":"대전광역시","ISO3166-2-lvl4":"KR-30","country":"대한민국","country_code":"kr"},"population":1537324,"osm_type":"relation","osm_id":2349984,"type":"administrative","location":[127.3849016,36.3497007],"bbox":[127.2463188,36.1833683,127.5596183,36.5002307]}}
{"name":"동두천시","other_names":{"name:ca":"Dongducheon","name:de":"Dongducheon","name:el":"Ντόνγκντουτσον","name:en":"Dongducheon","name:es":"Dongducheon","name:fr":"Dongducheon","name:ja":"東豆川市","name:ko":"동두천시","name:ru":"Тондучхон","name:vi":"Dongducheon","name:zh":"東豆川市","int_name":"Dongducheon","alt_name:vi":"Đông Đậu Xuyên","name:ja-Hira":"とんどぅちょんし","name:ko-Hani":"東豆川市","name:ko-Latn":"Dongducheon-si","name:zh-Hans":"东豆川市","name:zh-Hant":"東豆川市","official_name:en":"Dongducheon City"},"display_name":"동두천시, 경기도, 대한민국","address":{"city":"동두천시","province":"경기도","ISO3166-2-lvl4":"KR-41","country":"대한민국","country_code":"kr"},"population":97071,"osm_type":"node","osm_id":415152911,"type":"city","location":[127.0605175,37.9030856],"bbox":[126.9005175,37.7430856,127.2205175,38.0630856],"border":{"name":"동두천시","other_names":{"name:en":"Dongducheon-si","name:ja":"東豆川市","name:ko":"동두천시","name:zh":"東豆川市","name:ko-Hani":"東豆川市","name:zh-Hans":"东豆川市","name:zh-Hant":"東豆川市","official_name":"동두천시","name:ca":"Dongducheon","name:de":"Dongducheon","name:el":"Ντόνγκντουτσον","name:es":"Dongducheon","name:fr":"Dongducheon","name:ru":"Тондучхон","name:vi":"Dongducheon","int_name":"Dongducheon","alt_name:vi":"Đông Đậu Xuyên","name:ja-Hira":"とんどぅちょんし","name:ko-Latn":"Dongducheon-si","official_name:en":"Dongducheon City","alt:en":"Dongducheon"},"display_name":"동두천시, 경기도, 대한민국","address":{"city":"동두천시","province":"경기도","ISO3166-2-lvl4":"KR-41","country":"대한민국","country_code":"kr"},"population":97071,"osm_type":"relation","osm_id":2409163,"type":"administrative","location":[127.0605175,37.9030856],"bbox":[127.0077461,37.8586046,127.1552958,37.9806495]}}
{"name":"동해시","other_names":{"name:ca":"Donghae","name:de":"Donghae","name:el":"Ντόγχε","name:en":"Donghae","name:es":"Donghae","name:fr":"Donghae","name:ja":"東海市","name:ko":"동해시","name:ru":"Тонхэ","name:uk":"Тонхе","name:zh":"東海市","name:ja-Hira":"とんへし","name:ko-Hani":"東海市","name:ko-Latn":"Donghae-si","name:zh-Hans":"东海市","name:zh-Hant":"東海市","official_name:en":"Donghae City"},"display_name":"동해시, 강원특별자치도, 대한민국","address":{"city":"동해시","province":"강원특별자치도","ISO3166-2-lvl4":"KR-42","country":"대한민국","country_code":"kr"},"population":92824,"osm_type":"node","osm_id":415152982,"type":"city","location":[129.1146302,37.5245142],"bbox":[128.9546302,37.3645142,129.2746302,37.6845142],"border":{"name":"동해시","other_names":{"name:en":"Donghae-si","name:ja":"東海市","name:ko":"동해시","name:zh":"東海市","name:ko-Hani":"東海市","name:zh-Hans":"东海市","name:zh-Hant":"東海市","name:ca":"Donghae","name:de":"Donghae","name:el":"Ντόγχε","name:es":"Donghae","name:fr":"Donghae","name:ru":"Тонхэ","name:uk":"Тонхе","name:ja-Hira":"とんへし","name:ko-Latn":"Donghae-si","official_name:en":"Donghae City","alt:en":"Donghae"},"display_name":"동해시, 강원특별자치도, 대한민국","address":{"city":"동해시","province":"강원특별자치도","ISO3166-2-lvl4":"KR-42","country":"대한민국","country_code":"kr"},"population":92824,"osm_type":"relation","osm_id":2537816,"type":"administrative","location":[129.1146302,37.5245142],"bbox":[128.9576182,37.4267976,129.3699776,37.7825338]}}
{"name":"목포시","other_names":{"name:ca":"Mokpo","name:de":"Mokpo","name:el":"Μόκπο","name:en":"Mokpo","name:es":"Mokpo","name:et":"Mokpo","name:fr":"Mokpo","name:ja":"木浦市","name:ko":"목포시","name:ru":"Мокпхо","name:uk":"Мокпхо","name:zh":"木浦市","int_name":"Mokpo","name:ja_kana":"もくぽ","name:ko-Hani":"木浦市","name:ko-Latn":"Mokpo-si","name:zh-Hant":"木浦市","official_name:en":"Mokpo City"},"display_name":"목포시, 전라남도, 대한민국","address":{"city":"목포시","province":"전라남도","ISO3166-2-lvl4":"KR-46","country":"대한민국","country_code":"kr"},"population":237739,"osm_type":"node","osm_id":257370657,"type":"city","location":[126.3847547,34.7903335],"bbox":[126.2247547,34.6303335,126.5447547,34.9503335],"border":{"name":"목포시","other_names":{"name:en":"Mokpo-si","name:ja":"木浦市","name:ko":"목포시","name:zh":"木浦市","name:ko-Hani":"木浦市","name:zh-Hant":"木浦市","name:ca":"Mokpo","name:de":"Mokpo","name:el":"Μόκπο","name:es":"Mokpo","name:et":"Mokpo","name:fr":"Mokpo","name:ru":"Мокпхо","name:uk":"Мокпхо","int_name":"Mokpo","name:ja_kana":"もくぽ","name:ko-Latn":"Mokpo-si","official_name:en":"Mokpo City","alt:en":"Mokpo"},"display_name":"목포시, 전라남도, 대한민국","address":{"city":"목포시","province":"전라남도","ISO3166-2-lvl4":"KR-46","country":"대한민국","country_code":"kr"},"population":237739,"osm_type":"relation","osm_id":7812645,"type":"administrative","location":[126.3847547,34.7903335],"bbox":[126.2485312,34.7388372,126.4594406,34.8483798]}}
{"name":"문경시","other_names":{"name:ca":"Mungyeong","name:de":"Mungyeong","name:el":"Μούνγκιονγκ","name:en":"Mungyeong","name:es":"Mungyeong","name:fr":"Mungyeong","name:ja":"聞慶市","name:ko":"문경시","name:ru":"Мунгён","name:zh":"聞慶市","int_name":"Mungyeong","name:ja_kana":"むんぎょん","name:ko-Hani":"聞慶市","name:ko-Latn":"Mungyeong-si","name:zh-Hans":"闻庆市","name:zh-Hant":"聞慶市","official_name:en":"Mungyeong City"},"display_name":"문경시, 경상북도, 대한민국","address":{"city":"문경시","province":"경상북도","ISO3166-2-lvl4":"KR-47","country":"대한민국","country_code":"kr"},"population":73294,"osm_type":"node","osm_id":358015543,"type":"city","location":[128.1870612,36.5858541],"bbox":[128.0270612,36.4258541,128.3470612,36.7458541],"border":{"name":"문경시","other_names":{"name:en":"Mungyeong-si","name:ja":"聞慶市","name:ko":"문경시","name:zh":"聞慶市","name:ko-Hani":"聞慶市","name:zh-Hans":"闻庆市","name:zh-Hant":"聞慶市","name:ca":"Mungyeong","name:de":"Mungyeong","name:el":"Μούνγκιονγκ","name:es":"Mungyeong","name:fr":"Mungyeong","name:ru":"Мунгён","int_name":"Mungyeong","name:ja_kana":"むんぎょん","name:ko-Latn":"Mungyeong-si","official_name:en":"Mungyeong City","alt:en":"Mungyeong"},"display_name":"문경시, 경상북도, 대한민국","address":{"city":"문경시","province":"경상북도","ISO3166-2-lvl4":"KR-47","country":"대한민국","country_code":"kr"},"population":73294,"osm_type":"relation","osm_id":7715631,"type":"administrative","location":[128.1870612,36.5858541],"bbox":[127.8742926,36.5143099,128.3694184,36.8723257]}}
{"name":"밀양시","other_names":{"name:ca":"Miryang","name:de":"Miryang","name:el":"Μίριανγκ","name:en":"Miryang","name:es":"Miryang","name:et":"Miryang","name:fr":"Miryang","name:ja":"密陽市","name:ko":"밀양시","name:ru":"Мирян","name:zh":"密陽市","int_name":"Miryang","alt_name:en":"Milyang","name:ja-Hira":"みりゃんし","name:ja_kana":"みりゃん","name:ko-Hani":"密陽市","name:ko-Latn":"Miryang-si","name:zh-Hans":"密阳市","name:zh-Hant":"密陽市","alt_name:ko-Latn":"Milyang","official_name:en":"Miryang City"},"display_name":"밀양시, 경상남도, 대한민국","address":{"city":"밀양시","province":"경상남도","ISO3166-2-lvl4":"KR-48","country":"대한민국","country_code":"kr"},"population":110395,"osm_type":"node","osm_id":358015529,"type":"city","location":[128.7466992,35.503839],"bbox":[128.5866992,35.343839,128.9066992,35.663839],"border":{"name":"밀양시","other_names":{"name:en":"Miryang-si","name:ja":"密陽市","name:ko":"밀양시","name:zh":"密陽市","name:ko-Hani":"密陽市","name:ko-Latn":"Miryang-si","name:zh-Hans":"密阳市","name:zh-Hant":"密陽市","name:ca":"Miryang","name:de":"Miryang","name:el":"Μίριανγκ","name:es":"Miryang","name:et":"Miryang","name:fr":"Miryang","name:ru":"Мирян","int_name":"Miryang","alt_name:ko-Latn":"Milyang","alt_name:en":"Milyang","name:ja-Hira":"みりゃんし","name:ja_kana":"みりゃん","official_name:en":"Miryang City","alt:en":"Miryang"},"display_name":"밀양시, 경상남도, 대한민국","address":{"city":"밀양시","province":"경상남도","ISO3166-2-lvl4":"KR-48","country":"대한민국","country_code":"kr"},"population":110395,"osm_type":"relation","osm_id":7224486,"type":"administrative","location":[128.7466992,35.503839],"bbox":[128.5724402,35.3443694,129.0254953,35.6388138]}}
{"name":"보령시","other_names":{"name:ca":"Boryeong","name:de":"Boryeong","name:el":"Μπόριονγκ","name:en":"Boryeong","name:es":"Boryeong","name:et":"Boryeong","name:fr":"Boryeong","name:ja":"保寧市","name:ko":"보령시","name:ru":"Порён","name:uk":"Порьон","name:zh":"保宁市","int_name":"Boryeong","name:ja_kana":"ぼりょん","name:ko-Hani":"保寧市","name:ko-Latn":"Boryeong-si","name:zh-Hant":"保寧市","official_name:en":"Boryeong City"},"display_name":"보령시, 충청남도, 대한민국","address":{"city":"보령시","province":"충청남도","ISO3166-2-lvl4":"KR-44","country":"대한민국","country_code":"kr"},"population":103620,"osm_type":"node","osm_id":358015515,"type":"city","location":[126.613165,36.33401],"bbox":[126.453165,36.17401,126.773165,36.49401],"border":{"name":"보령시","other_names":{"name:en":"Boryeong-si","name:ja":"保寧市","name:ko":"보령시","name:zh":"保寧市","name:ko-Hani":"保寧市","name:zh-Hans":"保宁市","name:zh-Hant":"保寧市","name:ca":"Boryeong","name:de":"Boryeong","name:el":"Μπόριονγκ","name:es":"Boryeong","name:et":"Boryeong","name:fr":"Boryeong","name:ru":"Порён","name:uk":"Порьон","int_name":"Boryeong","name:ja_kana":"ぼりょん","name:ko-Latn":"Boryeong-si","official_name:en":"Boryeong City","alt:en":"Boryeong","alt:zh":"保宁市"},"display_name":"보령시, 충청남도, 대한민국","address":{"city":"보령시","province":"충청남도","ISO3166-2-lvl4":"KR-44","country":"대한민국","country_code":"kr"},"population":103620,"osm_type":"relation","osm_id":7618926,"type":"administrative","location":[126.613165,36.33401],"bbox":[125.5233697,36.1475742,126.7390966,36.5275526]}}
{"name":"부산광역시","other_names":{"name:af":"Busan","name:ar":"بسان","name:be":"Пусан","name:bg":"Пусан","name:bi":"Busan","name:ca":"Busan","name:cs":"Pusan","name:da":"Busan","name:de":"Busan","name:el":"Μπούσαν","name:en":"Busan","name:eo":"Pusano","name:es":"Busan","name:et":"Busan","name:eu":"Busan","name:fa":"بوسان","name:fi":"Busan","name:fr":"Busan","name:gl":"Busan","name:he":"פוסן","name:hi":"बुसान","name:hr":"Busan","name:hu":"Puszan","name:hy":"Պուսան","name:id":"Busan","name:io":"Busan","name:it":"Busan","name:ja":"釜山広域市","name:jv":"Busan","name:ka":"პუსანი","name:kl":"Busan","name:kn":"ಬುಸಾನ್","name:ko":"부산광역시","name:la":"Pusanum","name:lt":"Busanas","name:lv":"Pusana","name:mi":"Busan","name:ml":"ബുസാൻ","name:mn":"Пүсан","name:mr":"बुसान","name:my":"ဘူဆန်မြို့","name:nl":"Busan","name:nn":"Pusan","name:no":"Busan","name:os":"Пусан","name:pl":"Pusan","name:pt":"Busan","name:ro":"Busan","name:ru":"Пусан","name:sk":"Pusan","name:sr":"Бусан","name:sv":"Pusan","name:sw":"Busan","name:th":"ปูซาน","name:tl":"Busan","name:tr":"Busan","name:uk":"Пусан","name:vi":"Busan","name:zh":"釜山广域市","short_name":"부산","alt_name:zh":"釜山","loc_name:ko":"부산시","name:ko-Hani":"釜山廣域市","name:zh-Hans":"釜山广域市","name:zh-Hant":"釜山廣域市","official_name":"부산광역시","short_name:ko":"부산","official_name:en":"Busan Metropolitan City","official_name:ja":"釜山広域市","official_name:ko":"부산광역시","official_name:zh":"釜山广域市","official_name:ko-Hani":"釜山廣域市","official_name:zh-Hant":"釜山廣域市"},"display_name":"부산광역시, 대한민국","address":{"city":"부산광역시","ISO3166-2-lvl4":"KR-26","country":"대한민국","country_code":"kr"},"population":3455611,"osm_type":"node","osm_id":358015143,"type":"city","location":[129.0752365,35.1799528],"bbox":[128.9152365,35.0199528,129.2352365,35.3399528],"border":{"name":"부산광역시","other_names":{"name:af":"Busan","name:ar":"بسان","name:be":"Пусан","name:bg":"Пусан","name:bi":"Busan","name:ca":"Busan","name:cs":"Pusan","name:da":"Busan","name:de":"Busan","name:el":"Μπούσαν","name:en":"Busan","name:eo":"Pusano","name:es":"Busan","name:et":"Busan","name:eu":"Busan","name:fa":"بوسان","name:fi":"Busan","name:fr":"Busan","name:gl":"Busan","name:he":"פוסן","name:hi":"बुसान","name:hr":"Busan","name:hu":"Puszan","name:hy":"Պուսան","name:id":"Busan","name:io":"Busan","name:it":"Busan","name:ja":"釜山","name:jv":"Busan","name:ka":"პუსანი","name:kl":"Busan","name:ko":"부산광역시","name:la":"Pusanum","name:lt":"Busanas","name:lv":"Pusana","name:mi":"Busan","name:ml":"ബുസാൻ","name:mn":"Пүсан","name:mr":"बुसान","name:my":"ဘူဆန်မြို့","name:nl":"Busan","name:nn":"Pusan","name:no":"Busan","name:os":"Пусан","name:pl":"Pusan","name:pt":"Busan","name:ro":"Busan","name:ru":"Пусан","name:sk":"Pusan","name:sr":"Бусан","name:sv":"Pusan","name:sw":"Busan","name:th":"ปูซาน","name:tl":"Busan","name:tr":"Busan","name:uk":"Пусан","name:vi":"Busan","name:zh":"釜山廣域市","ISO3166-2":"KR-26","short_name":"부산","loc_name:en":"Busan city","loc_name:ja":"釜山市","loc_name:ko":"부산시","loc_name:zh":"釜山市","old_name:en":"Pusan","name:ko-Hani":"釜山廣域市","name:ko-Latn":"Busan","name:zh-Hans":"釜山广域市","name:zh-Hant":"釜山廣域市","official_name":"부산광역시","short_name:ja":"釜山","short_name:ko":"부산","short_name:zh":"釜山","name:kn":"ಬುಸಾನ್","loc_name:ko-Hani":"釜山市","loc_name:ko-Latn":"Busan-si","official_name:en":"Busan Metropolitan City","official_name:ja":"釜山広域市","official_name:ko":"부산광역시","official_name:zh":"釜山广域市","alt_name:zh":"釜山","short_name:ko-Hani":"釜山","short_name:ko-Latn":"Busan","official_name:zh-Hant":"釜山廣域市","official_name:ko-Hani":"釜山廣域市","alt:ja":"釜山広域市","alt:zh":"釜山广域市"},"display_name":"부산광역시, 대한민국","address":{"city":"부산광역시","ISO3166-2-lvl4":"KR-26","country":"대한민국","country_code":"kr"},"population":3586079,"osm_type":"relation","osm_id":2396450,"type":"administrative","location":[129.0752365,35.1799528],"bbox":[128.7568072,34.7252504,129.4889527,35.3892236]}}
{"name":"부천시","other_names":{"name:ca":"Bucheon","name:cs":"Pučchon","name:de":"Bucheon","name:el":"Μπούτσον","name:en":"Bucheon","name:es":"Bucheon","name:et":"Bucheon","name:fr":"Bucheon","name:ja":"富川市","name:ko":"부천시","name:ru":"Пучхон","name:zh":"富川市","int_name":"Bucheon","alt_name:cs":"Bučchon","name:ko-Hani":"富川市","name:ko-Latn":"Bucheon-si","name:zh-Hans":"富川市","name:zh-Hant":"富川市","official_name:en":"Bucheon City"},"display_name":"부천시, 경기도, 대한민국","address":{"city":"부천시","province":"경기도","ISO3166-2-lvl4":"KR-41","country":"대한민국","country_code":"kr"},"population":849361,"osm_type":"node","osm_id":1912558038,"type":"city","location":[126.7660139,37.5014422],"bbox":[126.6060139,37.3414422,126.9260139,37.6614422],"border":{"name":"부천시","other_names":{"name:cs":"Pučchon","name:en":"Bucheon-si","name:ja":"富川市","name:ko":"부천시","name:zh":"富川市","alt_name:cs":"Bučchon","name:ko-Hani":"富川市","name:zh-Hant":"富川市","name:ca":"Bucheon","name:de":"Bucheon","name:el":"Μπούτσον","name:es":"Bucheon","name:et":"Bucheon","name:fr":"Bucheon","name:ru":"Пучхон","int_name":"Bucheon","name:ko-Latn":"Bucheon-si","name:zh-Hans":"富川市","official_name:en":"Bucheon City","alt:en":"Bucheon"},"display_name":"부천시, 경기도, 대한민국","address":{"city":"부천시","province":"경기도","ISO3166-2-lvl4":"KR-41","country":"대한민국","country_code":"kr"},"population":848191,"osm_type":"relation","osm_id":2409162,"type":"administrative","location":[126.7660139,37.5014422],"bbox":[126.7417001,37.4582405,126.8336004,37.5542443]}}
{"name":"사천시","other_names":{"name:ca":"Sacheon","name:de":"Sacheon","name:el":"Σάτσον","name:en":"Sacheon","name:es":"Sacheon","name:et":"Sacheon","name:fr":"Sacheon","name:ja":"泗川市","name:ko":"사천시","name:ru":"Сачхон","name:zh":"泗川市","int_name":"Sacheon","name:ja_kana":"さちょん","name:ko-Hani":"泗川市","name:ko-Latn":"Sacheon-si","name:zh-Hant":"泗川市","official_name:en":"Sacheon City"},"display_name":"사천시, 경상남도, 대한민국","address":{"city":"사천시","province":"경상남도","ISO3166-2-lvl4":"KR-48","country":"대한민국","country_code":"kr"},"population":117500,"osm_type":"node","osm_id":358015533,"type":"city","location":[128.064562,35.003468],"bbox":[127.904562,34.843468,128.224562,35.163468],"border":{"name":"사천시","other_names":{"name:en":"Sacheon-si","name:ja":"泗川市","name:ko":"사천시","name:zh":"泗川市","name:ko-Hani":"泗川市","name:zh-Hant":"泗川市","name:ca":"Sacheon","name:de":"Sacheon","name:el":"Σάτσον","name:es":"Sacheon","name:et":"Sacheon","name:fr":"Sacheon","name:ru":"Сачхон","int_name":"Sacheon","name:ja_kana":"さちょん","name:ko-Latn":"Sacheon-si","official_name:en":"Sacheon City","alt:en":"Sacheon"},"display_name":"사천시, 경상남도, 대한민국","address":{"city":"사천시","province":"경상남도","ISO3166-2-lvl4":"KR-48","country":"대한민국","country_code":"kr"},"population":117500,"osm_type":"relation","osm_id":7830933,"type":"administrative","location":[128.064562,35.003468],"bbox":[127.8789389,34.866215,128.1845571,35.1588834]}}
{"name":"삼척시","other_names":{"name:ca":"Samcheok","name:de":"Samcheok","name:el":"Σάμτσοκ","name:en":"Samcheok","name:es":"Samcheok","name:fr":"Samcheok","name:ja":"三陟市","name:ko":"삼척시","name:ru":"Самчхок","name:zh":"三陟市","int_name":"Samcheok","name:ko-Hani":"三陟市","name:ko-Latn":"Samcheok-si","name:zh-Hant":"三陟市","official_name:en":"Samcheok City"},"display_name":"삼척시, 강원특별자치도, 대한민국","address":{"city":"삼척시","province":"강원특별자치도","ISO3166-2-lvl4":"KR-42","country":"대한민국","country_code":"kr"},"population":68807,"osm_type":"node","osm_id":415154216,"type":"city","location":[129.1652969,37.4498745],"bbox":[129.0052969,37.2898745,129.3252969,37.6098745],"border":{"name":"삼척시","other_names":{"name:en":"Samcheok-si","name:ja":"三陟市","name:ko":"삼척시","name:zh":"三陟市","name:ko-Hani":"三陟市","name:zh-Hant":"三陟市","name:ca":"Samcheok","name:de":"Samcheok","name:el":"Σάμτσοκ","name:es":"Samcheok","name:fr":"Samcheok","name:ru":"Самчхок","int_name":"Samcheok","name:ko-Latn":"Samcheok-si","official_name:en":"Samcheok City","alt:en":"Samcheok"},"display_name":"삼척시, 강원특별자치도, 대한민국","address":{"city":"삼척시","province":"강원특별자치도","ISO3166-2-lvl4":"KR-42","country":"대한민국","country_code":"kr"},"population":68807,"osm_type":"relation","osm_id":2537818,"type":"administrative","location":[129.1652969,37.4498745],"bbox":[128.8459353,37.0386653,129.6243797,37.5941433]}}
{"name":"상주시","other_names":{"name:ca":"Sangju","name:de":"Sangju","name:el":"Σάνγκτζου","name:en":"Sangju","name:es":"Sangju","name:et":"Sangju","name:fr":"Sangju","name:ja":"尚州市","name:ko":"상주시","name:ru":"Санджу","name:zh":"尚州市","int_name":"Sangju","name:ja-Hira":"さんじゅし","name:ja_kana":"さんじゅ","name:ko-Hani":"尚州市","name:ko-Latn":"Sangju-si","name:zh-Hant":"尚州市","official_name:en":"Sangju City"},"display_name":"상주시, 경상북도, 대한민국","address":{"city":"상주시","province":"경상북도","ISO3166-2-lvl4":"KR-47","country":"대한민국","country_code":"kr"},"population":100947,"osm_type":"node","osm_id":358015507,"type":"city","location":[128.1590614,36.4104478],"bbox":[127.9990614,36.2504478,128.3190614,36.5704478],"border":{"name":"상주시","other_names":{"name:en":"Sangju-si","name:ja":"尚州市","name:ko":"상주시","name:zh":"尚州市","name:ko-Hani":"尚州市","name:zh-Hant":"尚州市","name:ca":"Sangju","name:de":"Sangju","name:el":"Σάνγκτζου","name:es":"Sangju","name:et":"Sangju","name:fr":"Sangju","name:ru":"Санджу","int_name":"Sangju","name:ja-Hira":"さんじゅし","name:ja_kana":"さんじゅ","name:ko-Latn":"Sangju-si","official_name:en":"Sangju City","alt:en":"Sangju"},"display_name":"상주시, 경상북도, 대한민국","address":{"city":"상주시","province":"경상북도","ISO3166-2-lvl4":"KR-47","country":"대한민국","country_code":"kr"},"population":100947,"osm_type":"relation","osm_id":7715629,"type":"administrative","location":[128.1590614,36.4104478],"bbox":[127.7964166,36.2374199,128.3411693,36.6567642]}}
{"name":"서귀포시","other_names":{"name:ar":"سوغ-ويبو","name:ca":"Seogwipo","name:de":"Seogwipo","name:el":"Σόγκουιπο","name:en":"Seogwipo","name:eo":"Sogvipo","name:es":"Seogwipo","name:et":"Seogwipo","name:fr":"Seogwipo","name:ja":"西帰浦市","name:ko":"서귀포시","name:nl":"Seogwipo","name:ru":"Согвипхо","name:th":"ซอกวีโพ","name:zh":"西歸浦市","int_name":"Seogwipo","name:ko-Hani":"西歸浦市","name:ko-Latn":"Seogwipo-si","name:zh-Hans":"西归浦市","name:zh-Hant":"西歸浦市","official_name:en":"Seogwipo City"},"display_name":"서귀포시, 제주특별자치도, 대한민국","address":{"city":"서귀포시","province":"제주특별자치도","ISO3166-2-lvl4":"KR-49","country":"대한민국","country_code":"kr"},"population":155641,"osm_type":"node","osm_id":5424418659,"type":"city","location":[126.5610278,33.252845],"bbox":[126.4010278,33.092845,126.7210278,33.412845],"border":{"name":"서귀포시","other_names":{"name:cs":"Sogüpcho","name:el":"Σόγκουιπο","name:en":"Seogwipo-si","name:ja":"西帰浦市","name:ko":"서귀포시","name:zh":"西歸浦市","name:ko-Hani":"西歸浦市","name:zh-Hans":"西归浦市","name:zh-Hant":"西歸浦市","name:ar":"سوغ-ويبو","name:ca":"Seogwipo","name:de":"Seogwipo","name:eo":"Sogvipo","name:es":"Seogwipo","name:et":"Seogwipo","name:fr":"Seogwipo","name:nl":"Seogwipo","name:ru":"Согвипхо","name:th":"ซอกวีโพ","int_name":"Seogwipo","name:ko-Latn":"Seogwipo-si","official_name:en":"Seogwipo City","alt:en":"Seogwipo"},"display_name":"서귀포시, 제주특별자치도, 대한민국","address":{"city":"서귀포시","province":"제주특별자치도","ISO3166-2-lvl4":"KR-49","country":"대한민국","country_code":"kr"},"population":155641,"osm_type":"relation","osm_id":5524156,"type":"administrative","location":[126.5610278,33.252845],"bbox":[125.925417,32.9104556,127.2106286,33.484122]}}
{"name":"서산시","other_names":{"name:ca":"Seosan","name:de":"Seosan","name:el":"Σόσαν","name:en":"Seosan","name:es":"Seosan","name:et":"Seosan","name:fr":"Seosan","name:ja":"瑞山市","name:ko":"서산시","name:ru":"Сосан","name:uk":"Сосан","name:zh":"瑞山市","int_name":"Seosan","name:ja_kana":"そさん","name:ko-Hani":"瑞山市","name:ko-Latn":"Seosan-si","name:zh-Hant":"瑞山市","official_name:en":"Seosan City"},"display_name":"서산시, 충청남도, 대한민국","address":{"city":"서산시","province":"충청남도","ISO3166-2-lvl4":"KR-44","country":"대한민국","country_code":"kr"},"population":175769,"osm_type":"node","osm_id":358015429,"type":"city","location":[126.450317,36.784499],"bbox":[126.290317,36.624499,126.610317,36.944499],"border":{"name":"서산시","other_names":{"name:el":"Σόσαν","name:en":"Seosan-si","name:ja":"瑞山市","name:ko":"서산시","name:zh":"瑞山市","name:ko-Hani":"瑞山市","name:zh-Hant":"瑞山市","name:ca":"Seosan","name:de":"Seosan","name:es":"Seosan","name:et":"Seosan","name:fr":"Seosan","name:ru":"Сосан","name:uk":"Сосан","int_name":"Seosan","name:ja_kana":"そさん","name:ko-Latn":"Seosan-si","official_name:en":"Seosan City","alt:en":"Seosan"},"display_name":"서산시, 충청남도, 대한민국","address":{"city":"서산시","province":"충청남도","ISO3166-2-lvl4":"KR-44","country":"대한민국","country_code":"kr"},"population":175769,"osm_type":"relation","osm_id":7502370,"type":"administrative","location":[126.450317,36.784499],"bbox":[126.3086987,36.5767832,126.6535811,37.0707339]}}
{"name":"서울특별시","other_names":{"name:ab":"Сеул","name:af":"Seoel","name:am":"ሶል","name:an":"Seúl","name:ar":"سول","name:as":"ছিউল","name:az":"Seul","name:ba":"Сеул","name:be":"Сеул","name:bg":"Сеул","name:bh":"सियोल","name:bi":"Seoul","name:bn":"সিওল","name:bo":"སེ་ཨུལ།","name:br":"Seoul","name:bs":"Seul","name:ca":"Seül","name:ce":"Сеул","name:co":"Seul","name:cs":"Soul","name:cv":"Сеул","name:cy":"Seoul","name:da":"Seoul","name:de":"Seoul","name:el":"Σεούλ","name:en":"Seoul","name:eo":"Seulo","name:es":"Seúl","name:et":"Soul","name:eu":"Seul","name:fa":"سئول","name:fi":"Soul","name:fo":"Seoul","name:fr":"Séoul","name:fy":"Seoel","name:ga":"Súl","name:gd":"Seoul","name:gl":"Seúl","name:gn":"Seúlu","name:ha":"Seoul","name:he":"סיאול","name:hi":"सियोल","name:hr":"Seul","name:ht":"Seoul","name:hu":"Szöul","name:hy":"Սեուլ","name:ia":"Seoul","name:id":"Seoul","name:ie":"Seoul","name:ik":"Suulaq","name:io":"Seoul","name:is":"Seúl","name:it":"Seul","name:ja":"ソウル特別市","name:jv":"Seoul","name:ka":"სეული","name:kg":"Seoul","name:kk":"Сеул","name:km":"សេអ៊ូល","name:kn":"ಸೌಲ್","name:ko":"서울특별시","name:ks":"سیٛول","name:ku":"Sêûl","name:kw":"Seoul","name:ky":"Сеул","name:la":"Seulum","name:lb":"Seoul","name:li":"Seoel","name:ln":"Sɔul","name:lo":"ໂຊລ","name:lt":"Seulas","name:lv":"Seula","name:mg":"Seoul","name:mi":"Seoul","name:mk":"Сеул","name:ml":"സോൾ","name:mn":"Сөүл","name:mr":"सोल","name:ms":"Seoul","name:mt":"Seoul","name:my":"ဆိုးလ်မြို့","name:nb":"Seoul","name:ne":"सियोल","name:nl":"Seoel","name:nn":"Seoul","name:ny":"Seoul","name:oc":"Seol","name:or":"ସିଓଲ","name:os":"Сеул","name:pa":"ਸਿਓਲ","name:pl":"Seul","name:ps":"سیول","name:pt":"Seul","name:qu":"Siul","name:rm":"Seoul","name:ro":"Seul","name:ru":"Сеул","name:sc":"Seùl","name:sd":"سيئول","name:si":"‍සෝල්","name:sk":"Soul","name:sl":"Seul","name:sn":"Seoul","name:so":"Seyul","name:sq":"Seuli","name:sr":"Сеул","name:su":"Seoul","name:sv":"Seoul","name:sw":"Seoul","name:ta":"சியோல்","name:te":"సియోల్","name:tg":"Сеул","name:th":"โซล","name:tk":"Seul","name:tl":"Seoul","name:tr":"Seul","name:tt":"Seul","name:uk":"Сеул","name:ur":"سؤل","name:uz":"Seul","name:vi":"Seoul","name:vo":"Söul","name:yi":"סעאל","name:yo":"Seoul","name:za":"Soujwj","name:zh":"首尔特别市","name:arz":"سول","name:ast":"Seúl","name:bjn":"Soul","name:cdo":"Siū-ék","name:ckb":"سیئۆل","name:crh":"Seul","name:csb":"Seul","name:diq":"Seul","name:dsb":"Soul","name:ext":"Seúl","name:gag":"Seul","name:gan":"首爾","name:jbo":".sol.","name:kab":"Seyul","name:lzh":"首爾特別市","name:mhr":"Сеул","name:nah":"Seul","name:nan":"Seoul Te̍k-pia̍t-chhī","name:pnb":"سیول","name:rue":"Соул","name:sah":"Сеул","name:szl":"Seul","name:tpi":"Sol","name:vro":"Sŏul","name:wuu":"首爾特別市","name:yue":"首爾特別市","short_name":"서울","alt_name:ar":"سيول;سيئول","alt_name:ur":"سیول","alt_name:vi":"Xơ-un","loc_name:ko":"서울시","old_name:vi":"Thủ Nhĩ","old_name:zh":"汉城 / 漢城","name:bat-smg":"Seuls","name:ko-Hani":"서울特別市","name:zh-Hans":"首尔特别市","name:zh-Hant":"首爾特別市","name:roa-tara":"Seul","official_name":"서울특별시","short_name:ko":"서울","name:be-tarask":"Сэул","official_name:ar":"مدينة سول الخاصة","official_name:en":"Seoul Special City","official_name:ko":"서울특별시","official_name:zh":"首爾特別市","old_name:zh-Hans":"汉城","old_name:zh-Hant":"漢城","official_name:ko-Hani":"서울特別市","official_name:ko-Latn":"Seoul-teukbyeolsi"},"display_name":"서울특별시, 대한민국","address":{"city":"서울특별시","ISO3166-2-lvl4":"KR-11","country":"대한민국","country_code":"kr"},"population":9635445,"osm_type":"node","osm_id":1912365631,"type":"city","location":[126.9782914,37.5666791],"bbox":[126.8182914,37.4066791,127.1382914,37.7266791],"border":{"name":"서울특별시","other_names":{"ref":"01","name:af":"Seoel","name:am":"ሶል","name:an":"Seúl","name:ar":"سول","name:az":"Seul","name:ba":"Сеул","name:be":"Сеул","name:bg":"Сеул","name:bh":"सियोल","name:bn":"সিওল","name:bo":"སེ་ཨུལ།","name:bs":"Seul","name:ca":"Seül","name:cs":"Soul","name:cv":"Сеул","name:cy":"Seoul","name:de":"Seoul","name:el":"Σεούλ","name:en":"Seoul","name:eo":"Seulo","name:es":"Seúl","name:et":"Soul","name:eu":"Seul","name:fa":"سئول","name:fi":"Soul","name:fr":"Séoul","name:gl":"Seúl","name:he":"סיאול","name:hi":"सियोल","name:hr":"Seul","name:hu":"Szöul","name:hy":"Սեուլ","name:is":"Seúl","name:it":"Seul","name:ja":"ソウル","name:ka":"სეული","name:kk":"Сеул","name:km":"សេអ៊ូល","name:kn":"ಸೌಲ್","name:ko":"서울특별시","name:ku":"Sêûl","name:ky":"Сеул","name:la":"Seulum","name:lt":"Seulas","name:lv":"Seula","name:mk":"Сеул","name:ml":"സോൾ","name:mn":"Сөүл","name:mr":"सोल","name:my":"ဆိုးလ်မြို့","name:nl":"Seoel","name:oc":"Seol","name:os":"Сеул","name:pl":"Seul","name:pt":"Seul","name:qu":"Siul","name:ro":"Seul","name:ru":"Сеул","name:sk":"Soul","name:sl":"Seul","name:sr":"Сеул","name:sv":"Seoul","name:ta":"சியோல்","name:tg":"Сеул","name:th":"โซล","name:tk":"Seul","name:tr":"Seul","name:uk":"Сеул","name:ur":"سؤل","name:uz":"Seul","name:vi":"Seoul","name:vo":"Söul","name:yi":"סעאל","name:arz":"سول","name:ast":"Seúl","name:bjn":"Soul","name:cdo":"Siū-ék","name:ckb":"سۆل","name:crh":"Seul","name:csb":"Seul","name:diq":"Seul","name:dsb":"Soul","name:ext":"Seúl","name:gag":"Seul","name:gan":"首爾","name:jbo":".sol.","name:lzh":"首爾","name:mhr":"Сеул","name:nah":"Seul","name:nan":"Seoul Te̍k-pia̍t-chhī","name:pnb":"سیول","name:rue":"Соул","name:sah":"Сеул","name:szl":"Seul","name:tpi":"Sol","name:vro":"Sŏul","name:wuu":"首尔","name:yue":"首爾","ISO3166-2":"KR-11","short_name":"서울","alt_name:ar":"سيول;سيئول","alt_name:ur":"سیول","alt_name:vi":"Xơ-un","old_name:vi":"Thủ Nhĩ","old_name:zh":"汉城 / 漢城","name:bat-smg":"Seuls","name:ko-Latn":"Seoul","name:zh-Hans":"首尔特别市","name:zh-Hant":"首爾特別市","name:roa-tara":"Seul","official_name":"서울특별시","short_name:ko":"서울","short_name:zh":"首尔","name:ab":"Сеул","name:as":"ছিউল","name:bi":"Seoul","name:br":"Seoul","name:ce":"Сеул","name:co":"Seul","name:da":"Seoul","name:fo":"Seoul","name:fy":"Seoel","name:ga":"Súl","name:gd":"Seoul","name:gn":"Seúlu","name:ha":"Seoul","name:ht":"Seoul","name:ia":"Seoul","name:id":"Seoul","name:ie":"Seoul","name:ik":"Suulaq","name:io":"Seoul","name:jv":"Seoul","name:kg":"Seoul","name:ks":"سیٛول","name:kw":"Seoul","name:lb":"Seoul","name:li":"Seoel","name:ln":"Sɔul","name:lo":"ໂຊລ","name:mg":"Seoul","name:mi":"Seoul","name:ms":"Seoul","name:mt":"Seoul","name:nb":"Seoul","name:ne":"सियोल","name:nn":"Seoul","name:ny":"Seoul","name:or":"ସିଓଲ","name:pa":"ਸਿਓਲ","name:ps":"سیول","name:rm":"Seoul","name:sc":"Seùl","name:sd":"سيئول","name:si":"‍සෝල්","name:sn":"Seoul","name:so":"Seyul","name:sq":"Seuli","name:su":"Seoul","name:sw":"Seoul","name:te":"సియోల్","name:tl":"Seoul","name:tt":"Seul","name:yo":"Seoul","name:za":"Soujwj","name:zh":"首尔特别市","name:be-tarask":"Сэул","name:kab":"Seyul","official_name:ar":"مدينة سول الخاصة","official_name:en":"Seoul Special City","official_name:ko":"서울특별시","official_name:zh":"首尔特别市","old_name:zh-Hans":"汉城","old_name:zh-Hant":"漢城","loc_name:ko":"서울시","name:ko-Hani":"서울特別市","official_name:ko-Kore":"서울特別市","official_name:ko-Latn":"Seoul-teukbyeolsi","official_name:zh-Hant":"首爾特別市","_place_official_name:zh":"首爾特別市","official_name:ko-Hani":"서울特別市","alt:ja":"ソウル特別市","alt:ckb":"سیئۆل","alt:lzh":"首爾特別市","alt:wuu":"首爾特別市","alt:yue":"首爾特別市"},"display_name":"서울특별시, 대한민국","address":{"city":"서울특별시","ISO3166-2-lvl4":"KR-11","country":"대한민국","country_code":"kr"},"population":9509458,"osm_type":"relation","osm_id":2297418,"type":"administrative","location":[126.9782914,37.5666791],"bbox":[126.7644328,37.4285424,127.1837702,37.7014794]}}
{"name":"성남시","other_names":{"name:ca":"Seongnam","name:de":"Seongnam","name:el":"Σόνγκναμ","name:en":"Seongnam","name:es":"Seongnam","name:et":"Seongnam","name:fr":"Seongnam","name:ja":"城南市","name:ko":"성남시","name:lt":"Songnamas","name:ru":"Соннам","name:zh":"城南市","int_name":"Seongnam","name:ko-Hani":"城南市","name:ko-Latn":"Seongnam-si","name:zh-Hans":"城南市","name:zh-Hant":"城南市","official_name:en":"Seongnam City"},"display_name":"성남시, 경기도, 대한민국","address":{"city":"성남시","province":"경기도","ISO3166-2-lvl4":"KR-41","country":"대한민국","country_code":"kr"},"population":967510,"osm_type":"node","osm_id":257363469,"type":"city","location":[127.1262092,37.4201556],"bbox":[126.9662092,37.2601556,127.2862092,37.5801556],"border":{"name":"성남시","other_names":{"name:en":"Seongnam-si","name:fr":"Seongnam","name:ja":"城南市","name:ko":"성남시","name:zh":"城南市","alt_name":"Sŏngnam","name:ko-Hani":"城南市","name:zh-Hant":"城南市","name:ca":"Seongnam","name:de":"Seongnam","name:el":"Σόνγκναμ","name:es":"Seongnam","name:et":"Seongnam","name:lt":"Songnamas","name:ru":"Соннам","int_name":"Seongnam","name:ko-Latn":"Seongnam-si","name:zh-Hans":"城南市","official_name:en":"Seongnam City","alt:en":"Seongnam"},"display_name":"성남시, 경기도, 대한민국","address":{"city":"성남시","province":"경기도","ISO3166-2-lvl4":"KR-41","country":"대한민국","country_code":"kr"},"population":967510,"osm_type":"relation","osm_id":2409180,"type":"administrative","location":[127.1262092,37.4201556],"bbox":[127.0270715,37.3333872,127.1959614,37.4748116]}}
{"name":"세종특별자치시","other_names":{"name:ca":"Secheong","name:cs":"Sedžong","name:de":"Sejong","name:el":"Σέτζονγκ","name:en":"Sejong","name:es":"Sejong","name:et":"Sejong","name:fr":"Sejong","name:ja":"世宗特別自治市","name:ko":"세종특별자치시","name:lt":"Sedžongas","name:ru":"Седжон","name:sr":"Сеџонг","name:th":"เมืองเซจง","name:zh":"世宗特别自治市","int_name":"Sejong","ISO3166-2":"KR-50","short_name":"세종","alt_name:en":"Sejong Special Autonomous City","name:ko-Hani":"世宗特別自治市","name:sr-Latn":"Sedžong","name:zh-Hans":"世宗特别自治市","name:zh-Hant":"世宗特別自治市","official_name":"세종특별자치시","short_name:ko":"세종","official_name:en":"Sejong Metropolitan Autonomous City","official_name:ja":"世宗特別自治市","official_name:ko":"세종특별자치시","official_name:sr":"Сеџонг метрополски аутономни град","official_name:zh":"世宗特别自治市","official_name:ko-Hani":"世宗特別自治市"},"display_name":"세종특별자치시, 대한민국","address":{"city":"세종특별자치시","ISO3166-2-lvl15":"KR-50","ISO3166-2-lvl4":"KR-50","country":"대한민국","country_code":"kr"},"population":350854,"osm_type":"node","osm_id":358896776,"type":"city","location":[127.289,36.4799999],"bbox":[127.129,36.3199999,127.449,36.6399999],"border":{"name":"세종특별자치시","other_names":{"name:bi":"Sejong","name:cs":"Sedžong","name:de":"Sejong","name:el":"Σέτζονγκ","name:en":"Sejong","name:es":"Sejong","name:fr":"Sejong","name:it":"Sejong","name:ja":"世宗特別自治市","name:ko":"세종특별자치시","name:lt":"Sedžongas","name:ms":"Sejong","name:nl":"Sejong","name:no":"Sejong","name:ru":"Седжон","name:sv":"Sejong","name:th":"เมืองเซจง","name:vi":"Sejong","name:zh":"世宗特别自治市","ISO3166-2":"KR-50","short_name":"세종","loc_name:en":"Sejong Special Autonomous City","loc_name:ko":"세종시","name:ko-Hani":"世宗特別自治市","name:zh-Hans":"世宗特别自治市","name:zh-Hant":"世宗特別自治市","official_name":"세종특별자치시","short_name:ko":"세종","short_name:zh":"世宗","name:ca":"Secheong","name:et":"Sejong","name:sr":"Сеџонг","int_name":"Sejong","official_name:en":"Sejong Metropolitan Autonomous City","official_name:ja":"世宗特別自治市","official_name:ko":"세종특별자치시","official_name:zh":"世宗特別自治市","alt_name:en":"Sejong Special Autonomous City","short_name:ko-Hani":"世宗","name:sr-Latn":"Sedžong","official_name:ko-Hani":"世宗特別自治市","official_name:sr":"Сеџонг метрополски аутономни град","_place_official_name:zh":"世宗特别自治市"},"display_name":"세종특별자치시, 대한민국","address":{"city":"세종특별자치시","ISO3166-2-lvl4":"KR-50","country":"대한민국","country_code":"kr"},"population":333217,"osm_type":"relation","osm_id":2349795,"type":"administrative","location":[127.289,36.4799999],"bbox":[127.1277301,36.4067584,127.4108036,36.7338219]}}
{"name":"속초시","other_names":{"name:ca":"Sokcho","name:de":"Sokcho","name:el":"Σόκτσο","name:en":"Sokcho","name:es":"Sokcho","name:fr":"Sokcho","name:ja":"束草市","name:ko":"속초시","name:ru":"Сокчхо","name:uk":"Сокчхо","name:vi":"Sokcho","name:zh":"束草市","int_name":"Sokcho","alt_name:vi":"Thúc Thảo","name:ko-Hani":"束草市","name:ko-Latn":"Sokcho-si","name:zh-Hant":"束草市","official_name:en":"Sokcho City"},"display_name":"속초시, 강원특별자치도, 대한민국","address":{"city":"속초시","province":"강원특별자치도","ISO3166-2-lvl4":"KR-42","country":"대한민국","country_code":"kr"},"population":81537,"osm_type":"node","osm_id":415151931,"type":"city","location":[128.5913424,38.2069574],"bbox":[128.4313424,38.0469574,128.7513424,38.3669574],"border":{"name":"속초시","other_names":{"name:en":"Sokcho-si","name:ja":"束草市","name:ko":"속초시","name:zh":"束草市","name:ko-Hani":"束草市","name:zh-Hant":"束草市","name:ca":"Sokcho","name:de":"Sokcho","name:el":"Σόκτσο","name:es":"Sokcho","name:fr":"Sokcho","name:ru":"Сокчхо","name:uk":"Сокчхо","name:vi":"Sokcho","int_name":"Sokcho","alt_name:vi":"Thúc Thảo","name:ko-Latn":"Sokcho-si","official_name:en":"Sokcho City","alt:en":"Sokcho"},"display_name":"속초시, 강원특별자치도, 대한민국","address":{"city":"속초시","province":"강원특별자치도","ISO3166-2-lvl4":"KR-42","country":"대한민국","country_code":"kr"},"population":81537,"osm_type":"relation","osm_id":2517798,"type":"administrative","location":[128.5913424,38.2069574],"bbox":[128.4211401,38.1189598,128.8595719,38.3237617]}}
{"name":"수원시","other_names":{"name:ca":"Suwon","name:de":"Suwon","name:el":"Σούουον","name:en":"Suwon","name:es":"Suwon","name:et":"Suwon","name:eu":"Suwon","name:fi":"Suwon","name:fr":"Suwon","name:ja":"水原市","name:ko":"수원시","name:lt":"Suvonas","name:pt":"Suwon","name:ru":"Сувон","name:th":"ซูว็อน","name:uk":"Сувон","name:zh":"水原市","int_name":"Suwon","name:ko-Hani":"水原市","name:ko-Latn":"Suwon-si","name:zh-Hans":"水原市","name:zh-Hant":"水原市","official_name:en":"Suwon City"},"display_name":"수원시, 경기도, 대한민국","address":{"city":"수원시","province":"경기도","ISO3166-2-lvl4":"KR-41","country":"대한민국","country_code":"kr"},"population":1203000,"osm_type":"node","osm_id":257764593,"type":"city","location":[127.0287472,37.2633325],"bbox":[126.8687472,37.1033325,127.1887472,37.4233325],"border":{"name":"수원시","other_names":{"name:en":"Suwon-si","name:ja":"水原市","name:ko":"수원시","name:ru":"Сувон","name:zh":"水原市","name:ko-Hani":"水原市","name:zh-Hant":"水原市","name:ca":"Suwon","name:de":"Suwon","name:el":"Σούουον","name:es":"Suwon","name:et":"Suwon","name:eu":"Suwon","name:fi":"Suwon","name:fr":"Suwon","name:lt":"Suvonas","name:pt":"Suwon","name:th":"ซูว็อน","name:uk":"Сувон","int_name":"Suwon","official_name:en":"Suwon-si","name:ko-Latn":"Suwon-si","name:zh-Hans":"水原市","_place_official_name:en":"Suwon City","alt:en":"Suwon"},"display_name":"수원시, 경기도, 대한민국","address":{"city":"수원시","province":"경기도","ISO3166-2-lvl4":"KR-41","country":"대한민국","country_code":"kr"},"population":1203000,"osm_type":"relation","osm_id":2409182,"type":"administrative","location":[127.0287472,37.2633325],"bbox":[126.9269693,37.2245287,127.0898711,37.3510468]}}
{"name":"순천시","other_names":{"name:ca":"Suncheon","name:de":"Suncheon","name:el":"Σούντσον","name:en":"Suncheon","name:es":"Suncheon","name:et":"Suncheon","name:eu":"Suncheon","name:fr":"Suncheon","name:ja":"順天市","name:ko":"순천시","name:ru":"Сунчхон","name:th":"ซุนช็อน","name:uk":"Сунчхон","name:zh":"順天市","int_name":"Suncheon","name:ja_kana":"スンチョンし","name:ko-Hani":"順天市","name:ko-Latn":"Suncheon-si","name:zh-Hans":"顺天市","name:zh-Hant":"順天市","official_name:en":"Suncheon City"},"display_name":"순천시, 전라남도, 대한민국","address":{"city":"순천시","province":"전라남도","ISO3166-2-lvl4":"KR-46","country":"대한민국","country_code":"kr"},"population":281071,"osm_type":"node","osm_id":358015319,"type":"city","location":[127.4872992,34.9505457],"bbox":[127.3272992,34.7905457,127.6472992,35.1105457],"border":{"name":"순천시","other_names":{"name:en":"Suncheon-si","name:ja":"順天市","name:ko":"순천시","name:zh":"順天市","name:ko-Hani":"順天市","name:zh-Hans":"顺天市","name:zh-Hant":"順天市","name:ca":"Suncheon","name:de":"Suncheon","name:el":"Σούντσον","name:es":"Suncheon","name:et":"Suncheon","name:eu":"Suncheon","name:fr":"Suncheon","name:ru":"Сунчхон","name:th":"ซุนช็อน","name:uk":"Сунчхон","int_name":"Suncheon","name:ja_kana":"スンチョンし","name:ko-Latn":"Suncheon-si","official_name:en":"Suncheon City","alt:en":"Suncheon"},"display_name":"순천시, 전라남도, 대한민국","address":{"city":"순천시","province":"전라남도","ISO3166-2-lvl4":"KR-46","country":"대한민국","country_code":"kr"},"population":281071,"osm_type":"relation","osm_id":7680384,"type":"administrative","location":[127.4872992,34.9505457],"bbox":[127.1763181,34.8121123,127.5936308,35.1880844]}}
{"name":"시흥시","other_names":{"name:ca":"Siheung","name:de":"Siheung","name:el":"Σίχουνγκ","name:en":"Siheung","name:es":"Siheung","name:et":"Siheung","name:eu":"Siheung","name:fr":"Siheung","name:ja":"始興市","name:ko":"시흥시","name:ru":"Сихын","name:zh":"始興市","int_name":"Siheung","name:ko-Hani":"始興市","name:ko-Latn":"Siheung-si","name:zh-Hans":"始兴市","name:zh-Hant":"始興市","official_name:en":"Siheung City"},"display_name":"시흥시, 경기도, 대한민국","address":{"city":"시흥시","province":"경기도","ISO3166-2-lvl4":"KR-41","country":"대한민국","country_code":"kr"},"population":398389,"osm_type":"node","osm_id":1912558057,"type":"city","location":[126.8032255,37.3798891],"bbox":[126.6432255,37.2198891,126.9632255,37.5398891],"border":{"name":"시흥시","other_names":{"name:en":"Siheung-si","name:ja":"始興市","name:ko":"시흥시","name:zh":"始興市","name:ko-Hani":"始興市","name:zh-Hans":"始兴市","name:zh-Hant":"始興市","name:ca":"Siheung","name:de":"Siheung","name:el":"Σίχουνγκ","name:es":"Siheung","name:et":"Siheung","name:eu":"Siheung","name:fr":"Siheung","name:ru":"Сихын","int_name":"Siheung","name:ko-Latn":"Siheung-si","official_name:en":"Siheung City","alt:en":"Siheung"},"display_name":"시흥시, 경기도, 대한민국","address":{"city":"시흥시","province":"경기도","ISO3166-2-lvl4":"KR-41","country":"대한민국","country_code":"kr"},"population":398389,"osm_type":"relation","osm_id":2409181,"type":"administrative","location":[126.8032255,37.3798891],"bbox":[126.6228963,37.3025631,126.8823378,37.4723932]}}
{"name":"아산시","other_names":{"name:ca":"Asan","name:de":"Asan","name:el":"Άσαν","name:en":"Asan","name:es":"Asan","name:et":"Asan","name:fr":"Asan","name:ja":"牙山市","name:ko":"아산시","name:ru":"Асан","name:zh":"牙山市","int_name":"Asan","name:ko-Hani":"牙山市","name:ko-Latn":"Asan-si","name:zh-Hant":"牙山市","official_name:en":"Asan City"},"display_name":"아산시, 충청남도, 대한민국","address":{"city":"아산시","province":"충청남도","ISO3166-2-lvl4":"KR-44","country":"대한민국","country_code":"kr"},"population":324580,"osm_type":"node","osm_id":415157893,"type":"city","location":[127.0026769,36.7899498],"bbox":[126.8426769,36.6299498,127.1626769,36.9499498],"border":{"name":"아산시","other_names":{"name:en":"Asan-si","name:ja":"牙山市","name:ko":"아산시","name:zh":"牙山市","name:ko-Hani":"牙山市","name:zh-Hant":"牙山市","name:ca":"Asan","name:de":"Asan","name:el":"Άσαν","name:es":"Asan","name:et":"Asan","name:fr":"Asan","name:ru":"Асан","int_name":"Asan","name:ko-Latn":"Asan-si","official_name:en":"Asan City","alt:en":"Asan"},"display_name":"아산시, 충청남도, 대한민국","address":{"city":"아산시","province":"충청남도","ISO3166-2-lvl4":"KR-44","country":"대한민국","country_code":"kr"},"population":324580,"osm_type":"relation","osm_id":2546883,"type":"administrative","location":[127.0026769,36.7899498],"bbox":[126.8279606,36.6486462,127.1196697,36.9425445]}}
{"name":"안동시","other_names":{"name:be":"Андон","name:ca":"Andong","name:de":"Andong","name:el":"Άντονγκ","name:en":"Andong","name:es":"Andong","name:et":"Andong","name:fr":"Andong","name:ja":"安東市","name:ko":"안동시","name:ru":"Андон","name:uk":"Андон","name:zh":"安东市","int_name":"Andong","name:ko-Hani":"安東市","name:ko-Latn":"Andong-si","name:zh-Hant":"安東市","official_name:en":"Andong City"},"display_name":"안동시, 경상북도, 대한민국","address":{"city":"안동시","province":"경상북도","ISO3166-2-lvl4":"KR-47","country":"대한민국","country_code":"kr"},"population":166274,"osm_type":"node","osm_id":257370655,"type":"city","location":[128.7260798,36.5634886],"bbox":[128.5660798,36.4034886,128.8860798,36.7234886],"border":{"name":"안동시","other_names":{"name:en":"Andong-si","name:ja":"安東市","name:ko":"안동시","name:zh":"安東市","name:ko-Hani":"安東市","name:zh-Hans":"安东市","name:zh-Hant":"安東市","name:be":"Андон","name:ca":"Andong","name:de":"Andong","name:el":"Άντονγκ","name:es":"Andong","name:et":"Andong","name:fr":"Andong","name:ru":"Андон","name:uk":"Андон","int_name":"Andong","name:ko-Latn":"Andong-si","official_name:en":"Andong City","alt:en":"Andong","alt:zh":"安东市"},"display_name":"안동시, 경상북도, 대한민국","address":{"city":"안동시","province":"경상북도","ISO3166-2-lvl4":"KR-47","country":"대한민국","country_code":"kr"},"population":166274,"osm_type":"relation","osm_id":7721487,"type":"administrative","location":[128.7260798,36.5634886],"bbox":[128.4291939,36.2950662,129.0009927,36.8230788]}}
{"name":"안산시","other_names":{"name:ca":"Ansan","name:de":"Ansan","name:el":"Άνσαν","name:en":"Ansan","name:es":"Ansan","name:et":"Ansan","name:eu":"Ansan","name:fr":"Ansan","name:it":"Ansan","name:ja":"安山市","name:ko":"안산시","name:ru":"Ансан","name:zh":"安山市","int_name":"Ansan","name:ko-Hani":"安山市","name:ko-Latn":"Ansan-si","name:zh-Hans":"安山市","name:zh-Hant":"安山市","official_name:en":"Ansan City"},"display_name":"안산시, 경기도, 대한민국","address":{"city":"안산시","province":"경기도","ISO3166-2-lvl4":"KR-41","country":"대한민국","country_code":"kr"},"population":677710,"osm_type":"node","osm_id":257372341,"type":"city","location":[126.8308604,37.3217152],"bbox":[126.6708604,37.1617152,126.9908604,37.4817152],"border":{"name":"안산시","other_names":{"name:en":"Ansan","name:ja":"安山市","name:ko":"안산시","name:zh":"安山市","name:ko-Hani":"安山市","name:zh-Hant":"安山市","name:ca":"Ansan","name:de":"Ansan","name:el":"Άνσαν","name:es":"Ansan","name:et":"Ansan","name:eu":"Ansan","name:fr":"Ansan","name:it":"Ansan","name:ru":"Ансан","int_name":"Ansan","name:ko-Latn":"Ansan-si","name:zh-Hans":"安山市","official_name:en":"Ansan City"},"display_name":"안산시, 경기도, 대한민국","address":{"city":"안산시","province":"경기도","ISO3166-2-lvl4":"KR-41","country":"대한민국","country_code":"kr"},"population":677710,"osm_type":"relation","osm_id":2409159,"type":"administrative","location":[126.8308604,37.3217152],"bbox":[126.2779479,37.056194,126.9395479,37.3768847]}}
{"name":"안성시","other_names":{"name:ca":"Anseong","name:de":"Anseong","name:el":"Άνσονγκ","name:en":"Anseong","name:es":"Anseong","name:et":"Anseong","name:fr":"Anseong","name:ja":"安城市","name:ko":"안성시","name:ru":"Ансон","name:zh":"安城市","int_name":"Anseong","name:ko-Hani":"安城市","name:ko-Latn":"Anseong-si","name:zh-Hant":"安城市","official_name:en":"Anseong City"},"display_name":"안성시, 경기도, 대한민국","address":{"city":"안성시","province":"경기도","ISO3166-2-lvl4":"KR-41","country":"대한민국","country_code":"kr"},"population":181319,"osm_type":"node","osm_id":358015396,"type":"city","location":[127.279971,37.007773],"bbox":[127.119971,36.847773,127.439971,37.167773],"border":{"name":"안성시","other_names":{"name:en":"Anseong-si","name:ja":"安城市","name:ko":"안성시","name:zh":"安城市","name:ko-Hani":"安城市","name:zh-Hant":"安城市","name:ca":"Anseong","name:de":"Anseong","name:el":"Άνσονγκ","name:es":"Anseong","name:et":"Anseong","name:fr":"Anseong","name:ru":"Ансон","int_name":"Anseong","name:ko-Latn":"Anseong-si","official_name:en":"Anseong City","alt:en":"Anseong"},"display_name":"안성시, 경기도, 대한민국","address":{"city":"안성시","province":"경기도","ISO3166-2-lvl4":"KR-41","country":"대한민국","country_code":"kr"},"population":181319,"osm_type":"relation","osm_id":2409160,"type":"administrative","location":[127.279971,37.007773],"bbox":[127.1027132,36.893775,127.518128,37.155522]}}
{"name":"안양시","other_names":{"name:ca":"Anyang","name:de":"Anyang","name:el":"Άνιανγκ","name:en":"Anyang","name:es":"Anyang","name:et":"Anyang","name:fr":"Anyang","name:ja":"安養市","name:ko":"안양시","name:lt":"Anjangas","name:ru":"Анян","name:zh":"安养市","int_name":"Anyang","name:ko-Hani":"安養市","name:ko-Latn":"Anyang-si","name:zh-Hans":"安养市","name:zh-Hant":"安養市","official_name:en":"Anyang City"},"display_name":"안양시, 경기도, 대한민국","address":{"city":"안양시","province":"경기도","ISO3166-2-lvl4":"KR-41","country":"대한민국","country_code":"kr"},"population":587764,"osm_type":"node","osm_id":1912558035,"type":"city","location":[126.9570605,37.3938528],"bbox":[126.7970605,37.2338528,127.1170605,37.5538528],"border":{"name":"안양시","other_names":{"name:en":"Anyang-si","name:ja":"安養市","name:ko":"안양시","name:zh":"安養市","name:ko-Hani":"安養市","name:zh-Hans":"安养市","name:zh-Hant":"安養市","name:ca":"Anyang","name:de":"Anyang","name:el":"Άνιανγκ","name:es":"Anyang","name:et":"Anyang","name:fr":"Anyang","name:lt":"Anjangas","name:ru":"Анян","int_name":"Anyang","name:ko-Latn":"Anyang-si","official_name:en":"Anyang City","alt:en":"Anyang","alt:zh":"安养市"},"display_name":"안양시, 경기도, 대한민국","address":{"city":"안양시","province":"경기도","ISO3166-2-lvl4":"KR-41","country":"대한민국","country_code":"kr"},"population":587764,"osm_type":"relation","osm_id":2409161,"type":"administrative","location":[126.9570605,37.3938528],"bbox":[126.8700146,37.3567968,126.9829684,37.4501969]}}
{"name":"양산시","other_names":{"name:ca":"Yangsan","name:de":"Yangsan","name:el":"Γιάνγκσαν","name:en":"Yangsan","name:es":"Yangsan","name:et":"Yangsan","name:fr":"Yangsan","name:ja":"梁山市","name:ko":"양산시","name:ru":"Янсан","name:zh":"梁山市","int_name":"Yangsan","name:ja-Hira":"やんさん","name:ko-Hani":"梁山市","name:ko-Latn":"Yangsan","name:zh-Hant":"梁山市","official_name:en":"Yangsan City"},"display_name":"양산시, 경상남도, 대한민국","address":{"city":"양산시","province":"경상남도","ISO3166-2-lvl4":"KR-48","country":"대한민국","country_code":"kr"},"population":335474,"osm_type":"node","osm_id":358015368,"type":"city","location":[129.0370582,35.3349979],"bbox":[128.8770582,35.1749979,129.1970582,35.4949979],"border":{"name":"양산시","other_names":{"name:en":"Yangsan-si","name:ja":"梁山市","name:ko":"양산시","name:zh":"梁山市","name:ko-Hani":"梁山市","name:ko-Latn":"Yangsansi","name:zh-Hant":"梁山市","name:ca":"Yangsan","name:de":"Yangsan","name:el":"Γιάνγκσαν","name:es":"Yangsan","name:et":"Yangsan","name:fr":"Yangsan","name:ru":"Янсан","int_name":"Yangsan","name:ja-Hira":"やんさん","official_name:en":"Yangsan City","alt:en":"Yangsan","alt:ko-Latn":"Yangsan"},"display_name":"양산시, 경상남도, 대한민국","address":{"city":"양산시","province":"경상남도","ISO3166-2-lvl4":"KR-48","country":"대한민국","country_code":"kr"},"population":335474,"osm_type":"relation","osm_id":7224487,"type":"administrative","location":[129.0370582,35.3349979],"bbox":[128.8725397,35.2735115,129.2193882,35.5318251]}}
{"name":"양주시","other_names":{"name:ca":"Yangju","name:de":"Yangju","name:el":"Γιάνγκτζου","name:en":"Yangju","name:es":"Yangju","name:et":"Yangju","name:fr":"Yangju","name:ja":"楊州市","name:ko":"양주시","name:ru":"Янджу","name:vi":"Yangju","name:zh":"楊州市","int_name":"Yangju","alt_name:vi":"Dương Châu","name:ko-Hani":"楊州市","name:ko-Latn":"Yangju-si","name:zh-Hans":"杨州市","name:zh-Hant":"楊州市","official_name":"양주시","official_name:en":"Yangju City","official_name:ko":"양주시"},"display_name":"양주시, 경기도, 대한민국","address":{"city":"양주시","province":"경기도","ISO3166-2-lvl4":"KR-41","country":"대한민국","country_code":"kr"},"population":272378,"osm_type":"node","osm_id":415152872,"type":"city","location":[127.0457771,37.7849312],"bbox":[126.8857771,37.6249312,127.2057771,37.9449312],"border":{"name":"양주시","other_names":{"name:en":"Yangju","name:ja":"楊州市","name:ko":"양주시","name:zh":"楊州市","name:ko-Hani":"楊州市","name:zh-Hans":"杨州市","name:zh-Hant":"楊州市","official_name":"양주시","name:ca":"Yangju","name:de":"Yangju","name:el":"Γιάνγκτζου","name:es":"Yangju","name:et":"Yangju","name:fr":"Yangju","name:ru":"Янджу","name:vi":"Yangju","int_name":"Yangju","official_name:en":"Yangju-si","alt_name:vi":"Dương Châu","name:ko-Latn":"Yangju-si","_place_official_name:en":"Yangju City","official_name:ko":"양주시"},"display_name":"양주시, 경기도, 대한민국","address":{"city":"양주시","province":"경기도","ISO3166-2-lvl4":"KR-41","country":"대한민국","country_code":"kr"},"population":272378,"osm_type":"relation","osm_id":2409185,"type":"administrative","location":[127.0457771,37.7849312],"bbox":[126.9017028,37.6686798,127.1223612,37.9421846]}}
{"name":"여수시","other_names":{"name:ar":"يوسو","name:ca":"Yeosu","name:cs":"Josu","name:de":"Yeosu","name:el":"Γιόσου","name:en":"Yeosu","name:eo":"Josu","name:es":"Yeosu","name:et":"Yeosu","name:eu":"Yeosu","name:fa":"یئوسو","name:fi":"Yeosu","name:fr":"Yeosu","name:id":"Yeosu","name:ie":"Yeosu","name:it":"Yeosu","name:ja":"麗水市","name:ka":"იოსუ","name:kk":"Йосу","name:ko":"여수시","name:mn":"Ёсү","name:nl":"Yeosu","name:no":"Yeosu","name:pl":"Yeosu","name:pt":"Yeosu","name:ru":"Йосу","name:sv":"Yeosu","name:th":"ยอซู","name:tl":"Yeosu","name:tr":"Yeosu","name:uk":"Йосу","name:ur":"یوسو","name:vi":"Yeosu","name:zh":"麗水市","int_name":"Yeosu","name:ceb":"Yeosu","name:lmo":"Yeosu","name:nan":"Yeosu Chhī","name:szl":"Yeosu","name:war":"Yeosu","name:ko-Hani":"麗水市","name:ko-Latn":"Yeosu-si","name:zh-Hans":"丽水市","name:zh-Hant":"麗水市","official_name:en":"Yeosu City"},"display_name":"여수시, 전라남도, 대한민국","address":{"city":"여수시","province":"전라남도","ISO3166-2-lvl4":"KR-46","country":"대한민국","country_code":"kr"},"population":288988,"osm_type":"node","osm_id":358015308,"type":"city","location":[127.659859,34.7546257],"bbox":[127.499859,34.5946257,127.819859,34.9146257],"border":{"name":"여수시","other_names":{"name:ar":"يوسو","name:ca":"Yeosu","name:cs":"Josu","name:de":"Yeosu","name:en":"Yeosu-si","name:eo":"Josu","name:es":"Yeosu","name:et":"Yeosu","name:fa":"یئوسو","name:fi":"Yeosu","name:fr":"Yeosu","name:id":"Yeosu","name:ie":"Yeosu","name:it":"Yeosu","name:ja":"麗水市","name:ka":"იოსუ","name:kk":"Йосу","name:ko":"여수시","name:mn":"Ёсү","name:nl":"Yeosu","name:no":"Yeosu","name:pl":"Yeosu","name:pt":"Yeosu","name:ru":"Йосу","name:sv":"Yeosu","name:tl":"Yeosu","name:tr":"Yeosu","name:uk":"Йосу","name:ur":"یوسو","name:vi":"Yeosu","name:zh":"麗水市","name:ceb":"Yeosu","name:lmo":"Yeosu","name:nan":"Yeosu Chhī","name:szl":"Yeosu","name:war":"Yeosu","name:ko-Hani":"麗水市","name:ko-Latn":"Yeosu-si","name:zh-Hans":"丽水市","name:zh-Hant":"麗水市","name:el":"Γιόσου","name:eu":"Yeosu","name:th":"ยอซู","int_name":"Yeosu","official_name:en":"Yeosu City","alt:en":"Yeosu"},"display_name":"여수시, 전라남도, 대한민국","address":{"city":"여수시","province":"전라남도","ISO3166-2-lvl4":"KR-46","country":"대한민국","country_code":"kr"},"population":288988,"osm_type":"relation","osm_id":7689289,"type":"administrative","location":[127.659859,34.7546257],"bbox":[126.9153195,33.7591991,128.1715912,34.9045513]}}
{"name":"여주시","other_names":{"name:ca":"Yeoju","name:de":"Yeoju","name:el":"Γιότζου","name:en":"Yeoju","name:es":"Yeoju","name:fr":"Yeoju","name:ja":"驪州市","name:ko":"여주시","name:ru":"Йоджу","name:uk":"Йоджу","name:zh":"驪州市","int_name":"Yeoju","name:ja_kana":"よじゅ","name:ko-Hani":"驪州市","name:ko-Latn":"Yeoju-si","name:zh-Hans":"骊州市","name:zh-Hant":"驪州市","official_name:en":"Yeoju City"},"display_name":"여주시, 경기도, 대한민국","address":{"city":"여주시","province":"경기도","ISO3166-2-lvl4":"KR-41","country":"대한민국","country_code":"kr"},"population":115504,"osm_type":"node","osm_id":415154705,"type":"city","location":[127.637033,37.2982901],"bbox":[127.477033,37.1382901,127.797033,37.4582901],"border":{"name":"여주시","other_names":{"name:el":"Γιότζου","name:en":"Yeoju-si","name:ja":"驪州市","name:ko":"여주시","name:uk":"Йоджу","name:zh":"驪州市","name:ko-Hani":"驪州市","name:zh-Hans":"骊州市","name:zh-Hant":"驪州市","name:ca":"Yeoju","name:de":"Yeoju","name:es":"Yeoju","name:fr":"Yeoju","name:ru":"Йоджу","int_name":"Yeoju","name:ja_kana":"よじゅ","name:ko-Latn":"Yeoju-si","official_name:en":"Yeoju City","alt:en":"Yeoju"},"display_name":"여주시, 경기도, 대한민국","address":{"city":"여주시","province":"경기도","ISO3166-2-lvl4":"KR-41","country":"대한민국","country_code":"kr"},"population":115504,"osm_type":"relation","osm_id":2409187,"type":"administrative","location":[127.637033,37.2982901],"bbox":[127.3982262,37.1350555,127.7684117,37.4395356]}}
{"name":"영주시","other_names":{"name:ca":"Yeongju","name:de":"Yeongju","name:el":"Γιόνγκτζου","name:en":"Yeongju","name:es":"Yeongju","name:et":"Yeongju","name:fr":"Yeongju","name:ja":"栄州市","name:ko":"영주시","name:ru":"Йонджу","name:zh":"榮州市","int_name":"Yeongju","name:ja_kana":"よんじゅ","name:ko-Hani":"榮州市","name:ko-Latn":"Yeongju-si","name:zh-Hans":"荣州市","name:zh-Hant":"榮州市","official_name:en":"Yeongju City"},"display_name":"영주시, 경상북도, 대한민국","address":{"city":"영주시","province":"경상북도","ISO3166-2-lvl4":"KR-47","country":"대한민국","country_code":"kr"},"population":109908,"osm_type":"node","osm_id":358015526,"type":"city","location":[128.624054,36.805685],"bbox":[128.464054,36.645685,128.784054,36.965685],"border":{"name":"영주시","other_names":{"name:en":"Yeongju-si","name:ja":"栄州市","name:ko":"영주시","name:zh":"榮州市","name:ko-Hani":"榮州市","name:zh-Hans":"荣州市","name:zh-Hant":"榮州市","name:ca":"Yeongju","name:de":"Yeongju","name:el":"Γιόνγκτζου","name:es":"Yeongju","name:et":"Yeongju","name:fr":"Yeongju","name:ru":"Йонджу","int_name":"Yeongju","name:ja_kana":"よんじゅ","name:ko-Latn":"Yeongju-si","official_name:en":"Yeongju City","alt:en":"Yeongju"},"display_name":"영주시, 경상북도, 대한민국","address":{"city":"영주시","province":"경상북도","ISO3166-2-lvl4":"KR-47","country":"대한민국","country_code":"kr"},"population":109908,"osm_type":"relation","osm_id":7764032,"type":"administrative","location":[128.624054,36.805685],"bbox":[128.4239695,36.6951951,128.7466334,37.0657144]}}
{"name":"영천시","other_names":{"name:ca":"Yeongcheon","name:de":"Yeongcheon","name:el":"Γιόνγκτσον","name:en":"Yeongcheon","name:es":"Yeongcheon","name:et":"Yeongcheon","name:fr":"Yeongcheon","name:ja":"永川市","name:ko":"영천시","name:ru":"Йончхон","name:zh":"永川市","int_name":"Yeongcheon","name:ja_kana":"よんちょん","name:ko-Hani":"永川市","name:ko-Latn":"Yeongcheon-si","name:zh-Hant":"永川市","official_name:en":"Yeongcheon City"},"display_name":"영천시, 경상북도, 대한민국","address":{"city":"영천시","province":"경상북도","ISO3166-2-lvl4":"KR-47","country":"대한민국","country_code":"kr"},"population":100255,"osm_type":"node","osm_id":415148619,"type":"city","location":[128.942,35.98842],"bbox":[128.782,35.82842,129.102,36.14842],"border":{"name":"영천시","other_names":{"name:en":"Yeongcheon-si","name:ja":"永川市","name:ko":"영천시","name:zh":"永川市","name:ko-Hani":"永川市","name:zh-Hant":"永川市","name:ca":"Yeongcheon","name:de":"Yeongcheon","name:el":"Γιόνγκτσον","name:es":"Yeongcheon","name:et":"Yeongcheon","name:fr":"Yeongcheon","name:ru":"Йончхон","int_name":"Yeongcheon","name:ja_kana":"よんちょん","name:ko-Latn":"Yeongcheon-si","official_name:en":"Yeongcheon City","alt:en":"Yeongcheon"},"display_name":"영천시, 경상북도, 대한민국","address":{"city":"영천시","province":"경상북도","ISO3166-2-lvl4":"KR-47","country":"대한민국","country_code":"kr"},"population":100255,"osm_type":"relation","osm_id":7741681,"type":"administrative","location":[128.942,35.98842],"bbox":[128.6941266,35.8302703,129.1519689,36.1838184]}}
{"name":"오산시","other_names":{"name:ca":"Osan","name:de":"Osan","name:el":"Όσαν","name:en":"Osan","name:es":"Osan","name:et":"Osan","name:eu":"Osan","name:fr":"Osan","name:ja":"烏山市","name:ko":"오산시","name:ru":"Осан","name:zh":"烏山市","alt_name:en":"Osan-si","name:ko-Hani":"烏山市","name:ko-Latn":"Osan-si","name:zh-Hans":"乌山市","name:zh-Hant":"烏山市","official_name:en":"Osan City"},"display_name":"오산시, 경기도, 대한민국","address":{"city":"오산시","province":"경기도","ISO3166-2-lvl4":"KR-41","country":"대한민국","country_code":"kr"},"population":193892,"osm_type":"node","osm_id":311886695,"type":"city","location":[127.0774625,37.1499376],"bbox":[126.9174625,36.9899376,127.2374625,37.3099376],"border":{"name":"오산시","other_names":{"name:en":"Osan-si","name:ja":"烏山市","name:ko":"오산시","name:zh":"烏山市","name:ko-Hani":"烏山市","name:zh-Hans":"乌山市","name:zh-Hant":"烏山市","name:ca":"Osan","name:de":"Osan","name:el":"Όσαν","name:es":"Osan","name:et":"Osan","name:eu":"Osan","name:fr":"Osan","name:ru":"Осан","alt_name:en":"Osan-si","name:ko-Latn":"Osan-si","official_name:en":"Osan City","alt:en":"Osan"},"display_name":"오산시, 경기도, 대한민국","address":{"city":"오산시","province":"경기도","ISO3166-2-lvl4":"KR-41","country":"대한민국","country_code":"kr"},"population":193892,"osm_type":"relation","osm_id":2409176,"type":"administrative","location":[127.0774625,37.1499376],"bbox":[126.9950763,37.1253116,127.1036919,37.2002046]}}
{"name":"용인시","other_names":{"name:ca":"Yongin","name:de":"Yongin","name:el":"Γιόνγιν","name:en":"Yongin","name:es":"Yongin","name:et":"Yongin","name:fr":"Yongin","name:ja":"竜仁市","name:ko":"용인시","name:pt":"Yongin","name:ru":"Йонъин","name:zh":"龍仁市","int_name":"Yongin","name:ko-Hani":"龍仁市","name:ko-Latn":"Yongin-si","name:zh-Hans":"龙仁市","name:zh-Hant":"龍仁市","official_name:en":"Yongin City"},"display_name":"용인시, 경기도, 대한민국","address":{"city":"용인시","province":"경기도","ISO3166-2-lvl4":"KR-41","country":"대한민국","country_code":"kr"},"population":1004081,"osm_type":"node","osm_id":415156460,"type":"city","location":[127.1785572,37.2405741],"bbox":[127.0185572,37.0805741,127.3385572,37.4005741],"border":{"name":"용인시","other_names":{"name:en":"Yongin-si","name:ja":"竜仁市","name:ko":"용인시","name:ko-Hani":"龍仁市","name:zh-Hans":"龙仁市","name:zh-Hant":"龍仁市","name:ca":"Yongin","name:de":"Yongin","name:el":"Γιόνγιν","name:es":"Yongin","name:et":"Yongin","name:fr":"Yongin","name:pt":"Yongin","name:ru":"Йонъин","name:zh":"龍仁市","int_name":"Yongin","name:ko-Latn":"Yongin-si","official_name:en":"Yongin City","alt:en":"Yongin"},"display_name":"용인시, 경기도, 대한민국","address":{"city":"용인시","province":"경기도","ISO3166-2-lvl4":"KR-41","country":"대한민국","country_code":"kr"},"population":1004081,"osm_type":"relation","osm_id":2409189,"type":"administrative","location":[127.1785572,37.2405741],"bbox":[127.016201,37.0846404,127.4299269,37.3722864]}}
{"name":"울산광역시","other_names":{"name:af":"Ulsan","name:ar":"أولسان","name:bg":"Улсан","name:bi":"Ulsan","name:ca":"Ulsan","name:cs":"Ulsan","name:da":"Ulsan","name:de":"Ulsan","name:el":"Ούλσαν","name:en":"Ulsan","name:eo":"Ulsan","name:es":"Ulsan","name:et":"Ulsan","name:eu":"Ulsan","name:fa":"اولسان","name:fi":"Ulsan","name:fr":"Ulsan","name:he":"אולסן","name:hu":"Ulszan","name:id":"Ulsan","name:io":"Ulsan","name:it":"Ulsan","name:ja":"蔚山広域市","name:kl":"Ulsan","name:ko":"울산광역시","name:lt":"Ulsanas","name:mi":"Ulsan","name:mn":"Үлсан","name:mr":"उल्सान","name:nl":"Ulsan","name:no":"Ulsan","name:pl":"Ulsan","name:pt":"Ulsan","name:ro":"Ulsan","name:ru":"Ульсан","name:sv":"Ulsan","name:sw":"Ulsan","name:th":"อุลซัน","name:tl":"Ulsan","name:vi":"Ulsan","name:zh":"蔚山广域市","short_name":"울산","alt_name:zh":"蔚山","loc_name:ko":"울산시","name:ko-Hani":"蔚山廣域市","name:zh-Hans":"蔚山广域市","name:zh-Hant":"蔚山廣域市","official_name":"울산광역시","short_name:ja":"蔚山","short_name:ko":"울산","short_name:zh":"蔚山","official_name:en":"Ulsan Metropolitan City","official_name:ja":"蔚山広域市","official_name:ko":"울산광역시","official_name:zh":"蔚山广域市","short_name:ko-Hani":"蔚山","short_name:ko-Latn":"Ulsan","official_name:ko-Hani":"蔚山廣域市","official_name:zh-Hant":"蔚山廣域市"},"display_name":"울산광역시, 대한민국","address":{"city":"울산광역시","ISO3166-2-lvl4":"KR-31","country":"대한민국","country_code":"kr"},"population":1166000,"osm_type":"node","osm_id":6612437350,"type":"city","location":[129.3119136,35.5391697],"bbox":[129.1519136,35.3791697,129.4719136,35.6991697],"border":{"name":"울산광역시","other_names":{"name:af":"Ulsan","name:ar":"أولسان","name:bg":"Улсан","name:bi":"Ulsan","name:ca":"Ulsan","name:cs":"Ulsan","name:da":"Ulsan","name:de":"Ulsan","name:el":"Ούλσαν","name:en":"Ulsan","name:eo":"Ulsan","name:es":"Ulsan","name:et":"Ulsan","name:eu":"Ulsan","name:fa":"اولسان","name:fi":"Ulsan","name:fr":"Ulsan","name:he":"אולסן","name:hu":"Ulszan","name:id":"Ulsan","name:io":"Ulsan","name:it":"Ulsan","name:ja":"蔚山","name:kl":"Ulsan","name:ko":"울산광역시","name:lt":"Ulsanas","name:mi":"Ulsan","name:mn":"Үлсан","name:mr":"उल्सान","name:nl":"Ulsan","name:no":"Ulsan","name:pl":"Ulsan","name:pt":"Ulsan","name:ro":"Ulsan","name:ru":"Ульсан","name:sv":"Ulsan","name:sw":"Ulsan","name:th":"อุลซัน","name:tl":"Ulsan","name:vi":"Ulsan","name:zh":"蔚山廣域市","ISO3166-2":"KR-31","short_name":"울산","loc_name:en":"Ulsan city","loc_name:ja":"蔚山市","loc_name:ko":"울산시","loc_name:zh":"蔚山市","name:ko-Hani":"蔚山廣域市","name:ko-Latn":"Ulsan","name:zh-Hans":"蔚山广域市","name:zh-Hant":"蔚山廣域市","short_name:ja":"蔚山","short_name:ko":"울산","short_name:zh":"蔚山","loc_name:ko-Hani":"蔚山市","loc_name:ko-Latn":"Ulsan-si","official_name:en":"Ulsan Metropolitan City","official_name:ja":"蔚山広域市","official_name:ko":"울산광역시","official_name:zh":"蔚山广域市","alt_name:zh":"蔚山","short_name:ko-Hani":"蔚山","short_name:ko-Latn":"Ulsan","official_name":"울산광역시","official_name:zh-Hant":"蔚山廣域市","official_name:ko-Hani":"蔚山廣域市","alt:ja":"蔚山広域市","alt:zh":"蔚山广域市"},"display_name":"울산광역시, 대한민국","address":{"city":"울산광역시","ISO3166-2-lvl4":"KR-31","country":"대한민국","country_code":"kr"},"population":1129827,"osm_type":"relation","osm_id":2395867,"type":"administrative","location":[129.3119136,35.5391697],"bbox":[128.9707354,35.1861705,129.720619,35.7244899]}}
{"name":"원주시","other_names":{"name:ca":"Wonju","name:de":"Wonju","name:el":"Ουόντζου","name:en":"Wonju","name:es":"Wonju","name:et":"Wonju","name:eu":"Wonju","name:fa":"وون‌جو","name:fr":"Wonju","name:ja":"原州市","name:ko":"원주시","name:lt":"Vondžu","name:ru":"Вонджу","name:th":"ว็อนจู","name:zh":"原州市","int_name":"Wonju","name:ja-Hira":"うぉんじゅし","name:ko-Hani":"原州市","name:ko-Latn":"Wonju-si","name:zh-Hant":"原州市","official_name:en":"Wonju City"},"display_name":"원주시, 강원특별자치도, 대한민국","address":{"city":"원주시","province":"강원특별자치도","ISO3166-2-lvl4":"KR-42","country":"대한민국","country_code":"kr"},"population":340196,"osm_type":"node","osm_id":415154551,"type":"city","location":[127.9197603,37.3420996],"bbox":[127.7597603,37.1820996,128.0797603,37.5020996],"border":{"name":"원주시","other_names":{"name:en":"Wonju-si","name:fa":"شهر وون‌جو","name:ja":"原州市","name:ko":"원주시","name:zh":"原州市","name:ko-Hani":"原州市","name:zh-Hant":"原州市","name:ca":"Wonju","name:de":"Wonju","name:el":"Ουόντζου","name:es":"Wonju","name:et":"Wonju","name:eu":"Wonju","name:fr":"Wonju","name:lt":"Vondžu","name:ru":"Вонджу","name:th":"ว็อนจู","int_name":"Wonju","name:ja-Hira":"うぉんじゅし","name:ko-Latn":"Wonju-si","official_name:en":"Wonju City","alt:en":"Wonju","alt:fa":"وون‌جو"},"display_name":"원주시, 강원특별자치도, 대한민국","address":{"city":"원주시","province":"강원특별자치도","ISO3166-2-lvl4":"KR-42","country":"대한민국","country_code":"kr"},"population":340196,"osm_type":"relation","osm_id":2529086,"type":"administrative","location":[127.9197603,37.3420996],"bbox":[127.7441004,37.1434083,128.218455,37.5069099]}}
{"name":"의왕시","other_names":{"name:ca":"Uiwang","name:de":"Uiwang","name:el":"Ούιουανγκ","name:en":"Uiwang","name:es":"Uiwang","name:et":"Uiwang","name:fr":"Uiwang","name:ja":"義王市","name:ko":"의왕시","name:ru":"Ыйван","name:zh":"義王市","int_name":"Uiwang","name:ko-Hani":"義王市","name:ko-Latn":"Uiwang-si","name:zh-Hans":"义王市","name:zh-Hant":"義王市","official_name:en":"Uiwang City"},"display_name":"의왕시, 경기도, 대한민국","address":{"city":"의왕시","province":"경기도","ISO3166-2-lvl4":"KR-41","country":"대한민국","country_code":"kr"},"population":156763,"osm_type":"node","osm_id":358015422,"type":"city","location":[126.9689861,37.3449082],"bbox":[126.8089861,37.1849082,127.1289861,37.5049082],"border":{"name":"의왕시","other_names":{"name:en":"Uiwang-si","name:ja":"義王市","name:ko":"의왕시","name:ko-Hani":"義王市","name:zh-Hans":"义王市","name:zh-Hant":"義王市","name:ca":"Uiwang","name:de":"Uiwang","name:el":"Ούιουανγκ","name:es":"Uiwang","name:et":"Uiwang","name:fr":"Uiwang","name:ru":"Ыйван","name:zh":"義王市","int_name":"Uiwang","name:ko-Latn":"Uiwang-si","official_name:en":"Uiwang City","alt:en":"Uiwang"},"display_name":"의왕시, 경기도, 대한민국","address":{"city":"의왕시","province":"경기도","ISO3166-2-lvl4":"KR-41","country":"대한민국","country_code":"kr"},"population":156763,"osm_type":"relation","osm_id":2409184,"type":"administrative","location":[126.9689861,37.3449082],"bbox":[126.9292353,37.300367,127.0468449,37.415619]}}
{"name":"의정부시","other_names":{"name:ca":"Uijeongbu","name:de":"Uijeongbu","name:el":"Ούιτζονγκμπου","name:en":"Uijeongbu","name:es":"Uijeongbu","name:et":"Uijeongbu","name:eu":"Uijeongbu","name:fr":"Uijeongbu","name:ja":"議政府市","name:ko":"의정부시","name:ru":"Ыйджонбу","name:th":"อึยจ็องบู","name:uk":"Ийджонбу","name:vi":"Uijeongbu","name:zh":"議政府市","int_name":"Uijeongbu","alt_name:vi":"Nghị Chính Phủ","name:ko-Hani":"議政府市","name:ko-Latn":"Uijeongbu-si","name:zh-Hans":"议政府市","name:zh-Hant":"議政府市","official_name:en":"Uijeongbu City"},"display_name":"의정부시, 경기도, 대한민국","address":{"city":"의정부시","province":"경기도","ISO3166-2-lvl4":"KR-41","country":"대한민국","country_code":"kr"},"population":463077,"osm_type":"node","osm_id":358015268,"type":"city","location":[127.0339665,37.7380747],"bbox":[126.8739665,37.5780747,127.1939665,37.8980747],"border":{"name":"의정부시","other_names":{"name:el":"Ούιτζονγκμπου","name:en":"Uijeongbu-si","name:ja":"議政府市","name:ko":"의정부시","name:uk":"Ийджонбу","name:zh":"議政府市","name:ko-Hani":"議政府市","name:zh-Hans":"议政府市","name:zh-Hant":"議政府市","name:ca":"Uijeongbu","name:de":"Uijeongbu","name:es":"Uijeongbu","name:et":"Uijeongbu","name:eu":"Uijeongbu","name:fr":"Uijeongbu","name:ru":"Ыйджонбу","name:th":"อึยจ็องบู","name:vi":"Uijeongbu","int_name":"Uijeongbu","alt_name:vi":"Nghị Chính Phủ","name:ko-Latn":"Uijeongbu-si","official_name:en":"Uijeongbu City","alt:en":"Uijeongbu"},"display_name":"의정부시, 경기도, 대한민국","address":{"city":"의정부시","province":"경기도","ISO3166-2-lvl4":"KR-41","country":"대한민국","country_code":"kr"},"population":463077,"osm_type":"relation","osm_id":2409183,"type":"administrative","location":[127.0339665,37.7380747],"bbox":[127.0016103,37.6859363,127.1473932,37.7803653]}}
{"name":"이천시","other_names":{"name:ca":"Icheon","name:de":"Icheon","name:el":"Ίτσον","name:en":"Icheon","name:es":"Icheon","name:et":"Icheon","name:eu":"Icheon","name:fr":"Icheon","name:ja":"利川市","name:ko":"이천시","name:ru":"Ичхон","name:zh":"利川市","int_name":"Icheon","name:ko-Hani":"利川市","name:ko-Latn":"Icheon-si","name:zh-Hant":"利川市","official_name:en":"Icheon City"},"display_name":"이천시, 경기도, 대한민국","address":{"city":"이천시","province":"경기도","ISO3166-2-lvl4":"KR-41","country":"대한민국","country_code":"kr"},"population":213059,"osm_type":"node","osm_id":358015415,"type":"city","location":[127.4429132,37.2808823],"bbox":[127.2829132,37.1208823,127.6029132,37.4408823],"border":{"name":"이천시","other_names":{"name:el":"Ίτσον","name:en":"Icheon-si","name:fr":"Icheon","name:ja":"利川市","name:ko":"이천시","name:zh":"利川市","name:ko-Hani":"利川市","name:ko-Latn":"Icheon","name:zh-Hant":"利川市","name:ca":"Icheon","name:de":"Icheon","name:es":"Icheon","name:et":"Icheon","name:eu":"Icheon","name:ru":"Ичхон","int_name":"Icheon","official_name:en":"Icheon City","alt:en":"Icheon","alt:ko-Latn":"Icheon-si"},"display_name":"이천시, 경기도, 대한민국","address":{"city":"이천시","province":"경기도","ISO3166-2-lvl4":"KR-41","country":"대한민국","country_code":"kr"},"population":213059,"osm_type":"relation","osm_id":2409174,"type":"administrative","location":[127.4429132,37.2808823],"bbox":[127.329512,37.0412469,127.6377764,37.3609698]}}
{"name":"익산시","other_names":{"name:ca":"Iksan","name:de":"Iksan","name:el":"Ίκσαν","name:en":"Iksan","name:es":"Iksan","name:et":"Iksan","name:fr":"Iksan","name:ja":"益山市","name:ko":"익산시","name:ru":"Иксан","name:zh":"益山市","int_name":"Iksan","name:ko-Hani":"益山市","name:ko-Latn":"Iksan-si","name:zh-Hant":"益山市","official_name:en":"Iksan City"},"display_name":"익산시, 전북특별자치도, 대한민국","address":{"city":"익산시","province":"전북특별자치도","ISO3166-2-lvl4":"KR-45","country":"대한민국","country_code":"kr"},"population":307000,"osm_type":"node","osm_id":358015292,"type":"city","location":[126.9578025,35.9479291],"bbox":[126.7978025,35.7879291,127.1178025,36.1079291],"border":{"name":"익산시","other_names":{"name:el":"Ίκσαν","name:en":"Iksan-si","name:ja":"益山市","name:ko":"익산시","name:zh":"益山市","name:ko-Hani":"益山市","name:zh-Hant":"益山市","name:ca":"Iksan","name:de":"Iksan","name:es":"Iksan","name:et":"Iksan","name:fr":"Iksan","name:ru":"Иксан","int_name":"Iksan","name:ko-Latn":"Iksan-si","official_name:en":"Iksan City","alt:en":"Iksan"},"display_name":"익산시, 전북특별자치도, 대한민국","address":{"city":"익산시","province":"전북특별자치도","ISO3166-2-lvl4":"KR-45","country":"대한민국","country_code":"kr"},"population":307000,"osm_type":"relation","osm_id":7619924,"type":"administrative","location":[126.9578025,35.9479291],"bbox":[126.8512022,35.8829307,127.1398776,36.1568679]}}
{"name":"인천광역시","other_names":{"name:az":"İnçxon","name:be":"Інчхон","name:ca":"Inchon","name:cs":"Inčchon","name:da":"Incheon","name:de":"Incheon","name:el":"Ίντσον","name:en":"Incheon","name:es":"Incheon","name:et":"Incheon","name:eu":"Incheon","name:fr":"Inchon","name:he":"אינצ'ון","name:hr":"Incheon","name:hu":"Incshon","name:ja":"仁川広域市","name:ko":"인천광역시","name:lt":"Inčonas","name:oc":"Inchon","name:pl":"Inczon","name:pt":"Incheon","name:ru":"Инчхон","name:sl":"Inčon","name:sr":"Инчон","name:uk":"Інчхон","name:zh":"仁川广域市","short_name":"인천","alt_name:hr":"Inčon","loc_name:ko":"인천시","name:ko-Hani":"仁川廣域市","name:zh-Hans":"仁川广域市","name:zh-Hant":"仁川廣域市","official_name":"인천광역시","short_name:ko":"인천","official_name:en":"Incheon Metropolitan City","official_name:ja":"仁川広域市","official_name:zh":"仁川广域市","official_name:ko-Hani":"仁川廣域市","official_name:ko-Latn":"Incheon-gwangyeoksi","official_name:zh-Hant":"仁川廣域市"},"display_name":"인천광역시, 대한민국","address":{"city":"인천광역시","ISO3166-2-lvl4":"KR-28","country":"대한민국","country_code":"kr"},"population":2953883,"osm_type":"node","osm_id":1831812850,"type":"city","location":[126.7052,37.456],"bbox":[126.5452,37.296,126.8652,37.616],"border":{"name":"인천광역시","other_names":{"name:ar":"إنتشون","name:cs":"Inčchon","name:da":"Incheon","name:de":"Incheon","name:el":"Ίντσον","name:en":"Incheon","name:es":"Incheon","name:fr":"Inchon","name:he":"אינצ'ון","name:ja":"仁川広域市","name:ko":"인천광역시","name:lt":"Inčonas","name:ru":"Инчхон","name:uk":"Інчхон","name:zh":"仁川廣域市","ISO3166-2":"KR-28","short_name":"인천","loc_name:ja":"仁川市","loc_name:ko":"인천시","loc_name:zh":"仁川市","name:ko-Hani":"仁川廣域市","name:ko-Latn":"Incheon","name:zh-Hans":"仁川广域市","name:zh-Hant":"仁川廣域市","official_name":"인천광역시","short_name:en":"Incheon","short_name:ko":"인천","short_name:zh":"仁川","name:az":"İnçxon","name:be":"Інчхон","name:ca":"Inchon","name:et":"Incheon","name:eu":"Incheon","name:hr":"Incheon","name:hu":"Incshon","name:oc":"Inchon","name:pl":"Inczon","name:pt":"Incheon","name:sl":"Inčon","name:sr":"Инчон","official_name:en":"Incheon Metropolitan City","official_name:ko":"인천광역시","official_name:zh":"仁川广域市","alt_name:hr":"Inčon","short_name:ko-Hani":"仁川","official_name:ko-Hani":"仁川廣域市","official_name:ko-Latn":"Incheon-gwangyeoksi","official_name:ja":"仁川広域市","official_name:zh-Hant":"仁川廣域市","alt:zh":"仁川广域市"},"display_name":"인천광역시, 대한민국","address":{"city":"인천광역시","ISO3166-2-lvl4":"KR-28","country":"대한민국","country_code":"kr"},"population":2870545,"osm_type":"relation","osm_id":2297419,"type":"administrative","location":[126.7052,37.456],"bbox":[124.3727348,36.8544193,126.7936261,38.05]}}
{"name":"전주시","other_names":{"name:ca":"Jeonju","name:cs":"Čendžu","name:de":"Jeonju","name:el":"Τζόντζου","name:en":"Jeonju","name:es":"Jeonju","name:et":"Jeonju","name:eu":"Jeonju","name:fi":"Jeonju","name:fr":"Jeonju","name:ja":"全州市","name:kn":"ಜಿಯೊಂಜು","name:ko":"전주시","name:lt":"Džondžu","name:ru":"Чонджу","name:th":"ช็อนจู","name:uk":"Чонджу","name:zh":"全州市","int_name":"Jeonju","name:ko-Hani":"全州市","name:ko-Latn":"Jeonju-si","name:zh-Hant":"全州市","official_name:en":"Jeonju City"},"display_name":"전주시, 전북특별자치도, 대한민국","address":{"city":"전주시","province":"전북특별자치도","ISO3166-2-lvl4":"KR-45","country":"대한민국","country_code":"kr"},"population":653387,"osm_type":"node","osm_id":358015235,"type":"city","location":[127.1472805,35.8237631],"bbox":[126.9872805,35.6637631,127.3072805,35.9837631],"border":{"name":"전주시","other_names":{"name:cs":"Čendžu","name:en":"Jeonju-si","name:fr":"Jeonju","name:ja":"全州市","name:ko":"전주시","name:zh":"全州市","name:ko-Hani":"全州市","name:zh-Hant":"全州市","name:ca":"Jeonju","name:de":"Jeonju","name:el":"Τζόντζου","name:es":"Jeonju","name:et":"Jeonju","name:eu":"Jeonju","name:fi":"Jeonju","name:kn":"ಜಿಯೊಂಜು","name:lt":"Džondžu","name:ru":"Чонджу","name:th":"ช็อนจู","name:uk":"Чонджу","int_name":"Jeonju","name:ko-Latn":"Jeonju-si","official_name:en":"Jeonju City","alt:en":"Jeonju"},"display_name":"전주시, 전북특별자치도, 대한민국","address":{"city":"전주시","province":"전북특별자치도","ISO3166-2-lvl4":"KR-45","country":"대한민국","country_code":"kr"},"population":653387,"osm_type":"relation","osm_id":7619919,"type":"administrative","location":[127.1472805,35.8237631],"bbox":[126.9961917,35.7284791,127.2343718,35.9013223]}}
{"name":"정읍시","other_names":{"name:ca":"Jeongeup","name:de":"Jeongeup","name:el":"Τζόνγουπ","name:en":"Jeongeup","name:es":"Jeongeup","name:et":"Jeongeup","name:fr":"Jeongeup","name:ja":"井邑市","name:ko":"정읍시","name:ru":"Чонып","name:zh":"井邑市","int_name":"Jeongeup","name:ja_kana":"ちょんうぷ","name:ko-Hani":"井邑市","name:ko-Latn":"Jeongeup-si","name:zh-Hant":"井邑市","official_name:en":"Jeongeup City"},"display_name":"정읍시, 전북특별자치도, 대한민국","address":{"city":"정읍시","province":"전북특별자치도","ISO3166-2-lvl4":"KR-45","country":"대한민국","country_code":"kr"},"population":110194,"osm_type":"node","osm_id":358015496,"type":"city","location":[126.8559787,35.5697678],"bbox":[126.6959787,35.4097678,127.0159787,35.7297678],"border":{"name":"정읍시","other_names":{"name:en":"Jeongeup-si","name:ja":"井邑市","name:ko":"정읍시","name:zh":"井邑市","name:ko-Hani":"井邑市","name:zh-Hant":"井邑市","name:ca":"Jeongeup","name:de":"Jeongeup","name:el":"Τζόνγουπ","name:es":"Jeongeup","name:et":"Jeongeup","name:fr":"Jeongeup","name:ru":"Чонып","int_name":"Jeongeup","name:ja_kana":"ちょんうぷ","name:ko-Latn":"Jeongeup-si","official_name:en":"Jeongeup City","alt:en":"Jeongeup"},"display_name":"정읍시, 전북특별자치도, 대한민국","address":{"city":"정읍시","province":"전북특별자치도","ISO3166-2-lvl4":"KR-45","country":"대한민국","country_code":"kr"},"population":110194,"osm_type":"relation","osm_id":7621808,"type":"administrative","location":[126.8559787,35.5697678],"bbox":[126.7155232,35.4610852,127.1169366,35.7589912]}}
{"name":"제주시","other_names":{"name:ar":"جيجو","name:ca":"Jeju","name:cs":"Čedžu","name:de":"Jeju","name:el":"Τζέτζου","name:en":"Jeju","name:es":"Jeju","name:et":"Jeju","name:fr":"Jeju","name:ja":"済州市","name:ko":"제주시","name:ru":"Чеджу","name:th":"เชจู","name:zh":"濟州市","int_name":"Jeju","name:ko-Hani":"濟州市","name:ko-Latn":"Jeju-si","name:zh-Hans":"济州市","name:zh-Hant":"濟州市","official_name:en":"Jeju City"},"display_name":"제주시, 제주특별자치도, 대한민국","address":{"city":"제주시","province":"제주특별자치도","ISO3166-2-lvl4":"KR-49","country":"대한민국","country_code":"kr"},"population":469279,"osm_type":"node","osm_id":358015303,"type":"city","location":[126.5313902,33.4998289],"bbox":[126.3713902,33.3398289,126.6913902,33.6598289],"border":{"name":"제주시","other_names":{"name:cs":"Čedžu","name:en":"Jeju","name:ja":"済州市","name:zh":"濟州市","name:ko-Hani":"濟州市","name:zh-Hans":"济州市","name:zh-Hant":"濟州市","name:ar":"جيجو","name:ca":"Jeju","name:de":"Jeju","name:el":"Τζέτζου","name:es":"Jeju","name:et":"Jeju","name:fr":"Jeju","name:ko":"제주시","name:ru":"Чеджу","name:th":"เชจู","int_name":"Jeju","name:ko-Latn":"Jeju-si","official_name:en":"Jeju City"},"display_name":"제주시, 제주특별자치도, 대한민국","address":{"city":"제주시","province":"제주특별자치도","ISO3166-2-lvl4":"KR-49","country":"대한민국","country_code":"kr"},"population":469279,"osm_type":"relation","osm_id":5523589,"type":"administrative","location":[126.5313902,33.4998289],"bbox":[125.7940999,33.2318111,127.2152291,34.139806]}}
{"display_name":"제주특별자치도, 대한민국","address":{"province":"제주특별자치도","ISO3166-2-lvl4":"KR-49","country":"대한민국","country_code":"kr"},"osm_type":"way","osm_id":1274576430,"type":"city","location":[126.52575385527294,33.51100915],"bbox":[126.5130115,33.5043267,126.5335693,33.5182379]}
{"name":"제천시","other_names":{"name:ca":"Jecheon","name:de":"Jecheon","name:el":"Τζέτσον","name:en":"Jecheon","name:es":"Jecheon","name:et":"Jecheon","name:fr":"Jecheon","name:ja":"堤川市","name:ko":"제천시","name:lt":"Čečonas","name:ru":"Чечхон","name:zh":"堤川市","int_name":"Jecheon","name:ko-Hani":"堤川市","name:ko-Latn":"Jecheon-si","name:zh-Hant":"堤川市","official_name:en":"Jecheon City"},"display_name":"제천시, 충청북도, 대한민국","address":{"city":"제천시","province":"충청북도","ISO3166-2-lvl4":"KR-43","country":"대한민국","country_code":"kr"},"population":136432,"osm_type":"node","osm_id":415155618,"type":"city","location":[128.1913508,37.1326042],"bbox":[128.0313508,36.9726042,128.3513508,37.2926042],"border":{"name":"제천시","other_names":{"name:en":"Jecheon-si","name:ja":"堤川市","name:ko":"제천시","name:zh":"堤川市","name:ko-Hani":"堤川市","name:zh-Hant":"堤川市","name:ca":"Jecheon","name:de":"Jecheon","name:el":"Τζέτσον","name:es":"Jecheon","name:et":"Jecheon","name:fr":"Jecheon","name:lt":"Čečonas","name:ru":"Чечхон","int_name":"Jecheon","name:ko-Latn":"Jecheon-si","official_name:en":"Jecheon City","alt:en":"Jecheon"},"display_name":"제천시, 충청북도, 대한민국","address":{"city":"제천시","province":"충청북도","ISO3166-2-lvl4":"KR-43","country":"대한민국","country_code":"kr"},"population":136432,"osm_type":"relation","osm_id":2538334,"type":"administrative","location":[128.1913508,37.1326042],"bbox":[127.9215831,36.8116952,128.3333963,37.2583343]}}
{"name":"진주시","other_names":{"name:ca":"Jinju","name:de":"Jinju","name:el":"Τζίντζου","name:en":"Jinju","name:es":"Jinju","name:et":"Jinju","name:eu":"Jinju","name:fr":"Jinju","name:ja":"晋州市","name:ko":"진주시","name:ru":"Чинджу","name:th":"ชินจู","name:uk":"Чінджу","name:zh":"晉州市","name:ja_kana":"ちんじゅ","name:ko-Hani":"晉州市","name:ko-Latn":"Jinju-si","name:zh-Hans":"晋州市","name:zh-Hant":"晉州市","official_name:en":"Jinju City"},"display_name":"진주시, 경상남도, 대한민국","address":{"city":"진주시","province":"경상남도","ISO3166-2-lvl4":"KR-48","country":"대한민국","country_code":"kr"},"population":340548,"osm_type":"node","osm_id":358015281,"type":"city","location":[128.1079953,35.1803459],"bbox":[127.9479953,35.0203459,128.2679953,35.3403459],"border":{"name":"진주시","other_names":{"name:en":"Jinju-si","name:ja":"晋州市","name:ko":"진주시","name:zh":"晉州市","name:ko-Hani":"晉州市","name:zh-Hans":"晋州市","name:zh-Hant":"晉州市","name:ca":"Jinju","name:de":"Jinju","name:el":"Τζίντζου","name:es":"Jinju","name:et":"Jinju","name:eu":"Jinju","name:fr":"Jinju","name:ru":"Чинджу","name:th":"ชินจู","name:uk":"Чінджу","name:ja_kana":"ちんじゅ","name:ko-Latn":"Jinju-si","official_name:en":"Jinju City","alt:en":"Jinju"},"display_name":"진주시, 경상남도, 대한민국","address":{"city":"진주시","province":"경상남도","ISO3166-2-lvl4":"KR-48","country":"대한민국","country_code":"kr"},"population":340548,"osm_type":"relation","osm_id":7820650,"type":"administrative","location":[128.1079953,35.1803459],"bbox":[127.8877554,35.0502985,128.3681846,35.3510758]}}
{"name":"창원시","other_names":{"name:ca":"Changwon","name:de":"Changwon","name:el":"Τσάνγουον","name:en":"Changwon","name:es":"Changwon","name:et":"Changwon","name:fr":"Changwon","name:hu":"Cshangvon","name:ja":"昌原市","name:ko":"창원시","name:pt":"Changwon","name:ru":"Чханвон","name:zh":"昌原市","int_name":"Changwon","name:ko-Hani":"昌原市","name:ko-Latn":"Changwon-si","name:zh-Hant":"昌原市","official_name:en":"Changwon City"},"display_name":"창원시, 경상남도, 대한민국","address":{"city":"창원시","province":"경상남도","ISO3166-2-lvl4":"KR-48","country":"대한민국","country_code":"kr"},"population":1055839,"osm_type":"node","osm_id":257370659,"type":"city","location":[128.6818586,35.227956],"bbox":[128.5218586,35.067956,128.8418586,35.387956],"border":{"name":"창원시","other_names":{"name:en":"Changwon-si","name:hu":"Cshangvon-si","name:ja":"昌原市","name:ko":"창원시","name:zh":"昌原市","name:ko-Hani":"昌原市","name:ko-Latn":"Changwon-si","name:zh-Hant":"昌原市","name:ca":"Changwon","name:de":"Changwon","name:el":"Τσάνγουον","name:es":"Changwon","name:et":"Changwon","name:fr":"Changwon","name:pt":"Changwon","name:ru":"Чханвон","int_name":"Changwon","official_name:en":"Changwon City","alt:en":"Changwon","alt:hu":"Cshangvon"},"display_name":"창원시, 경상남도, 대한민국","address":{"city":"창원시","province":"경상남도","ISO3166-2-lvl4":"KR-48","country":"대한민국","country_code":"kr"},"population":1055839,"osm_type":"relation","osm_id":7224484,"type":"administrative","location":[128.6818586,35.227956],"bbox":[128.3479474,35.0333962,128.8433535,35.394254]}}
{"name":"천안시","other_names":{"name:ca":"Cheonan","name:de":"Cheonan","name:el":"Τσόναν","name:en":"Cheonan","name:es":"Cheonan","name:et":"Cheonan","name:fr":"Cheonan","name:ja":"天安市","name:ko":"천안시","name:ru":"Чхонан","name:zh":"天安市","int_name":"Cheonan","name:ko-Hani":"天安市","name:ko-Latn":"Cheonan-si","name:zh-Hans":"天安市","name:zh-Hant":"天安市","official_name:en":"Cheonan City"},"display_name":"천안시, 충청남도, 대한민국","address":{"city":"천안시","province":"충청남도","ISO3166-2-lvl4":"KR-44","country":"대한민국","country_code":"kr"},"population":658486,"osm_type":"node","osm_id":415158162,"type":"city","location":[127.1140654,36.8150283],"bbox":[126.9540654,36.6550283,127.2740654,36.9750283],"border":{"name":"천안시","other_names":{"name:en":"Cheonan-si","name:ja":"天安市","name:ko":"천안시","name:zh":"天安市","name:ko-Hani":"天安市","name:zh-Hant":"天安市","name:ca":"Cheonan","name:de":"Cheonan","name:el":"Τσόναν","name:es":"Cheonan","name:et":"Cheonan","name:fr":"Cheonan","name:ru":"Чхонан","int_name":"Cheonan","name:ko-Latn":"Cheonan-si","name:zh-Hans":"天安市","official_name:en":"Cheonan City","alt:en":"Cheonan"},"display_name":"천안시, 충청남도, 대한민국","address":{"city":"천안시","province":"충청남도","ISO3166-2-lvl4":"KR-44","country":"대한민국","country_code":"kr"},"population":658486,"osm_type":"relation","osm_id":2474718,"type":"administrative","location":[127.1140654,36.8150283],"bbox":[127.0093578,36.6197496,127.4204171,36.9731559]}}
{"name":"천안시의회동","display_name":"천안시의회동, 천안시, 충청남도, 31162, 대한민국","address":{"city":"천안시의회동","province":"충청남도","ISO3166-2-lvl4":"KR-44","postcode":"31162","country":"대한민국","country_code":"kr"},"osm_type":"node","osm_id":12441255452,"type":"city","location":[127.1132765,36.8151779],"bbox":[126.9532765,36.6551779,127.2732765,36.9751779]}
{"name":"천안시청 봉서홀","display_name":"천안시청 봉서홀, 천안시, 충청남도, 31162, 대한민국","address":{"city":"천안시청 봉서홀","province":"충청남도","ISO3166-2-lvl4":"KR-44","postcode":"31162","country":"대한민국","country_code":"kr"},"osm_type":"node","osm_id":12441255453,"type":"city","location":[127.1129981,36.8145054],"bbox":[126.9529981,36.6545054,127.2729981,36.9745054]}
{"name":"천안시청 식당동","display_name":"천안시청 식당동, 천안시, 충청남도, 31162, 대한민국","address":{"city":"천안시청 식당동","province":"충청남도","ISO3166-2-lvl4":"KR-44","postcode":"31162","country":"대한민국","country_code":"kr"},"osm_type":"node","osm_id":12441255461,"type":"city","location":[127.1150112,36.8154175],"bbox":[126.9550112,36.6554175,127.2750112,36.9754175]}
{"name":"천안시청 종합민원동","display_name":"천안시청 종합민원동, 천안시, 충청남도, 31162, 대한민국","address":{"city":"천안시청 종합민원동","province":"충청남도","ISO3166-2-lvl4":"KR-44","postcode":"31162","country":"대한민국","country_code":"kr"},"osm_type":"node","osm_id":12441255454,"type":"city","location":[127.1140715,36.815114],"bbox":[126.9540715,36.655114,127.2740715,36.975114]}
{"name":"천안시청 행정동","display_name":"천안시청 행정동, 천안시, 충청남도, 31162, 대한민국","address":{"city":"천안시청 행정동","province":"충청남도","ISO3166-2-lvl4":"KR-44","postcode":"31162","country":"대한민국","country_code":"kr"},"osm_type":"node","osm_id":12441255455,"type":"city","location":[127.1142352,36.8147606],"bbox":[126.9542352,36.6547606,127.2742352,36.9747606]}
{"name":"청주시","other_names":{"name:ca":"Cheongju","name:de":"Cheongju","name:el":"Τσόνγκτζου","name:en":"Cheongju","name:es":"Cheongju","name:et":"Cheongju","name:fr":"Cheongju","name:ja":"清州市","name:ko":"청주시","name:ru":"Чхонджу","name:zh":"清州市","int_name":"Cheongju","name:ko-Hani":"清州市","name:ko-Latn":"Cheongju-si","name:zh-Hans":"清州市","name:zh-Hant":"清州市","official_name:en":"Cheongju City"},"display_name":"청주시, 충청북도, 대한민국","address":{"city":"청주시","province":"충청북도","ISO3166-2-lvl4":"KR-43","country":"대한민국","country_code":"kr"},"population":835669,"osm_type":"node","osm_id":309947253,"type":"city","location":[127.4891742,36.6421169],"bbox":[127.3291742,36.4821169,127.6491742,36.8021169],"border":{"name":"청주시","other_names":{"name:en":"Cheongju-si","name:ja":"清州市","name:ko":"청주시","name:ru":"Чхонджу","name:zh":"清州市","name:ko-Hani":"淸州市","name:ko-Latn":"Cheongju-si","name:zh-Hant":"淸州市","name:ca":"Cheongju","name:de":"Cheongju","name:el":"Τσόνγκτζου","name:es":"Cheongju","name:et":"Cheongju","name:fr":"Cheongju","int_name":"Cheongju","name:zh-Hans":"清州市","official_name:en":"Cheongju City","alt:en":"Cheongju","alt:ko-Hani":"清州市","alt:zh-Hant":"清州市"},"display_name":"청주시, 충청북도, 대한민국","address":{"city":"청주시","province":"충청북도","ISO3166-2-lvl4":"KR-43","country":"대한민국","country_code":"kr"},"population":835669,"osm_type":"relation","osm_id":2541043,"type":"administrative","location":[127.4891742,36.6421169],"bbox":[127.2756505,36.4072772,127.7699975,36.7802634]}}
{"name":"춘천시","other_names":{"name:ca":"Chuncheon","name:de":"Chuncheon","name:el":"Τσούντσον","name:en":"Chuncheon","name:es":"Chuncheon","name:et":"Chuncheon","name:eu":"Chuncheon","name:fr":"Chuncheon","name:ja":"春川市","name:ko":"춘천시","name:lt":"Čunčonas","name:ru":"Чхунчхон","name:th":"ชุนช็อน","name:uk":"Чхунчхон","name:vi":"Chuncheon","name:zh":"春川市","int_name":"Chuncheon","alt_name:vi":"Xuân Xuyên","name:ko-Hani":"春川市","name:ko-Latn":"Chuncheon-si","name:zh-Hant":"春川市","official_name:en":"Chuncheon City"},"display_name":"춘천시, 강원특별자치도, 대한민국","address":{"city":"춘천시","province":"강원특별자치도","ISO3166-2-lvl4":"KR-42","country":"대한민국","country_code":"kr"},"population":280061,"osm_type":"node","osm_id":358015347,"type":"city","location":[127.7297641,37.8810569],"bbox":[127.5697641,37.7210569,127.8897641,38.0410569],"border":{"name":"춘천시","other_names":{"name:en":"Chuncheon-si","name:ja":"春川市","name:ko":"춘천시","name:zh":"春川市","name:ko-Hani":"春川市","name:zh-Hant":"春川市","name:ca":"Chuncheon","name:de":"Chuncheon","name:el":"Τσούντσον","name:es":"Chuncheon","name:et":"Chuncheon","name:eu":"Chuncheon","name:fr":"Chuncheon","name:lt":"Čunčonas","name:ru":"Чхунчхон","name:th":"ชุนช็อน","name:uk":"Чхунчхон","name:vi":"Chuncheon","int_name":"Chuncheon","alt_name:vi":"Xuân Xuyên","name:ko-Latn":"Chuncheon-si","official_name:en":"Chuncheon City","alt:en":"Chuncheon"},"display_name":"춘천시, 강원특별자치도, 대한민국","address":{"city":"춘천시","province":"강원특별자치도","ISO3166-2-lvl4":"KR-42","country":"대한민국","country_code":"kr"},"population":280061,"osm_type":"relation","osm_id":2517796,"type":"administrative","location":[127.7297641,37.8810569],"bbox":[127.5061478,37.6756449,128.029608,38.0850253]}}
{"name":"충주시","other_names":{"name:ca":"Chungju","name:el":"Τσούνγκτζου","name:en":"Chungju","name:et":"Chungju","name:fr":"Chongju","name:ja":"忠州市","name:ko":"충주시","name:lt":"Čungdžu","name:ru":"Чхунджу","name:zh":"忠州市","name:ja-Hira":"ちゅんじゅし","name:ko-Hani":"忠州市","name:ko-Latn":"Chungju-si","name:zh-Hant":"忠州市","official_name:en":"Chungju City"},"display_name":"충주시, 충청북도, 대한민국","address":{"city":"충주시","province":"충청북도","ISO3166-2-lvl4":"KR-43","country":"대한민국","country_code":"kr"},"population":208529,"osm_type":"node","osm_id":415155721,"type":"city","location":[127.9259891,36.9907334],"bbox":[127.7659891,36.8307334,128.0859891,37.1507334],"border":{"name":"충주시","other_names":{"name:en":"Chungju-si","name:ja":"忠州市","name:ko":"충주시","name:zh":"忠州市","name:ko-Hani":"忠州市","name:zh-Hant":"忠州市","name:ca":"Chungju","name:el":"Τσούνγκτζου","name:et":"Chungju","name:fr":"Chongju","name:lt":"Čungdžu","name:ru":"Чхунджу","name:ja-Hira":"ちゅんじゅし","name:ko-Latn":"Chungju-si","official_name:en":"Chungju City","alt:en":"Chungju"},"display_name":"충주시, 충청북도, 대한민국","address":{"city":"충주시","province":"충청북도","ISO3166-2-lvl4":"KR-43","country":"대한민국","country_code":"kr"},"population":208529,"osm_type":"relation","osm_id":2538331,"type":"administrative","location":[127.9259891,36.9907334],"bbox":[127.6508508,36.7966375,128.1340438,37.2148609]}}
{"name":"태백시","other_names":{"name:ca":"Taebaek","name:el":"Τέμπεκ","name:en":"Taebaek","name:ja":"太白市","name:ko":"태백시","name:ru":"Тхэбэк","name:zh":"太白市","name:ko-Hani":"太白市","name:ko-Latn":"Taebaek-si","name:zh-Hant":"太白市","official_name:en":"Taebaek City"},"display_name":"태백시, 강원특별자치도, 대한민국","address":{"city":"태백시","province":"강원특별자치도","ISO3166-2-lvl4":"KR-42","country":"대한민국","country_code":"kr"},"population":43488,"osm_type":"node","osm_id":6919770645,"type":"city","location":[128.9857176,37.1637943],"bbox":[128.8257176,37.0037943,129.1457176,37.3237943],"border":{"name":"태백시","other_names":{"name:el":"Τέμπεκ","name:en":"Taebaek-si","name:ja":"太白市","name:ko":"태백시","name:zh":"太白市","name:ko-Hani":"太白市","name:zh-Hant":"太白市","name:ca":"Taebaek","name:ru":"Тхэбэк","name:ko-Latn":"Taebaek-si","official_name:en":"Taebaek City","alt:en":"Taebaek"},"display_name":"태백시, 강원특별자치도, 대한민국","address":{"city":"태백시","province":"강원특별자치도","ISO3166-2-lvl4":"KR-42","country":"대한민국","country_code":"kr"},"population":43488,"osm_type":"relation","osm_id":2537819,"type":"administrative","location":[128.9857176,37.1637943],"bbox":[128.8671615,37.0616851,129.09566,37.3455928]}}
{"name":"통영시","other_names":{"name:ca":"Tongyeong","name:de":"Tongyeong","name:el":"Τόνγιονγκ","name:en":"Tongyeong","name:es":"Tongyeong","name:et":"Tongyeong","name:eu":"Tongyeong","name:fr":"Tongyeong","name:ja":"統営市","name:ko":"통영시","name:ru":"Чхунму","int_name":"Tongyeong","name:ja_kana":"とんよん","name:ko-Hani":"統營市","name:ko-Latn":"Tongyeong-si","name:zh-Hans":"统营市","name:zh-Hant":"統營市","official_name:en":"Tongyeong City"},"display_name":"통영시, 경상남도, 대한민국","address":{"city":"통영시","province":"경상남도","ISO3166-2-lvl4":"KR-48","country":"대한민국","country_code":"kr"},"population":139719,"osm_type":"node","osm_id":358015505,"type":"city","location":[128.433205,34.854254],"bbox":[128.273205,34.694254,128.593205,35.014254],"border":{"name":"통영시","other_names":{"name:en":"Tongyeong-si","name:ja":"統営市","name:ko":"통영시","name:zh":"統營市","name:ko-Hani":"統營市","name:zh-Hans":"统营市","name:zh-Hant":"統營市","name:ca":"Tongyeong","name:de":"Tongyeong","name:el":"Τόνγιονγκ","name:es":"Tongyeong","name:et":"Tongyeong","name:eu":"Tongyeong","name:fr":"Tongyeong","name:ru":"Чхунму","int_name":"Tongyeong","name:ja_kana":"とんよん","name:ko-Latn":"Tongyeong-si","official_name:en":"Tongyeong City","alt:en":"Tongyeong"},"display_name":"통영시, 경상남도, 대한민국","address":{"city":"통영시","province":"경상남도","ISO3166-2-lvl4":"KR-48","country":"대한민국","country_code":"kr"},"population":139719,"osm_type":"relation","osm_id":7831215,"type":"administrative","location":[128.433205,34.854254],"bbox":[128.080673,34.2050429,128.8162752,34.9796454]}}
{"name":"파주시","other_names":{"name:ca":"Paju","name:el":"Πάτζου","name:en":"Paju","name:ja":"坡州市","name:ko":"파주시","name:ru":"Пхаджу","name:zh":"坡州市","name:ko-Hani":"坡州市","name:ko-Latn":"Paju-si","name:zh-Hans":"坡州市","name:zh-Hant":"坡州市","official_name:en":"Paju City"},"display_name":"파주시, 경기도, 대한민국","address":{"city":"파주시","province":"경기도","ISO3166-2-lvl4":"KR-41","country":"대한민국","country_code":"kr"},"population":427668,"osm_type":"node","osm_id":6780463693,"type":"city","location":[126.7801502,37.7598955],"bbox":[126.6201502,37.5998955,126.9401502,37.9198955],"border":{"name":"파주시","other_names":{"name:bg":"Паджу","name:de":"Paju","name:el":"Πάτζου","name:en":"Paju-si","name:es":"Paju","name:et":"Paju","name:fa":"پاجو","name:fr":"Paju","name:id":"Paju","name:it":"Paju","name:ja":"坡州市","name:ko":"파주시","name:mn":"Пажү","name:nl":"Paju","name:no":"Paju","name:pl":"Paju","name:ru":"Пхаджу","name:sv":"Paju","name:th":"พาจู","name:tl":"Paju","name:uk":"Пхаджу","name:vi":"Paju","name:zh":"坡州市","name:ko-Hani":"坡州市","name:zh-Hant":"坡州市","official_name":"파주시","name:ca":"Paju","name:ko-Latn":"Paju-si","name:zh-Hans":"坡州市","official_name:en":"Paju City","alt:en":"Paju"},"display_name":"파주시, 경기도, 대한민국","address":{"city":"파주시","province":"경기도","ISO3166-2-lvl4":"KR-41","country":"대한민국","country_code":"kr"},"population":444181,"osm_type":"relation","osm_id":2409177,"type":"administrative","location":[126.7801502,37.7598955],"bbox":[126.6626179,37.6886317,127.0171316,38.0102152]}}
{"name":"평택시","other_names":{"name:ca":"Pyeongtaek","name:de":"Pyeongtaek","name:el":"Πιόνγκτεκ","name:en":"Pyeongtaek","name:es":"Pyeongtaek","name:et":"Pyeongtaek","name:eu":"Pyeongtaek","name:fr":"Pyeongtaek","name:ja":"平沢市","name:ko":"평택시","name:ru":"Пхёнтхэк","name:th":"พย็องแท็ก","name:uk":"Пгьонтхек","name:zh":"平澤市","name:ja-Hira":"ぴょんてくし","name:ko-Hani":"平澤市","name:ko-Latn":"Pyeongtaek-si","name:zh-Hans":"平泽市","name:zh-Hant":"平澤市","official_name:en":"Pyeongtaek City"},"display_name":"평택시, 경기도, 대한민국","address":{"city":"평택시","province":"경기도","ISO3166-2-lvl4":"KR-41","country":"대한민국","country_code":"kr"},"population":489081,"osm_type":"node","osm_id":415156335,"type":"city","location":[127.1127168,36.9924966],"bbox":[126.9527168,36.8324966,127.2727168,37.1524966],"border":{"name":"평택시","other_names":{"name:el":"Πιόνγκτεκ","name:en":"Pyeongtaek-si","name:ja":"平沢市","name:ko":"평택시","name:uk":"Пгьонтхек","name:zh":"平澤市","name:ko-Hani":"平澤市","name:zh-Hans":"平泽市","name:zh-Hant":"平澤市","name:ca":"Pyeongtaek","name:de":"Pyeongtaek","name:es":"Pyeongtaek","name:et":"Pyeongtaek","name:eu":"Pyeongtaek","name:fr":"Pyeongtaek","name:ru":"Пхёнтхэк","name:th":"พย็องแท็ก","name:ja-Hira":"ぴょんてくし","name:ko-Latn":"Pyeongtaek-si","official_name:en":"Pyeongtaek City","alt:en":"Pyeongtaek"},"display_name":"평택시, 경기도, 대한민국","address":{"city":"평택시","province":"경기도","ISO3166-2-lvl4":"KR-41","country":"대한민국","country_code":"kr"},"population":489081,"osm_type":"relation","osm_id":2409179,"type":"administrative","location":[127.1127168,36.9924966],"bbox":[126.7607267,36.8975994,127.1539238,37.1447047]}}
{"name":"포천시","other_names":{"name:ca":"Pocheon","name:de":"Pocheon","name:el":"Πότσον","name:en":"Pocheon","name:es":"Pocheon","name:et":"Pocheon","name:fr":"Pocheon","name:ja":"抱川市","name:ko":"포천시","name:ru":"Пхочхон","name:vi":"Pocheon","name:zh":"抱川市","int_name":"Pocheon","alt_name:vi":"Bão Xuyên","name:ko-Hani":"抱川市","name:ko-Latn":"Pocheon-si","name:zh-Hant":"抱川市","official_name:en":"Pocheon City"},"display_name":"포천시, 경기도, 대한민국","address":{"city":"포천시","province":"경기도","ISO3166-2-lvl4":"KR-41","country":"대한민국","country_code":"kr"},"population":152925,"osm_type":"node","osm_id":415152942,"type":"city","location":[127.2007295,37.8948267],"bbox":[127.0407295,37.7348267,127.3607295,38.0548267],"border":{"name":"포천시","other_names":{"name:en":"Pocheon-si","name:ja":"抱川市","name:ko":"포천시","name:zh":"抱川市","name:ko-Hani":"抱川市","name:zh-Hant":"抱川市","name:ca":"Pocheon","name:de":"Pocheon","name:el":"Πότσον","name:es":"Pocheon","name:et":"Pocheon","name:fr":"Pocheon","name:ru":"Пхочхон","name:vi":"Pocheon","int_name":"Pocheon","alt_name:vi":"Bão Xuyên","name:ko-Latn":"Pocheon-si","official_name:en":"Pocheon City","alt:en":"Pocheon"},"display_name":"포천시, 경기도, 대한민국","address":{"city":"포천시","province":"경기도","ISO3166-2-lvl4":"KR-41","country":"대한민국","country_code":"kr"},"population":152925,"osm_type":"relation","osm_id":2409178,"type":"administrative","location":[127.2007295,37.8948267],"bbox":[127.0902998,37.7469676,127.4470757,38.1883212]}}
{"name":"포항시","other_names":{"name:ca":"Pohang","name:de":"Pohang","name:el":"Πόχανγκ","name:en":"Pohang","name:es":"Pohang","name:et":"Pohang","name:eu":"Pohang","name:fr":"Pohang","name:ja":"浦項市","name:ko":"포항시","name:ru":"Пхохан","name:th":"โพฮัง","name:uk":"Пхохан","name:zh":"浦项市","int_name":"Pohang","name:ko-Hani":"浦項市","name:ko-Latn":"Pohang-si","name:zh-Hant":"浦項市","official_name:en":"Pohang City"},"display_name":"포항시, 경상북도, 대한민국","address":{"city":"포항시","province":"경상북도","ISO3166-2-lvl4":"KR-47","country":"대한민국","country_code":"kr"},"population":514127,"osm_type":"node","osm_id":358015241,"type":"city","location":[129.3429384,36.0189315],"bbox":[129.1829384,35.8589315,129.5029384,36.1789315],"border":{"name":"포항시","other_names":{"name:el":"Πόχανγκ","name:en":"Pohang-si","name:ja":"浦項市","name:ko":"포항시","name:zh":"浦項市","name:ko-Hani":"浦項市","name:zh-Hans":"浦项市","name:zh-Hant":"浦項市","name:ca":"Pohang","name:de":"Pohang","name:es":"Pohang","name:et":"Pohang","name:eu":"Pohang","name:fr":"Pohang","name:ru":"Пхохан","name:th":"โพฮัง","name:uk":"Пхохан","int_name":"Pohang","name:ko-Latn":"Pohang-si","official_name:en":"Pohang City","alt:en":"Pohang","alt:zh":"浦项市"},"display_name":"포항시, 경상북도, 대한민국","address":{"city":"포항시","province":"경상북도","ISO3166-2-lvl4":"KR-47","country":"대한민국","country_code":"kr"},"population":514869,"osm_type":"relation","osm_id":7740687,"type":"administrative","location":[129.3429384,36.0189315],"bbox":[128.991849,35.8415079,129.6010779,36.3336305]}}
{"name":"하남시","other_names":{"name:ca":"Hanam","name:de":"Hanam","name:el":"Χάναμ","name:en":"Hanam","name:es":"Hanam","name:et":"Hanam","name:fr":"Hanam","name:ja":"河南市","name:ko":"하남시","name:ru":"Ханам","name:zh":"河南市","int_name":"Hanam","name:ko-Hani":"河南市","name:ko-Latn":"Hanam-si","name:zh-Hans":"河南市","name:zh-Hant":"河南市","official_name:en":"Hanam City"},"display_name":"하남시, 경기도, 대한민국","address":{"city":"하남시","province":"경기도","ISO3166-2-lvl4":"KR-41","country":"대한민국","country_code":"kr"},"population":329482,"osm_type":"node","osm_id":415154181,"type":"city","location":[127.214948,37.5392918],"bbox":[127.054948,37.3792918,127.374948,37.6992918],"border":{"name":"하남시","other_names":{"name:en":"Hanam-si","name:ja":"河南市","name:ko":"하남시","name:zh":"河南市","name:ko-Hani":"河南市","name:zh-Hant":"河南市","official_name":"하남시","name:ca":"Hanam","name:de":"Hanam","name:el":"Χάναμ","name:es":"Hanam","name:et":"Hanam","name:fr":"Hanam","name:ru":"Ханам","int_name":"Hanam","name:ko-Latn":"Hanam-si","name:zh-Hans":"河南市","official_name:en":"Hanam City","alt:en":"Hanam"},"display_name":"하남시, 경기도, 대한민국","address":{"city":"하남시","province":"경기도","ISO3166-2-lvl4":"KR-41","country":"대한민국","country_code":"kr"},"population":329482,"osm_type":"relation","osm_id":2409172,"type":"administrative","location":[127.214948,37.5392918],"bbox":[127.139952,37.468751,127.2856353,37.5918889]}}
{"name":"화성시","other_names":{"name:bg":"Хвасон","name:ca":"Hoaseong","name:de":"Hwaseong","name:el":"Χουάσονγκ","name:en":"Hwaseong","name:es":"Hwaseong","name:et":"Hwaseong","name:eu":"Hwaseong","name:fr":"Hwaseong","name:it":"Hwaseong","name:ja":"華城市","name:ko":"화성시","name:ru":"Хвасон","name:zh":"華城市","int_name":"Hwaseong","name:ko-Hani":"華城市","name:ko-Latn":"Hwaseong-si","name:zh-Hans":"华城市","name:zh-Hant":"華城市","official_name:en":"Hwaseong City"},"display_name":"화성시, 경기도, 대한민국","address":{"city":"화성시","province":"경기도","ISO3166-2-lvl4":"KR-41","country":"대한민국","country_code":"kr"},"population":696587,"osm_type":"node","osm_id":415156263,"type":"city","location":[126.8312632,37.1994653],"bbox":[126.6712632,37.0394653,126.9912632,37.3594653],"border":{"name":"화성시","other_names":{"name:en":"Hwaseong-si","name:ja":"華城市","name:ko":"화성시","name:zh":"華城市","name:ko-Hani":"華城市","name:zh-Hans":"华城市","name:zh-Hant":"華城市","name:bg":"Хвасон","name:ca":"Hoaseong","name:de":"Hwaseong","name:el":"Χουάσονγκ","name:es":"Hwaseong","name:et":"Hwaseong","name:eu":"Hwaseong","name:fr":"Hwaseong","name:it":"Hwaseong","name:ru":"Хвасон","int_name":"Hwaseong","name:ko-Latn":"Hwaseong-si","official_name:en":"Hwaseong City","alt:en":"Hwaseong"},"display_name":"화성시, 경기도, 대한민국","address":{"city":"화성시","province":"경기도","ISO3166-2-lvl4":"KR-41","country":"대한민국","country_code":"kr"},"population":696587,"osm_type":"relation","osm_id":2409173,"type":"administrative","location":[126.8312632,37.1994653],"bbox":[126.5065236,37.0023893,127.162091,37.3087685]}}
