{"name":"Aweil","other_names":{"name:ar":"أويل","name:de":"Aweil","name:en":"Aweil","name:es":"Uwail","name:fr":"Aweil","name:hu":"Aweil","name:ko":"아웨일","name:ru":"Авейль","name:uk":"Авейль","alt_name":"Uwail;Uwayl"},"display_name":"Aweil, Aweil West, Northern Bahr El Ghazal بحر الغزال الشمالى, South Sudan جنوب السودان","address":{"city":"Aweil","county":"Aweil West","state":"Northern Bahr El Ghazal بحر الغزال الشمالى","ISO3166-2-lvl4":"SS-BN","country":"South Sudan جنوب السودان","country_code":"ss"},"population":40054,"osm_type":"node","osm_id":234617069,"type":"city","location":[27.3962085,8.7693352],"bbox":[27.2362085,8.6093352,27.5562085,8.9293352]}
{"name":"Bëntiw","other_names":{"name:ar":"بانتيو‎","name:de":"Bentiu","name:en":"Bentiu","name:es":"Bentiu","name:fr":"Bentiu","name:ko":"벤티우","name:ru":"Бантио","name:uk":"Бантіо"},"display_name":"Bëntiw, Rubkona, Unity الوحدة, South Sudan جنوب السودان","address":{"city":"Bëntiw","county":"Rubkona","state":"Unity الوحدة","ISO3166-2-lvl4":"SS-UY","country":"South Sudan جنوب السودان","country_code":"ss"},"population":6500,"osm_type":"node","osm_id":2613802518,"type":"city","location":[29.8003988,9.2480864],"bbox":[29.6403988,9.0880864,29.9603988,9.4080864]}
{"name":"Bor","other_names":{"name:ar":"بور","name:de":"Bor","name:en":"Bor","name:es":"Bor","name:fr":"Bor","name:ko":"보르","name:ru":"Бор","name:uk":"Бор"},"display_name":"Bor, Bor South, Jonglei جونقلى, South Sudan جنوب السودان","address":{"city":"Bor","county":"Bor South","state":"Jonglei جونقلى","ISO3166-2-lvl4":"SS-JG","country":"South Sudan جنوب السودان","country_code":"ss"},"population":315351,"osm_type":"node","osm_id":237257414,"type":"city","location":[31.5614397,6.2108741],"bbox":[31.4014397,6.0508741,31.7214397,6.3708741]}
{"name":"CITY OF KAJO KEJI","display_name":"CITY OF KAJO KEJI, Kajo Keji, Central Equatoria الاستوائية المركزية, South Sudan جنوب السودان","address":{"city":"CITY OF KAJO KEJI","county":"Kajo Keji","state":"Central Equatoria الاستوائية المركزية","ISO3166-2-lvl4":"SS-EC","country":"South Sudan جنوب السودان","country_code":"ss"},"osm_type":"way","osm_id":1352483491,"type":"city","location":[31.588563307017722,3.831243],"bbox":[31.3375379,3.6394334,31.8183241,4.0254596]}
{"name":"Dik Mareeng","display_name":"Dik Mareeng, Uror, Jonglei جونقلى, South Sudan جنوب السودان","address":{"city":"Dik Mareeng","county":"Uror","state":"Jonglei جونقلى","ISO3166-2-lvl4":"SS-JG","country":"South Sudan جنوب السودان","country_code":"ss"},"osm_type":"way","osm_id":426084389,"type":"city","location":[32.515784473913044,6.9882896],"bbox":[32.5152188,6.987543,32.5165141,6.9889622]}
{"name":"Juba","other_names":{"name:af":"Joeba","name:am":"ጁባ","name:an":"Juba","name:ar":"جوبا","name:av":"Джуба","name:az":"Cuba","name:be":"Джуба","name:bg":"Джуба","name:bn":"জুবা","name:br":"Juba","name:bs":"Juba","name:ca":"Juba","name:ce":"Джуба","name:cs":"Džuba","name:cy":"Juba","name:da":"Juba","name:de":"Dschuba","name:el":"Τζούμπα","name:en":"Juba","name:eo":"Ĵubo","name:es":"Yuba","name:et":"Juba","name:eu":"Juba","name:fa":"جوبا","name:fi":"Juba","name:fr":"Djouba","name:fy":"Jûba","name:ga":"Juba","name:gd":"Juba","name:gl":"Juba","name:gn":"Júva","name:ha":"Juba","name:he":"ג'ובה","name:hi":"जुबा","name:hr":"Juba","name:hu":"Juba","name:hy":"Ջուբա","name:ia":"Juba","name:id":"Juba","name:ie":"Juba","name:io":"Juba","name:is":"Júba","name:it":"Giuba","name:ja":"ジュバ","name:jv":"Juba","name:ka":"ჯუბა","name:kg":"Juba","name:ko":"주바","name:ku":"Cuba","name:la":"Iuba","name:lt":"Džuba","name:lv":"Džūba","name:mk":"Џуба","name:ml":"ജൂബ","name:mn":"Жуба","name:mr":"जुबा","name:ms":"Juba","name:mt":"Ġuba","name:nl":"Djoeba","name:no":"Juba","name:oc":"Juba","name:os":"Джубæ","name:pa":"ਜੂਬਾ","name:pl":"Dżuba","name:ps":"جوبا","name:pt":"Juba","name:ro":"Juba","name:ru":"Джуба","name:sc":"Juba","name:sh":"Džuba","name:sk":"Džúbá","name:sl":"Džuba","name:sn":"Juba","name:so":"Juba","name:sq":"Xhuba","name:sr":"Џуба","name:sv":"Juba","name:sw":"Juba","name:ta":"யூபா","name:th":"จูบา","name:tl":"Juba","name:tr":"Cuba","name:uk":"Джуба","name:ur":"جوبا","name:uz":"Juba","name:vi":"Juba","name:yi":"דזשובא","name:zh":"朱巴","name:zu":"Juba","name:ast":"Juba","name:avk":"Juba","name:ceb":"Juba","name:ckb":"جووبا","name:din":"Juba","name:frr":"Juba","name:hak":"Juba","name:hsb":"Juba","name:kab":"Juba","name:koi":"Джуба","name:lfn":"Juba","name:lij":"Juba","name:mdf":"Джуба","name:mrj":"Джуба","name:nah":"Yuba","name:pam":"Juba","name:pap":"Juba","name:pms":"Juba","name:scn":"Juba","name:sco":"Juba","name:smn":"Juba","name:udm":"Джуба","name:vec":"Juba","name:vep":"Džub","name:war":"Juba","name:wuu":"朱巴","name:xmf":"ჯუბა"},"display_name":"Juba, Juba City, Juba, Central Equatoria الاستوائية المركزية, South Sudan جنوب السودان","address":{"city":"Juba","payam":"Juba City","county":"Juba","state":"Central Equatoria الاستوائية المركزية","ISO3166-2-lvl4":"SS-EC","country":"South Sudan جنوب السودان","country_code":"ss"},"population":372410,"osm_type":"node","osm_id":97922073,"type":"city","location":[31.5959173,4.8459246],"bbox":[31.4359173,4.6859246,31.7559173,5.0059246],"border":{"name":"Juba City","other_names":{"name:ar":"مدينة جوبا","name:de":"Stadt Dschuba","name:en":"Juba City","name:es":"Ciudad de Yuba","name:fr":"Ville de Djouba","name:ur":"جوبا شہر","name:af":"Joeba","name:am":"ጁባ","name:an":"Juba","name:av":"Джуба","name:az":"Cuba","name:be":"Джуба","name:bg":"Джуба","name:bn":"জুবা","name:br":"Juba","name:bs":"Juba","name:ca":"Juba","name:ce":"Джуба","name:cs":"Džuba","name:cy":"Juba","name:da":"Juba","name:el":"Τζούμπα","name:eo":"Ĵubo","name:et":"Juba","name:eu":"Juba","name:fa":"جوبا","name:fi":"Juba","name:fy":"Jûba","name:ga":"Juba","name:gd":"Juba","name:gl":"Juba","name:gn":"Júva","name:ha":"Juba","name:he":"ג'ובה","name:hi":"जुबा","name:hr":"Juba","name:hu":"Juba","name:hy":"Ջուբա","name:ia":"Juba","name:id":"Juba","name:ie":"Juba","name:io":"Juba","name:is":"Júba","name:it":"Giuba","name:ja":"ジュバ","name:jv":"Juba","name:ka":"ჯუბა","name:kg":"Juba","name:ko":"주바","name:ku":"Cuba","name:la":"Iuba","name:lt":"Džuba","name:lv":"Džūba","name:mk":"Џуба","name:ml":"ജൂബ","name:mn":"Жуба","name:mr":"जुबा","name:ms":"Juba","name:mt":"Ġuba","name:nl":"Djoeba","name:no":"Juba","name:oc":"Juba","name:os":"Джубæ","name:pa":"ਜੂਬਾ","name:pl":"Dżuba","name:ps":"جوبا","name:pt":"Juba","name:ro":"Juba","name:ru":"Джуба","name:sc":"Juba","name:sh":"Džuba","name:sk":"Džúbá","name:sl":"Džuba","name:sn":"Juba","name:so":"Juba","name:sq":"Xhuba","name:sr":"Џуба","name:sv":"Juba","name:sw":"Juba","name:ta":"யூபா","name:th":"จูบา","name:tl":"Juba","name:tr":"Cuba","name:uk":"Джуба","name:uz":"Juba","name:vi":"Juba","name:yi":"דזשובא","name:zh":"朱巴","name:zu":"Juba","name:ast":"Juba","name:avk":"Juba","name:ceb":"Juba","name:ckb":"جووبا","name:din":"Juba","name:frr":"Juba","name:hak":"Juba","name:hsb":"Juba","name:kab":"Juba","name:koi":"Джуба","name:lfn":"Juba","name:lij":"Juba","name:mdf":"Джуба","name:mrj":"Джуба","name:nah":"Yuba","name:pam":"Juba","name:pap":"Juba","name:pms":"Juba","name:scn":"Juba","name:sco":"Juba","name:smn":"Juba","name:udm":"Джуба","name:vec":"Juba","name:vep":"Džub","name:war":"Juba","name:wuu":"朱巴","name:xmf":"ჯუბა","alt":"Juba","alt:ar":"جوبا","alt:de":"Dschuba","alt:en":"Juba","alt:es":"Yuba","alt:fr":"Djouba","alt:ur":"جوبا"},"display_name":"Juba City, Juba, Central Equatoria الاستوائية المركزية, South Sudan جنوب السودان","address":{"payam":"Juba City","county":"Juba","state":"Central Equatoria الاستوائية المركزية","ISO3166-2-lvl4":"SS-EC","country":"South Sudan جنوب السودان","country_code":"ss"},"population":372410,"osm_type":"relation","osm_id":13546445,"type":"administrative","location":[31.5959173,4.8459246],"bbox":[31.5795942,4.8306652,31.6232183,4.8882052]}}
{"name":"köbɛ","other_names":{"name:ar":"أكوبو","name:de":"Akobo","name:en":"Akobo","name:es":"Akobo","name:fr":"Akobo"},"display_name":"köbɛ, Akobo, Jonglei جونقلى, South Sudan جنوب السودان","address":{"city":"köbɛ","county":"Akobo","state":"Jonglei جونقلى","ISO3166-2-lvl4":"SS-JG","country":"South Sudan جنوب السودان","country_code":"ss"},"population":1000,"osm_type":"node","osm_id":227880231,"type":"city","location":[33.0029396,7.7929337],"bbox":[32.8429396,7.6329337,33.1629396,7.9529337]}
{"name":"Kuajok","other_names":{"name:ar":"كواجوك","name:en":"Kuajok","name:ru":"Кваджок","name:uk":"Кваджок"},"display_name":"Kuajok, Gogrial West, Warab واراب, South Sudan جنوب السودان","address":{"city":"Kuajok","county":"Gogrial West","state":"Warab واراب","ISO3166-2-lvl4":"SS-WR","country":"South Sudan جنوب السودان","country_code":"ss"},"osm_type":"node","osm_id":2597775779,"type":"city","location":[27.9789446,8.3024209],"bbox":[27.8189446,8.1424209,28.1389446,8.4624209]}
{"name":"KuanyLualThɔ̱a̱n","other_names":{"name:en":"Nasir","alt_name":"KuanyLualThɔa̱n"},"display_name":"KuanyLualThɔ̱a̱n, KuanyLualThuan/Nasir, Upper Nile أعالى النيل, South Sudan جنوب السودان","address":{"city":"KuanyLualThɔ̱a̱n","state":"Upper Nile أعالى النيل","ISO3166-2-lvl4":"SS-NU","country":"South Sudan جنوب السودان","country_code":"ss"},"osm_type":"node","osm_id":243425912,"type":"city","location":[33.0604914,8.6154098],"bbox":[32.9004914,8.4554098,33.2204914,8.7754098]}
{"name":"Lɛ̈r","other_names":{"name:ar":"ليير","name:de":"Leer","name:en":"Leer","name:es":"Leer","name:fr":"Leer"},"display_name":"Lɛ̈r, Leer, Unity الوحدة, South Sudan جنوب السودان","address":{"city":"Lɛ̈r","county":"Leer","state":"Unity الوحدة","ISO3166-2-lvl4":"SS-UY","country":"South Sudan جنوب السودان","country_code":"ss"},"population":10486,"osm_type":"node","osm_id":210325994,"type":"city","location":[30.1411544,8.3040834],"bbox":[29.9811544,8.1440834,30.3011544,8.4640834]}
{"name":"Madiŋ","display_name":"Madiŋ, KuanyLualThuan/Nasir, Upper Nile أعالى النيل, South Sudan جنوب السودان","address":{"city":"Madiŋ","state":"Upper Nile أعالى النيل","ISO3166-2-lvl4":"SS-NU","country":"South Sudan جنوب السودان","country_code":"ss"},"osm_type":"node","osm_id":3205687780,"type":"city","location":[33.3216703,8.7728623],"bbox":[33.1616703,8.6128623,33.4816703,8.9328623]}
{"name":"Malakal","other_names":{"name:ar":"ملكال","name:de":"Malakal","name:en":"Malakal","name:es":"Malakal","name:fr":"Malakal","name:ko":"말라칼","name:ru":"Малакаль","name:uk":"Малакаль"},"display_name":"Malakal, Makal Shilluk Island, Malakal, Upper Nile أعالى النيل, South Sudan جنوب السودان","address":{"city":"Malakal","municipality":"Makal Shilluk Island","county":"Malakal","state":"Upper Nile أعالى النيل","ISO3166-2-lvl4":"SS-NU","country":"South Sudan جنوب السودان","country_code":"ss"},"population":147450,"osm_type":"node","osm_id":210414793,"type":"city","location":[31.6584168,9.5388487],"bbox":[31.4984168,9.3788487,31.8184168,9.6988487]}
{"name":"Mayɔm","other_names":{"name:ar":"ميوم","name:en":"Mayɔm"},"display_name":"Mayɔm, Mayom, Unity الوحدة, South Sudan جنوب السودان","address":{"city":"Mayɔm","county":"Mayom","state":"Unity الوحدة","ISO3166-2-lvl4":"SS-UY","country":"South Sudan جنوب السودان","country_code":"ss"},"osm_type":"node","osm_id":243451821,"type":"city","location":[29.1650718,9.2254694],"bbox":[29.0050718,9.0654694,29.3250718,9.3854694]}
{"name":"Nimule","other_names":{"name:ar":"نيمول","name:de":"Nimule","name:en":"Nimule","name:es":"Nimule","name:fr":"Nimule","name:ru":"Нимуле"},"display_name":"Nimule, Magwi, Eastern Equatoria الاستوائية الشرقية, South Sudan جنوب السودان","address":{"city":"Nimule","county":"Magwi","state":"Eastern Equatoria الاستوائية الشرقية","ISO3166-2-lvl4":"SS-EE","country":"South Sudan جنوب السودان","country_code":"ss"},"population":45000,"osm_type":"node","osm_id":2096234512,"type":"city","location":[32.0601419,3.5969348],"bbox":[31.9001419,3.4369348,32.2201419,3.7569348]}
{"name":"Panyi̱ji̱ar","display_name":"Panyi̱ji̱ar, Panyijar, Unity الوحدة, South Sudan جنوب السودان","address":{"city":"Panyi̱ji̱ar","county":"Panyijar","state":"Unity الوحدة","ISO3166-2-lvl4":"SS-UY","country":"South Sudan جنوب السودان","country_code":"ss"},"osm_type":"node","osm_id":3434117955,"type":"city","location":[30.2813144,7.4505124],"bbox":[30.1213144,7.2905124,30.4413144,7.6105124]}
{"name":"Pibor","other_names":{"name:ar":"بيبور","name:de":"Pibor","name:en":"Pibor","name:es":"Pibor","name:fr":"Pibor","name:ru":"Пибор-Пост","alt_name":"Pibor Post","old_name":"Fort Bruce"},"display_name":"Pibor, Pibor بيبور, South Sudan جنوب السودان","address":{"city":"Pibor","county":"Pibor بيبور","state":"Pibor بيبور","country":"South Sudan جنوب السودان","country_code":"ss"},"osm_type":"node","osm_id":241778448,"type":"city","location":[33.1297059,6.8011197],"bbox":[32.9697059,6.6411197,33.2897059,6.9611197]}
{"name":"Renk","other_names":{"name:ar":"الرنك","name:de":"Renk","name:en":"Renk","name:es":"Renk","name:fr":"Renk","alt_name":"Abbeit"},"display_name":"Renk, Upper Nile أعالى النيل, South Sudan جنوب السودان","address":{"city":"Renk","county":"Renk","state":"Upper Nile أعالى النيل","ISO3166-2-lvl4":"SS-NU","country":"South Sudan جنوب السودان","country_code":"ss"},"population":176020,"osm_type":"node","osm_id":2616003624,"type":"city","location":[32.8087719,11.751936],"bbox":[32.6487719,11.591936,32.9687719,11.911936]}
{"name":"Rumbek","other_names":{"name:ar":"رمبك","name:de":"Rumbik","name:en":"Rumbek","name:ko":"룸베크","name:pl":"Rumbek","name:ru":"Румбек","name:uk":"Румбек"},"display_name":"Rumbek, Rumbek Centre, Lakes البحيرات, South Sudan جنوب السودان","address":{"city":"Rumbek","county":"Rumbek Centre","state":"Lakes البحيرات","ISO3166-2-lvl4":"SS-LK","country":"South Sudan جنوب السودان","country_code":"ss"},"osm_type":"node","osm_id":3275722461,"type":"city","location":[29.6767488,6.8063901],"bbox":[29.5167488,6.6463901,29.8367488,6.9663901]}
{"name":"Torit","other_names":{"name:ar":"توريت","name:en":"Torit","name:ru":"Торит","name:uk":"Торіт"},"display_name":"Torit, Eastern Equatoria الاستوائية الشرقية, South Sudan جنوب السودان","address":{"city":"Torit","county":"Torit","state":"Eastern Equatoria الاستوائية الشرقية","ISO3166-2-lvl4":"SS-EE","country":"South Sudan جنوب السودان","country_code":"ss"},"population":17957,"osm_type":"node","osm_id":205503577,"type":"city","location":[32.5682244,4.4134473],"bbox":[32.4082244,4.2534473,32.7282244,4.5734473]}
{"name":"Wa̱a̱t","other_names":{"name:ar":"وات","name:en":"Wa̱a̱t"},"display_name":"Wa̱a̱t, Nyirol, Jonglei جونقلى, South Sudan جنوب السودان","address":{"city":"Wa̱a̱t","county":"Nyirol","state":"Jonglei جونقلى","ISO3166-2-lvl4":"SS-JG","country":"South Sudan جنوب السودان","country_code":"ss"},"osm_type":"node","osm_id":227880249,"type":"city","location":[32.1528986,8.179364],"bbox":[31.9928986,8.019364,32.3128986,8.339364]}
{"name":"Wau","other_names":{"name:ar":"واو","name:en":"Wau","name:ko":"와우","name:ru":"Вау","name:uk":"Вау","alt_name":"Wāw;Wow;Waw"},"display_name":"Wau, Western Bahr El Ghazal بحر الغزال الغربى, South Sudan جنوب السودان","address":{"city":"Wau","county":"Wau","state":"Western Bahr El Ghazal بحر الغزال الغربى","ISO3166-2-lvl4":"SS-BW","country":"South Sudan جنوب السودان","country_code":"ss"},"population":136179,"osm_type":"node","osm_id":237193709,"type":"city","location":[27.9909335,7.7001398],"bbox":[27.8309335,7.5401398,28.1509335,7.8601398]}
{"name":"Yambio","other_names":{"name:ar":"يامبيو","name:de":"Yambio","name:en":"Yambio","name:es":"Yambio","name:fr":"Yambio","name:ko":"얌비오","name:ru":"Ямбио","name:uk":"Ямбіо"},"display_name":"Yambio, Western Equatoria الاستوائية الغربية, South Sudan جنوب السودان","address":{"city":"Yambio","county":"Yambio","state":"Western Equatoria الاستوائية الغربية","ISO3166-2-lvl4":"SS-EW","country":"South Sudan جنوب السودان","country_code":"ss"},"population":41997,"osm_type":"node","osm_id":435669247,"type":"city","location":[28.39767,4.5680716],"bbox":[28.23767,4.4080716,28.55767,4.7280716]}
{"name":"Yei","other_names":{"name:ar":"ياي","name:en":"Yei","name:ko":"예이","name:ru":"Ей"},"display_name":"Yei, Central Equatoria الاستوائية المركزية, South Sudan جنوب السودان","address":{"city":"Yei","county":"Yei","state":"Central Equatoria الاستوائية المركزية","ISO3166-2-lvl4":"SS-EC","country":"South Sudan جنوب السودان","country_code":"ss"},"population":260000,"osm_type":"node","osm_id":228735754,"type":"city","location":[30.6756882,4.0941656],"bbox":[30.5156882,3.9341656,30.8356882,4.2541656]}
{"name":"Yi̱o̱d","other_names":{"name:ar":"أيود","name:de":"Ayod","name:en":"Ayod","name:es":"Ayod","name:fr":"Ayod","name:zh":"阿约德"},"display_name":"Yi̱o̱d, Ayod, Jonglei جونقلى, South Sudan جنوب السودان","address":{"city":"Yi̱o̱d","county":"Ayod","state":"Jonglei جونقلى","ISO3166-2-lvl4":"SS-JG","country":"South Sudan جنوب السودان","country_code":"ss"},"osm_type":"node","osm_id":238717535,"type":"city","location":[31.4097976,8.1236035],"bbox":[31.2497976,7.9636035,31.5697976,8.2836035]}
{"name":"Yuai","display_name":"Yuai, Uror, Jonglei جونقلى, South Sudan جنوب السودان","address":{"city":"Yuai","county":"Uror","state":"Jonglei جونقلى","ISO3166-2-lvl4":"SS-JG","country":"South Sudan جنوب السودان","country_code":"ss"},"osm_type":"node","osm_id":3377513891,"type":"city","location":[31.8879957,7.9071436],"bbox":[31.7279957,7.7471436,32.0479957,8.0671436]}
