{"name":"Mesha","other_names":{"name:en":"Mesha"},"display_name":"Mesha, منطقة ب, الضفة الغربية, Palestinian Territory","address":{"city":"Mesha","county":"منطقة ب","region":"الضفة الغربية","country":"Palestinian Territory","country_code":"ps"},"osm_type":"way","osm_id":347505767,"type":"administrative","location":[35.0512109481371,32.1085219],"bbox":[35.0392863,32.1038143,35.059478,32.1131566],"inferred_type":"city"}
{"name":"ביתר עילית","other_names":{"name:ar":"بيتار عيليت","name:en":"Beitar Ilit","name:fr":"Betar Illit","name:he":"ביתר עילית","name:hi":"बैतार इलिट","name:ru":"Бейтар-Илит","name:ur":"بیتار عیلیت"},"display_name":"ביתר עילית, שטח C, יהודה ושומרון, Palestinian Territory","address":{"city":"ביתר עילית","county":"שטח C","state":"יהודה ושומרון","country":"Palestinian Territory","country_code":"ps"},"population":72412,"osm_type":"way","osm_id":366837400,"type":"city","location":[35.104335604660434,31.69913815],"bbox":[35.095733,31.6896552,35.1279902,31.708592],"border":{"name":"ביתר עילית","other_names":{"name:ar":"بيتار عيليت","name:en":"Beitar Ilit","name:fr":"Betar Illit","name:he":"ביתר עילית","name:ru":"Бейтар-Илит"},"display_name":"ביתר עילית, שטח C, יהודה ושומרון, Palestinian Territory","address":{"city":"ביתר עילית","county":"שטח C","state":"יהודה ושומרון","country":"Palestinian Territory","country_code":"ps"},"population":58985,"osm_type":"relation","osm_id":10044900,"type":"administrative","location":[35.107316991919845,31.70185385],"bbox":[35.0936782,31.6880991,35.129624,31.722057]}}
{"name":"מועצה אזורית מגילות ים המלח","other_names":{"name:cs":"oblastní rada Megilot","name:el":"Περιφερειακό Συμβούλιο Μεγκιλότ","name:en":"Megilot Yam HaMelakh Regional Council","name:he":"מועצה אזורית מגילות ים המלח"},"display_name":"מועצה אזורית מגילות ים המלח, שטח C, יהודה ושומרון, Palestinian Territory","address":{"city":"מועצה אזורית מגילות ים המלח","county":"שטח C","state":"יהודה ושומרון","country":"Palestinian Territory","country_code":"ps"},"osm_type":"relation","osm_id":3118385,"type":"administrative","location":[35.393943028753455,31.6095762],"bbox":[35.2241472,31.3747671,35.5612126,31.8442293],"inferred_type":"city"}
{"name":"מועצה אזורית ערבות הירדן","other_names":{"name:ar":"مجلس غور الأردن الإقليمي","name:cs":"oblastní rada Bik'at ha-Jarden","name:en":"Arvot Hayarden Regional Council","name:fr":"Bik'at HaYarden","name:he":"מועצה אזורית ערבות הירדן","short_name:ar":"غور الأردن"},"display_name":"מועצה אזורית ערבות הירדן, שטח C, יהודה ושומרון, Palestinian Territory","address":{"city":"מועצה אזורית ערבות הירדן","county":"שטח C","state":"יהודה ושומרון","country":"Palestinian Territory","country_code":"ps"},"osm_type":"relation","osm_id":3118426,"type":"administrative","location":[35.45675083172836,32.00431885],"bbox":[35.3845945,31.8936843,35.541293,32.3693958],"inferred_type":"city"}
{"name":"מועצה אזורית שומרון","other_names":{"name:en":"Shomron Regional Council","name:fr":"Shomron","name:he":"מועצה אזורית שומרון"},"display_name":"מועצה אזורית שומרון, שטח C, יהודה ושומרון, Palestinian Territory","address":{"city":"מועצה אזורית שומרון","county":"שטח C","state":"יהודה ושומרון","country":"Palestinian Territory","country_code":"ps"},"osm_type":"relation","osm_id":3118471,"type":"administrative","location":[35.17222662647339,32.42070065],"bbox":[34.9987398,32.0453223,35.3614597,32.5163866],"inferred_type":"city"}
{"name":"עופרים","other_names":{"name:en":"Ofarim","name:he":"עופרים"},"display_name":"עופרים, שטח C, יהודה ושומרון, Palestinian Territory","address":{"city":"עופרים","county":"שטח C","state":"יהודה ושומרון","country":"Palestinian Territory","country_code":"ps"},"osm_type":"way","osm_id":882407130,"type":"administrative","location":[35.04567006744548,32.01836695],"bbox":[35.0272604,32.0023532,35.0630952,32.0343513],"inferred_type":"city"}
{"name":"غزة","other_names":{"name:af":"Gasa","name:an":"Gaza","name:ar":"غزة","name:az":"Qəzza","name:ba":"Ғәззә","name:be":"Газа","name:bg":"Газа","name:bn":"গাজা","name:br":"Gaza","name:bs":"Gaza","name:ca":"Gaza","name:ce":"ГӀазат","name:cs":"Gaza","name:cy":"Gaza","name:da":"Gaza","name:de":"Gaza","name:el":"Γάζα","name:en":"Gaza","name:eo":"Gaza","name:es":"Gaza","name:et":"Gaza","name:eu":"Gaza","name:fa":"غزه","name:fi":"Gaza","name:fr":"Gaza","name:ga":"Gaza","name:gd":"Gàsa","name:gl":"Gaza","name:ha":"Gaza","name:he":"עזה","name:hi":"ग़ज़ा","name:hr":"Gaza","name:hu":"Gáza","name:hy":"Ղազա","name:id":"Gaza","name:ie":"Gaza","name:io":"Gaza","name:it":"Gaza","name:ja":"ガザ","name:ka":"ღაზა","name:kk":"Газа","name:kl":"Gaza","name:kn":"ಗಾಝಾ","name:ko":"가자","name:ku":"Xeze","name:ky":"Газа","name:la":"Gaza","name:lt":"Gaza","name:lv":"Gaza","name:mg":"Gaza","name:mk":"Газа","name:ml":"ഗസ്സ നഗരം","name:mr":"गाझा","name:ms":"Gaza","name:mt":"Gaża","name:nb":"Gaza","name:ne":"गाजा शहर","name:nl":"Gaza","name:nn":"Gaza","name:no":"Gaza","name:os":"Газæ","name:pa":"ਗ਼ਜ਼ਾ ਸ਼ਹਿਰ","name:pl":"Gaza","name:ps":"غزه","name:pt":"Gaza","name:ro":"Gaza","name:ru":"Газа","name:sk":"Gaza","name:sl":"Gaza","name:sq":"Gaza","name:sr":"Газа","name:sv":"Gaza","name:sw":"Gaza","name:ta":"காசா","name:tg":"Ғазза","name:th":"นครกาซา","name:tr":"Gazze","name:tt":"Газзә","name:uk":"Ґаза","name:ur":"غزہ","name:uz":"Gʻazza","name:vi":"Gaza","name:yi":"עזה","name:zh":"加沙","name:ckb":"غەززە","name:kmr":"خەزە","name:mzn":"غزه","name:pnb":"غزہ","name:ku-Arab":"خەزە","name:zh-Hans":"加沙","name:zh-Hant":"加薩"},"display_name":"غزة, محافظة غزة, قطاع غزة, Palestinian Territory","address":{"city":"غزة","state_district":"محافظة غزة","ISO3166-2-lvl5":"PS-GZA","region":"قطاع غزة","country":"Palestinian Territory","country_code":"ps"},"population":410000,"osm_type":"node","osm_id":504266619,"type":"city","location":[34.4581358,31.5128679],"bbox":[34.2981358,31.3528679,34.6181358,31.6728679],"border":{"name":"غزة","other_names":{"name:af":"Gasa","name:ar":"غزة","name:az":"Qəzza","name:ba":"Ғәззә","name:be":"Газа","name:bg":"Газа","name:bn":"গাজা","name:br":"Gaza","name:bs":"Gaza","name:ca":"Gaza","name:ce":"ГӀазат","name:cs":"Gaza","name:cy":"Gaza","name:da":"Gaza","name:de":"Gaza","name:el":"Γάζα","name:en":"Gaza","name:eo":"Gaza-urbo","name:es":"Gaza","name:et":"Gaza","name:eu":"Gaza","name:fa":"غزه","name:fi":"Gaza","name:fr":"Gaza","name:gd":"Gàsa","name:gl":"Gaza","name:he":"עזה","name:hi":"ग़ज़ा","name:hr":"Gaza","name:hu":"Gáza","name:hy":"Ղազա","name:id":"Gaza","name:it":"Gaza","name:ja":"ガザ","name:ka":"ღაზა","name:kl":"Gaza","name:kn":"ಗಾಝಾ","name:ko":"가자","name:ku":"Xeze","name:ky":"Газа","name:la":"Gaza","name:lt":"Gaza","name:lv":"Gaza","name:mk":"Газа","name:ml":"ഗാസാ നഗരം","name:mr":"गाझा","name:ms":"Gaza","name:nb":"Gaza","name:ne":"गाजा शहर","name:nl":"Gaza","name:nn":"Gaza by","name:os":"Газæ","name:pa":"ਗ਼ਜ਼ਾ ਸ਼ਹਿਰ","name:pl":"Gaza","name:ps":"غزه","name:pt":"Gaza","name:ro":"Gaza","name:ru":"Газа","name:sk":"Gaza","name:sr":"Газа","name:sv":"Gaza","name:sw":"Gaza","name:ta":"காசா","name:tr":"Gazze","name:tt":"Газзә","name:uk":"Газа","name:ur":"غزہ","name:uz":"Gʻazza","name:vi":"Gaza","name:yi":"עזה","name:zh":"加沙地区","name:ckb":"غەززە","name:kmr":"خەزە","name:mzn":"غزه","name:pnb":"غزہ","name:ku-Arab":"خەزە","official_name":"بلدية غزة","name:an":"Gaza","name:ga":"Gaza","name:ha":"Gaza","name:ie":"Gaza","name:io":"Gaza","name:kk":"Газа","name:mg":"Gaza","name:mt":"Gaża","name:no":"Gaza","name:sl":"Gaza","name:sq":"Gaza","name:tg":"Ғазза","name:th":"นครกาซา","official_name:ar":"بلدية غزة","name:zh-Hans":"加沙","name:zh-Hant":"加薩","alt:eo":"Gaza","alt:ml":"ഗസ്സ നഗരം","alt:nn":"Gaza","alt:uk":"Ґаза","alt:zh":"加沙"},"display_name":"غزة, محافظة غزة, قطاع غزة, Palestinian Territory","address":{"city":"غزة","state_district":"محافظة غزة","ISO3166-2-lvl5":"PS-GZA","region":"قطاع غزة","country":"Palestinian Territory","country_code":"ps"},"population":410000,"osm_type":"relation","osm_id":10521584,"type":"administrative","location":[34.4581358,31.5128679],"bbox":[34.3961515,31.4644954,34.5181367,31.5487199]}}
