{"name":"A'raa'ra Bedouins","other_names":{"name:ar":"بدو العراعرة","name:en":"A'raa'ra Bedouins"},"display_name":"A'raa'ra Bedouins, שטח C, יהודה ושומרון, Palestinian Territory","address":{"hamlet":"A'raa'ra Bedouins","county":"שטח C","state":"יהודה ושומרון","country":"Palestinian Territory","country_code":"ps"},"osm_type":"way","osm_id":612277675,"type":"hamlet","location":[35.26371145822187,31.85227085],"bbox":[35.2614135,31.8504099,35.2653989,31.8541037]}
{"display_name":"Al 'Iqab, חוות שדה בר, שטח C, יהודה ושומרון, Palestinian Territory","address":{"hamlet":"Al 'Iqab","village":"חוות שדה בר","county":"שטח C","state":"יהודה ושומרון","country":"Palestinian Territory","country_code":"ps"},"osm_type":"way","osm_id":289911707,"type":"hamlet","location":[35.2378530505455,31.662718249999998],"bbox":[35.2365464,31.6612122,35.2396564,31.664053]}
{"display_name":"Al Tabaqa, خرسا, منطقة أ, الضفة الغربية, Palestinian Territory","address":{"hamlet":"Al Tabaqa","village":"خرسا","county":"منطقة أ","region":"الضفة الغربية","country":"Palestinian Territory","country_code":"ps"},"osm_type":"node","osm_id":4282920249,"type":"hamlet","location":[35.0214714,31.4904083],"bbox":[35.0014714,31.4704083,35.0414714,31.5104083]}
{"display_name":"Al-Buere, שטח C, יהודה ושומרון, 150, Palestinian Territory","address":{"hamlet":"Al-Buere","county":"שטח C","state":"יהודה ושומרון","postcode":"150","country":"Palestinian Territory","country_code":"ps"},"osm_type":"node","osm_id":4321608603,"type":"hamlet","location":[35.1294063,31.5479851],"bbox":[35.1094063,31.5279851,35.1494063,31.5679851]}
{"display_name":"Al-Uddeisa, منطقة ب, الضفة الغربية, 150, Palestinian Territory","address":{"hamlet":"Al-Uddeisa","county":"منطقة ب","region":"الضفة الغربية","postcode":"150","country":"Palestinian Territory","country_code":"ps"},"osm_type":"node","osm_id":4271387309,"type":"hamlet","location":[35.1426953,31.5428117],"bbox":[35.1226953,31.5228117,35.1626953,31.5628117]}
{"name":"At-Tuba","other_names":{"name:ar":"الطوبا","name:en":"At-Tuba"},"display_name":"At-Tuba, שטח C, יהודה ושומרון, Palestinian Territory","address":{"hamlet":"At-Tuba","county":"שטח C","state":"יהודה ושומרון","country":"Palestinian Territory","country_code":"ps"},"osm_type":"node","osm_id":4213982441,"type":"hamlet","location":[35.1756712,31.4069565],"bbox":[35.1556712,31.3869565,35.1956712,31.4269565]}
{"display_name":"Ganoub, שטח C, יהודה ושומרון, Palestinian Territory","address":{"hamlet":"Ganoub","county":"שטח C","state":"יהודה ושומרון","country":"Palestinian Territory","country_code":"ps"},"osm_type":"node","osm_id":4456394266,"type":"hamlet","location":[35.2013101,31.5958776],"bbox":[35.1813101,31.5758776,35.2213101,31.6158776]}
{"name":"Isfey Al Fauqa","other_names":{"name:en":"Isfey Al Fauqa","name:he":"איספיי אל פוקה"},"display_name":"Isfey Al Fauqa, שטח C, יהודה ושומרון, Palestinian Territory","address":{"hamlet":"Isfey Al Fauqa","county":"שטח C","state":"יהודה ושומרון","country":"Palestinian Territory","country_code":"ps"},"osm_type":"node","osm_id":4849177594,"type":"hamlet","location":[35.1804292,31.3981929],"bbox":[35.1604292,31.3781929,35.2004292,31.4181929]}
{"name":"Khirbet al Farkheit","other_names":{"name:en":"Khirbet al Farkheit","name:he":"חירבת אל פרחיית"},"display_name":"Khirbet al Farkheit, שטח C, יהודה ושומרון, Palestinian Territory","address":{"hamlet":"Khirbet al Farkheit","county":"שטח C","state":"יהודה ושומרון","country":"Palestinian Territory","country_code":"ps"},"osm_type":"node","osm_id":4189965553,"type":"hamlet","location":[35.1740437,31.3818868],"bbox":[35.1540437,31.3618868,35.1940437,31.4018868]}
{"name":"Khirbet al Majaz","other_names":{"name:en":"Khirbet al Majaz","name:he":"חירבת אל מג'אז"},"display_name":"Khirbet al Majaz, שטח C, יהודה ושומרון, Palestinian Territory","address":{"hamlet":"Khirbet al Majaz","county":"שטח C","state":"יהודה ושומרון","country":"Palestinian Territory","country_code":"ps"},"osm_type":"node","osm_id":4846414853,"type":"hamlet","location":[35.1887949,31.378574],"bbox":[35.1687949,31.358574,35.2087949,31.398574]}
{"name":"Maghayr al Abeed","other_names":{"name:en":"Maghayr al Abeed","name:he":"מע'ר אל עביד"},"display_name":"Maghayr al Abeed, שטח C, יהודה ושומרון, Palestinian Territory","address":{"hamlet":"Maghayr al Abeed","county":"שטח C","state":"יהודה ושומרון","country":"Palestinian Territory","country_code":"ps"},"osm_type":"node","osm_id":4814013054,"type":"hamlet","location":[35.1766562,31.3967673],"bbox":[35.1566562,31.3767673,35.1966562,31.4167673]}
{"name":"Mantiqat Shi'b al Batum","other_names":{"name:en":"Mantiqat Shi'b al Batum","name:fr":"Mantiqat She'b al-Baten","name:he":"מנתיקת שעב אל-בטן","alt_name":"Mantiqat She'b al-Baten"},"display_name":"Mantiqat Shi'b al Batum, التوانة, שטח C, יהודה ושומרון, Palestinian Territory","address":{"hamlet":"Mantiqat Shi'b al Batum","village":"التوانة","county":"שטח C","state":"יהודה ושומרון","country":"Palestinian Territory","country_code":"ps"},"osm_type":"way","osm_id":363148808,"type":"hamlet","location":[35.14971334330224,31.40268475],"bbox":[35.1484166,31.4017093,35.1530917,31.4036934]}
{"name":"Wadi Abu Hindi","other_names":{"name:ar":"وادي أبو هندي","name:en":"Wadi Abu Hindi"},"display_name":"Wadi Abu Hindi, שטח C, יהודה ושומרון, Palestinian Territory","address":{"hamlet":"Wadi Abu Hindi","county":"שטח C","state":"יהודה ושומרון","country":"Palestinian Territory","country_code":"ps"},"osm_type":"way","osm_id":454116818,"type":"hamlet","location":[35.31868293582417,31.7586375],"bbox":[35.3120845,31.7564905,35.3252783,31.7606013]}
{"name":"אביתר","other_names":{"name:ar":"إبياتار","name:en":"Evyatar","name:he":"אביתר"},"display_name":"אביתר, שטח C, יהודה ושומרון, Palestinian Territory","address":{"hamlet":"אביתר","county":"שטח C","state":"יהודה ושומרון","country":"Palestinian Territory","country_code":"ps"},"osm_type":"node","osm_id":8709989926,"type":"hamlet","location":[35.2747395,32.1197691],"bbox":[35.2547395,32.0997691,35.2947395,32.1397691]}
{"name":"אדוריים","other_names":{"name:ar":"أدورايم","name:en":"Adorayim","name:he":"אדוריים"},"display_name":"אדוריים, שטח C, יהודה ושומרון, Palestinian Territory","address":{"hamlet":"אדוריים","county":"שטח C","state":"יהודה ושומרון","country":"Palestinian Territory","country_code":"ps"},"osm_type":"node","osm_id":12023047775,"type":"hamlet","location":[35.0449362,31.4845045],"bbox":[35.0249362,31.4645045,35.0649362,31.5045045]}
{"name":"אור אהוביה","other_names":{"name:en":"Or Ahuvia","name:he":"אור אהוביה"},"display_name":"אור אהוביה, שטח C, יהודה ושומרון, Palestinian Territory","address":{"hamlet":"אור אהוביה","county":"שטח C","state":"יהודה ושומרון","country":"Palestinian Territory","country_code":"ps"},"osm_type":"node","osm_id":11807010887,"type":"hamlet","location":[35.2681936,31.9372758],"bbox":[35.2481936,31.9172758,35.2881936,31.9572758]}
{"name":"אור מאיר","other_names":{"name:en":"Or Meir","name:he":"אור מאיר"},"display_name":"אור מאיר, שטח C, יהודה ושומרון, Palestinian Territory","address":{"hamlet":"אור מאיר","county":"שטח C","state":"יהודה ושומרון","country":"Palestinian Territory","country_code":"ps"},"osm_type":"node","osm_id":11807010886,"type":"hamlet","location":[35.2513463,31.9342376],"bbox":[35.2313463,31.9142376,35.2713463,31.9542376]}
{"name":"איספיי אל תחתא","other_names":{"name:en":"Isfey Al Tahta","name:he":"איספיי אל תחתא"},"display_name":"איספיי אל תחתא, שטח C, יהודה ושומרון, Palestinian Territory","address":{"hamlet":"איספיי אל תחתא","county":"שטח C","state":"יהודה ושומרון","country":"Palestinian Territory","country_code":"ps"},"osm_type":"node","osm_id":4849177580,"type":"hamlet","location":[35.188449,31.3999557],"bbox":[35.168449,31.3799557,35.208449,31.4199557]}
{"name":"אל מתן","other_names":{"name:en":"El Matan","name:fr":"El Matan","name:he":"אל מתן"},"display_name":"אל מתן, קרני שומרון, שטח C, יהודה ושומרון, 380, Palestinian Territory","address":{"hamlet":"אל מתן","village":"קרני שומרון","county":"שטח C","state":"יהודה ושומרון","postcode":"380","country":"Palestinian Territory","country_code":"ps"},"osm_type":"node","osm_id":7069905639,"type":"hamlet","location":[35.07525,32.1513657],"bbox":[35.05525,32.1313657,35.09525,32.1713657]}
{"name":"אל נווה","other_names":{"name:en":"El Naveh","name:he":"אל נווה"},"display_name":"אל נווה, מועצה אזורית שומרון, שטח C, יהודה ושומרון, Palestinian Territory","address":{"hamlet":"אל נווה","city":"מועצה אזורית שומרון","county":"שטח C","state":"יהודה ושומרון","country":"Palestinian Territory","country_code":"ps"},"osm_type":"node","osm_id":12870825059,"type":"hamlet","location":[35.1130827,32.437817],"bbox":[35.0930827,32.417817,35.1330827,32.457817]}
{"name":"אלוני שילה","other_names":{"name:en":"Alonei Shilo","name:fr":"Alonei Shilo","name:he":"אלוני שילה"},"display_name":"אלוני שילה, קרני שומרון, שטח C, יהודה ושומרון, Palestinian Territory","address":{"hamlet":"אלוני שילה","village":"קרני שומרון","county":"שטח C","state":"יהודה ושומרון","country":"Palestinian Territory","country_code":"ps"},"osm_type":"node","osm_id":1085225334,"type":"hamlet","location":[35.1201379,32.1629565],"bbox":[35.1001379,32.1429565,35.1401379,32.1829565]}
{"name":"אעירה שחר","other_names":{"name:en":"A'ira shachar","name:he":"אעירה שחר","alt_name":"גבעה א'"},"display_name":"אעירה שחר, שטח C, יהודה ושומרון, Palestinian Territory","address":{"hamlet":"אעירה שחר","county":"שטח C","state":"יהודה ושומרון","country":"Palestinian Territory","country_code":"ps"},"osm_type":"node","osm_id":8856867338,"type":"hamlet","location":[35.3690534,31.9508099],"bbox":[35.3490534,31.9308099,35.3890534,31.9708099],"border":{"name":"אעירה שחר","other_names":{"name:en":"A'ira Shachar","name:he":"אעירה שחר","alt_name":"גבעה א'","alt:en":"A'ira shachar"},"display_name":"אעירה שחר, שטח C, יהודה ושומרון, Palestinian Territory","address":{"hamlet":"אעירה שחר","county":"שטח C","state":"יהודה ושומרון","country":"Palestinian Territory","country_code":"ps"},"osm_type":"way","osm_id":1155915962,"type":"hamlet","location":[35.3690534,31.9508099],"bbox":[35.3641998,31.9472778,35.3728363,31.9539943]}}
{"name":"אשקוביות קרוונים","other_names":{"name:ar":"اشكوبيوت كرفانيم","name:en":"Ashkuviot Karavanim","name:fr":"Eshkubiyot","name:he":"אשקוביות קרוונים","alt_name:fr":"Karavans"},"display_name":"אשקוביות קרוונים, קדומים, שטח C, יהודה ושומרון, Palestinian Territory","address":{"hamlet":"אשקוביות קרוונים","village":"קדומים","county":"שטח C","state":"יהודה ושומרון","country":"Palestinian Territory","country_code":"ps"},"osm_type":"node","osm_id":928627424,"type":"hamlet","location":[35.1544851,32.2133286],"bbox":[35.1344851,32.1933286,35.1744851,32.2333286]}
{"name":"אשתמוע","other_names":{"name:ar":"أشتموع","name:en":"Eshtamoa","name:fr":"Eshtemoa","name:he":"אשתמוע"},"display_name":"אשתמוע, שטח C, יהודה ושומרון, Palestinian Territory","address":{"hamlet":"אשתמוע","county":"שטח C","state":"יהודה ושומרון","country":"Palestinian Territory","country_code":"ps"},"osm_type":"node","osm_id":1528468255,"type":"hamlet","location":[35.0162081,31.3934384],"bbox":[34.9962081,31.3734384,35.0362081,31.4134384],"border":{"name":"אשתמוע","other_names":{"name:ar":"أشتموع","name:en":"Eshtamoa","name:fr":"Eshtemoa","name:he":"אשתמוע"},"display_name":"אשתמוע, שטח C, יהודה ושומרון, Palestinian Territory","address":{"hamlet":"אשתמוע","county":"שטח C","state":"יהודה ושומרון","country":"Palestinian Territory","country_code":"ps"},"osm_type":"way","osm_id":396596498,"type":"hamlet","location":[35.0162081,31.3934384],"bbox":[35.0144839,31.3922063,35.0170227,31.3940154]}}
{"name":"באר אלחנן","other_names":{"name:he":"באר אלחנן"},"display_name":"באר אלחנן, שטח C, יהודה ושומרון, Palestinian Territory","address":{"hamlet":"באר אלחנן","county":"שטח C","state":"יהודה ושומרון","country":"Palestinian Territory","country_code":"ps"},"osm_type":"node","osm_id":12177936215,"type":"hamlet","location":[35.0374597,31.4443022],"bbox":[35.0174597,31.4243022,35.0574597,31.4643022],"border":{"name":"באר אלחנן","other_names":{"name:he":"באר אלחנן"},"display_name":"באר אלחנן, שטח C, יהודה ושומרון, Palestinian Territory","address":{"hamlet":"באר אלחנן","county":"שטח C","state":"יהודה ושומרון","country":"Palestinian Territory","country_code":"ps"},"osm_type":"way","osm_id":1315652991,"type":"hamlet","location":[35.0374597,31.4443022],"bbox":[35.0368402,31.443776,35.0379056,31.4446727]}}
{"name":"בית הברכה","other_names":{"name:ar":"بيت البركة","name:en":"Beit Bracha","name:fr":"Beit El Baraka","name:he":"בית הברכה","name:en1":"Beit El Baraka"},"display_name":"בית הברכה, שטח C, יהודה ושומרון, Palestinian Territory","address":{"hamlet":"בית הברכה","county":"שטח C","state":"יהודה ושומרון","country":"Palestinian Territory","country_code":"ps"},"osm_type":"node","osm_id":7059650536,"type":"hamlet","location":[35.1315786,31.6319191],"bbox":[35.1115786,31.6119191,35.1515786,31.6519191]}
{"name":"בית חגלה","other_names":{"name:en":"Beit Hogla","name:fr":"Beit Hogla","name:he":"בית חגלה","name:he1":"בית חוגלה"},"display_name":"בית חגלה, מועצה אזורית מגילות ים המלח, שטח C, יהודה ושומרון, Palestinian Territory","address":{"hamlet":"בית חגלה","city":"מועצה אזורית מגילות ים המלח","county":"שטח C","state":"יהודה ושומרון","country":"Palestinian Territory","country_code":"ps"},"osm_type":"node","osm_id":8235675752,"type":"hamlet","location":[35.5071506,31.8210977],"bbox":[35.4871506,31.8010977,35.5271506,31.8410977]}
{"name":"בני אדם","other_names":{"name:en":"Bnei Adam","name:fr":"Bnei Adam","name:he":"בני אדם"},"display_name":"בני אדם, שטח C, יהודה ושומרון, Palestinian Territory","address":{"hamlet":"בני אדם","county":"שטח C","state":"יהודה ושומרון","country":"Palestinian Territory","country_code":"ps"},"osm_type":"node","osm_id":3662252475,"type":"hamlet","location":[35.3063702,31.8449002],"bbox":[35.2863702,31.8249002,35.3263702,31.8649002]}
{"name":"בר כוכבא","other_names":{"name:ar":"نَحَل حِيليص","name:en":"Nahal Heletz","name:he":"בר כוכבא","name:new":"בר כוכבא"},"display_name":"בר כוכבא, שטח C, יהודה ושומרון, Palestinian Territory","address":{"hamlet":"בר כוכבא","county":"שטח C","state":"יהודה ושומרון","country":"Palestinian Territory","country_code":"ps"},"osm_type":"node","osm_id":12051720255,"type":"hamlet","location":[35.1530971,31.7128693],"bbox":[35.1330971,31.6928693,35.1730971,31.7328693]}
{"name":"ברוש הבקעה","other_names":{"name:ar":"بروش هبيقعه","name:en":"Brosh HaBik'a","name:fr":"Brosh HaBik'a","name:he":"ברוש הבקעה","old_name:ar":"بيترونوت","old_name:en":"Bitronot","old_name:he":"בתרונות"},"display_name":"ברוש הבקעה, שטח C, יהודה ושומרון, Palestinian Territory","address":{"hamlet":"ברוש הבקעה","county":"שטח C","state":"יהודה ושומרון","country":"Palestinian Territory","country_code":"ps"},"osm_type":"node","osm_id":5811958623,"type":"hamlet","location":[35.5421207,32.3194536],"bbox":[35.5221207,32.2994536,35.5621207,32.3394536]}
{"name":"גבעה 782","other_names":{"name:en":"Hill 782","name:fr":"Colline 782","name:he":"גבעה 782"},"display_name":"גבעה 782, שטח C, יהודה ושומרון, Palestinian Territory","address":{"hamlet":"גבעה 782","county":"שטח C","state":"יהודה ושומרון","country":"Palestinian Territory","country_code":"ps"},"osm_type":"node","osm_id":1446959701,"type":"hamlet","location":[35.3309008,32.1592557],"bbox":[35.3109008,32.1392557,35.3509008,32.1792557]}
{"name":"גבעה 851","other_names":{"name:en":"Hill 851","name:fr":"Hill 851","name:he":"גבעה 851"},"display_name":"גבעה 851, מועצה אזורית שומרון, שטח C, יהודה ושומרון, Palestinian Territory","address":{"hamlet":"גבעה 851","city":"מועצה אזורית שומרון","county":"שטח C","state":"יהודה ושומרון","country":"Palestinian Territory","country_code":"ps"},"osm_type":"node","osm_id":1446959679,"type":"hamlet","location":[35.3359648,32.1667395],"bbox":[35.3159648,32.1467395,35.3559648,32.1867395]}
{"name":"גבעת אסף","other_names":{"name:ar":"جيفعات أساف","name:en":"Giv'at Asaf","name:fr":"Giv'at Asaf","name:he":"גבעת אסף"},"display_name":"גבעת אסף, שטח C, יהודה ושומרון, 611, Palestinian Territory","address":{"hamlet":"גבעת אסף","county":"שטח C","state":"יהודה ושומרון","postcode":"611","country":"Palestinian Territory","country_code":"ps"},"osm_type":"node","osm_id":2400525628,"type":"hamlet","location":[35.2479228,31.911352],"bbox":[35.2279228,31.891352,35.2679228,31.931352]}
{"name":"גבעת ארנון","other_names":{"name:en":"Givat Arnon","name:fr":"Givat Arnon","name:he":"גבעת ארנון","alt_name":"גבעה 777","alt_name:en":"Hill 777","alt_name:fr":"Hill 777","alt_name:he":"גבעה 777"},"display_name":"גבעת ארנון, גבעות עולם, שטח C, יהודה ושומרון, Palestinian Territory","address":{"hamlet":"גבעת ארנון","village":"גבעות עולם","county":"שטח C","state":"יהודה ושומרון","country":"Palestinian Territory","country_code":"ps"},"osm_type":"node","osm_id":1446959781,"type":"hamlet","location":[35.3662201,32.1533699],"bbox":[35.3462201,32.1333699,35.3862201,32.1733699]}
{"name":"גבעת הבוסתן","other_names":{"name:en":"Giv'at HaBustan","name:fr":"Giv'at HaBustan","name:he":"גבעת הבוסתן"},"display_name":"גבעת הבוסתן, נגוהות, שטח C, יהודה ושומרון, 766, Palestinian Territory","address":{"hamlet":"גבעת הבוסתן","village":"נגוהות","county":"שטח C","state":"יהודה ושומרון","postcode":"766","country":"Palestinian Territory","country_code":"ps"},"osm_type":"node","osm_id":1360386483,"type":"hamlet","location":[34.9704336,31.4966261],"bbox":[34.9504336,31.4766261,34.9904336,31.5166261]}
{"name":"גבעת הראה","other_names":{"name:en":"HaRoeh","name:fr":"HaRoeh","name:he":"גבעת הרא\"ה"},"display_name":"גבעת הראה, עלי, שטח C, יהודה ושומרון, Palestinian Territory","address":{"hamlet":"גבעת הראה","village":"עלי","county":"שטח C","state":"יהודה ושומרון","country":"Palestinian Territory","country_code":"ps"},"osm_type":"node","osm_id":980145568,"type":"hamlet","location":[35.2624966,32.054571],"bbox":[35.2424966,32.034571,35.2824966,32.074571]}
{"name":"גבעת הראל","other_names":{"name:en":"Givat Harel","name:fr":"Givat Harel","name:he":"גבעת הראל"},"display_name":"גבעת הראל, שטח C, יהודה ושומרון, Palestinian Territory","address":{"hamlet":"גבעת הראל","county":"שטח C","state":"יהודה ושומרון","country":"Palestinian Territory","country_code":"ps"},"osm_type":"node","osm_id":2391425555,"type":"hamlet","location":[35.2723357,32.0596045],"bbox":[35.2523357,32.0396045,35.2923357,32.0796045]}
{"name":"גבעת סלעית","other_names":{"name:en":"Givat Salit","name:fr":"Giv‘at Sal‘it","name:he":"גבעת סלעית"},"display_name":"גבעת סלעית, מועצה אזורית ערבות הירדן, שטח C, יהודה ושומרון, Palestinian Territory","address":{"hamlet":"גבעת סלעית","city":"מועצה אזורית ערבות הירדן","county":"שטח C","state":"יהודה ושומרון","country":"Palestinian Territory","country_code":"ps"},"osm_type":"node","osm_id":7411198091,"type":"hamlet","location":[35.5099938,32.3635835],"bbox":[35.4899938,32.3435835,35.5299938,32.3835835]}
{"name":"גבעת רש\"י","other_names":{"name:he":"גבעת רש\"י"},"display_name":"גבעת רש\"י, קדומים, שטח C, יהודה ושומרון, Palestinian Territory","address":{"hamlet":"גבעת רש\"י","village":"קדומים","county":"שטח C","state":"יהודה ושומרון","country":"Palestinian Territory","country_code":"ps"},"osm_type":"node","osm_id":8892910408,"type":"hamlet","location":[35.1621416,32.2193069],"bbox":[35.1421416,32.1993069,35.1821416,32.2393069]}
{"name":"גפן","other_names":{"name:en":"Gefen","name:fr":"Gefen","name:he":"גפן"},"display_name":"גפן, אפרת, שטח C, יהודה ושומרון, Palestinian Territory","address":{"hamlet":"גפן","village":"אפרת","county":"שטח C","state":"יהודה ושומרון","country":"Palestinian Territory","country_code":"ps"},"osm_type":"node","osm_id":528575220,"type":"hamlet","location":[35.1498253,31.6559999],"bbox":[35.1298253,31.6359999,35.1698253,31.6759999]}
{"name":"גת קדומים","other_names":{"name:en":"Gat Kdumim","name:fr":"Gat Kedumim","name:he":"גת קדומים"},"display_name":"גת קדומים, קדומים, שטח C, יהודה ושומרון, Palestinian Territory","address":{"hamlet":"גת קדומים","village":"קדומים","county":"שטח C","state":"יהודה ושומרון","country":"Palestinian Territory","country_code":"ps"},"osm_type":"node","osm_id":929024458,"type":"hamlet","location":[35.1640478,32.2305148],"bbox":[35.1440478,32.2105148,35.1840478,32.2505148]}
{"name":"האתרוג","other_names":{"name:en":"HaEtrog","name:fr":"HaEtrog","name:he":"האתרוג"},"display_name":"האתרוג, ביתר עילית, שטח C, יהודה ושומרון, Palestinian Territory","address":{"hamlet":"האתרוג","city":"ביתר עילית","county":"שטח C","state":"יהודה ושומרון","country":"Palestinian Territory","country_code":"ps"},"osm_type":"node","osm_id":792272400,"type":"hamlet","location":[35.1235468,31.6971417],"bbox":[35.1035468,31.6771417,35.1435468,31.7171417]}
{"name":"הגפן","other_names":{"name:en":"HaGefen","name:fr":"HaGefen","name:he":"הגפן"},"display_name":"הגפן, ביתר עילית, שטח C, יהודה ושומרון, Palestinian Territory","address":{"hamlet":"הגפן","city":"ביתר עילית","county":"שטח C","state":"יהודה ושומרון","country":"Palestinian Territory","country_code":"ps"},"osm_type":"node","osm_id":792272399,"type":"hamlet","location":[35.1132364,31.7026004],"bbox":[35.0932364,31.6826004,35.1332364,31.7226004]}
{"name":"הדס","other_names":{"name:en":"Hadas","name:fr":"Hadas","name:he":"הדס"},"display_name":"הדס, ביתר עילית, שטח C, יהודה ושומרון, Palestinian Territory","address":{"hamlet":"הדס","city":"ביתר עילית","county":"שטח C","state":"יהודה ושומרון","country":"Palestinian Territory","country_code":"ps"},"osm_type":"node","osm_id":792272402,"type":"hamlet","location":[35.1087734,31.69192],"bbox":[35.0887734,31.67192,35.1287734,31.71192]}
{"name":"הדקל","other_names":{"name:en":"HaDekel","name:fr":"HaDekel","name:he":"הדקל"},"display_name":"הדקל, ביתר עילית, שטח C, יהודה ושומרון, Palestinian Territory","address":{"hamlet":"הדקל","city":"ביתר עילית","county":"שטח C","state":"יהודה ושומרון","country":"Palestinian Territory","country_code":"ps"},"osm_type":"node","osm_id":792272401,"type":"hamlet","location":[35.1141377,31.6943666],"bbox":[35.0941377,31.6743666,35.1341377,31.7143666]}
{"name":"החווה של יוליוס","display_name":"החווה של יוליוס, שטח C, יהודה ושומרון, Palestinian Territory","address":{"hamlet":"החווה של יוליוס","county":"שטח C","state":"יהודה ושומרון","country":"Palestinian Territory","country_code":"ps"},"osm_type":"node","osm_id":12596657326,"type":"hamlet","location":[35.4104879,32.1423853],"bbox":[35.3904879,32.1223853,35.4304879,32.1623853]}
{"name":"החווה של מגורי","other_names":{"name:he":"החווה של מגורי"},"display_name":"החווה של מגורי, שטח C, יהודה ושומרון, Palestinian Territory","address":{"hamlet":"החווה של מגורי","county":"שטח C","state":"יהודה ושומרון","country":"Palestinian Territory","country_code":"ps"},"osm_type":"node","osm_id":12463441138,"type":"hamlet","location":[35.2442424,31.9845398],"bbox":[35.2242424,31.9645398,35.2642424,32.0045398]}
{"name":"החווה של מיכה","other_names":{"name:he":"החווה של מיכה"},"display_name":"החווה של מיכה, שטח C, יהודה ושומרון, Palestinian Territory","address":{"hamlet":"החווה של מיכה","county":"שטח C","state":"יהודה ושומרון","country":"Palestinian Territory","country_code":"ps"},"osm_type":"node","osm_id":11285628920,"type":"hamlet","location":[35.3549171,31.9864219],"bbox":[35.3349171,31.9664219,35.3749171,32.0064219],"border":{"name":"החווה של מיכה","other_names":{"name:he":"החווה של מיכה"},"display_name":"החווה של מיכה, שטח C, יהודה ושומרון, Palestinian Territory","address":{"hamlet":"החווה של מיכה","county":"שטח C","state":"יהודה ושומרון","country":"Palestinian Territory","country_code":"ps"},"osm_type":"way","osm_id":1217961255,"type":"hamlet","location":[35.3549171,31.9864219],"bbox":[35.3517685,31.9845593,35.3566946,31.9883094]}}
{"name":"החווה של מלכיאל","display_name":"החווה של מלכיאל, שטח C, יהודה ושומרון, Palestinian Territory","address":{"hamlet":"החווה של מלכיאל","county":"שטח C","state":"יהודה ושומרון","country":"Palestinian Territory","country_code":"ps"},"osm_type":"node","osm_id":12508994385,"type":"hamlet","location":[35.3745206,31.9084318],"bbox":[35.3545206,31.8884318,35.3945206,31.9284318]}
{"name":"החווה של צבי","other_names":{"name:en":"Tzvi's farm","name:he":"החווה של צבי"},"display_name":"החווה של צבי, שטח C, יהודה ושומרון, Palestinian Territory","address":{"hamlet":"החווה של צבי","county":"שטח C","state":"יהודה ושומרון","country":"Palestinian Territory","country_code":"ps"},"osm_type":"node","osm_id":10043449074,"type":"hamlet","location":[35.1461375,32.0074905],"bbox":[35.1261375,31.9874905,35.1661375,32.0274905]}
{"name":"החווה של שמחוביץ","display_name":"החווה של שמחוביץ, שטח C, יהודה ושומרון, Palestinian Territory","address":{"hamlet":"החווה של שמחוביץ","county":"שטח C","state":"יהודה ושומרון","country":"Palestinian Territory","country_code":"ps"},"osm_type":"node","osm_id":12693319176,"type":"hamlet","location":[35.1240069,31.3759554],"bbox":[35.1040069,31.3559554,35.1440069,31.3959554]}
{"name":"היובל","other_names":{"name:en":"HaYovel","name:fr":"HaYovel","name:he":"היובל"},"display_name":"היובל, עלי, שטח C, יהודה ושומרון, Palestinian Territory","address":{"hamlet":"היובל","village":"עלי","county":"שטח C","state":"יהודה ושומרון","country":"Palestinian Territory","country_code":"ps"},"osm_type":"node","osm_id":981442833,"type":"hamlet","location":[35.286249,32.068224],"bbox":[35.266249,32.048224,35.306249,32.088224]}
{"name":"הנקודה","other_names":{"name:en":"HaNekuda","name:fr":"HaNekuda","name:he":"הנקודה"},"display_name":"הנקודה, שטח C, יהודה ושומרון, 803, Palestinian Territory","address":{"hamlet":"הנקודה","county":"שטח C","state":"יהודה ושומרון","postcode":"803","country":"Palestinian Territory","country_code":"ps"},"osm_type":"node","osm_id":1446959722,"type":"hamlet","location":[35.3156015,32.1679747],"bbox":[35.2956015,32.1479747,35.3356015,32.1879747]}
{"name":"הר חמד","other_names":{"name:en":"Har Hemed","name:fr":"Har Hemed","name:he":"הר חמד"},"display_name":"הר חמד, שטח C, יהודה ושומרון, Palestinian Territory","address":{"hamlet":"הר חמד","county":"שטח C","state":"יהודה ושומרון","country":"Palestinian Territory","country_code":"ps"},"osm_type":"node","osm_id":5357720323,"type":"hamlet","location":[35.1519029,32.2302556],"bbox":[35.1319029,32.2102556,35.1719029,32.2502556]}
{"name":"התמר","other_names":{"name:en":"HaTamar","name:fr":"HaTamar","name:he":"התמר"},"display_name":"התמר, ביתר עילית, שטח C, יהודה ושומרון, Palestinian Territory","address":{"hamlet":"התמר","city":"ביתר עילית","county":"שטח C","state":"יהודה ושומרון","country":"Palestinian Territory","country_code":"ps"},"osm_type":"node","osm_id":792272398,"type":"hamlet","location":[35.1036234,31.6982737],"bbox":[35.0836234,31.6782737,35.1236234,31.7182737]}
{"name":"זית רענן","other_names":{"name:en":"Zayit Ra'anan","name:fr":"Zayit Ra'anan","name:he":"זית רענן"},"display_name":"זית רענן, טלמון, שטח C, יהודה ושומרון, Palestinian Territory","address":{"hamlet":"זית רענן","city_district":"טלמון","county":"שטח C","state":"יהודה ושומרון","country":"Palestinian Territory","country_code":"ps"},"osm_type":"node","osm_id":2266238847,"type":"hamlet","location":[35.1174952,31.95619],"bbox":[35.0974952,31.93619,35.1374952,31.97619]}
{"name":"חאן ארץ המרדפים","other_names":{"name:he":"חאן ארץ המרדפים"},"display_name":"חאן ארץ המרדפים, שטח C, יהודה ושומרון, Palestinian Territory","address":{"hamlet":"חאן ארץ המרדפים","county":"שטח C","state":"יהודה ושומרון","country":"Palestinian Territory","country_code":"ps"},"osm_type":"way","osm_id":332706280,"type":"hamlet","location":[35.35666207814431,31.820782700000002],"bbox":[35.3559885,31.8200994,35.3571936,31.8213359]}
{"name":"חוות אלומות","other_names":{"name:en":"Alumot Farm","name:he":"חוות אלומות"},"display_name":"חוות אלומות, מועצה אזורית שומרון, שטח C, יהודה ושומרון, Palestinian Territory","address":{"hamlet":"חוות אלומות","city":"מועצה אזורית שומרון","county":"שטח C","state":"יהודה ושומרון","country":"Palestinian Territory","country_code":"ps"},"osm_type":"node","osm_id":9504307825,"type":"hamlet","location":[35.3342055,32.1607414],"bbox":[35.3142055,32.1407414,35.3542055,32.1807414]}
{"name":"חוות גיתית","display_name":"חוות גיתית, שטח C, יהודה ושומרון, Palestinian Territory","address":{"hamlet":"חוות גיתית","county":"שטח C","state":"יהודה ושומרון","country":"Palestinian Territory","country_code":"ps"},"osm_type":"node","osm_id":11902102268,"type":"hamlet","location":[35.3873672,32.0908585],"bbox":[35.3673672,32.0708585,35.4073672,32.1108585]}
{"name":"חוות גל יוסף","display_name":"חוות גל יוסף, שטח C, יהודה ושומרון, Palestinian Territory","address":{"hamlet":"חוות גל יוסף","county":"שטח C","state":"יהודה ושומרון","country":"Palestinian Territory","country_code":"ps"},"osm_type":"node","osm_id":12249962595,"type":"hamlet","location":[35.3601067,32.0367205],"bbox":[35.3401067,32.0167205,35.3801067,32.0567205],"border":{"name":"חוות גל יוסף","display_name":"חוות גל יוסף, שטח C, יהודה ושומרון, Palestinian Territory","address":{"hamlet":"חוות גל יוסף","county":"שטח C","state":"יהודה ושומרון","country":"Palestinian Territory","country_code":"ps"},"osm_type":"way","osm_id":1323792416,"type":"hamlet","location":[35.3601067,32.0367205],"bbox":[35.3596265,32.0361897,35.3605946,32.036929]}}
{"name":"חוות גלעד","other_names":{"name:en":"Havat GIlad","name:fr":"Havat Gilad","name:he":"חוות גלעד","name:ar":"حوات غيلعاد","alt:en":"Havat Gil'ad"},"display_name":"חוות גלעד, שטח C, יהודה ושומרון, Palestinian Territory","address":{"village":"חוות גלעד","county":"שטח C","state":"יהודה ושומרון","country":"Palestinian Territory","country_code":"ps"},"osm_type":"way","osm_id":552214890,"type":"hamlet","location":[35.1815915,32.1994824],"bbox":[35.1781798,32.1959052,35.1842732,32.205132]}
{"name":"חוות הדיה","other_names":{"name:he":"חוות הדיה"},"display_name":"חוות הדיה, שטח C, יהודה ושומרון, Palestinian Territory","address":{"hamlet":"חוות הדיה","county":"שטח C","state":"יהודה ושומרון","country":"Palestinian Territory","country_code":"ps"},"osm_type":"node","osm_id":12170083150,"type":"hamlet","location":[35.427846,31.8663544],"bbox":[35.407846,31.8463544,35.447846,31.8863544]}
{"name":"חוות העיטם","other_names":{"name:he":"חוות העיטם"},"display_name":"חוות העיטם, אפרת, שטח C, יהודה ושומרון, Palestinian Territory","address":{"hamlet":"חוות העיטם","town":"אפרת","county":"שטח C","state":"יהודה ושומרון","country":"Palestinian Territory","country_code":"ps"},"osm_type":"node","osm_id":10989474784,"type":"hamlet","location":[35.1887167,31.6754127],"bbox":[35.1687167,31.6554127,35.2087167,31.6954127],"border":{"name":"חוות העיטם","other_names":{"name:he":"חוות העיטם"},"display_name":"חוות העיטם, אפרת, שטח C, יהודה ושומרון, Palestinian Territory","address":{"hamlet":"חוות העיטם","town":"אפרת","county":"שטח C","state":"יהודה ושומרון","country":"Palestinian Territory","country_code":"ps"},"osm_type":"way","osm_id":1183399566,"type":"hamlet","location":[35.1887167,31.6754127],"bbox":[35.1882603,31.6747963,35.1900559,31.675997]}}
{"name":"חוות הרועה העברי","other_names":{"name:en":"Ha'Ro'eh Ha'Ivri Farm","name:he":"חוות הרועה העברי"},"display_name":"חוות הרועה העברי, שטח C, יהודה ושומרון, Palestinian Territory","address":{"hamlet":"חוות הרועה העברי","county":"שטח C","state":"יהודה ושומרון","country":"Palestinian Territory","country_code":"ps"},"osm_type":"node","osm_id":12170052303,"type":"hamlet","location":[35.3219242,31.812295],"bbox":[35.3019242,31.792295,35.3419242,31.832295]}
{"name":"חוות הרשאש","other_names":{"name:en":"Harashash Farm","name:he":"חוות הרשאש"},"display_name":"חוות הרשאש, שטח C, יהודה ושומרון, Palestinian Territory","address":{"hamlet":"חוות הרשאש","county":"שטח C","state":"יהודה ושומרון","country":"Palestinian Territory","country_code":"ps"},"osm_type":"node","osm_id":10226142842,"type":"hamlet","location":[35.4035166,32.0425537],"bbox":[35.3835166,32.0225537,35.4235166,32.0625537]}
{"name":"חוות חנינה","other_names":{"name:he":"חוות חנינה"},"display_name":"חוות חנינה, שטח C, יהודה ושומרון, Palestinian Territory","address":{"hamlet":"חוות חנינה","county":"שטח C","state":"יהודה ושומרון","country":"Palestinian Territory","country_code":"ps"},"osm_type":"node","osm_id":12170100608,"type":"hamlet","location":[35.3048364,31.8945198],"bbox":[35.2848364,31.8745198,35.3248364,31.9145198]}
{"name":"חוות טליה","other_names":{"name:ar":"نوف نيشر","name:en":"Talya Farm","name:fr":"Nof Nesher","name:he":"חוות טליה","alt_name":"נוף נשר","alt_name:en":"Nof Nesher","alt_name:he":"נוף נשר"},"display_name":"חוות טליה, שטח C, יהודה ושומרון, Palestinian Territory","address":{"hamlet":"חוות טליה","county":"שטח C","state":"יהודה ושומרון","country":"Palestinian Territory","country_code":"ps"},"osm_type":"node","osm_id":4231883183,"type":"hamlet","location":[35.1243132,31.3672899],"bbox":[35.1043132,31.3472899,35.1443132,31.3872899]}
{"name":"חוות יתדות","other_names":{"name:en":"Yetedot Farm","name:he":"חוות יתדות","name:en1":"Havat Yetedot"},"display_name":"חוות יתדות, חוות גלעד, שטח C, יהודה ושומרון, Palestinian Territory","address":{"hamlet":"חוות יתדות","village":"חוות גלעד","county":"שטח C","state":"יהודה ושומרון","country":"Palestinian Territory","country_code":"ps"},"osm_type":"node","osm_id":12241203221,"type":"hamlet","location":[35.1825265,32.1910353],"bbox":[35.1625265,32.1710353,35.2025265,32.2110353]}
{"name":"חוות מדבר חבר","display_name":"חוות מדבר חבר, שטח C, יהודה ושומרון, Palestinian Territory","address":{"hamlet":"חוות מדבר חבר","county":"שטח C","state":"יהודה ושומרון","country":"Palestinian Territory","country_code":"ps"},"osm_type":"node","osm_id":12693355071,"type":"hamlet","location":[35.1650438,31.4789294],"bbox":[35.1450438,31.4589294,35.1850438,31.4989294],"border":{"name":"חוות מדבר חבר","other_names":{"name:he":"חוות מדבר חבר"},"display_name":"חוות מדבר חבר, שטח C, יהודה ושומרון, Palestinian Territory","address":{"hamlet":"חוות מדבר חבר","county":"שטח C","state":"יהודה ושומרון","country":"Palestinian Territory","country_code":"ps"},"osm_type":"way","osm_id":1106859425,"type":"hamlet","location":[35.1650438,31.4789294],"bbox":[35.1641757,31.4783698,35.1658942,31.4795]}}
{"name":"חוות מלאכי השלום","other_names":{"name:he":"חוות מלאכי השלום"},"display_name":"חוות מלאכי השלום, שטח C, יהודה ושומרון, Palestinian Territory","address":{"hamlet":"חוות מלאכי השלום","county":"שטח C","state":"יהודה ושומרון","country":"Palestinian Territory","country_code":"ps"},"osm_type":"node","osm_id":9432016016,"type":"hamlet","location":[35.3638276,32.0252279],"bbox":[35.3438276,32.0052279,35.3838276,32.0452279]}
{"name":"חוות נווה אורי הישנה","other_names":{"name:he":"חוות נווה אורי הישנה"},"display_name":"חוות נווה אורי הישנה, הר גילה, שטח C, יהודה ושומרון, Palestinian Territory","address":{"hamlet":"חוות נווה אורי הישנה","village":"הר גילה","county":"שטח C","state":"יהודה ושומרון","country":"Palestinian Territory","country_code":"ps"},"osm_type":"node","osm_id":12569269513,"type":"hamlet","location":[35.1646751,31.7120267],"bbox":[35.1446751,31.6920267,35.1846751,31.7320267]}
{"name":"חוות נוף גלעד","display_name":"חוות נוף גלעד, שטח C, יהודה ושומרון, Palestinian Territory","address":{"hamlet":"חוות נוף גלעד","county":"שטח C","state":"יהודה ושומרון","country":"Palestinian Territory","country_code":"ps"},"osm_type":"node","osm_id":5380733527,"type":"hamlet","location":[35.5199635,32.2897444],"bbox":[35.4999635,32.2697444,35.5399635,32.3097444]}
{"name":"חוות נחל מכוך","display_name":"חוות נחל מכוך, שטח C, יהודה ושומרון, Palestinian Territory","address":{"hamlet":"חוות נחל מכוך","county":"שטח C","state":"יהודה ושומרון","country":"Palestinian Territory","country_code":"ps"},"osm_type":"node","osm_id":12809191815,"type":"hamlet","location":[35.3353833,31.9078961],"bbox":[35.3153833,31.8878961,35.3553833,31.9278961]}
{"name":"חוות נתן ברוך","display_name":"חוות נתן ברוך, שטח C, יהודה ושומרון, Palestinian Territory","address":{"hamlet":"חוות נתן ברוך","county":"שטח C","state":"יהודה ושומרון","country":"Palestinian Territory","country_code":"ps"},"osm_type":"node","osm_id":12693355060,"type":"hamlet","location":[35.1767465,31.4704547],"bbox":[35.1567465,31.4504547,35.1967465,31.4904547]}
{"name":"חוות סקאלי","other_names":{"name:en":"Havat Skally","name:fr":"Havat Skali","name:he":"חוות סקאלי","alt_name":"Skally's Farm","name:en1":"Skally Farm"},"display_name":"חוות סקאלי, שטח C, יהודה ושומרון, Palestinian Territory","address":{"hamlet":"חוות סקאלי","county":"שטח C","state":"יהודה ושומרון","country":"Palestinian Territory","country_code":"ps"},"osm_type":"node","osm_id":1446182624,"type":"hamlet","location":[35.3706408,32.21428],"bbox":[35.3506408,32.19428,35.3906408,32.23428]}
{"name":"חוות עמק תרצה","display_name":"חוות עמק תרצה, שטח C, יהודה ושומרון, Palestinian Territory","address":{"hamlet":"חוות עמק תרצה","county":"שטח C","state":"יהודה ושומרון","country":"Palestinian Territory","country_code":"ps"},"osm_type":"node","osm_id":12731908378,"type":"hamlet","location":[35.4220509,32.2113559],"bbox":[35.4020509,32.1913559,35.4420509,32.2313559]}
{"name":"חוות ראש תאנה","display_name":"חוות ראש תאנה, שטח C, יהודה ושומרון, Palestinian Territory","address":{"hamlet":"חוות ראש תאנה","county":"שטח C","state":"יהודה ושומרון","country":"Palestinian Territory","country_code":"ps"},"osm_type":"node","osm_id":12856021951,"type":"hamlet","location":[35.3709044,32.003699],"bbox":[35.3509044,31.983699,35.3909044,32.023699]}
{"name":"חוות רימונים","other_names":{"name:he":"חוות רימונים"},"display_name":"חוות רימונים, שטח C, יהודה ושומרון, Palestinian Territory","address":{"hamlet":"חוות רימונים","county":"שטח C","state":"יהודה ושומרון","country":"Palestinian Territory","country_code":"ps"},"osm_type":"node","osm_id":12170082160,"type":"hamlet","location":[35.335857,31.9250979],"bbox":[35.315857,31.9050979,35.355857,31.9450979]}
{"name":"חוות שלישה","display_name":"חוות שלישה, שטח C, יהודה ושומרון, Palestinian Territory","address":{"hamlet":"חוות שלישה","county":"שטח C","state":"יהודה ושומרון","country":"Palestinian Territory","country_code":"ps"},"osm_type":"node","osm_id":12516703797,"type":"hamlet","location":[35.3349501,31.9995963],"bbox":[35.3149501,31.9795963,35.3549501,32.0195963]}
{"name":"חוות שקד","other_names":{"name:en":"Havat Shaked","name:fr":"Havat Shaked","name:he":"חוות שקד","name:ur":"حووت شقد"},"display_name":"חוות שקד, שטח C, יהודה ושומרון, Palestinian Territory","address":{"hamlet":"חוות שקד","county":"שטח C","state":"יהודה ושומרון","country":"Palestinian Territory","country_code":"ps"},"osm_type":"node","osm_id":4839785212,"type":"hamlet","location":[35.2405846,32.1626461],"bbox":[35.2205846,32.1426461,35.2605846,32.1826461],"border":{"name":"חוות שקד","other_names":{"name:fr":"Havat Shaked","name:he":"חוות שקד","name:en":"Havat Shaked","name:ur":"حووت شقد"},"display_name":"חוות שקד, שטח C, יהודה ושומרון, Palestinian Territory","address":{"hamlet":"חוות שקד","county":"שטח C","state":"יהודה ושומרון","country":"Palestinian Territory","country_code":"ps"},"osm_type":"way","osm_id":491891132,"type":"hamlet","location":[35.2405846,32.1626461],"bbox":[35.2378327,32.1594528,35.2430165,32.1657207]}}
{"name":"חורש ירון","other_names":{"name:en":"Horesh Yaron","name:fr":"Horesh Yaron","name:he":"חורש ירון"},"display_name":"חורש ירון, טלמון, שטח C, יהודה ושומרון, 620, Palestinian Territory","address":{"hamlet":"חורש ירון","city_district":"טלמון","county":"שטח C","state":"יהודה ושומרון","postcode":"620","country":"Palestinian Territory","country_code":"ps"},"osm_type":"node","osm_id":2266238818,"type":"hamlet","location":[35.1400625,31.9447526],"bbox":[35.1200625,31.9247526,35.1600625,31.9647526]}
{"name":"חרשה","other_names":{"name:en":"Harasha","name:fr":"Harasha","name:he":"חרשה"},"display_name":"חרשה, שטח C, יהודה ושומרון, 620, Palestinian Territory","address":{"hamlet":"חרשה","county":"שטח C","state":"יהודה ושומרון","postcode":"620","country":"Palestinian Territory","country_code":"ps"},"osm_type":"node","osm_id":2266238822,"type":"hamlet","location":[35.1488874,31.9446934],"bbox":[35.1288874,31.9246934,35.1688874,31.9646934]}
{"name":"יבוא דודי","other_names":{"name:en":"Yavo Dodi","name:he":"יבוא דודי"},"display_name":"יבוא דודי, שטח C, יהודה ושומרון, 620, Palestinian Territory","address":{"hamlet":"יבוא דודי","county":"שטח C","state":"יהודה ושומרון","postcode":"620","country":"Palestinian Territory","country_code":"ps"},"population":10,"osm_type":"node","osm_id":12022493022,"type":"hamlet","location":[35.1460969,31.9677759],"bbox":[35.1260969,31.9477759,35.1660969,31.9877759]}
{"name":"ישוב הדעת","other_names":{"name:en":"Yeshuv HaDaat","name:fr":"Yishuv HaDa'at","name:he":"ישוב הדעת","name:ur":"یشوب ہدعت"},"display_name":"ישוב הדעת, שטח C, יהודה ושומרון, Palestinian Territory","address":{"hamlet":"ישוב הדעת","county":"שטח C","state":"יהודה ושומרון","country":"Palestinian Territory","country_code":"ps"},"osm_type":"node","osm_id":1320835668,"type":"hamlet","location":[35.3403594,32.0467051],"bbox":[35.3203594,32.0267051,35.3603594,32.0667051]}
{"name":"כרמי קדם","other_names":{"name:en":"Karmei Kedem","name:fr":"Carmi Kedem","name:he":"כרמי קדם"},"display_name":"כרמי קדם, קדומים, שטח C, יהודה ושומרון, Palestinian Territory","address":{"hamlet":"כרמי קדם","village":"קדומים","county":"שטח C","state":"יהודה ושומרון","country":"Palestinian Territory","country_code":"ps"},"osm_type":"node","osm_id":928627425,"type":"hamlet","location":[35.1556867,32.2174133],"bbox":[35.1356867,32.1974133,35.1756867,32.2374133]}
{"name":"מגד הארץ","other_names":{"name:en":"Meged Haaretz","name:he":"מגד הארץ"},"display_name":"מגד הארץ, מועצה אזורית שומרון, שטח C, יהודה ושומרון, 302, Palestinian Territory","address":{"hamlet":"מגד הארץ","city":"מועצה אזורית שומרון","county":"שטח C","state":"יהודה ושומרון","postcode":"302","country":"Palestinian Territory","country_code":"ps"},"osm_type":"node","osm_id":12870870272,"type":"hamlet","location":[35.066543,32.2936049],"bbox":[35.046543,32.2736049,35.086543,32.3136049]}
{"name":"מגד שמים","other_names":{"name:fr":"Giv'at Maged Shamayim","name:he":"מגד שמים"},"display_name":"מגד שמים, שטח C, יהודה ושומרון, Palestinian Territory","address":{"hamlet":"מגד שמים","county":"שטח C","state":"יהודה ושומרון","country":"Palestinian Territory","country_code":"ps"},"osm_type":"way","osm_id":500411248,"type":"hamlet","location":[35.244171828513544,32.16564475],"bbox":[35.2422472,32.1643466,35.2475265,32.1671117]}
{"name":"מגן דן","other_names":{"name:en":"Magen Dan","name:fr":"Magen Dan","name:he":"מגן דן"},"display_name":"מגן דן, אלקנה, שטח C, יהודה ושומרון, Palestinian Territory","address":{"hamlet":"מגן דן","village":"אלקנה","county":"שטח C","state":"יהודה ושומרון","country":"Palestinian Territory","country_code":"ps"},"osm_type":"node","osm_id":2723850392,"type":"hamlet","location":[35.0210534,32.1102453],"bbox":[35.0010534,32.0902453,35.0410534,32.1302453]}
{"name":"מגרון החדשה","other_names":{"name:ar":"ميغرون الجديدة","name:en":"The new Migron","name:fr":"The new Migron","name:he":"מגרון החדשה","name:en1":"Giv'at HaYekev","name:he1":"גבעת היקב","name:he2":"מיגרון"},"display_name":"מגרון החדשה, כוכב יעקב, שטח C, יהודה ושומרון, Palestinian Territory","address":{"hamlet":"מגרון החדשה","city_district":"כוכב יעקב","county":"שטח C","state":"יהודה ושומרון","country":"Palestinian Territory","country_code":"ps"},"osm_type":"node","osm_id":1912942578,"type":"hamlet","location":[35.2590819,31.8741539],"bbox":[35.2390819,31.8541539,35.2790819,31.8941539]}
{"display_name":"מועצה אזורית מגילות ים המלח, שטח C, יהודה ושומרון, Palestinian Territory","address":{"city":"מועצה אזורית מגילות ים המלח","county":"שטח C","state":"יהודה ושומרון","country":"Palestinian Territory","country_code":"ps"},"osm_type":"way","osm_id":767112843,"type":"hamlet","location":[35.437314498034624,31.79650295],"bbox":[35.4350705,31.795436,35.4390616,31.7975288]}
{"name":"מיגרון הישנה","other_names":{"name:en":"Old Migron","name:fr":"Migron","name:he":"מיגרון הישנה"},"display_name":"מיגרון הישנה, שטח C, יהודה ושומרון, Palestinian Territory","address":{"hamlet":"מיגרון הישנה","county":"שטח C","state":"יהודה ושומרון","country":"Palestinian Territory","country_code":"ps"},"osm_type":"node","osm_id":946566457,"type":"hamlet","location":[35.2714897,31.8903319],"bbox":[35.2514897,31.8703319,35.2914897,31.9103319]}
{"name":"מלאכי אברהם","display_name":"מלאכי אברהם, שטח C, יהודה ושומרון, Palestinian Territory","address":{"hamlet":"מלאכי אברהם","county":"שטח C","state":"יהודה ושומרון","country":"Palestinian Territory","country_code":"ps"},"osm_type":"node","osm_id":12693355067,"type":"hamlet","location":[35.1760814,31.4818378],"bbox":[35.1560814,31.4618378,35.1960814,31.5018378]}
{"name":"מעוז אסתר","other_names":{"name:de":"Maoz Ester","name:en":"Maoz Ester","name:es":"Maoz Ester","name:fr":"Maoz Ester","name:he":"מעוז אסתר"},"display_name":"מעוז אסתר, שטח C, יהודה ושומרון, Palestinian Territory","address":{"hamlet":"מעוז אסתר","county":"שטח C","state":"יהודה ושומרון","country":"Palestinian Territory","country_code":"ps"},"osm_type":"node","osm_id":8574303143,"type":"hamlet","location":[35.3491295,31.9661821],"bbox":[35.3291295,31.9461821,35.3691295,31.9861821],"border":{"name":"מעוז אסתר","other_names":{"name:de":"Maoz Ester","name:es":"Maoz Ester","name:fr":"Maoz Ester","name:he":"מעוז אסתר","name:en":"Maoz Ester"},"display_name":"מעוז אסתר, שטח C, יהודה ושומרון, Palestinian Territory","address":{"hamlet":"מעוז אסתר","county":"שטח C","state":"יהודה ושומרון","country":"Palestinian Territory","country_code":"ps"},"osm_type":"way","osm_id":499134925,"type":"hamlet","location":[35.3491295,31.9661821],"bbox":[35.3403487,31.9635726,35.3571863,31.9738236]}}
{"name":"מעוז צבי","other_names":{"name:en":"Maoz Tzvi","name:fr":"Maoz Tzvi","name:he":"מעוז צבי"},"display_name":"מעוז צבי, מועצה אזורית שומרון, שטח C, יהודה ושומרון, Palestinian Territory","address":{"hamlet":"מעוז צבי","city":"מועצה אזורית שומרון","county":"שטח C","state":"יהודה ושומרון","country":"Palestinian Territory","country_code":"ps"},"osm_type":"node","osm_id":5334782046,"type":"hamlet","location":[35.1651345,32.424935],"bbox":[35.1451345,32.404935,35.1851345,32.444935],"border":{"name":"מעוז צבי","other_names":{"name:en":"Maoz Tzvi","name:fr":"Maoz Tzvi","name:he":"מעוז צבי"},"display_name":"מעוז צבי, מועצה אזורית שומרון, שטח C, יהודה ושומרון, Palestinian Territory","address":{"hamlet":"מעוז צבי","city":"מועצה אזורית שומרון","county":"שטח C","state":"יהודה ושומרון","country":"Palestinian Territory","country_code":"ps"},"osm_type":"way","osm_id":552560066,"type":"hamlet","location":[35.1651345,32.424935],"bbox":[35.1628106,32.4221933,35.1660432,32.4258754]}}
{"name":"מעלה אהוביה","other_names":{"name:he":"מעלה אהוביה"},"display_name":"מעלה אהוביה, שטח C, יהודה ושומרון, Palestinian Territory","address":{"hamlet":"מעלה אהוביה","county":"שטח C","state":"יהודה ושומרון","country":"Palestinian Territory","country_code":"ps"},"osm_type":"node","osm_id":12182765737,"type":"hamlet","location":[35.3328378,31.9483834],"bbox":[35.3128378,31.9283834,35.3528378,31.9683834]}
{"name":"מעלה ישראל","other_names":{"name:en":"Ma'ale Yisrael","name:fr":"Ma'ale Yisra'el","name:he":"מעלה ישראל"},"display_name":"מעלה ישראל, שטח C, יהודה ושומרון, 380, Palestinian Territory","address":{"hamlet":"מעלה ישראל","county":"שטח C","state":"יהודה ושומרון","postcode":"380","country":"Palestinian Territory","country_code":"ps"},"osm_type":"node","osm_id":7033631766,"type":"hamlet","location":[35.1050915,32.1158783],"bbox":[35.0850915,32.0958783,35.1250915,32.1358783]}
{"name":"מעלה רחבעם","other_names":{"name:en":"Maale Rehavam","name:fr":"Ma'ale Rehav'am","name:he":"מעלה רחבעם"},"display_name":"מעלה רחבעם, שטח C, יהודה ושומרון, Palestinian Territory","address":{"hamlet":"מעלה רחבעם","county":"שטח C","state":"יהודה ושומרון","country":"Palestinian Territory","country_code":"ps"},"osm_type":"node","osm_id":703723624,"type":"hamlet","location":[35.2584907,31.6478254],"bbox":[35.2384907,31.6278254,35.2784907,31.6678254]}
{"name":"מעלה שלמה","other_names":{"name:en":"Maale Shlomo","name:fr":"Ma'ale Shlomo","name:he":"מעלה שלמה"},"display_name":"מעלה שלמה, שטח C, יהודה ושומרון, Palestinian Territory","address":{"hamlet":"מעלה שלמה","county":"שטח C","state":"יהודה ושומרון","country":"Palestinian Territory","country_code":"ps"},"osm_type":"node","osm_id":6977827107,"type":"hamlet","location":[35.3439566,31.9494002],"bbox":[35.3239566,31.9294002,35.3639566,31.9694002]}
{"name":"מצפה חגית","other_names":{"name:he":"מצפה חגית"},"display_name":"מצפה חגית, שטח C, יהודה ושומרון, Palestinian Territory","address":{"hamlet":"מצפה חגית","county":"שטח C","state":"יהודה ושומרון","country":"Palestinian Territory","country_code":"ps"},"osm_type":"node","osm_id":8671204943,"type":"hamlet","location":[35.3380634,31.8512448],"bbox":[35.3180634,31.8312448,35.3580634,31.8712448],"border":{"name":"מצפה חגית","other_names":{"name:en":"Mitzpe Hagit","name:he":"מצפה חגית"},"display_name":"מצפה חגית, שטח C, יהודה ושומרון, Palestinian Territory","address":{"hamlet":"מצפה חגית","county":"שטח C","state":"יהודה ושומרון","country":"Palestinian Territory","country_code":"ps"},"osm_type":"way","osm_id":301510826,"type":"hamlet","location":[35.3380634,31.8512448],"bbox":[35.3359848,31.8504566,35.3391857,31.8523897]}}
{"name":"מצפה יאיר","other_names":{"name:ar":"متسبيه يأير","name:en":"Mitzpe Yair","name:fr":"Mitzpe Yair","name:he":"מצפה יאיר"},"display_name":"מצפה יאיר, שטח C, יהודה ושומרון, Palestinian Territory","address":{"hamlet":"מצפה יאיר","county":"שטח C","state":"יהודה ושומרון","country":"Palestinian Territory","country_code":"ps"},"osm_type":"node","osm_id":4189965555,"type":"hamlet","location":[35.1347874,31.3832648],"bbox":[35.1147874,31.3632648,35.1547874,31.4032648]}
{"name":"מצפה יצהר","other_names":{"name:en":"Mizpe Yitzhar","name:fr":"Mitspe Yits'har","name:he":"מצפה יצהר","name:ur":"مصپہ یصہار"},"display_name":"מצפה יצהר, שטח C, יהודה ושומרון, Palestinian Territory","address":{"hamlet":"מצפה יצהר","county":"שטח C","state":"יהודה ושומרון","country":"Palestinian Territory","country_code":"ps"},"osm_type":"node","osm_id":1447220627,"type":"hamlet","location":[35.2491852,32.1567341],"bbox":[35.2291852,32.1367341,35.2691852,32.1767341],"border":{"name":"מצפה יצהר","other_names":{"name:fr":"Mitspe Yits'har","name:he":"מצפה יצהר","name:en":"Mizpe Yitzhar","name:ur":"مصپہ یصہار"},"display_name":"מצפה יצהר, שטח C, יהודה ושומרון, Palestinian Territory","address":{"hamlet":"מצפה יצהר","county":"שטח C","state":"יהודה ושומרון","country":"Palestinian Territory","country_code":"ps"},"osm_type":"way","osm_id":491891129,"type":"hamlet","location":[35.2491852,32.1567341],"bbox":[35.2453125,32.1537993,35.2512803,32.159103]}}
{"name":"מצפה ישי","other_names":{"name:en":"Mitzpe Ishay","name:fr":"Mitspe Yishay","name:he":"מצפה ישי"},"display_name":"מצפה ישי, קדומים, שטח C, יהודה ושומרון, Palestinian Territory","address":{"hamlet":"מצפה ישי","village":"קדומים","county":"שטח C","state":"יהודה ושומרון","country":"Palestinian Territory","country_code":"ps"},"osm_type":"node","osm_id":927978189,"type":"hamlet","location":[35.1589095,32.2065924],"bbox":[35.1389095,32.1865924,35.1789095,32.2265924]}
{"name":"מצפה כרמים","other_names":{"name:fr":"Mitzpe Kramim","name:he":"מצפה כרמים"},"display_name":"מצפה כרמים, שטח C, יהודה ושומרון, Palestinian Territory","address":{"hamlet":"מצפה כרמים","county":"שטח C","state":"יהודה ושומרון","country":"Palestinian Territory","country_code":"ps"},"osm_type":"node","osm_id":1024982637,"type":"hamlet","location":[35.3568562,31.9575127],"bbox":[35.3368562,31.9375127,35.3768562,31.9775127]}
{"name":"מצפה לאה","display_name":"מצפה לאה, שטח C, יהודה ושומרון, Palestinian Territory","address":{"hamlet":"מצפה לאה","county":"שטח C","state":"יהודה ושומרון","country":"Palestinian Territory","country_code":"ps"},"osm_type":"node","osm_id":12312813544,"type":"hamlet","location":[35.3387864,31.9498983],"bbox":[35.3187864,31.9298983,35.3587864,31.9698983]}
{"name":"מצפה קדומים","other_names":{"name:en":"Mitzpeh Kdumim","name:fr":"Mitzpe Kedumim","name:he":"מצפה קדומים"},"display_name":"מצפה קדומים, קדומים, שטח C, יהודה ושומרון, Palestinian Territory","address":{"hamlet":"מצפה קדומים","village":"קדומים","county":"שטח C","state":"יהודה ושומרון","country":"Palestinian Territory","country_code":"ps"},"osm_type":"node","osm_id":928644324,"type":"hamlet","location":[35.1595367,32.220676],"bbox":[35.1395367,32.200676,35.1795367,32.240676]}
{"name":"מרום שמואל","display_name":"מרום שמואל, שטח C, יהודה ושומרון, Palestinian Territory","address":{"hamlet":"מרום שמואל","county":"שטח C","state":"יהודה ושומרון","country":"Palestinian Territory","country_code":"ps"},"osm_type":"node","osm_id":12596657329,"type":"hamlet","location":[35.3915789,32.2058869],"bbox":[35.3715789,32.1858869,35.4115789,32.2258869]}
{"name":"משכנות הראל","display_name":"משכנות הראל, נווה ארז, שטח C, יהודה ושומרון, Palestinian Territory","address":{"hamlet":"משכנות הראל","village":"נווה ארז","county":"שטח C","state":"יהודה ושומרון","country":"Palestinian Territory","country_code":"ps"},"osm_type":"node","osm_id":12249916563,"type":"hamlet","location":[35.3154795,31.8568447],"bbox":[35.2954795,31.8368447,35.3354795,31.8768447],"border":{"name":"משכנות הראל","display_name":"משכנות הראל, נווה ארז, שטח C, יהודה ושומרון, Palestinian Territory","address":{"hamlet":"משכנות הראל","village":"נווה ארז","county":"שטח C","state":"יהודה ושומרון","country":"Palestinian Territory","country_code":"ps"},"osm_type":"way","osm_id":1323788350,"type":"hamlet","location":[35.3154795,31.8568447],"bbox":[35.3150666,31.8566622,35.3159831,31.8572765]}}
{"name":"נאות אילן","other_names":{"name:en":"Neot Ilan","name:fr":"Neot Ilan","name:he":"נאות אילן","name:ur":"نیوت ایلان"},"display_name":"נאות אילן, עלי, שטח C, יהודה ושומרון, Palestinian Territory","address":{"hamlet":"נאות אילן","village":"עלי","county":"שטח C","state":"יהודה ושומרון","country":"Palestinian Territory","country_code":"ps"},"osm_type":"node","osm_id":980114816,"type":"hamlet","location":[35.266839,32.0732325],"bbox":[35.246839,32.0532325,35.286839,32.0932325]}
{"name":"נאות חן","other_names":{"name:en":"Neot Hen","name:fr":"Ne'ot Khen","name:he":"נאות חן"},"display_name":"נאות חן, עלי, שטח C, יהודה ושומרון, Palestinian Territory","address":{"hamlet":"נאות חן","village":"עלי","county":"שטח C","state":"יהודה ושומרון","country":"Palestinian Territory","country_code":"ps"},"osm_type":"node","osm_id":980114812,"type":"hamlet","location":[35.2604568,32.0688436],"bbox":[35.2404568,32.0488436,35.2804568,32.0888436]}
{"name":"נווה שהם","other_names":{"name:en":"Neve Shoham","name:fr":"Neve Shoham","name:he":"נווה שהם"},"display_name":"נווה שהם, עלי, שטח C, יהודה ושומרון, Palestinian Territory","address":{"hamlet":"נווה שהם","village":"עלי","county":"שטח C","state":"יהודה ושומרון","country":"Palestinian Territory","country_code":"ps"},"osm_type":"node","osm_id":981442823,"type":"hamlet","location":[35.2731459,32.0776189],"bbox":[35.2531459,32.0576189,35.2931459,32.0976189]}
{"name":"נווה שיר","other_names":{"name:en":"Neve Shir","name:fr":"Neve Shir","name:he":"נווה שיר"},"display_name":"נווה שיר, עלי, שטח C, יהודה ושומרון, Palestinian Territory","address":{"hamlet":"נווה שיר","village":"עלי","county":"שטח C","state":"יהודה ושומרון","country":"Palestinian Territory","country_code":"ps"},"osm_type":"node","osm_id":980114804,"type":"hamlet","location":[35.2533853,32.0669251],"bbox":[35.2333853,32.0469251,35.2733853,32.0869251]}
{"name":"נוף הרים","other_names":{"name:en":"Nof Harim","name:fr":"Nof Harim","name:he":"נוף הרים","name:ur":"نوف ہریم"},"display_name":"נוף הרים, עלי, שטח C, יהודה ושומרון, Palestinian Territory","address":{"hamlet":"נוף הרים","village":"עלי","county":"שטח C","state":"יהודה ושומרון","country":"Palestinian Territory","country_code":"ps"},"osm_type":"node","osm_id":981442837,"type":"hamlet","location":[35.2775029,32.0759464],"bbox":[35.2575029,32.0559464,35.2975029,32.0959464]}
{"name":"נחלה","other_names":{"name:en":"Nahala","name:fr":"Nahala","name:he":"נחלה","name:ur":"نحلہ"},"display_name":"נחלה, מועצה אזורית שומרון, שטח C, יהודה ושומרון, Palestinian Territory","address":{"hamlet":"נחלה","city":"מועצה אזורית שומרון","county":"שטח C","state":"יהודה ושומרון","country":"Palestinian Territory","country_code":"ps"},"osm_type":"node","osm_id":4839815048,"type":"hamlet","location":[35.2329128,32.1703633],"bbox":[35.2129128,32.1503633,35.2529128,32.1903633],"border":{"name":"נחלה","other_names":{"name:en":"Nahala","name:fr":"Nahala","name:he":"נחלה","name:ur":"نحلہ"},"display_name":"נחלה, מועצה אזורית שומרון, שטח C, יהודה ושומרון, Palestinian Territory","address":{"hamlet":"נחלה","city":"מועצה אזורית שומרון","county":"שטח C","state":"יהודה ושומרון","country":"Palestinian Territory","country_code":"ps"},"osm_type":"way","osm_id":491894520,"type":"hamlet","location":[35.2329128,32.1703633],"bbox":[35.2306848,32.1695742,35.2352504,32.1744038]}}
{"name":"נריה ב'","other_names":{"name:el":"Νέρια Β","name:en":"Neria B","name:fr":"Neria B","name:he":"נריה ב'"},"display_name":"נריה ב', טלמון, שטח C, יהודה ושומרון, 620, Palestinian Territory","address":{"hamlet":"נריה ב'","city_district":"טלמון","county":"שטח C","state":"יהודה ושומרון","postcode":"620","country":"Palestinian Territory","country_code":"ps"},"osm_type":"node","osm_id":2266238852,"type":"hamlet","location":[35.1353477,31.9506277],"bbox":[35.1153477,31.9306277,35.1553477,31.9706277]}
{"name":"עוז ציון","other_names":{"name:en":"Oz Tsion","name:fr":"Oz Tsion","name:he":"עוז ציון"},"display_name":"עוז ציון, שטח C, יהודה ושומרון, 611, Palestinian Territory","address":{"hamlet":"עוז ציון","county":"שטח C","state":"יהודה ושומרון","postcode":"611","country":"Palestinian Territory","country_code":"ps"},"osm_type":"node","osm_id":8574316063,"type":"hamlet","location":[35.2498376,31.9085834],"bbox":[35.2298376,31.8885834,35.2698376,31.9285834]}
{"name":"עמיחי","other_names":{"name:ar":"عميحاي","name:en":"Amihay","name:fr":"Amichai","name:he":"עמיחי","name:ur":"عمیحئی"},"display_name":"עמיחי, שטח C, יהודה ושומרון, Palestinian Territory","address":{"hamlet":"עמיחי","county":"שטח C","state":"יהודה ושומרון","country":"Palestinian Territory","country_code":"ps"},"osm_type":"node","osm_id":4947105364,"type":"hamlet","location":[35.327757,32.0457719],"bbox":[35.307757,32.0257719,35.347757,32.0657719]}
{"name":"פלגי מים","other_names":{"name:en":"Palge Maim","name:fr":"Palgei Mayim","name:he":"פלגי מים","name:ur":"پلگئی میم"},"display_name":"פלגי מים, עלי, שטח C, יהודה ושומרון, Palestinian Territory","address":{"hamlet":"פלגי מים","village":"עלי","county":"שטח C","state":"יהודה ושומרון","country":"Palestinian Territory","country_code":"ps"},"osm_type":"node","osm_id":981442827,"type":"hamlet","location":[35.2746737,32.0880214],"bbox":[35.2546737,32.0680214,35.2946737,32.1080214]}
{"name":"צופית","other_names":{"name:en":"Tsofit","name:fr":"Tzofit","name:he":"צופית","name:en1":"Tzufit"},"display_name":"צופית, שטח C, יהודה ושומרון, Palestinian Territory","address":{"hamlet":"צופית","county":"שטח C","state":"יהודה ושומרון","country":"Palestinian Territory","country_code":"ps"},"osm_type":"node","osm_id":2266212669,"type":"hamlet","location":[35.1385418,32.0112044],"bbox":[35.1185418,31.9912044,35.1585418,32.0312044]}
{"name":"קדומים דרום","other_names":{"name:en":"South Kedumim","name:fr":"Kdumim South","name:he":"קדומים דרום"},"display_name":"קדומים דרום, קדומים, שטח C, יהודה ושומרון, Palestinian Territory","address":{"hamlet":"קדומים דרום","village":"קדומים","county":"שטח C","state":"יהודה ושומרון","country":"Palestinian Territory","country_code":"ps"},"osm_type":"node","osm_id":928622851,"type":"hamlet","location":[35.1612756,32.2122343],"bbox":[35.1412756,32.1922343,35.1812756,32.2322343]}
{"name":"קדומים מזרח","other_names":{"name:en":"Kedumim East","name:fr":"Kdumim East","name:he":"קדומים מזרח"},"display_name":"קדומים מזרח, קדומים, שטח C, יהודה ושומרון, Palestinian Territory","address":{"hamlet":"קדומים מזרח","village":"קדומים","county":"שטח C","state":"יהודה ושומרון","country":"Palestinian Territory","country_code":"ps"},"osm_type":"node","osm_id":927978191,"type":"hamlet","location":[35.1654774,32.2057822],"bbox":[35.1454774,32.1857822,35.1854774,32.2257822]}
{"name":"קדם ערבה","other_names":{"name:en":"Kedem Arava","name:he":"קדם ערבה"},"display_name":"קדם ערבה, מועצה אזורית מגילות ים המלח, שטח C, יהודה ושומרון, Palestinian Territory","address":{"hamlet":"קדם ערבה","city":"מועצה אזורית מגילות ים המלח","county":"שטח C","state":"יהודה ושומרון","country":"Palestinian Territory","country_code":"ps"},"osm_type":"node","osm_id":3491241370,"type":"hamlet","location":[35.4995181,31.8070324],"bbox":[35.4795181,31.7870324,35.5195181,31.8270324]}
{"name":"קול דודי","other_names":{"name:he":"קול דודי"},"display_name":"קול דודי, שטח C, יהודה ושומרון, Palestinian Territory","address":{"hamlet":"קול דודי","county":"שטח C","state":"יהודה ושומרון","country":"Palestinian Territory","country_code":"ps"},"osm_type":"node","osm_id":8860252375,"type":"hamlet","location":[35.3433023,31.9461706],"bbox":[35.3233023,31.9261706,35.3633023,31.9661706]}
{"name":"קומי אורי","other_names":{"name:en":"Kumi Ori","name:fr":"Kumi Ori","name:he":"קומי אורי","name:ur":"کومی اوری"},"display_name":"קומי אורי, שטח C, יהודה ושומרון, Palestinian Territory","address":{"hamlet":"קומי אורי","county":"שטח C","state":"יהודה ושומרון","country":"Palestinian Territory","country_code":"ps"},"osm_type":"node","osm_id":4839785200,"type":"hamlet","location":[35.2367856,32.1580894],"bbox":[35.2167856,32.1380894,35.2567856,32.1780894],"border":{"name":"קומי אורי","other_names":{"name:fr":"Kumi Ori","name:he":"קומי אורי","name:en":"Kumi Ori","name:ur":"کومی اوری"},"display_name":"קומי אורי, שטח C, יהודה ושומרון, Palestinian Territory","address":{"hamlet":"קומי אורי","county":"שטח C","state":"יהודה ושומרון","country":"Palestinian Territory","country_code":"ps"},"osm_type":"way","osm_id":491891131,"type":"hamlet","location":[35.2367856,32.1580894],"bbox":[35.2329127,32.1561521,35.238897,32.1607804]}}
{"name":"קידה מזרח","other_names":{"name:en":"East Kida","name:he":"קידה מזרח"},"display_name":"קידה מזרח, שטח C, יהודה ושומרון, Palestinian Territory","address":{"hamlet":"קידה מזרח","county":"שטח C","state":"יהודה ושומרון","country":"Palestinian Territory","country_code":"ps"},"osm_type":"node","osm_id":11779927987,"type":"hamlet","location":[35.3459869,32.0516737],"bbox":[35.3259869,32.0316737,35.3659869,32.0716737]}
{"name":"קידר דרום","other_names":{"name:en":"South Kedar","name:fr":"Kedar Sud","name:he":"קידר דרום"},"display_name":"קידר דרום, שטח C, יהודה ושומרון, Palestinian Territory","address":{"hamlet":"קידר דרום","county":"שטח C","state":"יהודה ושומרון","country":"Palestinian Territory","country_code":"ps"},"osm_type":"way","osm_id":550481735,"type":"hamlet","location":[35.301898873239494,31.74613725],"bbox":[35.3003704,31.7450073,35.3031629,31.7472281]}
{"name":"ראשית","other_names":{"name:en":"Reshit","name:fr":"Reshit","name:he":"ראשית"},"display_name":"ראשית, בית אל, שטח C, יהודה ושומרון, 009, Palestinian Territory","address":{"hamlet":"ראשית","village":"בית אל","county":"שטח C","state":"יהודה ושומרון","postcode":"009","country":"Palestinian Territory","country_code":"ps"},"osm_type":"node","osm_id":779745738,"type":"hamlet","location":[35.2222855,31.9363456],"bbox":[35.2022855,31.9163456,35.2422855,31.9563456]}
{"name":"רמת גלעד","other_names":{"name:ar":"رمات جلعاد","name:en":"Ramat Gil'ad","name:fr":"Ramat Gilad","name:he":"רמת גלעד"},"display_name":"רמת גלעד, קרני שומרון, שטח C, יהודה ושומרון, Palestinian Territory","address":{"hamlet":"רמת גלעד","village":"קרני שומרון","county":"שטח C","state":"יהודה ושומרון","country":"Palestinian Territory","country_code":"ps"},"osm_type":"node","osm_id":2440684118,"type":"hamlet","location":[35.1143474,32.1784331],"bbox":[35.0943474,32.1584331,35.1343474,32.1984331]}
{"name":"רמת מגרון","other_names":{"name:en":"Ramat Migron","name:he":"רמת מגרון"},"display_name":"רמת מגרון, שטח C, יהודה ושומרון, Palestinian Territory","address":{"hamlet":"רמת מגרון","county":"שטח C","state":"יהודה ושומרון","country":"Palestinian Territory","country_code":"ps"},"population":35,"osm_type":"node","osm_id":9034519356,"type":"hamlet","location":[35.269712,31.8868474],"bbox":[35.249712,31.8668474,35.289712,31.9068474]}
{"name":"שדה אפרים","other_names":{"name:ar":"سْدِي إفرايم","name:en":"Sde Ephraim","name:he":"שדה אפרים"},"display_name":"שדה אפרים, שטח C, יהודה ושומרון, 051, Palestinian Territory","address":{"hamlet":"שדה אפרים","county":"שטח C","state":"יהודה ושומרון","postcode":"051","country":"Palestinian Territory","country_code":"ps"},"osm_type":"node","osm_id":12051666848,"type":"hamlet","location":[35.09195,31.9398249],"bbox":[35.07195,31.9198249,35.11195,31.9598249]}
{"name":"שדה בועז","other_names":{"name:en":"Sde Boaz","name:fr":"Sde Boaz","name:he":"שדה בועז"},"display_name":"שדה בועז, שטח C, יהודה ושומרון, Palestinian Territory","address":{"hamlet":"שדה בועז","county":"שטח C","state":"יהודה ושומרון","country":"Palestinian Territory","country_code":"ps"},"osm_type":"node","osm_id":5931726388,"type":"hamlet","location":[35.1478799,31.6937111],"bbox":[35.1278799,31.6737111,35.1678799,31.7137111]}
{"name":"שדה יונתן","other_names":{"name:en":"S'de Yonatan","name:he":"שדה יונתן"},"display_name":"שדה יונתן, שטח C, יהודה ושומרון, Palestinian Territory","address":{"hamlet":"שדה יונתן","county":"שטח C","state":"יהודה ושומרון","country":"Palestinian Territory","country_code":"ps"},"osm_type":"node","osm_id":11807020410,"type":"hamlet","location":[35.2788237,31.8883209],"bbox":[35.2588237,31.8683209,35.2988237,31.9083209]}
{"display_name":"שטח C, יהודה ושומרון, Palestinian Territory","address":{"county":"שטח C","state":"יהודה ושומרון","country":"Palestinian Territory","country_code":"ps"},"osm_type":"way","osm_id":1389998168,"type":"hamlet","location":[35.28468376012641,31.837566000000002],"bbox":[35.2838658,31.836707,35.2851586,31.838302]}
{"display_name":"שכונת הקראוונים, מועצה אזורית שומרון, שטח C, יהודה ושומרון, Palestinian Territory","address":{"hamlet":"שכונת הקראוונים","city":"מועצה אזורית שומרון","county":"שטח C","state":"יהודה ושומרון","country":"Palestinian Territory","country_code":"ps"},"osm_type":"node","osm_id":4839860999,"type":"hamlet","location":[35.239316,32.1690662],"bbox":[35.219316,32.1490662,35.259316,32.1890662]}
{"name":"שלהבת-יה","other_names":{"name:en":"Shalhevet-ya","name:fr":"Shalhevet-ya","name:he":"שלהבת-יה","name:ur":"شلہفت یا"},"display_name":"שלהבת-יה, שטח C, יהודה ושומרון, Palestinian Territory","address":{"hamlet":"שלהבת-יה","county":"שטח C","state":"יהודה ושומרון","country":"Palestinian Territory","country_code":"ps"},"osm_type":"node","osm_id":4839861174,"type":"hamlet","location":[35.2232482,32.1722782],"bbox":[35.2032482,32.1522782,35.2432482,32.1922782],"border":{"name":"שלהבת-יה","other_names":{"name:fr":"Shalvatea","name:he":"שלהבת-יה","name:en":"Shalhevet-ya","name:ur":"شلہفت یا","alt:fr":"Shalhevet-ya"},"display_name":"שלהבת-יה, שטח C, יהודה ושומרון, Palestinian Territory","address":{"hamlet":"שלהבת-יה","county":"שטח C","state":"יהודה ושומרון","country":"Palestinian Territory","country_code":"ps"},"osm_type":"way","osm_id":491899038,"type":"hamlet","location":[35.2232482,32.1722782],"bbox":[35.2176853,32.1689792,35.2272044,32.1766054]}}
{"name":"שלהבת","other_names":{"name:en":"shalhevet","name:fr":"shalhevet","name:he":"שלהבת","name:ur":"شلہفت","alt_name:ur":"شلہوت"},"display_name":"שלהבת, מועצה אזורית שומרון, שטח C, יהודה ושומרון, Palestinian Territory","address":{"hamlet":"שלהבת","city":"מועצה אזורית שומרון","county":"שטח C","state":"יהודה ושומרון","country":"Palestinian Territory","country_code":"ps"},"osm_type":"node","osm_id":4839785219,"type":"hamlet","location":[35.2281785,32.1705589],"bbox":[35.2081785,32.1505589,35.2481785,32.1905589]}
{"name":"שלומציון","other_names":{"name:ar":"شلومتسيون","name:en":"Shlomtzion","name:fr":"Shlomtsiyon","name:he":"שלומציון"},"display_name":"שלומציון, שטח C, יהודה ושומרון, Palestinian Territory","address":{"hamlet":"שלומציון","county":"שטח C","state":"יהודה ושומרון","country":"Palestinian Territory","country_code":"ps"},"osm_type":"node","osm_id":932114042,"type":"hamlet","location":[35.4940513,32.0996302],"bbox":[35.4740513,32.0796302,35.5140513,32.1196302]}
{"name":"תאנה","other_names":{"name:en":"Teena","name:fr":"Teena","name:he":"תאנה","name:hr":"Teena"},"display_name":"תאנה, אפרת, שטח C, יהודה ושומרון, Palestinian Territory","address":{"hamlet":"תאנה","village":"אפרת","county":"שטח C","state":"יהודה ושומרון","country":"Palestinian Territory","country_code":"ps"},"osm_type":"node","osm_id":528575430,"type":"hamlet","location":[35.1514313,31.6539439],"bbox":[35.1314313,31.6339439,35.1714313,31.6739439]}
{"name":"תקומה","other_names":{"name:en":"Tkuma","name:fr":"Tkuma","name:he":"תקומה","name:ur":"تقومہ"},"display_name":"תקומה, שטח C, יהודה ושומרון, Palestinian Territory","address":{"hamlet":"תקומה","village":"תקומה","county":"שטח C","state":"יהודה ושומרון","country":"Palestinian Territory","country_code":"ps"},"osm_type":"node","osm_id":1447220642,"type":"hamlet","location":[35.2419557,32.1581493],"bbox":[35.2219557,32.1381493,35.2619557,32.1781493]}
{"name":"أبو الحنا","other_names":{"name:ar":"أبو الحنا","name:en":"Abu al-Hinna","name:fr":"Abu al Hina","name:he":"אבו אל חינא"},"display_name":"أبو الحنا, שטח C, יהודה ושומרון, Palestinian Territory","address":{"hamlet":"أبو الحنا","county":"שטח C","state":"יהודה ושומרון","country":"Palestinian Territory","country_code":"ps"},"osm_type":"node","osm_id":8365018330,"type":"hamlet","location":[34.9090353,31.4119289],"bbox":[34.8890353,31.3919289,34.9290353,31.4319289]}
{"name":"أبو العرقان","other_names":{"name:ar":"أبو العرقان","name:en":"Abu al-Urqan","name:fr":"Abu al-Urken","name:he":"אבו אל עורקן","alt_name:ar":"ابو العرقان"},"display_name":"أبو العرقان, منطقة ب, الضفة الغربية, Palestinian Territory","address":{"hamlet":"أبو العرقان","county":"منطقة ب","region":"الضفة الغربية","country":"Palestinian Territory","country_code":"ps"},"osm_type":"node","osm_id":4231883169,"type":"hamlet","location":[35.0226936,31.4313403],"bbox":[35.0026936,31.4113403,35.0426936,31.4513403]}
{"name":"أبو داهوك - تجمّع أبو ليمون - بيت إكسا","other_names":{"name:ar":"أبو داهوك - تجمّع أبو ليمون - بيت إكسا","name:en":"Abu Dahouk-Abu Laimon-Beit Iksa","name:fr":"Abu Dahouk-Abu Laimon-Beit Iksa","name:he":"אבו דאוק - אבו ליימון - בית איכסא"},"display_name":"أبو داهوك - تجمّع أبو ليمون - بيت إكسا, שטח C, יהודה ושומרון, Palestinian Territory","address":{"hamlet":"أبو داهوك - تجمّع أبو ليمون - بيت إكسا","county":"שטח C","state":"יהודה ושומרון","country":"Palestinian Territory","country_code":"ps"},"osm_type":"way","osm_id":766667632,"type":"hamlet","location":[35.16749092442857,31.8288503],"bbox":[35.1656523,31.8269679,35.1692626,31.8307053]}
{"name":"أبو داهوك","other_names":{"name:ar":"أبو داهوك","name:en":"Abu Dahouk","name:fr":"Abu Dahouk","name:he":"אבו דאהוק"},"display_name":"أبو داهوك, عناتا‎, שטח C, יהודה ושומרון, Palestinian Territory","address":{"hamlet":"أبو داهوك","town":"عناتا‎","county":"שטח C","state":"יהודה ושומרון","country":"Palestinian Territory","country_code":"ps"},"osm_type":"node","osm_id":8263401288,"type":"hamlet","location":[35.2701506,31.8209283],"bbox":[35.2501506,31.8009283,35.2901506,31.8409283]}
{"name":"أبو سلطان","other_names":{"name:ar":"أبو سلطان","name:en":"Abu Sultan","name:fr":"Abu Sultan","name:he":"אבו סולתן"},"display_name":"أبو سلطان, חוות דורות, שטח C, יהודה ושומרון, Palestinian Territory","address":{"hamlet":"أبو سلطان","village":"חוות דורות","county":"שטח C","state":"יהודה ושומרון","country":"Palestinian Territory","country_code":"ps"},"osm_type":"way","osm_id":766013574,"type":"hamlet","location":[35.059166259450606,32.13302925],"bbox":[35.0581268,32.1323846,35.0602143,32.1336857]}
{"name":"أبو قاقوس","other_names":{"name:ar":"أبو قاقوس","name:en":"Abu Qaqus","name:fr":"Abu Qaqus","name:he":"אבו קאקוס"},"display_name":"أبو قاقوس, فراسين, שטח C, יהודה ושומרון, Palestinian Territory","address":{"hamlet":"أبو قاقوس","village":"فراسين","county":"שטח C","state":"יהודה ושומרון","country":"Palestinian Territory","country_code":"ps"},"osm_type":"node","osm_id":8263157094,"type":"hamlet","location":[35.118917,32.4298222],"bbox":[35.098917,32.4098222,35.138917,32.4498222]}
{"name":"أم العبر","other_names":{"name:ar":"أم العبر","name:en":"Umm Al-Ubor","name:fr":"Umm al-'Ubur","name:he":"אום אל-עובור"},"display_name":"أم العبر, שטח C, יהודה ושומרון, Palestinian Territory","address":{"hamlet":"أم العبر","county":"שטח C","state":"יהודה ושומרון","country":"Palestinian Territory","country_code":"ps"},"osm_type":"node","osm_id":8373532237,"type":"hamlet","location":[35.5482737,32.2353226],"bbox":[35.5282737,32.2153226,35.5682737,32.2553226]}
{"name":"أم قابوب","other_names":{"name:ar":"أم قابوب","name:en":"Umm Qabub","name:fr":"Umm Kabub","name:he":"אום קאבוב"},"display_name":"أم قابوب, مشروع بيت قاد, منطقة ب, الضفة الغربية, Palestinian Territory","address":{"hamlet":"أم قابوب","village":"مشروع بيت قاد","county":"منطقة ب","region":"الضفة الغربية","country":"Palestinian Territory","country_code":"ps"},"osm_type":"node","osm_id":8261054232,"type":"hamlet","location":[35.37358,32.4697202],"bbox":[35.35358,32.4497202,35.39358,32.4897202]}
{"name":"إبزيق","other_names":{"name:ar":"إبزيق","name:en":"Ibziq","name:fr":"Ibziq","name:he":"איבזיק"},"display_name":"إبزيق, שטח C, יהודה ושומרון, 233, Palestinian Territory","address":{"hamlet":"إبزيق","county":"שטח C","state":"יהודה ושומרון","postcode":"233","country":"Palestinian Territory","country_code":"ps"},"population":129,"osm_type":"node","osm_id":8259280601,"type":"hamlet","location":[35.4059257,32.3771859],"bbox":[35.3859257,32.3571859,35.4259257,32.3971859]}
{"name":"إسكيك","other_names":{"name:ar":"إسكيك","name:en":"Iskeik","name:fr":"Iskeik","name:he":"אסקייק"},"display_name":"إسكيك, שטח C, יהודה ושומרון, 766, Palestinian Territory","address":{"hamlet":"إسكيك","county":"שטח C","state":"יהודה ושומרון","postcode":"766","country":"Palestinian Territory","country_code":"ps"},"osm_type":"node","osm_id":8230617863,"type":"hamlet","location":[34.9561414,31.4650843],"bbox":[34.9361414,31.4450843,34.9761414,31.4850843]}
{"name":"إقطيط","other_names":{"name:ar":"إقطيط","name:en":"Iqtait","name:fr":"Iqtait","name:he":"איקטאיט"},"display_name":"إقطيط, שטח C, יהודה ושומרון, Palestinian Territory","address":{"hamlet":"إقطيط","county":"שטח C","state":"יהודה ושומרון","country":"Palestinian Territory","country_code":"ps"},"population":8,"osm_type":"node","osm_id":8365018329,"type":"hamlet","location":[34.9157816,31.405402],"bbox":[34.8957816,31.385402,34.9357816,31.425402]}
{"name":"ابو العرقان","other_names":{"name:ar":"ابو العرقان","name:en":"Abu Al-Urqan","name:fr":"Abu Al-Arqan","name:he":"אבו אל-עורקאן"},"display_name":"ابو العرقان, שטח C, יהודה ושומרון, 797, Palestinian Territory","address":{"hamlet":"ابو العرقان","county":"שטח C","state":"יהודה ושומרון","postcode":"797","country":"Palestinian Territory","country_code":"ps"},"osm_type":"node","osm_id":8358690238,"type":"hamlet","location":[35.0332719,31.4213464],"bbox":[35.0132719,31.4013464,35.0532719,31.4413464]}
{"name":"البقعة","other_names":{"name:ar":"البقعة","name:en":"Al Baqa'a","name:fr":"Al Baqa'a","name:he":"אל באקה"},"display_name":"البقعة, נווה ארז, שטח C, יהודה ושומרון, Palestinian Territory","address":{"hamlet":"البقعة","village":"נווה ארז","county":"שטח C","state":"יהודה ושומרון","country":"Palestinian Territory","country_code":"ps"},"osm_type":"relation","osm_id":10633752,"type":"hamlet","location":[35.31407000724312,31.85365775],"bbox":[35.3116702,31.8521266,35.3174704,31.860504]}
{"name":"البيضاء","other_names":{"name:ar":"البيضاء","name:en":"Al-Baida","name:fr":"Al-Baida","name:he":"אל-ביידא"},"display_name":"البيضاء, وادي رحال, שטח C, יהודה ושומרון, Palestinian Territory","address":{"hamlet":"البيضاء","village":"وادي رحال","county":"שטח C","state":"יהודה ושומרון","country":"Palestinian Territory","country_code":"ps"},"osm_type":"node","osm_id":8236314441,"type":"hamlet","location":[35.1809691,31.6704966],"bbox":[35.1609691,31.6504966,35.2009691,31.6904966]}
{"name":"الثربة","other_names":{"name:ar":"الثربة","name:en":"Al-Tharba","name:fr":"Al-Tarba","name:he":"אל-תרבה"},"display_name":"الثربة, المعصرة, منطقة ب, الضفة الغربية, Palestinian Territory","address":{"hamlet":"الثربة","village":"المعصرة","county":"منطقة ب","region":"الضفة الغربية","country":"Palestinian Territory","country_code":"ps"},"osm_type":"node","osm_id":8233747215,"type":"hamlet","location":[35.1788936,31.6638285],"bbox":[35.1588936,31.6438285,35.1988936,31.6838285]}
{"name":"الجربا","other_names":{"name:ar":"الجربا","name:en":"Al-Jarba","name:fr":"Al-Jarba","name:he":"אל-ג'רבא"},"display_name":"الجربا, قباطية‎, منطقة أ, الضفة الغربية, 971, Palestinian Territory","address":{"hamlet":"الجربا","town":"قباطية‎","county":"منطقة أ","region":"الضفة الغربية","postcode":"971","country":"Palestinian Territory","country_code":"ps"},"population":63,"osm_type":"node","osm_id":8261457832,"type":"hamlet","location":[35.2577718,32.385274],"bbox":[35.2377718,32.365274,35.2777718,32.405274]}
{"name":"الجميلات","other_names":{"name:ar":"الجميلات","name:en":"Al-Jameelat","name:fr":"Al-Jamilat","name:he":"אל-ג'מילאת"},"display_name":"الجميلات, عابا, منطقة ب, الضفة الغربية, 204, Palestinian Territory","address":{"hamlet":"الجميلات","village":"عابا","county":"منطقة ب","region":"الضفة الغربية","postcode":"204","country":"Palestinian Territory","country_code":"ps"},"population":51,"osm_type":"node","osm_id":8261054236,"type":"hamlet","location":[35.3355381,32.471012],"bbox":[35.3155381,32.451012,35.3555381,32.491012]}
{"name":"الحديدية","other_names":{"name:ar":"الحديدية","name:en":"Al-Hadidiya","name:fr":"Al-Hadidiya","name:he":"אל-חדידייה"},"display_name":"الحديدية, שטח C, יהודה ושומרון, Palestinian Territory","address":{"hamlet":"الحديدية","county":"שטח C","state":"יהודה ושומרון","country":"Palestinian Territory","country_code":"ps"},"population":183,"osm_type":"node","osm_id":8259280611,"type":"hamlet","location":[35.5006442,32.2425634],"bbox":[35.4806442,32.2225634,35.5206442,32.2625634]}
{"name":"الحفاصي","other_names":{"name:ar":"الحفاصي","name:en":"Al Haffasi","name:fr":"Al Haffasi","name:he":"אל חפאסי"},"display_name":"الحفاصي, מועצה אזורית שומרון, שטח C, יהודה ושומרון, Palestinian Territory","address":{"hamlet":"الحفاصي","city":"מועצה אזורית שומרון","county":"שטח C","state":"יהודה ושומרון","country":"Palestinian Territory","country_code":"ps"},"osm_type":"way","osm_id":887628328,"type":"hamlet","location":[35.127454331596,32.2876525],"bbox":[35.1268892,32.2870373,35.1280789,32.2883136]}
{"name":"الحفاصي","other_names":{"name:ar":"الحفاصي","name:en":"Al Haffasi","name:fr":"Al Haffasi","name:he":"אל חפאסי"},"display_name":"الحفاصي, שטח C, יהודה ושומרון, Palestinian Territory","address":{"hamlet":"الحفاصي","county":"שטח C","state":"יהודה ושומרון","country":"Palestinian Territory","country_code":"ps"},"osm_type":"way","osm_id":765962813,"type":"hamlet","location":[35.07420602798065,32.29071795],"bbox":[35.0717333,32.2897158,35.0767114,32.2917111]}
{"name":"الحفيرة","other_names":{"name:ar":"الحفيرة","name:en":"Al-Hafira","name:fr":"Al-Hafira","name:he":"חפירה"},"display_name":"الحفيرة, الضّمايرة, שטח C, יהודה ושומרון, 971, Palestinian Territory","address":{"hamlet":"الحفيرة","village":"الضّمايرة","county":"שטח C","state":"יהודה ושומרון","postcode":"971","country":"Palestinian Territory","country_code":"ps"},"population":88,"osm_type":"node","osm_id":8261457550,"type":"hamlet","location":[35.2409566,32.4079962],"bbox":[35.2209566,32.3879962,35.2609566,32.4279962]}
{"name":"الحَلْقوم","other_names":{"name:ar":"الحَلْقوم","name:en":"Al Halqum","name:fr":"Al Halqum","name:he":"אל חלקום"},"display_name":"الحَلْقوم, שטח C, יהודה ושומרון, Palestinian Territory","address":{"hamlet":"الحَلْقوم","county":"שטח C","state":"יהודה ושומרון","country":"Palestinian Territory","country_code":"ps"},"osm_type":"way","osm_id":767781968,"type":"hamlet","location":[35.19730669743919,31.6469617],"bbox":[35.1917264,31.6433037,35.2035583,31.6506845]}
{"name":"الخان الأحمر","other_names":{"name:ar":"الخان الأحمر","name:en":"Khan al-Ahmar","name:fr":"Khan Al-Ahmar","name:he":"ח'אן אל-אחמר","name:ml":"ഖാൻ അൽ-അഹ്മർ"},"display_name":"الخان الأحمر, שטח C, יהודה ושומרון, Palestinian Territory","address":{"hamlet":"الخان الأحمر","county":"שטח C","state":"יהודה ושומרון","country":"Palestinian Territory","country_code":"ps"},"osm_type":"node","osm_id":5744189245,"type":"hamlet","location":[35.3344358,31.8108869],"bbox":[35.3144358,31.7908869,35.3544358,31.8308869]}
{"name":"الرحانية","other_names":{"name:ar":"الرحانية","name:en":"Ar-Rahniah","name:fr":"Ar-Rahniah","name:he":"א-רהניה"},"display_name":"الرحانية, جبة الذيب, שטח C, יהודה ושומרון, Palestinian Territory","address":{"hamlet":"الرحانية","village":"جبة الذيب","county":"שטח C","state":"יהודה ושומרון","country":"Palestinian Territory","country_code":"ps"},"osm_type":"way","osm_id":767778554,"type":"hamlet","location":[35.24357913185362,31.6674456],"bbox":[35.2420533,31.6662813,35.2447893,31.6686151]}
{"name":"السّعايدة","other_names":{"name:ar":"السّعايدة","name:en":"As-Sa'aida","name:fr":"As-Sa'aida","name:he":"א-סעאידה"},"display_name":"السّعايدة, שטח C, יהודה ושומרון, Palestinian Territory","address":{"hamlet":"السّعايدة","county":"שטח C","state":"יהודה ושומרון","country":"Palestinian Territory","country_code":"ps"},"population":87,"osm_type":"node","osm_id":8261054223,"type":"hamlet","location":[35.1987451,32.5053139],"bbox":[35.1787451,32.4853139,35.2187451,32.5253139]}
{"display_name":"الشهداء, منطقة أ, الضفة الغربية, Palestinian Territory","address":{"village":"الشهداء","county":"منطقة أ","region":"الضفة الغربية","country":"Palestinian Territory","country_code":"ps"},"osm_type":"way","osm_id":265595164,"type":"hamlet","location":[35.27214569752857,32.42967485],"bbox":[35.2670248,32.4273358,35.2779778,32.43112]}
{"name":"الضوا","other_names":{"name:ar":"الضوا","name:en":"Ad-Dawa","name:fr":"Ad-Dawa","name:he":"א-דווא"},"display_name":"الضوا, שטח C, יהודה ושומרון, Palestinian Territory","address":{"hamlet":"الضوا","county":"שטח C","state":"יהודה ושומרון","country":"Palestinian Territory","country_code":"ps"},"osm_type":"way","osm_id":766615832,"type":"hamlet","location":[35.375052239176355,32.136197100000004],"bbox":[35.3718696,32.1340848,35.3765795,32.1384365]}
{"name":"العقبان","other_names":{"name:ar":"العقبان","name:en":"Al Uqban","name:fr":"Al Uqban","name:he":"אל עוקבן"},"display_name":"العقبان, חוות שדה בר, שטח C, יהודה ושומרון, Palestinian Territory","address":{"hamlet":"العقبان","village":"חוות שדה בר","county":"שטח C","state":"יהודה ושומרון","country":"Palestinian Territory","country_code":"ps"},"osm_type":"way","osm_id":767780757,"type":"hamlet","location":[35.24345599875691,31.6551033],"bbox":[35.2429296,31.6543544,35.2439918,31.6558339]}
{"name":"العقبة‎","other_names":{"name:ar":"العقبة‎","name:en":"Aqabah","name:fr":"Al 'Aqaba","name:he":"אל-עקאבה"},"display_name":"العقبة‎, שטח C, יהודה ושומרון, Palestinian Territory","address":{"hamlet":"العقبة‎","county":"שטח C","state":"יהודה ושומרון","country":"Palestinian Territory","country_code":"ps"},"population":168,"osm_type":"node","osm_id":333786443,"type":"hamlet","location":[35.416274,32.3374702],"bbox":[35.396274,32.3174702,35.436274,32.3574702]}
{"name":"الغوالية","other_names":{"name:ar":"الغوالية","name:en":"Ghawaliya","name:fr":"Al-Rualia","name:he":"אל-ר'ואליה"},"display_name":"الغوالية, שטח C, יהודה ושומרון, Palestinian Territory","address":{"hamlet":"الغوالية","county":"שטח C","state":"יהודה ושומרון","country":"Palestinian Territory","country_code":"ps"},"osm_type":"node","osm_id":5744189249,"type":"hamlet","location":[35.3045895,31.8133022],"bbox":[35.2845895,31.7933022,35.3245895,31.8333022]}
{"name":"الفارسية","other_names":{"name:ar":"الفارسية","name:en":"Al-Farisiya","name:fr":"Al-Farisiya","name:he":"אל-פאריסייה"},"display_name":"الفارسية, שטח C, יהודה ושומרון, Palestinian Territory","address":{"hamlet":"الفارسية","county":"שטח C","state":"יהודה ושומרון","country":"Palestinian Territory","country_code":"ps"},"population":118,"osm_type":"node","osm_id":8259280603,"type":"hamlet","location":[35.5099057,32.3555629],"bbox":[35.4899057,32.3355629,35.5299057,32.3755629]}
{"name":"الفرّاسين","other_names":{"name:ar":"الفرّاسين","name:en":"Farasin","name:fr":"Farasin","name:he":"פראסין"},"display_name":"الفرّاسين, שטח C, יהודה ושומרון, Palestinian Territory","address":{"hamlet":"الفرّاسين","county":"שטח C","state":"יהודה ושומרון","country":"Palestinian Territory","country_code":"ps"},"osm_type":"way","osm_id":765896482,"type":"hamlet","location":[35.12669491519243,32.4279097],"bbox":[35.1260129,32.427279,35.1274512,32.428635]}
{"name":"الفقرا","other_names":{"name:ar":"الفقرا","name:en":"al-Fakra","name:fr":"al-Fakra","name:he":"אל-פקרא"},"display_name":"الفقرا, מעלה אדומים, שטח C, יהודה ושומרון, Palestinian Territory","address":{"hamlet":"الفقرا","town":"מעלה אדומים","county":"שטח C","state":"יהודה ושומרון","country":"Palestinian Territory","country_code":"ps"},"osm_type":"node","osm_id":5744189250,"type":"hamlet","location":[35.2993067,31.8116951],"bbox":[35.2793067,31.7916951,35.3193067,31.8316951]}
{"name":"الكرشان","other_names":{"name:ar":"الكرشان","name:en":"Al-Kurshan","name:fr":"Al-Kurshan","name:he":"אל-קורשאן"},"display_name":"الكرشان, שטח C, יהודה ושומרון, Palestinian Territory","address":{"hamlet":"الكرشان","county":"שטח C","state":"יהודה ושומרון","country":"Palestinian Territory","country_code":"ps"},"osm_type":"way","osm_id":767117414,"type":"hamlet","location":[35.41193668792417,31.795382449999998],"bbox":[35.4111034,31.7943932,35.4128616,31.7961515]}
{"name":"اللبن","other_names":{"name:ar":"اللبن","name:en":"Al-Lubban","name:fr":"A-Luban","name:he":"א-לובאן"},"display_name":"اللبن, منطقة ب, الضفة الغربية, Palestinian Territory","address":{"hamlet":"اللبن","county":"منطقة ب","region":"الضفة الغربية","country":"Palestinian Territory","country_code":"ps"},"osm_type":"node","osm_id":2549160507,"type":"hamlet","location":[35.0397127,32.0351105],"bbox":[35.0197127,32.0151105,35.0597127,32.0551105]}
{"name":"المركز","other_names":{"name:ar":"المركز","name:en":"Mirkez","name:fr":"Mirkez","name:he":"מירקז"},"display_name":"المركز, שטח C, יהודה ושומרון, Palestinian Territory","address":{"hamlet":"المركز","county":"שטח C","state":"יהודה ושומרון","country":"Palestinian Territory","country_code":"ps"},"osm_type":"node","osm_id":4189965554,"type":"hamlet","location":[35.1508157,31.3630211],"bbox":[35.1308157,31.3430211,35.1708157,31.3830211]}
{"name":"المسقوفة","other_names":{"name:ar":"المسقوفة","name:en":"Al Masqufa","name:fr":"Al Masqufa","name:he":"אל מסקופה"},"display_name":"المسقوفة, שטח C, יהודה ושומרון, 302, Palestinian Territory","address":{"hamlet":"المسقوفة","county":"שטח C","state":"יהודה ושומרון","postcode":"302","country":"Palestinian Territory","country_code":"ps"},"population":158,"osm_type":"node","osm_id":8374226854,"type":"hamlet","location":[35.0586532,32.3369437],"bbox":[35.0386532,32.3169437,35.0786532,32.3569437]}
{"name":"المصفح","other_names":{"name:ar":"المصفح","name:en":"Al-Musafah","name:fr":"Al-Musafah","name:he":"אל- מספה"},"display_name":"المصفح, שטח C, יהודה ושומרון, Palestinian Territory","address":{"hamlet":"المصفح","county":"שטח C","state":"יהודה ושומרון","country":"Palestinian Territory","country_code":"ps"},"osm_type":"node","osm_id":8366075413,"type":"hamlet","location":[35.4809349,32.1625375],"bbox":[35.4609349,32.1425375,35.5009349,32.1825375]}
{"name":"المفقرة","other_names":{"name:ar":"المفقرة","name:en":"Al-Mufaqarah","name:fr":"Al Mufaqara","name:he":"אל מופקרה"},"display_name":"المفقرة, التوانة, שטח C, יהודה ושומרון, Palestinian Territory","address":{"hamlet":"المفقرة","village":"التوانة","county":"שטח C","state":"יהודה ושומרון","country":"Palestinian Territory","country_code":"ps"},"osm_type":"node","osm_id":4351553077,"type":"hamlet","location":[35.1501759,31.4067001],"bbox":[35.1301759,31.3867001,35.1701759,31.4267001]}
{"name":"المنصورة","other_names":{"name:ar":"المنصورة","name:en":"Al Mansura","name:fr":"Al Mansura","name:he":"אל מנסורה"},"display_name":"المنصورة, שטח C, יהודה ושומרון, Palestinian Territory","address":{"hamlet":"المنصورة","county":"שטח C","state":"יהודה ושומרון","country":"Palestinian Territory","country_code":"ps"},"population":222,"osm_type":"node","osm_id":431813893,"type":"hamlet","location":[35.2162504,32.3862906],"bbox":[35.1962504,32.3662906,35.2362504,32.4062906]}
{"name":"المُنْطَار","other_names":{"name:ar":"المُنْطَار","name:en":"Al Muntar","name:fr":"Al Muntar","name:he":"אל-מונטאר"},"display_name":"المُنْطَار, שטח C, יהודה ושומרון, Palestinian Territory","address":{"hamlet":"المُنْطَار","county":"שטח C","state":"יהודה ושומרון","country":"Palestinian Territory","country_code":"ps"},"osm_type":"relation","osm_id":10633721,"type":"hamlet","location":[35.326891262391214,31.7519429],"bbox":[35.2979696,31.7361812,35.3314322,31.7565047]}
{"name":"النَبي موسى","other_names":{"name:ar":"النَبي موسى","name:en":"An-Nabi Musa","name:fr":"An-Nabi Musa","name:he":"א-נבי מוסא"},"display_name":"النَبي موسى, מועצה אזורית מגילות ים המלח, שטח C, יהודה ושומרון, Palestinian Territory","address":{"hamlet":"النَبي موسى","city":"מועצה אזורית מגילות ים המלח","county":"שטח C","state":"יהודה ושומרון","country":"Palestinian Territory","country_code":"ps"},"population":343,"osm_type":"node","osm_id":8241519967,"type":"hamlet","location":[35.4370451,31.796264],"bbox":[35.4170451,31.776264,35.4570451,31.816264]}
{"name":"النعمان","other_names":{"name:ar":"النعمان","name:en":"Al Nu'man","name:fr":"Al-Na'aman","name:he":"אל-נועמן"},"display_name":"النعمان, الخاص و النعمان, منطقة ب, الضفة الغربية, Palestinian Territory","address":{"hamlet":"النعمان","village":"الخاص و النعمان","county":"منطقة ب","region":"الضفة الغربية","country":"Palestinian Territory","country_code":"ps"},"osm_type":"node","osm_id":2509626364,"type":"hamlet","location":[35.2495142,31.7148366],"bbox":[35.2295142,31.6948366,35.2695142,31.7348366]}
{"name":"ام دالين","other_names":{"name:ar":"ام دالين","name:en":"Um Daleen","name:fr":"Um Daleen","name:he":"אום ת'לין"},"display_name":"ام دالين, שטח C, יהודה ושומרון, Palestinian Territory","address":{"hamlet":"ام دالين","county":"שטח C","state":"יהודה ושומרון","country":"Palestinian Territory","country_code":"ps"},"osm_type":"node","osm_id":8365777095,"type":"hamlet","location":[35.4931584,32.0838909],"bbox":[35.4731584,32.0638909,35.5131584,32.1038909]}
{"name":"بئر العيد","other_names":{"name:ar":"بئر العيد","name:en":"Bir Al'Idd","name:fr":"Bir al-Abd","name:he":"ביר אעיד"},"display_name":"بئر العيد, שטח C, יהודה ושומרון, Palestinian Territory","address":{"hamlet":"بئر العيد","county":"שטח C","state":"יהודה ושומרון","country":"Palestinian Territory","country_code":"ps"},"osm_type":"node","osm_id":4213982443,"type":"hamlet","location":[35.1307629,31.3747323],"bbox":[35.1107629,31.3547323,35.1507629,31.3947323]}
{"name":"بئر المسكوب","other_names":{"name:ar":"بئر المسكوب","name:en":"Bir Al Maskoob","name:fr":"Bir al-Maksub","name:he":"ביר אל-מקסוב","alt_name:ar":"بير المسكوب"},"display_name":"بئر المسكوب, מעלה אדומים, שטח C, יהודה ושומרון, Palestinian Territory","address":{"hamlet":"بئر المسكوب","town":"מעלה אדומים","county":"שטח C","state":"יהודה ושומרון","country":"Palestinian Territory","country_code":"ps"},"osm_type":"node","osm_id":5744189248,"type":"hamlet","location":[35.3112848,31.8024872],"bbox":[35.2912848,31.7824872,35.3312848,31.8224872]}
{"name":"بدو الزّعيّم","other_names":{"name:ar":"بدو الزّعيّم","name:en":"Az Za'ayyem Bedouins","name:fr":"Az Za'ayyem Bedouins","name:he":"א-זעיים בדואים"},"display_name":"بدو الزّعيّم, عناتا‎, שטח C, יהודה ושומרון, Palestinian Territory","address":{"hamlet":"بدو الزّعيّم","town":"عناتا‎","county":"שטח C","state":"יהודה ושומרון","country":"Palestinian Territory","country_code":"ps"},"osm_type":"relation","osm_id":10632729,"type":"hamlet","location":[35.268746645729,31.797891800000002],"bbox":[35.2656578,31.7929091,35.2730082,31.7989491]}
{"name":"بدو المشروع","other_names":{"name:ar":"بدو المشروع","name:en":"Al Mashru' bedouin","name:fr":"Al Mashru' bedouin","name:he":"אל משרו בדואים"},"display_name":"بدو المشروع, שטח C, יהודה ושומרון, Palestinian Territory","address":{"hamlet":"بدو المشروع","county":"שטח C","state":"יהודה ושומרון","country":"Palestinian Territory","country_code":"ps"},"osm_type":"relation","osm_id":10634594,"type":"hamlet","location":[35.49238382799288,31.8729443],"bbox":[35.4905934,31.8688754,35.4973804,31.8742148]}
{"name":"بدو النبي صموئيل","other_names":{"name:ar":"بدو النبي صموئيل","name:en":"An Nabi Samwil Bedouins","name:fr":"A-Nabi Samuel Bédouin","name:he":"א-נבי סימואיל בדואים"},"display_name":"بدو النبي صموئيل, النبي صموئيل, שטח C, יהודה ושומרון, Palestinian Territory","address":{"hamlet":"بدو النبي صموئيل","village":"النبي صموئيل","county":"שטח C","state":"יהודה ושומרון","country":"Palestinian Territory","country_code":"ps"},"osm_type":"node","osm_id":8239864762,"type":"hamlet","location":[35.1868199,31.8358456],"bbox":[35.1668199,31.8158456,35.2068199,31.8558456]}
{"name":"بدو جبع شرق","other_names":{"name:ar":"بدو جبع شرق","name:en":"East Jaba' Bedouins","name:fr":"East Jaba' Bedouins","name:he":"ג'אבא מזרח בדואים"},"display_name":"بدو جبع شرق, שטח C, יהודה ושומרון, Palestinian Territory","address":{"hamlet":"بدو جبع شرق","county":"שטח C","state":"יהודה ושומרון","country":"Palestinian Territory","country_code":"ps"},"osm_type":"way","osm_id":766668567,"type":"hamlet","location":[35.26976688116849,31.8602085],"bbox":[35.2655958,31.8585337,35.2739085,31.8617681]}
{"name":"بدو جبع","other_names":{"name:ar":"بدو جبع","name:en":"Jaba' Bedouins","name:fr":"Jaba Bédouin","name:he":"ג'בע בדואים"},"display_name":"بدو جبع, مخيم قلنديا, שטח C, יהודה ושומרון, Palestinian Territory","address":{"hamlet":"بدو جبع","town":"مخيم قلنديا","county":"שטח C","state":"יהודה ושומרון","country":"Palestinian Territory","country_code":"ps"},"osm_type":"node","osm_id":8239864765,"type":"hamlet","location":[35.2546242,31.8666408],"bbox":[35.2346242,31.8466408,35.2746242,31.8866408]}
{"name":"بدو ضاحية الأقباط","other_names":{"name:ar":"بدو ضاحية الأقباط","name:en":"Dahiyat al Aqbat Bedouins","name:fr":"Dahiyat al Aqbat Bedouins","name:he":"דחיאת אל אקבאט בדואים"},"display_name":"بدو ضاحية الأقباط, שטח C, יהודה ושומרון, Palestinian Territory","address":{"hamlet":"بدو ضاحية الأقباط","county":"שטח C","state":"יהודה ושומרון","country":"Palestinian Territory","country_code":"ps"},"osm_type":"relation","osm_id":10632084,"type":"hamlet","location":[35.259704296754315,31.8493537],"bbox":[35.25819,31.8480006,35.2613678,31.8528634]}
{"name":"بدوين","other_names":{"name:ar":"بدوين","name:en":"Bedouin","name:fr":"Bédouin"},"display_name":"بدوين, שטח C, יהודה ושומרון, Palestinian Territory","address":{"hamlet":"بدوين","county":"שטח C","state":"יהודה ושומרון","country":"Palestinian Territory","country_code":"ps"},"osm_type":"node","osm_id":432338677,"type":"hamlet","location":[35.4193687,31.8976357],"bbox":[35.3993687,31.8776357,35.4393687,31.9176357]}
{"name":"برغشة","other_names":{"name:ar":"برغشة","name:en":"Barghasha","name:fr":"Barghasha","name:he":"ברגשה"},"display_name":"برغشة, مشروع بيت قاد, منطقة ب, الضفة الغربية, Palestinian Territory","address":{"hamlet":"برغشة","village":"مشروع بيت قاد","county":"منطقة ب","region":"الضفة الغربية","country":"Palestinian Territory","country_code":"ps"},"osm_type":"node","osm_id":8261054231,"type":"hamlet","location":[35.378242,32.4770312],"bbox":[35.358242,32.4570312,35.398242,32.4970312]}
{"name":"بيت نوبا","other_names":{"name:ar":"بيت نوبا","name:en":"Bait Noba","name:fr":"Beit Nouba","name:he":"בית נובה"},"display_name":"بيت نوبا, שטח C, יהודה ושומרון, Palestinian Territory","address":{"hamlet":"بيت نوبا","county":"שטח C","state":"יהודה ושומרון","country":"Palestinian Territory","country_code":"ps"},"osm_type":"node","osm_id":432263944,"type":"hamlet","location":[35.042374,31.8582707],"bbox":[35.022374,31.8382707,35.062374,31.8782707]}
{"name":"تنين","other_names":{"name:ar":"Tannin","name:fr":"Tannin","name:he":"תנין"},"display_name":"تنين, تلفيت, منطقة أ, الضفة الغربية, 233, Palestinian Territory","address":{"hamlet":"تنين","village":"تلفيت","county":"منطقة أ","region":"الضفة الغربية","postcode":"233","country":"Palestinian Territory","country_code":"ps"},"population":164,"osm_type":"node","osm_id":8261295650,"type":"hamlet","location":[35.3398083,32.4151008],"bbox":[35.3198083,32.3951008,35.3598083,32.4351008]}
{"name":"جبل الأقرع","other_names":{"name:ar":"جبل الأقرع","name:en":"Jabal al Aqra'a","name:fr":"Jabal al Aqra'a","name:he":"ג'בל אל אקרע"},"display_name":"جبل الأقرع, מועצה אזורית שומרון, שטח C, יהודה ושומרון, Palestinian Territory","address":{"hamlet":"جبل الأقرع","city":"מועצה אזורית שומרון","county":"שטח C","state":"יהודה ושומרון","country":"Palestinian Territory","country_code":"ps"},"osm_type":"way","osm_id":765925012,"type":"hamlet","location":[35.18373183385991,32.422804400000004],"bbox":[35.1817209,32.4223563,35.185161,32.4232764]}
{"name":"جنبة","other_names":{"name:ar":"جنبة","name:en":"Jinba","name:fr":"Jinba","name:he":"ג'ינבה"},"display_name":"جنبة, שטח C, יהודה ושומרון, Palestinian Territory","address":{"hamlet":"جنبة","county":"שטח C","state":"יהודה ושומרון","country":"Palestinian Territory","country_code":"ps"},"osm_type":"node","osm_id":4189965552,"type":"hamlet","location":[35.139722,31.3630211],"bbox":[35.119722,31.3430211,35.159722,31.3830211]}
{"name":"جنيد","other_names":{"name:ar":"جنيد","name:en":"Junid","name:fr":"Junid","name:he":"ג'וניד"},"display_name":"جنيد, نابلس, منطقة أ, الضفة الغربية, Palestinian Territory","address":{"hamlet":"جنيد","town":"نابلس","county":"منطقة أ","region":"الضفة الغربية","country":"Palestinian Territory","country_code":"ps"},"osm_type":"node","osm_id":432135580,"type":"hamlet","location":[35.2192442,32.2254006],"bbox":[35.1992442,32.2054006,35.2392442,32.2454006]}
{"name":"جورة الخيل","other_names":{"name:ar":"جورة الخيل","name:en":"Jorat El Kheir","name:fr":"Jurat al Khiel"},"display_name":"جورة الخيل, שטח C, יהודה ושומרון, Palestinian Territory","address":{"hamlet":"جورة الخيل","county":"שטח C","state":"יהודה ושומרון","country":"Palestinian Territory","country_code":"ps"},"osm_type":"node","osm_id":4360263920,"type":"hamlet","location":[35.1787351,31.592173],"bbox":[35.1587351,31.572173,35.1987351,31.612173]}
{"name":"جيبيا","other_names":{"name:ar":"جيبيا","name:en":"Jibiya","name:fr":"Gibia","name:he":"ג'יביא"},"display_name":"جيبيا, كوبر‎, منطقة ب, الضفة الغربية, Palestinian Territory","address":{"hamlet":"جيبيا","village":"كوبر‎","county":"منطقة ب","region":"الضفة الغربية","country":"Palestinian Territory","country_code":"ps"},"osm_type":"node","osm_id":432276255,"type":"hamlet","location":[35.1604996,31.9977212],"bbox":[35.1404996,31.9777212,35.1804996,32.0177212]}
{"name":"حرملة","other_names":{"name:ar":"حرملة","name:en":"Harmala","name:fr":"Harmala","name:he":"חרמלה"},"display_name":"حرملة, منطقة ب, الضفة الغربية, Palestinian Territory","address":{"hamlet":"حرملة","county":"منطقة ب","region":"الضفة الغربية","country":"Palestinian Territory","country_code":"ps"},"osm_type":"way","osm_id":289911724,"type":"hamlet","location":[35.21129773513179,31.6611279],"bbox":[35.2067037,31.6572162,35.2246781,31.6649189]}
{"name":"حلاوة","other_names":{"name:ar":"حلاوة","name:en":"Halaweh","name:fr":"Halawa","name:he":"חאלאווה"},"display_name":"حلاوة, שטח C, יהודה ושומרון, Palestinian Territory","address":{"hamlet":"حلاوة","county":"שטח C","state":"יהודה ושומרון","country":"Palestinian Territory","country_code":"ps"},"osm_type":"node","osm_id":4189965551,"type":"hamlet","location":[35.1575319,31.364945],"bbox":[35.1375319,31.344945,35.1775319,31.384945]}
{"name":"حمصة التحتا","other_names":{"name:ar":"حمصة التحتا","name:en":"Humsa - Al Tahta","name:fr":"Homsa al-Tahta","name:he":"חומסה אל-תחתא"},"display_name":"حمصة التحتا, فروش بيت دجن, שטח C, יהודה ושומרון, Palestinian Territory","address":{"hamlet":"حمصة التحتا","village":"فروش بيت دجن","county":"שטח C","state":"יהודה ושומרון","country":"Palestinian Territory","country_code":"ps"},"osm_type":"relation","osm_id":10627733,"type":"hamlet","location":[35.45864014198203,32.18748535],"bbox":[35.4373408,32.1850708,35.4625493,32.213524]}
{"name":"حمصة","other_names":{"name:ar":"حمصة","name:en":"Humsa","name:fr":"Homsa","name:he":"חומסה"},"display_name":"حمصة, שטח C, יהודה ושומרון, 766, Palestinian Territory","address":{"hamlet":"حمصة","county":"שטח C","state":"יהודה ושומרון","postcode":"766","country":"Palestinian Territory","country_code":"ps"},"osm_type":"node","osm_id":8230617861,"type":"hamlet","location":[34.9847906,31.5304911],"bbox":[34.9647906,31.5104911,35.0047906,31.5504911]}
{"name":"حي الخلايلة","other_names":{"name:ar":"حي الخلايلة","name:en":"Hayy Al-Khalayleh","name:fr":"Quartier d'Al-Khalaila","name:he":"שכונת אל-ח'לאיילה"},"display_name":"حي الخلايلة, שטח C, יהודה ושומרון, Palestinian Territory","address":{"hamlet":"حي الخلايلة","county":"שטח C","state":"יהודה ושומרון","country":"Palestinian Territory","country_code":"ps"},"osm_type":"node","osm_id":8236859108,"type":"hamlet","location":[35.1652141,31.8497933],"bbox":[35.1452141,31.8297933,35.1852141,31.8697933]}
{"name":"خَرائِب أمُّ اللَحْمْ","other_names":{"name:ar":"خَرائِب أمُّ اللَحْمْ","name:en":"Kharayib Umm al Lahim","name:fr":"Kharaib Umm a-Lahem","name:he":"ח'ראיב אום א-לחם"},"display_name":"خَرائِب أمُّ اللَحْمْ, خرائب أم اللحم, שטח C, יהודה ושומרון, Palestinian Territory","address":{"hamlet":"خَرائِب أمُّ اللَحْمْ","village":"خرائب أم اللحم","county":"שטח C","state":"יהודה ושומרון","country":"Palestinian Territory","country_code":"ps"},"osm_type":"way","osm_id":766666954,"type":"hamlet","location":[35.09391742445143,31.83926185],"bbox":[35.0912495,31.8360626,35.0975044,31.8424883]}
{"name":"خِرْبَةْ أبو عَنْقَر","other_names":{"name:ar":"خِرْبَةْ أبو عَنْقَر","name:en":"Khirbet Abu 'Anqar","name:fr":"Khirbet Abu 'Anqar","name:he":"ח'רבת אבו ענקר"},"display_name":"خِرْبَةْ أبو عَنْقَر, שטח C, יהודה ושומרון, Palestinian Territory","address":{"hamlet":"خِرْبَةْ أبو عَنْقَر","county":"שטח C","state":"יהודה ושומרון","country":"Palestinian Territory","country_code":"ps"},"osm_type":"way","osm_id":765929181,"type":"hamlet","location":[35.39128810839652,32.48670595],"bbox":[35.390226,32.4860372,35.3923212,32.4874344]}
{"name":"خربة أبو عنقر","other_names":{"name:ar":"خربة أبو عنقر","name:en":"Khirbat Abu 'Anqar","name:fr":"Khirbet Abu Anqar","name:he":"חרבת אבו ענקר"},"display_name":"خربة أبو عنقر, مشروع بيت قاد, منطقة ب, الضفة الغربية, Palestinian Territory","address":{"hamlet":"خربة أبو عنقر","village":"مشروع بيت قاد","county":"منطقة ب","region":"الضفة الغربية","country":"Palestinian Territory","country_code":"ps"},"osm_type":"node","osm_id":8261054233,"type":"hamlet","location":[35.3793521,32.4836948],"bbox":[35.3593521,32.4636948,35.3993521,32.5036948]}
{"name":"خربة الحمام","other_names":{"name:ar":"خربة الحمام","name:en":"Khirbat al-Hammam","name:fr":"Khirbat al-Hammam","name:he":"חרבת אל-חמאם"},"display_name":"خربة الحمام, שטח C, יהודה ושומרון, Palestinian Territory","address":{"hamlet":"خربة الحمام","county":"שטח C","state":"יהודה ושומרון","country":"Palestinian Territory","country_code":"ps"},"population":20,"osm_type":"node","osm_id":8261267505,"type":"hamlet","location":[35.128312,32.4188693],"bbox":[35.108312,32.3988693,35.148312,32.4388693]}
{"name":"خربة الدير","other_names":{"name:ar":"خربة الدير","name:en":"Khirbat a-Dar","name:fr":"Khirbat a-Dar","name:he":"ח'ירבת א-דאר"},"display_name":"خربة الدير, Sourif City, שטח C, יהודה ושומרון, Palestinian Territory","address":{"hamlet":"خربة الدير","town":"Sourif City","county":"שטח C","state":"יהודה ושומרון","country":"Palestinian Territory","country_code":"ps"},"osm_type":"node","osm_id":4240608097,"type":"hamlet","location":[35.0259906,31.6555987],"bbox":[35.0059906,31.6355987,35.0459906,31.6755987]}
{"name":"خربة الراس الأحمر","other_names":{"name:ar":"خربة الراس الأحمر","name:en":"Khirbet ar-Ras al-Ahmar","name:fr":"Khirbet ar-Ras al-Ahmar","name:he":"חרבת א-ראס אל-אחמר"},"display_name":"خربة الراس الأحمر, שטח C, יהודה ושומרון, Palestinian Territory","address":{"hamlet":"خربة الراس الأحمر","county":"שטח C","state":"יהודה ושומרון","country":"Palestinian Territory","country_code":"ps"},"population":74,"osm_type":"node","osm_id":8259280608,"type":"hamlet","location":[35.4536922,32.2659989],"bbox":[35.4336922,32.2459989,35.4736922,32.2859989]}
{"name":"خِرْبِة المَراجِم","other_names":{"name:ar":"خِرْبِة المَراجِم","name:en":"Khirbet al Marajim","name:fr":"Khirbet al Marajim","name:he":"ח'רבת אל מראג'ם"},"display_name":"خِرْبِة المَراجِم, שטח C, יהודה ושומרון, Palestinian Territory","address":{"hamlet":"خِرْبِة المَراجِم","county":"שטח C","state":"יהודה ושומרון","country":"Palestinian Territory","country_code":"ps"},"osm_type":"way","osm_id":766663150,"type":"hamlet","location":[35.35823720725734,32.0470215],"bbox":[35.3562197,32.0442069,35.3592345,32.049927]}
{"name":"خربة المنطار الشرقية","other_names":{"name:ar":"خربة المنطار الشرقية","name:en":"Khirbet al Muntar ash-Sharqiya","name:fr":"Khirbet al Muntar ash-Sharqiya","name:he":"חרבת אל-מונטאר א-שרקייה"},"display_name":"خربة المنطار الشرقية, שטח C, יהודה ושומרון, Palestinian Territory","address":{"hamlet":"خربة المنطار الشرقية","county":"שטח C","state":"יהודה ושומרון","country":"Palestinian Territory","country_code":"ps"},"population":33,"osm_type":"node","osm_id":8261267459,"type":"hamlet","location":[35.1223461,32.458824],"bbox":[35.1023461,32.438824,35.1423461,32.478824]}
{"name":"خربِة المنطار الغربية","other_names":{"name:ar":"خربِة المنطار الغربية","name:en":"Khirbet al Muntar al Gharbiya","name:fr":"Khirbet al Muntar al Gharbiya","name:he":"חרבת אל-מונטאר אל ר'רבייה"},"display_name":"خربِة المنطار الغربية, מועצה אזורית שומרון, שטח C, יהודה ושומרון, Palestinian Territory","address":{"hamlet":"خربِة المنطار الغربية","city":"מועצה אזורית שומרון","county":"שטח C","state":"יהודה ושומרון","country":"Palestinian Territory","country_code":"ps"},"population":38,"osm_type":"node","osm_id":8261267458,"type":"hamlet","location":[35.1127953,32.4611891],"bbox":[35.0927953,32.4411891,35.1327953,32.4811891]}
{"name":"خربة النخلة","other_names":{"name:ar":"خربة النخلة","name:en":"Khirbet an Nahla","name:fr":"Khirbet an Nahla","name:he":"חירבת אל-נחלה"},"display_name":"خربة النخلة, وادي رحال, שטח C, יהודה ושומרון, Palestinian Territory","address":{"hamlet":"خربة النخلة","village":"وادي رحال","county":"שטח C","state":"יהודה ושומרון","country":"Palestinian Territory","country_code":"ps"},"osm_type":"node","osm_id":4456394267,"type":"hamlet","location":[35.1820135,31.6782022],"bbox":[35.1620135,31.6582022,35.2020135,31.6982022]}
{"name":"خربة بيت زكريا","other_names":{"name:ar":"خربة بيت زكريا","name:en":"Khirbet Beit Zakariyyah","name:fr":"Khirbet Beit Zakaria","name:he":"חורבת בית זכריה"},"display_name":"خربة بيت زكريا, שטח C, יהודה ושומרון, Palestinian Territory","address":{"hamlet":"خربة بيت زكريا","county":"שטח C","state":"יהודה ושומרון","country":"Palestinian Territory","country_code":"ps"},"population":185,"osm_type":"node","osm_id":4195940118,"type":"hamlet","location":[35.1232615,31.6631603],"bbox":[35.1032615,31.6431603,35.1432615,31.6831603]}
{"name":"خربة تل الحمة","other_names":{"name:ar":"خربة تل الحمة","name:en":"Khirbet Tell el Himma","name:fr":"Khirbet Tell el Himma","name:he":"חרבת תל אל-חימה"},"display_name":"خربة تل الحمة, שטח C, יהודה ושומרון, Palestinian Territory","address":{"hamlet":"خربة تل الحمة","county":"שטח C","state":"יהודה ושומרון","country":"Palestinian Territory","country_code":"ps"},"population":77,"osm_type":"node","osm_id":8259280600,"type":"hamlet","location":[35.5012743,32.3705597],"bbox":[35.4812743,32.3505597,35.5212743,32.3905597],"border":{"name":"قرية تل الحمة","other_names":{"name:ar":"قرية تل الحمة","name:en":"Tal El Himmeh Village","name:fr":"Khirbet Tell el Himma"},"display_name":"قرية تل الحمة, שטח C, יהודה ושומרון, Palestinian Territory","address":{"hamlet":"قرية تل الحمة","county":"שטח C","state":"יהודה ושומרון","country":"Palestinian Territory","country_code":"ps"},"osm_type":"relation","osm_id":10672769,"type":"hamlet","location":[35.49691760654352,32.36976135],"bbox":[35.4954458,32.3653011,35.5069105,32.3765508]}}
{"name":"خربة زنوتة","other_names":{"name:ar":"خِرْبِة زَنُّوتَة","name:en":"Khirbet Zanuta","name:fr":"Khirbet Zanuta","name:he":"ח'רבת זנוטה"},"display_name":"خربة زنوتة, שטח C, יהודה ושומרון, Palestinian Territory","address":{"hamlet":"خربة زنوتة","county":"שטח C","state":"יהודה ושומרון","country":"Palestinian Territory","country_code":"ps"},"population":131,"osm_type":"node","osm_id":8365018327,"type":"hamlet","location":[34.9953831,31.3713493],"bbox":[34.9753831,31.3513493,35.0153831,31.3913493]}
{"name":"خِرْبِة سَبْعِين","other_names":{"name:ar":"خِرْبِة سَبْعِين","name:en":"Khirbet Sab'ein","name:fr":"Khirbet Sab'ein","name:he":"ח'רבת סבעין"},"display_name":"خِرْبِة سَبْعِين, שטח C, יהודה ושומרון, Palestinian Territory","address":{"hamlet":"خِرْبِة سَبْعِين","county":"שטח C","state":"יהודה ושומרון","country":"Palestinian Territory","country_code":"ps"},"osm_type":"way","osm_id":765932472,"type":"hamlet","location":[35.32828518648047,32.4355143],"bbox":[35.3264299,32.4347238,35.3300902,32.4365024]}
{"name":"خربة سروج","other_names":{"name:ar":"خربة سروج","name:en":"Khirbat Suruj","name:fr":"Khirbet Suruj","name:he":"חרבת סורוג'"},"display_name":"خربة سروج, מועצה אזורית שומרון, שטח C, יהודה ושומרון, Palestinian Territory","address":{"hamlet":"خربة سروج","city":"מועצה אזורית שומרון","county":"שטח C","state":"יהודה ושומרון","country":"Palestinian Territory","country_code":"ps"},"population":35,"osm_type":"node","osm_id":8261054227,"type":"hamlet","location":[35.1968481,32.4875247],"bbox":[35.1768481,32.4675247,35.2168481,32.5075247]}
{"name":"خِرْبِة صَرَّة","other_names":{"name:ar":"خِرْبِة صَرَّة","name:en":"Khirbet Sarra","name:fr":"Khirbet Sarra","name:he":"ח'רבת סרה"},"display_name":"خِرْبِة صَرَّة, שילה, שטח C, יהודה ושומרון, Palestinian Territory","address":{"hamlet":"خِرْبِة صَرَّة","village":"שילה","county":"שטח C","state":"יהודה ושומרון","country":"Palestinian Territory","country_code":"ps"},"osm_type":"way","osm_id":766663333,"type":"hamlet","location":[35.30727478009183,32.05621315],"bbox":[35.3062682,32.0554552,35.308323,32.0569988]}
{"name":"خِرْبِة طَانَا","other_names":{"name:ar":"خِرْبِة طَانَا","name:en":"Khirbet Tana","name:fr":"Khirbet Tana","name:he":"ח'רבת טאנא"},"display_name":"خِرْبِة طَانَا, שטח C, יהודה ושומרון, Palestinian Territory","address":{"hamlet":"خِرْبِة طَانَا","county":"שטח C","state":"יהודה ושומרון","country":"Palestinian Territory","country_code":"ps"},"osm_type":"relation","osm_id":10620215,"type":"hamlet","location":[35.39945301076439,32.1564396],"bbox":[35.3899421,32.1518829,35.4011695,32.1628799]}
{"name":"خربة طويّل - تَل الخَشَبَة","other_names":{"name:ar":"خربة طويّل - تَل الخَشَبَة","name:en":"Khirbet at-Tawil -Tell al Khashaba","name:fr":"Khirbet a-Twil - Tel al-Hashaba","name:he":"ח'רבת א-טוויל - תל אל חשאבה"},"display_name":"خربة طويّل - تَل الخَشَبَة, שטח C, יהודה ושומרון, Palestinian Territory","address":{"hamlet":"خربة طويّل - تَل الخَشَبَة","county":"שטח C","state":"יהודה ושומרון","country":"Palestinian Territory","country_code":"ps"},"osm_type":"relation","osm_id":10627777,"type":"hamlet","location":[35.36510644,32.103020900000004],"bbox":[35.3637175,32.0979255,35.3708346,32.1119688]}
{"name":"خربة عاطوف","other_names":{"name:ar":"خربة عاطوف","name:en":"Khirbet Atuf","name:fr":"Khirbet Atouf","name:he":"חרבת עאטוף"},"display_name":"خربة عاطوف, منطقة ب, الضفة الغربية, Palestinian Territory","address":{"hamlet":"خربة عاطوف","county":"منطقة ب","region":"الضفة الغربية","country":"Palestinian Territory","country_code":"ps"},"population":216,"osm_type":"node","osm_id":8259280609,"type":"hamlet","location":[35.4369837,32.2645737],"bbox":[35.4169837,32.2445737,35.4569837,32.2845737]}
{"name":"خربة عبد الله اليونس","other_names":{"name:ar":"خربة عبد الله اليونس","name:en":"Khirbat Abdallah al-Yunis","name:fr":"Khirbet Abdallah al Yunis","name:he":"חרבת עבדאללה אל-יונס"},"display_name":"خربة عبد الله اليونس, שטח C, יהודה ושומרון, Palestinian Territory","address":{"hamlet":"خربة عبد الله اليونس","county":"שטח C","state":"יהודה ושומרון","country":"Palestinian Territory","country_code":"ps"},"population":167,"osm_type":"node","osm_id":8261054229,"type":"hamlet","location":[35.1143394,32.475755],"bbox":[35.0943394,32.455755,35.1343394,32.495755]}
{"name":"خربة عين كرزلية","other_names":{"name:ar":"خربة عين كرزلية","name:en":"Khirbat Ein Karzaliya","name:fr":"Khirbet Ain Karzalia","name:he":"חרבת עין כרזלייה"},"display_name":"خربة عين كرزلية, שטח C, יהודה ושומרון, Palestinian Territory","address":{"hamlet":"خربة عين كرزلية","county":"שטח C","state":"יהודה ושומרון","country":"Palestinian Territory","country_code":"ps"},"osm_type":"node","osm_id":8365844869,"type":"hamlet","location":[35.4672799,32.1113653],"bbox":[35.4472799,32.0913653,35.4872799,32.1313653]}
{"name":"خِرْبِة غْوين الفُوقَا","other_names":{"name:ar":"خِرْبِة غْوين الفُوقَا","name:en":"Khirbet Ghuwein al Fauqa","name:fr":"Khirbet Ghuwein al Fauqa","name:he":"ח'רבת ר'ווין אל פוקא"},"display_name":"خِرْبِة غْوين الفُوقَا, שטח C, יהודה ושומרון, Palestinian Territory","address":{"hamlet":"خِرْبِة غْوين الفُوقَا","county":"שטח C","state":"יהודה ושומרון","country":"Palestinian Territory","country_code":"ps"},"osm_type":"way","osm_id":765938894,"type":"hamlet","location":[35.078733051796405,31.3614219],"bbox":[35.0757866,31.3592414,35.0807646,31.3637317]}
{"name":"خربة مسعود","other_names":{"name:ar":"خربة مسعود","name:en":"Khirbat Mas'ud","name:fr":"Khirbat Mas'ud","name:he":"ח'רבת מסעוד"},"display_name":"خربة مسعود, שטח C, יהודה ושומרון, Palestinian Territory","address":{"hamlet":"خربة مسعود","county":"שטח C","state":"יהודה ושומרון","country":"Palestinian Territory","country_code":"ps"},"osm_type":"way","osm_id":765893872,"type":"hamlet","location":[35.113811150000004,32.4424688],"bbox":[35.1121798,32.4414573,35.11523,32.4435322]}
{"name":"خربة يرزة","other_names":{"name:ar":"خربة يرزة","name:en":"Khirbet Yarza","name:fr":"Khirbet Yarza","name:he":"חרבת ירזה"},"display_name":"خربة يرزة, שטח C, יהודה ושומרון, Palestinian Territory","address":{"hamlet":"خربة يرزة","county":"שטח C","state":"יהודה ושומרון","country":"Palestinian Territory","country_code":"ps"},"population":31,"osm_type":"node","osm_id":8259280606,"type":"hamlet","location":[35.4362966,32.3081724],"bbox":[35.4162966,32.2881724,35.4562966,32.3281724]}
{"name":"خلّة أنجاس","other_names":{"name:ar":"خلّة أنجاس","name:en":"Khallet Anjas","name:fr":"Khallet Anjas","name:he":"ח'לית אנג'ס"},"display_name":"خلّة أنجاس, שטח C, יהודה ושומרון, Palestinian Territory","address":{"hamlet":"خلّة أنجاس","county":"שטח C","state":"יהודה ושומרון","country":"Palestinian Territory","country_code":"ps"},"osm_type":"node","osm_id":8261054234,"type":"hamlet","location":[35.1896528,32.496737],"bbox":[35.1696528,32.476737,35.2096528,32.516737]}
{"name":"خلة البلوطه","other_names":{"name:ar":"خلة البلوطه","name:en":"Khallet Al-Balluta","name:fr":"Khallet al Balluta","name:he":"ח'לית אל - בלוטה"},"display_name":"خلة البلوطه, שטח C, יהודה ושומרון, Palestinian Territory","address":{"hamlet":"خلة البلوطه","county":"שטח C","state":"יהודה ושומרון","country":"Palestinian Territory","country_code":"ps"},"population":74,"osm_type":"node","osm_id":8229183465,"type":"hamlet","location":[35.1219894,31.6540435],"bbox":[35.1019894,31.6340435,35.1419894,31.6740435]}
{"name":"خلة الفولة","other_names":{"name:ar":"خلة الفولة","name:en":"Khallet Al-Foulah","name:fr":"Khallet Al-Foulah","name:he":"חלת אל-פולה"},"display_name":"خلة الفولة, שטח C, יהודה ושומרון, Palestinian Territory","address":{"hamlet":"خلة الفولة","county":"שטח C","state":"יהודה ושומרון","country":"Palestinian Territory","country_code":"ps"},"osm_type":"node","osm_id":8366075412,"type":"hamlet","location":[35.4698628,32.1558235],"bbox":[35.4498628,32.1358235,35.4898628,32.1758235]}
{"name":"خلة عفانة","other_names":{"name:ar":"خلة عفانة","name:en":"Khallet Afana","name:fr":"Khallet Afana","name:he":"ח'לית עפאנה"},"display_name":"خلة عفانة, שטח C, יהודה ושומרון, Palestinian Territory","address":{"hamlet":"خلة عفانة","county":"שטח C","state":"יהודה ושומרון","country":"Palestinian Territory","country_code":"ps"},"population":59,"osm_type":"node","osm_id":8229183464,"type":"hamlet","location":[35.1360506,31.6474469],"bbox":[35.1160506,31.6274469,35.1560506,31.6674469]}
{"name":"دكيكة","other_names":{"name:ar":"دكيكة","name:en":"Dkaika","name:fr":"Dkeika","name:he":"דקייקה"},"display_name":"دكيكة, מועצה אזורית מגילות ים המלח, שטח C, יהודה ושומרון, Palestinian Territory","address":{"hamlet":"دكيكة","city":"מועצה אזורית מגילות ים המלח","county":"שטח C","state":"יהודה ושומרון","country":"Palestinian Territory","country_code":"ps"},"osm_type":"node","osm_id":4189965550,"type":"hamlet","location":[35.2252591,31.3830706],"bbox":[35.2052591,31.3630706,35.2452591,31.4030706]}
{"name":"دير شمس","other_names":{"name:ar":"دير شمس","name:en":"Deir Shams","name:fr":"Deir Shams","name:he":"חרבת דיר שמס"},"display_name":"دير شمس, خربة شويكة, منطقة ب, الضفة الغربية, 797, Palestinian Territory","address":{"hamlet":"دير شمس","village":"خربة شويكة","county":"منطقة ب","region":"الضفة الغربية","postcode":"797","country":"Palestinian Territory","country_code":"ps"},"population":80,"osm_type":"node","osm_id":7153480053,"type":"hamlet","location":[35.020411,31.4072685],"bbox":[35.000411,31.3872685,35.040411,31.4272685]}
{"name":"رأس طيرة","other_names":{"name:ar":"رأس طيرة","name:en":"Ras Tira","name:fr":"Ras at-Tira","name:he":"ראס טירה"},"display_name":"رأس طيرة, منطقة ب, الضفة الغربية, Palestinian Territory","address":{"hamlet":"رأس طيرة","county":"منطقة ب","region":"الضفة الغربية","country":"Palestinian Territory","country_code":"ps"},"osm_type":"node","osm_id":3525746818,"type":"hamlet","location":[35.0101223,32.1619052],"bbox":[34.9901223,32.1419052,35.0301223,32.1819052]}
{"name":"رمادين","other_names":{"name:ar":"رمادين","name:en":"Ramadin","name:fr":"Al-Ramadin","name:he":"רמאדין"},"display_name":"رمادين, منطقة ب, الضفة الغربية, Palestinian Territory","address":{"hamlet":"رمادين","county":"منطقة ب","region":"الضفة الغربية","country":"Palestinian Territory","country_code":"ps"},"osm_type":"node","osm_id":4321677302,"type":"hamlet","location":[34.9116284,31.3809068],"bbox":[34.8916284,31.3609068,34.9316284,31.4009068]}
{"name":"زعاترة الزعيَم - الزّانبا","other_names":{"name:ar":"زعاترة الزعيَم - الزّانبا","name:en":"Za’ataret Az-Za’iem- Zaneba","name:fr":"Za’ataret Az-Za’iem- Zaneba","name:he":"זעאתרת אזעיים - זנבא"},"display_name":"زعاترة الزعيَم - الزّانبا, عناتا‎, שטח C, יהודה ושומרון, Palestinian Territory","address":{"hamlet":"زعاترة الزعيَم - الزّانبا","town":"عناتا‎","county":"שטח C","state":"יהודה ושומרון","country":"Palestinian Territory","country_code":"ps"},"osm_type":"way","osm_id":766874425,"type":"hamlet","location":[35.27795879651844,31.795300349999998],"bbox":[35.2762414,31.7929806,35.280177,31.7977588]}
{"name":"سلحب","other_names":{"name:ar":"سلحب","name:en":"Salhab","name:fr":"Salhab","name:he":"סלחב"},"display_name":"سلحب, عقابة, منطقة أ, الضفة الغربية, Palestinian Territory","address":{"hamlet":"سلحب","town":"عقابة","county":"منطقة أ","region":"الضفة الغربية","country":"Palestinian Territory","country_code":"ps"},"population":25,"osm_type":"node","osm_id":8259280602,"type":"hamlet","location":[35.3727416,32.3547126],"bbox":[35.3527416,32.3347126,35.3927416,32.3747126]}
{"name":"ضاحية الرحمن","other_names":{"name:ar":"ضاحية الرحمن","name:en":"Dahyat Alrehan","name:fr":"Dahiat Ar-Rahman"},"display_name":"ضاحية الرحمن, سردا, منطقة ب, الضفة الغربية, 620, Palestinian Territory","address":{"hamlet":"ضاحية الرحمن","village":"سردا","county":"منطقة ب","region":"الضفة الغربية","postcode":"620","country":"Palestinian Territory","country_code":"ps"},"osm_type":"node","osm_id":432278682,"type":"hamlet","location":[35.1920137,31.9433333],"bbox":[35.1720137,31.9233333,35.2120137,31.9633333]}
{"name":"طاروسة","other_names":{"name:ar":"طاروسة","name:en":"Tarusa","name:fr":"Tarusa","name:he":"טארוסה"},"display_name":"طاروسة, שטח C, יהודה ושומרון, 766, Palestinian Territory","address":{"hamlet":"طاروسة","county":"שטח C","state":"יהודה ושומרון","postcode":"766","country":"Palestinian Territory","country_code":"ps"},"osm_type":"node","osm_id":8230617860,"type":"hamlet","location":[34.9837152,31.5252573],"bbox":[34.9637152,31.5052573,35.0037152,31.5452573]}
{"name":"طوبلاس","other_names":{"name:ar":"طوبلاس","name:en":"Tublas","name:fr":"Tublas","name:he":"טובלאס"},"display_name":"طوبلاس, عناتا‎, שטח C, יהודה ושומרון, Palestinian Territory","address":{"hamlet":"طوبلاس","town":"عناتا‎","county":"שטח C","state":"יהודה ושומרון","country":"Palestinian Territory","country_code":"ps"},"osm_type":"way","osm_id":766835223,"type":"hamlet","location":[35.26770711246462,31.827282750000002],"bbox":[35.266888,31.8259815,35.2686743,31.8288262]}
{"name":"طورة الشرقية","other_names":{"name:ar":"طورة الشرقية","name:en":"Tura Al-Sharqiya","name:fr":"Tura ash-Sharqiya","name:he":"טורה אל-שרקייה"},"display_name":"طورة الشرقية, מועצה אזורית שומרון, שטח C, יהודה ושומרון, Palestinian Territory","address":{"hamlet":"طورة الشرقية","city":"מועצה אזורית שומרון","county":"שטח C","state":"יהודה ושומרון","country":"Palestinian Territory","country_code":"ps"},"population":233,"osm_type":"node","osm_id":8261054237,"type":"hamlet","location":[35.1657712,32.4662099],"bbox":[35.1457712,32.4462099,35.1857712,32.4862099]}
{"name":"ظهر المالح","other_names":{"name:ar":"ظهر المالح","name:en":"Dhaher Al-Malih","name:fr":"Dhaher Al-Maleh","name:he":"דהר אל-מאלח"},"display_name":"ظهر المالح, שטח C, יהודה ושומרון, Palestinian Territory","address":{"hamlet":"ظهر المالح","county":"שטח C","state":"יהודה ושומרון","country":"Palestinian Territory","country_code":"ps"},"population":195,"osm_type":"node","osm_id":8261054235,"type":"hamlet","location":[35.1598436,32.473222],"bbox":[35.1398436,32.453222,35.1798436,32.493222]}
{"name":"عرب ابو فردة","other_names":{"name:ar":"عرب ابو فردة","name:en":"Arab Abu-Fardah","name:fr":"Arab Abu Farda","name:he":"ערב אבו-פרדה"},"display_name":"عرب ابو فردة, عرب الرماضين الجنوبي, שטח C, יהודה ושומרון, 110, Palestinian Territory","address":{"hamlet":"عرب ابو فردة","village":"عرب الرماضين الجنوبي","county":"שטח C","state":"יהודה ושומרון","postcode":"110","country":"Palestinian Territory","country_code":"ps"},"osm_type":"node","osm_id":3500667333,"type":"hamlet","location":[34.9946996,32.1758966],"bbox":[34.9746996,32.1558966,35.0146996,32.1958966]}
{"name":"عرب الرماضين الشمالي","other_names":{"name:ar":"عرب الرماضين الشمالي","name:en":"Arab a-Ramadin a-Shmaliy","name:fr":"Arab ar-Ramadin ash-Shamali","name:he":"ערב א-רמאד'ין א-שמאלי"},"display_name":"عرب الرماضين الشمالي, שטח C, יהודה ושומרון, 342, Palestinian Territory","address":{"hamlet":"عرب الرماضين الشمالي","county":"שטח C","state":"יהודה ושומרון","postcode":"342","country":"Palestinian Territory","country_code":"ps"},"osm_type":"node","osm_id":3528276466,"type":"hamlet","location":[34.9947154,32.2012969],"bbox":[34.9747154,32.1812969,35.0147154,32.2212969]}
{"name":"عرب الرّماضين الشّمالي","other_names":{"name:ar":"عرب الرّماضين الشّمالي","name:en":"Arab ar-Ramadin ash-Shamali","name:fr":"Arab ar-Ramadin ash-Shamali","name:he":"ערב א-רמאדין א-שמאלי"},"display_name":"عرب الرّماضين الشّمالي, שטח C, יהודה ושומרון, Palestinian Territory","address":{"hamlet":"عرب الرّماضين الشّمالي","county":"שטח C","state":"יהודה ושומרון","country":"Palestinian Territory","country_code":"ps"},"osm_type":"relation","osm_id":10620149,"type":"hamlet","location":[35.00474525200112,32.19886124999999],"bbox":[34.9994958,32.1933172,35.0057012,32.2000583]}
{"name":"عرب الكعابنة","other_names":{"name:ar":"عرب الكعابنة","name:en":"Arab al Ka'abneh","name:fr":"Arab Kaabna","name:he":"ערב אל כעבנה"},"display_name":"عرب الكعابنة, שטח C, יהודה ושומרון, Palestinian Territory","address":{"hamlet":"عرب الكعابنة","county":"שטח C","state":"יהודה ושומרון","country":"Palestinian Territory","country_code":"ps"},"osm_type":"relation","osm_id":10627781,"type":"hamlet","location":[35.3782648413863,32.05381095],"bbox":[35.3756239,32.0500133,35.3792268,32.0549148]}
{"name":"عرب عصين","other_names":{"name:ar":"عرب عصين","name:en":"Arab 'Assin","name:fr":"Arab Assin","name:he":"ערב עאסין"},"display_name":"عرب عصين, الضّمايرة, שטח C, יהודה ושומרון, Palestinian Territory","address":{"hamlet":"عرب عصين","village":"الضّمايرة","county":"שטח C","state":"יהודה ושומרון","country":"Palestinian Territory","country_code":"ps"},"osm_type":"relation","osm_id":10619194,"type":"hamlet","location":[35.21711089733567,32.4012514],"bbox":[35.2157015,32.4004864,35.2183984,32.4037857]}
{"name":"عرقان عوض","other_names":{"name:ar":"عرقان عوض","name:en":"Urqan Awad","name:fr":"Urqan Awad","name:he":"עורקן עווד"},"display_name":"عرقان عوض, שטח C, יהודה ושומרון, 766, Palestinian Territory","address":{"hamlet":"عرقان عوض","county":"שטח C","state":"יהודה ושומרון","postcode":"766","country":"Palestinian Territory","country_code":"ps"},"osm_type":"node","osm_id":8230617862,"type":"hamlet","location":[34.9896792,31.5221242],"bbox":[34.9696792,31.5021242,35.0096792,31.5421242]}
{"name":"عزبة جلعود","other_names":{"name:ar":"عزبة جلعود","name:en":"'Izbat Jaloud","name:fr":"Izbat Jaloud","name:he":"עזבת ג'לעוד"},"display_name":"عزبة جلعود, الضبعة, שטח C, יהודה ושומרון, 110, Palestinian Territory","address":{"hamlet":"عزبة جلعود","village":"الضبعة","county":"שטח C","state":"יהודה ושומרון","postcode":"110","country":"Palestinian Territory","country_code":"ps"},"osm_type":"node","osm_id":3525667217,"type":"hamlet","location":[34.9986705,32.1510741],"bbox":[34.9786705,32.1310741,35.0186705,32.1710741]}
{"name":"فَخْتْ الجُول","other_names":{"name:ar":"فَخْتْ الجُول","name:en":"Fakht al Jul","name:fr":"Fakht al Jul","name:he":"פח'ת אל ר'ול"},"display_name":"فَخْتْ الجُول, שטח C, יהודה ושומרון, Palestinian Territory","address":{"hamlet":"فَخْتْ الجُول","county":"שטח C","state":"יהודה ושומרון","country":"Palestinian Territory","country_code":"ps"},"osm_type":"way","osm_id":767777437,"type":"hamlet","location":[35.24966627673091,31.6962384],"bbox":[35.2473923,31.6950761,35.2506934,31.6974007]}
{"name":"فرع","other_names":{"name:ar":"فرع","name:en":"Fer'a","name:fr":"Fer'a"},"display_name":"فرع, שטח C, יהודה ושומרון, Palestinian Territory","address":{"hamlet":"فرع","county":"שטח C","state":"יהודה ושומרון","country":"Palestinian Territory","country_code":"ps"},"population":71,"osm_type":"node","osm_id":4375162511,"type":"hamlet","location":[35.0112486,31.5466413],"bbox":[34.9912486,31.5266413,35.0312486,31.5666413]}
{"name":"فصايل الفوقا","other_names":{"name:ar":"فصايل الفوقا","name:en":"Fasayil al Fauqa","name:fr":"Fasayil al Fauqa","name:he":"פסאייל אל פוקה"},"display_name":"فصايل الفوقا, מועצה אזורית ערבות הירדן, שטח C, יהודה ושומרון, Palestinian Territory","address":{"hamlet":"فصايل الفوقا","city":"מועצה אזורית ערבות הירדן","county":"שטח C","state":"יהודה ושומרון","country":"Palestinian Territory","country_code":"ps"},"osm_type":"node","osm_id":8366068819,"type":"hamlet","location":[35.436524,32.0343465],"bbox":[35.416524,32.0143465,35.456524,32.0543465]}
{"name":"فصايل الوسطا","other_names":{"name:ar":"فصايل الوسطا","name:en":"Fasayel Al-Wusta","name:fr":"Fasayil Al Wusta","name:he":"פסאילאל-ווסטא"},"display_name":"فصايل الوسطا, מועצה אזורית ערבות הירדן, שטח C, יהודה ושומרון, Palestinian Territory","address":{"hamlet":"فصايل الوسطا","city":"מועצה אזורית ערבות הירדן","county":"שטח C","state":"יהודה ושומרון","country":"Palestinian Territory","country_code":"ps"},"osm_type":"node","osm_id":8366068818,"type":"hamlet","location":[35.4399228,32.0307447],"bbox":[35.4199228,32.0107447,35.4599228,32.0507447]}
{"name":"فكيكس","other_names":{"name:ar":"فكيكس","name:en":"Fuqeiqis","name:fr":"Fuqeiqis","name:he":"פוקיקיס"},"display_name":"فكيكس, שטח C, יהודה ושומרון, 766, Palestinian Territory","address":{"hamlet":"فكيكس","county":"שטח C","state":"יהודה ושומרון","postcode":"766","country":"Palestinian Territory","country_code":"ps"},"osm_type":"node","osm_id":1360386505,"type":"hamlet","location":[34.983201,31.4888132],"bbox":[34.963201,31.4688132,35.003201,31.5088132]}
{"name":"فهيدات","other_names":{"name:ar":"فهيدات","name:en":"Fheidat","name:fr":"Fahidat","name:he":"פהידאת"},"display_name":"فهيدات, عناتا‎, שטח C, יהודה ושומרון, Palestinian Territory","address":{"hamlet":"فهيدات","town":"عناتا‎","county":"שטח C","state":"יהודה ושומרון","country":"Palestinian Territory","country_code":"ps"},"osm_type":"way","osm_id":766838227,"type":"hamlet","location":[35.27521813472154,31.815204350000002],"bbox":[35.2739677,31.8141113,35.2764569,31.815998]}
{"name":"قرنة عبد الرحيم - كفرثلث","display_name":"قرنة عبد الرحيم - كفرثلث, שטח C, יהודה ושומרון, 380, Palestinian Territory","address":{"hamlet":"قرنة عبد الرحيم - كفرثلث","county":"שטח C","state":"יהודה ושומרון","postcode":"380","country":"Palestinian Territory","country_code":"ps"},"osm_type":"node","osm_id":12078543983,"type":"hamlet","location":[35.0669857,32.154547],"bbox":[35.0469857,32.134547,35.0869857,32.174547]}
{"name":"كردلا","other_names":{"name:ar":"كردلا","name:cs":"Kardalá","name:en":"Kardala","name:fr":"Kardala","name:he":"קרדאלה"},"display_name":"كردلا, שטח C, יהודה ושומרון, Palestinian Territory","address":{"hamlet":"كردلا","county":"שטח C","state":"יהודה ושומרון","country":"Palestinian Territory","country_code":"ps"},"population":203,"osm_type":"node","osm_id":333786221,"type":"hamlet","location":[35.4924702,32.3796848],"bbox":[35.4724702,32.3596848,35.5124702,32.3996848]}
{"name":"كسارات","other_names":{"name:ar":"كسارات","name:en":"Kasarat","name:fr":"Kasarat","name:he":"כסאראת","alt_name:ar":"كسّارات"},"display_name":"كسارات, מעלה אדומים, שטח C, יהודה ושומרון, Palestinian Territory","address":{"hamlet":"كسارات","town":"מעלה אדומים","county":"שטח C","state":"יהודה ושומרון","country":"Palestinian Territory","country_code":"ps"},"osm_type":"node","osm_id":5744189246,"type":"hamlet","location":[35.3101465,31.8056362],"bbox":[35.2901465,31.7856362,35.3301465,31.8256362]}
{"name":"كشدة","other_names":{"name:ar":"كشدة","name:en":"Kashda","name:fr":"Kashda","name:he":"כשדה"},"display_name":"كشدة, راس الفارعة‎, منطقة أ, الضفة الغربية, Palestinian Territory","address":{"hamlet":"كشدة","village":"راس الفارعة‎","county":"منطقة أ","region":"الضفة الغربية","country":"Palestinian Territory","country_code":"ps"},"population":66,"osm_type":"node","osm_id":8259280605,"type":"hamlet","location":[35.3450965,32.3113247],"bbox":[35.3250965,32.2913247,35.3650965,32.3313247]}
{"display_name":"كفر قود, منطقة أ, الضفة الغربية, Palestinian Territory","address":{"village":"كفر قود","county":"منطقة أ","region":"الضفة الغربية","country":"Palestinian Territory","country_code":"ps"},"osm_type":"way","osm_id":265587469,"type":"hamlet","location":[35.23837726990257,32.448837499999996],"bbox":[35.2376159,32.4471645,35.2389789,32.4504807]}
{"name":"كفير","other_names":{"name:ar":"كفير","name:en":"Kufeir","name:fr":"Kufeir","name:he":"כופיר"},"display_name":"كفير, عقابة, منطقة أ, الضفة الغربية, Palestinian Territory","address":{"hamlet":"كفير","town":"عقابة","county":"منطقة أ","region":"الضفة الغربية","country":"Palestinian Territory","country_code":"ps"},"population":57,"osm_type":"node","osm_id":432544807,"type":"hamlet","location":[35.3413671,32.3719929],"bbox":[35.3213671,32.3519929,35.3613671,32.3919929]}
{"name":"ليفجِم","other_names":{"name:ar":"ليفجِم","name:en":"Lifjim","name:fr":"Lifjim","name:he":"ליפגים"},"display_name":"ليفجِم, שטח C, יהודה ושומרון, Palestinian Territory","address":{"hamlet":"ليفجِم","county":"שטח C","state":"יהודה ושומרון","country":"Palestinian Territory","country_code":"ps"},"osm_type":"relation","osm_id":10627773,"type":"hamlet","location":[35.40032982695179,32.1196397],"bbox":[35.3967356,32.1187419,35.4069096,32.1252712]}
{"name":"معرض تراث (تطريز)","other_names":{"name:ar":"معرض تراث (تطريز)","name:en":"Susiya","name:fr":"Susya","name:he":"סוסיא הערבית"},"display_name":"معرض تراث (تطريز), שטח C, יהודה ושומרון, 797, Palestinian Territory","address":{"hamlet":"معرض تراث (تطريز)","county":"שטח C","state":"יהודה ושומרון","postcode":"797","country":"Palestinian Territory","country_code":"ps"},"population":164,"osm_type":"node","osm_id":4375482475,"type":"hamlet","location":[35.1087002,31.4011127],"bbox":[35.0887002,31.3811127,35.1287002,31.4211127]}
{"name":"نخيلة","other_names":{"name:ar":"نخيلة","name:en":"Nakhilla","name:fr":"Nakhilla","name:he":"נחילה"},"display_name":"نخيلة, שטח C, יהודה ושומרון, Palestinian Territory","address":{"hamlet":"نخيلة","county":"שטח C","state":"יהודה ושומרון","country":"Palestinian Territory","country_code":"ps"},"osm_type":"node","osm_id":5744189261,"type":"hamlet","location":[35.2952299,31.8161691],"bbox":[35.2752299,31.7961691,35.3152299,31.8361691]}
{"name":"وادي أبو الصّوان","other_names":{"name:ar":"وادي أبو الصّوان","name:en":"Wadi Abu Al-Suwan","name:fr":"Wadi Abu Al-Suwan","name:he":"ואדי אבו צוואן"},"display_name":"وادي أبو الصّوان, מעלה אדומים, שטח C, יהודה ושומרון, Palestinian Territory","address":{"hamlet":"وادي أبو الصّوان","town":"מעלה אדומים","county":"שטח C","state":"יהודה ושומרון","country":"Palestinian Territory","country_code":"ps"},"osm_type":"way","osm_id":766902155,"type":"hamlet","location":[35.310693969428314,31.765766],"bbox":[35.3077598,31.7642002,35.3120285,31.76747]}
{"name":"وادي الأعوج","other_names":{"name:ar":"وادي الأعوج","name:en":"Wadi al A'awaj","name:fr":"Wadi al A'awaj","name:he":"ואדי אל אווג"},"display_name":"وادي الأعوج, שטח C, יהודה ושומרון, Palestinian Territory","address":{"hamlet":"وادي الأعوج","county":"שטח C","state":"יהודה ושומרון","country":"Palestinian Territory","country_code":"ps"},"osm_type":"relation","osm_id":10633696,"type":"hamlet","location":[35.32777001795408,31.76968495],"bbox":[35.3186438,31.767898,35.3304469,31.7749793]}
{"name":"وادي الرشا","other_names":{"name:ar":"وادي الرشا","name:en":"Wadi a-Rasha","name:fr":"Wadi ar Rasha","name:he":"ואדי א-רשא"},"display_name":"وادي الرشا, عرب الرماضين الجنوبي, שטח C, יהודה ושומרון, 110, Palestinian Territory","address":{"hamlet":"وادي الرشا","village":"عرب الرماضين الجنوبي","county":"שטח C","state":"יהודה ושומרון","postcode":"110","country":"Palestinian Territory","country_code":"ps"},"osm_type":"node","osm_id":3525788205,"type":"hamlet","location":[34.9960153,32.1671591],"bbox":[34.9760153,32.1471591,35.0160153,32.1871591]}
{"name":"وادي القلط","other_names":{"name:ar":"وادي القلط","name:en":"Wadi al Qilt","name:fr":"Wadi al Qilt","name:he":"ואדי אל קלט"},"display_name":"وادي القلط, מעלה אדומים, שטח C, יהודה ושומרון, Palestinian Territory","address":{"hamlet":"وادي القلط","town":"מעלה אדומים","county":"שטח C","state":"יהודה ושומרון","country":"Palestinian Territory","country_code":"ps"},"osm_type":"relation","osm_id":10556639,"type":"hamlet","location":[35.38450370443237,31.8209046],"bbox":[35.3770533,31.8191773,35.3853744,31.8362657]}
{"name":"وادي دعوق","other_names":{"name:ar":"وادي دعوق","name:en":"Wadi","name:fr":"Wadi Du'oq","name:he":"ואדי דעוק"},"display_name":"وادي دعوق, שטח C, יהודה ושומרון, Palestinian Territory","address":{"hamlet":"وادي دعوق","county":"שטח C","state":"יהודה ושומרון","country":"Palestinian Territory","country_code":"ps"},"population":170,"osm_type":"node","osm_id":8261457551,"type":"hamlet","location":[35.2219068,32.3932445],"bbox":[35.2019068,32.3732445,35.2419068,32.4132445]}
{"name":"وادي سنيسل","other_names":{"name:ar":"وادي سنيسل","name:en":"Wadi Sneysel","name:fr":"Wadi Sneysel","name:he":"ואדי סניסל"},"display_name":"وادي سنيسل, מעלה אדומים, שטח C, יהודה ושומרון, Palestinian Territory","address":{"hamlet":"وادي سنيسل","town":"מעלה אדומים","county":"שטח C","state":"יהודה ושומרון","country":"Palestinian Territory","country_code":"ps"},"osm_type":"node","osm_id":5744189247,"type":"hamlet","location":[35.3059755,31.8019302],"bbox":[35.2859755,31.7819302,35.3259755,31.8219302]}
{"name":"وادي شوباش","other_names":{"name:ar":"وادي شوباش","name:en":"Wadi Shobash","name:fr":"Wadi Shobash","name:he":"ואדי שובאש"},"display_name":"وادي شوباش, שטח C, יהודה ושומרון, Palestinian Territory","address":{"hamlet":"وادي شوباش","county":"שטח C","state":"יהודה ושומרון","country":"Palestinian Territory","country_code":"ps"},"osm_type":"relation","osm_id":10619275,"type":"hamlet","location":[35.39446865722755,32.40763175],"bbox":[35.3870077,32.4036583,35.4085768,32.4096811]}
{"name":"وادي قَانا","other_names":{"name:ar":"وادي قَانا","name:en":"Wadi Qana","name:fr":"Wadi Kana","name:he":"ואדי קנה"},"display_name":"وادي قَانا, שטח C, יהודה ושומרון, Palestinian Territory","address":{"hamlet":"وادي قَانا","county":"שטח C","state":"יהודה ושומרון","country":"Palestinian Territory","country_code":"ps"},"osm_type":"relation","osm_id":10620172,"type":"hamlet","location":[35.116507034646546,32.15807315],"bbox":[35.102878,32.1570689,35.1262066,32.161543]}
{"name":"وعر البيك","other_names":{"name:ar":"وعر البيك","name:en":"Wa’ar Al-Beik","name:fr":"Wa’ar Al-Beik","name:he":"וער אל ביק"},"display_name":"وعر البيك, عناتا‎, שטח C, יהודה ושומרון, Palestinian Territory","address":{"hamlet":"وعر البيك","town":"عناتا‎","county":"שטח C","state":"יהודה ושומרון","country":"Palestinian Territory","country_code":"ps"},"osm_type":"way","osm_id":766869193,"type":"hamlet","location":[35.265253047437824,31.805731700000003],"bbox":[35.2614448,31.8027915,35.2677137,31.8086304]}
{"name":"يانون الفوقا","other_names":{"name:ar":"يانون الفوقا","name:en":"Yanun al Fauqa","name:fr":"Yanun al Fauqa","name:he":"יאנון אל פוקא"},"display_name":"يانون الفوقا, גבעות עולם, שטח C, יהודה ושומרון, Palestinian Territory","address":{"hamlet":"يانون الفوقا","village":"גבעות עולם","county":"שטח C","state":"יהודה ושומרון","country":"Palestinian Territory","country_code":"ps"},"osm_type":"way","osm_id":766019053,"type":"hamlet","location":[35.35871215516123,32.15799265],"bbox":[35.3566407,32.1559581,35.3622841,32.1600363]}
{"name":"يانون‎","other_names":{"name:ar":"يانون‎","name:en":"Yanun","name:fr":"Yanun","name:he":"יאנון"},"display_name":"يانون‎, عقربا, منطقة ب, الضفة الغربية, Palestinian Territory","address":{"hamlet":"يانون‎","town":"عقربا","county":"منطقة ب","region":"الضفة الغربية","country":"Palestinian Territory","country_code":"ps"},"osm_type":"node","osm_id":334179775,"type":"hamlet","location":[35.3565337,32.1447451],"bbox":[35.3365337,32.1247451,35.3765337,32.1647451]}
