{"name":"אפרת","other_names":{"name:ar":"أفرات","name:cs":"Efrat","name:en":"Efrat","name:fr":"Efrat","name:he":"אפרת","name:hi":"एफ़्रात","name:hr":"Efrat","name:ml":"എഫ്രാത്ത്","name:ru":"Эфрат","name:ur":"افرات"},"display_name":"אפרת, שטח C, יהודה ושומרון, Palestinian Territory","address":{"town":"אפרת","county":"שטח C","state":"יהודה ושומרון","country":"Palestinian Territory","country_code":"ps"},"osm_type":"node","osm_id":431636494,"type":"town","location":[35.1508714,31.6536462],"bbox":[35.1108714,31.6136462,35.1908714,31.6936462]}
{"name":"אריאל","other_names":{"name:ar":"أريئيل","name:el":"Αριέλ","name:en":"Ariel","name:eu":"Ariel","name:fi":"Ariel","name:he":"אריאל","name:hi":"अरियेल","name:ml":"അറിയേൽ","name:ru":"Ариэль","name:ur":"اریئیل","alt_name:ur":"اریائل"},"display_name":"אריאל, שטח C, יהודה ושומרון, Palestinian Territory","address":{"town":"אריאל","county":"שטח C","state":"יהודה ושומרון","country":"Palestinian Territory","country_code":"ps"},"population":20600,"osm_type":"node","osm_id":1695006618,"type":"town","location":[35.1851368,32.1060817],"bbox":[35.1451368,32.0660817,35.2251368,32.1460817],"border":{"name":"אריאל","other_names":{"name:el":"Αριέλ","name:en":"Ariel","name:fr":"Ariel","name:he":"אריאל","name:ar":"أريئيل","name:eu":"Ariel","name:fi":"Ariel","name:hi":"अरियेल","name:ml":"അറിയേൽ","name:ru":"Ариэль","name:ur":"اریئیل","alt_name:ur":"اریائل"},"display_name":"אריאל, שטח C, יהודה ושומרון, Palestinian Territory","address":{"town":"אריאל","county":"שטח C","state":"יהודה ושומרון","country":"Palestinian Territory","country_code":"ps"},"population":21000,"osm_type":"relation","osm_id":10011903,"type":"administrative","location":[35.1851368,32.1060817],"bbox":[35.1124434,32.0744148,35.2189382,32.1107541]}}
{"name":"ביתר עילית","other_names":{"name:ar":"بيتار عيليت","name:cs":"Bejtar Ilit","name:en":"Beitar Ilit","name:eu":"Beitar Ilit","name:fr":"Betar Illit","name:he":"ביתר עילית","name:hi":"बैतार इलिट","name:ml":"ബെയ്ത്താർ ഇലിത്ത്","name:ru":"Бейтар-Илит","name:ur":"بیتار عیلیت","name:en1":"Betar Ilit","name:en2":"Beitar Elit","name:en3":"Betar Elit"},"display_name":"ביתר עילית, שטח C, יהודה ושומרון, Palestinian Territory","address":{"town":"ביתר עילית","county":"שטח C","state":"יהודה ושומרון","country":"Palestinian Territory","country_code":"ps"},"population":58985,"osm_type":"node","osm_id":415000885,"type":"town","location":[35.1137333,31.6989467],"bbox":[35.0737333,31.6589467,35.1537333,31.7389467]}
{"name":"גבעת זאב","other_names":{"name:ar":"جيفعات زئيف","name:cs":"Giv'at Ze'ev","name:en":"Givat Zeev","name:fr":"Giv'at Ze'ev","name:he":"גבעת זאב","name:ru":"Гиват-Зеев"},"display_name":"גבעת זאב, שטח C, יהודה ושומרון, Palestinian Territory","address":{"town":"גבעת זאב","county":"שטח C","state":"יהודה ושומרון","country":"Palestinian Territory","country_code":"ps"},"population":11200,"osm_type":"node","osm_id":246843692,"type":"town","location":[35.1687498,31.8623329],"bbox":[35.1287498,31.8223329,35.2087498,31.9023329],"border":[{"name":"גבעת זאב","other_names":{"name:ar":"جيفعات زئيف","name:cs":"Giv'at Ze'ev","name:en":"Givat Zeev","name:fr":"Giv'at Ze'ev","name:he":"גבעת זאב","name:ru":"Гиват-Зеев"},"display_name":"גבעת זאב, שטח C, יהודה ושומרון, Palestinian Territory","address":{"town":"גבעת זאב","county":"שטח C","state":"יהודה ושומרון","country":"Palestinian Territory","country_code":"ps"},"population":22401,"osm_type":"way","osm_id":657954866,"type":"town","location":[35.17260615638803,31.8602834],"bbox":[35.1406957,31.8532614,35.17994,31.8673074]},{"name":"גבעת זאב","other_names":{"name:ar":"جفعات زئيف","name:en":"Giv'at Ze'ev","name:he":"גבעת זאב","name:ru":"Гиват-Зеев","name:cs":"Giv'at Ze'ev","name:fr":"Giv'at Ze'ev","alt:ar":"جيفعات زئيف","alt:en":"Givat Zeev"},"display_name":"גבעת זאב, שטח C, יהודה ושומרון, Palestinian Territory","address":{"town":"גבעת זאב","county":"שטח C","state":"יהודה ושומרון","country":"Palestinian Territory","country_code":"ps"},"population":11200,"osm_type":"relation","osm_id":11994230,"type":"administrative","location":[35.1687498,31.8623329],"bbox":[35.1355369,31.8249813,35.1917448,31.8701151]}]}
{"name":"הר אדר","other_names":{"name:ar":"هار أدار","name:ca":"Har Adar","name:cs":"Har Adar","name:de":"Har Adar","name:en":"Har Adar","name:es":"Har Adar","name:fr":"Har Adar","name:he":"הר אדר","name:nn":"Har Adar","name:pl":"Har Adar","name:ru":"Хар-Адар","alt_name:ar":"هار أدار"},"display_name":"הר אדר, שטח C, יהודה ושומרון, Palestinian Territory","address":{"town":"הר אדר","county":"שטח C","state":"יהודה ושומרון","country":"Palestinian Territory","country_code":"ps"},"osm_type":"way","osm_id":760004577,"type":"town","location":[35.127965319013875,31.82628525],"bbox":[35.1240834,31.8202595,35.1360099,31.8323322],"border":{"name":"הר אדר","other_names":{"name:ar":"هار أدار","name:en":"Har Adar","name:fr":"Har Adar","name:he":"הר אדר","name:cs":"Har Adar","alt_name:ar":"رادار"},"display_name":"הר אדר, שטח C, יהודה ושומרון, Palestinian Territory","address":{"village":"הר אדר","county":"שטח C","state":"יהודה ושומרון","country":"Palestinian Territory","country_code":"ps"},"population":4000,"osm_type":"relation","osm_id":11994403,"type":"administrative","location":[35.1295577,31.826857],"bbox":[35.1230755,31.8202343,35.1365564,31.8354661]}}
{"name":"מודיעין עילית","other_names":{"name:ar":"موديعين عيليت","name:cs":"Modi'in Ilit","name:en":"Modi'in Illit","name:fi":"Modiin Ilit","name:fr":"Modiin Illit","name:he":"מודיעין עילית","name:ml":"മൊദീൻ ഇലിത്ത്","name:ru":"Модиин-Илит","alt_name:ar":"كريات سيفر","alt_name:cs":"Kirjat Sefer","alt_name:en":"Kiryat Sefer","alt_name:he":"קריית ספר"},"display_name":"מודיעין עילית, שטח C, יהודה ושומרון, 051, Palestinian Territory","address":{"town":"מודיעין עילית","county":"שטח C","state":"יהודה ושומרון","postcode":"051","country":"Palestinian Territory","country_code":"ps"},"population":47700,"osm_type":"node","osm_id":432287759,"type":"town","location":[35.0433428,31.9324487],"bbox":[35.0033428,31.8924487,35.0833428,31.9724487],"border":{"name":"מודיעין עילית","other_names":{"name:ar":"موديعين عيليت","name:en":"Modi'in Illit","name:fr":"Modiin Illit","name:he":"מודיעין עילית","name:hi":"मोदी'इन इलीट","name:ru":"Модиин-Илит","name:cs":"Modi'in Ilit","name:fi":"Modiin Ilit","name:ml":"മൊദീൻ ഇലിത്ത്","alt_name:ar":"كريات سيفر","alt_name:cs":"Kirjat Sefer","alt_name:en":"Kiryat Sefer","alt_name:he":"קריית ספר"},"display_name":"מודיעין עילית, שטח C, יהודה ושומרון, Palestinian Territory","address":{"town":"מודיעין עילית","county":"שטח C","state":"יהודה ושומרון","country":"Palestinian Territory","country_code":"ps"},"population":73172,"osm_type":"way","osm_id":220261637,"type":"town","location":[35.0433428,31.9324487],"bbox":[35.0348842,31.921365,35.0556372,31.9429355]}}
{"name":"מעלה אדומים","other_names":{"name:ar":"معاليه أدوميم","name:cs":"Ma'ale Adumim","name:en":"Maale Adumim","name:fr":"Ma'aleh Adumim","name:he":"מעלה אדומים","name:hi":"माले अदुमीम","name:ml":"മാലെ അദുമീം","name:ru":"Маале Адумим","name:ur":"معالی ادومیم"},"display_name":"מעלה אדומים, שטח C, יהודה ושומרון, Palestinian Territory","address":{"town":"מעלה אדומים","county":"שטח C","state":"יהודה ושומרון","country":"Palestinian Territory","country_code":"ps"},"population":32000,"osm_type":"node","osm_id":282405648,"type":"town","location":[35.2987457,31.7705643],"bbox":[35.2587457,31.7305643,35.3387457,31.8105643],"border":[{"name":"מעלה אדומים","other_names":{"name:ar":"معاليه أدوميم","name:en":"Maale Adumim","name:fr":"Ma'aleh Adumim","name:he":"מעלה אדומים","name:hi":"माले अदुमीम","name:ro":"Maale Adumim","name:ru":"Маале Адумим","name:ur":"معالی ادومیم"},"display_name":"מעלה אדומים, שטח C, יהודה ושומרון, Palestinian Territory","address":{"town":"מעלה אדומים","county":"שטח C","state":"יהודה ושומרון","country":"Palestinian Territory","country_code":"ps"},"osm_type":"way","osm_id":659365950,"type":"town","location":[35.31161418561794,31.7805095],"bbox":[35.2892688,31.7631938,35.3197949,31.7978009]},{"name":"מעלה אדומים","other_names":{"name:ar":"معاليه أدوميم","name:en":"Maale Adumim","name:fr":"Ma'aleh Adumim","name:he":"מעלה אדומים","name:ur":"معالی ادومیم","name:cs":"Ma'ale Adumim","name:hi":"माले अदुमीम","name:ml":"മാലെ അദുമീം","name:ru":"Маале Адумим"},"display_name":"מעלה אדומים, שטח C, יהודה ושומרון, Palestinian Territory","address":{"town":"מעלה אדומים","county":"שטח C","state":"יהודה ושומרון","country":"Palestinian Territory","country_code":"ps"},"population":32000,"osm_type":"relation","osm_id":10044691,"type":"administrative","location":[35.2987457,31.7705643],"bbox":[35.2579146,31.7467056,35.3905306,31.8269466]}]}
{"name":"أبو ديس","other_names":{"name:ar":"أبو ديس","name:ca":"Abu Dis","name:de":"Abu Dis","name:en":"Abu Dis","name:es":"Abu Dis","name:fa":"ابو دیس","name:fi":"Abu Dis","name:fr":"Abu Dis","name:gl":"Abu Dis","name:he":"אבו דיס","name:id":"Abu Dis","name:ks":"ابو دیس","name:ml":"അബു ദീസ്","name:nl":"Abu Dis","name:nn":"Abu Dis","name:pl":"Abu Dis","name:ro":"Abu Dis","name:ru":"Абу-Дис","name:uk":"Абу-Діс","name:ur":"ابو دیس","name:azb":"ابو دیس"},"display_name":"أبو ديس, منطقة ب, الضفة الغربية, Palestinian Territory","address":{"town":"أبو ديس","county":"منطقة ب","region":"الضفة الغربية","country":"Palestinian Territory","country_code":"ps"},"population":12251,"osm_type":"node","osm_id":332793423,"type":"town","location":[35.2584499,31.7642353],"bbox":[35.2184499,31.7242353,35.2984499,31.8042353],"border":{"name":"أبو ديس","other_names":{"name:ar":"أبو ديس","name:de":"Abu Dis","name:en":"Abu Dis","name:fa":"ابو دیس","name:fr":"Abu Dis","name:he":"אבו דיס","name:ks":"ابو دیس","name:ro":"Abu Dis","name:ru":"Абу-Дис","name:ur":"ابو دیس","name:azb":"ابو دیس","name:ca":"Abu Dis","name:es":"Abu Dis","name:fi":"Abu Dis","name:gl":"Abu Dis","name:id":"Abu Dis","name:ml":"അബു ദീസ്","name:nl":"Abu Dis","name:nn":"Abu Dis","name:pl":"Abu Dis","name:uk":"Абу-Діс"},"display_name":"أبو ديس, منطقة ب, الضفة الغربية, Palestinian Territory","address":{"town":"أبو ديس","county":"منطقة ب","region":"الضفة الغربية","country":"Palestinian Territory","country_code":"ps"},"population":12604,"osm_type":"relation","osm_id":8488389,"type":"town","location":[35.2584499,31.7642353],"bbox":[35.2518604,31.7525777,35.2740103,31.7675942]}}
{"name":"أريحا","other_names":{"name:ar":"أريحا","name:cs":"Jericho","name:de":"Jericho","name:en":"Jericho","name:es":"Jericó","name:et":"Jeeriko","name:eu":"Jeriko","name:fa":"اریحا","name:fi":"Jeriko","name:fr":"Jéricho","name:he":"יריחו","name:hi":"जेरिको","name:hr":"Jerihon","name:it":"Gerico","name:ja":"エリコ","name:ks":"اریحا","name:ku":"Cerîko","name:ml":"അറീഹ","name:ro":"Ierihon","name:ru":"Иерихон","name:sk":"Jericho","name:sv":"Jeriko","name:uk":"Єрихон","name:ur":"اریحا","name:zh":"耶利哥","name:azb":"اریحا","name:ota":"اریحا","name:pnb":"اریحا","alt_name:ml":"യെരീഹോ"},"display_name":"أريحا, منطقة أ, الضفة الغربية, Palestinian Territory","address":{"town":"أريحا","county":"منطقة أ","region":"الضفة الغربية","country":"Palestinian Territory","country_code":"ps"},"population":22006,"osm_type":"node","osm_id":432335269,"type":"town","location":[35.4598851,31.855991],"bbox":[35.4198851,31.815991,35.4998851,31.895991],"border":{"name":"أريحا","other_names":{"name:ar":"أريحا","name:de":"Jericho","name:en":"Jericho","name:fa":"اریحا","name:fr":"Jéricho","name:he":"יריחו","name:hi":"जेरिको","name:it":"Gerico","name:ks":"اریحا","name:ml":"യെരിഹോ","name:nl":"Jericho","name:pl":"Jerycho","name:ru":"Иерихон","name:uk":"Єрихон","name:ur":"اریحا","name:azb":"اریحا","name:ota":"اریحا","name:pnb":"اریحا","name:zh-Hans":"杰里科","name:cs":"Jericho","name:es":"Jericó","name:et":"Jeeriko","name:eu":"Jeriko","name:fi":"Jeriko","name:hr":"Jerihon","name:ja":"エリコ","name:ku":"Cerîko","name:ro":"Ierihon","name:sk":"Jericho","name:sv":"Jeriko","name:zh":"耶利哥","alt_name:ml":"യെരീഹോ","alt:ml":"അറീഹ"},"display_name":"أريحا, منطقة أ, الضفة الغربية, Palestinian Territory","address":{"town":"أريحا","county":"منطقة أ","region":"الضفة الغربية","country":"Palestinian Territory","country_code":"ps"},"population":22006,"osm_type":"relation","osm_id":8488590,"type":"town","location":[35.4598851,31.855991],"bbox":[35.4341326,31.8463879,35.4828144,31.8836136]}}
{"name":"إذنا‎","other_names":{"name:ar":"إذنا‎","name:de":"Idhna","name:en":"Idhna","name:es":"Idhna","name:eu":"Idhna","name:fr":"Idnah","name:he":"אידנא","name:ml":"ഇധ്ന"},"display_name":"إذنا‎, منطقة ب, الضفة الغربية, Palestinian Territory","address":{"town":"إذنا‎","county":"منطقة ب","region":"الضفة الغربية","country":"Palestinian Territory","country_code":"ps"},"population":19012,"osm_type":"node","osm_id":332951272,"type":"town","location":[34.9762809,31.557994],"bbox":[34.9362809,31.517994,35.0162809,31.597994]}
{"name":"البريج","other_names":{"name:ar":"البريج","name:de":"Bureidsch","name:en":"Bureij","name:eu":"Bureij","name:fr":"Bureij","name:he":"אל-בורייג'","name:hr":"Burejdž","name:ja":"ブレイジ","name:ko":"알 부레이지","name:ml":"ബുറൈജ്","name:ru":"Бурейдж"},"display_name":"البريج, محافظة دير البلح, قطاع غزة, Palestinian Territory","address":{"town":"البريج","state_district":"محافظة دير البلح","ISO3166-2-lvl5":"PS-DEB","region":"قطاع غزة","country":"Palestinian Territory","country_code":"ps"},"population":30000,"osm_type":"node","osm_id":505015391,"type":"town","location":[34.4032131,31.4418553],"bbox":[34.3632131,31.4018553,34.4432131,31.4818553],"border":{"name":"البريج","other_names":{"name:ar":"البريج","name:en":"Bureij","name:fr":"Bureij","name:he":"אל-בורייג'","name:de":"Bureidsch","name:eu":"Bureij","name:hr":"Burejdž","name:ja":"ブレイジ","name:ko":"알 부레이지","name:ml":"ബുറൈജ്","name:ru":"Бурейдж"},"display_name":"البريج, محافظة دير البلح, قطاع غزة, Palestinian Territory","address":{"town":"البريج","state_district":"محافظة دير البلح","ISO3166-2-lvl5":"PS-DEB","region":"قطاع غزة","country":"Palestinian Territory","country_code":"ps"},"population":30000,"osm_type":"relation","osm_id":10523632,"type":"administrative","location":[34.4032131,31.4418553],"bbox":[34.3864269,31.4148448,34.4267264,31.4556028]}}
{"name":"البيرة","other_names":{"name:ar":"البيرة","name:de":"Al-Bira","name:en":"Albireh","name:es":"Al Bireh","name:fa":"البیره","name:fr":"Al-Bireh","name:he":"אל בירה","name:ml":"അൽ-ബീറെ","name:ru":"эль-Бира","name:uk":"Аль-Біра","name:ur":"البیرہ","name:pnb":"البیرہ","alt_name:he":"בירה"},"display_name":"البيرة, منطقة أ, الضفة الغربية, Palestinian Territory","address":{"town":"البيرة","county":"منطقة أ","region":"الضفة الغربية","country":"Palestinian Territory","country_code":"ps"},"osm_type":"node","osm_id":432288078,"type":"town","location":[35.2117585,31.9007401],"bbox":[35.1717585,31.8607401,35.2517585,31.9407401],"border":{"name":"البيرة","other_names":{"name:ar":"البيرة","name:fr":"Al-Bira","name:he":"אלבירה","name:de":"Al-Bira","name:en":"Albireh","name:es":"Al Bireh","name:fa":"البیره","name:ml":"അൽ-ബീറെ","name:ru":"эль-Бира","name:uk":"Аль-Біра","name:ur":"البیرہ","name:pnb":"البیرہ","alt_name:he":"בירה","alt:fr":"Al-Bireh","alt:he":"אל בירה"},"display_name":"البيرة, منطقة أ, الضفة الغربية, 611, Palestinian Territory","address":{"town":"البيرة","county":"منطقة أ","region":"الضفة الغربية","postcode":"611","country":"Palestinian Territory","country_code":"ps"},"osm_type":"relation","osm_id":2904396,"type":"administrative","location":[35.2117585,31.9007401],"bbox":[35.1948948,31.8812824,35.2327311,31.9400344]}}
{"name":"الخضر‎","other_names":{"name:cs":"al-Chadr","name:en":"al-Khader","name:fr":"Al-Khader","name:he":"אל-ח'דר","name:ml":"അൽ-ഖദർ"},"display_name":"الخضر‎, منطقة أ, الضفة الغربية, Palestinian Territory","address":{"town":"الخضر‎","county":"منطقة أ","region":"الضفة الغربية","country":"Palestinian Territory","country_code":"ps"},"osm_type":"node","osm_id":332951968,"type":"town","location":[35.1668486,31.6947314],"bbox":[35.1268486,31.6547314,35.2068486,31.7347314]}
{"name":"الخليل","other_names":{"name:ar":"الخليل","name:bg":"Хеброн","name:cs":"Hebron","name:da":"Hebron","name:de":"Hebron","name:en":"Hebron","name:es":"Hebrón","name:et":"Hebron","name:eu":"Hebron","name:fa":"الخلیل","name:fi":"Hebron","name:fr":"Hébron","name:he":"חברון","name:hi":"हेब्रोन","name:hr":"Hebron","name:it":"Hebron","name:ja":"ヘブロン","name:ks":"الخلیل","name:ml":"അൽ-ഖലീൽ","name:pl":"Hebron","name:ro":"Hebron","name:ru":"Хеврон","name:sk":"Hebron","name:te":"హెబ్రోన్","name:tr":"Halîl","name:uk":"Хеврон","name:ur":"حبرون","alt_name":"حبرون","name:azb":"الخلیل","name:ckb":"حەبرۆن","name:grc":"Χεβρών","name:ota":"الخلیل","name:pnb":"الخلیل","alt_name:ar":"حبرون","alt_name:ml":"ഹെബ്രോൺ","alt_name:uk":"Аль-Халіль","alt_name:ur":"ہیبرون;حبرون;الخلیل;خلیل","alt_name:grc":"Χέβρων;Χεβρων;Ἑβρών;Ἰβρών;Ἰέβρων","name:zh-Hans":"希伯伦","name:zh-Hant":"希伯倫"},"display_name":"الخليل, אזור H1, الضفة الغربية, Palestinian Territory","address":{"town":"الخليل","county":"אזור H1","region":"الضفة الغربية","country":"Palestinian Territory","country_code":"ps"},"population":163146,"osm_type":"node","osm_id":299937114,"type":"town","location":[35.0944873,31.528902],"bbox":[35.0544873,31.488902,35.1344873,31.568902],"border":{"name":"الخليل","other_names":{"name:ar":"الخليل","name:cs":"Hebron","name:de":"Hebron","name:en":"Hebron","name:es":"Hebrón","name:fa":"الخلیل","name:fr":"Hébron","name:he":"חברון","name:ks":"الخلیل","name:ku":"El Xelîl","name:nl":"Hebron","name:pl":"Hebron","name:ro":"Hebron","name:ru":"Хеврон","name:sk":"Hebron","name:sr":"Хеброн","name:uk":"Хеврон","name:ur":"الخلیل","name:azb":"الخلیل","name:grc":"Χεβρών","name:ota":"الخلیل","name:pnb":"الخلیل","alt_name:uk":"Аль-Халіль","alt_name:grc":"Χέβρων;Χεβρων;Ἑβρών;Ἰβρών;Ἰέβρων","name:bg":"Хеброн","name:da":"Hebron","name:et":"Hebron","name:eu":"Hebron","name:fi":"Hebron","name:hi":"हेब्रोन","name:hr":"Hebron","name:it":"Hebron","name:ja":"ヘブロン","name:ml":"അൽ-ഖലീൽ","name:te":"హెబ్రోన్","name:tr":"Halîl","alt_name":"حبرون","name:ckb":"حەبرۆن","alt_name:ar":"حبرون","alt_name:ml":"ഹെബ്രോൺ","alt_name:ur":"ہیبرون;حبرون;الخلیل;خلیل","name:zh-Hans":"希伯伦","name:zh-Hant":"希伯倫","alt:ur":"حبرون"},"display_name":"الخليل, אזור H1, الضفة الغربية, 150, Palestinian Territory","address":{"town":"الخليل","county":"אזור H1","region":"الضفة الغربية","postcode":"150","country":"Palestinian Territory","country_code":"ps"},"population":163146,"osm_type":"relation","osm_id":3797325,"type":"administrative","location":[35.0944873,31.528902],"bbox":[35.0343316,31.4955154,35.1220773,31.5650355]}}
{"name":"الدوحة","other_names":{"name:en":"a-Doha","name:fr":"Al-Dawha","name:he":"א-דוחה","name:ml":"അദ്ദോഹ","name:ru":"а-Доха"},"display_name":"الدوحة, منطقة أ, الضفة الغربية, Palestinian Territory","address":{"town":"الدوحة","county":"منطقة أ","region":"الضفة الغربية","country":"Palestinian Territory","country_code":"ps"},"osm_type":"node","osm_id":332955945,"type":"town","location":[35.1799828,31.7008785],"bbox":[35.1399828,31.6608785,35.2199828,31.7408785],"border":{"name":"الدوحة","other_names":{"name:ar":"الدوحة","name:en":"a-Doha","name:fr":"Al-Dawha","name:he":"א-דוחה","name:ru":"а-Доха","name:ml":"അദ്ദോഹ"},"display_name":"الدوحة, منطقة أ, الضفة الغربية, Palestinian Territory","address":{"town":"الدوحة","county":"منطقة أ","region":"الضفة الغربية","country":"Palestinian Territory","country_code":"ps"},"osm_type":"relation","osm_id":6769556,"type":"administrative","location":[35.1799828,31.7008785],"bbox":[35.1723284,31.6887345,35.1933864,31.7069451]}}
{"name":"الرام","other_names":{"name:ar":"الرام","name:cs":"ar-Ram","name:en":"ar-Ram","name:fr":"Al-Ram","name:he":"א-ראם","name:ml":"അർ-റാം","official_name:ar":"الرام وضاحية البريد","official_name:en":"ar-Ram and Dahiyat al-Bareed","official_name:he":"א-ראם וד'אחית אל-בריד"},"display_name":"الرام, منطقة ب, الضفة الغربية, Palestinian Territory","address":{"town":"الرام","county":"منطقة ب","region":"الضفة الغربية","country":"Palestinian Territory","country_code":"ps"},"population":25595,"osm_type":"node","osm_id":332793775,"type":"town","location":[35.235854,31.8512254],"bbox":[35.195854,31.8112254,35.275854,31.8912254]}
{"name":"الزهراء‎","other_names":{"name:ar":"الزهراء‎","name:de":"Az-Zahra","name:en":"Az-Zahra","name:es":"Azahrá","name:eu":"Az-Zahra","name:fr":"Az-Zahra","name:he":"א-זהראא","name:hr":"Az-Zahra","name:ko":"앗 자흐라","name:ml":"അസ്സഹ്‌റ"},"display_name":"الزهراء‎, محافظة غزة, قطاع غزة, Palestinian Territory","address":{"town":"الزهراء‎","state_district":"محافظة غزة","ISO3166-2-lvl5":"PS-GZA","region":"قطاع غزة","country":"Palestinian Territory","country_code":"ps"},"osm_type":"node","osm_id":8236983638,"type":"town","location":[34.4018182,31.4734963],"bbox":[34.3618182,31.4334963,34.4418182,31.5134963],"border":[{"name":"الزهرة مدينة","other_names":{"name:ar":"الزهرة مدينة","name:en":"Al-Zahra","name:fr":"Az-Zahra"},"display_name":"الزهرة مدينة, محافظة غزة, قطاع غزة, Palestinian Territory","address":{"town":"الزهرة مدينة","state_district":"محافظة غزة","ISO3166-2-lvl5":"PS-GZA","region":"قطاع غزة","country":"Palestinian Territory","country_code":"ps"},"osm_type":"way","osm_id":223889204,"type":"town","location":[34.40135776635552,31.47228895],"bbox":[34.3968645,31.4687889,34.4046573,31.4751928]},{"name":"الزهراء‎","other_names":{"name:ar":"الزهراء‎","name:de":"Az-Zahra","name:en":"Az-Zahra","name:es":"Azahrá","name:fr":"Az-Zahra","name:he":"א-זהראא"},"display_name":"الزهراء‎, محافظة غزة, قطاع غزة, Palestinian Territory","address":{"city_district":"الزهراء‎","state_district":"محافظة غزة","ISO3166-2-lvl5":"PS-GZA","region":"قطاع غزة","country":"Palestinian Territory","country_code":"ps"},"osm_type":"relation","osm_id":10521583,"type":"administrative","location":[34.39958751873746,31.4769413],"bbox":[34.3727625,31.4637513,34.4159463,31.4901756]}]}
{"name":"الزوايده","other_names":{"name:ar":"الزوايده","name:en":"Az-Zawayda","name:es":"Az-Zawayda","name:fr":"Az Zawâydah","name:he":"א-זאוואידה","name:hr":"Az-Zavajda","name:ko":"앗 자와이다","name:ml":"അസ്സവായ്ദ","name:ru":"Аль-Завайда"},"display_name":"الزوايده, الزوايدة, محافظة دير البلح, قطاع غزة, Palestinian Territory","address":{"town":"الزوايده","state_district":"محافظة دير البلح","ISO3166-2-lvl5":"PS-DEB","region":"قطاع غزة","country":"Palestinian Territory","country_code":"ps"},"osm_type":"node","osm_id":776438083,"type":"town","location":[34.3653001,31.4280377],"bbox":[34.3253001,31.3880377,34.4053001,31.4680377],"border":{"name":"الزوايدة","other_names":{"name:ar":"الزوايدة","name:en":"a-Zawayda","name:fr":"Az-Zawayda","name:he":"א-זאוואידה","name:es":"Az-Zawayda","name:hr":"Az-Zavajda","name:ko":"앗 자와이다","name:ml":"അസ്സവായ്ദ","name:ru":"Аль-Завайда","alt":"الزوايده","alt:ar":"الزوايده","alt:en":"Az-Zawayda","alt:fr":"Az Zawâydah"},"display_name":"الزوايدة, محافظة دير البلح, قطاع غزة, Palestinian Territory","address":{"town":"الزوايدة","state_district":"محافظة دير البلح","ISO3166-2-lvl5":"PS-DEB","region":"قطاع غزة","country":"Palestinian Territory","country_code":"ps"},"osm_type":"relation","osm_id":10523152,"type":"administrative","location":[34.3653001,31.4280377],"bbox":[34.3425492,31.4157107,34.3858445,31.4510306]}}
{"name":"السموع‎","other_names":{"name:ar":"السموع‎","name:de":"As-Samu","name:en":"As Samu'","name:es":"Samua","name:eu":"As Samu'","name:fi":"As Samu","name:fr":"As-Samu","name:he":"סמוע","name:hr":"As-Samu","name:pl":"As-Samu","alt_name":"Samua"},"display_name":"السموع‎, منطقة أ, الضفة الغربية, 797, Palestinian Territory","address":{"town":"السموع‎","county":"منطقة أ","region":"الضفة الغربية","postcode":"797","country":"Palestinian Territory","country_code":"ps"},"population":19649,"osm_type":"node","osm_id":332792078,"type":"town","location":[35.0669556,31.3991146],"bbox":[35.0269556,31.3591146,35.1069556,31.4391146]}
{"name":"السيلة الحارثية","other_names":{"name:ar":"سيلة الحارثية","name:en":"Silat al-Harithiya","name:fr":"Silat al-Harithia","name:he":"סילת אל-חארתיה","name:ml":"സിലാത്ത് അൽ-ഹാറിസിയ","int_name":"Silat al-Harithiya"},"display_name":"السيلة الحارثية, سيلة الحارثية, منطقة أ, الضفة الغربية, Palestinian Territory","address":{"town":"السيلة الحارثية","county":"منطقة أ","region":"الضفة الغربية","country":"Palestinian Territory","country_code":"ps"},"population":11449,"osm_type":"node","osm_id":332786954,"type":"town","location":[35.2281671,32.5077829],"bbox":[35.1881671,32.4677829,35.2681671,32.5477829]}
{"name":"الشيوخ","other_names":{"name:ar":"الشيوخ","name:en":"Al-Shuyukh","name:eu":"Al-Shuyukh","name:fr":"Ash-Shuyukh","name:he":"אלשיוח'","name:ml":"അൽ-ഷൂയുഖ്","alt_name":"Ash-Shuyukh"},"display_name":"الشيوخ, منطقة ب, الضفة الغربية, Palestinian Territory","address":{"town":"الشيوخ","county":"منطقة ب","region":"الضفة الغربية","country":"Palestinian Territory","country_code":"ps"},"osm_type":"node","osm_id":432174034,"type":"town","location":[35.1506712,31.5769384],"bbox":[35.1106712,31.5369384,35.1906712,31.6169384]}
{"name":"الظاهرية","other_names":{"name:ar":"الظاهرية","name:cs":"az-Záhiríja","name:en":"ad-Dhahiriya","name:es":"Ad-Dhahiriya","name:eu":"Ad-Dhahiriya","name:fi":"Ad-Dahirija","name:fr":"Ad-Dhahiriya","name:he":"ד'הרייה","name:hr":"Az-Zahirija","name:ml":"ധാഹിറിയ","name:pl":"Az-Zahirija","name:uk":"Ед-Дахірія","alt_name:ar":"الظاهريه‎;الضاهرية","alt_name:en":"az-Zahiriya"},"display_name":"الظاهرية, منطقة أ, الضفة الغربية, Palestinian Territory","address":{"town":"الظاهرية","county":"منطقة أ","region":"الضفة الغربية","country":"Palestinian Territory","country_code":"ps"},"population":28776,"osm_type":"node","osm_id":332792048,"type":"town","location":[34.9710159,31.4077191],"bbox":[34.9310159,31.3677191,35.0110159,31.4477191]}
{"name":"العبيدية","other_names":{"name:ar":"العبيدية","name:en":"al-Ubeidiya","name:fr":"Al-Ubeidiya","name:he":"אל-עובידיה","name:ml":"അൽ-ഉബൈദിയ"},"display_name":"العبيدية, منطقة أ, الضفة الغربية, Palestinian Territory","address":{"town":"العبيدية","county":"منطقة أ","region":"الضفة الغربية","country":"Palestinian Territory","country_code":"ps"},"population":10753,"osm_type":"node","osm_id":431636498,"type":"town","location":[35.2765053,31.718588],"bbox":[35.2365053,31.678588,35.3165053,31.758588]}
{"name":"العيزرية","other_names":{"name:ar":"العيزرية","name:ca":"Al-Eizariya","name:cs":"Al-Eizariya","name:de":"Bethanien","name:en":"al-Eizariya","name:es":"Al Azariyeh","name:fa":"العیزریه","name:fi":"Al-Eizariya","name:fr":"Al-Eizariya","name:he":"אל-עיזריה","name:hi":"बेथानी","name:ml":"അൽ-ഐസറിയ","name:nl":"Al-Eizariya","name:nn":"Al-Eizariya","name:pl":"Al-Ajzarijja","name:ro":"Betania","name:ru":"Вифания","name:sv":"El-Azariyeh","name:ur":"العیزریہ","name:wo":"Betani bu Yerusalem","alt_name:ar":"عيزرية;العيزريه‎","alt_name:he":"בית עניא","alt_name:ml":"ബെഥന്യ","alt_name:ru":"Аль-Азария","old_name:ar":"بيت عنيا;بيت البؤس;بيت التمور","old_name:en":"Bethany","old_name:fr":"Béthanie","old_name:he":"בית עניה","old_name:it":"Betania"},"display_name":"العيزرية, منطقة ب, الضفة الغربية, Palestinian Territory","address":{"town":"العيزرية","county":"منطقة ب","region":"الضفة الغربية","country":"Palestinian Territory","country_code":"ps"},"population":21175,"osm_type":"node","osm_id":332793704,"type":"town","location":[35.259589,31.7731513],"bbox":[35.219589,31.7331513,35.299589,31.8131513]}
{"name":"القرارة","other_names":{"name:ar":"القرارة","name:de":"al-Qarara","name:en":"al-Qarara","name:es":"Al Qarara","name:eu":"Al Qarara","name:fr":"Al Qarara","name:he":"אל-קרארה","name:ja":"アル・カララ","name:ko":"알 까라라","name:no":"Al-Qarara","name:pl":"Al-Karara","name:ur":"القرارہ"},"display_name":"القرارة, محافظة خان يونس, قطاع غزة, Palestinian Territory","address":{"town":"القرارة","state_district":"محافظة خان يونس","ISO3166-2-lvl5":"PS-KYS","region":"قطاع غزة","country":"Palestinian Territory","country_code":"ps"},"population":16918,"osm_type":"node","osm_id":505115716,"type":"town","location":[34.3355147,31.3782508],"bbox":[34.2955147,31.3382508,34.3755147,31.4182508],"border":{"name":"القرارة","other_names":{"name:ar":"القرارة","name:en":"al-Qarara","name:fr":"Al Qarara","name:he":"אל-קרארה","name:de":"al-Qarara","name:es":"Al Qarara","name:eu":"Al Qarara","name:ja":"アル・カララ","name:ko":"알 까라라","name:no":"Al-Qarara","name:pl":"Al-Karara","name:ur":"القرارہ"},"display_name":"القرارة, محافظة خان يونس, قطاع غزة, Palestinian Territory","address":{"town":"القرارة","state_district":"محافظة خان يونس","ISO3166-2-lvl5":"PS-KYS","region":"قطاع غزة","country":"Palestinian Territory","country_code":"ps"},"population":16918,"osm_type":"relation","osm_id":10523487,"type":"administrative","location":[34.3355147,31.3782508],"bbox":[34.3159445,31.3475298,34.3730199,31.3911427]}}
{"name":"المغازِي","other_names":{"name:ar":"المغازِي","name:en":"al-Maghazi","name:fr":"Al-Maazi","name:he":"אל-מע'אזי","name:ja":"マガジ","name:ko":"알 마가지","name:ml":"മഗാസി"},"display_name":"المغازِي, محافظة دير البلح, قطاع غزة, Palestinian Territory","address":{"town":"المغازِي","state_district":"محافظة دير البلح","ISO3166-2-lvl5":"PS-DEB","region":"قطاع غزة","country":"Palestinian Territory","country_code":"ps"},"osm_type":"node","osm_id":8237029171,"type":"town","location":[34.3847246,31.4217012],"bbox":[34.3447246,31.3817012,34.4247246,31.4617012],"border":{"name":"المغازِي","other_names":{"name:ar":"المغازِي","name:en":"al-Maghazi","name:fr":"Al Maghazi","name:he":"אל-מע'אזי","name:cs":"Maghází","name:de":"Maghazi","name:es":"Campamento de Maghazi","name:ja":"マガジ難民キャンプ","name:ml":"മഗാസി","alt":"المغازي","alt:ar":"المغازي","alt:en":"Al Maghazi Refugee Camp","alt:he":"אל-מוע'זי"},"display_name":"المغازِي, محافظة دير البلح, قطاع غزة, Palestinian Territory","address":{"suburb":"المغازِي","state_district":"محافظة دير البلح","ISO3166-2-lvl5":"PS-DEB","region":"قطاع غزة","country":"Palestinian Territory","country_code":"ps"},"population":24000,"osm_type":"relation","osm_id":10523631,"type":"administrative","location":[34.3864103,31.4227161],"bbox":[34.3751051,31.4103299,34.4111202,31.4348766]}}
{"name":"المغراقة","other_names":{"name:ar":"المغراقة","name:de":"Al-Mughraqa","name:en":"Al-Mughraqa","name:es":"Al-Mughraqa","name:eu":"Al-Mughraqa","name:fr":"Al-Mughraqa","name:he":"אל-מוע'ראקה","name:hr":"Al-Mugraka","name:ko":"알 무그라까","name:no":"Al-Mughraqa","alt_name":"أبو مدين","alt_name:ar":"أبو مدين","alt_name:de":"Abu Middein","alt_name:en":"Abu Middein","alt_name:es":"Abu Midein","alt_name:he":"אל-מוחראקה","alt_name:ko":"아부 밋데인"},"display_name":"المغراقة, محافظة غزة, قطاع غزة, Palestinian Territory","address":{"town":"المغراقة","state_district":"محافظة غزة","ISO3166-2-lvl5":"PS-GZA","region":"قطاع غزة","country":"Palestinian Territory","country_code":"ps"},"population":5075,"osm_type":"node","osm_id":505042007,"type":"town","location":[34.4097598,31.4672522],"bbox":[34.3697598,31.4272522,34.4497598,31.5072522],"border":{"name":"المغراقة","other_names":{"name:ar":"المغراقة","name:de":"Al-Mughraqa","name:en":"al-Mughraqa","name:es":"Al-Mughraqa","name:fr":"Al-Mughraqa","name:he":"אל-מוע'ראקה","alt_name":"أبو مدين","alt_name:ar":"أبو مدين","alt_name:de":"Abu Middein","alt_name:es":"Abu Midein","name:eu":"Al-Mughraqa","name:hr":"Al-Mugraka","name:ko":"알 무그라까","name:no":"Al-Mughraqa","alt_name:en":"Abu Middein","alt_name:he":"אל-מוחראקה","alt_name:ko":"아부 밋데인","alt:en":"Al-Mughraqa"},"display_name":"المغراقة, محافظة غزة, قطاع غزة, Palestinian Territory","address":{"town":"المغراقة","state_district":"محافظة غزة","ISO3166-2-lvl5":"PS-GZA","region":"قطاع غزة","country":"Palestinian Territory","country_code":"ps"},"population":5075,"osm_type":"relation","osm_id":10521618,"type":"administrative","location":[34.4097598,31.4672522],"bbox":[34.3964977,31.4556028,34.4267082,31.4753261]}}
{"name":"النصيرات","other_names":{"name:ar":"النصيرات","name:de":"Nuseirat","name:en":"Nuseirat","name:es":"Nuseirat","name:fr":"Nuseirat","name:he":"נוסיראת","name:hr":"Nusejrat","name:ja":"ヌセイラト","name:ko":"안 누서이라트","name:ml":"നുസൈറാത്ത്","name:ru":"Нусейрат"},"display_name":"النصيرات, محافظة دير البلح, قطاع غزة, Palestinian Territory","address":{"town":"النصيرات","state_district":"محافظة دير البلح","ISO3166-2-lvl5":"PS-DEB","region":"قطاع غزة","country":"Palestinian Territory","country_code":"ps"},"osm_type":"node","osm_id":8237029172,"type":"town","location":[34.3930673,31.4490893],"bbox":[34.3530673,31.4090893,34.4330673,31.4890893],"border":{"name":"النصيرات","other_names":{"name:ar":"النصيرات","name:en":"Nuseirat","name:fr":"Nuseirat","name:he":"נוסיראת","name:zh":"努塞拉特","name:de":"Nurseirat","name:es":"Nuseirat","name:id":"Nuseirat","name:ja":"ヌセイラト難民キャンプ","name:ko":"안 누서이라트","name:ml":"നുസൈറാത്ത്","name:pl":"Nusajrat","alt:en":"Nuseirat Refugee Camp"},"display_name":"النصيرات, محافظة دير البلح, قطاع غزة, Palestinian Territory","address":{"suburb":"النصيرات","state_district":"محافظة دير البلح","ISO3166-2-lvl5":"PS-DEB","region":"قطاع غزة","country":"Palestinian Territory","country_code":"ps"},"population":64423,"osm_type":"relation","osm_id":10523180,"type":"administrative","location":[34.3935262,31.4482607],"bbox":[34.3582679,31.4344634,34.4146919,31.4663451]}}
{"name":"اليامون","other_names":{"name:ar":"اليامون","name:en":"Al-Yamun","name:fr":"Al-Yamun","name:he":"אל-יאמון","name:ml":"അൽ-യാമൂൺ"},"display_name":"اليامون, منطقة أ, الضفة الغربية, Palestinian Territory","address":{"town":"اليامون","county":"منطقة أ","region":"الضفة الغربية","country":"Palestinian Territory","country_code":"ps"},"population":20774,"osm_type":"node","osm_id":332784964,"type":"town","location":[35.2299459,32.483853],"bbox":[35.1899459,32.443853,35.2699459,32.523853]}
{"name":"بدّو‎","other_names":{"name:ar":"بدّو‎","name:cs":"Biddú","name:en":"Biddu","name:fr":"Biddu","name:he":"בידו","name:ml":"ബിദ്ദു"},"display_name":"بدّو‎, منطقة ب, الضفة الغربية, Palestinian Territory","address":{"town":"بدّو‎","county":"منطقة ب","region":"الضفة الغربية","country":"Palestinian Territory","country_code":"ps"},"population":8231,"osm_type":"node","osm_id":332794378,"type":"town","location":[35.1468733,31.8350186],"bbox":[35.1068733,31.7950186,35.1868733,31.8750186]}
{"name":"بديا","other_names":{"name:ar":"بديا","name:en":"Bedia","name:fr":"Bédia","name:he":"בידיא","name:ml":"ബെദിയ"},"display_name":"بديا, منطقة ب, الضفة الغربية, 380, Palestinian Territory","address":{"town":"بديا","county":"منطقة ب","region":"الضفة الغربية","postcode":"380","country":"Palestinian Territory","country_code":"ps"},"osm_type":"node","osm_id":2269185342,"type":"town","location":[35.0755945,32.1147192],"bbox":[35.0355945,32.0747192,35.1155945,32.1547192]}
{"name":"بني سهيلا","other_names":{"name:ar":"بني سهيلا","name:de":"Bani Suheila","name:en":"Bani Suheila","name:es":"Bani Suheila","name:eu":"Bani Suheila","name:fr":"Bani Suheila","name:he":"בני סוהילה","name:hr":"Bani Suheila","name:ja":"バニー・スヘイラ","name:ko":"바니 수헤일라","name:pl":"Bani Suhajla"},"display_name":"بني سهيلا, محافظة خان يونس, قطاع غزة, Palestinian Territory","address":{"town":"بني سهيلا","state_district":"محافظة خان يونس","ISO3166-2-lvl5":"PS-KYS","region":"قطاع غزة","country":"Palestinian Territory","country_code":"ps"},"population":41439,"osm_type":"node","osm_id":329769893,"type":"town","location":[34.3222778,31.3401107],"bbox":[34.2822778,31.3001107,34.3622778,31.3801107],"border":{"name":"بني سهيلا","other_names":{"name:ar":"بني سهيلا","name:en":"Bani Suheila","name:fr":"Bani Suheila","name:he":"בני סוהילה","name:de":"Bani Suheila","name:es":"Bani Suheila","name:eu":"Bani Suheila","name:hr":"Bani Suheila","name:ja":"バニー・スヘイラ","name:ko":"바니 수헤일라","name:pl":"Bani Suhajla"},"display_name":"بني سهيلا, محافظة خان يونس, قطاع غزة, Palestinian Territory","address":{"town":"بني سهيلا","state_district":"محافظة خان يونس","ISO3166-2-lvl5":"PS-KYS","region":"قطاع غزة","country":"Palestinian Territory","country_code":"ps"},"population":41439,"osm_type":"relation","osm_id":10523818,"type":"administrative","location":[34.3222778,31.3401107],"bbox":[34.3142831,31.3158527,34.3507605,31.3586618]}}
{"name":"بني نعيم","other_names":{"name:ar":"بني نعيم","name:en":"Bani Naim","name:es":"Bani Naím","name:eu":"Bani Naim","name:fi":"Bani Naim","name:fr":"Bani Na'im","name:he":"בני נעים","name:ml":"ബെനി നയീം","name:ur":"بنی نعیم"},"display_name":"بني نعيم, منطقة أ, الضفة الغربية, Palestinian Territory","address":{"town":"بني نعيم","county":"منطقة أ","region":"الضفة الغربية","country":"Palestinian Territory","country_code":"ps"},"osm_type":"node","osm_id":332791725,"type":"town","location":[35.163048,31.5168713],"bbox":[35.123048,31.4768713,35.203048,31.5568713]}
{"name":"بيت أمر","other_names":{"name:ar":"بيت أمر","name:cs":"Bajt Ummar","name:en":"Beit Ummar","name:fr":"Beit Ommar","name:he":"בית אומר","alt_name:ar":"بيت اُمّر;بيت أمّر;بيت أومر"},"display_name":"بيت أمر, منطقة ب, الضفة الغربية, Palestinian Territory","address":{"town":"بيت أمر","county":"منطقة ب","region":"الضفة الغربية","country":"Palestinian Territory","country_code":"ps"},"population":19892,"osm_type":"node","osm_id":332956193,"type":"town","location":[35.1030927,31.6210078],"bbox":[35.0630927,31.5810078,35.1430927,31.6610078]}
{"name":"بيت أولا","other_names":{"name:ar":"بيت أولا","name:cs":"Bajt Aulá","name:en":"Beit Ula","name:eu":"Beit Ula","name:fr":"Beit Ula","name:he":"בית אולא","name:ml":"ബെയ്ത്ത് ഊല"},"display_name":"بيت أولا, منطقة ب, الضفة الغربية, Palestinian Territory","address":{"town":"بيت أولا","county":"منطقة ب","region":"الضفة الغربية","country":"Palestinian Territory","country_code":"ps"},"population":10885,"osm_type":"node","osm_id":332951207,"type":"town","location":[35.0284908,31.5967865],"bbox":[34.9884908,31.5567865,35.0684908,31.6367865]}
{"name":"بيت جالا","other_names":{"name:ar":"بيت جالا","name:cs":"Bajt Džálá","name:de":"Bait Dschala","name:en":"Beit Jala","name:fr":"Beit Jala","name:he":"בית ג'אלה","name:ml":"ബെയ്ത്ത് ജാല","name:ru":"Бейт-Джала"},"display_name":"بيت جالا, منطقة أ, الضفة الغربية, Palestinian Territory","address":{"town":"بيت جالا","county":"منطقة أ","region":"الضفة الغربية","country":"Palestinian Territory","country_code":"ps"},"population":11758,"osm_type":"node","osm_id":332791054,"type":"town","location":[35.1873686,31.7155219],"bbox":[35.1473686,31.6755219,35.2273686,31.7555219]}
{"name":"بيت حانون","other_names":{"name:ar":"بيت حانون","name:de":"Beit Hanun","name:en":"Beit Hanoun","name:es":"Bait Hanun","name:eu":"Beit Hanoun","name:fa":"بیت حانون","name:fr":"Beit Hanoun","name:he":"בית חאנון","name:hi":"बीट हनौं","name:hr":"Bejt Hanun","name:ja":"ベイト・ハヌーン","name:ko":"베이트 하눈","name:ks":"بیت حانون","name:ml":"ബെയ്ത്ത് ഹാനൂൻ","name:ru":"Бейт-Ханун","name:ur":"بیت حانون","name:zh":"拜特哈嫩","name:azb":"بیت حانون","name:ota":"بیت حانون","name:zh-Hans":"拜特哈嫩","name:zh-Hant":"拜特哈嫩"},"display_name":"بيت حانون, محافظة شمال غزة, قطاع غزة, Palestinian Territory","address":{"town":"بيت حانون","state_district":"محافظة شمال غزة","ISO3166-2-lvl5":"PS-NGZ","region":"قطاع غزة","country":"Palestinian Territory","country_code":"ps"},"population":30000,"osm_type":"node","osm_id":503998551,"type":"town","location":[34.5384182,31.539022],"bbox":[34.4984182,31.499022,34.5784182,31.579022],"border":{"name":"بيت حانون","other_names":{"name:ar":"بيت حانون","name:en":"Beit Hanoun","name:fa":"بیت حانون","name:fr":"Beit Hanoun","name:he":"בית חאנון","name:ks":"بیت حانون","name:ru":"Бейт-Ханун","name:ur":"بیت حانون","name:azb":"بیت حانون","name:ota":"بیت حانون","name:de":"Beit Hanun","name:es":"Bait Hanun","name:eu":"Beit Hanoun","name:hi":"बीट हनौं","name:hr":"Bejt Hanun","name:ja":"ベイト・ハヌーン","name:ko":"베이트 하눈","name:ml":"ബെയ്ത്ത് ഹാനൂൻ","name:zh":"拜特哈嫩","name:zh-Hans":"拜特哈嫩","name:zh-Hant":"拜特哈嫩"},"display_name":"بيت حانون, محافظة شمال غزة, قطاع غزة, Palestinian Territory","address":{"town":"بيت حانون","state_district":"محافظة شمال غزة","ISO3166-2-lvl5":"PS-NGZ","region":"قطاع غزة","country":"Palestinian Territory","country_code":"ps"},"population":30000,"osm_type":"relation","osm_id":10521480,"type":"administrative","location":[34.5384182,31.539022],"bbox":[34.5145665,31.5099178,34.5673243,31.5633381]}}
{"name":"بيت ساحور","other_names":{"name:ar":"بيت ساحور","name:de":"Bait Sahur","name:el":"Χωρίον των Ποιμένων","name:en":"Beit Sahur","name:fi":"Beit Sahur","name:fr":"Beit Sahour","name:he":"בית סאחור","name:la":"Pastorum","name:ml":"ബെയ്ത്ത് സാഹുർ","name:ru":"Бейт-Сахур","name:uk":"Бейт-Сахур","alt_name:ru":"Поле Пастырей"},"display_name":"بيت ساحور, منطقة أ, الضفة الغربية, Palestinian Territory","address":{"town":"بيت ساحور","county":"منطقة أ","region":"الضفة الغربية","country":"Palestinian Territory","country_code":"ps"},"population":15400,"osm_type":"node","osm_id":332791003,"type":"town","location":[35.2297392,31.7020867],"bbox":[35.1897392,31.6620867,35.2697392,31.7420867],"border":{"name":"بيت ساحور","other_names":{"name:ar":"بيت ساحور","name:el":"Χωρίον των Ποιμένων","name:en":"Beit Sahur","name:fr":"Beit Sahour","name:he":"בית סאחור","name:la":"Pastorum","name:ru":"Бейт-Сахур","name:uk":"Бейт-Сахур","alt_name:ru":"Поле Пастырей","name:de":"Bait Sahur","name:fi":"Beit Sahur","name:ml":"ബെയ്ത്ത് സാഹുർ"},"display_name":"بيت ساحور, منطقة أ, الضفة الغربية, Palestinian Territory","address":{"town":"بيت ساحور","county":"منطقة أ","region":"الضفة الغربية","country":"Palestinian Territory","country_code":"ps"},"population":15400,"osm_type":"relation","osm_id":6770751,"type":"administrative","location":[35.2297392,31.7020867],"bbox":[35.2117148,31.6895059,35.2502543,31.7190039]}}
{"name":"بيت عوا","other_names":{"name:ar":"بيت عوا","name:en":"Beit Awwa","name:es":"Beit Awwa","name:eu":"Beit Awwa","name:fi":"Beit Avva","name:fr":"Beit Awwa","name:he":"בית עווא"},"display_name":"بيت عوا, منطقة ب, الضفة الغربية, 766, Palestinian Territory","address":{"town":"بيت عوا","county":"منطقة ب","region":"الضفة الغربية","postcode":"766","country":"Palestinian Territory","country_code":"ps"},"population":8604,"osm_type":"node","osm_id":332951187,"type":"town","location":[34.9515852,31.5061233],"bbox":[34.9115852,31.4661233,34.9915852,31.5461233]}
{"name":"بيت فجار","other_names":{"name:ar":"بيت فجار","name:en":"Beit Fajjar","name:fr":"Beit Fajjar","name:he":"בית פג'אר","name:ml":"ബെയ്ത്ത് ഫജ്ജാർ"},"display_name":"بيت فجار, منطقة ب, الضفة الغربية, Palestinian Territory","address":{"town":"بيت فجار","county":"منطقة ب","region":"الضفة الغربية","country":"Palestinian Territory","country_code":"ps"},"population":13403,"osm_type":"node","osm_id":332956176,"type":"town","location":[35.1538688,31.6232013],"bbox":[35.1138688,31.5832013,35.1938688,31.6632013]}
{"name":"بيت فوريك","other_names":{"name:ar":"بيت فوريك","name:en":"Beit Furik","name:fr":"Beit Furik","name:he":"בית פוריכ","name:ml":"ബെയ്ത്ത് ഫൂറിക്ക്"},"display_name":"بيت فوريك, منطقة ب, الضفة الغربية, 803, Palestinian Territory","address":{"town":"بيت فوريك","county":"منطقة ب","region":"الضفة الغربية","postcode":"803","country":"Palestinian Territory","country_code":"ps"},"osm_type":"node","osm_id":332778921,"type":"town","location":[35.3349466,32.1791437],"bbox":[35.2949466,32.1391437,35.3749466,32.2191437]}
{"name":"بيت لاهيا","other_names":{"name:ar":"بيت لاهيا","name:bn":"বেইত লাহিয়া","name:cs":"Bajt Lahíja","name:de":"Bait Lahiya","name:el":"Μπεΐτ Λεχίγια","name:en":"Beit Lahiya","name:es":"Beit Lahia","name:eu":"Beit Lahia","name:fr":"Beit Lahiya","name:he":"בית לאהיא","name:hr":"Bejt Lahija","name:ja":"ベイト・ラヒヤ","name:ko":"베이트 라히야","name:ml":"ബെയ്ത്ത് ലാഹിയ","name:ru":"Бейт-Лахия","name:zh":"拜特拉希耶","alt_name:de":"Beit Lahia","alt_name:en":"Bayt Lahiya","alt_name:zh":"拜特拉希亞"},"display_name":"بيت لاهيا, محافظة شمال غزة, قطاع غزة, Palestinian Territory","address":{"town":"بيت لاهيا","state_district":"محافظة شمال غزة","ISO3166-2-lvl5":"PS-NGZ","region":"قطاع غزة","country":"Palestinian Territory","country_code":"ps"},"population":59500,"osm_type":"node","osm_id":503991719,"type":"town","location":[34.5024697,31.54977],"bbox":[34.4624697,31.50977,34.5424697,31.58977],"border":{"name":"بيت لاهيا","other_names":{"name:ar":"بيت لاهيا","name:en":"Beit Lahiya","name:fr":"Beit Lahiya","name:he":"בית לאהיא","name:ru":"Бейт-Лахия","name:bn":"বেইত লাহিয়া","name:cs":"Bajt Lahíja","name:de":"Bait Lahiya","name:el":"Μπεΐτ Λεχίγια","name:es":"Beit Lahia","name:eu":"Beit Lahia","name:hr":"Bejt Lahija","name:ja":"ベイト・ラヒヤ","name:ko":"베이트 라히야","name:ml":"ബെയ്ത്ത് ലാഹിയ","name:zh":"拜特拉希耶","alt_name:de":"Beit Lahia","alt_name:en":"Bayt Lahiya","alt_name:zh":"拜特拉希亞"},"display_name":"بيت لاهيا, محافظة شمال غزة, قطاع غزة, 500, Palestinian Territory","address":{"town":"بيت لاهيا","state_district":"محافظة شمال غزة","ISO3166-2-lvl5":"PS-NGZ","region":"قطاع غزة","postcode":"500","country":"Palestinian Territory","country_code":"ps"},"population":59500,"osm_type":"relation","osm_id":10521481,"type":"administrative","location":[34.5024697,31.54977],"bbox":[34.4606541,31.5289647,34.5239738,31.5968541]}}
{"name":"بيت لحم","other_names":{"name:ar":"بيت لحم","name:be":"Віфлеем","name:bg":"Витлеем","name:br":"Betleem","name:cs":"Betlém","name:de":"Bethlehem","name:en":"Bethlehem","name:es":"Belén","name:eu":"Betleem","name:fa":"بیت‌لحم","name:fi":"Betlehem","name:fr":"Bethléem","name:fy":"Betlehem","name:ga":"Beithil","name:gd":"Betlehem","name:he":"בית לחם","name:hi":"बेथलहम","name:hr":"Betlehem","name:hu":"Betlehem","name:it":"Betlemme","name:ja":"ベツレヘム","name:ka":"ბეთლემი","name:kn":"ಬೇಥಲಹಮ್","name:ko":"베들레헴","name:ml":"ബെത്ലഹേം","name:nl":"Bethlehem","name:pl":"Betlejem","name:ps":"بیت لحم","name:pt":"Belém","name:ro":"Betleem","name:ru":"Вифлеем","name:sk":"Betlehem","name:sr":"Витлејем","name:te":"బెత్లెహెం","name:tr":"Beytülahm","name:ug":"بېتلېخېم","name:uk":"Вифлеєм","name:ur":"بیت لحم","name:zh":"伯利恆","name:arc":"ܒܝܬ ܠܚܡ","name:chr":"ᎦᏚᏱ","name:grc":"Βηθλέεμ","name:pnb":"بیت اللحم","name:syc":"ܒܝܬ ܠܚܡ","name:tzl":"Veþlac'heim","alt_name:ar":"بيت اللحم","alt_name:br":"Bezhleem","alt_name:en":"Beit Lahm;Bayt Lahm","alt_name:ka":"ბეით-ლაჰმი","alt_name:ml":"ബെയ്ത്ത് ലഹം","alt_name:ro":"Viflaim;Bethleem;Bethlehem","alt_name:ru":"Байт-Лахм","alt_name:grc":"Βηθλεέμ;Βηθλεεμ","name:be-tarask":"Бэтлеем"},"display_name":"بيت لحم, منطقة أ, الضفة الغربية, Palestinian Territory","address":{"town":"بيت لحم","county":"منطقة أ","region":"الضفة الغربية","country":"Palestinian Territory","country_code":"ps"},"population":27000,"osm_type":"node","osm_id":431636549,"type":"town","location":[35.2061876,31.7043556],"bbox":[35.1661876,31.6643556,35.2461876,31.7443556],"border":{"name":"بيت لحم","other_names":{"name:ar":"بيت لحم","name:be":"Віфлеем","name:bg":"Витлеем","name:br":"Betleem","name:cs":"Betlém","name:de":"Bethlehem","name:en":"Bethlehem","name:es":"Belén","name:fa":"بیت‌لحم","name:fi":"Beetlehem","name:fr":"Bethléem","name:fy":"Betlehem","name:ga":"Beithil","name:gd":"Betlehem","name:he":"בית לחם","name:hi":"बेथलहम","name:it":"Betlemme","name:ja":"ベツレヘム","name:ka":"ბეთლემი","name:kn":"ಬೇಥಲಹಮ್","name:ko":"베들레헴","name:ku":"Beytlehem","name:nl":"Bethlehem","name:pl":"Betlejem","name:ps":"بیت لحم","name:pt":"Belém","name:ro":"Betleem","name:ru":"Вифлеем","name:sk":"Betlehem","name:sr":"Витлејем","name:ug":"بېتلېخېم","name:uk":"Вифлеєм","name:ur":"بیت لحم","name:zh":"伯利恆","name:arc":"ܒܝܬ ܠܚܡ","name:chr":"ᎦᏚᏱ","name:grc":"Βηθλέεμ","name:pnb":"بیت اللحم","name:syc":"ܒܝܬ ܠܚܡ","name:tzl":"Veþlac'heim","alt_name:ar":"بيت اللحم","alt_name:br":"Bezhleem","alt_name:fi":"Betlehem","alt_name:ka":"ბეით-ლაჰმი","alt_name:ku":"Beytullahîm","alt_name:ro":"Viflaim;Bethleem;Bethlehem","alt_name:ru":"Байт-Лахм","alt_name:grc":"Βηθλεέμ;Βηθλεεμ","name:eu":"Betleem","name:hr":"Betlehem","name:hu":"Betlehem","name:ml":"ബെത്ലഹേം","name:te":"బెత్లెహెం","name:tr":"Beytülahm","name:be-tarask":"Бэтлеем","alt_name:en":"Beit Lahm;Bayt Lahm","alt_name:ml":"ബെയ്ത്ത് ലഹം","alt:fi":"Betlehem"},"display_name":"بيت لحم, منطقة أ, الضفة الغربية, Palestinian Territory","address":{"town":"بيت لحم","county":"منطقة أ","region":"الضفة الغربية","country":"Palestinian Territory","country_code":"ps"},"population":27000,"osm_type":"relation","osm_id":6759715,"type":"administrative","location":[35.2061876,31.7043556],"bbox":[35.1823598,31.6907232,35.2234568,31.7236093]}}
{"name":"بيت لقيا","other_names":{"name:ar":"بيت لقيا","name:cs":"Bajt Likjá","name:en":"Beit Liqya","name:fr":"Beit Liqya","name:he":"בית ליקיא"},"display_name":"بيت لقيا, منطقة ب, الضفة الغربية, Palestinian Territory","address":{"town":"بيت لقيا","county":"منطقة ب","region":"الضفة الغربية","country":"Palestinian Territory","country_code":"ps"},"osm_type":"node","osm_id":332787821,"type":"town","location":[35.0661639,31.8694015],"bbox":[35.0261639,31.8294015,35.1061639,31.9094015]}
{"name":"بيتا‎","other_names":{"name:ar":"بيتا‎","name:en":"Beita","name:fr":"Beita","name:he":"ביתא","name:ml":"ബെയ്ത്ത"},"display_name":"بيتا‎, منطقة ب, الضفة الغربية, Palestinian Territory","address":{"town":"بيتا‎","county":"منطقة ب","region":"الضفة الغربية","country":"Palestinian Territory","country_code":"ps"},"osm_type":"node","osm_id":332792443,"type":"town","location":[35.2856583,32.142272],"bbox":[35.2456583,32.102272,35.3256583,32.182272]}
{"name":"بيتونيا‎","other_names":{"name:ar":"بيتونيا‎","name:cs":"Bajtúnjá","name:en":"Bitunia","name:fr":"Beitunia","name:he":"ביתוניא","name:ml":"ബെയ്തൂണിയ"},"display_name":"بيتونيا‎, منطقة أ, الضفة الغربية, 631, Palestinian Territory","address":{"town":"بيتونيا‎","county":"منطقة أ","region":"الضفة الغربية","postcode":"631","country":"Palestinian Territory","country_code":"ps"},"osm_type":"node","osm_id":246843682,"type":"town","location":[35.1704423,31.8860239],"bbox":[35.1304423,31.8460239,35.2104423,31.9260239]}
{"name":"ترقوميا‎","other_names":{"name:ar":"ترقوميا‎","name:en":"Tarqumiyah","name:eu":"Tarqumiyah","name:fr":"Tarqumia","name:he":"תרקומייה","name:ml":"തർഖുമിയ"},"display_name":"ترقوميا‎, منطقة ب, الضفة الغربية, Palestinian Territory","address":{"town":"ترقوميا‎","county":"منطقة ب","region":"الضفة الغربية","country":"Palestinian Territory","country_code":"ps"},"population":14357,"osm_type":"node","osm_id":332951238,"type":"town","location":[35.0089188,31.575325],"bbox":[34.9689188,31.535325,35.0489188,31.615325]}
{"name":"تفوح‎","other_names":{"name:ar":"تفوح‎","name:en":"Taffuh","name:fr":"Taffuh","name:he":"תפוח","name:ml":"തഫുഹ്","alt_name:ar":"تفّوح‎"},"display_name":"تفوح‎, تفوح, منطقة أ, الضفة الغربية, Palestinian Territory","address":{"town":"تفوح‎","county":"منطقة أ","region":"الضفة الغربية","country":"Palestinian Territory","country_code":"ps"},"osm_type":"node","osm_id":332957664,"type":"town","location":[35.0442823,31.5381697],"bbox":[35.0042823,31.4981697,35.0842823,31.5781697],"border":{"name":"تفوح","other_names":{"name:ar":"تفوح","name:en":"Taffuh","name:fr":"Taffuh","name:he":"תפוח","name:ml":"തഫുഹ്","alt_name:ar":"تفّوح‎","alt":"تفوح‎","alt:ar":"تفوح‎"},"display_name":"تفوح, منطقة أ, الضفة الغربية, Palestinian Territory","address":{"town":"تفوح","county":"منطقة أ","region":"الضفة الغربية","country":"Palestinian Territory","country_code":"ps"},"osm_type":"relation","osm_id":11547611,"type":"administrative","location":[35.0442823,31.5381697],"bbox":[35.0198902,31.5257075,35.0668622,31.5570267]}}
{"name":"جباليا","other_names":{"name:ar":"جباليا","name:de":"Dschabaliya","name:en":"Jabalia","name:es":"Jabalia","name:eu":"Jabalia","name:fr":"Jabaliya","name:he":"ג'באליה","name:hr":"Džabalija","name:ja":"ジャバリヤ","name:ko":"자발리야","name:ml":"ജബാലിയ","name:pl":"Dżabalija","name:ru":"Джабалия","name:tr":"Cebaliye","name:uk":"Джабалія","name:zh":"贾巴利亚","alt_name:zh":"杰巴利亚;傑巴利亞","name:zh-Hans":"贾巴利亚","name:zh-Hant":"賈巴利亞"},"display_name":"جباليا, محافظة شمال غزة, قطاع غزة, Palestinian Territory","address":{"town":"جباليا","state_district":"محافظة شمال غزة","ISO3166-2-lvl5":"PS-NGZ","region":"قطاع غزة","country":"Palestinian Territory","country_code":"ps"},"population":110000,"osm_type":"node","osm_id":3007045042,"type":"town","location":[34.4831674,31.5282137],"bbox":[34.4431674,31.4882137,34.5231674,31.5682137],"border":{"name":"جباليا","other_names":{"name:ar":"جباليا","name:en":"Jabalia","name:es":"Jabalia","name:fr":"Jabaliya","name:he":"ג'באליה","name:de":"Dschabaliya","name:eu":"Jabalia","name:hr":"Džabalija","name:ja":"ジャバリヤ","name:ko":"자발리야","name:ml":"ജബാലിയ","name:pl":"Dżabalija","name:ru":"Джабалия","name:tr":"Cebaliye","name:uk":"Джабалія","name:zh":"贾巴利亚","alt_name:zh":"杰巴利亚;傑巴利亞","name:zh-Hans":"贾巴利亚","name:zh-Hant":"賈巴利亞"},"display_name":"جباليا, محافظة شمال غزة, قطاع غزة, Palestinian Territory","address":{"town":"جباليا","state_district":"محافظة شمال غزة","ISO3166-2-lvl5":"PS-NGZ","region":"قطاع غزة","country":"Palestinian Territory","country_code":"ps"},"population":110000,"osm_type":"relation","osm_id":10521507,"type":"administrative","location":[34.4831674,31.5282137],"bbox":[34.45112,31.5017164,34.5380928,31.560461]}}
{"name":"جبع‎","other_names":{"name:ar":"جبع‎","name:en":"Jaba","name:fr":"Jaba","name:he":"ג'בע","name:ml":"ജബ"},"display_name":"جبع‎, منطقة ب, الضفة الغربية, Palestinian Territory","address":{"town":"جبع‎","county":"منطقة ب","region":"الضفة الغربية","country":"Palestinian Territory","country_code":"ps"},"population":10413,"osm_type":"node","osm_id":332964925,"type":"town","location":[35.2215976,32.3237901],"bbox":[35.1815976,32.2837901,35.2615976,32.3637901]}
{"name":"جمّاعين‎","other_names":{"name:ar":"جمّاعين‎","name:en":"Jamma'in","name:fr":"Jamma'in","name:he":"ג'מאעין","name:ml":"ജമ്മായീൻ"},"display_name":"جمّاعين‎, منطقة ب, الضفة الغربية, Palestinian Territory","address":{"town":"جمّاعين‎","county":"منطقة ب","region":"الضفة الغربية","country":"Palestinian Territory","country_code":"ps"},"osm_type":"node","osm_id":332780429,"type":"town","location":[35.2021585,32.1317415],"bbox":[35.1621585,32.0917415,35.2421585,32.1717415]}
{"name":"جناتة","other_names":{"name:ar":"جناتة","name:en":"Jannatah","name:fr":"Janata","name:he":"ג'נאתה"},"display_name":"جناتة, שטח C, יהודה ושומרון, Palestinian Territory","address":{"town":"جناتة","county":"שטח C","state":"יהודה ושומרון","country":"Palestinian Territory","country_code":"ps"},"osm_type":"way","osm_id":289911714,"type":"town","location":[35.23165800976598,31.6635707],"bbox":[35.2290063,31.660396,35.2354132,31.6666775]}
{"name":"جنين","other_names":{"name:ar":"جنين","name:cs":"Dženín","name:en":"Jenin","name:es":"Yenín","name:eu":"Jenin","name:fa":"جنین","name:fi":"Jenin","name:fr":"Jénine","name:he":"ג'נין‎","name:hi":"जनीन","name:ja":"ジェニン","name:ks":"جنین","name:ku":"Cenîn","name:ml":"ജെനീൻ","name:ru":"Дженин","name:uk":"Дженін","name:ur":"جنین","name:zh":"杰寧","name:azb":"جنین","name:ota":"جنین","name:pnb":"جنین","alt_name:cs":"Džanín;Džinín","official_name":"مدينة جنين","official_name:ar":"مدينة جنين"},"display_name":"جنين, منطقة أ, الضفة الغربية, 180, Palestinian Territory","address":{"town":"جنين","county":"منطقة أ","region":"الضفة الغربية","postcode":"180","country":"Palestinian Territory","country_code":"ps"},"population":49908,"osm_type":"node","osm_id":300254767,"type":"town","location":[35.297566,32.4618837],"bbox":[35.257566,32.4218837,35.337566,32.5018837]}
{"name":"حلحول‎","other_names":{"name:ar":"حلحول‎","name:cs":"Halhúl","name:en":"Halhul","name:eu":"Halhul","name:fi":"Halhul","name:fr":"Halhul","name:he":"חלחול","name:ml":"ഹൽഹൂൽ","name:ru":"Хольхоль"},"display_name":"حلحول‎, منطقة أ, الضفة الغربية, Palestinian Territory","address":{"town":"حلحول‎","county":"منطقة أ","region":"الضفة الغربية","country":"Palestinian Territory","country_code":"ps"},"osm_type":"node","osm_id":332791394,"type":"town","location":[35.0993156,31.5775471],"bbox":[35.0593156,31.5375471,35.1393156,31.6175471]}
{"name":"خاراس‎","other_names":{"name:cs":"Chárás","name:en":"Kharas","name:eu":"Kharas","name:fr":"Kharas","name:he":"ח'אראס","name:ml":"ഖാറാസ്"},"display_name":"خاراس‎, منطقة ب, الضفة الغربية, Palestinian Territory","address":{"town":"خاراس‎","county":"منطقة ب","region":"الضفة الغربية","country":"Palestinian Territory","country_code":"ps"},"population":6665,"osm_type":"node","osm_id":332951389,"type":"town","location":[35.0417938,31.6140175],"bbox":[35.0017938,31.5740175,35.0817938,31.6540175]}
{"name":"خان يونس","other_names":{"name:ar":"خان يونس","name:bn":"খান ইউনুস","name:cs":"Chán Júnis","name:da":"Khan Younis","name:de":"Chan Yunis","name:el":"Χαν Γιουνίς","name:en":"Khan Yunis","name:es":"Jan Yunis","name:et":"Khān Yūnis","name:eu":"Khan Yunis","name:fa":"خان‌یونس","name:fi":"Han Junis","name:fr":"Khan Younès","name:he":"ח'אן יונס","name:hi":"खान यूनिस","name:hr":"Han Junis","name:ja":"ハーン・ユーニス","name:ko":"한 유니스","name:ks":"خان یونس","name:ml":"ഖാൻ യൂനിസ്","name:pl":"Chan Junus","name:ps":"خان يونس","name:ru":"Хан-Юнис","name:uk":"Хан-Юніс","name:ur":"خان یونس","name:zh":"汗尤尼斯","name:pnb":"خان یونس","alt_name:zh":"汉尤尼斯;漢尤尼斯","name:zh-Hans":"汗尤尼斯","name:zh-Hant":"汗尤尼斯"},"display_name":"خان يونس, محافظة خان يونس, قطاع غزة, Palestinian Territory","address":{"town":"خان يونس","state_district":"محافظة خان يونس","ISO3166-2-lvl5":"PS-KYS","region":"قطاع غزة","country":"Palestinian Territory","country_code":"ps"},"population":205125,"osm_type":"node","osm_id":299944872,"type":"town","location":[34.3095897,31.3443293],"bbox":[34.2695897,31.3043293,34.3495897,31.3843293],"border":{"name":"خان يونس","other_names":{"name:ar":"خان يونس","name:de":"Chan Yunis","name:en":"Khan Yunis","name:fa":"خان‌یونس","name:fr":"Khan Younès","name:he":"ח'אן יונס","name:hr":"Han Junis","name:ja":"ハーンユーニス","name:ks":"خان یونس","name:ps":"خان يونس","name:ru":"Хан-Юнис","name:uk":"Хан-Юніс","name:ur":"خان یونس","name:pnb":"خان یونس","name:bn":"খান ইউনুস","name:cs":"Chán Júnis","name:da":"Khan Younis","name:el":"Χαν Γιουνίς","name:es":"Jan Yunis","name:et":"Khān Yūnis","name:eu":"Khan Yunis","name:fi":"Han Junis","name:hi":"खान यूनिस","name:ko":"한 유니스","name:ml":"ഖാൻ യൂനിസ്","name:pl":"Chan Junus","name:zh":"汗尤尼斯","alt_name:zh":"汉尤尼斯;漢尤尼斯","name:zh-Hans":"汗尤尼斯","name:zh-Hant":"汗尤尼斯","alt:ja":"ハーン・ユーニス"},"display_name":"خان يونس, محافظة خان يونس, قطاع غزة, Palestinian Territory","address":{"town":"خان يونس","state_district":"محافظة خان يونس","ISO3166-2-lvl5":"PS-KYS","region":"قطاع غزة","country":"Palestinian Territory","country_code":"ps"},"population":205125,"osm_type":"relation","osm_id":10522839,"type":"administrative","location":[34.3095897,31.3443293],"bbox":[34.2398411,31.2930342,34.3342886,31.4043278]}}
{"name":"دورا","other_names":{"name:ar":"دورا","name:de":"Dura","name:en":"Dura","name:es":"Dura","name:eu":"Dura","name:fr":"Dura","name:he":"דורה","name:ml":"ദൂറ","name:uk":"Дура","name:ur":"دورا","alt_name:ar":"دوره‎"},"display_name":"دورا, منطقة أ, الضفة الغربية, Palestinian Territory","address":{"town":"دورا","county":"منطقة أ","region":"الضفة الغربية","country":"Palestinian Territory","country_code":"ps"},"osm_type":"node","osm_id":332791972,"type":"town","location":[35.0263669,31.5065977],"bbox":[34.9863669,31.4665977,35.0663669,31.5465977],"border":{"name":"دورا","other_names":{"name:ar":"دورا","name:en":"Dura","name:fr":"Dura","name:he":"דורא","name:de":"Dura","name:es":"Dura","name:eu":"Dura","name:ml":"ദൂറ","name:uk":"Дура","name:ur":"دورا","alt_name:ar":"دوره‎","alt:he":"דורה"},"display_name":"دورا, منطقة أ, الضفة الغربية, Palestinian Territory","address":{"town":"دورا","county":"منطقة أ","region":"الضفة الغربية","country":"Palestinian Territory","country_code":"ps"},"osm_type":"relation","osm_id":11547610,"type":"administrative","location":[35.0263669,31.5065977],"bbox":[34.9887867,31.4842916,35.0789281,31.5457037]}}
{"name":"دير البلح","other_names":{"name:ar":"دير البلح","name:cs":"Dajr al-Balah","name:cy":"Deir al-Balah","name:de":"Dair al-Balah","name:en":"Deir el-Balah","name:eo":"Deir el-Balah","name:es":"Dair Al Balah","name:eu":"Deir al-Balah","name:fr":"Deir el-Balah","name:he":"דיר אל-בלאח","name:hi":"दीर अल बाला","name:hr":"Deir al-Balah","name:it":"Dayr al-Balah","name:ja":"デイル・アル・バラ","name:ko":"데이르 알 발라흐","name:ml":"ദെയ്ർ അൽ-ബല","name:nl":"Dayr al-Balah","name:no":"Deir al-Balah","name:pl":"Dajr al-Balah","name:pt":"Deir al-Balah","name:ru":"Дейр-эль-Балах","name:tr":"Deir al Balah","name:uk":"Дейр аль-Балах","name:ur":"دیر البلح","name:zh":"代尔拜莱赫","name:sco":"Deir al-Balah","name:zh-Hans":"代尔拜莱赫","name:zh-Hant":"代爾拜萊赫"},"display_name":"دير البلح, محافظة دير البلح, قطاع غزة, Palestinian Territory","address":{"town":"دير البلح","state_district":"محافظة دير البلح","ISO3166-2-lvl5":"PS-DEB","region":"قطاع غزة","country":"Palestinian Territory","country_code":"ps"},"population":49751,"osm_type":"node","osm_id":505035532,"type":"town","location":[34.3502476,31.4183455],"bbox":[34.3102476,31.3783455,34.3902476,31.4583455],"border":{"name":"دير البلح","other_names":{"name:ar":"دير البلح","name:en":"Deir el-Balah","name:es":"Dair Al Balah","name:fr":"Deir el-Balah","name:he":"דיר אל-בלאח","name:uk":"Дейр-ель-Балах","name:ur":"دیر البلح","name:zh":"代尔拜莱赫","name:cs":"Dajr al-Balah","name:cy":"Deir al-Balah","name:de":"Dair al-Balah","name:eo":"Deir el-Balah","name:eu":"Deir al-Balah","name:hi":"दीर अल बाला","name:hr":"Deir al-Balah","name:it":"Dayr al-Balah","name:ja":"デイル・アル・バラ","name:ko":"데이르 알 발라흐","name:ml":"ദെയ്ർ അൽ-ബല","name:nl":"Dayr al-Balah","name:no":"Deir al-Balah","name:pl":"Dajr al-Balah","name:pt":"Deir al-Balah","name:ru":"Дейр-эль-Балах","name:tr":"Deir al Balah","name:sco":"Deir al-Balah","name:zh-Hans":"代尔拜莱赫","name:zh-Hant":"代爾拜萊赫","alt:uk":"Дейр аль-Балах"},"display_name":"دير البلح, محافظة دير البلح, قطاع غزة, Palestinian Territory","address":{"town":"دير البلح","state_district":"محافظة دير البلح","ISO3166-2-lvl5":"PS-DEB","region":"قطاع غزة","country":"Palestinian Territory","country_code":"ps"},"population":49751,"osm_type":"relation","osm_id":10523087,"type":"administrative","location":[34.3502476,31.4183455],"bbox":[34.3082491,31.384808,34.3950243,31.4351054]}}
{"name":"دير الغصون","other_names":{"name:ar":"دير الغصون","name:en":"Deir el Ghusun","name:fr":"Deir al-Ghusun","name:he":"דיר אל-עוסון"},"display_name":"دير الغصون, منطقة ب, الضفة الغربية, 113, Palestinian Territory","address":{"town":"دير الغصون","county":"منطقة ب","region":"الضفة الغربية","postcode":"113","country":"Palestinian Territory","country_code":"ps"},"population":9936,"osm_type":"node","osm_id":332786222,"type":"town","location":[35.0768241,32.3524202],"bbox":[35.0368241,32.3124202,35.1168241,32.3924202]}
{"name":"رام الله","other_names":{"name:af":"Ramallah","name:ar":"رام الله","name:av":"Рамаллагь","name:az":"Ramallah","name:ba":"Рамаллаһ","name:be":"Рамала","name:bg":"Рамала","name:bn":"রামাল্লাহ","name:br":"Ramallah","name:ca":"Ramal·lah","name:ce":"РамаллахӀ","name:cs":"Rámaláh","name:cy":"Ramallah","name:da":"Ramallah","name:de":"Ramallah","name:el":"Ραμάλα","name:en":"Ramallah","name:eo":"Ramalaho","name:es":"Ramala","name:et":"Rām Allāh","name:eu":"Ramallah","name:fa":"رام‌الله","name:fi":"Ramallah","name:fr":"Ramallah","name:fy":"Ramallah","name:gl":"Ramala","name:gn":"Ramala","name:ha":"Ramallah","name:he":"רמאללה","name:hi":"रामल्ला","name:hr":"Ramala","name:hu":"Rámalláh","name:hy":"Ռամալլահ","name:id":"Ramallah","name:io":"Ramala","name:is":"Ramallah","name:it":"Ramallah","name:ja":"ラマッラー","name:ka":"რამალა","name:kk":"Рамалла","name:ko":"라말라","name:ks":"رام اللہ","name:ku":"Ramella","name:la":"Ramallah","name:lb":"Ramallah","name:lt":"Ramala","name:lv":"Rāmalla","name:mk":"Рамала","name:ml":"റാമല്ല","name:ms":"Ramallah","name:nb":"Ramallah","name:ne":"रामल्ला","name:nl":"Ramallah","name:nn":"Ramallah","name:no":"Ramallah","name:oc":"Ramallah","name:os":"Рамаллæ","name:pa":"ਰਾਮੱਲਾ","name:pl":"Ramallah","name:ps":"رام الله","name:pt":"Ramalá","name:ro":"Ramallah","name:ru":"Рамалла","name:sc":"Ramallah","name:sk":"Ramalláh","name:sl":"Ramala","name:sn":"Ramallah","name:sq":"Ramallahu","name:sr":"Рамала","name:sv":"Ramallah","name:sw":"Ramallah","name:ta":"ரமல்லா","name:tg":"Ромуллоҳ","name:th":"รอมัลลอฮ์","name:tr":"Ramallah","name:uk":"Рамалла","name:ur":"رام اللہ","name:uz":"Ramalla","name:vi":"Ramallah","name:yi":"ראמאללא","name:zh":"拉姆安拉","name:pnb":"رام اللہ","alt_name:cs":"Ramalláh","alt_name:ru":"Рама"},"display_name":"رام الله, منطقة أ, الضفة الغربية, Palestinian Territory","address":{"town":"رام الله","county":"منطقة أ","region":"الضفة الغربية","country":"Palestinian Territory","country_code":"ps"},"population":27460,"osm_type":"node","osm_id":246843686,"type":"town","location":[35.1952255,31.9030543],"bbox":[35.1552255,31.8630543,35.2352255,31.9430543],"border":{"name":"رام الله","other_names":{"name:ar":"رام الله","name:de":"Ramallah","name:el":"Ραμάλα","name:en":"Ramallah","name:es":"Ramala","name:fa":"رام‌الله","name:fi":"Ramalla","name:fr":"Ramallah","name:he":"רמאללה","name:id":"Ramallah","name:it":"Ramallah","name:ko":"라말라","name:ks":"رام اللہ","name:ku":"Ramella","name:ps":"رام الله","name:ru":"Рамалла","name:uk":"Рамалла","name:ur":"رام اللہ","name:zh":"拉姆安拉","name:pnb":"رام اللہ","name:af":"Ramallah","name:av":"Рамаллагь","name:az":"Ramallah","name:ba":"Рамаллаһ","name:be":"Рамала","name:bg":"Рамала","name:bn":"রামাল্লাহ","name:br":"Ramallah","name:ca":"Ramal·lah","name:ce":"РамаллахӀ","name:cs":"Rámaláh","name:cy":"Ramallah","name:da":"Ramallah","name:eo":"Ramalaho","name:et":"Rām Allāh","name:eu":"Ramallah","name:fy":"Ramallah","name:gl":"Ramala","name:gn":"Ramala","name:ha":"Ramallah","name:hi":"रामल्ला","name:hr":"Ramala","name:hu":"Rámalláh","name:hy":"Ռամալլահ","name:io":"Ramala","name:is":"Ramallah","name:ja":"ラマッラー","name:ka":"რამალა","name:kk":"Рамалла","name:la":"Ramallah","name:lb":"Ramallah","name:lt":"Ramala","name:lv":"Rāmalla","name:mk":"Рамала","name:ml":"റാമല്ല","name:ms":"Ramallah","name:nb":"Ramallah","name:ne":"रामल्ला","name:nl":"Ramallah","name:nn":"Ramallah","name:no":"Ramallah","name:oc":"Ramallah","name:os":"Рамаллæ","name:pa":"ਰਾਮੱਲਾ","name:pl":"Ramallah","name:pt":"Ramalá","name:ro":"Ramallah","name:sc":"Ramallah","name:sk":"Ramalláh","name:sl":"Ramala","name:sn":"Ramallah","name:sq":"Ramallahu","name:sr":"Рамала","name:sv":"Ramallah","name:sw":"Ramallah","name:ta":"ரமல்லா","name:tg":"Ромуллоҳ","name:th":"รอมัลลอฮ์","name:tr":"Ramallah","name:uz":"Ramalla","name:vi":"Ramallah","name:yi":"ראמאללא","alt_name:cs":"Ramalláh","alt_name:ru":"Рама","alt:fi":"Ramallah"},"display_name":"رام الله, منطقة أ, الضفة الغربية, Palestinian Territory","address":{"town":"رام الله","county":"منطقة أ","region":"الضفة الغربية","country":"Palestinian Territory","country_code":"ps"},"population":27460,"osm_type":"relation","osm_id":2717915,"type":"administrative","location":[35.1952255,31.9030543],"bbox":[35.1645328,31.8838703,35.210244,31.929562]}}
{"name":"رفح","other_names":{"name:ar":"رفح","name:az":"Rafah","name:be":"Рафах","name:bg":"Рафах","name:bn":"রাফাহ","name:ca":"Rafah","name:cs":"Rafah","name:cy":"Rafah","name:da":"Rafah","name:de":"Rafah","name:el":"Ράφα","name:en":"Rafah","name:eo":"Rafah","name:es":"Rafah","name:et":"Rafaḩ","name:eu":"Rafah","name:fa":"رفح","name:fi":"Rafah","name:fr":"Rafah","name:ga":"Rafah","name:gl":"Rafa","name:ha":"Rafah","name:he":"רפיח","name:hi":"रेफ़ा","name:hr":"Rafa","name:id":"Rafah","name:it":"Rafah","name:ja":"ラファ","name:ko":"라파","name:ku":"Refah","name:lt":"Rafachas","name:lv":"Rafaha","name:ml":"റഫഹ്","name:ms":"Rafah","name:mt":"Rafah","name:nb":"Rafah","name:nl":"Rafah","name:nn":"Rafah","name:os":"Рафах","name:pl":"Rafah","name:pt":"Rafa","name:ro":"Rafah","name:ru":"Рафах","name:sl":"Rafa","name:sr":"Рафа","name:sv":"Rafah","name:ta":"ரபா","name:th":"เราะฟะห์","name:tr":"Refah","name:uk":"Рафах","name:ur":"رفح","name:vi":"Rafah","name:zh":"拉法","name:arz":"رفح","name:azb":"رفح","name:grc":"Ῥαφία","name:ota":"رفح","name:pnb":"رفح","alt_name:zh":"拉法赫","name:zh-Hans":"拉法","name:zh-Hant":"拉法"},"display_name":"رفح, محافظة رفح, قطاع غزة, Palestinian Territory","address":{"town":"رفح","state_district":"محافظة رفح","ISO3166-2-lvl5":"PS-RFH","region":"قطاع غزة","country":"Palestinian Territory","country_code":"ps"},"population":126305,"osm_type":"node","osm_id":322022888,"type":"town","location":[34.2558269,31.2752047],"bbox":[34.2158269,31.2352047,34.2958269,31.3152047],"border":{"name":"رفح","other_names":{"name:ar":"رفح","name:de":"Rafah","name:en":"Rafah","name:fr":"Rafah","name:he":"רפיח","name:hr":"Rafa","name:ja":"ラファ","name:ur":"رفح","name:zh":"拉法","name:az":"Rafah","name:be":"Рафах","name:bg":"Рафах","name:bn":"রাফাহ","name:ca":"Rafah","name:cs":"Rafah","name:cy":"Rafah","name:da":"Rafah","name:el":"Ράφα","name:eo":"Rafah","name:es":"Rafah","name:et":"Rafaḩ","name:eu":"Rafah","name:fa":"رفح","name:fi":"Rafah","name:ga":"Rafah","name:gl":"Rafa","name:ha":"Rafah","name:hi":"रेफ़ा","name:id":"Rafah","name:it":"Rafah","name:ko":"라파","name:ku":"Refah","name:lt":"Rafachas","name:lv":"Rafaha","name:ml":"റഫഹ്","name:ms":"Rafah","name:mt":"Rafah","name:nb":"Rafah","name:nl":"Rafah","name:nn":"Rafah","name:os":"Рафах","name:pl":"Rafah","name:pt":"Rafa","name:ro":"Rafah","name:ru":"Рафах","name:sl":"Rafa","name:sr":"Рафа","name:sv":"Rafah","name:ta":"ரபா","name:th":"เราะฟะห์","name:tr":"Refah","name:uk":"Рафах","name:vi":"Rafah","name:arz":"رفح","name:azb":"رفح","name:grc":"Ῥαφία","name:ota":"رفح","name:pnb":"رفح","alt_name:zh":"拉法赫","name:zh-Hans":"拉法","name:zh-Hant":"拉法"},"display_name":"رفح, محافظة رفح, قطاع غزة, 980, Palestinian Territory","address":{"town":"رفح","state_district":"محافظة رفح","ISO3166-2-lvl5":"PS-RFH","region":"قطاع غزة","postcode":"980","country":"Palestinian Territory","country_code":"ps"},"population":126305,"osm_type":"relation","osm_id":10522702,"type":"administrative","location":[34.2558269,31.2752047],"bbox":[34.2158979,31.2507846,34.2988505,31.34577]}}
{"name":"روابي","other_names":{"name:ar":"روابي","name:en":"Rawabi","name:fr":"Rawabi","name:he":"רוואבי","name:hi":"रवाबी","name:uk":"Равабі","name:ur":"روابی","name:de":"Rawabi","name:es":"Rawabi","name:id":"Rawabi","name:ml":"റവാബി"},"display_name":"روابي, منطقة أ, الضفة الغربية, Palestinian Territory","address":{"village":"روابي","county":"منطقة أ","region":"الضفة الغربية","country":"Palestinian Territory","country_code":"ps"},"osm_type":"way","osm_id":211233639,"type":"town","location":[35.1901916,32.0118458],"bbox":[35.1864332,32.0066293,35.1959429,32.0204386]}
{"name":"زعتره‎","other_names":{"name:ar":"زعترة","name:en":"Za'atara","name:fr":"Za'atara","name:he":"זעתרה","name:ml":"സഅത്തറ"},"display_name":"زعتره‎, منطقة ب, الضفة الغربية, Palestinian Territory","address":{"town":"زعتره‎","county":"منطقة ب","region":"الضفة الغربية","country":"Palestinian Territory","country_code":"ps"},"osm_type":"way","osm_id":289911729,"type":"town","location":[35.257009166642376,31.67057655],"bbox":[35.2484248,31.6597747,35.2708285,31.6814564]}
{"name":"سعير‎","other_names":{"name:en":"Sa'eer","name:fr":"Sa'eer","name:he":"סעיר","name:ml":"സയീർ","alt_name":"Sa'ir;Saiour"},"display_name":"سعير‎, منطقة ب, الضفة الغربية, Palestinian Territory","address":{"town":"سعير‎","county":"منطقة ب","region":"الضفة الغربية","country":"Palestinian Territory","country_code":"ps"},"osm_type":"node","osm_id":332957639,"type":"town","location":[35.1452192,31.5829285],"bbox":[35.1052192,31.5429285,35.1852192,31.6229285]}
{"name":"سلفيت","other_names":{"name:ar":"سلفيت","name:en":"Salfit","name:es":"Salfit","name:eu":"Salfit","name:fr":"Salfit","name:he":"סלפית","name:ml":"സൽഫീത്ത്","name:ru":"Сальфит"},"display_name":"سلفيت, منطقة أ, الضفة الغربية, 390, Palestinian Territory","address":{"town":"سلفيت","county":"منطقة أ","region":"الضفة الغربية","postcode":"390","country":"Palestinian Territory","country_code":"ps"},"population":8796,"osm_type":"node","osm_id":256724756,"type":"town","location":[35.1815442,32.0851611],"bbox":[35.1415442,32.0451611,35.2215442,32.1251611]}
{"name":"صوريف‎","other_names":{"name:ar":"صوريف‎","name:cs":"Súríf","name:en":"Surif","name:eu":"Surif","name:fr":"Surif","name:he":"סוריף","name:ml":"സൂറീഫ്","name:uk":"Суріф","name:ur":"صوریف"},"display_name":"صوريف‎, منطقة ب, الضفة الغربية, P748, Palestinian Territory","address":{"town":"صوريف‎","county":"منطقة ب","region":"الضفة الغربية","postcode":"P748","country":"Palestinian Territory","country_code":"ps"},"population":25463,"osm_type":"node","osm_id":332951399,"type":"town","location":[35.0641131,31.6504009],"bbox":[35.0241131,31.6104009,35.1041131,31.6904009],"border":{"name":"Sourif City","other_names":{"name:ar":"صوريف","name:en":"Surif","name:uk":"Суріф","name:ur":"صوریف"},"display_name":"Sourif City, منطقة ب, الضفة الغربية, P748, Palestinian Territory","address":{"town":"Sourif City","county":"منطقة ب","region":"الضفة الغربية","postcode":"P748","country":"Palestinian Territory","country_code":"ps"},"osm_type":"way","osm_id":426552237,"type":"town","location":[35.04900405160944,31.6463008],"bbox":[35.0067104,31.6158672,35.1009269,31.677047]}}
{"name":"طمّون‎","other_names":{"name:en":"Tammun","name:fr":"Tammun","name:he":"טמון","name:ml":"തമ്മൂൺ"},"display_name":"طمّون‎, منطقة أ, الضفة الغربية, Palestinian Territory","address":{"town":"طمّون‎","county":"منطقة أ","region":"الضفة الغربية","country":"Palestinian Territory","country_code":"ps"},"population":13117,"osm_type":"node","osm_id":332967617,"type":"town","location":[35.384776,32.28275],"bbox":[35.344776,32.24275,35.424776,32.32275]}
{"name":"طوباس","other_names":{"name:ar":"طوباس","name:bn":"তুবাস","name:en":"Tubas","name:es":"Tubas","name:eu":"Tubas","name:fi":"Tubas","name:fr":"Tubas","name:he":"טובאס","name:hi":"टुबास","name:ml":"തൂബാസ്","name:ru":"Тубас","name:ur":"طوباس"},"display_name":"طوباس, منطقة أ, الضفة الغربية, Palestinian Territory","address":{"town":"طوباس","county":"منطقة أ","region":"الضفة الغربية","country":"Palestinian Territory","country_code":"ps"},"population":21431,"osm_type":"node","osm_id":332784789,"type":"town","location":[35.3689104,32.3210552],"bbox":[35.3289104,32.2810552,35.4089104,32.3610552]}
{"name":"طولكرم","other_names":{"name:ar":"طولكرم","name:en":"Tulkarm","name:es":"Tulcarem","name:eu":"Tulkarem","name:fi":"Tulkarem","name:fr":"Tulkarem","name:he":"טולכרם","name:hi":"टुलकरम","name:ml":"തൂൽക്കറെം","name:ru":"Тулькарм","name:uk":"Тулькарм","name:ur":"طولکرم","alt_name:he":"טול כרם"},"display_name":"طولكرم, منطقة أ, الضفة الغربية, 302, Palestinian Territory","address":{"town":"طولكرم","county":"منطقة أ","region":"الضفة الغربية","postcode":"302","country":"Palestinian Territory","country_code":"ps"},"population":64532,"osm_type":"node","osm_id":2418943009,"type":"town","location":[35.0275505,32.3111468],"bbox":[34.9875505,32.2711468,35.0675505,32.3511468]}
{"name":"عبسان الكبيرة","other_names":{"name:ar":"عبسان الكبيرة","name:de":"Abasan al-Kabira","name:en":"Abasan al-Kabira","name:es":"Abasan al-Kabira","name:eu":"Abasan al-Kabira","name:fr":"Abasan al-Kabera","name:he":"עבאסן אל-כבירה","name:hr":"Abasan al-Kabira","name:ko":"아바산 알 카비라","name:ml":"അബസാൻ അൽ-കബീറ","name:pl":"Abasan al-Kabira","name:zh":"阿巴桑凯比拉","name:zh-Hans":"阿巴桑凯比拉","name:zh-Hant":"阿巴桑凱比拉"},"display_name":"عبسان الكبيرة, محافظة خان يونس, قطاع غزة, Palestinian Territory","address":{"town":"عبسان الكبيرة","state_district":"محافظة خان يونس","ISO3166-2-lvl5":"PS-KYS","region":"قطاع غزة","country":"Palestinian Territory","country_code":"ps"},"population":19000,"osm_type":"node","osm_id":326040099,"type":"town","location":[34.3497101,31.3238491],"bbox":[34.3097101,31.2838491,34.3897101,31.3638491],"border":{"name":"عبسان الكبيرة","other_names":{"name:ar":"عبسان الكبيرة","name:en":"Abasan al-Kabira","name:fr":"Abasan al-Kabera","name:he":"עבאסן אל-כבירה","name:de":"Abasan al-Kabira","name:es":"Abasan al-Kabira","name:eu":"Abasan al-Kabira","name:hr":"Abasan al-Kabira","name:ko":"아바산 알 카비라","name:ml":"അബസാൻ അൽ-കബീറ","name:pl":"Abasan al-Kabira","name:zh":"阿巴桑凯比拉","name:zh-Hans":"阿巴桑凯比拉","name:zh-Hant":"阿巴桑凱比拉"},"display_name":"عبسان الكبيرة, محافظة خان يونس, قطاع غزة, Palestinian Territory","address":{"town":"عبسان الكبيرة","state_district":"محافظة خان يونس","ISO3166-2-lvl5":"PS-KYS","region":"قطاع غزة","country":"Palestinian Territory","country_code":"ps"},"population":19000,"osm_type":"relation","osm_id":10523733,"type":"administrative","location":[34.3497101,31.3238491],"bbox":[34.324898,31.2935462,34.3705105,31.3375632]}}
{"name":"عتيل","other_names":{"name:ar":"عتيل","name:en":"Atil","name:fr":"Attil","name:he":"עתיל","name:ml":"അത്തീല്‍"},"display_name":"عتيل, منطقة ب, الضفة الغربية, 113, Palestinian Territory","address":{"town":"عتيل","county":"منطقة ب","region":"الضفة الغربية","postcode":"113","country":"Palestinian Territory","country_code":"ps"},"population":10367,"osm_type":"node","osm_id":332786254,"type":"town","location":[35.0718459,32.3696753],"bbox":[35.0318459,32.3296753,35.1118459,32.4096753]}
{"name":"عجّه‎","other_names":{"name:ar":"عجّه‎","name:en":"Ajjah","name:fr":"Ajjah","name:he":"עג'ה","name:ml":"അജ്ജ"},"display_name":"عجّه‎, منطقة أ, الضفة الغربية, 072, Palestinian Territory","address":{"town":"عجّه‎","county":"منطقة أ","region":"الضفة الغربية","postcode":"072","country":"Palestinian Territory","country_code":"ps"},"population":6162,"osm_type":"node","osm_id":332964523,"type":"town","location":[35.1955864,32.3615245],"bbox":[35.1555864,32.3215245,35.2355864,32.4015245]}
{"name":"عرابة","other_names":{"name:ar":"عرابة","name:bn":"আরাবাহ","name:en":"Arabah","name:fr":"Arraba","name:he":"עראבה","name:ml":"അറാബ"},"display_name":"عرابة, منطقة أ, الضفة الغربية, Palestinian Territory","address":{"town":"عرابة","county":"منطقة أ","region":"الضفة الغربية","country":"Palestinian Territory","country_code":"ps"},"population":11479,"osm_type":"node","osm_id":332785606,"type":"town","location":[35.2033385,32.4046105],"bbox":[35.1633385,32.3646105,35.2433385,32.4446105]}
{"name":"عزون","other_names":{"name:en":"Azzoun","name:fr":"Azzun","name:he":"עזון","name:ml":"അസ്സൂൺ"},"display_name":"عزون, منطقة ب, الضفة الغربية, Palestinian Territory","address":{"town":"عزون","county":"منطقة ب","region":"الضفة الغربية","country":"Palestinian Territory","country_code":"ps"},"osm_type":"node","osm_id":332783029,"type":"town","location":[35.0587996,32.176063],"bbox":[35.0187996,32.136063,35.0987996,32.216063]}
{"name":"عصيره الشماليّه","other_names":{"name:ar":"عصيره الشماليّه","name:en":"Asira ash-Shamaliya","name:fr":"Asira ash-Shamaliya","name:he":"עסירה א-שמאליה","name:ml":"അസീറ അഷ്-ഷാമാലിയ"},"display_name":"عصيره الشماليّه, منطقة ب, الضفة الغربية, Palestinian Territory","address":{"town":"عصيره الشماليّه","county":"منطقة ب","region":"الضفة الغربية","country":"Palestinian Territory","country_code":"ps"},"population":8813,"osm_type":"node","osm_id":332792378,"type":"town","location":[35.2673868,32.2515112],"bbox":[35.2273868,32.2115112,35.3073868,32.2915112]}
{"name":"عقابة","other_names":{"name:ar":"عقابة","name:en":"Aqaba","name:fr":"Aqqaba","name:he":"עקאבה","name:ml":"അഖാബ"},"display_name":"عقابة, منطقة أ, الضفة الغربية, Palestinian Territory","address":{"town":"عقابة","county":"منطقة أ","region":"الضفة الغربية","country":"Palestinian Territory","country_code":"ps"},"population":8239,"osm_type":"node","osm_id":332784794,"type":"town","location":[35.3497657,32.35068],"bbox":[35.3097657,32.31068,35.3897657,32.39068]}
{"name":"عقربا","other_names":{"name:ar":"عقربا","name:en":"Aqraba","name:fr":"Aqraba","name:he":"עקרבה","name:ml":"അഖ്റബ"},"display_name":"عقربا, منطقة ب, الضفة الغربية, Palestinian Territory","address":{"town":"عقربا","county":"منطقة ب","region":"الضفة الغربية","country":"Palestinian Territory","country_code":"ps"},"population":10024,"osm_type":"node","osm_id":332778771,"type":"town","location":[35.3438171,32.1269871],"bbox":[35.3038171,32.0869871,35.3838171,32.1669871]}
{"name":"عناتا‎","other_names":{"name:ar":"عناتا‎","name:en":"'Anata","name:fr":"Anata","name:he":"ענאתא","name:ml":"അനാത്ത","alt_name:en":"Anata"},"display_name":"عناتا‎, שטח C, יהודה ושומרון, Palestinian Territory","address":{"town":"عناتا‎","county":"שטח C","state":"יהודה ושומרון","country":"Palestinian Territory","country_code":"ps"},"population":16919,"osm_type":"node","osm_id":334466446,"type":"town","location":[35.2573042,31.8082981],"bbox":[35.2173042,31.7682981,35.2973042,31.8482981]}
{"name":"قباطية‎","other_names":{"name:ar":"قباطية‎","name:en":"Qabatiya","name:fr":"Qabatiya","name:he":"קבטייה","name:ml":"ഖബാത്തിയ"},"display_name":"قباطية‎, منطقة أ, الضفة الغربية, 971, Palestinian Territory","address":{"town":"قباطية‎","county":"منطقة أ","region":"الضفة الغربية","postcode":"971","country":"Palestinian Territory","country_code":"ps"},"population":24439,"osm_type":"node","osm_id":332784946,"type":"town","location":[35.2800574,32.4095293],"bbox":[35.2400574,32.3695293,35.3200574,32.4495293]}
{"name":"قطنّه‎","other_names":{"name:ar":"قطنّه‎","name:cs":"Katanna","name:en":"Qatanna","name:fr":"Qatanna","name:he":"קטנה"},"display_name":"قطنّه‎, منطقة ب, الضفة الغربية, Palestinian Territory","address":{"town":"قطنّه‎","county":"منطقة ب","region":"الضفة الغربية","country":"Palestinian Territory","country_code":"ps"},"population":6981,"osm_type":"node","osm_id":332795287,"type":"town","location":[35.1251755,31.8370193],"bbox":[35.0851755,31.7970193,35.1651755,31.8770193]}
{"name":"قفين","other_names":{"name:en":"Qaffin","name:fr":"Qaffin","name:he":"קפין","name:ml":"ഖഫിൻ"},"display_name":"قفين, منطقة ب, الضفة الغربية, Palestinian Territory","address":{"town":"قفين","county":"منطقة ب","region":"الضفة الغربية","country":"Palestinian Territory","country_code":"ps"},"population":10690,"osm_type":"node","osm_id":332786314,"type":"town","location":[35.0834888,32.4335649],"bbox":[35.0434888,32.3935649,35.1234888,32.4735649]}
{"name":"قلقيلية","other_names":{"name:ar":"قلقيلية","name:en":"Qalqilya","name:es":"Calquelia","name:eu":"Qalqiliya","name:fr":"Qalqilya","name:he":"קלקיליה","name:ja":"カルキリヤ","name:ml":"ഖൽഖിലിയ","name:ru":"Калькилия","name:uk":"Калькілія","name:ur":"قلقیلیہ"},"display_name":"قلقيلية, Qalqilya, منطقة أ, الضفة الغربية, 342, Palestinian Territory","address":{"town":"قلقيلية","county":"منطقة أ","region":"الضفة الغربية","postcode":"342","country":"Palestinian Territory","country_code":"ps"},"osm_type":"node","osm_id":1567046521,"type":"town","location":[34.9679208,32.1881333],"bbox":[34.9279208,32.1481333,35.0079208,32.2281333]}
{"name":"مخيم بلاطة","other_names":{"name:en":"Balata RC","name:fr":"Balata","name:he":"מ.פ. בלטה","name:ml":"ബലാത്ത","official_name:he":"מחנה פליטים בלטה"},"display_name":"مخيم بلاطة, منطقة أ, الضفة الغربية, 803, Palestinian Territory","address":{"town":"مخيم بلاطة","county":"منطقة أ","region":"الضفة الغربية","postcode":"803","country":"Palestinian Territory","country_code":"ps"},"population":14635,"osm_type":"node","osm_id":334200011,"type":"town","location":[35.2864958,32.2054798],"bbox":[35.2464958,32.1654798,35.3264958,32.2454798]}
{"name":"مخيم جنين","other_names":{"name:ar":"مخيم جنين","name:en":"Jenin Refugee Camp","name:fr":"Camp de Jénine","name:he":"מ.פ. ג'נין","official_name:he":"מחנה פליטים ג'נין"},"display_name":"مخيم جنين, منطقة أ, الضفة الغربية, 202, Palestinian Territory","address":{"town":"مخيم جنين","county":"منطقة أ","region":"الضفة الغربية","postcode":"202","country":"Palestinian Territory","country_code":"ps"},"population":10417,"osm_type":"node","osm_id":8261267460,"type":"town","location":[35.2881918,32.460533],"bbox":[35.2481918,32.420533,35.3281918,32.500533]}
{"name":"مخيم قلنديا","other_names":{"name:ar":"مخيم قلنديا","name:en":"Qalandiya Refugee Camp","name:fr":"Kalandia Camp","name:he":"מ.פ. קלנדיה","name:ml":"ഖലന്ദിയ ക്യാമ്പ്","alt_name:ar":"مخيّم قلنديا","short_name:ar":"قلنديا"},"display_name":"مخيم قلنديا, שטח C, יהודה ושומרון, 611, Palestinian Territory","address":{"town":"مخيم قلنديا","county":"שטח C","state":"יהודה ושומרון","postcode":"611","country":"Palestinian Territory","country_code":"ps"},"population":8336,"osm_type":"node","osm_id":8239864764,"type":"town","location":[35.2270457,31.8705269],"bbox":[35.1870457,31.8305269,35.2670457,31.9105269]}
{"display_name":"منطقة أ, الضفة الغربية, Palestinian Territory","address":{"county":"منطقة أ","region":"الضفة الغربية","country":"Palestinian Territory","country_code":"ps"},"osm_type":"way","osm_id":265587437,"type":"town","location":[35.25570098301239,32.480914999999996],"bbox":[35.2480522,32.4743393,35.2607619,32.4876439]}
{"display_name":"منطقة أ, الضفة الغربية, Palestinian Territory","address":{"county":"منطقة أ","region":"الضفة الغربية","country":"Palestinian Territory","country_code":"ps"},"osm_type":"way","osm_id":265587435,"type":"town","location":[35.23143143154745,32.48994145],"bbox":[35.2204154,32.4760483,35.2476589,32.50408]}
{"name":"نابلس","other_names":{"name:ar":"نابلس","name:az":"Nablus","name:be":"Наблус","name:bg":"Наблус","name:ca":"Nablus","name:ce":"Наблус","name:cs":"Náblus","name:cy":"Nablus","name:da":"Nablus","name:de":"Nablus","name:el":"Ναμπλούς","name:en":"Nablus","name:eo":"Nablus","name:es":"Nablus","name:et":"Nablus","name:eu":"Nablus","name:fa":"نابلس","name:fi":"Sikkem","name:fr":"Naplouse","name:gl":"Nablus","name:he":"שכם","name:hi":"शेखेम","name:hr":"Nablus","name:hu":"Náblusz","name:hy":"Նաբլուս","name:id":"Nablus","name:it":"Nablus","name:ja":"ナーブルス","name:jv":"Nablus","name:kl":"Nablus","name:ko":"나블루스","name:ks":"نابلس","name:la":"Flavia Neapolis","name:lt":"Nablusas","name:ml":"നാബ്ലുസ്","name:ms":"Nablus","name:nb":"Nablus","name:nl":"Nablus","name:nn":"Nablus","name:os":"Наблус","name:pl":"Nablus","name:pt":"Nablus","name:ro":"Nablus","name:ru":"Наблус","name:sk":"Náblus","name:sr":"Наблус","name:sv":"Nablus","name:tr":"Nablus","name:uk":"Наблус","name:ur":"نابلس","name:vi":"Nablus","name:yi":"שכם","name:zh":"納布盧斯","alt_name":"Shechem","name:ota":"نابلس","name:pnb":"نابلس","alt_name:ru":"Сихем","official_name":"مدينة نابلس","official_name:ar":"مدينة نابلس"},"display_name":"نابلس, منطقة أ, الضفة الغربية, 803, Palestinian Territory","address":{"town":"نابلس","county":"منطقة أ","region":"الضفة الغربية","postcode":"803","country":"Palestinian Territory","country_code":"ps"},"population":156906,"osm_type":"node","osm_id":293546203,"type":"town","location":[35.2569374,32.2205316],"bbox":[35.2169374,32.1805316,35.2969374,32.2605316],"border":{"name":"نابلس","other_names":{"name:ar":"نابلس","name:az":"Nablus","name:be":"Наблус","name:bg":"Наблус","name:ca":"Nablus","name:ce":"Наблус","name:cs":"Náblus","name:cy":"Nablus","name:da":"Nablus","name:de":"Nablus","name:el":"Ναμπλούς","name:en":"Nablus","name:eo":"Nablus","name:es":"Naplusa","name:et":"Nablus","name:eu":"Nablus","name:fa":"نابلس","name:fi":"Sikkem","name:fr":"Naplouse","name:gl":"Nablus","name:he":"שכם","name:hi":"शेखेम","name:hr":"Nablus","name:hu":"Náblusz","name:hy":"Նաբլուս","name:id":"Nablus","name:it":"Nablus","name:ja":"ナーブルス","name:jv":"Nablus","name:kl":"Nablus","name:ko":"나블루스","name:ks":"نابلس","name:ku":"Nablûs","name:la":"Flavia Neapolis","name:lt":"Nablusas","name:ms":"Nablus","name:nb":"Nablus","name:nl":"Nablus","name:nn":"Nablus","name:os":"Наблус","name:pl":"Nablus","name:pt":"Nablus","name:ro":"Nablus","name:ru":"Наблус","name:sk":"Náblus","name:sr":"Наблус","name:sv":"Nablus","name:tr":"Nablus","name:uk":"Наблус","name:ur":"نابلس","name:vi":"Nablus","name:yi":"שכם","name:zh":"納布盧斯","alt_name":"Shechem","name:azb":"نابلس","name:pnb":"نابلس","alt_name:ru":"Сихем","name:ml":"നാബ്ലുസ്","name:ota":"نابلس","official_name":"مدينة نابلس","official_name:ar":"مدينة نابلس","alt:es":"Nablus"},"display_name":"نابلس, منطقة أ, الضفة الغربية, Palestinian Territory","address":{"town":"نابلس","county":"منطقة أ","region":"الضفة الغربية","country":"Palestinian Territory","country_code":"ps"},"population":156906,"osm_type":"way","osm_id":265619988,"type":"town","location":[35.2569374,32.2205316],"bbox":[35.2181117,32.2071333,35.2826205,32.2481879]}}
{"name":"يطا","other_names":{"name:ar":"يطا","name:bg":"Ятта","name:ca":"Yatta","name:cs":"Jatta","name:de":"Yatta","name:en":"Yatta","name:es":"Yatta","name:eu":"Yattah","name:fa":"یطا","name:fi":"Jatta","name:fr":"Yatta","name:he":"יטה","name:hi":"यटा","name:hr":"Jata","name:it":"Yatta","name:ks":"یطا","name:lt":"Jata","name:ml":"യത്ത","name:ms":"Yaththa","name:nl":"Yattah","name:nn":"Yatta","name:pl":"Jatta","name:ru":"Ятта","name:sr":"Јата","name:uk":"Ятта","name:ur":"یطا","name:azb":"یطا","name:pnb":"یطا","alt_name:ar":"يطّا‎"},"display_name":"يطا, منطقة أ, الضفة الغربية, 797, Palestinian Territory","address":{"town":"يطا","county":"منطقة أ","region":"الضفة الغربية","postcode":"797","country":"Palestinian Territory","country_code":"ps"},"population":48672,"osm_type":"node","osm_id":332791981,"type":"town","location":[35.0900532,31.445255],"bbox":[35.0500532,31.405255,35.1300532,31.485255]}
{"name":"يعبد","other_names":{"name:ar":"يعبد","name:en":"Ya'bad","name:fr":"Ya'bad","name:he":"יעבד","name:ml":"യാബദ്"},"display_name":"يعبد, منطقة ب, الضفة الغربية, Palestinian Territory","address":{"town":"يعبد","county":"منطقة ب","region":"الضفة الغربية","country":"Palestinian Territory","country_code":"ps"},"population":16012,"osm_type":"node","osm_id":332785035,"type":"town","location":[35.1693494,32.446341],"bbox":[35.1293494,32.406341,35.2093494,32.486341]}
