{"name":"São Tomé","other_names":{"name:am":"ሳን ቶሜ","name:ar":"ساو تومي","name:az":"San Tome","name:be":"Сан-Тамэ","name:bg":"Сао Томе","name:bo":"སའོ་ཊོ་མེ།","name:br":"São Tomé","name:ca":"São Tomé","name:de":"São Tomé","name:el":"Σάο Τομέ","name:en":"São Tomé","name:eo":"Sao-Tomeo","name:es":"Santo Tomé","name:fa":"سائوتومه","name:fr":"Sao Tomé","name:fy":"Sao Tomee","name:gl":"San Tomé","name:he":"סאו טומה","name:hr":"São Tomé","name:ht":"Sao Tome","name:hu":"Sao Tomé","name:hy":"Սան Տոմե","name:io":"Sao Tome","name:is":"São Tomé","name:ja":"サントメ","name:ka":"სან-ტომე","name:ko":"상투메","name:ku":"Sao Tome","name:ky":"Сан-Томе","name:la":"Urbs Sancti Thomae","name:lt":"San Tomė","name:lv":"Santome","name:mk":"Сао Томе","name:ml":"സാവോ ടോം","name:mr":"साओ टोमे","name:nl":"Sao Tomé","name:pl":"São Tomé","name:pt":"São Tomé","name:ro":"São Tomé","name:ru":"Сан-Томе","name:sk":"Svätý Tomáš","name:so":"Sao Tome","name:sr":"Сао Томе","name:sv":"São Tomé","name:sw":"Sao Tome","name:ta":"சாவோ தொமே","name:tg":"Сан-Томе","name:th":"เซาตูเม","name:tl":"San Tomas","name:uk":"Сан-Томе","name:ur":"ساؤ ٹومے","name:zh":"圣多美 / 聖多美","alt_name":"Saint-Thomas","name:bpy":"সাও টোমে","name:ckb":"سائۆتۆمێ","name:grc":"Ἅγιος Θωμᾶς","name:mrj":"Сан-Томе","name:nov":"Sao Tome","name:pap":"Santo Tomé","name:pnb":"ساو ٹومے","name:udm":"Сан-Томе","name:war":"Sao Tome","alt_name:fr":"Saint-Thomas","name:zh-Hans":"圣多美","name:zh-Hant":"聖多美"},"display_name":"São Tomé, Água Grande, São Tomé e Príncipe","address":{"city":"São Tomé","municipality":"São Tomé","county":"Água Grande","ISO3166-2-lvl6":"ST-01","country":"São Tomé e Príncipe","country_code":"st"},"population":53300,"osm_type":"node","osm_id":295342933,"type":"city","location":[6.7313031,0.3389242],"bbox":[6.5713031,0.1789242,6.8913031,0.4989242],"border":{"name":"São Tomé","other_names":{"name:be":"Сан-Тамэ","name:bg":"Сао Томе","name:de":"Sao Tomé","name:fr":"Sao Tomé","name:pt":"São Tomé","name:sk":"Svätý Tomáš","name:sr":"Сао Томе","name:uk":"Сан-Томе","name:ur":"ساؤ ٹومے","name:zh":"圣多美 / 聖多美","alt_name":"Saint-Thomas","name:grc":"Ἅγιος Θωμᾶς","name:udm":"Сан-Томе","alt_name:fr":"Saint-Thomas","name:zh-Hans":"圣多美","name:zh-Hant":"聖多美"},"display_name":"São Tomé, Água Grande, São Tomé e Príncipe","address":{"municipality":"São Tomé","county":"Água Grande","ISO3166-2-lvl6":"ST-01","country":"São Tomé e Príncipe","country_code":"st"},"osm_type":"relation","osm_id":15061368,"type":"administrative","location":[6.710325708935475,0.3504248],"bbox":[6.6958529,0.3131,6.7425508,0.4111676]}}
