{"name":"ހިތަދޫ","other_names":{"name:dv":"ހިތަދޫ","name:en":"Hithadhoo","name:fr":"Hithadhoo","name:ja":"ヒサッドホー"},"display_name":"ހިތަދޫ, އައްޑޫ, 19020, ދިވެހިރާއްޖެ","address":{"town":"ހިތަދޫ","state":"އައްޑޫ","ISO3166-2-lvl4":"MV-01","postcode":"19020","country":"ދިވެހިރާއްޖެ","country_code":"mv"},"population":10398,"osm_type":"node","osm_id":4016221909,"type":"town","location":[73.0879612,-0.6061889],"bbox":[73.0479612,-0.6461889,73.1279612,-0.5661889]}
{"name":"ހުޅުމާލެ","other_names":{"name:cs":"Hulhumale","name:dv":"ހުޅުމާލެ","name:en":"Hulhumalé","name:fr":"Hulhumalé","name:ml":"ഹുലുമാലി","name:ru":"Хулхумале"},"display_name":"ހުޅުމާލެ, މާލެ, ދިވެހިރާއްޖެ","address":{"town":"ހުޅުމާލެ","city":"މާލެ","ISO3166-2-lvl4":"MV-MLE","country":"ދިވެހިރާއްޖެ","country_code":"mv"},"osm_type":"node","osm_id":2334944290,"type":"town","location":[73.5385131,4.2139376],"bbox":[73.4985131,4.1739376,73.5785131,4.2539376],"border":{"name":"ހުޅުމާލެ","other_names":{"name:de":"Hulhumalé","name:dv":"ހުޅުމާލެ","name:en":"Hulhumalé","name:cs":"Hulhumale","name:fr":"Hulhumalé","name:ml":"ഹുലുമാലി","name:ru":"Хулхумале"},"display_name":"ހުޅުމާލެ, މާލެ, ދިވެހިރާއްޖެ","address":{"town":"ހުޅުމާލެ","city":"މާލެ","ISO3166-2-lvl4":"MV-MLE","country":"ދިވެހިރާއްޖެ","country_code":"mv"},"osm_type":"relation","osm_id":13897575,"type":"administrative","location":[73.5385131,4.2139376],"bbox":[73.5250552,4.175249,73.551868,4.2411711]}}
{"name":"ނައިފަރު","other_names":{"name:dv":"ނައިފަރު","name:en":"Naifaru","name:fr":"Naifaru"},"display_name":"ނައިފަރު, ފާދިއްޕޮޅު, 02070, ދިވެހިރާއްޖެ","address":{"town":"ނައިފަރު","state":"ފާދިއްޕޮޅު","ISO3166-2-lvl4":"MV-03","postcode":"02070","country":"ދިވެހިރާއްޖެ","country_code":"mv"},"osm_type":"node","osm_id":4411483369,"type":"town","location":[73.365232,5.4447298],"bbox":[73.325232,5.4047298,73.405232,5.4847298]}
{"name":"ނިލަންދޫ","other_names":{"name:dv":"ނިލަންދޫ","name:en":"Nilandhoo","name:fr":"Nilandhoo"},"display_name":"ނިލަންދޫ, ނިލަންދެއަތޮޅު އުތުރުބުރި, ދިވެހިރާއްޖެ","address":{"town":"ނިލަންދޫ","state":"ނިލަންދެއަތޮޅު އުތުރުބުރި","ISO3166-2-lvl4":"MV-14","country":"ދިވެހިރާއްޖެ","country_code":"mv"},"osm_type":"node","osm_id":4411437538,"type":"town","location":[72.889895,3.0561219],"bbox":[72.849895,3.0161219,72.929895,3.0961219]}
{"name":"ރަސްދޫ","other_names":{"name:dv":"ރަސްދޫ","name:en":"Rasdhoo","name:fr":"Rasdhoo"},"display_name":"ރަސްދޫ, އަރިއަތޮޅު އުތުރުބުރި, ދިވެހިރާއްޖެ","address":{"town":"ރަސްދޫ","state":"އަރިއަތޮޅު އުތުރުބުރި","ISO3166-2-lvl4":"MV-02","country":"ދިވެހިރާއްޖެ","country_code":"mv"},"osm_type":"node","osm_id":4411417041,"type":"town","location":[72.9919981,4.2628232],"bbox":[72.9519981,4.2228232,73.0319981,4.3028232]}
{"name":"ކުޅުދުއްފުށި","other_names":{"name:dv":"ކުޅުދުއްފުށި","name:en":"Kulhudhuffushi","name:fr":"Kulhudhuffushi"},"display_name":"ކުޅުދުއްފުށި, ތިލަދުންމަތީ ދެކުނުބުރި, 02110, ދިވެހިރާއްޖެ","address":{"town":"ކުޅުދުއްފުށި","state":"ތިލަދުންމަތީ ދެކުނުބުރި","ISO3166-2-lvl4":"MV-23","postcode":"02110","country":"ދިވެހިރާއްޖެ","country_code":"mv"},"population":15875,"osm_type":"node","osm_id":4411478480,"type":"town","location":[73.0709428,6.6229329],"bbox":[73.0309428,6.5829329,73.1109428,6.6629329]}
{"name":"ކުޑަހުވަދޫ","other_names":{"name:dv":"ކުޑަހުވަދޫ","name:en":"Kudahuvadhoo","name:fr":"Kudahuvadhoo"},"display_name":"ކުޑަހުވަދޫ, ނިލަންދެއަތޮޅު ދެކުނުބުރި, ދިވެހިރާއްޖެ","address":{"town":"ކުޑަހުވަދޫ","state":"ނިލަންދެއަތޮޅު ދެކުނުބުރި","ISO3166-2-lvl4":"MV-17","country":"ދިވެހިރާއްޖެ","country_code":"mv"},"osm_type":"node","osm_id":4411431929,"type":"town","location":[72.8938459,2.6712087],"bbox":[72.8538459,2.6312087,72.9338459,2.7112087]}
{"name":"އުނގޫފާރު","other_names":{"name:dv":"އުނގޫފާރު","name:en":"Ungoofaaru","name:fr":"Ungoofaaru"},"display_name":"އުނގޫފާރު, މާޅޮސްމަޑުލު އުތުރުބުރި, ދިވެހިރާއްޖެ","address":{"town":"އުނގޫފާރު","state":"މާޅޮސްމަޑުލު އުތުރުބުރި","ISO3166-2-lvl4":"MV-13","country":"ދިވެހިރާއްޖެ","country_code":"mv"},"osm_type":"node","osm_id":4016344378,"type":"town","location":[73.0301724,5.6680631],"bbox":[72.9901724,5.6280631,73.0701724,5.7080631]}
{"name":"އޭދަފުށި","other_names":{"name:dv":"އޭދަފުށި","name:en":"Eydhafushi","name:fr":"Eydhafushi"},"display_name":"އޭދަފުށި, މާޅޮސްމަޑުލު ދެކުނުބުރި, ދިވެހިރާއްޖެ","address":{"town":"އޭދަފުށި","state":"މާޅޮސްމަޑުލު ދެކުނުބުރި","ISO3166-2-lvl4":"MV-20","country":"ދިވެހިރާއްޖެ","country_code":"mv"},"population":2581,"osm_type":"node","osm_id":4017107867,"type":"town","location":[73.0703652,5.1033363],"bbox":[73.0303652,5.0633363,73.1103652,5.1433363]}
{"name":"ވިލިނގިލި","other_names":{"name:dv":"ވިލިނގިލި","name:en":"Villingili","name:fr":"Villingili"},"display_name":"ވިލިނގިލި, ހުވަދުއަތޮޅު އުތުރުބުރި, 16030, ދިވެހިރާއްޖެ","address":{"town":"ވިލިނގިލި","state":"ހުވަދުއަތޮޅު އުތުރުބުރި","ISO3166-2-lvl4":"MV-27","postcode":"16030","country":"ދިވެހިރާއްޖެ","country_code":"mv"},"osm_type":"node","osm_id":4411443276,"type":"town","location":[73.4338993,0.7551045],"bbox":[73.3938993,0.7151045,73.4738993,0.7951045]}
{"name":"ވޭމަންޑޫ","other_names":{"name:dv":"ވޭމަންޑޫ","name:en":"Veymandoo","name:fr":"Veymandoo"},"display_name":"ވޭމަންޑޫ, ކޮޅުމަޑުލު, 14120, ދިވެހިރާއްޖެ","address":{"town":"ވޭމަންޑޫ","state":"ކޮޅުމަޑުލު","ISO3166-2-lvl4":"MV-08","postcode":"14120","country":"ދިވެހިރާއްޖެ","country_code":"mv"},"osm_type":"node","osm_id":2352761730,"type":"town","location":[73.0950817,2.188013],"bbox":[73.0550817,2.148013,73.1350817,2.228013]}
{"name":"މަހިބަދޫ","other_names":{"name:dv":"މަހިބަދޫ","name:en":"Mahibadhoo","name:fr":"Mahibadhoo"},"display_name":"މަހިބަދޫ, އަރިއަތޮޅު ދެކުނުބުރި, 00030, ދިވެހިރާއްޖެ","address":{"town":"މަހިބަދޫ","state":"އަރިއަތޮޅު ދެކުނުބުރި","ISO3166-2-lvl4":"MV-00","postcode":"00030","country":"ދިވެހިރާއްޖެ","country_code":"mv"},"osm_type":"node","osm_id":4411424709,"type":"town","location":[72.9696123,3.7572007],"bbox":[72.9296123,3.7172007,73.0096123,3.7972007]}
{"name":"މަނަދޫ","other_names":{"name:dv":"މަނަދޫ","name:en":"Manadhoo","name:fr":"Manadhoo"},"display_name":"މަނަދޫ, މިލަދުންމަޑުލު ދެކުނުބުރި, 04100, ދިވެހިރާއްޖެ","address":{"town":"މަނަދޫ","state":"މިލަދުންމަޑުލު ދެކުނުބުރި","ISO3166-2-lvl4":"MV-25","postcode":"04100","country":"ދިވެހިރާއްޖެ","country_code":"mv"},"osm_type":"node","osm_id":9554881154,"type":"town","location":[73.4123826,5.7666661],"bbox":[73.3723826,5.7266661,73.4523826,5.8066661]}
{"name":"މަޑިފުށި","other_names":{"name:dv":"މަޑިފުށި","name:en":"Madifushi","name:fr":"Madifushi"},"display_name":"މަޑިފުށި, ކޮޅުމަޑުލު, ދިވެހިރާއްޖެ","address":{"town":"މަޑިފުށި","state":"ކޮޅުމަޑުލު","ISO3166-2-lvl4":"MV-08","country":"ދިވެހިރާއްޖެ","country_code":"mv"},"osm_type":"node","osm_id":11186959448,"type":"town","location":[73.3545971,2.3566697],"bbox":[73.3145971,2.3166697,73.3945971,2.3966697]}
{"name":"މުލި","other_names":{"name:dv":"މުލި","name:en":"Muli","name:fr":"Muli"},"display_name":"މުލި, މުލަކަތޮޅު, 11050, ދިވެހިރާއްޖެ","address":{"town":"މުލި","state":"މުލަކަތޮޅު","ISO3166-2-lvl4":"MV-12","postcode":"11050","country":"ދިވެހިރާއްޖެ","country_code":"mv"},"osm_type":"node","osm_id":4411487502,"type":"town","location":[73.5814986,2.9221163],"bbox":[73.5414986,2.8821163,73.6214986,2.9621163]}
{"name":"ފުނަދޫ","other_names":{"name:dv":"ފުނަދޫ","name:en":"Funadhoo","name:fr":"Funadhoo"},"display_name":"ފުނަދޫ, މިލަދުންމަޑުލު އުތުރުބުރި, ދިވެހިރާއްޖެ","address":{"town":"ފުނަދޫ","state":"މިލަދުންމަޑުލު އުތުރުބުރި","ISO3166-2-lvl4":"MV-24","country":"ދިވެހިރާއްޖެ","country_code":"mv"},"osm_type":"node","osm_id":4411498662,"type":"town","location":[73.2903689,6.1488286],"bbox":[73.2503689,6.1088286,73.3303689,6.1888286]}
{"name":"ފުވައްމުލައް","other_names":{"name:dv":"ފުވައްމުލައް","name:en":"Fuvahmulah","name:fr":"Fuvahmulah"},"display_name":"ފުވައްމުލައް, 18014, ދިވެހިރާއްޖެ","address":{"town":"ފުވައްމުލައް","state":"ފުވައްމުލައް","ISO3166-2-lvl4":"MV-29","postcode":"18014","country":"ދިވެހިރާއްޖެ","country_code":"mv"},"osm_type":"node","osm_id":4411457098,"type":"town","location":[73.4254986,-0.3005253],"bbox":[73.3854986,-0.3405253,73.4654986,-0.2605253]}
{"name":"ފެލިދޫ","other_names":{"name:dv":"ފެލިދޫ","name:en":"Felidhoo","name:fr":"Felidhoo"},"display_name":"ފެލިދޫ, ފެލިދޫ އަތޮޅު, ދިވެހިރާއްޖެ","address":{"town":"ފެލިދޫ","state":"ފެލިދޫ އަތޮޅު","ISO3166-2-lvl4":"MV-04","country":"ދިވެހިރާއްޖެ","country_code":"mv"},"osm_type":"node","osm_id":4868156310,"type":"town","location":[73.5473728,3.4719776],"bbox":[73.5073728,3.4319776,73.5873728,3.5119776]}
{"name":"ފޮނަދޫ","other_names":{"name:dv":"ފޮނަދޫ","name:en":"Fonadhoo","name:fr":"Fonadhoo"},"display_name":"ފޮނަދޫ, ހައްދުންމަތި އަތޮޅު, ދިވެހިރާއްޖެ","address":{"town":"ފޮނަދޫ","state":"ހައްދުންމަތި އަތޮޅު","ISO3166-2-lvl4":"MV-05","country":"ދިވެހިރާއްޖެ","country_code":"mv"},"osm_type":"node","osm_id":4411480841,"type":"town","location":[73.5025558,1.8333203],"bbox":[73.4625558,1.7933203,73.5425558,1.8733203]}
{"name":"ދިއްދޫ","other_names":{"name:dv":"ދިއްދޫ","name:en":"Dhidhdhoo","name:fr":"Dhidhdhoo"},"display_name":"ދިއްދޫ, ތިލަދުންމަތީ އުތުރުބުރި, ދިވެހިރާއްޖެ","address":{"town":"ދިއްދޫ","state":"ތިލަދުންމަތީ އުތުރުބުރި","ISO3166-2-lvl4":"MV-07","country":"ދިވެހިރާއްޖެ","country_code":"mv"},"osm_type":"node","osm_id":4411472197,"type":"town","location":[73.1133538,6.889046],"bbox":[73.0733538,6.849046,73.1533538,6.929046]}
{"name":"ތިނަދޫ","other_names":{"name:dv":"ތިނަދޫ","name:en":"Thinadhoo","name:fr":"Thinadhoo"},"display_name":"ތިނަދޫ, ހުވަދުއަތޮޅު ދެކުނުބުރި, ދިވެހިރާއްޖެ","address":{"town":"ތިނަދޫ","state":"ހުވަދުއަތޮޅު ދެކުނުބުރި","ISO3166-2-lvl4":"MV-28","country":"ދިވެހިރާއްޖެ","country_code":"mv"},"osm_type":"node","osm_id":9554881153,"type":"town","location":[72.9965866,0.530351],"bbox":[72.9565866,0.490351,73.0365866,0.570351]}
{"name":"ތިމަރަފުށި","other_names":{"name:dv":"ތިމަރަފުށި","name:en":"Thimarafushi","name:fr":"Thimarafushi"},"display_name":"ތިމަރަފުށި, ކޮޅުމަޑުލު, ދިވެހިރާއްޖެ","address":{"town":"ތިމަރަފުށި","state":"ކޮޅުމަޑުލު","ISO3166-2-lvl4":"MV-08","country":"ދިވެހިރާއްޖެ","country_code":"mv"},"population":3000,"osm_type":"node","osm_id":7400563079,"type":"town","location":[73.142812,2.2061554],"bbox":[73.102812,2.1661554,73.182812,2.2461554]}
{"name":"ތުލުސްދޫ","other_names":{"name:dv":"ތުލުސްދޫ","name:en":"Thulusdhoo","name:fr":"Thulusdhoo"},"display_name":"ތުލުސްދޫ, މާލެ އަތޮޅު, 08040, ދިވެހިރާއްޖެ","address":{"town":"ތުލުސްދޫ","state":"މާލެ އަތޮޅު","ISO3166-2-lvl4":"MV-26","postcode":"08040","country":"ދިވެހިރާއްޖެ","country_code":"mv"},"osm_type":"node","osm_id":4868156311,"type":"town","location":[73.6519073,4.3748502],"bbox":[73.6119073,4.3348502,73.6919073,4.4148502]}
