{"name":"ހުޅުމީދޫ","other_names":{"name:dv":"ހުޅުމީދޫ","name:en":"Hulhumeedhoo"},"display_name":"ހުޅުމީދޫ, އައްޑޫ, 19060, ދިވެހިރާއްޖެ","address":{"city":"ހުޅުމީދޫ","state":"އައްޑޫ","ISO3166-2-lvl4":"MV-01","postcode":"19060","country":"ދިވެހިރާއްޖެ","country_code":"mv"},"osm_type":"way","osm_id":966349608,"type":"administrative","location":[73.2243243624101,-0.5937439],"bbox":[73.2093482,-0.6090102,73.2404262,-0.5786278],"inferred_type":"city"}
{"name":"މާލެ","other_names":{"name:be":"Мале","name:ca":"Malé","name:cs":"Male","name:de":"Malé","name:dv":"މާލެ","name:en":"Malé","name:et":"Male","name:fr":"Malé","name:hi":"माले","name:hr":"Malé","name:hu":"Malé","name:it":"Male","name:ml":"മാലി","name:mr":"मले","name:nl":"Malé","name:oc":"Male","name:pl":"Male","name:ru":"Мале","name:sv":"Malé","name:ta":"மாலே","name:uk":"Мале","name:zh":"马累","name:kab":"Male"},"display_name":"މާލެ, ދިވެހިރާއްޖެ","address":{"city":"މާލެ","ISO3166-2-lvl4":"MV-MLE","country":"ދިވެހިރާއްޖެ","country_code":"mv"},"population":103693,"osm_type":"node","osm_id":3385374395,"type":"city","location":[73.5107387,4.1779879],"bbox":[73.3507387,4.0179879,73.6707387,4.3379879],"border":{"name":"މާލެ","other_names":{"name:de":"Malé","name:dv":"މާލެ","name:en":"Malé","name:fr":"Malé","name:ru":"Мале","ISO3166-2":"MV-MLE","official_name":"Malé City","name:be":"Мале","name:ca":"Malé","name:cs":"Male","name:et":"Male","name:hi":"माले","name:hr":"Malé","name:hu":"Malé","name:it":"Male","name:ml":"മാലി","name:mr":"मले","name:nl":"Malé","name:oc":"Male","name:pl":"Male","name:sv":"Malé","name:ta":"மாலே","name:uk":"Мале","name:zh":"马累","name:kab":"Male"},"display_name":"މާލެ, ދިވެހިރާއްޖެ","address":{"city":"މާލެ","ISO3166-2-lvl4":"MV-MLE","country":"ދިވެހިރާއްޖެ","country_code":"mv"},"population":103693,"osm_type":"relation","osm_id":6599336,"type":"administrative","location":[73.5107387,4.1779879],"bbox":[73.4545947,4.1683039,73.551868,4.2411711]}}
