{"name":"Arusha","other_names":{"name:de":"Arusha","name:en":"Arusha","name:hu":"Arusha","name:ko":"아루샤","name:lt":"Aruša","name:ru":"Аруша","name:uk":"Аруша","name:zh":"阿鲁沙"},"display_name":"Arusha, Arusha Municipal, Arusha, Northern Zone, 23103, Tanzania","address":{"city":"Arusha","state_district":"Arusha Municipal","state":"Arusha","ISO3166-2-lvl4":"TZ-01","region":"Northern Zone","postcode":"23103","country":"Tanzania","country_code":"tz"},"population":617631,"osm_type":"node","osm_id":255603098,"type":"city","location":[36.6880794,-3.3696827],"bbox":[36.5280794,-3.5296827,36.8480794,-3.2096827]}
{"name":"Bariadi","other_names":{"name:ru":"Бариади","name:uk":"Баріаді"},"display_name":"Bariadi, Bariadi Town, Simiyu, Lake Zone, Tanzania","address":{"city":"Bariadi","state":"Simiyu","ISO3166-2-lvl4":"TZ-30","region":"Lake Zone","country":"Tanzania","country_code":"tz"},"population":260927,"osm_type":"node","osm_id":258511419,"type":"city","location":[33.9869932,-2.8035487],"bbox":[33.8269932,-2.9635487,34.1469932,-2.6435487],"border":{"name":"Bariadi Town","other_names":{"ref":"6","name:ru":"Бариади","name:uk":"Баріаді","alt":"Bariadi"},"display_name":"Bariadi Town, Simiyu, Lake Zone, Tanzania","address":{"city":"Bariadi Town","state":"Simiyu","ISO3166-2-lvl4":"TZ-30","region":"Lake Zone","country":"Tanzania","country_code":"tz"},"population":260927,"osm_type":"relation","osm_id":13015693,"type":"administrative","location":[33.9869932,-2.8035487],"bbox":[33.833699,-2.9976016,34.1393769,-2.539673]}}
{"name":"Bukoba","other_names":{"name:ko":"부코바","name:lt":"Bukoba","name:ru":"Букоба","name:uk":"Букоба"},"display_name":"Bukoba, Kagera, Lake Zone, 35101, Tanzania","address":{"city":"Bukoba","state_district":"Bukoba","state":"Kagera","ISO3166-2-lvl4":"TZ-05","region":"Lake Zone","postcode":"35101","country":"Tanzania","country_code":"tz"},"population":144938,"osm_type":"node","osm_id":258165920,"type":"city","location":[31.8125605,-1.3311508],"bbox":[31.6525605,-1.4911508,31.9725605,-1.1711508]}
{"name":"Bunda","display_name":"Bunda, Bunda Town, Mara, Lake Zone, Tanzania","address":{"city":"Bunda","state_district":"Bunda Town","state":"Mara","ISO3166-2-lvl4":"TZ-13","region":"Lake Zone","country":"Tanzania","country_code":"tz"},"population":182970,"osm_type":"node","osm_id":258170602,"type":"city","location":[33.8719347,-2.0232321],"bbox":[33.7119347,-2.1832321,34.0319347,-1.8632321]}
{"name":"Dar es-Salaam","other_names":{"name:af":"Dar-es-Salaam","name:am":"ዳር ኤስ ሳላም","name:an":"Dar es Salaam","name:ar":"دار السلام","name:az":"Dar-əs-Salam","name:ba":"Дар-әс-Сәләм","name:be":"Дар-эс-Салам","name:bg":"Дар ес-Салаам","name:bn":"দারুস সালাম","name:bo":"ཏ་རེ་སི་ས་ལམ།","name:br":"Dar es Salaam","name:bs":"Dar es Salaam","name:ca":"Dar es Salaam","name:ce":"Дар-эс-Салам","name:cs":"Dar es Salaam","name:cy":"Dar es Salaam","name:da":"Dar es-Salaam","name:de":"Daressalam","name:el":"Νταρ ες Σαλάμ","name:en":"Dar es-Salaam","name:eo":"Daresalamo","name:es":"Dar es-Salaam","name:et":"Dar es Salaam","name:eu":"Dar es Salaam","name:fa":"دارالسلام","name:fi":"Dar es Salaam","name:fo":"Dar es Salaam","name:fr":"Dar es Salam","name:fy":"Dar es Salaam","name:ga":"Dárasalám","name:gd":"Dar es Salaam","name:gl":"Dar es Salaam","name:ha":"Dar es Salaam","name:he":"דאר א-סלאם","name:hi":"दार अस सलाम","name:hr":"Dar es Salaam","name:hy":"Դար-էս-Սալամ","name:ia":"Dar es Salaam","name:id":"Darussalam","name:ie":"Daressalaam","name:io":"Dar-es-Salaam","name:is":"Dar es Salaam","name:it":"Dar es Salaam","name:ja":"ダルエスサラーム","name:jv":"Dar es Salaam","name:ka":"დარ-ეს-სალამი","name:kn":"ದಾರ್ ಅಸ್ ಸಲಾಮ್","name:ko":"다르에스살람","name:ku":"Dar es Salaam","name:kw":"Dar es Salaam","name:ky":"Дар-эс-Салам","name:la":"Dar es Salaam","name:lb":"Dar es Salaam","name:lt":"Dar es Salamas","name:lv":"Dāresalāma","name:mg":"Dar es Salam","name:mi":"Dar es Salaam","name:mk":"Дар ес Салам","name:ml":"ദാർ എസ് സലാം","name:mr":"दार एस सलाम","name:ms":"Dar es Salaam","name:my":"ဒါအက်စ် ဆယ်လန်းမြို့","name:nb":"Dar-es-Salaam","name:nl":"Dar es Salaam","name:nn":"Dar-es-Salaam","name:no":"Dar-es-Salaam","name:nv":"Hózhǫ́ǫ́jí Kin Haalʼá","name:oc":"Dar es Salaam","name:os":"Дар-эс-Салам","name:pa":"ਦਾਰ ਅਸ ਸਲਾਮ","name:pl":"Dar es Salaam","name:ps":"دارالسلام","name:pt":"Dar es Salaam","name:qu":"Dar es Salaam","name:ro":"Dar es Salaam","name:ru":"Дар-эс-Салам","name:sd":"دارالسلام","name:sk":"Dar es Salaam","name:sl":"Dar es Salaam","name:sn":"Dar es Salaam","name:so":"Dar es Salaam","name:sr":"Дар ес Салам","name:sv":"Dar es-Salaam","name:sw":"Dar es Salaam","name:ta":"தாருசலாம்","name:th":"ดาร์-เอส-ซาลาม","name:tl":"Dar es Salaam","name:tr":"Darüsselam","name:ug":"دارېسسالام","name:uk":"Дар-ес-Салам","name:ur":"دارالسلام","name:uz":"Dorussalom","name:vi":"Dar es Salaam","name:yi":"דאר עס סאלאאם","name:yo":"Dar es Salaam","name:zh":"达累斯萨拉姆","name:zu":"Dar es Salaam","alt_name":"Dar Es Salam","old_name":"Mzizima","alt_name:cs":"Dár es Salám","name:zh-Hans":"达累斯萨拉姆","name:zh-Hant":"達累斯薩拉姆"},"display_name":"Dar es-Salaam, Coastal Zone, Tanzania","address":{"city":"Dar es-Salaam","ISO3166-2-lvl4":"TZ-02","region":"Coastal Zone","country":"Tanzania","country_code":"tz"},"population":5383728,"osm_type":"node","osm_id":27565027,"type":"city","location":[39.2803583,-6.8160837],"bbox":[39.1203583,-6.9760837,39.4403583,-6.6560837],"border":{"name":"Dar es-Salaam","other_names":{"name:ar":"دار السلام","name:az":"Dar-əs-Salam","name:bg":"Дар ес-Салаам","name:ca":"Dar es-Salaam","name:cs":"Dar es-Salaam","name:da":"Dar es-Salaam","name:de":"Daressalam","name:el":"Νταρ ες Σαλάμ","name:en":"Dar es-Salaam","name:es":"Dar es-Salaam","name:fa":"استان دارالسلام","name:fi":"Dar es-Salaam","name:fr":"Dar es-Salam","name:gl":"Dar es-Salaam","name:he":"דאר א-סלאם","name:hi":"दार अस सलाम","name:hr":"Dar es Salaam","name:it":"Dar es-Salaam","name:ja":"ダルエスサラーム","name:ka":"დარ-ეს-სალამის ოლქი","name:kn":"ದಾರ್ ಅಸ್ ಸಲಾಮ್","name:ko":"다르에스살람","name:lt":"Dar es-Salamas","name:mk":"Дар ес-Салам","name:nl":"Dar es-Salaam","name:no":"Dar es-Salaam","name:pl":"Dar es-Salaam","name:pt":"Dar es-Salaam","name:ro":"Dar es-Salaam","name:ru":"Дар-эс-Салам","name:sl":"Dar es Salaam","name:sr":"Дар ес-Салам","name:sw":"Dar es-Salaam","name:tg":"Вилояти Доруссалом","name:uk":"Дар ес-Салам","name:ur":"دارالسلام علاقہ","name:vi":"Dar es-Salaam","name:yo":"Dar es-Salaam","name:zh":"达累斯萨拉姆","name:avk":"TanzaniaDarEsSalaamGola","name:ceb":"Dar es-Salaam","name:pnb":"داراسلام","ISO3166-2":"TZ-02","alt_name:ar":"إقليم دار السلام","alt_name:cs":"Dár es-Salám","alt_name:el":"Περιφέρεια Νταρ ες Σαλαάμ","alt_name:ja":"ダルエスサラーム州","alt_name:ko":"다르에스살람주","alt_name:zh":"达累斯萨拉姆区","name:zh-Hans":"达累斯萨拉姆","name:zh-Hant":"達累斯薩拉姆","name:af":"Dar-es-Salaam","name:am":"ዳር ኤስ ሳላም","name:an":"Dar es Salaam","name:ba":"Дар-әс-Сәләм","name:be":"Дар-эс-Салам","name:bn":"দারুস সালাম","name:bo":"ཏ་རེ་སི་ས་ལམ།","name:br":"Dar es Salaam","name:bs":"Dar es Salaam","name:ce":"Дар-эс-Салам","name:cy":"Dar es Salaam","name:eo":"Daresalamo","name:et":"Dar es Salaam","name:eu":"Dar es Salaam","name:fo":"Dar es Salaam","name:fy":"Dar es Salaam","name:ga":"Dárasalám","name:gd":"Dar es Salaam","name:ha":"Dar es Salaam","name:hy":"Դար-էս-Սալամ","name:ia":"Dar es Salaam","name:id":"Darussalam","name:ie":"Daressalaam","name:io":"Dar-es-Salaam","name:is":"Dar es Salaam","name:jv":"Dar es Salaam","name:ku":"Dar es Salaam","name:kw":"Dar es Salaam","name:ky":"Дар-эс-Салам","name:la":"Dar es Salaam","name:lb":"Dar es Salaam","name:lv":"Dāresalāma","name:mg":"Dar es Salam","name:mi":"Dar es Salaam","name:ml":"ദാർ എസ് സലാം","name:mr":"दार एस सलाम","name:ms":"Dar es Salaam","name:my":"ဒါအက်စ် ဆယ်လန်းမြို့","name:nb":"Dar-es-Salaam","name:nn":"Dar-es-Salaam","name:nv":"Hózhǫ́ǫ́jí Kin Haalʼá","name:oc":"Dar es Salaam","name:os":"Дар-эс-Салам","name:pa":"ਦਾਰ ਅਸ ਸਲਾਮ","name:ps":"دارالسلام","name:qu":"Dar es Salaam","name:sd":"دارالسلام","name:sk":"Dar es Salaam","name:sn":"Dar es Salaam","name:so":"Dar es Salaam","name:sv":"Dar es-Salaam","name:ta":"தாருசலாம்","name:th":"ดาร์-เอส-ซาลาม","name:tl":"Dar es Salaam","name:tr":"Darüsselam","name:ug":"دارېسسالام","name:uz":"Dorussalom","name:yi":"דאר עס סאלאאם","name:zu":"Dar es Salaam","alt_name":"Dar Es Salam","old_name":"Mzizima","alt_name:zh-Hans":"达累斯萨拉姆区","alt_name:zh-Hant":"達累斯薩拉姆区","_place_alt_name:cs":"Dár es Salám","alt:ca":"Dar es Salaam","alt:cs":"Dar es Salaam","alt:fa":"دارالسلام","alt:fi":"Dar es Salaam","alt:fr":"Dar es Salam","alt:gl":"Dar es Salaam","alt:it":"Dar es Salaam","alt:ka":"დარ-ეს-სალამი","alt:lt":"Dar es Salamas","alt:mk":"Дар ес Салам","alt:nl":"Dar es Salaam","alt:no":"Dar-es-Salaam","alt:pl":"Dar es Salaam","alt:pt":"Dar es Salaam","alt:ro":"Dar es Salaam","alt:sr":"Дар ес Салам","alt:sw":"Dar es Salaam","alt:uk":"Дар-ес-Салам","alt:ur":"دارالسلام","alt:vi":"Dar es Salaam","alt:yo":"Dar es Salaam"},"display_name":"Dar es-Salaam, Coastal Zone, Tanzania","address":{"city":"Dar es-Salaam","ISO3166-2-lvl4":"TZ-02","region":"Coastal Zone","country":"Tanzania","country_code":"tz"},"population":5383728,"osm_type":"relation","osm_id":7202037,"type":"administrative","location":[39.2803583,-6.8160837],"bbox":[39.0070295,-7.1868448,39.9280466,-6.5661971]}}
{"name":"Dodoma","other_names":{"name:am":"ዶዶማ","name:ar":"دودوما","name:be":"Дадома","name:bg":"Додома","name:br":"Dodoma","name:ca":"Dodoma","name:cs":"Dodoma","name:de":"Dodoma","name:el":"Ντοντόμα","name:en":"Dodoma","name:eo":"Dodomao","name:es":"Dodoma","name:fa":"دودوما","name:fr":"Dodoma","name:he":"דודומה","name:hi":"दोदोमा","name:hu":"Dodoma","name:hy":"Դոդոմա","name:is":"Dódóma","name:it":"Dodoma","name:ja":"ドドマ","name:ka":"დოდომა","name:kk":"Додома","name:ko":"도도마","name:ku":"Dodoma","name:ky":"Додома","name:lt":"Dodoma","name:mk":"Додома","name:ml":"ഡോഡോമ","name:mr":"डोडोमा","name:nl":"Dodoma","name:no":"Dodoma","name:oc":"Dodoma","name:pl":"Dodoma","name:ps":"دودوما","name:pt":"Dodoma","name:ru":"Додома","name:sr":"Додома","name:sv":"Dodoma","name:ta":"டொடோமா","name:tg":"Додома","name:th":"โดโดมา","name:tr":"Dodoma","name:uk":"Додома","name:ur":"ڈوڈوما","name:zh":"杜篤瑪","name:ckb":"دۆدۆما","name:mrj":"Додома","name:pnb":"ڈوڈوما","name:udm":"Додома","name:zh-Hans":"多多马","name:be-tarask":"Дадома"},"display_name":"Dodoma, Dodoma City, Dodoma, Central Zone, 41110, Tanzania","address":{"city":"Dodoma","state_district":"Dodoma City","state":"Dodoma","ISO3166-2-lvl4":"TZ-03","region":"Central Zone","postcode":"41110","country":"Tanzania","country_code":"tz"},"population":765179,"osm_type":"node","osm_id":87841198,"type":"city","location":[35.7468174,-6.1791181],"bbox":[35.5868174,-6.3391181,35.9068174,-6.0191181],"border":{"name":"Dodoma","other_names":{"name:am":"ዶዶማ","name:ar":"دودوما","name:be":"Дадома","name:bg":"Додома","name:cs":"Dodoma","name:de":"Dodoma","name:el":"Ντοντόμα","name:eo":"Dodomao","name:fa":"دودوما","name:he":"דודומה","name:hi":"दोदोमा","name:hu":"Dodoma","name:hy":"Դոդոմա","name:is":"Dódóma","name:ja":"ドドマ","name:ka":"დოდომა","name:kk":"Додома","name:ko":"도도마","name:ku":"Dodoma","name:ky":"Додома","name:lt":"Dodoma","name:mk":"Додома","name:mr":"डोडोमा","name:pl":"Dodoma","name:ps":"دودوما","name:ru":"Додома","name:sr":"Додома","name:sv":"Dodoma","name:ta":"டொடோமா","name:tg":"Додома","name:th":"โดโดมา","name:uk":"Додома","name:ur":"ڈوڈوما","name:zh":"杜篤瑪","name:ckb":"دۆدۆما","name:mrj":"Додома","name:pnb":"ڈوڈوما","name:udm":"Додома","name:br":"Dodoma","name:ca":"Dodoma","name:en":"Dodoma","name:es":"Dodoma","name:fr":"Dodoma","name:it":"Dodoma","name:ml":"ഡോഡോമ","name:nl":"Dodoma","name:no":"Dodoma","name:oc":"Dodoma","name:pt":"Dodoma","name:tr":"Dodoma","name:be-tarask":"Дадома","name:zh-Hans":"多多马"},"display_name":"Dodoma, Dodoma City, Dodoma, Central Zone, Tanzania","address":{"city":"Dodoma","state_district":"Dodoma City","state":"Dodoma","ISO3166-2-lvl4":"TZ-03","region":"Central Zone","country":"Tanzania","country_code":"tz"},"population":765179,"osm_type":"way","osm_id":171956821,"type":"city","location":[35.7468174,-6.1791181],"bbox":[35.6728673,-6.2285189,35.8579725,-6.0839764]}}
{"name":"Geita","other_names":{"name:ru":"Геита","name:uk":"Ґеіта"},"display_name":"Geita, Geita Town, Geita, Lake Zone, Tanzania","address":{"city":"Geita","state":"Geita","ISO3166-2-lvl4":"TZ-27","region":"Lake Zone","country":"Tanzania","country_code":"tz"},"population":318006,"osm_type":"node","osm_id":258307668,"type":"city","location":[32.2340831,-2.8707573],"bbox":[32.0740831,-3.0307573,32.3940831,-2.7107573],"border":{"name":"Geita Town","other_names":{"ref":"6","name:ru":"Геита","name:uk":"Ґеіта","alt":"Geita"},"display_name":"Geita Town, Geita, Lake Zone, 30404, Tanzania","address":{"city":"Geita Town","state":"Geita","ISO3166-2-lvl4":"TZ-27","region":"Lake Zone","postcode":"30404","country":"Tanzania","country_code":"tz"},"population":318006,"osm_type":"relation","osm_id":13015710,"type":"administrative","location":[32.2340831,-2.8707573],"bbox":[32.0191262,-3.0403933,32.5840298,-2.7349963]}}
{"name":"Handeni","display_name":"Handeni, Handeni Town, Tanga, Northern Zone, Tanzania","address":{"city":"Handeni","state_district":"Handeni Town","state":"Tanga","ISO3166-2-lvl4":"TZ-25","region":"Northern Zone","country":"Tanzania","country_code":"tz"},"population":108968,"osm_type":"node","osm_id":262031206,"type":"city","location":[38.0211414,-5.4283292],"bbox":[37.8611414,-5.5883292,38.1811414,-5.2683292]}
{"name":"Ifakara","other_names":{"name:ru":"Ифакара","name:uk":"Іфакара"},"display_name":"Ifakara, Ifakara Town, Morogoro, Coastal Zone, Tanzania","address":{"city":"Ifakara","state":"Morogoro","ISO3166-2-lvl4":"TZ-16","region":"Coastal Zone","country":"Tanzania","country_code":"tz"},"population":205843,"osm_type":"node","osm_id":258135360,"type":"city","location":[36.6848455,-8.1321004],"bbox":[36.5248455,-8.2921004,36.8448455,-7.9721004],"border":{"name":"Ifakara Town","other_names":{"ref":"9","name:ru":"Ифакара","name:uk":"Іфакара","alt":"Ifakara"},"display_name":"Ifakara Town, Morogoro, Coastal Zone, Tanzania","address":{"city":"Ifakara Town","state":"Morogoro","ISO3166-2-lvl4":"TZ-16","region":"Coastal Zone","country":"Tanzania","country_code":"tz"},"population":205843,"osm_type":"relation","osm_id":13015709,"type":"administrative","location":[36.6848455,-8.1321004],"bbox":[36.4976491,-8.2782978,36.7589883,-8.0229297]}}
{"name":"Igombe","display_name":"Igombe, Bugogwa, Ilemela, Mwanza, Lake Zone, Tanzania","address":{"village":"Igombe","ward":"Bugogwa","district":"Ilemela","state":"Mwanza","ISO3166-2-lvl4":"TZ-18","region":"Lake Zone","country":"Tanzania","country_code":"tz"},"osm_type":"way","osm_id":169639425,"type":"city","location":[32.964906,-2.3961481],"bbox":[32.9604917,-2.4105052,32.9730002,-2.3910443]}
{"name":"Iringa","display_name":"Iringa, Iringa Municipal, Iringa, Southern Highlands Zone, 00025, Tanzania","address":{"city":"Iringa","state_district":"Iringa Municipal","state":"Iringa","ISO3166-2-lvl4":"TZ-04","region":"Southern Highlands Zone","postcode":"00025","country":"Tanzania","country_code":"tz"},"population":202490,"osm_type":"node","osm_id":11070723589,"type":"city","location":[35.6970649,-7.778902],"bbox":[35.5370649,-7.938902,35.8570649,-7.618902]}
{"name":"Kahama","display_name":"Kahama, Kahama Urban, Shinyanga, Lake Zone, Tanzania","address":{"city":"Kahama","state_district":"Kahama Urban","state":"Shinyanga","ISO3166-2-lvl4":"TZ-22","region":"Lake Zone","country":"Tanzania","country_code":"tz"},"population":453654,"osm_type":"node","osm_id":261964012,"type":"city","location":[32.6011558,-3.8289877],"bbox":[32.4411558,-3.9889877,32.7611558,-3.6689877]}
{"name":"Kasulu","display_name":"Kasulu, Kasulu Town, Kigoma, Western Zone, Tanzania","address":{"city":"Kasulu","state_district":"Kasulu Town","state":"Kigoma","ISO3166-2-lvl4":"TZ-08","region":"Western Zone","country":"Tanzania","country_code":"tz"},"population":238321,"osm_type":"node","osm_id":7151164325,"type":"city","location":[30.099234,-4.5773996],"bbox":[29.939234,-4.7373996,30.259234,-4.4173996]}
{"name":"Kibaha","other_names":{"name:ru":"Кибаха","name:uk":"Кібага"},"display_name":"Kibaha, Kibaha Town, Pwani, Coastal Zone, Tanzania","address":{"city":"Kibaha","state_district":"Kibaha Town","state":"Pwani","ISO3166-2-lvl4":"TZ-19","region":"Coastal Zone","country":"Tanzania","country_code":"tz"},"population":265360,"osm_type":"node","osm_id":258168998,"type":"city","location":[38.9920175,-6.7864318],"bbox":[38.8320175,-6.9464318,39.1520175,-6.6264318]}
{"name":"Kigoma","display_name":"Kigoma, Kigoma Municipal-Ujiji, Kigoma, Western Zone, 47001, Tanzania","address":{"city":"Kigoma","state_district":"Kigoma Municipal-Ujiji","state":"Kigoma","ISO3166-2-lvl4":"TZ-08","region":"Western Zone","postcode":"47001","country":"Tanzania","country_code":"tz"},"osm_type":"node","osm_id":12409731581,"type":"city","location":[29.6296319,-4.877862],"bbox":[29.4696319,-5.037862,29.7896319,-4.717862]}
{"name":"Makambako","display_name":"Makambako, Makambako Town, Njombe, Southern Highlands Zone, Tanzania","address":{"city":"Makambako","state_district":"Makambako Town","state":"Njombe","ISO3166-2-lvl4":"TZ-29","region":"Southern Highlands Zone","country":"Tanzania","country_code":"tz"},"population":116232,"osm_type":"node","osm_id":258117759,"type":"city","location":[34.8229945,-8.8439753],"bbox":[34.6629945,-9.0039753,34.9829945,-8.6839753]}
{"name":"Mbeya","other_names":{"name:en":"Mbeya","name:ko":"므베야","name:lt":"Mbeja","name:ru":"Мбея","name:uk":"Мбея","name:zh":"姆贝亚","name:zh-Hans":"姆贝亚","name:zh-Hant":"姆貝亞"},"display_name":"Mbeya, Mbeya Municipal, Mbeya, Southern Highlands Zone, Tanzania","address":{"city":"Mbeya","state_district":"Mbeya Municipal","state":"Mbeya","ISO3166-2-lvl4":"TZ-14","region":"Southern Highlands Zone","country":"Tanzania","country_code":"tz"},"population":541603,"osm_type":"node","osm_id":255594923,"type":"city","location":[33.468672,-8.906508],"bbox":[33.308672,-9.066508,33.628672,-8.746508]}
{"name":"Morogoro","other_names":{"name:ar":"موروغورو","name:as":"ম’ৰ’গ’ৰ’","name:be":"Марагора","name:bg":"Морогоро","name:el":"Μορογκόρο","name:en":"Morogoro","name:fa":"موروگورو","name:hy":"Մորոգորո","name:ja":"モロゴロ","name:ko":"모로고로","name:lt":"Morogoras","name:nl":"Morogoro","name:ru":"Морогоро","name:sr":"Морогоро","name:sw":"Morogoro","name:uk":"Морогоро","name:ur":"موروگورو","name:uz":"Andoza:Morogoro tumanlari","name:zh":"莫罗戈罗"},"display_name":"Morogoro, Morogoro Municipal, Morogoro, Coastal Zone, 67104, Tanzania","address":{"city":"Morogoro","state_district":"Morogoro Municipal","state":"Morogoro","ISO3166-2-lvl4":"TZ-16","region":"Coastal Zone","postcode":"67104","country":"Tanzania","country_code":"tz"},"population":471409,"osm_type":"node","osm_id":252592807,"type":"city","location":[37.6693891,-6.8161626],"bbox":[37.5093891,-6.9761626,37.8293891,-6.6561626]}
{"name":"Moshi","other_names":{"name:el":"Μόσι (Τανζανία)","name:ko":"모시","name:lt":"Mošis","name:ru":"Моши","name:tr":"Moshi","name:uk":"Моші"},"display_name":"Moshi, Moshi Urban, Kilimanjaro, Northern Zone, 25107, Tanzania","address":{"city":"Moshi","state_district":"Moshi Urban","state":"Kilimanjaro","ISO3166-2-lvl4":"TZ-09","region":"Northern Zone","postcode":"25107","country":"Tanzania","country_code":"tz"},"population":221733,"osm_type":"node","osm_id":255602805,"type":"city","location":[37.3435249,-3.3486456],"bbox":[37.1835249,-3.5086456,37.5035249,-3.1886456]}
{"name":"Mpanda","other_names":{"name:ru":"Мпанда","name:uk":"Мпанда"},"display_name":"Mpanda, Mpanda Municipal, Katavi, Western Zone, 50102, Tanzania","address":{"city":"Mpanda","state_district":"Mpanda Municipal","state":"Katavi","ISO3166-2-lvl4":"TZ-28","region":"Western Zone","postcode":"50102","country":"Tanzania","country_code":"tz"},"population":204338,"osm_type":"node","osm_id":255589318,"type":"city","location":[31.0729871,-6.3429524],"bbox":[30.9129871,-6.5029524,31.2329871,-6.1829524]}
{"name":"Mtwara","other_names":{"name:ko":"므트와라","name:lt":"Mtvara","name:ru":"Мтвара","name:uk":"Мтвара"},"display_name":"Mtwara, Vigaeni Ward, Mtwara Municipal, Mtwara, Coastal Zone, Tanzania","address":{"city":"Mtwara","county":"Vigaeni Ward","state_district":"Mtwara Municipal","state":"Mtwara","ISO3166-2-lvl4":"TZ-17","region":"Coastal Zone","country":"Tanzania","country_code":"tz"},"population":140793,"osm_type":"node","osm_id":258162316,"type":"city","location":[40.1789136,-10.2838146],"bbox":[40.0189136,-10.4438146,40.3389136,-10.1238146]}
{"name":"Musoma","other_names":{"name:ko":"무소마","name:lt":"Musoma","name:ru":"Мусома","name:uk":"Мусома"},"display_name":"Musoma, Musoma Municipal, Mara, Lake Zone, 31100, Tanzania","address":{"city":"Musoma","state_district":"Musoma Municipal","state":"Mara","ISO3166-2-lvl4":"TZ-13","region":"Lake Zone","postcode":"31100","country":"Tanzania","country_code":"tz"},"population":164172,"osm_type":"node","osm_id":259711489,"type":"city","location":[33.8083018,-1.4998186],"bbox":[33.6483018,-1.6598186,33.9683018,-1.3398186]}
{"name":"Mwanza","other_names":{"name:lt":"Mvanza","name:ru":"Мванза","name:uk":"Мванза"},"display_name":"Mwanza, Nyamagana, Mwanza, Lake Zone, 33214, Tanzania","address":{"city":"Mwanza","state_district":"Nyamagana","state":"Mwanza","ISO3166-2-lvl4":"TZ-18","region":"Lake Zone","postcode":"33214","country":"Tanzania","country_code":"tz"},"population":1104521,"osm_type":"node","osm_id":255590322,"type":"city","location":[32.9014417,-2.5196915],"bbox":[32.7414417,-2.6796915,33.0614417,-2.3596915]}
{"name":"Sengerema","display_name":"Sengerema, Mwanza, Lake Zone, Tanzania","address":{"city":"Sengerema","state_district":"Sengerema","state":"Mwanza","ISO3166-2-lvl4":"TZ-18","region":"Lake Zone","country":"Tanzania","country_code":"tz"},"population":110000,"osm_type":"node","osm_id":9623805792,"type":"city","location":[32.6433865,-2.6502964],"bbox":[32.4833865,-2.8102964,32.8033865,-2.4902964]}
{"name":"Shinyanga","other_names":{"name:ar":"شينيانغا","name:ko":"시니앙가","name:lt":"Šinjanga","name:ru":"Шиньянга","name:uk":"Шиньянґа"},"display_name":"Shinyanga, Shinyanga Urban, Shinyanga, Lake Zone, 37000, Tanzania","address":{"city":"Shinyanga","state_district":"Shinyanga Urban","state":"Shinyanga","ISO3166-2-lvl4":"TZ-22","region":"Lake Zone","postcode":"37000","country":"Tanzania","country_code":"tz"},"population":139727,"osm_type":"node","osm_id":255591375,"type":"city","location":[33.4271153,-3.6562049],"bbox":[33.2671153,-3.8162049,33.5871153,-3.4962049]}
{"name":"Singida","other_names":{"name:ru":"Сингида","name:uk":"Сінгіда"},"display_name":"Singida, Singida Municipal, Singida, Central Zone, Tanzania","address":{"city":"Singida","state_district":"Singida Municipal","state":"Singida","ISO3166-2-lvl4":"TZ-23","region":"Central Zone","country":"Tanzania","country_code":"tz"},"population":165492,"osm_type":"node","osm_id":255591716,"type":"city","location":[34.7498283,-4.8195746],"bbox":[34.5898283,-4.9795746,34.9098283,-4.6595746]}
{"name":"Songea","other_names":{"name:en":"Songea","name:ko":"송게아","name:lt":"Songea","name:ru":"Сонгеа","name:uk":"Сонгеа"},"display_name":"Songea, Songea Municipal, Ruvuma, Southern Highlands Zone, Tanzania","address":{"city":"Songea","state_district":"Songea Municipal","state":"Ruvuma","ISO3166-2-lvl4":"TZ-21","region":"Southern Highlands Zone","country":"Tanzania","country_code":"tz"},"population":286285,"osm_type":"node","osm_id":258160432,"type":"city","location":[35.6483576,-10.6787282],"bbox":[35.4883576,-10.8387282,35.8083576,-10.5187282]}
{"name":"Sumbawanga","other_names":{"name:ko":"숨바왕가","name:lt":"Sumbavanga","name:ru":"Сумбаванга","name:uk":"Сумбаванґа"},"display_name":"Sumbawanga, Sumbawanga Urban, Rukwa, Southern Highlands Zone, Tanzania","address":{"city":"Sumbawanga","state_district":"Sumbawanga Urban","state":"Rukwa","ISO3166-2-lvl4":"TZ-20","region":"Southern Highlands Zone","country":"Tanzania","country_code":"tz"},"population":182970,"osm_type":"node","osm_id":262095995,"type":"city","location":[31.6231898,-7.9523861],"bbox":[31.4631898,-8.1123861,31.7831898,-7.7923861]}
{"name":"Tabora","other_names":{"name:ko":"타보라","name:lt":"Tabora","name:ru":"Табора","name:uk":"Табора","old_name":"Kazeh"},"display_name":"Tabora, Tabora Muncipal, Tabora, Central Zone, 45102, Tanzania","address":{"city":"Tabora","state_district":"Tabora Muncipal","state":"Tabora","ISO3166-2-lvl4":"TZ-24","region":"Central Zone","postcode":"45102","country":"Tanzania","country_code":"tz"},"population":221466,"osm_type":"node","osm_id":255590043,"type":"city","location":[32.8097724,-5.0202431],"bbox":[32.6497724,-5.1802431,32.9697724,-4.8602431]}
{"name":"Tanga","other_names":{"name:en":"Tanga","name:ko":"탕가","name:lt":"Tanga","name:ru":"Танга","name:uk":"Танга"},"display_name":"Tanga, Northern Zone, Tanzania","address":{"city":"Tanga","state":"Tanga","ISO3166-2-lvl4":"TZ-25","region":"Northern Zone","country":"Tanzania","country_code":"tz"},"population":393429,"osm_type":"node","osm_id":255615843,"type":"city","location":[39.0993457,-5.0721976],"bbox":[38.9393457,-5.2321976,39.2593457,-4.9121976],"border":{"name":"Tanga","other_names":{"name:en":"Tanga","name:ko":"탕가","name:lt":"Tanga","name:ru":"Танга","name:uk":"Танга"},"display_name":"Tanga, Northern Zone, Tanzania","address":{"city":"Tanga","state":"Tanga","ISO3166-2-lvl4":"TZ-25","region":"Northern Zone","country":"Tanzania","country_code":"tz"},"population":393429,"osm_type":"relation","osm_id":1600813,"type":"administrative","location":[39.0993457,-5.0721976],"bbox":[38.8992746,-5.2950707,39.1537231,-4.9619157]}}
{"name":"Tarime","display_name":"Tarime, Tarime Town, Mara, Lake Zone, Tanzania","address":{"city":"Tarime","state_district":"Tarime Town","state":"Mara","ISO3166-2-lvl4":"TZ-13","region":"Lake Zone","country":"Tanzania","country_code":"tz"},"population":133043,"osm_type":"node","osm_id":258513630,"type":"city","location":[34.3803747,-1.3424053],"bbox":[34.2203747,-1.5024053,34.5403747,-1.1824053]}
{"name":"Tunduma","display_name":"Tunduma, Songwe, Southern Highlands Zone, Tanzania","address":{"city":"Tunduma","state_district":"Tunduma","state":"Songwe","ISO3166-2-lvl4":"TZ-31","region":"Southern Highlands Zone","country":"Tanzania","country_code":"tz"},"population":219309,"osm_type":"node","osm_id":262107914,"type":"city","location":[32.767525,-9.3101642],"bbox":[32.607525,-9.4701642,32.927525,-9.1501642]}
{"name":"Zanzibar City مدينة زنجبار","other_names":{"name:ar":"مدينة زنجبار","name:cs":"Zanzibar","name:de":"Sansibar-Stadt","name:en":"Zanzibar City","name:es":"Zanzíbar","name:fa":"زنگبار","name:fi":"Sansibar","name:fr":"Zanzibar","name:hi":"ज़ांज़ीबार","name:ko":"잔지바르","name:ml":"സാൻസിബാർ നഗരം","name:ru":"Занзибар","name:sr":"Занзибар","name:sw":"Jiji la Zanzibar","name:ur":"زنجبار شہر","name:kab":"Tamdint n Zanzibar","alt_name:ar":"زنزيبار"},"display_name":"Zanzibar City مدينة زنجبار, Mjini, Unguja Mjini Magharibi, Zanzibar زنجبار, 71109, Tanzania","address":{"city":"Zanzibar City مدينة زنجبار","state_district":"Mjini","state":"Unguja Mjini Magharibi","ISO3166-2-lvl4":"TZ-15","region":"Zanzibar زنجبار","postcode":"71109","country":"Tanzania","country_code":"tz"},"population":709809,"osm_type":"node","osm_id":3320526612,"type":"city","location":[39.2074312,-6.1664908],"bbox":[39.0474312,-6.3264908,39.3674312,-6.0064908]}
