{"name":"Bilwi","other_names":{"alt_name":"Bragman's Bluff"},"display_name":"Bilwi, Puerto Cabezas, Costa Caribe Norte, 71000, Nicaragua","address":{"city":"Bilwi","region":"Costa Caribe Norte","ISO3166-2-lvl4":"NI-AN","postcode":"71000","country":"Nicaragua","country_code":"ni"},"population":77871,"osm_type":"node","osm_id":306243099,"type":"city","location":[-83.3831224,14.0294451],"bbox":[-83.5431224,13.8694451,-83.2231224,14.1894451],"border":[{"name":"Puerto Cabezas","other_names":{"name:es":"Puerto Cabezas","alt_name":"Puerto Cabezas (Municipio)","short_name":"Bragman's Bluff","official_name":"Municipio de Puerto Cabezas","_place_alt_name":"Bragman's Bluff","alt":"Bilwi"},"display_name":"Puerto Cabezas, Costa Caribe Norte, 71000, Nicaragua","address":{"municipality":"Puerto Cabezas","region":"Costa Caribe Norte","ISO3166-2-lvl4":"NI-AN","postcode":"71000","country":"Nicaragua","country_code":"ni"},"population":116817,"osm_type":"relation","osm_id":5762511,"type":"administrative","location":[-83.3831224,14.0294451],"bbox":[-84.1122937,13.6161616,-82.4767247,14.9536111]},{"name":"Bilwi","other_names":{"name:es":"Bilwi","alt_name":"Bragman's Bluff"},"display_name":"Bilwi, Puerto Cabezas, Costa Caribe Norte, 71000, Nicaragua","address":{"city":"Bilwi","region":"Costa Caribe Norte","ISO3166-2-lvl4":"NI-AN","postcode":"71000","country":"Nicaragua","country_code":"ni"},"population":77871,"osm_type":"relation","osm_id":14335529,"type":"administrative","location":[-83.3831224,14.0294451],"bbox":[-83.4263446,14.0147593,-83.3700884,14.0670066]},{"name":"Bilwi","other_names":{"name:es":"Bilwi","alt_name":"Bragman's Bluff"},"display_name":"Bilwi, Puerto Cabezas, Costa Caribe Norte, Nicaragua","address":{"city":"Bilwi","region":"Costa Caribe Norte","ISO3166-2-lvl4":"NI-AN","country":"Nicaragua","country_code":"ni"},"osm_type":"way","osm_id":310830472,"type":"administrative","location":[-83.39628596026918,14.04088235],"bbox":[-83.4263446,14.0147593,-83.3700884,14.0670066]}]}
{"name":"Bluefields","other_names":{"name:ar":"بلوفيلدز","name:be":"Блуфілдс","name:ka":"ბლუფილდზი","name:os":"Блуфилдс","name:ru":"Блуфилдс","name:sr":"Блуфилдс","name:uk":"Блуфілдс","name:ur":"بلوفیلڈز","alt_name":"Blauvelt","loc_name":"Bluefields"},"display_name":"Bluefields, Costa Caribe Sur, 81000, Nicaragua","address":{"city":"Bluefields","region":"Costa Caribe Sur","ISO3166-2-lvl4":"NI-AS","postcode":"81000","country":"Nicaragua","country_code":"ni"},"population":54532,"osm_type":"node","osm_id":2773628551,"type":"city","location":[-83.764907,12.0131543],"bbox":[-83.924907,11.8531543,-83.604907,12.1731543],"border":[{"name":"Bluefields","other_names":{"name:es":"Bluefields","alt_name":"Bluefields (Municipio)","short_name":"Blauvelt","official_name":"Municipio de Bluefields","name:ar":"بلوفيلدز","name:be":"Блуфілдс","name:ka":"ბლუფილდზი","name:os":"Блуфилдс","name:ru":"Блуфилдс","name:sr":"Блуфилдс","name:uk":"Блуфілдс","name:ur":"بلوفیلڈز","_place_alt_name":"Blauvelt","loc_name":"Bluefields"},"display_name":"Bluefields, Costa Caribe Sur, 81000, Nicaragua","address":{"municipality":"Bluefields","region":"Costa Caribe Sur","ISO3166-2-lvl4":"NI-AS","postcode":"81000","country":"Nicaragua","country_code":"ni"},"population":56618,"osm_type":"relation","osm_id":5776259,"type":"administrative","location":[-83.764907,12.0131543],"bbox":[-84.4369591,11.0431828,-82.9989303,12.1568148]},{"name":"Bluefields","other_names":{"name:es":"Bluefields","alt_name":"Blauvelt","loc_name":"Bleeveldt","name:ar":"بلوفيلدز","name:be":"Блуфілдс","name:ka":"ბლუფილდზი","name:os":"Блуфилдс","name:ru":"Блуфилдс","name:sr":"Блуфилдс","name:uk":"Блуфілдс","name:ur":"بلوفیلڈز","_place_loc_name":"Bluefields"},"display_name":"Bluefields, Costa Caribe Sur, 81000, Nicaragua","address":{"city":"Bluefields","region":"Costa Caribe Sur","ISO3166-2-lvl4":"NI-AS","postcode":"81000","country":"Nicaragua","country_code":"ni"},"population":54532,"osm_type":"relation","osm_id":3117424,"type":"administrative","location":[-83.764907,12.0131543],"bbox":[-83.7822829,11.9928016,-83.756431,12.0358439]}]}
{"name":"Boaco","other_names":{"name:hu":"Boaco","name:ru":"Боако","loc_name":"Ciudad de Dos Pisos"},"display_name":"Boaco, 51000, Nicaragua","address":{"city":"Boaco","state":"Boaco","ISO3166-2-lvl4":"NI-BO","postcode":"51000","country":"Nicaragua","country_code":"ni"},"population":25537,"osm_type":"node","osm_id":304247120,"type":"city","location":[-85.6598144,12.4718043],"bbox":[-85.8198144,12.3118043,-85.4998144,12.6318043],"border":[{"name":"Boaco","other_names":{"name:es":"Boaco","alt_name":"Boaco (Municipio)","official_name":"Municipio de Boaco","name:hu":"Boaco","name:ru":"Боако","loc_name":"Ciudad de Dos Pisos"},"display_name":"Boaco, 51000, Nicaragua","address":{"municipality":"Boaco","state":"Boaco","ISO3166-2-lvl4":"NI-BO","postcode":"51000","country":"Nicaragua","country_code":"ni"},"population":60974,"osm_type":"relation","osm_id":5753388,"type":"administrative","location":[-85.6598144,12.4718043],"bbox":[-85.6940123,12.3698601,-85.2288517,12.7430474]},{"name":"Boaco","other_names":{"name:es":"Boaco","loc_name":"Ciudad de Dos Pisos","name:hu":"Boaco","name:ru":"Боако"},"display_name":"Boaco, 51000, Nicaragua","address":{"city":"Boaco","state":"Boaco","ISO3166-2-lvl4":"NI-BO","postcode":"51000","country":"Nicaragua","country_code":"ni"},"population":25537,"osm_type":"relation","osm_id":15078878,"type":"administrative","location":[-85.6598144,12.4718043],"bbox":[-85.6652727,12.4559154,-85.643869,12.48227]}]}
{"name":"Chinandega","other_names":{"name:hu":"Chinandega","name:ru":"Чинандега"},"display_name":"Chinandega, 25000, Nicaragua","address":{"city":"Chinandega","state":"Chinandega","ISO3166-2-lvl4":"NI-CI","postcode":"25000","country":"Nicaragua","country_code":"ni"},"population":112727,"osm_type":"node","osm_id":302364713,"type":"city","location":[-87.1347357,12.6310831],"bbox":[-87.2947357,12.4710831,-86.9747357,12.7910831],"border":[{"name":"Chinandega","other_names":{"name:es":"Chinandega","alt_name":"Chinandega (Municipio)","official_name":"Municipio de Chinandega","name:hu":"Chinandega","name:ru":"Чинандега"},"display_name":"Chinandega, 25000, Nicaragua","address":{"municipality":"Chinandega","state":"Chinandega","ISO3166-2-lvl4":"NI-CI","postcode":"25000","country":"Nicaragua","country_code":"ni"},"population":135578,"osm_type":"relation","osm_id":5721088,"type":"administrative","location":[-87.1347357,12.6310831],"bbox":[-87.1848219,12.5288695,-86.8084836,12.8650522]},{"name":"Chinandega","other_names":{"name:es":"Chinandega","name:hu":"Chinandega","name:ru":"Чинандега"},"display_name":"Chinandega, 25000, Nicaragua","address":{"city":"Chinandega","state":"Chinandega","ISO3166-2-lvl4":"NI-CI","postcode":"25000","country":"Nicaragua","country_code":"ni"},"population":112727,"osm_type":"relation","osm_id":9120833,"type":"administrative","location":[-87.1347357,12.6310831],"bbox":[-87.1486442,12.6006859,-87.1108036,12.6469037]}]}
{"name":"El Rama","other_names":{"name:en":"Rama","loc_name":"Ciudad Rama","loc_name:en":"Rama City"},"display_name":"El Rama, Costa Caribe Sur, 82300, Nicaragua","address":{"city":"El Rama","town":"El Rama","region":"Costa Caribe Sur","ISO3166-2-lvl4":"NI-AS","postcode":"82300","country":"Nicaragua","country_code":"ni"},"population":22708,"osm_type":"node","osm_id":306572004,"type":"city","location":[-84.2203134,12.1614976],"bbox":[-84.3803134,12.0014976,-84.0603134,12.3214976],"border":[{"name":"El Rama","other_names":{"name:en":"Rama","name:es":"El Rama","alt_name":"El Rama (Municipio)","alt_name:en":"Rama Municipality","official_name":"Municipio de El Rama","loc_name":"Ciudad Rama","official_name:en":"Municipality of Rama","loc_name:en":"Rama City"},"display_name":"El Rama, Costa Caribe Sur, 82300, Nicaragua","address":{"municipality":"El Rama","region":"Costa Caribe Sur","ISO3166-2-lvl4":"NI-AS","postcode":"82300","country":"Nicaragua","country_code":"ni"},"population":58733,"osm_type":"relation","osm_id":5768379,"type":"administrative","location":[-84.2203134,12.1614976],"bbox":[-84.8011174,11.720066,-84.004233,12.6388054]},{"name":"El Rama","other_names":{"name:en":"Rama","name:es":"El Rama","loc_name":"Ciudad Rama","loc_name:en":"Rama City"},"display_name":"El Rama, Costa Caribe Sur, 82300, Nicaragua","address":{"town":"El Rama","city":"El Rama","region":"Costa Caribe Sur","ISO3166-2-lvl4":"NI-AS","postcode":"82300","country":"Nicaragua","country_code":"ni"},"population":22708,"osm_type":"relation","osm_id":6133836,"type":"administrative","location":[-84.2203134,12.1614976],"bbox":[-84.2361263,12.1579737,-84.2067643,12.1773817]}]}
{"name":"Estelí","other_names":{"name:en":"Esteli","loc_name":"El Diamante de las Segovias","old_name":"Villa de San Antonio de Pavía de Estelí"},"display_name":"Estelí, 31000, Nicaragua","address":{"city":"Estelí","municipality":"Estelí","state":"Estelí","ISO3166-2-lvl4":"NI-ES","postcode":"31000","country":"Nicaragua","country_code":"ni"},"population":108138,"osm_type":"node","osm_id":302261828,"type":"city","location":[-86.3554436,13.0931241],"bbox":[-86.5154436,12.9331241,-86.1954436,13.2531241],"border":{"name":"Estelí","other_names":{"name:es":"Estelí","alt_name":"Estelí (Municipio)","official_name":"Municipio de Estelí","name:en":"Esteli","loc_name":"El Diamante de las Segovias","old_name":"Villa de San Antonio de Pavía de Estelí"},"display_name":"Estelí, 31000, Nicaragua","address":{"municipality":"Estelí","state":"Estelí","ISO3166-2-lvl4":"NI-ES","postcode":"31000","country":"Nicaragua","country_code":"ni"},"population":129574,"osm_type":"relation","osm_id":5728609,"type":"administrative","location":[-86.3554436,13.0931241],"bbox":[-86.4920019,12.9728681,-86.1647228,13.3000447]}}
{"name":"Granada","display_name":"Granada, 43000, Nicaragua","address":{"city":"Granada","municipality":"Granada","state":"Granada","ISO3166-2-lvl4":"NI-GR","postcode":"43000","country":"Nicaragua","country_code":"ni"},"population":102872,"osm_type":"node","osm_id":175683474,"type":"city","location":[-85.9535897,11.9303801],"bbox":[-86.1135897,11.7703801,-85.7935897,12.0903801],"border":{"name":"Granada","other_names":{"name:es":"Granada","alt_name":"Granada (Municipio)","official_name":"Municipio de Granada"},"display_name":"Granada, 43000, Nicaragua","address":{"municipality":"Granada","state":"Granada","ISO3166-2-lvl4":"NI-GR","postcode":"43000","country":"Nicaragua","country_code":"ni"},"population":128937,"osm_type":"relation","osm_id":5745675,"type":"administrative","location":[-85.9535897,11.9303801],"bbox":[-86.0353436,11.700732,-85.6703712,12.2145784]}}
{"name":"Jinotega","other_names":{"name:en":"Jinotega","loc_name":"Ciudad de las Brumas","old_name":"San Juan de Jinotega"},"display_name":"Jinotega, 65000, Nicaragua","address":{"city":"Jinotega","municipality":"Jinotega","state":"Jinotega","ISO3166-2-lvl4":"NI-JI","postcode":"65000","country":"Nicaragua","country_code":"ni"},"population":150146,"osm_type":"node","osm_id":5823779901,"type":"city","location":[-86.0023584,13.0910392],"bbox":[-86.1623584,12.9310392,-85.8423584,13.2510392],"border":{"name":"Jinotega","other_names":{"name:es":"Jinotega","alt_name":"Jinotega (Municipio)","official_name":"Municipio de Jinotega","name:en":"Jinotega","loc_name":"Ciudad de las Brumas","old_name":"San Juan de Jinotega"},"display_name":"Jinotega, 65000, Nicaragua","address":{"municipality":"Jinotega","state":"Jinotega","ISO3166-2-lvl4":"NI-JI","postcode":"65000","country":"Nicaragua","country_code":"ni"},"population":144503,"osm_type":"relation","osm_id":5748004,"type":"administrative","location":[-86.0023584,13.0910392],"bbox":[-86.1169263,12.9942815,-85.720319,13.3408833]}}
{"name":"Jinotepe","other_names":{"name:en":"Jinotepe","name:hu":"Jinotepe","name:ru":"Хинотепе"},"display_name":"Jinotepe, Carazo, 41000, Nicaragua","address":{"city":"Jinotepe","municipality":"Jinotepe","state":"Carazo","ISO3166-2-lvl4":"NI-CA","postcode":"41000","country":"Nicaragua","country_code":"ni"},"population":39444,"osm_type":"node","osm_id":302523440,"type":"city","location":[-86.1992469,11.8478476],"bbox":[-86.3592469,11.6878476,-86.0392469,12.0078476],"border":{"name":"Jinotepe","other_names":{"name:es":"Jinotepe","alt_name":"Jinotepe (Municipio)","official_name":"Municipio de Jinotepe","name:en":"Jinotepe","name:hu":"Jinotepe","name:ru":"Хинотепе"},"display_name":"Jinotepe, Carazo, 41000, Nicaragua","address":{"municipality":"Jinotepe","state":"Carazo","ISO3166-2-lvl4":"NI-CA","postcode":"41000","country":"Nicaragua","country_code":"ni"},"population":53081,"osm_type":"relation","osm_id":5738009,"type":"administrative","location":[-86.1992469,11.8478476],"bbox":[-86.4973267,11.4141685,-86.1538948,11.8955176]}}
{"name":"Juigalpa","other_names":{"name:be":"Горад Хуігальпа","name:hu":"Juigalpa","name:ko":"후이갈파","name:lt":"Chuigalpa","name:ru":"Хуигальпа","old_name":"Juigalpan"},"display_name":"Juigalpa, Chontales, 55000, Nicaragua","address":{"city":"Juigalpa","state":"Chontales","ISO3166-2-lvl4":"NI-CO","postcode":"55000","country":"Nicaragua","country_code":"ni"},"population":52596,"osm_type":"node","osm_id":2773636390,"type":"city","location":[-85.3689381,12.1085987],"bbox":[-85.5289381,11.9485987,-85.2089381,12.2685987],"border":[{"name":"Juigalpa","other_names":{"name:es":"Juigalpa","alt_name":"Juigalpa (Municipio)","official_name":"Municipio de Juigalpa","name:be":"Горад Хуігальпа","name:hu":"Juigalpa","name:ko":"후이갈파","name:lt":"Chuigalpa","name:ru":"Хуигальпа","old_name":"Juigalpan"},"display_name":"Juigalpa, Chontales, 55000, Nicaragua","address":{"municipality":"Juigalpa","state":"Chontales","ISO3166-2-lvl4":"NI-CO","postcode":"55000","country":"Nicaragua","country_code":"ni"},"population":60535,"osm_type":"relation","osm_id":5755628,"type":"administrative","location":[-85.3689381,12.1085987],"bbox":[-85.6703712,11.7096008,-85.2519287,12.218481]},{"name":"Juigalpa","other_names":{"name:es":"Juigalpa","name:hu":"Juigalpa","old_name":"Juigalpan","name:be":"Горад Хуігальпа","name:ko":"후이갈파","name:lt":"Chuigalpa","name:ru":"Хуигальпа"},"display_name":"Juigalpa, Chontales, 55000, Nicaragua","address":{"city":"Juigalpa","state":"Chontales","ISO3166-2-lvl4":"NI-CO","postcode":"55000","country":"Nicaragua","country_code":"ni"},"population":52596,"osm_type":"relation","osm_id":17750785,"type":"administrative","location":[-85.3689381,12.1085987],"bbox":[-85.3858724,12.0860779,-85.3495285,12.1162352]}]}
{"name":"León","other_names":{"name:hu":"León","name:ru":"Леон","name:uk":"Леон","official_name":"Santiago de los Caballeros de León"},"display_name":"León, 21000, Nicaragua","address":{"city":"León","state":"León","ISO3166-2-lvl4":"NI-LE","postcode":"21000","country":"Nicaragua","country_code":"ni"},"population":172148,"osm_type":"node","osm_id":293298496,"type":"city","location":[-86.8788302,12.4348568],"bbox":[-87.0388302,12.2748568,-86.7188302,12.5948568],"border":[{"name":"León","other_names":{"name:es":"León","alt_name":"León (Municipio)","official_name":"Municipio de León","name:hu":"León","name:ru":"Леон","name:uk":"Леон","_place_official_name":"Santiago de los Caballeros de León"},"display_name":"León, 21000, Nicaragua","address":{"municipality":"León","state":"León","ISO3166-2-lvl4":"NI-LE","postcode":"21000","country":"Nicaragua","country_code":"ni"},"population":207533,"osm_type":"relation","osm_id":5721089,"type":"administrative","location":[-86.8788302,12.4348568],"bbox":[-87.197734,12.0835181,-86.675673,12.5208509]},{"name":"León","other_names":{"name:es":"León","official_name":"Santiago de los Caballeros de León","name:hu":"León","name:ru":"Леон","name:uk":"Леон"},"display_name":"León, 21000, Nicaragua","address":{"city":"León","state":"León","ISO3166-2-lvl4":"NI-LE","postcode":"21000","country":"Nicaragua","country_code":"ni"},"population":172148,"osm_type":"relation","osm_id":18466957,"type":"administrative","location":[-86.8788302,12.4348568],"bbox":[-86.9033434,12.4113919,-86.8506864,12.4603755]}]}
{"name":"Managua","other_names":{"name:am":"ማናጓ","name:ar":"ماناغوا","name:az":"Manaqua","name:be":"Манагуа","name:bg":"Манагуа","name:bo":"མ་ན་གུ་འ།","name:ca":"Managua","name:de":"Managua","name:el":"Μανάγκουα","name:en":"Managua","name:eo":"Managvo","name:fa":"ماناگوآ","name:fr":"Managua","name:fy":"Managûa","name:he":"מנגואה","name:ht":"Managoua","name:hu":"Managua","name:hy":"Մանագուա","name:is":"Managva","name:ja":"マナグア","name:ka":"მანაგუა","name:ko":"마나과","name:ku":"Managwa","name:lt":"Managva","name:lv":"Managva","name:mk":"Манагва","name:mn":"Манагуа","name:mr":"मानाग्वा","name:oc":"Managua","name:os":"Манагуæ","name:pl":"Managua","name:pt":"Manágua","name:ru":"Манагуа","name:sr":"Манагва","name:sv":"Managua","name:ta":"மனாகுவா","name:th":"มานากัว","name:ug":"ماناگۇئا","name:uk":"Манагуа","name:ur":"ماناگوا","name:zh":"馬那瓜","name:ckb":"ماناگوا","name:nah":"Mānāhuac","name:sah":"Манагуа","ISO3166-2":"NI-MN","name:be-tarask":"Манагуа"},"display_name":"Managua, 10000 (código maestro), Nicaragua","address":{"city":"Managua","ISO3166-2-lvl2":"NI-MN","municipality":"Managua","state":"Managua","ISO3166-2-lvl4":"NI-MN","postcode":"10000 (código maestro)","country":"Nicaragua","country_code":"ni"},"population":1030926,"osm_type":"node","osm_id":175699213,"type":"city","location":[-86.2737642,12.1544035],"bbox":[-86.4337642,11.9944035,-86.1137642,12.3144035],"border":{"name":"Managua","other_names":{"name:es":"Managua","alt_name":"Managua (Municipio)","official_name":"Municipio de Managua","name:am":"ማናጓ","name:ar":"ماناغوا","name:az":"Manaqua","name:be":"Манагуа","name:bg":"Манагуа","name:bo":"མ་ན་གུ་འ།","name:ca":"Managua","name:de":"Managua","name:el":"Μανάγκουα","name:en":"Managua","name:eo":"Managvo","name:fa":"ماناگوآ","name:fr":"Managua","name:fy":"Managûa","name:he":"מנגואה","name:ht":"Managoua","name:hu":"Managua","name:hy":"Մանագուա","name:is":"Managva","name:ja":"マナグア","name:ka":"მანაგუა","name:ko":"마나과","name:ku":"Managwa","name:lt":"Managva","name:lv":"Managva","name:mk":"Манагва","name:mn":"Манагуа","name:mr":"मानाग्वा","name:oc":"Managua","name:os":"Манагуæ","name:pl":"Managua","name:pt":"Manágua","name:ru":"Манагуа","name:sr":"Манагва","name:sv":"Managua","name:ta":"மனாகுவா","name:th":"มานากัว","name:ug":"ماناگۇئا","name:uk":"Манагуа","name:ur":"ماناگوا","name:zh":"馬那瓜","name:ckb":"ماناگوا","name:nah":"Mānāhuac","name:sah":"Манагуа","ISO3166-2":"NI-MN","name:be-tarask":"Манагуа"},"display_name":"Managua, 10000 (código maestro), Nicaragua","address":{"municipality":"Managua","ISO3166-2-lvl6":"NI-MN","state":"Managua","ISO3166-2-lvl4":"NI-MN","postcode":"10000 (código maestro)","country":"Nicaragua","country_code":"ni"},"population":1039290,"osm_type":"relation","osm_id":5835475,"type":"administrative","location":[-86.2737642,12.1544035],"bbox":[-86.3918528,12.0211822,-86.1257099,12.2242728]}}
{"name":"Masaya","other_names":{"name:en":"Masaya","name:es":"Masaya","name:hu":"Masaya","name:ru":"Масая","name:uk":"Масая","name:ckb":"مەسایا","old_name":"Mazātlān"},"display_name":"Masaya, 41000, Nicaragua","address":{"city":"Masaya","municipality":"Masaya","state":"Masaya","ISO3166-2-lvl4":"NI-MS","postcode":"41000","country":"Nicaragua","country_code":"ni"},"population":132059,"osm_type":"node","osm_id":784918974,"type":"city","location":[-86.0960547,11.9736474],"bbox":[-86.2560547,11.8136474,-85.9360547,12.1336474],"border":{"name":"Masaya","other_names":{"name:es":"Masaya","alt_name":"Masaya (Municipio)","official_name":"Municipio de Masaya","name:en":"Masaya","name:hu":"Masaya","name:ru":"Масая","name:uk":"Масая","name:ckb":"مەسایا","old_name":"Mazātlān"},"display_name":"Masaya, 41000, Nicaragua","address":{"municipality":"Masaya","state":"Masaya","ISO3166-2-lvl4":"NI-MS","postcode":"41000","country":"Nicaragua","country_code":"ni"},"population":178835,"osm_type":"relation","osm_id":5745793,"type":"administrative","location":[-86.0960547,11.9736474],"bbox":[-86.116331,11.9161313,-85.9868207,12.1413717]}}
{"name":"Matagalpa","other_names":{"loc_name":"Perla del Septentrión"},"display_name":"Matagalpa, 61000, Nicaragua","address":{"city":"Matagalpa","state":"Matagalpa","ISO3166-2-lvl4":"NI-MT","postcode":"61000","country":"Nicaragua","country_code":"ni"},"population":108052,"osm_type":"node","osm_id":4663401394,"type":"city","location":[-85.9184454,12.9283899],"bbox":[-86.0784454,12.7683899,-85.7584454,13.0883899],"border":[{"name":"Matagalpa","other_names":{"name:es":"Matagalpa","alt_name":"Matagalpa (Municipio)","loc_name":"Perla del Septentrión","official_name":"Municipio de Matagalpa"},"display_name":"Matagalpa, 61000, Nicaragua","address":{"municipality":"Matagalpa","state":"Matagalpa","ISO3166-2-lvl4":"NI-MT","postcode":"61000","country":"Nicaragua","country_code":"ni"},"population":159982,"osm_type":"relation","osm_id":5750389,"type":"administrative","location":[-85.9184454,12.9283899],"bbox":[-86.0647379,12.7593354,-85.6779418,13.1005605]},{"name":"Matagalpa","other_names":{"name:es":"Matagalpa","loc_name":"Perla del Septentrión"},"display_name":"Matagalpa, 61000, Nicaragua","address":{"city":"Matagalpa","state":"Matagalpa","ISO3166-2-lvl4":"NI-MT","postcode":"61000","country":"Nicaragua","country_code":"ni"},"population":108052,"osm_type":"relation","osm_id":13901923,"type":"administrative","location":[-85.9184454,12.9283899],"bbox":[-85.9580501,12.8966863,-85.8942913,12.9509853]}]}
{"name":"Ocotal","other_names":{"loc_name":"La Sultana del Norte","reg_name":"Ciudad de los Pinos"},"display_name":"Ocotal, Nueva Segovia, 37000, Nicaragua","address":{"city":"Ocotal","state":"Nueva Segovia","ISO3166-2-lvl4":"NI-NS","postcode":"37000","country":"Nicaragua","country_code":"ni"},"population":46308,"osm_type":"node","osm_id":302260821,"type":"city","location":[-86.476387,13.6333171],"bbox":[-86.636387,13.4733171,-86.316387,13.7933171],"border":[{"name":"Ocotal","other_names":{"name:es":"Ocotal","alt_name":"Ocotal (Municipio)","official_name":"Municipio de Ocotal","loc_name":"La Sultana del Norte","reg_name":"Ciudad de los Pinos"},"display_name":"Ocotal, Nueva Segovia, 37000, Nicaragua","address":{"municipality":"Ocotal","state":"Nueva Segovia","ISO3166-2-lvl4":"NI-NS","postcode":"37000","country":"Nicaragua","country_code":"ni"},"population":34580,"osm_type":"relation","osm_id":5729423,"type":"administrative","location":[-86.476387,13.6333171],"bbox":[-86.5519206,13.5836587,-86.4494676,13.7013987]},{"name":"Ocotal","other_names":{"name:es":"Ocotal","loc_name":"La Sultana del Norte","reg_name":"Ciudad de los Pinos"},"display_name":"Ocotal, Nueva Segovia, 37000, Nicaragua","address":{"city":"Ocotal","state":"Nueva Segovia","ISO3166-2-lvl4":"NI-NS","postcode":"37000","country":"Nicaragua","country_code":"ni"},"population":46308,"osm_type":"relation","osm_id":14564721,"type":"administrative","location":[-86.476387,13.6333171],"bbox":[-86.4976698,13.6137496,-86.4620071,13.6527801]}]}
{"name":"Rivas","other_names":{"name:hu":"Rivas"},"display_name":"Rivas, 47000, Nicaragua","address":{"city":"Rivas","state":"Rivas","ISO3166-2-lvl4":"NI-RI","postcode":"47000","country":"Nicaragua","country_code":"ni"},"population":42375,"osm_type":"node","osm_id":175896610,"type":"city","location":[-85.8287394,11.4389392],"bbox":[-85.9887394,11.2789392,-85.6687394,11.5989392],"border":[{"name":"Rivas","other_names":{"name:es":"Rivas","alt_name":"Rivas (Municipio)","official_name":"Municipio de Rivas","name:hu":"Rivas"},"display_name":"Rivas, 47000, Nicaragua","address":{"municipality":"Rivas","state":"Rivas","ISO3166-2-lvl4":"NI-RI","postcode":"47000","country":"Nicaragua","country_code":"ni"},"population":53208,"osm_type":"relation","osm_id":5743428,"type":"administrative","location":[-85.8287394,11.4389392],"bbox":[-85.9158123,11.2082232,-85.6391734,11.4787889]},{"name":"Rivas","other_names":{"name:es":"Rivas","name:hu":"Rivas"},"display_name":"Rivas, 47000, Nicaragua","address":{"city":"Rivas","state":"Rivas","ISO3166-2-lvl4":"NI-RI","postcode":"47000","country":"Nicaragua","country_code":"ni"},"population":42375,"osm_type":"relation","osm_id":15532818,"type":"administrative","location":[-85.8287394,11.4389392],"bbox":[-85.8435501,11.4222368,-85.8128668,11.4554708]}]}
{"name":"San Carlos","other_names":{"name:hu":"San Carlos","name:ka":"სან-კარლოსი","name:lt":"San Karlosas","name:ru":"Сан-Карлос","name:zh":"聖卡洛斯"},"display_name":"San Carlos, Río San Juan, 91000, Nicaragua","address":{"city":"San Carlos","state":"Río San Juan","ISO3166-2-lvl4":"NI-SJ","postcode":"91000","country":"Nicaragua","country_code":"ni"},"population":17013,"osm_type":"node","osm_id":12437216582,"type":"city","location":[-84.7783433,11.1230694],"bbox":[-84.9383433,10.9630694,-84.6183433,11.2830694],"border":[{"name":"San Carlos","other_names":{"name:es":"San Carlos","alt_name":"San Carlos (Municipio)","official_name":"Municipio de San Carlos","name:hu":"San Carlos","name:ka":"სან-კარლოსი","name:lt":"San Karlosas","name:ru":"Сан-Карлос","name:zh":"聖卡洛斯"},"display_name":"San Carlos, Río San Juan, 91000, Nicaragua","address":{"municipality":"San Carlos","state":"Río San Juan","ISO3166-2-lvl4":"NI-SJ","postcode":"91000","country":"Nicaragua","country_code":"ni"},"population":51313,"osm_type":"relation","osm_id":5758820,"type":"administrative","location":[-84.7783433,11.1230694],"bbox":[-85.1906973,10.9440292,-84.4369591,11.4124374]},{"name":"San Carlos","other_names":{"name:es":"San Carlos","name:hu":"San Carlos","name:ka":"სან-კარლოსი","name:lt":"San Karlosas","name:ru":"Сан-Карлос","name:zh":"聖卡洛斯"},"display_name":"San Carlos, Río San Juan, 91000, Nicaragua","address":{"city":"San Carlos","state":"Río San Juan","ISO3166-2-lvl4":"NI-SJ","postcode":"91000","country":"Nicaragua","country_code":"ni"},"population":17013,"osm_type":"relation","osm_id":4011860,"type":"administrative","location":[-84.7783433,11.1230694],"bbox":[-84.7803749,11.1209709,-84.7533472,11.1459068]}]}
{"name":"Somoto","other_names":{"old_name":"Xomotepetl","official_name":"Villa de Santiago de los Caballeros de Somoto Grande"},"display_name":"Somoto, Madriz, 34000, Nicaragua","address":{"city":"Somoto","state":"Madriz","ISO3166-2-lvl4":"NI-MD","postcode":"34000","country":"Nicaragua","country_code":"ni"},"population":20857,"osm_type":"node","osm_id":2773644825,"type":"city","location":[-86.5826225,13.4837096],"bbox":[-86.7426225,13.3237096,-86.4226225,13.6437096],"border":[{"name":"Somoto","other_names":{"name:es":"Somoto","alt_name":"Somoto (Municipio)","official_name":"Municipio de Somoto","old_name":"Xomotepetl","_place_official_name":"Villa de Santiago de los Caballeros de Somoto Grande"},"display_name":"Somoto, Madriz, 34000, Nicaragua","address":{"municipality":"Somoto","state":"Madriz","ISO3166-2-lvl4":"NI-MD","postcode":"34000","country":"Nicaragua","country_code":"ni"},"population":33788,"osm_type":"relation","osm_id":5726605,"type":"administrative","location":[-86.5826225,13.4837096],"bbox":[-86.7698964,13.4248725,-86.506867,13.6630509]},{"name":"Somoto","other_names":{"name:es":"Somoto","old_name":"Xomotepetl","official_name":"Villa de Santiago de los Caballeros de Somoto Grande"},"display_name":"Somoto, Madriz, 34000, Nicaragua","address":{"city":"Somoto","state":"Madriz","ISO3166-2-lvl4":"NI-MD","postcode":"34000","country":"Nicaragua","country_code":"ni"},"population":20857,"osm_type":"relation","osm_id":14874764,"type":"administrative","location":[-86.5826225,13.4837096],"bbox":[-86.5922547,13.4664332,-86.5691425,13.4912321]},{"name":"Somoto","display_name":"Somoto, Madriz, 34000, Nicaragua","address":{"city":"Somoto","state":"Madriz","ISO3166-2-lvl4":"NI-MD","postcode":"34000","country":"Nicaragua","country_code":"ni"},"osm_type":"way","osm_id":27507369,"type":"administrative","location":[-86.58198943646306,13.48103475],"bbox":[-86.5919584,13.4711394,-86.5704932,13.4921823]}]}
{"name":"Universidad Nacional Autónoma de Nicaragua (UNAN)","other_names":{"name:es":"Universidad Nacional Autónoma de Nicaragua (UNAN)","short_name":"UNAN","official_name":"Universidad Nacional Autónoma de Nicaragua"},"display_name":"Universidad Nacional Autónoma de Nicaragua (UNAN), 4a Avenida S.O., Sector UNAN Managua, Distrito I, Managua, 14174, Nicaragua","address":{"amenity":"Universidad Nacional Autónoma de Nicaragua (UNAN)","road":"4a Avenida S.O.","neighbourhood":"Sector UNAN Managua","region":"Distrito I","city":"Managua","ISO3166-2-lvl6":"NI-MN","state":"Managua","ISO3166-2-lvl4":"NI-MN","postcode":"14174","country":"Nicaragua","country_code":"ni"},"osm_type":"relation","osm_id":5876010,"type":"university","location":[-86.27009255783564,12.1082961],"bbox":[-86.2740352,12.1033497,-86.2670085,12.1132197]}
