{"name":"Colonia","other_names":{"name:en":"Colonia","name:es":"Colonia"},"display_name":"Colonia, Weeloey, Yap, 96943, Micronesia","address":{"town":"Colonia","city":"Weeloey","state":"Yap","ISO3166-2-lvl4":"FM-YAP","postcode":"96943","country":"Micronesia","country_code":"fm"},"osm_type":"node","osm_id":325698762,"type":"town","location":[138.121629,9.5162421],"bbox":[138.081629,9.4762421,138.161629,9.5562421]}
{"name":"Kolonia","other_names":{"name:ru":"Колония"},"display_name":"Kolonia, Pohnpei, Micronesia","address":{"town":"Kolonia","state":"Pohnpei","ISO3166-2-lvl4":"FM-PNI","country":"Micronesia","country_code":"fm"},"osm_type":"node","osm_id":2843794400,"type":"town","location":[158.2091324,6.9643412],"bbox":[158.1691324,6.9243412,158.2491324,7.0043412],"border":{"name":"Kolonia","other_names":{"name:en":"Kolonia","name:ru":"Колония"},"display_name":"Kolonia, Pohnpei, 96941, Micronesia","address":{"town":"Kolonia","state":"Pohnpei","ISO3166-2-lvl4":"FM-PNI","postcode":"96941","country":"Micronesia","country_code":"fm"},"osm_type":"relation","osm_id":3823801,"type":"administrative","location":[158.2091324,6.9643412],"bbox":[158.1998698,6.9539934,158.2168178,6.972203]}}
{"name":"Nukuoro","display_name":"Nukuoro, Pohnpei, Micronesia","address":{"town":"Nukuoro","state":"Pohnpei","ISO3166-2-lvl4":"FM-PNI","country":"Micronesia","country_code":"fm"},"population":400,"osm_type":"node","osm_id":6256675761,"type":"town","location":[154.9731755,3.8405483],"bbox":[154.9331755,3.8005483,155.0131755,3.8805483],"border":{"name":"Nukuoro","display_name":"Nukuoro, Pohnpei, Micronesia","address":{"town":"Nukuoro","state":"Pohnpei","ISO3166-2-lvl4":"FM-PNI","country":"Micronesia","country_code":"fm"},"population":400,"osm_type":"relation","osm_id":3823805,"type":"administrative","location":[154.9731755,3.8405483],"bbox":[154.7086,3.6195833,155.1772583,4.0764167]}}
{"name":"Palikir","other_names":{"name:af":"Palikir","name:am":"ፓሊኪር","name:ar":"باليكير","name:az":"Palikir","name:be":"Палікір","name:bg":"Паликир","name:bn":"পালিকির","name:br":"Palikir","name:bs":"Palikir","name:ca":"Palikir","name:ce":"Паликир","name:cs":"Palikir","name:cy":"Palikir","name:da":"Palikir","name:de":"Palikir","name:el":"Παλικίρ","name:en":"Palikir","name:eo":"Palikiro","name:es":"Palikir","name:et":"Palikir","name:eu":"Palikir","name:fa":"پالیکیر","name:fi":"Palikir","name:fr":"Palikir","name:gd":"Palikir","name:gl":"Palikir","name:he":"פליקיר","name:hi":"पालिकिर","name:hr":"Palikir","name:ht":"Paliki","name:hu":"Palikir","name:hy":"Պալիկիր","name:id":"Palikir","name:ie":"Palikir","name:io":"Palikir","name:is":"Palikír","name:it":"Palikir","name:ja":"パリキール","name:ka":"პალიკირი","name:ko":"팔리키르","name:ky":"Паликир","name:la":"Palicrum","name:lb":"Palikir","name:lt":"Palikyras","name:lv":"Palikira","name:mg":"Palikir","name:mk":"Паликир","name:ml":"പാലികിർ","name:mr":"पालिकिर","name:ms":"Palikir","name:nl":"Palikir","name:no":"Palikir","name:oc":"Palikir","name:pa":"ਪਾਲੀਕਰ","name:pl":"Palikir","name:ps":"پالیکیر","name:pt":"Paliquir","name:ro":"Palikir","name:ru":"Паликир","name:rw":"Palikir","name:sc":"Palikir","name:sh":"Palikir","name:sk":"Palikir","name:sl":"Palikir","name:sn":"Palikir","name:sr":"Паликир","name:sv":"Palikir","name:sw":"Palikir","name:ta":"பலிக்கீர்","name:tg":"Паликир","name:th":"ปาลีกีร์","name:tl":"Palikir","name:tr":"Palikir","name:ty":"Palikir","name:uk":"Палікір","name:ur":"پالیکیر","name:vi":"Palikir","name:zh":"帕利基尔","name:arz":"باليكير","name:ast":"Palikir","name:avk":"Palikir","name:hak":"Palikir","name:hif":"Palikir","name:lij":"Palikir","name:nds":"Palikir","name:sah":"Паликир","name:sco":"Palikir","name:vep":"Palikir","name:war":"Palikir","name:xmf":"პალიკირი","name:zh-Hans":"帕利基尔","name:zh-Hant":"帕利基爾","name:be-tarask":"Палікір"},"display_name":"Palikir, Sokehs, Soledi Kousapw, Pohnpei, Micronesia","address":{"town":"Palikir","city":"Sokehs","district":"Soledi Kousapw","state":"Pohnpei","ISO3166-2-lvl4":"FM-PNI","country":"Micronesia","country_code":"fm"},"osm_type":"node","osm_id":703902171,"type":"town","location":[158.1627143,6.920744],"bbox":[158.1227143,6.880744,158.2027143,6.960744]}
{"name":"Tamworohi","display_name":"Tamworohi, Madolenihmw, Pohnpei, Micronesia","address":{"town":"Tamworohi","city":"Madolenihmw","state":"Pohnpei","ISO3166-2-lvl4":"FM-PNI","country":"Micronesia","country_code":"fm"},"osm_type":"node","osm_id":2843818803,"type":"town","location":[158.3075595,6.8430235],"bbox":[158.2675595,6.8030235,158.3475595,6.8830235]}
{"name":"Weno","other_names":{"alt_name":"Moen"},"display_name":"Weno, Chuuk, Micronesia","address":{"town":"Weno","island":"Weno","state":"Chuuk","ISO3166-2-lvl4":"FM-TRK","country":"Micronesia","country_code":"fm"},"osm_type":"node","osm_id":9783510213,"type":"town","location":[151.8584946,7.4425256],"bbox":[151.8184946,7.4025256,151.8984946,7.4825256],"border":{"name":"Weno","other_names":{"name:en":"Weno","alt_name":"Moen"},"display_name":"Weno, Chuuk, 96942, Micronesia","address":{"island":"Weno","state":"Chuuk","ISO3166-2-lvl4":"FM-TRK","postcode":"96942","country":"Micronesia","country_code":"fm"},"osm_type":"relation","osm_id":3821455,"type":"administrative","location":[151.8584946,7.4425256],"bbox":[151.8360817,7.4116468,151.9014949,7.4686383]}}
