{"name":"Funafuti","other_names":{"name:ca":"Funafuti","name:en":"Funafuti","name:hu":"Funafuti","name:ru":"Фунафути","name:ta":"ஃபுனஃபூட்டி","name:uk":"Фунафуті","name:zh":"富纳富提"},"display_name":"Funafuti, Tuvalu","address":{"town":"Funafuti","ISO3166-2-lvl8":"TV-FUN","country":"Tuvalu","country_code":"tv"},"osm_type":"node","osm_id":3376265049,"type":"town","location":[179.1982548,-8.5199633],"bbox":[179.1582548,-8.5599633,179.2382548,-8.4799633],"border":{"name":"Funafuti","other_names":{"name:af":"Funafuti","name:am":"ፉናፉቲ","name:ar":"فونافوتي","name:az":"Funafuti","name:be":"Фунафуці","name:bg":"Фунафути","name:bn":"ফুনাফুতি","name:bo":"ཕུ་ན་ཕུ་ཊི།","name:br":"Funafuti","name:bs":"Funafuti","name:ca":"Funafuti","name:cs":"Funafuti","name:cy":"Funafuti","name:da":"Funafuti","name:de":"Funafuti","name:el":"Φουναφούτι","name:en":"Funafuti","name:eo":"Funafutio","name:es":"Funafuti","name:et":"Funafuti","name:eu":"Funafuti","name:fa":"فونافوتی","name:fi":"Funafuti","name:fo":"Funafuti","name:fr":"Funafuti","name:gd":"Funafuti","name:gl":"Funafuti","name:he":"פונאפוטי","name:hi":"फुनाफुति","name:hr":"Funafuti","name:ht":"Founafouti","name:hu":"Funafuti","name:hy":"Ֆունաֆուտի","name:ia":"Funafuti","name:id":"Funafuti","name:ie":"Funafuti","name:io":"Funafuti","name:is":"Fúnafútí","name:it":"Funafuti","name:ja":"フナフティ島","name:ka":"ფუნაფუტი","name:ko":"푸나푸티","name:la":"Funafuti","name:lb":"Funafuti","name:lt":"Funafutis","name:lv":"Funafuti","name:mk":"Фунафути","name:ml":"ഫ്യൂനഫ്യൂടി","name:mr":"फुनाफुती","name:ms":"Funafuti","name:mt":"Funafuti","name:nl":"Funafuti","name:nn":"Funafuti","name:no":"Funafuti","name:ny":"Funafuti","name:oc":"Funafuti","name:os":"Фунафути","name:pa":"ਫ਼ੁਨਾਫ਼ੁਤੀ","name:pl":"Funafuti","name:ps":"فونافوتي","name:pt":"Funafuti","name:ro":"Funafuti","name:ru":"Фунафути","name:rw":"Funafuti","name:sc":"Funafuti","name:sh":"Funafuti","name:sk":"Funafuti","name:sl":"Funafuti","name:sn":"Funafuti","name:sq":"Funafuti","name:sr":"Фунафути","name:sv":"Funafuti","name:sw":"Funafuti","name:ta":"ஃபுனஃபூட்டி","name:tg":"Фунафути","name:th":"ฟูนาฟูตี","name:tl":"Funafuti","name:uk":"Фунафуті","name:ur":"فونافوتی","name:uz":"Funafuti","name:vi":"Funafuti","name:zh":"富纳富提","name:ace":"Funafuti","name:ast":"Funafuti","name:cdo":"Funafuti","name:ceb":"Funafuti","name:hak":"Funafuti","name:hif":"Funafuti","name:lij":"Funafuti","name:lmo":"Funafuti","name:mrj":"Фунафути","name:nan":"Funafuti","name:pih":"Funafuti","name:pms":"Funafuti","name:sah":"Фунафути","name:vep":"Funafuti","name:war":"Funafuti","name:wuu":"富纳富提","name:xmf":"ფუნაფუტი","name:yue":"富納富提","ISO3166-2":"TV-FUN","name:simple":"Funafuti","name:be-tarask":"Фунафуці"},"display_name":"Funafuti, Tuvalu","address":{"town":"Funafuti","ISO3166-2-lvl8":"TV-FUN","country":"Tuvalu","country_code":"tv"},"osm_type":"relation","osm_id":3766660,"type":"administrative","location":[179.1982548,-8.5199633],"bbox":[178.5777095,-9.1226645,179.6681333,-8.0210879]}}
