{"name":"Bakel","display_name":"Bakel, Département de Bakel, Région de Tambacounda, Sénégal","address":{"city":"Bakel","state_district":"Département de Bakel","region":"Région de Tambacounda","ISO3166-2-lvl4":"SN-TC","country":"Sénégal","country_code":"sn"},"osm_type":"node","osm_id":295844702,"type":"city","location":[-12.4568066,14.9049666],"bbox":[-12.6168066,14.7449666,-12.2968066,15.0649666],"border":{"name":"Bakel","display_name":"Bakel, Département de Bakel, Région de Tambacounda, Sénégal","address":{"city":"Bakel","state_district":"Département de Bakel","region":"Région de Tambacounda","ISO3166-2-lvl4":"SN-TC","country":"Sénégal","country_code":"sn"},"osm_type":"relation","osm_id":13049758,"type":"administrative","location":[-12.4568066,14.9049666],"bbox":[-12.4716356,14.8911515,-12.4491024,14.921813]}}
{"name":"Dakar","other_names":{"name:am":"ዳካር","name:ar":"داكار","name:ba":"Дакар","name:be":"Дакар","name:bg":"Дакар","name:bm":"Dakaro","name:bn":"ডাকার","name:bo":"ཌ་ཀར།","name:br":"Dakar","name:ca":"Dakar","name:ce":"Дакар","name:cs":"Dakar","name:cv":"Дакар","name:de":"Dakar","name:el":"Ντακάρ","name:en":"Dakar","name:eo":"Dakaro","name:es":"Dakar","name:fa":"داکار","name:fr":"Dakar","name:ga":"Dacár","name:gl":"Dacar - Dakar","name:he":"דקאר","name:hi":"डकार","name:ht":"Daka","name:hu":"Dakar","name:hy":"Դակար","name:is":"Dakar","name:it":"Dakar","name:ja":"ダカール","name:ka":"დაკარი","name:kk":"Дакар","name:km":"ដាកា","name:kn":"ಡಕಾರ್","name:ko":"다카르","name:ku":"Dakar","name:ky":"Дакар","name:lt":"Dakaras","name:lv":"Dakara","name:mk":"Дакар","name:ml":"ഡാക്കർ","name:mr":"डकार","name:nl":"Dakar","name:no":"Dakar","name:oc":"Dakar","name:os":"Дакар","name:pa":"ਡਾਕਾਰ","name:pl":"Dakar","name:ps":"داکار","name:pt":"Dacar","name:ru":"Дакар","name:sd":"ڊاڪار","name:so":"Dhakar","name:sq":"Dakari","name:sr":"Дакар","name:sv":"Dakar","name:ta":"டக்கார்","name:tg":"Дакар","name:th":"ดาการ์","name:tr":"Dakar","name:ug":"داكار","name:uk":"Дакар","name:ur":"ڈاکار","name:vo":"Ndakaaru","name:wo":"Ndakaaru","name:yi":"דאקאר","name:zh":"達喀爾/达喀尔","name:arz":"داكار","name:ckb":"داکار","name:gcf":"Dakar","name:mrj":"Дакар","name:pnb":"ڈا کار","name:udm":"Дакар","alt_name:ar":"دكار"},"display_name":"Dakar, Région de Dakar, Sénégal","address":{"city":"Dakar","state":"Région de Dakar","ISO3166-2-lvl4":"SN-DK","country":"Sénégal","country_code":"sn"},"population":2396800,"osm_type":"node","osm_id":27565045,"type":"city","location":[-17.447938,14.693425],"bbox":[-17.607938,14.533425,-17.287938,14.853425],"border":{"name":"Dakar","other_names":{"name:ar":"داكار","name:en":"Dakar","name:fa":"داکار","name:fr":"Dakar","name:am":"ዳካር","name:ba":"Дакар","name:be":"Дакар","name:bg":"Дакар","name:bm":"Dakaro","name:bn":"ডাকার","name:bo":"ཌ་ཀར།","name:br":"Dakar","name:ca":"Dakar","name:ce":"Дакар","name:cs":"Dakar","name:cv":"Дакар","name:de":"Dakar","name:el":"Ντακάρ","name:eo":"Dakaro","name:es":"Dakar","name:ga":"Dacár","name:gl":"Dacar - Dakar","name:he":"דקאר","name:hi":"डकार","name:ht":"Daka","name:hu":"Dakar","name:hy":"Դակար","name:is":"Dakar","name:it":"Dakar","name:ja":"ダカール","name:ka":"დაკარი","name:kk":"Дакар","name:km":"ដាកា","name:kn":"ಡಕಾರ್","name:ko":"다카르","name:ku":"Dakar","name:ky":"Дакар","name:lt":"Dakaras","name:lv":"Dakara","name:mk":"Дакар","name:ml":"ഡാക്കർ","name:mr":"डकार","name:nl":"Dakar","name:no":"Dakar","name:oc":"Dakar","name:os":"Дакар","name:pa":"ਡਾਕਾਰ","name:pl":"Dakar","name:ps":"داکار","name:pt":"Dacar","name:ru":"Дакар","name:sd":"ڊاڪار","name:so":"Dhakar","name:sq":"Dakari","name:sr":"Дакар","name:sv":"Dakar","name:ta":"டக்கார்","name:tg":"Дакар","name:th":"ดาการ์","name:tr":"Dakar","name:ug":"داكار","name:uk":"Дакар","name:ur":"ڈاکار","name:vo":"Ndakaaru","name:wo":"Ndakaaru","name:yi":"דאקאר","name:zh":"達喀爾/达喀尔","name:arz":"داكار","name:ckb":"داکار","name:gcf":"Dakar","name:mrj":"Дакар","name:pnb":"ڈا کار","name:udm":"Дакар","official_name:ar":"مقاطعة داكار","official_name:en":"Dakar Department","official_name:fa":"دپارتمان داکار","official_name:fr":"Département de Dakar","alt_name:ar":"دكار"},"display_name":"Dakar, Région de Dakar, Sénégal","address":{"city":"Dakar","state":"Région de Dakar","ISO3166-2-lvl4":"SN-DK","country":"Sénégal","country_code":"sn"},"population":2396800,"osm_type":"relation","osm_id":12982139,"type":"administrative","location":[-17.447938,14.693425],"bbox":[-17.5490249,14.646453,-17.3966032,14.7966431]}}
{"name":"Diourbel","other_names":{"name:ar":"ديوربل","name:ko":"디우르벨","name:ru":"Диурбель","name:ur":"دیوربیل","alt_name":"Ndiarem","alt_name:ar":"ديوربيل;ديوربِل"},"display_name":"Diourbel, Département de Diourbel, Région de Diourbel, Sénégal","address":{"city":"Diourbel","state_district":"Département de Diourbel","region":"Région de Diourbel","ISO3166-2-lvl4":"SN-DB","country":"Sénégal","country_code":"sn"},"population":100445,"osm_type":"node","osm_id":249742121,"type":"city","location":[-16.227822,14.654562],"bbox":[-16.387822,14.494562,-16.067822,14.814562],"border":{"name":"Diourbel","other_names":{"name:ar":"ديوربل","name:fr":"Diourbel","name:ko":"디우르벨","name:ur":"دیوربیل","alt_name":"Ndiarem","alt_name:ar":"ديوربيل;ديوربِل","name:ru":"Диурбель"},"display_name":"Diourbel, Département de Diourbel, Région de Diourbel, 21600, Sénégal","address":{"city":"Diourbel","state_district":"Département de Diourbel","region":"Région de Diourbel","ISO3166-2-lvl4":"SN-DB","postcode":"21600","country":"Sénégal","country_code":"sn"},"population":100445,"osm_type":"relation","osm_id":13004964,"type":"administrative","location":[-16.227822,14.654562],"bbox":[-16.2740793,14.6259181,-16.1904202,14.6835634]}}
{"name":"Fatick","other_names":{"name:ar":"فتيك","name:ko":"파티크","name:ru":"Фатик"},"display_name":"Fatick, Département de Fatick, Région de Fatick, 24600, Sénégal","address":{"city":"Fatick","state_district":"Département de Fatick","state":"Région de Fatick","ISO3166-2-lvl4":"SN-FK","postcode":"24600","country":"Sénégal","country_code":"sn"},"osm_type":"node","osm_id":249742347,"type":"city","location":[-16.404219,14.333965],"bbox":[-16.564219,14.173965,-16.244219,14.493965],"border":{"name":"Fatick","other_names":{"name:ar":"فتيك","name:fr":"Fatick","name:ko":"파티크","name:ru":"Фатик"},"display_name":"Fatick, Département de Fatick, Région de Fatick, Sénégal","address":{"city":"Fatick","state_district":"Département de Fatick","state":"Région de Fatick","ISO3166-2-lvl4":"SN-FK","country":"Sénégal","country_code":"sn"},"osm_type":"relation","osm_id":12995363,"type":"administrative","location":[-16.404219,14.333965],"bbox":[-16.4421182,14.3126954,-16.3885421,14.3614174]}}
{"name":"Guédiawaye","other_names":{"name:ar":"غيديوية","name:en":"Guédiawaye","name:fr":"Guédiawaye","alt_name:ar":"غيدياوايى"},"display_name":"Guédiawaye, Département de Guédiawaye, Région de Dakar, Sénégal","address":{"city":"Guédiawaye","department":"Département de Guédiawaye","state":"Région de Dakar","ISO3166-2-lvl4":"SN-DK","country":"Sénégal","country_code":"sn"},"population":286989,"osm_type":"node","osm_id":1158142391,"type":"city","location":[-17.390071,14.7771207],"bbox":[-17.550071,14.6171207,-17.230071,14.9371207],"border":{"name":"Département de Guédiawaye","other_names":{"name:ar":"مقاطعة جديوي","name:en":"Guédiawaye Department","name:fa":"دپارتمان گدیوی","name:fr":"Département de Guédiawaye","alt_name:ar":"غيدياوايى","alt":"Guédiawaye","alt:ar":"غيديوية","alt:en":"Guédiawaye","alt:fr":"Guédiawaye"},"display_name":"Département de Guédiawaye, Région de Dakar, 15000, Sénégal","address":{"department":"Département de Guédiawaye","state":"Région de Dakar","ISO3166-2-lvl4":"SN-DK","postcode":"15000","country":"Sénégal","country_code":"sn"},"population":286989,"osm_type":"relation","osm_id":12982146,"type":"administrative","location":[-17.390071,14.7771207],"bbox":[-17.4300718,14.7452296,-17.359596,14.8147591]}}
{"name":"Kaffrine","display_name":"Kaffrine, Département de Kaffrine, Région de Kaffrine, Sénégal","address":{"city":"Kaffrine","state_district":"Département de Kaffrine","region":"Région de Kaffrine","ISO3166-2-lvl4":"SN-KA","country":"Sénégal","country_code":"sn"},"osm_type":"node","osm_id":292953346,"type":"city","location":[-15.548433,14.10197],"bbox":[-15.708433,13.94197,-15.388433,14.26197],"border":{"name":"Kaffrine","display_name":"Kaffrine, Département de Kaffrine, Région de Kaffrine, Sénégal","address":{"city":"Kaffrine","state_district":"Département de Kaffrine","region":"Région de Kaffrine","ISO3166-2-lvl4":"SN-KA","country":"Sénégal","country_code":"sn"},"osm_type":"relation","osm_id":12992881,"type":"administrative","location":[-15.548433,14.10197],"bbox":[-15.5737781,14.0779984,-15.5219094,14.1247939]}}
{"name":"Kaolack","other_names":{"name:ar":"كاولاك","name:en":"Kaolack","name:ko":"카올라크","name:ru":"Каолак","name:uk":"Каолак"},"display_name":"Kaolack, Département de Kaolack, Région de Kaolack, 24000, Sénégal","address":{"city":"Kaolack","state_district":"Département de Kaolack","region":"Région de Kaolack","ISO3166-2-lvl4":"SN-KL","postcode":"24000","country":"Sénégal","country_code":"sn"},"population":172305,"osm_type":"node","osm_id":3329033430,"type":"city","location":[-16.076391,14.138815],"bbox":[-16.236391,13.978815,-15.916391,14.298815],"border":{"name":"Kaolack","other_names":{"name:ar":"كاولاك","name:en":"Kaolack","name:fr":"Kaolack","name:ko":"카올라크","name:ru":"Каолак","name:uk":"Каолак"},"display_name":"Kaolack, Département de Kaolack, Région de Kaolack, 24000, Sénégal","address":{"city":"Kaolack","state_district":"Département de Kaolack","region":"Région de Kaolack","ISO3166-2-lvl4":"SN-KL","postcode":"24000","country":"Sénégal","country_code":"sn"},"population":172305,"osm_type":"relation","osm_id":12997055,"type":"administrative","location":[-16.076391,14.138815],"bbox":[-16.1641201,14.1108487,-16.0328748,14.2058134]}}
{"name":"Kolda","other_names":{"name:en":"Kolda","name:fr":"Kolda","name:ru":"Колда"},"display_name":"Kolda, Département de Kolda, Région de Kolda, Sénégal","address":{"city":"Kolda","state_district":"Département de Kolda","region":"Région de Kolda","ISO3166-2-lvl4":"SN-KD","country":"Sénégal","country_code":"sn"},"population":63000,"osm_type":"node","osm_id":2410110786,"type":"city","location":[-14.9400971,12.8921154],"bbox":[-15.1000971,12.7321154,-14.7800971,13.0521154],"border":{"name":"Kolda","other_names":{"name:fr":"Kolda","name:en":"Kolda","name:ru":"Колда"},"display_name":"Kolda, Département de Kolda, Région de Kolda, Sénégal","address":{"city":"Kolda","state_district":"Département de Kolda","region":"Région de Kolda","ISO3166-2-lvl4":"SN-KD","country":"Sénégal","country_code":"sn"},"population":63000,"osm_type":"relation","osm_id":13042508,"type":"administrative","location":[-14.9400971,12.8921154],"bbox":[-14.9739233,12.8653657,-14.8970487,12.9311426]}}
{"name":"Louga","other_names":{"name:ar":"لوغا","name:fa":"لوگا","name:ko":"루가","name:lt":"Luga","name:ru":"Луга","name:ur":"لؤگا","alt_name":"Luga","alt_name:ar":"لوجا"},"display_name":"Louga, Département de Louga, Région de Louga, Sénégal","address":{"city":"Louga","state_district":"Département de Louga","region":"Région de Louga","ISO3166-2-lvl4":"SN-LG","country":"Sénégal","country_code":"sn"},"population":82884,"osm_type":"node","osm_id":249743823,"type":"city","location":[-16.2233275,15.6118551],"bbox":[-16.3833275,15.4518551,-16.0633275,15.7718551],"border":{"name":"Louga","other_names":{"name:ar":"لوغا","name:fa":"لوگا","name:fr":"Louga","name:ko":"루가","name:lt":"Luga","name:ur":"لؤگا","alt_name":"Luga","alt_name:ar":"لوجا","name:ru":"Луга"},"display_name":"Louga, Département de Louga, Région de Louga, 31000, Sénégal","address":{"city":"Louga","state_district":"Département de Louga","region":"Région de Louga","ISO3166-2-lvl4":"SN-LG","postcode":"31000","country":"Sénégal","country_code":"sn"},"population":82884,"osm_type":"relation","osm_id":13067346,"type":"administrative","location":[-16.2233275,15.6118551],"bbox":[-16.252939,15.5993328,-16.2002046,15.6465232]}}
{"name":"M'bour","other_names":{"name:ar":"امبور"},"display_name":"M'bour, Département de M'bour, Région de Thiès, 23000, Sénégal","address":{"city":"M'bour","state_district":"Département de M'bour","region":"Région de Thiès","ISO3166-2-lvl4":"SN-TH","postcode":"23000","country":"Sénégal","country_code":"sn"},"osm_type":"node","osm_id":286752859,"type":"city","location":[-16.9657124,14.411794],"bbox":[-17.1257124,14.251794,-16.8057124,14.571794],"border":{"name":"M'bour","other_names":{"name:ar":"امبور","name:fr":"M'bour"},"display_name":"M'bour, Département de M'bour, Région de Thiès, Sénégal","address":{"city":"M'bour","state_district":"Département de M'bour","region":"Région de Thiès","ISO3166-2-lvl4":"SN-TH","country":"Sénégal","country_code":"sn"},"osm_type":"relation","osm_id":13059662,"type":"administrative","location":[-16.9657124,14.411794],"bbox":[-16.999029,14.3922099,-16.938599,14.4568087]}}
{"name":"Médina Gounass","other_names":{"name:ar":"المدينة كوناس","name:fr":"Médina Gounass","alt_name:fr":"Madina Gounass"},"display_name":"Médina Gounass, Communauté rurale de Médina Gounass, Arrondissement de Bonconto, Département de Vélingara, Région de Kolda, Sénégal","address":{"city":"Médina Gounass","municipality":"Arrondissement de Bonconto","state_district":"Département de Vélingara","region":"Région de Kolda","ISO3166-2-lvl4":"SN-KD","country":"Sénégal","country_code":"sn"},"osm_type":"node","osm_id":351540931,"type":"city","location":[-13.7601374,13.1388856],"bbox":[-13.9201374,12.9788856,-13.6001374,13.2988856]}
{"name":"Pikine","other_names":{"name:ar":"بيكين","name:fa":"پیکین","name:fr":"Pikine","name:he":"פיכין","name:ko":"피킨","name:gcf":"Pikin"},"display_name":"Pikine, Commune de Pikine Ouest, Arrondissement de Pikine-Dagoudane, Département de Pikine, Région de Dakar, Sénégal","address":{"city":"Pikine","neighbourhood":"Commune de Pikine Ouest","municipality":"Arrondissement de Pikine-Dagoudane","department":"Département de Pikine","state":"Région de Dakar","ISO3166-2-lvl4":"SN-DK","country":"Sénégal","country_code":"sn"},"osm_type":"node","osm_id":281171041,"type":"city","location":[-17.396413,14.751544],"bbox":[-17.556413,14.591544,-17.236413,14.911544],"border":{"name":"Pikine","other_names":{"name:ar":"بيكين","name:fa":"پیکین","name:fr":"Pikine","name:he":"פיכין","name:ko":"피킨","name:gcf":"Pikin"},"display_name":"Pikine, Commune de Pikine Ouest, Arrondissement de Pikine-Dagoudane, Département de Pikine, Région de Dakar, 16000, Sénégal","address":{"city":"Pikine","neighbourhood":"Commune de Pikine Ouest","municipality":"Arrondissement de Pikine-Dagoudane","department":"Département de Pikine","state":"Région de Dakar","ISO3166-2-lvl4":"SN-DK","postcode":"16000","country":"Sénégal","country_code":"sn"},"osm_type":"relation","osm_id":12989399,"type":"administrative","location":[-17.396413,14.751544],"bbox":[-17.4245815,14.7336688,-17.3768521,14.7701456]}}
{"name":"Rufisque","other_names":{"name:ar":"روفسك","name:ko":"뤼피스크"},"display_name":"Rufisque, Département de Rufisque, Région de Dakar, Sénégal","address":{"city":"Rufisque","arrondissement":"Rufisque","department":"Département de Rufisque","state":"Région de Dakar","ISO3166-2-lvl4":"SN-DK","country":"Sénégal","country_code":"sn"},"osm_type":"node","osm_id":281170836,"type":"city","location":[-17.273844,14.716417],"bbox":[-17.433844,14.556417,-17.113844,14.876417],"border":{"name":"Rufisque","other_names":{"name:fr":"Rufisque","name:ar":"روفسك","name:ko":"뤼피스크","official_name:en":"Rufisque Arrondissement","official_name:fr":"Arrondissement de Rufisque"},"display_name":"Rufisque, Département de Rufisque, Région de Dakar, Sénégal","address":{"arrondissement":"Rufisque","department":"Département de Rufisque","state":"Région de Dakar","ISO3166-2-lvl4":"SN-DK","country":"Sénégal","country_code":"sn"},"osm_type":"relation","osm_id":12982159,"type":"administrative","location":[-17.273844,14.716417],"bbox":[-17.315818,14.6966189,-17.2383665,14.7537368]}}
{"name":"Saint-Louis","other_names":{"name:ar":"سانت لويس","name:en":"Saint-Louis","name:he":"סן-לואי","name:ko":"생루이","name:ru":"Сен-Луи","name:uk":"Сен-Луї","name:wo":"Ndar"},"display_name":"Saint-Louis, Département de Saint-Louis, Région de Saint-Louis, 32000, Sénégal","address":{"city":"Saint-Louis","state_district":"Département de Saint-Louis","region":"Région de Saint-Louis","ISO3166-2-lvl4":"SN-SL","postcode":"32000","country":"Sénégal","country_code":"sn"},"population":176000,"osm_type":"node","osm_id":249167293,"type":"city","location":[-16.5048686,16.0280445],"bbox":[-16.6648686,15.8680445,-16.3448686,16.1880445],"border":{"name":"Saint-Louis","other_names":{"name:ar":"سانت لويس","name:en":"Saint-Louis","name:fr":"Saint-Louis","name:he":"סן-לואי","name:ko":"생루이","name:ru":"Сен-Луи","name:uk":"Сен-Луї","name:wo":"Ndar"},"display_name":"Saint-Louis, Département de Saint-Louis, Région de Saint-Louis, Sénégal","address":{"city":"Saint-Louis","state_district":"Département de Saint-Louis","region":"Région de Saint-Louis","ISO3166-2-lvl4":"SN-SL","country":"Sénégal","country_code":"sn"},"population":176000,"osm_type":"relation","osm_id":12989616,"type":"administrative","location":[-16.5048686,16.0280445],"bbox":[-16.5159978,15.9577436,-16.3964017,16.084759]}}
{"name":"Tambacounda","other_names":{"name:ar":"تامباكوندا","name:en":"Tambacounda","name:ko":"탐바쿤다","name:ru":"Тамбакунда"},"display_name":"Tambacounda, Département de Tambacounda, Région de Tambacounda, Sénégal","address":{"city":"Tambacounda","state_district":"Département de Tambacounda","region":"Région de Tambacounda","ISO3166-2-lvl4":"SN-TC","country":"Sénégal","country_code":"sn"},"population":78800,"osm_type":"node","osm_id":249744836,"type":"city","location":[-13.6682901,13.7692585],"bbox":[-13.8282901,13.6092585,-13.5082901,13.9292585],"border":{"name":"Tambacounda","other_names":{"name:ar":"تامباكوندا","name:fr":"Tambacounda","name:ko":"탐바쿤다","name:en":"Tambacounda","name:ru":"Тамбакунда"},"display_name":"Tambacounda, Département de Tambacounda, Région de Tambacounda, 26000, Sénégal","address":{"city":"Tambacounda","state_district":"Département de Tambacounda","region":"Région de Tambacounda","ISO3166-2-lvl4":"SN-TC","postcode":"26000","country":"Sénégal","country_code":"sn"},"population":78800,"osm_type":"relation","osm_id":13053248,"type":"administrative","location":[-13.6682901,13.7692585],"bbox":[-13.7171112,13.7199787,-13.6299072,13.8072346]}}
{"name":"Thiès","other_names":{"name:ar":"تييس","name:fr":"Thiès","name:ko":"티에스","name:lt":"Tiesas","name:ru":"Тиес"},"display_name":"Thiès, Commune de Thiès Ouest, Arrondissement de Thiès Sud, Département de Thiès, Région de Thiès, Sénégal","address":{"city":"Thiès","suburb":"Commune de Thiès Ouest","municipality":"Arrondissement de Thiès Sud","state_district":"Département de Thiès","region":"Région de Thiès","ISO3166-2-lvl4":"SN-TH","country":"Sénégal","country_code":"sn"},"population":320000,"osm_type":"node","osm_id":671824694,"type":"city","location":[-16.925605,14.791461],"bbox":[-17.085605,14.631461,-16.765605,14.951461],"border":{"name":"Thiès","other_names":{"name:ar":"تييس","name:fr":"Thiès","name:ko":"티에스","name:lt":"Tiesas","name:ru":"Тиес"},"display_name":"Thiès, Commune de Thiès Ouest, Arrondissement de Thiès Sud, Département de Thiès, Région de Thiès, Sénégal","address":{"city":"Thiès","suburb":"Commune de Thiès Ouest","municipality":"Arrondissement de Thiès Sud","state_district":"Département de Thiès","region":"Région de Thiès","ISO3166-2-lvl4":"SN-TH","country":"Sénégal","country_code":"sn"},"population":320000,"osm_type":"relation","osm_id":13058982,"type":"administrative","location":[-16.925605,14.791461],"bbox":[-16.9695847,14.7678431,-16.8909682,14.8325629]}}
{"name":"Touba","other_names":{"name:ar":"طوبى","name:he":"טובא","name:ko":"투바","name:ru":"Туба"},"display_name":"Touba, Communauté rurale de Touba Mosquée, Arrondissement de Ndame, Département de Mbacké, Région de Diourbel, Sénégal","address":{"city":"Touba","municipality":"Arrondissement de Ndame","state_district":"Département de Mbacké","region":"Région de Diourbel","ISO3166-2-lvl4":"SN-DB","country":"Sénégal","country_code":"sn"},"osm_type":"node","osm_id":293437934,"type":"city","location":[-15.876047,14.864559],"bbox":[-16.036047,14.704559,-15.716047,15.024559],"border":{"name":"Touba","other_names":{"name:ar":"طوبى","name:fr":"Touba","name:he":"טובא","name:ko":"투바","name:ru":"Туба"},"display_name":"Touba, Communauté rurale de Touba Mosquée, Arrondissement de Ndame, Département de Mbacké, Région de Diourbel, Sénégal","address":{"city":"Touba","municipality":"Arrondissement de Ndame","state_district":"Département de Mbacké","region":"Région de Diourbel","ISO3166-2-lvl4":"SN-DB","country":"Sénégal","country_code":"sn"},"osm_type":"relation","osm_id":13001610,"type":"administrative","location":[-15.876047,14.864559],"bbox":[-15.9643442,14.8015117,-15.8123821,14.9303019]}}
{"name":"Ziguinchor","other_names":{"name:ar":"زيغنشور","name:en":"Ziguinchor","name:fr":"Ziguinchor","name:ru":"Зигиншор","name:ur":"زیگینچور","alt_name:ar":"زيغينشور;زيجوينكور"},"display_name":"Ziguinchor, Département de Ziguinchor, Région de Ziguinchor, Sénégal","address":{"city":"Ziguinchor","state_district":"Département de Ziguinchor","region":"Région de Ziguinchor","ISO3166-2-lvl4":"SN-ZG","country":"Sénégal","country_code":"sn"},"population":230000,"osm_type":"node","osm_id":2281987760,"type":"city","location":[-16.2724609,12.5634929],"bbox":[-16.4324609,12.4034929,-16.1124609,12.7234929],"border":{"name":"Ziguinchor","other_names":{"name:ar":"زيغنشور","name:fr":"Ziguinchor","name:ur":"زیگینچور","alt_name:ar":"زيغينشور;زيجوينكور","name:en":"Ziguinchor","name:ru":"Зигиншор"},"display_name":"Ziguinchor, Département de Ziguinchor, Région de Ziguinchor, Sénégal","address":{"city":"Ziguinchor","state_district":"Département de Ziguinchor","region":"Région de Ziguinchor","ISO3166-2-lvl4":"SN-ZG","country":"Sénégal","country_code":"sn"},"population":230000,"osm_type":"relation","osm_id":13009661,"type":"administrative","location":[-16.2724609,12.5634929],"bbox":[-16.3053149,12.5262615,-16.2378778,12.5954763]}}
