{"name":"‘Uwaynat al Murrah","other_names":{"name:ar":"‘Uwaynat al Murrah","name:en":"‘Uwaynat al Murrah","name:es":"‘Uwaynat al Murrah","name:fr":"‘Uwaynat al Murrah","alt_name":"`Uwaynat al Murrah, عوينة المرّة, ‘Uwaynat al Murrah"},"display_name":"‘Uwaynat al Murrah, محافظة شمال الباطنة, عمان","address":{"town":"‘Uwaynat al Murrah","state":"محافظة شمال الباطنة","ISO3166-2-lvl4":"OM-BS","country":"عمان","country_code":"om"},"osm_type":"node","osm_id":11874852016,"type":"town","location":[56.8947194,23.7562019],"bbox":[56.8547194,23.7162019,56.9347194,23.7962019]}
{"name":"Ad Dashshah","other_names":{"name:ar":"Ad Dashshah","name:en":"Ad Dashshah","name:es":"Ad Dashshah","name:fr":"Ad Dashshah","alt_name":"Ad Dashshah, aldsht, الدشّة"},"display_name":"Ad Dashshah, محافظة الظاهرة, عمان","address":{"town":"Ad Dashshah","state":"محافظة الظاهرة","ISO3166-2-lvl4":"OM-ZA","country":"عمان","country_code":"om"},"osm_type":"node","osm_id":11947579177,"type":"town","location":[56.8506972,23.0656326],"bbox":[56.8106972,23.0256326,56.8906972,23.1056326]}
{"name":"Al `Arja'","other_names":{"name:ar":"Al `Arja'","name:en":"Al `Arja'","name:es":"Al `Arja'","name:fr":"Al `Arja'","alt_name":"Al `Arja', Al ‘Arjā’, العرجاء"},"display_name":"Al `Arja', محافظة شمال الباطنة, عمان","address":{"town":"Al `Arja'","state":"محافظة شمال الباطنة","ISO3166-2-lvl4":"OM-BS","country":"عمان","country_code":"om"},"osm_type":"node","osm_id":11874970537,"type":"town","location":[56.4290627,24.3636671],"bbox":[56.3890627,24.3236671,56.4690627,24.4036671]}
{"name":"Al Banah","other_names":{"name:ar":"Al Banah","name:en":"Al Banah","name:es":"Al Banah","name:fr":"Al Banah","alt_name":"Al Banah, Al Bānah, albant, البانة"},"display_name":"Al Banah, محافظة الظاهرة, عمان","address":{"town":"Al Banah","state":"محافظة الظاهرة","ISO3166-2-lvl4":"OM-ZA","country":"عمان","country_code":"om"},"osm_type":"node","osm_id":12114294853,"type":"town","location":[56.89489,23.2836139],"bbox":[56.85489,23.2436139,56.93489,23.3236139]}
{"name":"Al Bidi","other_names":{"name:ar":"البدي","name:en":"Al Bidi","name:es":"Al Bidi","name:fr":"Al Bidi","alt_name":"Al Bidi;Al Bidī;albdy;البدي"},"display_name":"Al Bidi, محافظة مسندم, عمان","address":{"town":"Al Bidi","state":"محافظة مسندم","ISO3166-2-lvl4":"OM-MU","country":"عمان","country_code":"om"},"osm_type":"way","osm_id":368529707,"type":"town","location":[56.22072799027317,25.67269135],"bbox":[56.2145035,25.6698234,56.22329,25.6752156]}
{"name":"Al Buday‘ah","other_names":{"name:ar":"Al Buday‘ah","name:de":"Al Buday‘ah","name:en":"Al Buday‘ah","name:es":"Al Buday‘ah","name:fr":"Al Buday‘ah","alt_name":"Al Biday`ah, Al Biday‘ah, Al Buday`ah, Al Buday‘ah, Badiyah, Buday`ah, Buday‘ah, Bādiyah, البديعة"},"display_name":"Al Buday‘ah, محافظة شمال الباطنة, عمان","address":{"town":"Al Buday‘ah","state":"محافظة شمال الباطنة","ISO3166-2-lvl4":"OM-BS","country":"عمان","country_code":"om"},"osm_type":"node","osm_id":11874854889,"type":"town","location":[56.9039435,23.7216201],"bbox":[56.8639435,23.6816201,56.9439435,23.7616201]}
{"name":"Al Hajar","other_names":{"name:ar":"Al Hajar","name:en":"Al Hajar","name:es":"Al Hajar","name:fr":"Al Hajar","alt_name":"Al Hajar, Al Hijr, Maqniyat, Maqnīyāt, alhjr, الهجر"},"display_name":"Al Hajar, محافظة الظاهرة, عمان","address":{"town":"Al Hajar","state":"محافظة الظاهرة","ISO3166-2-lvl4":"OM-ZA","country":"عمان","country_code":"om"},"osm_type":"node","osm_id":12114313170,"type":"town","location":[56.9140635,23.2833595],"bbox":[56.8740635,23.2433595,56.9540635,23.3233595]}
{"name":"Al Harim","other_names":{"name:ar":"Al Harim","name:en":"Al Harim","name:es":"Al Harim","name:fr":"Al Harim","alt_name":"Al Harim, Al Ḥarīm, Al Ḩarīm, Harim, alhrym, الحريم, Ḩarīm"},"display_name":"Al Harim, محافظة شمال الباطنة, عمان","address":{"town":"Al Harim","state":"محافظة شمال الباطنة","ISO3166-2-lvl4":"OM-BS","country":"عمان","country_code":"om"},"osm_type":"node","osm_id":11874644146,"type":"town","location":[56.938441,23.6223929],"bbox":[56.898441,23.5823929,56.978441,23.6623929]}
{"name":"Al Harmali","other_names":{"name:ar":"Al Harmali","name:de":"Al Harmali","name:en":"Al Harmali","name:es":"Al Harmali","name:fr":"Al Harmali","alt_name":"Al Harmali, Al Harmaliyah, Al Ḥarmalī, Al Ḩarmalī, Al Ḩarmalīyah, Harmali, Harmaliyah, alhrmly, الحرملي, Ḩarmalī"},"display_name":"Al Harmali, محافظة شمال الباطنة, عمان","address":{"town":"Al Harmali","state":"محافظة شمال الباطنة","ISO3166-2-lvl4":"OM-BS","country":"عمان","country_code":"om"},"osm_type":"node","osm_id":11874634666,"type":"town","location":[56.924752,23.6701041],"bbox":[56.884752,23.6301041,56.964752,23.7101041]}
{"name":"Al Hiyal","other_names":{"name:ar":"Al Hiyal","name:en":"Al Hiyal","name:es":"Al Hiyal","name:fr":"Al Hiyal","alt_name":"Al Hiyal, Al Ḩiyāl"},"display_name":"Al Hiyal, محافظة جنوب الباطنة, عمان","address":{"town":"Al Hiyal","state":"محافظة جنوب الباطنة","ISO3166-2-lvl4":"OM-BJ","country":"عمان","country_code":"om"},"osm_type":"node","osm_id":11961093500,"type":"town","location":[57.0034046,23.4925546],"bbox":[56.9634046,23.4525546,57.0434046,23.5325546]}
{"name":"Al Juwaif","other_names":{"name:ar":"Al Juwaif","name:en":"Al Juwaif","name:es":"Al Juwaif","name:fr":"Al Juwaif","alt_name":"Al Juwaif, Al Juwayf"},"display_name":"Al Juwaif, محافظة البريمي, عمان","address":{"town":"Al Juwaif","state":"محافظة البريمي","ISO3166-2-lvl4":"OM-BU","country":"عمان","country_code":"om"},"osm_type":"node","osm_id":12157305643,"type":"town","location":[56.1025851,24.5508938],"bbox":[56.0625851,24.5108938,56.1425851,24.5908938]}
{"name":"Al Juwayn","other_names":{"name:ar":"Al Juwayn","name:en":"Al Juwayn","name:es":"Al Juwayn","name:fr":"Al Juwayn","alt_name":"Al Jawin, Al Jawīn, Al Juwayn, aljwyn, الجوين"},"display_name":"Al Juwayn, محافظة شمال الباطنة, عمان","address":{"town":"Al Juwayn","state":"محافظة شمال الباطنة","ISO3166-2-lvl4":"OM-BS","country":"عمان","country_code":"om"},"osm_type":"node","osm_id":11874951581,"type":"town","location":[56.3563651,24.4352372],"bbox":[56.3163651,24.3952372,56.3963651,24.4752372]}
{"name":"Al Mandil","other_names":{"name:ar":"Al Mandil","name:en":"Al Mandil","name:es":"Al Mandil","name:fr":"Al Mandil","alt_name":"Al Mandil, Al Mandīl, Al Mindayl, almndyl, المنديل"},"display_name":"Al Mandil, محافظة شمال الباطنة, عمان","address":{"town":"Al Mandil","state":"محافظة شمال الباطنة","ISO3166-2-lvl4":"OM-BS","country":"عمان","country_code":"om"},"osm_type":"node","osm_id":11874757721,"type":"town","location":[56.910483,23.665454],"bbox":[56.870483,23.625454,56.950483,23.705454]}
{"name":"Al Qafsah","other_names":{"name:ar":"Al Qafsah","alt_name":"Al Qafsah, Al Qafşah, Al Qafṣah, alqfst, القفصة"},"display_name":"Al Qafsah, محافظة شمال الباطنة, عمان","address":{"town":"Al Qafsah","state":"محافظة شمال الباطنة","ISO3166-2-lvl4":"OM-BS","country":"عمان","country_code":"om"},"osm_type":"node","osm_id":10788225275,"type":"town","location":[56.5957981,23.8851698],"bbox":[56.5557981,23.8451698,56.6357981,23.9251698]}
{"name":"Al Qaryah","other_names":{"name:ar":"Al Qaryah","name:en":"Al Qaryah","name:es":"Al Qaryah","name:fr":"Al Qaryah","alt_name":"Al Qaryah, alqryt, القرية"},"display_name":"Al Qaryah, محافظة شمال الباطنة, عمان","address":{"town":"Al Qaryah","state":"محافظة شمال الباطنة","ISO3166-2-lvl4":"OM-BS","country":"عمان","country_code":"om"},"osm_type":"node","osm_id":11874851796,"type":"town","location":[56.8933603,23.7620098],"bbox":[56.8533603,23.7220098,56.9333603,23.8020098]}
{"name":"Ar Rawḑah","other_names":{"name:ar":"الرّوضة","name:en":"Ar Rawḑah","name:es":"Ar Rawḑah","name:fr":"Ar Rawḑah","alt_name":"Ar Rawḍah"},"display_name":"Ar Rawḑah, محافظة البريمي, عمان","address":{"town":"Ar Rawḑah","state":"محافظة البريمي","ISO3166-2-lvl4":"OM-BU","country":"عمان","country_code":"om"},"osm_type":"node","osm_id":12328773636,"type":"town","location":[55.8655089,24.9604539],"bbox":[55.8255089,24.9204539,55.9055089,25.0004539]}
{"name":"As Sa‘af","other_names":{"name:ar":"As Sa‘af","name:en":"As Sa‘af","name:es":"As Sa‘af","name:fr":"As Sa‘af"},"display_name":"As Sa‘af, محافظة شمال الباطنة, عمان","address":{"town":"As Sa‘af","state":"محافظة شمال الباطنة","ISO3166-2-lvl4":"OM-BS","country":"عمان","country_code":"om"},"osm_type":"node","osm_id":12253429599,"type":"town","location":[56.1737684,24.758611],"bbox":[56.1337684,24.718611,56.2137684,24.798611]}
{"name":"As Sabghah","other_names":{"name:ar":"As Sabghah","name:en":"As Sabghah","name:es":"As Sabghah","name:fr":"As Sabghah","alt_name":"As Sabghah, Aş Şabghah, Aṣ Ṣabghah, alsbght, الصبغة"},"display_name":"As Sabghah, محافظة الظاهرة, عمان","address":{"town":"As Sabghah","state":"محافظة الظاهرة","ISO3166-2-lvl4":"OM-ZA","country":"عمان","country_code":"om"},"osm_type":"node","osm_id":11947547240,"type":"town","location":[56.8199383,23.0586702],"bbox":[56.7799383,23.0186702,56.8599383,23.0986702]}
{"name":"As Sumayni","other_names":{"name:ar":"As Sumayni","name:en":"As Sumayni","name:es":"As Sumayni","name:fr":"As Sumayni","alt_name":"As Sumayni, As Sumaynī, Sumayni, Sumaynī, alsmyny, السّميني"},"display_name":"As Sumayni, محافظة البريمي, عمان","address":{"town":"As Sumayni","state":"محافظة البريمي","ISO3166-2-lvl4":"OM-BU","country":"عمان","country_code":"om"},"osm_type":"way","osm_id":1289167112,"type":"town","location":[55.925807959137906,24.66968425],"bbox":[55.9212886,24.6660452,55.9298493,24.6733528]}
{"name":"Ash Sharm","other_names":{"name:ar":"Ash Sharm","name:de":"Ash Sharm","name:en":"Ash Sharm","name:es":"Ash Sharm","name:fr":"Ash Sharm","alt_name":"Ash Sharm, Sharam, Sharm, shrm, شرم"},"display_name":"Ash Sharm, محافظة البريمي, عمان","address":{"town":"Ash Sharm","state":"محافظة البريمي","ISO3166-2-lvl4":"OM-BU","country":"عمان","country_code":"om"},"osm_type":"node","osm_id":12157875209,"type":"town","location":[55.9887187,24.5017118],"bbox":[55.9487187,24.4617118,56.0287187,24.5417118]}
{"name":"Ash Shiyah","other_names":{"name:ar":"الشية","name:en":"Ash Shiyah","name:es":"Ash Shiyah","name:fr":"Ash Shiyah","alt_name":"Ash Shija', Ash Shiyah, Ash Shījā’, Ash Shīyah"},"display_name":"Ash Shiyah, محافظة البريمي, عمان","address":{"town":"Ash Shiyah","state":"محافظة البريمي","ISO3166-2-lvl4":"OM-BU","country":"عمان","country_code":"om"},"osm_type":"node","osm_id":12153990050,"type":"town","location":[56.051978,24.6686972],"bbox":[56.011978,24.6286972,56.091978,24.7086972]}
{"name":"Ash Shuwayhah","other_names":{"name:ar":"Ash Shuwayhah","name:en":"Ash Shuwayhah","name:es":"Ash Shuwayhah","name:fr":"Ash Shuwayhah","alt_name":"Ash Shuwayhah, Shuwayhah"},"display_name":"Ash Shuwayhah, محافظة البريمي, عمان","address":{"town":"Ash Shuwayhah","state":"محافظة البريمي","ISO3166-2-lvl4":"OM-BU","country":"عمان","country_code":"om"},"osm_type":"node","osm_id":12153856997,"type":"town","location":[56.0769539,24.6284109],"bbox":[56.0369539,24.5884109,56.1169539,24.6684109]}
{"name":"Az Zahir","other_names":{"name:ar":"Az Zahir","name:en":"Az Zahir","name:es":"Az Zahir","name:fr":"Az Zahir","alt_name":"Az Zahir, Az Zāhir, alzahr, الزّاهر"},"display_name":"Az Zahir, محافظة شمال الباطنة, عمان","address":{"town":"Az Zahir","state":"محافظة شمال الباطنة","ISO3166-2-lvl4":"OM-BS","country":"عمان","country_code":"om"},"osm_type":"node","osm_id":11874990464,"type":"town","location":[56.4201928,24.3736161],"bbox":[56.3801928,24.3336161,56.4601928,24.4136161]}
{"name":"Az̧ Z̧ahrah","other_names":{"name:ar":"الظهرة","name:en":"Az̧ Z̧ahrah","name:es":"Az̧ Z̧ahrah","name:fr":"Az̧ Z̧ahrah","alt_name":"Aẓ Ẓaharah;Az̧ Z̧ahrah"},"display_name":"Az̧ Z̧ahrah, محافظة جنوب الباطنة, عمان","address":{"town":"Az̧ Z̧ahrah","state":"محافظة جنوب الباطنة","ISO3166-2-lvl4":"OM-BJ","country":"عمان","country_code":"om"},"osm_type":"node","osm_id":12324903426,"type":"town","location":[57.5022115,23.2056293],"bbox":[57.4622115,23.1656293,57.5422115,23.2456293]}
{"name":"Bayl","other_names":{"name:ar":"Bayl","name:en":"Bayl","name:es":"Bayl","name:fr":"Bayl","alt_name":"Bayl, byl, بيل"},"display_name":"Bayl, محافظة الظاهرة, عمان","address":{"town":"Bayl","state":"محافظة الظاهرة","ISO3166-2-lvl4":"OM-ZA","country":"عمان","country_code":"om"},"osm_type":"node","osm_id":12114295438,"type":"town","location":[56.8934553,23.2781077],"bbox":[56.8534553,23.2381077,56.9334553,23.3181077]}
{"name":"Dar al Bayda'","other_names":{"name:ar":"Dar al Bayda'","name:en":"Dar al Bayda'","name:es":"Dar al Bayda'","name:fr":"Dar al Bayda'","alt_name":"Dar al Bayda', Dār al Bayḍā’, Dār al Bayḑā’, دار البيضاء"},"display_name":"Dar al Bayda', محافظة جنوب الباطنة, عمان","address":{"town":"Dar al Bayda'","state":"محافظة جنوب الباطنة","ISO3166-2-lvl4":"OM-BJ","country":"عمان","country_code":"om"},"osm_type":"node","osm_id":11957056007,"type":"town","location":[57.3957384,23.1415916],"bbox":[57.3557384,23.1015916,57.4357384,23.1815916]}
{"name":"Dar al Qil","other_names":{"name:ar":"Dar al Qil","name:en":"Dar al Qil","name:es":"Dar al Qil","name:fr":"Dar al Qil","alt_name":"Dar al Qil, Dar al Qill, Dār al Qil, Dār al Qill, dar alql, دار القل"},"display_name":"Dar al Qil, محافظة الداخلية, عمان","address":{"town":"Dar al Qil","state":"محافظة الداخلية","ISO3166-2-lvl4":"OM-DA","country":"عمان","country_code":"om"},"osm_type":"way","osm_id":206182781,"type":"town","location":[57.39904173451397,23.110959100000002],"bbox":[57.3978131,23.1098502,57.4008084,23.1123641]}
{"name":"Dayqarah","other_names":{"name:ar":"Dayqarah","name:en":"Dayqarah","name:es":"Dayqarah","name:fr":"Dayqarah","alt_name":"Dayqarah, Dayqrah, dyqrt, ديقرة"},"display_name":"Dayqarah, محافظة جنوب الباطنة, عمان","address":{"town":"Dayqarah","state":"محافظة جنوب الباطنة","ISO3166-2-lvl4":"OM-BJ","country":"عمان","country_code":"om"},"osm_type":"node","osm_id":11961104133,"type":"town","location":[56.9644319,23.4882347],"bbox":[56.9244319,23.4482347,57.0044319,23.5282347]}
{"name":"Falaj al Majaji`ah","other_names":{"name:ar":"Falaj al Majaji`ah","name:en":"Falaj al Majaji`ah","name:es":"Falaj al Majaji`ah","name:fr":"Falaj al Majaji`ah","alt_name":"Falaj al Majāji‘ah, Al Batinah North Governorate, Oman"},"display_name":"Falaj al Majaji`ah, محافظة شمال الباطنة, عمان","address":{"town":"Falaj al Majaji`ah","state":"محافظة شمال الباطنة","ISO3166-2-lvl4":"OM-BS","country":"عمان","country_code":"om"},"osm_type":"node","osm_id":11874824949,"type":"town","location":[56.9081479,23.70403],"bbox":[56.8681479,23.66403,56.9481479,23.74403]}
{"name":"Far‘","other_names":{"name:ar":"Far‘","name:en":"Far‘","name:es":"Far‘","name:fr":"Far‘"},"display_name":"Far‘, محافظة جنوب الباطنة, عمان","address":{"town":"Far‘","state":"محافظة جنوب الباطنة","ISO3166-2-lvl4":"OM-BJ","country":"عمان","country_code":"om"},"osm_type":"node","osm_id":12324862959,"type":"town","location":[57.5556601,23.2105864],"bbox":[57.5156601,23.1705864,57.5956601,23.2505864]}
{"name":"Fulayj al Mashayikh","display_name":"Fulayj al Mashayikh, محافظة جنوب الشرقية, عمان","address":{"town":"Fulayj al Mashayikh","state":"محافظة جنوب الشرقية","ISO3166-2-lvl4":"OM-SJ","country":"عمان","country_code":"om"},"osm_type":"node","osm_id":11709394317,"type":"town","location":[59.1732313,22.1354296],"bbox":[59.1332313,22.0954296,59.2132313,22.1754296]}
{"name":"Fulayj","other_names":{"name:ar":"Fulayj","name:en":"Fulayj","name:es":"Fulayj","name:fr":"Fulayj","alt_name":"Al Falaj, Al Falaj al Hadith, Al Falaj al Ḩadith, Falaj, Fulayj"},"display_name":"Fulayj, محافظة شمال الباطنة, عمان","address":{"town":"Fulayj","state":"محافظة شمال الباطنة","ISO3166-2-lvl4":"OM-BS","country":"عمان","country_code":"om"},"osm_type":"node","osm_id":11874830205,"type":"town","location":[56.9051911,23.7157057],"bbox":[56.8651911,23.6757057,56.9451911,23.7557057]}
{"name":"Hajar Bani Hamid حجر بني حميد","other_names":{"name:ar":"حجر بني حميد","name:en":"Hajar Bani Hamid","name:es":"Hajar Bani Hamid","name:fr":"Hajar Bani Hamid","alt_name":"Ḥajar Banī Ḥamīd;Hajar Bani Humayd;Hajar Bani Humaid"},"display_name":"Hajar Bani Hamid حجر بني حميد, ولاية مدحاء, محافظة مسندم, عمان","address":{"town":"Hajar Bani Hamid حجر بني حميد","county":"ولاية مدحاء","state":"محافظة مسندم","ISO3166-2-lvl4":"OM-MU","country":"عمان","country_code":"om"},"osm_type":"node","osm_id":12378983727,"type":"town","location":[56.2532887,25.2765849],"bbox":[56.2132887,25.2365849,56.2932887,25.3165849]}
{"name":"Harat al Hawatim","other_names":{"name:ar":"Harat al Hawatim","name:en":"Harat al Hawatim","name:es":"Harat al Hawatim","name:fr":"Harat al Hawatim","alt_name":"Harat al Hawatim, hart alhwatm, حارة الحواتم, Ḥārat al Ḥawātim, Ḩārat al Ḩawātim"},"display_name":"Harat al Hawatim, محافظة الظاهرة, عمان","address":{"town":"Harat al Hawatim","state":"محافظة الظاهرة","ISO3166-2-lvl4":"OM-ZA","country":"عمان","country_code":"om"},"osm_type":"node","osm_id":12114304585,"type":"town","location":[56.9441805,23.2835928],"bbox":[56.9041805,23.2435928,56.9841805,23.3235928]}
{"name":"Harat az Zaharah","other_names":{"name:ar":"Harat az Zaharah","name:en":"Harat az Zaharah","name:es":"Harat az Zaharah","name:fr":"Harat az Zaharah","alt_name":"Harat az Zaharah, Harat az Zahrah, hart alzhrt, حارة الظهرة, Ḥārat aẓ Ẓaharah, Ḩārat az̧ Z̧ahrah"},"display_name":"Harat az Zaharah, محافظة الظاهرة, عمان","address":{"town":"Harat az Zaharah","state":"محافظة الظاهرة","ISO3166-2-lvl4":"OM-ZA","country":"عمان","country_code":"om"},"osm_type":"node","osm_id":12114270181,"type":"town","location":[56.9215962,23.2858959],"bbox":[56.8815962,23.2458959,56.9615962,23.3258959]}
{"name":"Hayl Kalabi","other_names":{"name:ar":"Hayl Kalabi","name:en":"Hayl Kalabi","name:es":"Hayl Kalabi","name:fr":"Hayl Kalabi","alt_name":"Hayl Kalabi, Hayl Kilabi, hyl klaby, حيل كلابي, Ḥayl Kalābī, Ḩayl Kilābī"},"display_name":"Hayl Kalabi, محافظة شمال الباطنة, عمان","address":{"town":"Hayl Kalabi","state":"محافظة شمال الباطنة","ISO3166-2-lvl4":"OM-BS","country":"عمان","country_code":"om"},"osm_type":"node","osm_id":11874573713,"type":"town","location":[56.9574547,23.6040992],"bbox":[56.9174547,23.5640992,56.9974547,23.6440992]}
{"name":"Hazm Qāshi‘","other_names":{"name:ar":"Hazm Qāshi‘","name:en":"Hazm Qāshi‘","name:es":"Hazm Qāshi‘","name:fr":"Hazm Qāshi‘","alt_name":"Hazim Qashi`, Hazim Qāshi‘, Hazm Qashi`, Hazm Qāshi‘, هزم قاشع"},"display_name":"Hazm Qāshi‘, محافظة شمال الباطنة, عمان","address":{"town":"Hazm Qāshi‘","state":"محافظة شمال الباطنة","ISO3166-2-lvl4":"OM-BS","country":"عمان","country_code":"om"},"osm_type":"node","osm_id":11874542930,"type":"town","location":[56.9727053,23.5952313],"bbox":[56.9327053,23.5552313,57.0127053,23.6352313]}
{"name":"Jafr an Nudūd","other_names":{"name:ar":"Jafr an Nudūd","name:en":"Jafr an Nudūd","name:es":"Jafr an Nudūd","name:fr":"Jafr an Nudūd","alt_name":"Jafr an Nudud, Jafr an Nudūd, Jifar an Nidud, Jifar an Nidūd, jfr alndwd, جفر النّدود"},"display_name":"Jafr an Nudūd, محافظة شمال الباطنة, عمان","address":{"town":"Jafr an Nudūd","state":"محافظة شمال الباطنة","ISO3166-2-lvl4":"OM-BS","country":"عمان","country_code":"om"},"osm_type":"node","osm_id":11874985434,"type":"town","location":[56.409938,24.400624],"bbox":[56.369938,24.360624,56.449938,24.440624]}
{"name":"Janah","other_names":{"name:ar":"Janah","alt_name":"Janah, Janaḩ, Janh, Janḥ, jnh, جنح"},"display_name":"Janah, محافظة شمال الباطنة, عمان","address":{"town":"Janah","state":"محافظة شمال الباطنة","ISO3166-2-lvl4":"OM-BS","country":"عمان","country_code":"om"},"osm_type":"node","osm_id":10788272108,"type":"town","location":[56.6053685,23.8965118],"bbox":[56.5653685,23.8565118,56.6453685,23.9365118]}
{"name":"Kubarah","other_names":{"name:ar":"Kubarah","name:en":"Kubarah","name:es":"Kubarah","name:fr":"Kubarah","alt_name":"Kubara, Kubarah, Kubbarah, Kubbārah, Kubārah, kbart, كبارة"},"display_name":"Kubarah, محافظة الظاهرة, عمان","address":{"town":"Kubarah","state":"محافظة الظاهرة","ISO3166-2-lvl4":"OM-ZA","country":"عمان","country_code":"om"},"osm_type":"node","osm_id":11947573205,"type":"town","location":[56.8205674,23.0834229],"bbox":[56.7805674,23.0434229,56.8605674,23.1234229]}
{"name":"Luhsayyah","other_names":{"name:ar":"Luhsayyah","name:en":"Luhsayyah","name:es":"Luhsayyah","name:fr":"Luhsayyah","alt_name":"Luhsayyah, Luḥṣayyah, Luḩşayyah, lhsyt, لحصيّة"},"display_name":"Luhsayyah, محافظة شمال الباطنة, عمان","address":{"town":"Luhsayyah","state":"محافظة شمال الباطنة","ISO3166-2-lvl4":"OM-BS","country":"عمان","country_code":"om"},"osm_type":"node","osm_id":11874865262,"type":"town","location":[56.3995671,24.4311086],"bbox":[56.3595671,24.3911086,56.4395671,24.4711086]}
{"name":"Majhal","other_names":{"name:en":"Majhal","name:es":"Majhal","name:fr":"Majhal","alt_name":"Majhal;mjhl;مجهل"},"display_name":"Majhal, محافظة شمال الباطنة, عمان","address":{"town":"Majhal","state":"محافظة شمال الباطنة","ISO3166-2-lvl4":"OM-BS","country":"عمان","country_code":"om"},"osm_type":"node","osm_id":12272127603,"type":"town","location":[56.3194752,24.4833288],"bbox":[56.2794752,24.4433288,56.3594752,24.5233288],"border":{"name":"Majhal","other_names":{"name:ar":"Majhal","name:en":"Majhal","name:es":"Majhal","name:fr":"Majhal","alt_name":"Majhal;mjhl;مجهل"},"display_name":"Majhal, محافظة شمال الباطنة, عمان","address":{"town":"Majhal","state":"محافظة شمال الباطنة","ISO3166-2-lvl4":"OM-BS","country":"عمان","country_code":"om"},"osm_type":"way","osm_id":1295101646,"type":"town","location":[56.3194752,24.4833288],"bbox":[56.3178981,24.4823544,56.3206103,24.4840407]}}
{"name":"Majzi","other_names":{"name:ar":"Majzi","name:en":"Majzi","name:es":"Majzi","name:fr":"Majzi","alt_name":"Majzi, Majzī, Mijzi, Mijzī, mjzy, مجزي"},"display_name":"Majzi, محافظة شمال الباطنة, عمان","address":{"town":"Majzi","state":"محافظة شمال الباطنة","ISO3166-2-lvl4":"OM-BS","country":"عمان","country_code":"om"},"osm_type":"node","osm_id":11874558593,"type":"town","location":[56.9537957,23.6268057],"bbox":[56.9137957,23.5868057,56.9937957,23.6668057]}
{"name":"Misfāt al Haţāţilah","other_names":{"name:ar":"مسفاة الهطاطلة","name:en":"Misfāt al Haţāţilah","name:es":"Misfāt al Haţāţilah","name:fr":"Misfāt al Haţāţilah","alt_name":"Misfāt al Haṭāṭlah;Misfāt al Haţāţilah;Misfah"},"display_name":"Misfāt al Haţāţilah, محافظة جنوب الباطنة, عمان","address":{"town":"Misfāt al Haţāţilah","state":"محافظة جنوب الباطنة","ISO3166-2-lvl4":"OM-BJ","country":"عمان","country_code":"om"},"osm_type":"node","osm_id":12324869048,"type":"town","location":[57.5611677,23.2074489],"bbox":[57.5211677,23.1674489,57.6011677,23.2474489]}
{"name":"Musabihiyah","other_names":{"name:ar":"Musabihiyah","name:en":"Musabihiyah","name:es":"Musabihiyah","name:fr":"Musabihiyah","alt_name":"Misabhiyyah, Misabḥiyyah, Musabihiyah, Musabiḩīyah, msbhyt, مسبحيّة"},"display_name":"Musabihiyah, محافظة الظاهرة, عمان","address":{"town":"Musabihiyah","state":"محافظة الظاهرة","ISO3166-2-lvl4":"OM-ZA","country":"عمان","country_code":"om"},"osm_type":"node","osm_id":12114305452,"type":"town","location":[56.9316385,23.2836726],"bbox":[56.8916385,23.2436726,56.9716385,23.3236726]}
{"name":"Muţayd","other_names":{"name:ar":"Muţayd","name:de":"Muţayd","name:en":"Muţayd","name:es":"Muţayd","name:fr":"Muţayd","alt_name":"Matid, Matīd, Mitayd, Miṭayd, Mutayd, Muţayd, mtyd, مطيد"},"display_name":"Muţayd, محافظة شمال الباطنة, عمان","address":{"town":"Muţayd","state":"محافظة شمال الباطنة","ISO3166-2-lvl4":"OM-BS","country":"عمان","country_code":"om"},"osm_type":"node","osm_id":11874856479,"type":"town","location":[56.8888173,23.7162378],"bbox":[56.8488173,23.6762378,56.9288173,23.7562378]}
{"name":"Rayy","other_names":{"name:ar":"Rayy","name:en":"Rayy","name:es":"Rayy","name:fr":"Rayy","alt_name":"Ar Rayy"},"display_name":"Rayy, محافظة البريمي, عمان","address":{"town":"Rayy","state":"محافظة البريمي","ISO3166-2-lvl4":"OM-BU","country":"عمان","country_code":"om"},"osm_type":"node","osm_id":12292065690,"type":"town","location":[56.1175814,24.6560366],"bbox":[56.0775814,24.6160366,56.1575814,24.6960366]}
{"name":"Sayḥ Ẓahar al Khārij","other_names":{"name:ar":"سيح ظهر الخارج","name:en":"Sayḥ Ẓahar al Khārij","name:es":"Sayḥ Ẓahar al Khārij","name:fr":"Sayḥ Ẓahar al Khārij","alt_name":"Sayḩ Z̧ahr al Khārij"},"display_name":"Sayḥ Ẓahar al Khārij, محافظة شمال الباطنة, عمان","address":{"town":"Sayḥ Ẓahar al Khārij","state":"محافظة شمال الباطنة","ISO3166-2-lvl4":"OM-BS","country":"عمان","country_code":"om"},"osm_type":"node","osm_id":12293973434,"type":"town","location":[56.3320998,24.2253184],"bbox":[56.2920998,24.1853184,56.3720998,24.2653184]}
{"name":"Shakhbūţ","other_names":{"name:ar":"Shakhbūţ","name:en":"Shakhbūţ","name:es":"Shakhbūţ","name:fr":"Shakhbūţ","alt_name":"Al Ghub, Ghab, Shakhbut, Shakhbūt, Shakhbūţ, Shakhbūṭ, shkhbwt, شخبوط"},"display_name":"Shakhbūţ, محافظة شمال الباطنة, عمان","address":{"town":"Shakhbūţ","state":"محافظة شمال الباطنة","ISO3166-2-lvl4":"OM-BS","country":"عمان","country_code":"om"},"osm_type":"node","osm_id":11874808913,"type":"town","location":[56.9151781,23.6930038],"bbox":[56.8751781,23.6530038,56.9551781,23.7330038]}
{"name":"Shiyah","other_names":{"name:ar":"Shiyah","name:en":"Shiyah","name:es":"Shiyah","name:fr":"Shiyah","alt_name":"Shiyah, Shiyyah;Shīyah;shyt;شيّة"},"display_name":"Shiyah, محافظة شمال الباطنة, عمان","address":{"town":"Shiyah","state":"محافظة شمال الباطنة","ISO3166-2-lvl4":"OM-BS","country":"عمان","country_code":"om"},"osm_type":"node","osm_id":12272147961,"type":"town","location":[56.4293149,24.5535357],"bbox":[56.3893149,24.5135357,56.4693149,24.5935357]}
{"name":"Shūh","other_names":{"name:ar":"شوه","name:de":"Shūh","name:en":"Shūh","name:es":"Shūh","name:fr":"Shūh","alt_name":"Shuwah;Shūh"},"display_name":"Shūh, محافظة جنوب الباطنة, عمان","address":{"town":"Shūh","state":"محافظة جنوب الباطنة","ISO3166-2-lvl4":"OM-BJ","country":"عمان","country_code":"om"},"osm_type":"node","osm_id":12324836393,"type":"town","location":[57.5599544,23.1908706],"bbox":[57.5199544,23.1508706,57.5999544,23.2308706]}
{"name":"Sidr al Ḩawājir","other_names":{"name:ar":"Sidr al Ḩawājir","name:en":"Sidr al Ḩawājir","name:es":"Sidr al Ḩawājir","name:fr":"Sidr al Ḩawājir","alt_name":"Sidr al Hawajir, Sidr al Ḥawājir, Sidr al Ḩawājir, sdr alhwajr, سدر الحواجر"},"display_name":"Sidr al Ḩawājir, محافظة شمال الباطنة, عمان","address":{"town":"Sidr al Ḩawājir","state":"محافظة شمال الباطنة","ISO3166-2-lvl4":"OM-BS","country":"عمان","country_code":"om"},"osm_type":"node","osm_id":11874948651,"type":"town","location":[56.3920303,24.4090991],"bbox":[56.3520303,24.3690991,56.4320303,24.4490991]}
{"name":"Sitāl","other_names":{"name:ar":"ستال","name:en":"Sitāl","name:es":"Sitāl","name:fr":"Sitāl","alt_name":"Isţāl"},"display_name":"Sitāl, محافظة جنوب الباطنة, عمان","address":{"town":"Sitāl","state":"محافظة جنوب الباطنة","ISO3166-2-lvl4":"OM-BJ","country":"عمان","country_code":"om"},"osm_type":"node","osm_id":12324776076,"type":"town","location":[57.5539472,23.2161452],"bbox":[57.5139472,23.1761452,57.5939472,23.2561452]}
{"name":"Şunaybi‘","other_names":{"name:ar":"صنيبع","name:en":"Şunaybi‘","name:es":"Şunaybi‘","name:fr":"Şunaybi‘","alt_name":"Sunaybah;Hijar Sajr Sanaiba;Sanaiba;Şunaybah;Şunaybi‘;Ṣunaybu‘"},"display_name":"Şunaybi‘, محافظة جنوب الباطنة, عمان","address":{"town":"Şunaybi‘","state":"محافظة جنوب الباطنة","ISO3166-2-lvl4":"OM-BJ","country":"عمان","country_code":"om"},"osm_type":"node","osm_id":12324845983,"type":"town","location":[57.5579097,23.1957956],"bbox":[57.5179097,23.1557956,57.5979097,23.2357956]}
{"name":"Suri","other_names":{"name:ar":"Suri","name:en":"Suri","name:es":"Suri","name:fr":"Suri","alt_name":"Suri, Sūrī, swry, سوري"},"display_name":"Suri, محافظة شمال الباطنة, عمان","address":{"town":"Suri","state":"محافظة شمال الباطنة","ISO3166-2-lvl4":"OM-BS","country":"عمان","country_code":"om"},"osm_type":"node","osm_id":11874547780,"type":"town","location":[56.9692777,23.6059196],"bbox":[56.9292777,23.5659196,57.0092777,23.6459196]}
{"name":"Thaqib","other_names":{"name:ar":"ثقب","name:de":"Thaqib","name:en":"Thaqib","name:es":"Thaqib","name:fr":"Thaqib","alt_name":"Thāqib;Thaqub;Thaqib"},"display_name":"Thaqib, محافظة جنوب الباطنة, عمان","address":{"town":"Thaqib","state":"محافظة جنوب الباطنة","ISO3166-2-lvl4":"OM-BJ","country":"عمان","country_code":"om"},"osm_type":"node","osm_id":12324833715,"type":"town","location":[57.5647079,23.1884285],"bbox":[57.5247079,23.1484285,57.6047079,23.2284285]}
{"name":"Zahrat as Salam","other_names":{"name:ar":"Zahrat as Salam","name:en":"Zahrat as Salam","name:es":"Zahrat as Salam","name:fr":"Zahrat as Salam","alt_name":"Zahrat as Salam, Z̧ahrat as Salam, zhrt alslm, ظهرة السلم, Ẓahrat as Salam"},"display_name":"Zahrat as Salam, محافظة شمال الباطنة, عمان","address":{"town":"Zahrat as Salam","state":"محافظة شمال الباطنة","ISO3166-2-lvl4":"OM-BS","country":"عمان","country_code":"om"},"osm_type":"node","osm_id":11874643432,"type":"town","location":[56.9255608,23.6534045],"bbox":[56.8855608,23.6134045,56.9655608,23.6934045]}
{"name":"Zikt","other_names":{"name:ar":"Zikt","name:en":"Zikt","name:es":"Zikt","name:fr":"Zikt","alt_name":"Az Zikt, Zikt, alzkt, الزكت"},"display_name":"Zikt, محافظة الداخلية, عمان","address":{"town":"Zikt","state":"محافظة الداخلية","ISO3166-2-lvl4":"OM-DA","country":"عمان","country_code":"om"},"osm_type":"way","osm_id":216955553,"type":"town","location":[57.43017356636072,23.0942288],"bbox":[57.4292371,23.0932251,57.4317911,23.0950335]}
{"name":"أبو بقرة","other_names":{"name:ar":"أبو بقرة","name:en":"Bu Baqarah","name:es":"Bu Baqarah","name:fr":"Bu Baqarah","name:ml":"ബു ബഖറ","alt_name":"Abu Baqarah, Abu Baqrah, Abū Baqarah, Abū Baqrah, Bu Baqarah, Bū Baqarah, abw bqrt, أبو بقرة"},"display_name":"أبو بقرة, محافظة شمال الباطنة, عمان","address":{"town":"أبو بقرة","state":"محافظة شمال الباطنة","ISO3166-2-lvl4":"OM-BS","country":"عمان","country_code":"om"},"osm_type":"node","osm_id":12084332877,"type":"town","location":[56.4018558,24.868866],"bbox":[56.3618558,24.828866,56.4418558,24.908866]}
{"name":"إزكي","other_names":{"name:ar":"إزكي","name:en":"Izki","name:cs":"Izki","name:de":"Izki","name:fr":"Izki","name:he":"איזקי","name:hi":"इज़्कि","name:ml":"ഇസ്കി","alt_name":"إزكي","int_name":"Azkī, Izkī, Ziki, Azki, Izki, Ziki","name:ar1":"أزكي","old_name":"جرنان"},"display_name":"إزكي, محافظة الداخلية, عمان","address":{"city":"إزكي","state":"محافظة الداخلية","ISO3166-2-lvl4":"OM-DA","country":"عمان","country_code":"om"},"population":20000,"osm_type":"way","osm_id":201248702,"type":"town","location":[57.7570944,22.9372399],"bbox":[57.731157,22.9053114,57.7899508,22.9636189]}
{"name":"الأنصب","other_names":{"name:ar":"الأنصب","name:de":"al Ansab","name:en":"al Ansab","name:fr":"al Ansab","name:ml":"അൽ-അൻസബ്","alt_name":"Al Anşab, الأنصب, Lanşab, Al Ansab, الأنصب, Lansab","name:ar1":"الأنصب"},"display_name":"الأنصب, ولاية بوشر, محافظة مسقط, عمان","address":{"town":"الأنصب","city":"ولاية بوشر","state":"محافظة مسقط","ISO3166-2-lvl4":"OM-MA","country":"عمان","country_code":"om"},"osm_type":"node","osm_id":1721989310,"type":"town","location":[58.3588746,23.5372453],"bbox":[58.3188746,23.4972453,58.3988746,23.5772453],"border":{"name":"الأنصب","other_names":{"name:ar":"الأنصب","name:de":"al Ansab","name:en":"al Ansab","name:fr":"al Ansab","name:ml":"അൽ-അൻസബ്","alt_name":"Al Anşab, الأنصب, Lanşab, Al Ansab, الأنصب, Lansab","name:ar1":"الأنصب"},"display_name":"الأنصب, ولاية بوشر, محافظة مسقط, عمان","address":{"town":"الأنصب","city":"ولاية بوشر","state":"محافظة مسقط","ISO3166-2-lvl4":"OM-MA","country":"عمان","country_code":"om"},"osm_type":"relation","osm_id":19170207,"type":"administrative","location":[58.3588746,23.5372453],"bbox":[58.2922387,23.5182501,58.3790436,23.5675372]}}
{"name":"البداية","other_names":{"name:ar":"البداية","name:de":"Al Budayah","name:en":"Al Budayah","name:fr":"Al Budayah","name:ml":"അൽ-ബുദായ","alt_name":"البداية","int_name":"Al Budāyah, Al Budayah","name:ar1":"البداية"},"display_name":"البداية, محافظة شمال الباطنة, عمان","address":{"town":"البداية","state":"محافظة شمال الباطنة","ISO3166-2-lvl4":"OM-BS","country":"عمان","country_code":"om"},"osm_type":"node","osm_id":1721858794,"type":"town","location":[57.1694318,23.9228931],"bbox":[57.1294318,23.8828931,57.2094318,23.9628931]}
{"name":"الثرمد","other_names":{"name:ar":"الثرمد","name:de":"Ath Tharmad","name:en":"Ath Tharmad","name:fr":"Ath Tharmad","name:ml":"അൽ-തർമദ്","alt_name":"الثرمد","int_name":"Ath Tharmad, Tharmad, Thermod, Ath Tharmad, Tharmad, Thermod","name:ar1":"الثرمد"},"display_name":"الثرمد, محافظة شمال الباطنة, عمان","address":{"town":"الثرمد","state":"محافظة شمال الباطنة","ISO3166-2-lvl4":"OM-BS","country":"عمان","country_code":"om"},"osm_type":"node","osm_id":1721860076,"type":"town","location":[57.5176818,23.7918717],"bbox":[57.4776818,23.7518717,57.5576818,23.8318717]}
{"name":"الجادي","other_names":{"ref":"030310020","name:ar":"الجادي","name:en":"Al Jādī","name:es":"Al Jādī","name:fr":"Al Jādī","alt_name":"Al Jādī;Jaal;Jadi;Jadl;Al-Jadi"},"display_name":"الجادي, محافظة مسندم, عمان","address":{"town":"الجادي","state":"محافظة مسندم","ISO3166-2-lvl4":"OM-MU","country":"عمان","country_code":"om"},"population":654,"osm_type":"node","osm_id":12302185050,"type":"town","location":[56.1706795,26.1628676],"bbox":[56.1306795,26.1228676,56.2106795,26.2028676]}
{"name":"الجراديّة","other_names":{"name:ar":"الجراديّة","name:en":"Al Jarādīyah","name:es":"Al Jarādīyah","name:fr":"Al Jarādīyah","name:ml":"അൽ-ജറാദിയ","alt_name":"Al Jarādiyyah"},"display_name":"الجراديّة, ولاية مدحاء, محافظة مسندم, عمان","address":{"town":"الجراديّة","county":"ولاية مدحاء","state":"محافظة مسندم","ISO3166-2-lvl4":"OM-MU","country":"عمان","country_code":"om"},"osm_type":"node","osm_id":12296170279,"type":"town","location":[56.3501237,25.3034306],"bbox":[56.3101237,25.2634306,56.3901237,25.3434306]}
{"name":"الجفنين","other_names":{"name:ar":"الجفنين","name:de":"al Jifnain","name:en":"al Jifnain","name:fr":"al Jifnain","name:ar1":"الجفنين","alt_name:en":"Al Jafnayn, Al Jafnayn"},"display_name":"الجفنين, ولاية السيب, محافظة مسقط, عمان","address":{"town":"الجفنين","village":"الجفنين","city":"ولاية السيب","state":"محافظة مسقط","ISO3166-2-lvl4":"OM-MA","country":"عمان","country_code":"om"},"osm_type":"node","osm_id":1722027538,"type":"town","location":[58.1886627,23.5275633],"bbox":[58.1486627,23.4875633,58.2286627,23.5675633],"border":{"name":"الجفنين","other_names":{"name:ar":"الجفنين","name:en":"al Jifnain","name:de":"al Jifnain","name:fr":"al Jifnain","name:ar1":"الجفنين","alt_name:en":"Al Jafnayn, Al Jafnayn"},"display_name":"الجفنين, ولاية السيب, محافظة مسقط, عمان","address":{"village":"الجفنين","city":"ولاية السيب","state":"محافظة مسقط","ISO3166-2-lvl4":"OM-MA","country":"عمان","country_code":"om"},"osm_type":"relation","osm_id":19166052,"type":"administrative","location":[58.1886627,23.5275633],"bbox":[58.1430252,23.4529318,58.2774216,23.5504173]}}
{"name":"الجيل الجنوبية","other_names":{"name:ar":"الجيل الجنوبية","name:de":"al Hail al Janubiyah","name:en":"al Hail al Janubiyah","name:fr":"al Hail al Janubiyah","name:ml":"അൽ-ഹെയ്ൽ അൽ-ജനൂബിയ","alt_name":"الحيل الجنوبية","int_name":"al Hail al Janubiyah","name:ar1":"الحيل الجنوبية"},"display_name":"الجيل الجنوبية, ولاية السيب, محافظة مسقط, عمان","address":{"town":"الجيل الجنوبية","city":"ولاية السيب","state":"محافظة مسقط","ISO3166-2-lvl4":"OM-MA","country":"عمان","country_code":"om"},"osm_type":"node","osm_id":12450370483,"type":"town","location":[58.2242024,23.6290833],"bbox":[58.1842024,23.5890833,58.2642024,23.6690833],"border":{"name":"الجيل الجنوبية","other_names":{"name:ar":"الجيل الجنوبية","name:en":"al Hail al Janubiyah","name:de":"al Hail al Janubiyah","name:fr":"al Hail al Janubiyah","name:ml":"അൽ-ഹെയ്ൽ അൽ-ജനൂബിയ","alt_name":"الحيل الجنوبية","int_name":"al Hail al Janubiyah","name:ar1":"الحيل الجنوبية"},"display_name":"الجيل الجنوبية, ولاية السيب, محافظة مسقط, 000, عمان","address":{"town":"الجيل الجنوبية","city":"ولاية السيب","state":"محافظة مسقط","ISO3166-2-lvl4":"OM-MA","postcode":"000","country":"عمان","country_code":"om"},"osm_type":"relation","osm_id":19165959,"type":"administrative","location":[58.2242024,23.6290833],"bbox":[58.2024068,23.6107318,58.2454737,23.6547592]}}
{"name":"الحائمة","other_names":{"name:ar":"الحائمة","name:de":"Al Hayema","name:en":"Al Hayema","name:fr":"Al Hayema","name:ml":"അൽ-ഹായെമ"},"display_name":"الحائمة, محافظة شمال الشرقية, عمان","address":{"town":"الحائمة","state":"محافظة شمال الشرقية","ISO3166-2-lvl4":"OM-SS","country":"عمان","country_code":"om"},"osm_type":"node","osm_id":9282756784,"type":"town","location":[58.4279264,22.8350177],"bbox":[58.3879264,22.7950177,58.4679264,22.8750177]}
{"name":"الحاجر","other_names":{"ref":"010320102","name:ar":"الحاجر","name:de":"Al Hajar","name:en":"Al Hajar","name:fr":"Al Hajar","alt_name":"الحاجر","int_name":"Al Ḩājar, Al Hajar","name:ar1":"الحاجر"},"display_name":"الحاجر, ولاية العامرات, محافظة مسقط, عمان","address":{"town":"الحاجر","city":"ولاية العامرات","state":"محافظة مسقط","ISO3166-2-lvl4":"OM-MA","country":"عمان","country_code":"om"},"population":2715,"osm_type":"node","osm_id":1720810086,"type":"town","location":[58.5085746,23.4059839],"bbox":[58.4685746,23.3659839,58.5485746,23.4459839]}
{"name":"الحارة","other_names":{"name:ar":"الحارة","name:en":"Al Ḩārah","name:es":"Al Ḩārah","name:fr":"Al Ḩārah","alt_name":"Al Ḥārah"},"display_name":"الحارة, ولاية مدحاء, محافظة مسندم, عمان","address":{"town":"الحارة","county":"ولاية مدحاء","state":"محافظة مسندم","ISO3166-2-lvl4":"OM-MU","country":"عمان","country_code":"om"},"osm_type":"node","osm_id":12296045342,"type":"town","location":[56.3213192,25.2768502],"bbox":[56.2813192,25.2368502,56.3613192,25.3168502]}
{"name":"الحرف","other_names":{"ref":"030140070","name:ar":"الحرف","name:en":"al Harf","name:es":"al Harf","name:fr":"al Harf","name:ml":"അൽ ഹർഫ്","alt_name":"Al Harf;Al Ḥarf;Al Ḩarf;Harf;Harf Ghabi;alhrf;الحرف, Ḩarf, Ḩarf Ghabī"},"display_name":"الحرف, محافظة مسندم, 811, عمان","address":{"town":"الحرف","state":"محافظة مسندم","ISO3166-2-lvl4":"OM-MU","postcode":"811","country":"عمان","country_code":"om"},"population":654,"osm_type":"node","osm_id":11918757551,"type":"town","location":[56.2064725,26.2322727],"bbox":[56.1664725,26.1922727,56.2464725,26.2722727]}
{"name":"الحمراء","other_names":{"name:ar":"الحمراء","name:de":"Al Hamra","name:en":"Al Hamra","name:es":"Al Hamra","name:fr":"Al Hamra","name:ml":"അൽ-ഹംറ","alt_name":"Al Hamra', Al Ḥamrā’, Al Ḩamrā’, Hamra, Hamrah, الحمراء, Ḩamrah","int_name":"Al Ḩamrā, Ḩamrah, Hamra, Al Hamra, Hamrah, Hamra","name:ar1":"الحمراء"},"display_name":"الحمراء, محافظة الداخلية, عمان","address":{"town":"الحمراء","state":"محافظة الداخلية","ISO3166-2-lvl4":"OM-DA","country":"عمان","country_code":"om"},"osm_type":"node","osm_id":1718139885,"type":"town","location":[57.2868343,23.1170765],"bbox":[57.2468343,23.0770765,57.3268343,23.1570765]}
{"name":"الحمرية","other_names":{"name:ar":"الحمرية","name:de":"Al Hamriyah","name:en":"Al Hamriyah","name:fr":"Al Hamriyah","name:ml":"അൽ-ഹമറിയ","name:ru":"Аль-Амрат","alt_name":"الحمرية","int_name":"Al Ḩamrīyah, الحمرية, Al Hamriyah, الحمرية","name:ar1":"الحمرية"},"display_name":"الحمرية, ولاية مطرح, محافظة مسقط, عمان","address":{"town":"الحمرية","city":"ولاية مطرح","state":"محافظة مسقط","ISO3166-2-lvl4":"OM-MA","country":"عمان","country_code":"om"},"osm_type":"node","osm_id":1719823591,"type":"town","location":[58.5454363,23.5806275],"bbox":[58.5054363,23.5406275,58.5854363,23.6206275],"border":{"name":"الحمرية","other_names":{"name:ar":"الحمرية","name:de":"Al Hamriyah","name:en":"Al Hamriyah","name:fr":"Al Hamriyah","name:ml":"അൽ-ഹമറിയ","name:ru":"Аль-Амрат","alt_name":"الحمرية","int_name":"Al Ḩamrīyah, الحمرية, Al Hamriyah, الحمرية","name:ar1":"الحمرية"},"display_name":"الحمرية, ولاية مطرح, محافظة مسقط, عمان","address":{"town":"الحمرية","city":"ولاية مطرح","state":"محافظة مسقط","ISO3166-2-lvl4":"OM-MA","country":"عمان","country_code":"om"},"osm_type":"relation","osm_id":19169080,"type":"administrative","location":[58.5454363,23.5806275],"bbox":[58.5372805,23.5740422,58.5502678,23.5863838]}}
{"name":"الحويلات","other_names":{"name:ar":"الحويلات","name:en":"Al Huwaylat","name:es":"Al Huwaylat","name:fr":"Al Huwaylat","name:ml":"അൽ-ഹുവൈലാത്ത്","alt_name":"Al Hiwiylat, Al Huwaylat, Al Ḥiwiylāt, Al Ḩuwaylāt, alhwylat, الحويلات"},"display_name":"الحويلات, محافظة شمال الباطنة, عمان","address":{"town":"الحويلات","state":"محافظة شمال الباطنة","ISO3166-2-lvl4":"OM-BS","country":"عمان","country_code":"om"},"osm_type":"node","osm_id":12084404704,"type":"town","location":[56.3182919,24.2289318],"bbox":[56.2782919,24.1889318,56.3582919,24.2689318]}
{"name":"الحيل الشمالية","other_names":{"name:ar":"الحيل الشمالية","name:de":"al Hail al Shamaliyah","name:en":"al Hail al Shamaliyah","name:fr":"al Hail al Shamaliyah","alt_name":"الحيل الشمالية","int_name":"al Hail al Shamaliyah","name:ar1":"الحيل الشمالية","alt_name:en":"al Hail al Shamaliyya"},"display_name":"الحيل الشمالية, ولاية السيب, محافظة مسقط, عمان","address":{"town":"الحيل الشمالية","city":"ولاية السيب","state":"محافظة مسقط","ISO3166-2-lvl4":"OM-MA","country":"عمان","country_code":"om"},"osm_type":"node","osm_id":1721977666,"type":"town","location":[58.2347536,23.6395439],"bbox":[58.1947536,23.5995439,58.2747536,23.6795439],"border":{"name":"الحيل الشمالية","other_names":{"name:ar":"الحيل الشمالية","name:en":"al Hail al Shamaliyah","name:de":"al Hail al Shamaliyah","name:fr":"al Hail al Shamaliyah","alt_name":"الحيل الشمالية","int_name":"al Hail al Shamaliyah","name:ar1":"الحيل الشمالية","alt_name:en":"al Hail al Shamaliyya"},"display_name":"الحيل الشمالية, ولاية السيب, محافظة مسقط, عمان","address":{"town":"الحيل الشمالية","city":"ولاية السيب","state":"محافظة مسقط","ISO3166-2-lvl4":"OM-MA","country":"عمان","country_code":"om"},"osm_type":"relation","osm_id":19165957,"type":"administrative","location":[58.2347536,23.6395439],"bbox":[58.2039624,23.6204772,58.2494106,23.6636066]}}
{"name":"الخوض","other_names":{"name:ar":"الخوض","name:de":"al Khoudh","name:en":"al Khoudh","name:fr":"al Khoudh","name:ml":"അൽ-ഖൂദ്","alt_name":"الخوض","int_name":"al Khoudh","name:ar1":"الخوض"},"display_name":"الخوض, ولاية السيب, محافظة مسقط, عمان","address":{"town":"الخوض","city":"ولاية السيب","state":"محافظة مسقط","ISO3166-2-lvl4":"OM-MA","country":"عمان","country_code":"om"},"osm_type":"node","osm_id":12450370482,"type":"town","location":[58.1969923,23.6295256],"bbox":[58.1569923,23.5895256,58.2369923,23.6695256],"border":{"name":"الخوض","other_names":{"name:ar":"الخوض","name:de":"al Khoudh","name:en":"al Khoudh","name:fr":"al Khoudh","name:ml":"അൽ-ഖൂദ്","alt_name":"الخوض","int_name":"al Khoudh","name:ar1":"الخوض"},"display_name":"الخوض, ولاية السيب, محافظة مسقط, 132, عمان","address":{"town":"الخوض","city":"ولاية السيب","state":"محافظة مسقط","ISO3166-2-lvl4":"OM-MA","postcode":"132","country":"عمان","country_code":"om"},"osm_type":"relation","osm_id":19165836,"type":"administrative","location":[58.1969923,23.6295256],"bbox":[58.1208301,23.5795439,58.2149273,23.662925]}}
{"name":"الخوير","other_names":{"name:en":"Al Khuwair","name:ml":"അൽ-ഖുവൈർ"},"display_name":"الخوير, ولاية بوشر, محافظة مسقط, عمان","address":{"town":"الخوير","city":"ولاية بوشر","state":"محافظة مسقط","ISO3166-2-lvl4":"OM-MA","country":"عمان","country_code":"om"},"osm_type":"node","osm_id":218115218,"type":"town","location":[58.4297409,23.5862946],"bbox":[58.3897409,23.5462946,58.4697409,23.6262946],"border":{"name":"الخوير","other_names":{"name:ar":"الخوير","name:en":"Al Khuwair","name:ml":"അൽ-ഖുവൈർ"},"display_name":"الخوير, ولاية بوشر, محافظة مسقط, عمان","address":{"town":"الخوير","city":"ولاية بوشر","state":"محافظة مسقط","ISO3166-2-lvl4":"OM-MA","country":"عمان","country_code":"om"},"osm_type":"relation","osm_id":19168130,"type":"administrative","location":[58.4297409,23.5862946],"bbox":[58.4072497,23.5694647,58.464421,23.5980582]}}
{"name":"الرسيل","other_names":{"name:ar":"الرسيل","name:de":"Rusayl","name:en":"Rusayl","name:fr":"Rusayl","alt_name":"الرسيل","int_name":"Rusayl, Rusayl","name:ar1":"الرسيل"},"display_name":"الرسيل, ولاية السيب, محافظة مسقط, عمان","address":{"town":"الرسيل","city":"ولاية السيب","state":"محافظة مسقط","ISO3166-2-lvl4":"OM-MA","country":"عمان","country_code":"om"},"osm_type":"node","osm_id":1722028348,"type":"town","location":[58.1933142,23.5566334],"bbox":[58.1533142,23.5166334,58.2333142,23.5966334],"border":{"name":"الرسيل","other_names":{"name:ar":"الرسيل","name:en":"al Rusail","name:de":"Rusayl","name:fr":"Rusayl","alt_name":"الرسيل","int_name":"Rusayl, Rusayl","name:ar1":"الرسيل","alt:en":"Rusayl"},"display_name":"الرسيل, ولاية السيب, محافظة مسقط, عمان","address":{"town":"الرسيل","city":"ولاية السيب","state":"محافظة مسقط","ISO3166-2-lvl4":"OM-MA","country":"عمان","country_code":"om"},"osm_type":"relation","osm_id":19166053,"type":"administrative","location":[58.1933142,23.5566334],"bbox":[58.1277502,23.5373534,58.2362508,23.5795439]}}
{"name":"الروضة","other_names":{"name:ar":"الروضة","name:en":"Ar Rawdah","name:es":"Ar Rawdah","name:fr":"Ar Rawdah","name:ml":"അർ-റൗധ","alt_name":"Ar Rawdah;Ar Rawḍah;Ar Rawḑah;alrwdt;الرّوضة"},"display_name":"الروضة, محافظة البريمي, عمان","address":{"town":"الروضة","state":"محافظة البريمي","ISO3166-2-lvl4":"OM-BU","country":"عمان","country_code":"om"},"osm_type":"node","osm_id":5650574983,"type":"town","location":[55.86047,24.9032671],"bbox":[55.82047,24.8632671,55.90047,24.9432671]}
{"name":"السّنادل","other_names":{"name:ar":"السّنادل","name:en":"As Sanadil","name:es":"Sinadil","name:fa":"سینادیل","name:fr":"Sinadil","name:ml":"സിനാദിൽ","alt_name":"Sinadil;As Sanādil;Sinadil;Sinādil;السّنادل"},"display_name":"السّنادل, محافظة البريمي, عمان","address":{"town":"السّنادل","state":"محافظة البريمي","ISO3166-2-lvl4":"OM-BU","country":"عمان","country_code":"om"},"osm_type":"node","osm_id":10845950126,"type":"town","location":[56.0263,24.8125368],"bbox":[55.9863,24.7725368,56.0663,24.8525368]}
{"name":"السّيح","other_names":{"name:ar":"السّيح","name:de":"As Sayh","name:en":"As Sayh","name:es":"As Sayh","name:fr":"As Sayh","alt_name":"As Sayḥ;As Sayḩ;alsyh;السّيح"},"display_name":"السّيح, محافظة مسندم, عمان","address":{"town":"السّيح","state":"محافظة مسندم","ISO3166-2-lvl4":"OM-MU","country":"عمان","country_code":"om"},"osm_type":"node","osm_id":10784886796,"type":"town","location":[56.2118632,25.9930706],"bbox":[56.1718632,25.9530706,56.2518632,26.0330706]}
{"name":"السيق","other_names":{"name:ar":"السيق","name:de":"As Saiq","name:en":"As Saiq","name:fr":"As Saiq","alt_name":"السيق","int_name":"As Saiq, As Saiq","name:ar1":"السيق"},"display_name":"السيق, محافظة جنوب الباطنة, 621, عمان","address":{"town":"السيق","state":"محافظة جنوب الباطنة","ISO3166-2-lvl4":"OM-BJ","postcode":"621","country":"عمان","country_code":"om"},"osm_type":"node","osm_id":1721771916,"type":"town","location":[57.6425158,23.0683245],"bbox":[57.6025158,23.0283245,57.6825158,23.1083245]}
{"name":"الشرية","other_names":{"name:ar":"الشرية","name:de":"Ash Sharya","name:en":"Ash Sharyah","name:es":"Ash Sharyah","name:fr":"Ash Sharyah","alt_name:ar":"الشّرية"},"display_name":"الشرية, ولاية مدحاء, محافظة مسندم, عمان","address":{"town":"الشرية","county":"ولاية مدحاء","state":"محافظة مسندم","ISO3166-2-lvl4":"OM-MU","country":"عمان","country_code":"om"},"osm_type":"node","osm_id":5650640690,"type":"town","location":[56.3110432,25.2707794],"bbox":[56.2710432,25.2307794,56.3510432,25.3107794]}
{"name":"الشعبية","display_name":"الشعبية, محافظة جنوب الباطنة, عمان","address":{"town":"الشعبية","state":"محافظة جنوب الباطنة","ISO3166-2-lvl4":"OM-BJ","country":"عمان","country_code":"om"},"osm_type":"node","osm_id":3725325930,"type":"town","location":[57.8225752,23.4150425],"bbox":[57.7825752,23.3750425,57.8625752,23.4550425]}
{"name":"الشويمية","other_names":{"name:ar":"الشويمية","name:de":"Schuwaimiyya","name:en":"Ash Shuwaymiyah","name:es":"Shuweimía","name:ml":"ഷുവൈമിയ","alt_name":"شعيمية","name:arz":"الشويميه","alt_name:ar":"شعيمية"},"display_name":"الشويمية, محافظة ظفار, عمان","address":{"town":"الشويمية","state":"محافظة ظفار","ISO3166-2-lvl4":"OM-ZU","country":"عمان","country_code":"om"},"osm_type":"node","osm_id":1720544881,"type":"town","location":[55.60972,17.8853411],"bbox":[55.56972,17.8453411,55.64972,17.9253411]}
{"name":"الصّباخ","other_names":{"name:ar":"الصّباخ","name:en":"As Sibakh","name:es":"As Sibakh","name:fr":"As Sibakh","name:ml":"സിബാഖ്","alt_name":"As Sibakh, Aş Şibākh, Aṣ Ṣibākh, Sabakh, alsbakh, Şabākh, الصّباخ"},"display_name":"الصّباخ, محافظة شمال الباطنة, عمان","address":{"town":"الصّباخ","state":"محافظة شمال الباطنة","ISO3166-2-lvl4":"OM-BS","country":"عمان","country_code":"om"},"osm_type":"node","osm_id":12195476487,"type":"town","location":[56.4564498,24.5104286],"bbox":[56.4164498,24.4704286,56.4964498,24.5504286]}
{"name":"الصويحرة","other_names":{"name:ar":"الصويحرة","name:de":"Sawaiharah","name:en":"Sawaiharah","name:fr":"Sawaiharah","name:ml":"സവൈഹറ","alt_name":"صويحرة","int_name":"Sawaiharah, Suwaihara, Şuwayḩirah, Sawaiharah, Suwaihara, Suwayhirah","name:ar1":"صويحرة"},"display_name":"الصويحرة, محافظة شمال الباطنة, عمان","address":{"town":"الصويحرة","state":"محافظة شمال الباطنة","ISO3166-2-lvl4":"OM-BS","country":"عمان","country_code":"om"},"osm_type":"node","osm_id":1719504013,"type":"town","location":[56.7781935,24.3121829],"bbox":[56.7381935,24.2721829,56.8181935,24.3521829]}
{"name":"العذيبة الشمالية","other_names":{"name:en":"al Azaiba al Shamaliyah","name:ml":"അൽ-അസൈബ ഷമാലിയ","alt_name":"العذيبة الشمالية","int_name":"Al Udhaybah ash Shamālīyah, العذيبة الشمالية, Al Udhaybah ash Shamaliyah, العذيبة الشمالية"},"display_name":"العذيبة الشمالية, ولاية بوشر, محافظة مسقط, عمان","address":{"town":"العذيبة الشمالية","city":"ولاية بوشر","state":"محافظة مسقط","ISO3166-2-lvl4":"OM-MA","country":"عمان","country_code":"om"},"osm_type":"node","osm_id":1721985979,"type":"town","location":[58.3644952,23.5951271],"bbox":[58.3244952,23.5551271,58.4044952,23.6351271],"border":{"name":"العذيبة الشمالية","other_names":{"name:ar":"العذيبة الشمالية","name:en":"al Azaiba al Shamaliyah","name:ml":"അൽ-അസൈബ ഷമാലിയ","alt_name":"العذيبة الشمالية","int_name":"Al Udhaybah ash Shamālīyah, العذيبة الشمالية, Al Udhaybah ash Shamaliyah, العذيبة الشمالية"},"display_name":"العذيبة الشمالية, ولاية بوشر, محافظة مسقط, عمان","address":{"town":"العذيبة الشمالية","city":"ولاية بوشر","state":"محافظة مسقط","ISO3166-2-lvl4":"OM-MA","country":"عمان","country_code":"om"},"osm_type":"relation","osm_id":19166618,"type":"administrative","location":[58.3644952,23.5951271],"bbox":[58.3279234,23.5880496,58.385944,23.6075373]}}
{"name":"العقر","other_names":{"name:ar":"العقر","name:en":"Aqr","name:es":"Aqr","name:ml":"അൽ അഖർ","alt_name":"عقر","int_name":"Aqr, Aqr"},"display_name":"العقر, محافظة شمال الباطنة, عمان","address":{"town":"العقر","state":"محافظة شمال الباطنة","ISO3166-2-lvl4":"OM-BS","country":"عمان","country_code":"om"},"osm_type":"node","osm_id":1719453417,"type":"town","location":[56.4410943,24.808286],"bbox":[56.4010943,24.768286,56.4810943,24.848286]}
{"name":"الغبرة الجنوبية","other_names":{"name:ar":"الغبرة الجنوبية","name:de":"Al Ghubrah al Janubiyah","name:en":"Al Ghubrah al Janubiyah","name:fr":"Al Ghubrah al Janubiyah","name:ml":"അൽ-ഗുബ്ര ജനൂബിയ","alt_name":"الغبرة الجنوبية","int_name":"Al Ghubrah al Janubiyah, Al Ghubrah al Janūbīyah, الغبرة الجنوبية, Al Ghubrah al Janubiyah, Al Ghubrah al Janubiyah, الغبرة الجنوبية","name:ar1":"الغبرة الجنوبية"},"display_name":"الغبرة الجنوبية, ولاية بوشر, محافظة مسقط, عمان","address":{"town":"الغبرة الجنوبية","city":"ولاية بوشر","state":"محافظة مسقط","ISO3166-2-lvl4":"OM-MA","country":"عمان","country_code":"om"},"osm_type":"node","osm_id":419072419,"type":"town","location":[58.3981127,23.5784267],"bbox":[58.3581127,23.5384267,58.4381127,23.6184267],"border":{"name":"الغبرة الجنوبية","other_names":{"name:ar":"الغبرة الجنوبية","name:en":"al Ghubrah al Janubiyah","name:de":"Al Ghubrah al Janubiyah","name:fr":"Al Ghubrah al Janubiyah","name:ml":"അൽ-ഗുബ്ര ജനൂബിയ","alt_name":"الغبرة الجنوبية","int_name":"Al Ghubrah al Janubiyah, Al Ghubrah al Janūbīyah, الغبرة الجنوبية, Al Ghubrah al Janubiyah, Al Ghubrah al Janubiyah, الغبرة الجنوبية","name:ar1":"الغبرة الجنوبية","alt:en":"Al Ghubrah al Janubiyah"},"display_name":"الغبرة الجنوبية, ولاية بوشر, محافظة مسقط, عمان","address":{"town":"الغبرة الجنوبية","city":"ولاية بوشر","state":"محافظة مسقط","ISO3166-2-lvl4":"OM-MA","country":"عمان","country_code":"om"},"osm_type":"relation","osm_id":19168093,"type":"administrative","location":[58.3981127,23.5784267],"bbox":[58.3813584,23.5732187,58.413038,23.5889471]}}
{"name":"الغبرة الشمالية","other_names":{"name:ar":"الغبرة الشمالية","name:de":"Al Ghubrah ash Shamaliyah","name:en":"Al Ghubrah ash Shamaliyah","name:fr":"Al Ghubrah ash Shamaliyah","name:ml":"അൽ-ഗുബ്ര ഷാമാലിയ","alt_name":"الغبرة الشمالية","int_name":"Al Ghubrah ash Shamālīyah, الغبرة الشمالية, Al Ghubrah ash Shamaliyah, الغبرة الشمالية","name:ar1":"الغبرة الشمالية"},"display_name":"الغبرة الشمالية, ولاية بوشر, محافظة مسقط, عمان","address":{"town":"الغبرة الشمالية","city":"ولاية بوشر","state":"محافظة مسقط","ISO3166-2-lvl4":"OM-MA","country":"عمان","country_code":"om"},"osm_type":"node","osm_id":1721989343,"type":"town","location":[58.4018532,23.5970755],"bbox":[58.3618532,23.5570755,58.4418532,23.6370755],"border":{"name":"الغبرة الشمالية","other_names":{"name:ar":"الغبرة الشمالية","name:en":"al Ghubrah al Shamaliyah","name:de":"Al Ghubrah ash Shamaliyah","name:fr":"Al Ghubrah ash Shamaliyah","name:ml":"അൽ-ഗുബ്ര ഷാമാലിയ","alt_name":"الغبرة الشمالية","int_name":"Al Ghubrah ash Shamālīyah, الغبرة الشمالية, Al Ghubrah ash Shamaliyah, الغبرة الشمالية","name:ar1":"الغبرة الشمالية","alt:en":"Al Ghubrah ash Shamaliyah"},"display_name":"الغبرة الشمالية, ولاية بوشر, محافظة مسقط, عمان","address":{"town":"الغبرة الشمالية","city":"ولاية بوشر","state":"محافظة مسقط","ISO3166-2-lvl4":"OM-MA","country":"عمان","country_code":"om"},"osm_type":"relation","osm_id":19168060,"type":"administrative","location":[58.4018532,23.5970755],"bbox":[58.3828795,23.582511,58.4182213,23.6103769]}}
{"name":"الغونة","other_names":{"name:ar":"الغونة","name:de":"Al Ghūnah","name:en":"Al Ghūnah","name:es":"Al Ghūnah","name:fr":"Al Ghawna","alt_name":"Al Ghunah;Al Ghūnah;Ghuna;Ghunah;Ghūnah"},"display_name":"الغونة, ولاية مدحاء, محافظة مسندم, عمان","address":{"town":"الغونة","county":"ولاية مدحاء","state":"محافظة مسندم","ISO3166-2-lvl4":"OM-MU","country":"عمان","country_code":"om"},"osm_type":"node","osm_id":5650640691,"type":"town","location":[56.3141549,25.2698091],"bbox":[56.2741549,25.2298091,56.3541549,25.3098091]}
{"name":"الفليج","other_names":{"name:ar":"الفليج"},"display_name":"الفليج, محافظة جنوب الشرقية, عمان","address":{"town":"الفليج","state":"محافظة جنوب الشرقية","ISO3166-2-lvl4":"OM-SJ","country":"عمان","country_code":"om"},"osm_type":"node","osm_id":5872461605,"type":"town","location":[59.3355391,22.0047197],"bbox":[59.2955391,21.9647197,59.3755391,22.0447197]}
{"name":"القرم","other_names":{"name:ar":"القرم","name:de":"Qurum","name:en":"Qurum","name:fr":"Qurum","name:ml":"ഖുറം","alt_name":"قرم","name:ar1":"القرم","alt_name:en":"Qurm"},"display_name":"القرم, ولاية بوشر, محافظة مسقط, عمان","address":{"town":"القرم","city":"ولاية بوشر","state":"محافظة مسقط","ISO3166-2-lvl4":"OM-MA","country":"عمان","country_code":"om"},"osm_type":"node","osm_id":1719832246,"type":"town","location":[58.4963973,23.6090515],"bbox":[58.4563973,23.5690515,58.5363973,23.6490515],"border":{"name":"القرم","other_names":{"name:ar":"القرم","name:de":"Qurum","name:en":"Qurum","name:fr":"Qurum","name:ml":"ഖുറം","name:ar1":"القرم","alt_name:en":"Qurm","alt_name":"قرم"},"display_name":"القرم, ولاية بوشر, محافظة مسقط, 282, عمان","address":{"town":"القرم","city":"ولاية بوشر","state":"محافظة مسقط","ISO3166-2-lvl4":"OM-MA","postcode":"282","country":"عمان","country_code":"om"},"osm_type":"relation","osm_id":19168878,"type":"administrative","location":[58.4963973,23.6090515],"bbox":[58.4898484,23.5926507,58.5121751,23.616632]}}
{"name":"القطّارة","other_names":{"name:ar":"القطّارة","name:en":"Al Qaţţārah","name:es":"Al Qaţţārah","name:fr":"Al Qaţţārah","alt_name":"Al Qaṭṭārah"},"display_name":"القطّارة, ولاية مدحاء, محافظة مسندم, عمان","address":{"town":"القطّارة","county":"ولاية مدحاء","state":"محافظة مسندم","ISO3166-2-lvl4":"OM-MU","country":"عمان","country_code":"om"},"osm_type":"node","osm_id":12296232030,"type":"town","location":[56.2964874,25.3024556],"bbox":[56.2564874,25.2624556,56.3364874,25.3424556]}
{"name":"الكحل","other_names":{"name:ar":"الكحل","name:de":"al Kahil","name:en":"al Kahil","name:fr":"al Kahil","alt_name":"خهل","name:ar1":"خهل","alt_name:en":"Khahil, Kahil"},"display_name":"الكحل, محافظة الوسطى, عمان","address":{"town":"الكحل","state":"محافظة الوسطى","ISO3166-2-lvl4":"OM-WU","country":"عمان","country_code":"om"},"osm_type":"node","osm_id":1719158041,"type":"town","location":[56.583109,18.5865487],"bbox":[56.543109,18.5465487,56.623109,18.6265487]}
{"name":"المزيونة","other_names":{"name:ar":"المزيونة","name:en":"Al Mazyunah","name:ml":"അൽ മസ്യൂന"},"display_name":"المزيونة, محافظة ظفار, عمان","address":{"town":"المزيونة","state":"محافظة ظفار","ISO3166-2-lvl4":"OM-ZU","country":"عمان","country_code":"om"},"osm_type":"node","osm_id":5650670312,"type":"town","location":[52.6749092,17.840868],"bbox":[52.6349092,17.800868,52.7149092,17.880868]}
{"name":"المسفاة الشمالية","other_names":{"name:ar":"المسفاة الشمالية","name:de":"al Misfah al Shamaliyah","name:en":"al Misfah al Shamaliyah","name:es":"al Misfah al Shamaliyah","name:fr":"al Misfah al Shamaliyah"},"display_name":"المسفاة الشمالية, ولاية بوشر, محافظة مسقط, عمان","address":{"town":"المسفاة الشمالية","city":"ولاية بوشر","state":"محافظة مسقط","ISO3166-2-lvl4":"OM-MA","country":"عمان","country_code":"om"},"osm_type":"node","osm_id":12854582017,"type":"town","location":[58.2555151,23.494116],"bbox":[58.2155151,23.454116,58.2955151,23.534116],"border":{"name":"المسفاة الشمالية","other_names":{"name:ar":"المسفاة الشمالية","name:de":"al Misfah al Shamaliyah","name:en":"al Misfah al Shamaliyah","name:es":"al Misfah al Shamaliyah","name:fr":"al Misfah al Shamaliyah"},"display_name":"المسفاة الشمالية, ولاية بوشر, محافظة مسقط, عمان","address":{"town":"المسفاة الشمالية","city":"ولاية بوشر","state":"محافظة مسقط","ISO3166-2-lvl4":"OM-MA","country":"عمان","country_code":"om"},"osm_type":"relation","osm_id":19172120,"type":"administrative","location":[58.2555151,23.494116],"bbox":[58.2067767,23.476532,58.3000659,23.5184863]}}
{"name":"المعبيلة الجنوبية","other_names":{"name:ar":"المعبيلة الجنوبية","name:de":"Al Mabelah","name:en":"al Mabelah al Janubiyah","name:fr":"Al Mabelah","name:ml":"അൽ-മബേല","name:ar1":"المعبلة","alt_name:ar":"المعبلة","alt_name:en":"al Mabelah, Mabelah"},"display_name":"المعبيلة الجنوبية, ولاية السيب, محافظة مسقط, عمان","address":{"town":"المعبيلة الجنوبية","city":"ولاية السيب","state":"محافظة مسقط","ISO3166-2-lvl4":"OM-MA","country":"عمان","country_code":"om"},"osm_type":"node","osm_id":1722027546,"type":"town","location":[58.1152502,23.6379399],"bbox":[58.0752502,23.5979399,58.1552502,23.6779399],"border":{"name":"المعبيلة الجنوبية","other_names":{"name:ar":"المعبيلة الجنوبية","name:en":"al Mabelah al Janubiyah","name:de":"Al Mabelah","name:fr":"Al Mabelah","name:ml":"അൽ-മബേല","name:ar1":"المعبلة","alt_name:ar":"المعبلة","alt_name:en":"al Mabelah, Mabelah"},"display_name":"المعبيلة الجنوبية, ولاية السيب, محافظة مسقط, عمان","address":{"town":"المعبيلة الجنوبية","city":"ولاية السيب","state":"محافظة مسقط","ISO3166-2-lvl4":"OM-MA","country":"عمان","country_code":"om"},"osm_type":"relation","osm_id":19165835,"type":"administrative","location":[58.1152502,23.6379399],"bbox":[58.0244704,23.5901779,58.1707217,23.6933954]}}
{"name":"الملدة","other_names":{"name:ar":"الملدة","name:de":"Al Maladda","name:en":"Al Maladda","name:fr":"Al Maladda","name:ml":"അൽ-മുലദ്ദ","alt_name":"الملدة","int_name":"Al Maladda, Al Muladdah, Muladdah, Al Maladda, Al Muladdah, Muladdah","name:ar1":"الملدة"},"display_name":"الملدة, محافظة شمال الباطنة, 314, عمان","address":{"town":"الملدة","state":"محافظة شمال الباطنة","ISO3166-2-lvl4":"OM-BS","postcode":"314","country":"عمان","country_code":"om"},"osm_type":"node","osm_id":1721019466,"type":"town","location":[57.5713593,23.7495742],"bbox":[57.5313593,23.7095742,57.6113593,23.7895742]}
{"name":"الموالح الجنوبية","other_names":{"name:ar":"الموالح الجنوبية","name:de":"al Mawalih al Janubiyah","name:en":"al Mawalih al Janubiyah","name:fr":"al Mawalih al Janubiyah","name:ml":"മവാലെഹ്","alt_name:en":"al Mawalih al Janubiyah, al Mawaleh al Janubiyya"},"display_name":"الموالح الجنوبية, ولاية السيب, محافظة مسقط, عمان","address":{"town":"الموالح الجنوبية","city":"ولاية السيب","state":"محافظة مسقط","ISO3166-2-lvl4":"OM-MA","country":"عمان","country_code":"om"},"osm_type":"node","osm_id":1721977695,"type":"town","location":[58.2316094,23.6016744],"bbox":[58.1916094,23.5616744,58.2716094,23.6416744],"border":{"name":"الموالح الجنوبية","other_names":{"name:ar":"الموالح الجنوبية","name:de":"al Mawalih al Janubiyah","name:en":"al Mawalih al Janubiyah","name:fr":"al Mawalih al Janubiyah","name:ml":"മവാലെഹ്","alt_name:en":"al Mawalih al Janubiyah, al Mawaleh al Janubiyya"},"display_name":"الموالح الجنوبية, ولاية السيب, محافظة مسقط, عمان","address":{"town":"الموالح الجنوبية","city":"ولاية السيب","state":"محافظة مسقط","ISO3166-2-lvl4":"OM-MA","country":"عمان","country_code":"om"},"osm_type":"relation","osm_id":19165890,"type":"administrative","location":[58.2316094,23.6016744],"bbox":[58.1792593,23.5728007,58.2519472,23.6148152]}}
{"name":"الموالح الشمالية","other_names":{"name:de":"Al Mawalih ash Shamaliyah","name:en":"Al Mawalih ash Shamaliyah","name:fr":"Al Mawalih ash Shamaliyah","alt_name":"الموالح الشمالية","int_name":"Al Mawāliḩ ash Shamālīyah, Al Mawlih ash Shamaliyah, الموالح الشمالية, Al Mawalih ash Shamaliyah, Al Mawlih ash Shamaliyah, الموالح الشمالية","name:ar1":"الموالح الشمالية"},"display_name":"الموالح الشمالية, ولاية السيب, محافظة مسقط, عمان","address":{"town":"الموالح الشمالية","city":"ولاية السيب","state":"محافظة مسقط","ISO3166-2-lvl4":"OM-MA","country":"عمان","country_code":"om"},"osm_type":"node","osm_id":1721977564,"type":"town","location":[58.2505277,23.6199775],"bbox":[58.2105277,23.5799775,58.2905277,23.6599775],"border":{"name":"الموالح الشمالية","other_names":{"name:ar":"الموالح الشمالية","name:de":"Al Mawalih al Shamaliyah","name:en":"Al Mawalih al Shamaliyah","name:fr":"Al Mawalih al Shamaliyah","alt_name":"Al Mawāliḩ ash Shamālīyah, Al Mawlih ash Shamaliyah, الموالح الشمالية, Al Mawalih ash Shamaliyah, Al Mawlih ash Shamaliyah, الموالح الشمالية","_place_alt_name":"الموالح الشمالية","int_name":"Al Mawāliḩ ash Shamālīyah, Al Mawlih ash Shamaliyah, الموالح الشمالية, Al Mawalih ash Shamaliyah, Al Mawlih ash Shamaliyah, الموالح الشمالية","name:ar1":"الموالح الشمالية","alt:de":"Al Mawalih ash Shamaliyah","alt:en":"Al Mawalih ash Shamaliyah","alt:fr":"Al Mawalih ash Shamaliyah"},"display_name":"الموالح الشمالية, ولاية السيب, محافظة مسقط, عمان","address":{"town":"الموالح الشمالية","city":"ولاية السيب","state":"محافظة مسقط","ISO3166-2-lvl4":"OM-MA","country":"عمان","country_code":"om"},"osm_type":"relation","osm_id":19165956,"type":"administrative","location":[58.2505277,23.6199775],"bbox":[58.2403627,23.6125001,58.2639125,23.6306559]}}
{"name":"الوادي الكبير","other_names":{"name:ar":"الوادي الكبير","name:de":"Al Wadi al Kabir","name:en":"Al Wadi al Kabir","name:fr":"Al Wadi al Kabir","name:ml":"വാദി കബീർ","alt_name":"Al Wādī al Kabīr, الوادي الكبير, Al Wadi al Kabir, الوادي الكبير","name:ar1":"الوادي الكبير"},"display_name":"الوادي الكبير, ولاية مطرح, محافظة مسقط, عمان","address":{"town":"الوادي الكبير","city":"ولاية مطرح","state":"محافظة مسقط","ISO3166-2-lvl4":"OM-MA","country":"عمان","country_code":"om"},"osm_type":"node","osm_id":1719823642,"type":"town","location":[58.5707765,23.5706202],"bbox":[58.5307765,23.5306202,58.6107765,23.6106202],"border":{"name":"الوادي الكبير","other_names":{"name:ar":"الوادي الكبير","name:de":"Al Wadi al Kabir","name:en":"Al Wadi al Kabir","name:fr":"Al Wadi al Kabir","name:ml":"വാദി കബീർ","alt_name":"Al Wādī al Kabīr, الوادي الكبير, Al Wadi al Kabir, الوادي الكبير","name:ar1":"الوادي الكبير"},"display_name":"الوادي الكبير, ولاية مطرح, محافظة مسقط, 117, عمان","address":{"town":"الوادي الكبير","city":"ولاية مطرح","state":"محافظة مسقط","ISO3166-2-lvl4":"OM-MA","postcode":"117","country":"عمان","country_code":"om"},"osm_type":"relation","osm_id":19170036,"type":"administrative","location":[58.5707765,23.5706202],"bbox":[58.5521561,23.5581201,58.5914182,23.5916921]}}
{"name":"الوديات","other_names":{"name:ar":"الوديات","name:en":"Al Widayyat","name:es":"Al Widayyat","name:fr":"Al Widayyat","name:ml":"അൽ-വിദയ്യാത്ത്","alt_name":"Al Wadiyat;Al Widayyat;Al Wadīyāt;Al Wudayyat;Al Wudayyāt;Wadiyat;Wadīyāt;alwdyat;الوديّات"},"display_name":"الوديات, محافظة شمال الباطنة, عمان","address":{"town":"الوديات","state":"محافظة شمال الباطنة","ISO3166-2-lvl4":"OM-BS","country":"عمان","country_code":"om"},"osm_type":"node","osm_id":12143803893,"type":"town","location":[56.4549201,24.778476],"bbox":[56.4149201,24.738476,56.4949201,24.818476]}
{"name":"الوطية","other_names":{"name:ar":"الوطية","name:de":"al Wutayyah","name:en":"al Wutayyah","name:fr":"al Wutayyah","name:ml":"അൽ-വത്തയ്യ","alt_name":"Al Wuţayyah, الوطية, Al Wutayyah, الوطية","name:ar1":"الوطية"},"display_name":"الوطية, ولاية بوشر, محافظة مسقط, عمان","address":{"town":"الوطية","city":"ولاية بوشر","state":"محافظة مسقط","ISO3166-2-lvl4":"OM-MA","country":"عمان","country_code":"om"},"osm_type":"node","osm_id":1719823652,"type":"town","location":[58.5112348,23.6061539],"bbox":[58.4712348,23.5661539,58.5512348,23.6461539],"border":{"name":"الوطية","other_names":{"name:ar":"الوطية","name:de":"al Wutayyah","name:en":"al Wutayyahh","name:fr":"al Wutayyah","name:ml":"അൽ-വത്തയ്യ","alt_name":"Al Wuţayyah, الوطية, Al Wutayyah, الوطية","name:ar1":"الوطية","alt:en":"al Wutayyah"},"display_name":"الوطية, ولاية بوشر, محافظة مسقط, عمان","address":{"town":"الوطية","city":"ولاية بوشر","state":"محافظة مسقط","ISO3166-2-lvl4":"OM-MA","country":"عمان","country_code":"om"},"osm_type":"relation","osm_id":19168966,"type":"administrative","location":[58.5112348,23.6061539],"bbox":[58.5019076,23.5917094,58.5317874,23.6186195]}}
{"name":"بلاد بني بو علي","other_names":{"name:ar":"بلاد بني بو علي","name:de":"Balad Bani Bu Ali","name:en":"Balad Bani Bu Ali","name:fr":"Balad Bani Bu Ali","alt_name":"بلاد بني بو علي","int_name":"Balad Bani Bu Ali, Bilād Banī Bū Alī, Balad Bani Bu Ali, Bilad Bani Bu Ali","name:ar1":"بلاد بني بو علي"},"display_name":"بلاد بني بو علي, محافظة جنوب الشرقية, عمان","address":{"town":"بلاد بني بو علي","state":"محافظة جنوب الشرقية","ISO3166-2-lvl4":"OM-SJ","country":"عمان","country_code":"om"},"osm_type":"node","osm_id":1721771743,"type":"town","location":[59.3321216,22.0062375],"bbox":[59.2921216,21.9662375,59.3721216,22.0462375]}
{"name":"بويدر","other_names":{"name:ar":"بويدر","name:en":"Buwaydir","name:es":"Buwaydir","name:fr":"Buwaydir"},"display_name":"بويدر, محافظة شمال الباطنة, عمان","address":{"town":"بويدر","state":"محافظة شمال الباطنة","ISO3166-2-lvl4":"OM-BS","country":"عمان","country_code":"om"},"osm_type":"node","osm_id":12204692748,"type":"town","location":[56.3395408,24.7016078],"bbox":[56.2995408,24.6616078,56.3795408,24.7416078]}
{"name":"بيت الفلج","other_names":{"name:ar":"بيت الفلج","name:de":"Bait al Falaj","name:en":"Bait al Falaj","name:es":"Bait al Falaj","name:fr":"Bait al Falaj","name:ml":"ബെയ്ത്ത് അൽ-ഫലജ്","alt_name":"بيت الفلج","int_name":"Bait el Falaj, Bait al Falaj, Bayt al Falaj, بيت الفلج, Bait el Falaj, Bait al Falaj, Bayt al Falaj, بيت الفلج","name:ar1":"بيت الفلج"},"display_name":"بيت الفلج, ولاية مطرح, محافظة مسقط, عمان","address":{"town":"بيت الفلج","city":"ولاية مطرح","state":"محافظة مسقط","ISO3166-2-lvl4":"OM-MA","country":"عمان","country_code":"om"},"osm_type":"node","osm_id":1719823671,"type":"town","location":[58.5412794,23.603482],"bbox":[58.5012794,23.563482,58.5812794,23.643482],"border":{"name":"بيت الفلج","other_names":{"name:ar":"بيت الفلج","name:de":"Bait al Falaj","name:en":"Bait al Falaj","name:es":"Bait al Falaj","name:fr":"Bait al Falaj","name:ml":"ബെയ്ത്ത് അൽ-ഫലജ്","alt_name":"Bait el Falaj, Bait al Falaj, Bayt al Falaj, بيت الفلج, Bait el Falaj, Bait al Falaj, Bayt al Falaj, بيت الفلج","name:ar1":"بيت الفلج","_place_alt_name":"بيت الفلج","int_name":"Bait el Falaj, Bait al Falaj, Bayt al Falaj, بيت الفلج, Bait el Falaj, Bait al Falaj, Bayt al Falaj, بيت الفلج"},"display_name":"بيت الفلج, ولاية مطرح, محافظة مسقط, عمان","address":{"town":"بيت الفلج","city":"ولاية مطرح","state":"محافظة مسقط","ISO3166-2-lvl4":"OM-MA","country":"عمان","country_code":"om"},"osm_type":"relation","osm_id":19169077,"type":"administrative","location":[58.5412794,23.603482],"bbox":[58.5366516,23.5886533,58.559508,23.6155451]}}
{"name":"ثمريت","other_names":{"name:ar":"ثمريت","name:de":"Thumrait","name:en":"Thumrait","name:fr":"Thumrait","name:ml":"തുംറൈത്","alt_name":"ثمريت","int_name":"Thumraīt, ثمريت"},"display_name":"ثمريت, محافظة ظفار, عمان","address":{"town":"ثمريت","state":"محافظة ظفار","ISO3166-2-lvl4":"OM-ZU","country":"عمان","country_code":"om"},"osm_type":"node","osm_id":1720597818,"type":"town","location":[54.0432197,17.612513],"bbox":[54.0032197,17.572513,54.0832197,17.652513]}
{"name":"حجر بني حميد","other_names":{"name:ar":"حجر بني حميد","name:en":"Hajar Bani Hamid","name:es":"Hajar Bani Hamid","name:fr":"Hajar Bani Hamid","alt_name":"Ḥayar Banī Ḥamīd;Ḥajar Banī Ḥamīd;Hajar Bani Humayd;Hajar Bani Humaid"},"display_name":"حجر بني حميد, ولاية مدحاء, محافظة مسندم, عمان","address":{"town":"حجر بني حميد","county":"ولاية مدحاء","state":"محافظة مسندم","ISO3166-2-lvl4":"OM-MU","country":"عمان","country_code":"om"},"osm_type":"node","osm_id":12361591686,"type":"town","location":[56.244064,25.2725164],"bbox":[56.204064,25.2325164,56.284064,25.3125164]}
{"name":"حفيت","other_names":{"name:ar":"حفيت","name:de":"Hafit","name:en":"Hafit","name:fr":"Hafit","name:ml":"ഹഫീത്ത്","name:uk":"Хафіт","alt_name":"حفيت","int_name":"Ḩafīt, Hafit","name:ar1":"حفيت"},"display_name":"حفيت, محافظة البريمي, عمان","address":{"town":"حفيت","state":"محافظة البريمي","ISO3166-2-lvl4":"OM-BU","country":"عمان","country_code":"om"},"osm_type":"node","osm_id":1719551118,"type":"town","location":[55.8435834,23.9839603],"bbox":[55.8035834,23.9439603,55.8835834,24.0239603]}
{"name":"حفيت","other_names":{"name:ar":"حفيت","name:de":"Hafit","name:en":"Hafit","name:fr":"Hafit","name:ml":"ഹഫീത്ത്","name:uk":"Хафіт","alt_name":"حفيت","int_name":"Ḩafīt, Hafit","name:ar1":"حفيت"},"display_name":"حفيت, محافظة شمال الباطنة, عمان","address":{"town":"حفيت","state":"محافظة شمال الباطنة","ISO3166-2-lvl4":"OM-BS","country":"عمان","country_code":"om"},"osm_type":"node","osm_id":1720860685,"type":"town","location":[56.9792719,24.0475968],"bbox":[56.9392719,24.0075968,57.0192719,24.0875968]}
{"name":"حلف","other_names":{"ref":"080500000","name:ar":"حلف","name:de":"Hilf","name:en":"Hilf","name:fr":"Hilf","name:uk":"Хільф","alt_name":"Ras-Hilf","int_name":"Ḩilf, Hilf","name:ar1":"حلف"},"display_name":"حلف, ولاية المصيرة, محافظة جنوب الشرقية, عمان","address":{"town":"حلف","county":"ولاية المصيرة","state":"محافظة جنوب الشرقية","ISO3166-2-lvl4":"OM-SJ","country":"عمان","country_code":"om"},"population":8467,"osm_type":"node","osm_id":226877607,"type":"town","location":[58.8729533,20.6600347],"bbox":[58.8329533,20.6200347,58.9129533,20.7000347]}
{"name":"حي العرفان","other_names":{"name:en":"Hayy al Irfan"},"display_name":"حي العرفان, ولاية السيب, محافظة مسقط, عمان","address":{"town":"حي العرفان","city":"ولاية السيب","state":"محافظة مسقط","ISO3166-2-lvl4":"OM-MA","country":"عمان","country_code":"om"},"osm_type":"node","osm_id":12854570039,"type":"town","location":[58.2989817,23.5747353],"bbox":[58.2589817,23.5347353,58.3389817,23.6147353],"border":{"name":"حي العرفان","other_names":{"name:ar":"حي العرفان","name:en":"Hayy al Irfan"},"display_name":"حي العرفان, ولاية السيب, محافظة مسقط, عمان","address":{"town":"حي العرفان","city":"ولاية السيب","state":"محافظة مسقط","ISO3166-2-lvl4":"OM-MA","country":"عمان","country_code":"om"},"osm_type":"relation","osm_id":19166161,"type":"administrative","location":[58.2989817,23.5747353],"bbox":[58.2896912,23.552084,58.3389161,23.5830984]}}
{"name":"خضراوين","other_names":{"name:ar":"خضراوين","name:de":"Al Khadhrawain","name:en":"Al Khadhrawain","name:es":"Al Khadhrawain","name:fr":"Al Khadhrawain","name:ml":"ഖദ്രവെയ്ൻ","alt_name":"Al Khadhrawain, Al Khadrawayn, Al Khaḑrawayn, Khadhrawain, Khadrawayn, Khaḑrāwayn, Khidrawayn, Khiḍrāwayn, khdrawyn, خضراوين","int_name":"Al Khadhrawain, Al Khaḑrawayn, Khadhrawain, Khadrawayn, Al Khadhrawain, Al Khadrawayn, Khadhrawain, Khadrawayn","name:ar1":"خضراوين"},"display_name":"خضراوين, محافظة شمال الباطنة, عمان","address":{"town":"خضراوين","state":"محافظة شمال الباطنة","ISO3166-2-lvl4":"OM-BS","country":"عمان","country_code":"om"},"osm_type":"node","osm_id":1719453340,"type":"town","location":[56.4002789,24.8524728],"bbox":[56.3602789,24.8124728,56.4402789,24.8924728]}
{"name":"دارسيت","other_names":{"name:ar":"دارسيت","name:en":"Darsait","name:ml":"ദാർസൈറ്റ്"},"display_name":"دارسيت, ولاية مطرح, محافظة مسقط, عمان","address":{"town":"دارسيت","city":"ولاية مطرح","state":"محافظة مسقط","ISO3166-2-lvl4":"OM-MA","country":"عمان","country_code":"om"},"osm_type":"node","osm_id":7654896387,"type":"town","location":[58.539164,23.6171455],"bbox":[58.499164,23.5771455,58.579164,23.6571455],"border":{"name":"دارسيت","other_names":{"name:ar":"دارسيت","name:en":"Darsait","name:ml":"ദാർസൈറ്റ്"},"display_name":"دارسيت, ولاية مطرح, محافظة مسقط, عمان","address":{"town":"دارسيت","city":"ولاية مطرح","state":"محافظة مسقط","ISO3166-2-lvl4":"OM-MA","country":"عمان","country_code":"om"},"osm_type":"relation","osm_id":19169081,"type":"administrative","location":[58.539164,23.6171455],"bbox":[58.5311201,23.6113512,58.5527837,23.6354637]}}
{"name":"رأس الحد","other_names":{"name:ar":"رأس الحد","name:de":"Ras Al Hadd","name:en":"Ras Al Hadd","name:fr":"Ras Al Hadd","name:ml":"അൽ-ഹദ്ദ്","alt_name":"الحد","int_name":"Al Ḩadd, Al Hadd","name:ar1":"رأس الحد"},"display_name":"رأس الحد, محافظة جنوب الشرقية, عمان","address":{"town":"رأس الحد","state":"محافظة جنوب الشرقية","ISO3166-2-lvl4":"OM-SJ","country":"عمان","country_code":"om"},"osm_type":"node","osm_id":1720973437,"type":"town","location":[59.7943802,22.5093848],"bbox":[59.7543802,22.4693848,59.8343802,22.5493848]}
{"name":"روضة","other_names":{"ref":"090210350","name:ar":"روضة","name:de":"Rawdah","name:en":"Rawdah","name:fr":"Rawdah","alt_name":"روضة","int_name":"Rawḑah, Rawdah","name:ar1":"روضة"},"display_name":"روضة, محافظة الداخلية, عمان","address":{"town":"روضة","state":"محافظة الداخلية","ISO3166-2-lvl4":"OM-DA","country":"عمان","country_code":"om"},"population":5151,"osm_type":"node","osm_id":1716932503,"type":"town","location":[58.2247407,22.8789127],"bbox":[58.1847407,22.8389127,58.2647407,22.9189127]}
{"name":"روي","other_names":{"name:ar":"روي","name:de":"Ruwi","name:en":"Ruwi","name:fr":"Ruwi","name:ml":"റൂവി","alt_name":"روي","int_name":"Ruwī, روي, Ruwi, روي"},"display_name":"روي, ولاية مطرح, محافظة مسقط, عمان","address":{"town":"روي","city":"ولاية مطرح","state":"محافظة مسقط","ISO3166-2-lvl4":"OM-MA","country":"عمان","country_code":"om"},"osm_type":"node","osm_id":1719816388,"type":"town","location":[58.54581,23.5886112],"bbox":[58.50581,23.5486112,58.58581,23.6286112],"border":{"name":"روي","other_names":{"name:ar":"روي","name:de":"Ruwi","name:en":"Ruwi","name:fr":"Ruwi","name:ml":"റൂവി","alt_name":"روي","int_name":"Ruwī, روي, Ruwi, روي"},"display_name":"روي, ولاية مطرح, محافظة مسقط, عمان","address":{"town":"روي","city":"ولاية مطرح","state":"محافظة مسقط","ISO3166-2-lvl4":"OM-MA","country":"عمان","country_code":"om"},"osm_type":"relation","osm_id":19169079,"type":"administrative","location":[58.54581,23.5886112],"bbox":[58.5240573,23.5818203,58.5573757,23.6127287]}}
{"name":"زغي","other_names":{"ref":"030210070","name:ar":"زغي","name:de":"Zaghi","name:en":"Zaghi","name:es":"Zaghi","name:fr":"Zaghi","alt_name:en":"Thaghi;Thaghī;Thagi, Zaghi;Zaghī;zghy"},"display_name":"زغي, محافظة مسندم, عمان","address":{"town":"زغي","state":"محافظة مسندم","ISO3166-2-lvl4":"OM-MU","country":"عمان","country_code":"om"},"population":399,"osm_type":"node","osm_id":2918761932,"type":"town","location":[56.2727326,25.7045362],"bbox":[56.2327326,25.6645362,56.3127326,25.7445362],"border":{"name":"Zaghi","other_names":{"name:ar":"Zaghi","name:en":"Zaghi","name:es":"Zaghi","name:fr":"Zaghi","alt_name":"Thaghi, Thaghī, Thagi, Zaghi, Zaghī, zghy, زغي"},"display_name":"Zaghi, محافظة مسندم, عمان","address":{"town":"Zaghi","state":"محافظة مسندم","ISO3166-2-lvl4":"OM-MU","country":"عمان","country_code":"om"},"osm_type":"way","osm_id":288374136,"type":"town","location":[56.27146321529622,25.7057271],"bbox":[56.267931,25.6982376,56.2753884,25.7132306]}}
{"name":"سداب","other_names":{"name:ar":"سداب","name:de":"Sidab","name:en":"Sidab","name:fr":"Sidab","name:ml":"സിദാബ്","alt_name":"سداب","int_name":"Sedab, Sidāb, سداب, Sedab, Sidab, سداب","name:ar1":"سداب"},"display_name":"سداب, ولاية مسقط, محافظة مسقط, عمان","address":{"town":"سداب","province":"ولاية مسقط","state":"محافظة مسقط","ISO3166-2-lvl4":"OM-MA","country":"عمان","country_code":"om"},"osm_type":"node","osm_id":1719830897,"type":"town","location":[58.597595,23.5955057],"bbox":[58.557595,23.5555057,58.637595,23.6355057],"border":{"name":"سداب","other_names":{"name:ar":"سداب","name:de":"Sidab","name:en":"Sidab","name:fr":"Sidab","name:ml":"സിദാബ്","alt_name":"سداب","int_name":"Sedab, Sidāb, سداب, Sedab, Sidab, سداب","name:ar1":"سداب"},"display_name":"سداب, ولاية مسقط, محافظة مسقط, عمان","address":{"town":"سداب","province":"ولاية مسقط","state":"محافظة مسقط","ISO3166-2-lvl4":"OM-MA","country":"عمان","country_code":"om"},"osm_type":"relation","osm_id":19169153,"type":"administrative","location":[58.597595,23.5955057],"bbox":[58.5784508,23.5849113,58.6054508,23.6107553]}}
{"name":"سمد الشأن","other_names":{"ref":"090210261","name:ar":"سمد الشأن","name:de":"Samad ash Shan","name:en":"Samad ash Shan","name:fr":"Samad ash Shan","name:ml":"അസ്സമദ്","alt_name":"سمد الشأن","int_name":"As Samad, Samad Town, Şamad, As Samad, Samad Town, Samad","name:ar1":"سمد الشأن"},"display_name":"سمد الشأن, محافظة الداخلية, عمان","address":{"town":"سمد الشأن","state":"محافظة الداخلية","ISO3166-2-lvl4":"OM-DA","country":"عمان","country_code":"om"},"population":10722,"osm_type":"node","osm_id":1716921291,"type":"town","location":[58.1602408,22.8209476],"bbox":[58.1202408,22.7809476,58.2002408,22.8609476]}
{"name":"سوق السيب","other_names":{"name:ar":"سوق السيب","name:de":"Souq Al Seeb","name:en":"Souq Al Seeb","name:fr":"Souq Al Seeb","int_name":"Souq Al Seeb"},"display_name":"سوق السيب, السيب الجديدة, ولاية السيب, محافظة مسقط, عمان","address":{"town":"سوق السيب","city":"ولاية السيب","state":"محافظة مسقط","ISO3166-2-lvl4":"OM-MA","country":"عمان","country_code":"om"},"osm_type":"node","osm_id":469087721,"type":"town","location":[58.1830276,23.6838008],"bbox":[58.1430276,23.6438008,58.2230276,23.7238008],"border":{"name":"السيب الجديدة","other_names":{"name:ar":"السيب الجديدة","name:en":"al Seeb al Jadidah","name:de":"Souq Al Seeb","name:fr":"Souq Al Seeb","int_name":"Souq Al Seeb","alt":"سوق السيب","alt:ar":"سوق السيب","alt:en":"Souq Al Seeb"},"display_name":"السيب الجديدة, ولاية السيب, محافظة مسقط, 310, عمان","address":{"town":"السيب الجديدة","city":"ولاية السيب","state":"محافظة مسقط","ISO3166-2-lvl4":"OM-MA","postcode":"310","country":"عمان","country_code":"om"},"osm_type":"relation","osm_id":19166238,"type":"administrative","location":[58.1830276,23.6838008],"bbox":[58.1606159,23.6547592,58.2073439,23.6929262]}}
{"name":"سيما","other_names":{"ref":"030120163","name:ar":"سيما","name:en":"Sima","alt_name:en":"Sayma"},"display_name":"سيما, محافظة مسندم, عمان","address":{"town":"سيما","state":"محافظة مسندم","ISO3166-2-lvl4":"OM-MU","country":"عمان","country_code":"om"},"population":392,"osm_type":"node","osm_id":12850050632,"type":"town","location":[56.314073,26.0686208],"bbox":[56.274073,26.0286208,56.354073,26.1086208]}
{"name":"شار الدّار","other_names":{"name:ar":"شار الدّار","name:en":"Shār ad Dār","name:es":"Shār ad Dār","name:fr":"Shār ad Dār","name:ml":"ഷാർ അദ്ദാർ"},"display_name":"شار الدّار, ولاية مدحاء, محافظة مسندم, عمان","address":{"town":"شار الدّار","county":"ولاية مدحاء","state":"محافظة مسندم","ISO3166-2-lvl4":"OM-MU","country":"عمان","country_code":"om"},"osm_type":"node","osm_id":12296072277,"type":"town","location":[56.3293697,25.2927868],"bbox":[56.2893697,25.2527868,56.3693697,25.3327868]}
{"name":"شعاب السّحار","other_names":{"name:ar":"شعاب السّحار","name:en":"Shi`ab as Sahar","name:es":"Shi`ab as Sahar","name:fr":"Shi`ab as Sahar","name:ml":"ഷിയാബ് അസ്സഹാർ","alt_name":"Shi`ab as Sahar;Shi‘āb as Saḥār;Shi‘āb as Saḩār;شعاب السّحار"},"display_name":"شعاب السّحار, ولاية مدحاء, محافظة مسندم, عمان","address":{"town":"شعاب السّحار","county":"ولاية مدحاء","state":"محافظة مسندم","ISO3166-2-lvl4":"OM-MU","country":"عمان","country_code":"om"},"osm_type":"node","osm_id":12362003520,"type":"town","location":[56.3326754,25.2740764],"bbox":[56.2926754,25.2340764,56.3726754,25.3140764]}
{"name":"شليم","other_names":{"name:ar":"شليم","name:de":"Schalim","name:en":"Shaleem","name:es":"Shalim","name:fr":"Shalim","name:ml":"ഷലീം","name:ur":"شلیم","name:azb":"شلیم"},"display_name":"شليم, محافظة ظفار, عمان","address":{"town":"شليم","state":"محافظة ظفار","ISO3166-2-lvl4":"OM-ZU","country":"عمان","country_code":"om"},"osm_type":"node","osm_id":1719159083,"type":"town","location":[55.6490909,18.103077],"bbox":[55.6090909,18.063077,55.6890909,18.143077]}
{"name":"ضنك","other_names":{"name:ar":"ضنك","name:de":"Dhank","name:en":"Dhank","name:fr":"Dhank","name:ml":"ദങ്ക്","alt_name":"ضنك","int_name":"Dhank, Ḑanak, Ḑank, Dhank, Danak, Dank","name:ar1":"ضنك"},"display_name":"ضنك, محافظة الظاهرة, عمان","address":{"town":"ضنك","state":"محافظة الظاهرة","ISO3166-2-lvl4":"OM-ZA","country":"عمان","country_code":"om"},"osm_type":"node","osm_id":1721797468,"type":"town","location":[56.2509239,23.5530739],"bbox":[56.2109239,23.5130739,56.2909239,23.5930739]}
{"name":"طاقة","other_names":{"name:ar":"طاقة","name:de":"At Taqa","name:en":"Taqah","name:fr":"At Taqa","name:ml":"താഖ","alt_name":"طاقة","int_name":"At Tāqa, Taga, Taqa, Takah, Thaka, Ţāqah, At Taqa, Taga, Taqa, Takah, Thaka, Taqah","name:ar1":"طاقة"},"display_name":"طاقة, محافظة ظفار, عمان","address":{"town":"طاقة","state":"محافظة ظفار","ISO3166-2-lvl4":"OM-ZU","country":"عمان","country_code":"om"},"osm_type":"node","osm_id":1720530812,"type":"town","location":[54.3913553,17.0440079],"bbox":[54.3513553,17.0040079,54.4313553,17.0840079]}
{"name":"طوي بنت راشد","other_names":{"name:ar":"طوي بنت راشد","name:en":"Ţawī Bint Rāshid","name:es":"Ţawī Bint Rāshid","name:fr":"Ţawī Bint Rāshid","name:ml":"തവി ബിന്ത് റാഷിദ്","alt_name":"Ṭawī Bint Rāshid"},"display_name":"طوي بنت راشد, ولاية مدحاء, محافظة مسندم, عمان","address":{"town":"طوي بنت راشد","county":"ولاية مدحاء","state":"محافظة مسندم","ISO3166-2-lvl4":"OM-MU","country":"عمان","country_code":"om"},"osm_type":"node","osm_id":12296019261,"type":"town","location":[56.3160542,25.2678982],"bbox":[56.2760542,25.2278982,56.3560542,25.3078982]}
{"name":"ظهير سيح الظّاهر","other_names":{"name:ar":"ظهير سيح الظّاهر","name:en":"Z̧ahīr Sayḩ az̧ Z̧āhir","name:es":"Z̧ahīr Sayḩ az̧ Z̧āhir","name:fr":"Z̧ahīr Sayḩ az̧ Z̧āhir","alt_name":"Z̧ahīr Sayḩ az̧ Z̧āhir;Ẓahīr Sayḥ aẓ Ẓāhir"},"display_name":"ظهير سيح الظّاهر, محافظة شمال الباطنة, عمان","address":{"town":"ظهير سيح الظّاهر","state":"محافظة شمال الباطنة","ISO3166-2-lvl4":"OM-BS","country":"عمان","country_code":"om"},"osm_type":"node","osm_id":12204640307,"type":"town","location":[56.3199751,24.7125119],"bbox":[56.2799751,24.6725119,56.3599751,24.7525119]}
{"name":"عز","other_names":{"name:ar":"عز","name:en":"Izz"},"display_name":"عز, محافظة الداخلية, عمان","address":{"town":"عز","state":"محافظة الداخلية","ISO3166-2-lvl4":"OM-DA","country":"عمان","country_code":"om"},"osm_type":"node","osm_id":7015261090,"type":"town","location":[57.5638212,22.7192062],"bbox":[57.5238212,22.6792062,57.6038212,22.7592062]}
{"name":"عصي","other_names":{"name:ar":"عصي","name:en":"‘Aşayy","name:es":"‘Aşayy","name:fr":"‘Aşayy","alt_name":"‘Iṣay;Asayy"},"display_name":"عصي, محافظة شمال الباطنة, عمان","address":{"town":"عصي","state":"محافظة شمال الباطنة","ISO3166-2-lvl4":"OM-BS","country":"عمان","country_code":"om"},"osm_type":"node","osm_id":12204704064,"type":"town","location":[56.3419,24.696967],"bbox":[56.3019,24.656967,56.3819,24.736967]}
{"name":"غضفان","other_names":{"name:ar":"غضفان","name:de":"Ghadfan","name:en":"Ghadfan","name:fr":"Ghadfan","name:ml":"ഗദ്ഫാൻ","alt_name":"غضفان","int_name":"Ghaḑfān, Ghadfan","name:ar1":"غضفان"},"display_name":"غضفان, محافظة شمال الباطنة, عمان","address":{"town":"غضفان","state":"محافظة شمال الباطنة","ISO3166-2-lvl4":"OM-BS","country":"عمان","country_code":"om"},"osm_type":"node","osm_id":1719474165,"type":"town","location":[56.6031114,24.4704883],"bbox":[56.5631114,24.4304883,56.6431114,24.5104883]}
{"name":"غلا","other_names":{"name:ar":"غلا","name:de":"Ghala","name:en":"Ghala","name:fr":"Ghala","alt_name":"Ghallah, Ghalā, غلاء, Ghallah, Ghala, غلاء"},"display_name":"غلا, ولاية بوشر, محافظة مسقط, عمان","address":{"town":"غلا","city":"ولاية بوشر","state":"محافظة مسقط","ISO3166-2-lvl4":"OM-MA","country":"عمان","country_code":"om"},"osm_type":"node","osm_id":1721989424,"type":"town","location":[58.3824197,23.5322168],"bbox":[58.3424197,23.4922168,58.4224197,23.5722168],"border":{"name":"غلا","other_names":{"name:ar":"غلا","name:de":"Ghala","name:en":"Ghala","name:fr":"Ghala","alt_name":"Ghallah, Ghalā, غلاء, Ghallah, Ghala, غلاء"},"display_name":"غلا, ولاية بوشر, محافظة مسقط, عمان","address":{"town":"غلا","city":"ولاية بوشر","state":"محافظة مسقط","ISO3166-2-lvl4":"OM-MA","country":"عمان","country_code":"om"},"osm_type":"relation","osm_id":19170208,"type":"administrative","location":[58.3824197,23.5322168],"bbox":[58.3632159,23.5165384,58.3905007,23.5559929]}}
{"name":"غلّان الغزار","other_names":{"name:ar":"غلّان الغزار","name:en":"Ghallān al Ghizār","name:es":"Ghallān al Ghizār","name:fr":"Ghallān al Ghizār"},"display_name":"غلّان الغزار, ولاية مدحاء, محافظة مسندم, عمان","address":{"town":"غلّان الغزار","county":"ولاية مدحاء","state":"محافظة مسندم","ISO3166-2-lvl4":"OM-MU","country":"عمان","country_code":"om"},"osm_type":"node","osm_id":12296219764,"type":"town","location":[56.296446,25.2992025],"bbox":[56.256446,25.2592025,56.336446,25.3392025]}
{"name":"غمضاء","other_names":{"ref":"030310020","name:ar":"غمضاء","name:de":"Ghamḑā’","name:en":"Ghamḑā’","name:es":"Ghamḑā’","name:fr":"Ghamḑā’","alt_name":"Ghumda;Ghamḑā’;Ghamḍā’;Ghamḑah;Ghamtha;Ghumḑā;Ghumdha;Ghumla","int_name":"Ghamda;Ghamḑā’;Ghamḍā’;Ghamḑah;Ghamtha;Ghumḑā;Ghumdha;Ghumla","name:ar1":"غمضاء"},"display_name":"غمضاء, محافظة مسندم, عمان","address":{"town":"غمضاء","state":"محافظة مسندم","ISO3166-2-lvl4":"OM-MU","country":"عمان","country_code":"om"},"population":783,"osm_type":"node","osm_id":2488171804,"type":"town","location":[56.1262686,26.1130282],"bbox":[56.0862686,26.0730282,56.1662686,26.1530282]}
{"name":"فرق","other_names":{"name:ar":"فرق","name:ml":"ഫർഖ്","alt_name":"Farq","int_name":"Farq","old_name":"Farq"},"display_name":"فرق, محافظة الداخلية, 611, عمان","address":{"town":"فرق","state":"محافظة الداخلية","ISO3166-2-lvl4":"OM-DA","postcode":"611","country":"عمان","country_code":"om"},"osm_type":"node","osm_id":2463909722,"type":"town","location":[57.5302374,22.8830032],"bbox":[57.4902374,22.8430032,57.5702374,22.9230032]}
{"name":"فزح","other_names":{"name:ar":"فزح","name:de":"Fizh","name:en":"Fizh","name:es":"Fizh","name:fr":"Fizh","name:ml":"ഫസഹ്","alt_name":"Fizh, Fizḥ, Fizḩ, fzh, فزح"},"display_name":"فزح, محافظة شمال الباطنة, عمان","address":{"town":"فزح","state":"محافظة شمال الباطنة","ISO3166-2-lvl4":"OM-BS","country":"عمان","country_code":"om"},"osm_type":"node","osm_id":12157467274,"type":"town","location":[56.4460276,24.5089056],"bbox":[56.4060276,24.4689056,56.4860276,24.5489056]}
{"name":"فلج الشام","other_names":{"ref":"010430110","name:ar":"فلج الشام","name:de":"Falaj ash Sham","name:en":"Falaj ash Sham","name:fr":"Falaj ash Sham","alt_name":"فلج الشام","int_name":"Falaj ash Shām, Falaj ash Sham","name:ar1":"فلج الشام"},"display_name":"فلج الشام, ولاية بوشر, محافظة مسقط, عمان","address":{"town":"فلج الشام","city":"ولاية بوشر","state":"محافظة مسقط","ISO3166-2-lvl4":"OM-MA","country":"عمان","country_code":"om"},"population":4753,"osm_type":"node","osm_id":1721989411,"type":"town","location":[58.342304,23.5029655],"bbox":[58.302304,23.4629655,58.382304,23.5429655],"border":{"name":"فلج الشام","other_names":{"ref":"010430110","name:ar":"فلج الشام","name:de":"Falaj ash Sham","name:en":"Falaj ash Sham","name:fr":"Falaj ash Sham","alt_name":"فلج الشام","int_name":"Falaj ash Shām, Falaj ash Sham","name:ar1":"فلج الشام"},"display_name":"فلج الشام, ولاية بوشر, محافظة مسقط, عمان","address":{"town":"فلج الشام","city":"ولاية بوشر","state":"محافظة مسقط","ISO3166-2-lvl4":"OM-MA","country":"عمان","country_code":"om"},"population":4753,"osm_type":"relation","osm_id":19171990,"type":"administrative","location":[58.342304,23.5029655],"bbox":[58.3227521,23.4915285,58.3638832,23.5317221]}}
{"name":"فلج القبائل","other_names":{"name:ar":"فلج القبائل","name:de":"Falaj al Qabail","name:en":"Falaj al Qabail","name:fr":"Falaj al Qabail","name:ml":"ഫലജ് അൽ-ഖുബൈൽ","alt_name":"فلج القبائل","int_name":"Falaj al Qabāil, Falaj al Qabail","name:ar1":"فلج القبائل"},"display_name":"فلج القبائل, محافظة شمال الباطنة, عمان","address":{"town":"فلج القبائل","state":"محافظة شمال الباطنة","ISO3166-2-lvl4":"OM-BS","country":"عمان","country_code":"om"},"osm_type":"node","osm_id":1719474135,"type":"town","location":[56.6102575,24.429492],"bbox":[56.5702575,24.389492,56.6502575,24.469492]}
{"name":"فنجاء","other_names":{"name:ar":"فنجاء","name:en":"Fanja","name:ml":"ഫഞ്ജ","alt_name":"فنجا;فنجاء","alt_name:ar":"فنجا;فنجاء","alt_name:en":"Fanjah"},"display_name":"فنجاء, محافظة الداخلية, عمان","address":{"town":"فنجاء","state":"محافظة الداخلية","ISO3166-2-lvl4":"OM-DA","country":"عمان","country_code":"om"},"osm_type":"node","osm_id":1722027744,"type":"town","location":[58.1113887,23.4634702],"bbox":[58.0713887,23.4234702,58.1513887,23.5034702]}
{"name":"قدى","other_names":{"ref":"030140031","name:ar":"قدى","name:en":"Qada","name:es":"Qada","name:fr":"Qada","alt_name":"Qada, Qadah, Qadá, Qidah, qdy, قدى"},"display_name":"قدى, محافظة مسندم, 811, عمان","address":{"town":"قدى","state":"محافظة مسندم","ISO3166-2-lvl4":"OM-MU","postcode":"811","country":"عمان","country_code":"om"},"population":440,"osm_type":"node","osm_id":12797817808,"type":"town","location":[56.221633,26.1946071],"bbox":[56.181633,26.1546071,56.261633,26.2346071]}
{"name":"كحل","other_names":{"name:ar":"كحل","name:de":"Kahal","name:en":"Kahal","name:es":"Kahal","name:fr":"Kahal","alt_name":"Kahal, Kahil, Kaḥil;Kaḩal;khl;كحل"},"display_name":"كحل, محافظة البريمي, عمان","address":{"town":"كحل","state":"محافظة البريمي","ISO3166-2-lvl4":"OM-BU","country":"عمان","country_code":"om"},"osm_type":"node","osm_id":12157903638,"type":"town","location":[55.9089501,24.4515262],"bbox":[55.8689501,24.4115262,55.9489501,24.4915262]}
{"name":"كمزار","other_names":{"ref":"030110232","name:ar":"كمزار","name:de":"Kumzar","name:en":"Kumzar","name:es":"Kumzar","name:fr":"Kumzar","name:ml":"കുംസാർ","alt_name":"كمزار","int_name":"Kumzār, Kumzar","name:ar1":"كمزار"},"display_name":"كمزار, محافظة مسندم, عمان","address":{"town":"كمزار","state":"محافظة مسندم","ISO3166-2-lvl4":"OM-MU","country":"عمان","country_code":"om"},"population":911,"osm_type":"node","osm_id":1718015399,"type":"town","location":[56.4099384,26.3382757],"bbox":[56.3699384,26.2982757,56.4499384,26.3782757]}
{"name":"لزق","other_names":{"ref":"090210180","name:ar":"لزق","name:de":"Lizq","name:en":"Lizq","name:fr":"Lizq","alt_name":"لزق","int_name":"Lizq, Lizq","name:ar1":"لزق"},"display_name":"لزق, محافظة شمال الشرقية, عمان","address":{"town":"لزق","state":"محافظة شمال الشرقية","ISO3166-2-lvl4":"OM-SS","country":"عمان","country_code":"om"},"population":4189,"osm_type":"node","osm_id":1716931009,"type":"town","location":[58.1716448,22.7160156],"bbox":[58.1316448,22.6760156,58.2116448,22.7560156]}
{"name":"ليماء","other_names":{"ref":"030120331","name:ar":"ليماء","name:de":"Lima","name:en":"Lima","name:es":"Lima","name:fr":"Lima","alt_name":"ليمة","name:ar1":"ليمة","alt_name:en":"Al Ima, Al Līmah, Līmah, Līmā, Al Ima, Al Limah, Limah, Lima"},"display_name":"ليماء, محافظة مسندم, عمان","address":{"town":"ليماء","state":"محافظة مسندم","ISO3166-2-lvl4":"OM-MU","country":"عمان","country_code":"om"},"population":2238,"osm_type":"node","osm_id":1718102747,"type":"town","location":[56.4226837,25.9426327],"bbox":[56.3826837,25.9026327,56.4626837,25.9826327]}
{"name":"مجيس","other_names":{"name:ar":"مجيس","name:de":"Majis","name:en":"Majis","name:fr":"Majis","alt_name":"مجيس","int_name":"Majīs, Majis","name:ar1":"مجيس"},"display_name":"مجيس, محافظة شمال الباطنة, عمان","address":{"town":"مجيس","state":"محافظة شمال الباطنة","ISO3166-2-lvl4":"OM-BS","country":"عمان","country_code":"om"},"osm_type":"node","osm_id":1719474278,"type":"town","location":[56.6511158,24.457285],"bbox":[56.6111158,24.417285,56.6911158,24.497285]}
{"display_name":"محافظة شمال الباطنة, عمان","address":{"state":"محافظة شمال الباطنة","ISO3166-2-lvl4":"OM-BS","country":"عمان","country_code":"om"},"osm_type":"node","osm_id":11874918230,"type":"town","location":[56.4086688,24.4920448],"bbox":[56.3686688,24.4520448,56.4486688,24.5320448]}
{"name":"مدينة الحق","other_names":{"name:ar":"مدينة الحق","name:de":"Madinat al Haqq","name:en":"Madinat al Haqq"},"display_name":"مدينة الحق, محافظة ظفار, عمان","address":{"town":"مدينة الحق","state":"محافظة ظفار","ISO3166-2-lvl4":"OM-ZU","country":"عمان","country_code":"om"},"osm_type":"node","osm_id":11105922332,"type":"town","location":[54.3878378,17.1755197],"bbox":[54.3478378,17.1355197,54.4278378,17.2155197]}
{"name":"مدينة السلطان قابوس","other_names":{"name:ar":"مدينة السلطان قابوس","name:de":"Madinat as Sultan Qaboos","name:en":"Madinat as Sultan Qaboos","name:fr":"Madinat as Sultan Qaboos","name:ml":"മദീനത്ത് അസ്സുൽത്താൻ ഖാബൂസ്","alt_name":"مدينة السلطان قابوس","int_name":"Madinat as Sultan Qaboos, Madinat as Sulţān Qābūs, مدينة السلطان قابوس, Madinat as Sultan Qaboos, Madinat as Sultan Qabus, مدينة السلطان قابوس","name:ar1":"مدينة السلطان قابوس"},"display_name":"مدينة السلطان قابوس, ولاية بوشر, محافظة مسقط, عمان","address":{"town":"مدينة السلطان قابوس","city":"ولاية بوشر","state":"محافظة مسقط","ISO3166-2-lvl4":"OM-MA","country":"عمان","country_code":"om"},"osm_type":"node","osm_id":1719832243,"type":"town","location":[58.4556548,23.5990406],"bbox":[58.4156548,23.5590406,58.4956548,23.6390406],"border":{"name":"مدينة السلطان قابوس","other_names":{"name:ar":"مدينة السلطان قابوس","name:de":"Madinat as Sultan Qaboos","name:en":"Madinat as Sultan Qaboos","name:fr":"Madinat as Sultan Qaboos","name:ml":"മദീനത്ത് അസ്സുൽത്താൻ ഖാബൂസ്","alt_name":"مدينة السلطان قابوس","int_name":"Madinat as Sultan Qaboos, Madinat as Sulţān Qābūs, مدينة السلطان قابوس, Madinat as Sultan Qaboos, Madinat as Sultan Qabus, مدينة السلطان قابوس","name:ar1":"مدينة السلطان قابوس"},"display_name":"مدينة السلطان قابوس, ولاية بوشر, محافظة مسقط, 100, عمان","address":{"town":"مدينة السلطان قابوس","city":"ولاية بوشر","state":"محافظة مسقط","ISO3166-2-lvl4":"OM-MA","postcode":"100","country":"عمان","country_code":"om"},"osm_type":"relation","osm_id":19168129,"type":"administrative","location":[58.4556548,23.5990406],"bbox":[58.4434247,23.5892881,58.4705901,23.6106335]}}
{"name":"مدينة الطيب","other_names":{"name:ar":"مدينة الطيب","name:en":"Madinat Altyb","name:ml":"മദീനത്ത് അൽ-തയീബ്"},"display_name":"مدينة الطيب, محافظة شمال الباطنة, عمان","address":{"town":"مدينة الطيب","state":"محافظة شمال الباطنة","ISO3166-2-lvl4":"OM-BS","country":"عمان","country_code":"om"},"osm_type":"node","osm_id":10921449081,"type":"town","location":[56.517123,24.5506242],"bbox":[56.477123,24.5106242,56.557123,24.5906242]}
{"name":"مرباط","other_names":{"name:ar":"مرباط","name:de":"Mirbat","name:en":"Mirbat","name:es":"Mirbat","name:fr":"Mirbat","name:it":"Mirbat","name:ml":"മിർബാത്ത്","name:ru":"Мирбат","name:tr":"Marbat","alt_name":"مرباط","int_name":"Merbat, Mirbāţ, Murbāt, Marbāt, Merbat, Mirbat, Murbat, Marbat","name:ar1":"مربات"},"display_name":"مرباط, محافظة ظفار, عمان","address":{"town":"مرباط","state":"محافظة ظفار","ISO3166-2-lvl4":"OM-ZU","country":"عمان","country_code":"om"},"osm_type":"node","osm_id":1719166736,"type":"town","location":[54.7071011,16.9914958],"bbox":[54.6671011,16.9514958,54.7471011,17.0314958]}
{"name":"مرتفعات القرم","other_names":{"name:ar":"مرتفعات القرم","name:de":"Murtafa'at al Qurum","name:en":"Murtafa'at al Qurum","name:fr":"Murtafa'at al Qurum","alt_name:en":"Al Qurm Heights, Murtafiāt al Qurm, مرتفعات القرم, Al Qurm Heights, Murtafiat al Qurm"},"display_name":"مرتفعات القرم, ولاية بوشر, محافظة مسقط, عمان","address":{"town":"مرتفعات القرم","city":"ولاية بوشر","state":"محافظة مسقط","ISO3166-2-lvl4":"OM-MA","country":"عمان","country_code":"om"},"osm_type":"node","osm_id":1719832238,"type":"town","location":[58.4918052,23.6225763],"bbox":[58.4518052,23.5825763,58.5318052,23.6625763],"border":{"name":"مرتفعات القرم","other_names":{"name:ar":"مرتفعات القرم","name:de":"Murtafa'at al Qurum","name:en":"Murtafa'at al Qurum","name:fr":"Murtafa'at al Qurum","alt_name:en":"Al Qurm Heights, Murtafiāt al Qurm, مرتفعات القرم, Al Qurm Heights, Murtafiat al Qurm"},"display_name":"مرتفعات القرم, ولاية بوشر, محافظة مسقط, عمان","address":{"town":"مرتفعات القرم","city":"ولاية بوشر","state":"محافظة مسقط","ISO3166-2-lvl4":"OM-MA","country":"عمان","country_code":"om"},"osm_type":"relation","osm_id":19168877,"type":"administrative","location":[58.4918052,23.6225763],"bbox":[58.4674816,23.6116793,58.5068348,23.6445781]}}
{"name":"مرتفعات المطار","other_names":{"name:ar":"مرتفعات المطار","name:en":"Murtafaat al Matar","name:ml":"മുർതഫിയാത്ത് അൽ-മത്താർ","alt_name":"مرتفعات المطار","int_name":"Murtafiāt al Maţār, Murtafaat al Matar, مرتفعات المطار, Murtafiat al Matar, Murtafaat al Matar, مرتفعات المطار"},"display_name":"مرتفعات المطار, ولاية السيب, محافظة مسقط, عمان","address":{"town":"مرتفعات المطار","city":"ولاية السيب","state":"محافظة مسقط","ISO3166-2-lvl4":"OM-MA","country":"عمان","country_code":"om"},"osm_type":"node","osm_id":1721989515,"type":"town","location":[58.2528244,23.5816523],"bbox":[58.2128244,23.5416523,58.2928244,23.6216523],"border":{"name":"مرتفعات المطار","other_names":{"name:ar":"مرتفعات المطار","name:en":"Murtafaat al Matar","name:ml":"മുർതഫിയാത്ത് അൽ-മത്താർ","alt_name":"مرتفعات المطار","int_name":"Murtafiāt al Maţār, Murtafaat al Matar, مرتفعات المطار, Murtafiat al Matar, Murtafaat al Matar, مرتفعات المطار"},"display_name":"مرتفعات المطار, ولاية السيب, محافظة مسقط, عمان","address":{"town":"مرتفعات المطار","city":"ولاية السيب","state":"محافظة مسقط","ISO3166-2-lvl4":"OM-MA","country":"عمان","country_code":"om"},"osm_type":"relation","osm_id":19166160,"type":"administrative","location":[58.2528244,23.5816523],"bbox":[58.1894852,23.5414895,58.3326857,23.5929874]}}
{"name":"مشيحطان","other_names":{"name:ar":"مشيحطان","name:en":"Mishayḩiţān","name:es":"Mishayḩiţān","name:fr":"Mishayḩiţān","name:ml":"മിഷൈഹിത്താൻ","alt_name":"Mishayḥṭān"},"display_name":"مشيحطان, ولاية مدحاء, محافظة مسندم, عمان","address":{"town":"مشيحطان","county":"ولاية مدحاء","state":"محافظة مسندم","ISO3166-2-lvl4":"OM-MU","country":"عمان","country_code":"om"},"osm_type":"node","osm_id":12296172915,"type":"town","location":[56.3405451,25.2967829],"bbox":[56.3005451,25.2567829,56.3805451,25.3367829]}
{"name":"معمورة","other_names":{"name:ar":"معمورة","name:de":"Mamur","name:en":"Mamur","name:fr":"Mamur","name:ml":"മാമൂറ","alt_name":"معمورة","int_name":"Mamur, Mamūrah, Mamur, Mamurah","name:ar1":"معمورة"},"display_name":"معمورة, محافظة الداخلية, عمان","address":{"town":"معمورة","state":"محافظة الداخلية","ISO3166-2-lvl4":"OM-DA","country":"عمان","country_code":"om"},"osm_type":"node","osm_id":1718130564,"type":"town","location":[57.3112589,22.625787],"bbox":[57.2712589,22.585787,57.3512589,22.665787]}
{"name":"منح","other_names":{"name:ar":"منح","name:de":"Manah","name:en":"Manah","name:fr":"Manah","name:ml":"മനഹ്","alt_name":"منح","int_name":"Manaḩ, Manah","name:ar1":"منح"},"display_name":"منح, محافظة الداخلية, عمان","address":{"town":"منح","state":"محافظة الداخلية","ISO3166-2-lvl4":"OM-DA","country":"عمان","country_code":"om"},"osm_type":"node","osm_id":1716931449,"type":"town","location":[57.6096159,22.7903348],"bbox":[57.5696159,22.7503348,57.6496159,22.8303348]}
{"name":"ميتن","other_names":{"name:ar":"ميتن"},"display_name":"ميتن, محافظة ظفار, عمان","address":{"town":"ميتن","state":"محافظة ظفار","ISO3166-2-lvl4":"OM-ZU","country":"عمان","country_code":"om"},"osm_type":"node","osm_id":5652693154,"type":"town","location":[52.4477476,18.5876363],"bbox":[52.4077476,18.5476363,52.4877476,18.6276363]}
{"name":"نخل","other_names":{"name:ar":"نخل","name:de":"Nakhl","name:en":"Nakhal","name:es":"Nakhal","name:fr":"Nakhl","name:ml":"നഖ്ൽ","alt_name":"نخل","int_name":"Nakhl, Nakhl","name:ar1":"نخل"},"display_name":"نخل, محافظة جنوب الباطنة, عمان","address":{"town":"نخل","state":"محافظة جنوب الباطنة","ISO3166-2-lvl4":"OM-BJ","country":"عمان","country_code":"om"},"osm_type":"node","osm_id":1722018665,"type":"town","location":[57.8289398,23.395468],"bbox":[57.7889398,23.355468,57.8689398,23.435468]}
{"name":"هرويب","other_names":{"name:ar":"هرويب","name:en":"Hrwib","name:ml":"ഹർവീബ്"},"display_name":"هرويب, محافظة ظفار, عمان","address":{"town":"هرويب","state":"محافظة ظفار","ISO3166-2-lvl4":"OM-ZU","country":"عمان","country_code":"om"},"osm_type":"node","osm_id":5650670310,"type":"town","location":[52.9468423,17.0761655],"bbox":[52.9068423,17.0361655,52.9868423,17.1161655]}
{"name":"وادي المعاول","other_names":{"name:ar":"وادي المعاول","name:en":"Wadi Almaawil","name:ml":"വാദി അൽമാവിൽ"},"display_name":"وادي المعاول, محافظة جنوب الباطنة, عمان","address":{"town":"وادي المعاول","state":"محافظة جنوب الباطنة","ISO3166-2-lvl4":"OM-BJ","country":"عمان","country_code":"om"},"osm_type":"node","osm_id":3731686473,"type":"town","location":[57.8385165,23.4893978],"bbox":[57.7985165,23.4493978,57.8785165,23.5293978]}
{"name":"ولاية العوابي","other_names":{"name:ar":"العوابي","name:de":"Awabi","name:en":"Al Awabi","name:fr":"Awabi","name:ml":"അൽ-അവാബി","alt_name":"العوابي","int_name":"Awabi, Al Awābi, Awābī, Awbi, Al Awabi, Awabi","name:ar1":"العوابي"},"display_name":"ولاية العوابي, محافظة جنوب الباطنة, 317, عمان","address":{"town":"ولاية العوابي","state":"محافظة جنوب الباطنة","ISO3166-2-lvl4":"OM-BJ","postcode":"317","country":"عمان","country_code":"om"},"osm_type":"node","osm_id":1721860080,"type":"town","location":[57.53,23.31],"bbox":[57.49,23.27,57.57,23.35]}
{"name":"يتي","other_names":{"ref":"010120140","name:ar":"يتي","name:de":"Yiti","name:en":"Yiti","name:fr":"Yiti","name:ml":"യിത്തി","alt_name":"Yitī, يتي, Yiti, يتي","name:ar1":"يتي"},"display_name":"يتي, ولاية مسقط, محافظة مسقط, عمان","address":{"town":"يتي","province":"ولاية مسقط","state":"محافظة مسقط","ISO3166-2-lvl4":"OM-MA","country":"عمان","country_code":"om"},"population":2703,"osm_type":"node","osm_id":1719837275,"type":"town","location":[58.6599331,23.5091205],"bbox":[58.6199331,23.4691205,58.6999331,23.5491205],"border":{"name":"يتي","other_names":{"ref":"010120140","name:ar":"يتي","name:de":"Yiti","name:en":"Yiti","name:fr":"Yiti","name:ml":"യിത്തി","alt_name":"Yitī, يتي, Yiti, يتي","name:ar1":"يتي"},"display_name":"يتي, ولاية مسقط, محافظة مسقط, عمان","address":{"town":"يتي","province":"ولاية مسقط","state":"محافظة مسقط","ISO3166-2-lvl4":"OM-MA","country":"عمان","country_code":"om"},"population":2703,"osm_type":"relation","osm_id":19174225,"type":"administrative","location":[58.6599331,23.5091205],"bbox":[58.6040195,23.4926895,58.684321,23.5467735]}}
{"name":"ينقل","other_names":{"name:ar":"ينقل","name:de":"Yanqul","name:en":"Yanqul","name:fr":"Yanqul","name:ml":"യങ്കുൽ","name:uk":"Янкуль","alt_name":"ينقل","int_name":"Yanqul, Yanqul","name:ar1":"ينقل"},"display_name":"ينقل, محافظة الظاهرة, عمان","address":{"town":"ينقل","state":"محافظة الظاهرة","ISO3166-2-lvl4":"OM-ZA","country":"عمان","country_code":"om"},"osm_type":"node","osm_id":1720841591,"type":"town","location":[56.5486835,23.5905227],"bbox":[56.5086835,23.5505227,56.5886835,23.6305227]}
