{"name":"أدم","other_names":{"name:ar":"أدم","name:de":"Adam","name:en":"Adam","name:es":"Adam","name:fa":"ادم","name:fr":"Adam","name:ml":"അദം","name:ur":"ادم","name:azb":"ادم"},"display_name":"أدم, محافظة الداخلية, عمان","address":{"city":"أدم","state":"محافظة الداخلية","ISO3166-2-lvl4":"OM-DA","country":"عمان","country_code":"om"},"population":18515,"osm_type":"node","osm_id":1716912156,"type":"city","location":[57.5240243,22.3840219],"bbox":[57.3640243,22.2240219,57.6840243,22.5440219]}
{"name":"أسود","other_names":{"name:ar":"أسود","name:de":"Aswad","name:en":"Aswad","name:es":"Aswad","name:fr":"Aswad","name:ml":"അസ്വദ്"},"display_name":"أسود, محافظة شمال الباطنة, عمان","address":{"city":"أسود","state":"محافظة شمال الباطنة","ISO3166-2-lvl4":"OM-BS","country":"عمان","country_code":"om"},"osm_type":"node","osm_id":1719453479,"type":"city","location":[56.3241366,24.8700834],"bbox":[56.1641366,24.7100834,56.4841366,25.0300834]}
{"name":"إبراء","other_names":{"name:ar":"إبراء","name:cs":"Ibra","name:de":"Ibra","name:en":"Ibra","name:fr":"Ibra","name:ml":"ഇബ്ര","alt_name":"سفالة إبراء","int_name":"Ibrā, Bira, Sufālat Ibrā, Ibra, Bira, Sufalat Ibra","name:ar1":"إبراء"},"display_name":"إبراء, محافظة شمال الشرقية, عمان","address":{"city":"إبراء","state":"محافظة شمال الشرقية","ISO3166-2-lvl4":"OM-SS","country":"عمان","country_code":"om"},"population":34374,"osm_type":"node","osm_id":221243242,"type":"city","location":[58.5409926,22.7081773],"bbox":[58.3809926,22.5481773,58.7009926,22.8681773]}
{"name":"إزكي","other_names":{"name:ar":"إزكي","name:cs":"Izki","name:de":"Izki","name:en":"Izki","name:fr":"Izki","name:he":"איזקי","name:hi":"इज़्कि","name:ml":"ഇസ്കി","alt_name":"إزكي","int_name":"Azkī, Izkī, Ziki, Azki, Izki, Ziki","name:ar1":"أزكي","old_name":"جرنان"},"display_name":"إزكي, محافظة الداخلية, عمان","address":{"city":"إزكي","state":"محافظة الداخلية","ISO3166-2-lvl4":"OM-DA","country":"عمان","country_code":"om"},"osm_type":"node","osm_id":1721748850,"type":"city","location":[57.7570944,22.9372399],"bbox":[57.5970944,22.7772399,57.9170944,23.0972399]}
{"name":"البريمي","other_names":{"name:ar":"البريمي","name:de":"Al-Buraimi","name:en":"Al-Buraimi","name:es":"Al Buraimi","name:fa":"بریمی","name:fr":"Al Buraymi","name:he":"אל בוראימי","name:hi":"अल-बुरैमी","name:ml":"ബുറൈമി","name:zh":"布賴米"},"display_name":"البريمي, محافظة البريمي, عمان","address":{"city":"البريمي","state":"محافظة البريمي","ISO3166-2-lvl4":"OM-BU","country":"عمان","country_code":"om"},"osm_type":"node","osm_id":2351844499,"type":"city","location":[55.783763,24.25919],"bbox":[55.623763,24.09919,55.943763,24.41919]}
{"name":"الخابورة","other_names":{"name:ar":"الخابورة","name:en":"Al Khaburah","name:he":"אל חבורה","name:hi":"अल खाबुराह","name:ml":"അൽ-ഖാബുറ"},"display_name":"الخابورة, محافظة شمال الباطنة, عمان","address":{"city":"الخابورة","state":"محافظة شمال الباطنة","ISO3166-2-lvl4":"OM-BS","country":"عمان","country_code":"om"},"population":42119,"osm_type":"node","osm_id":2501618275,"type":"city","location":[57.0910976,23.9708646],"bbox":[56.9310976,23.8108646,57.2510976,24.1308646]}
{"name":"الدقم","other_names":{"name:ar":"الدقم","name:de":"Duqm","name:en":"Duqm","name:fr":"Duqm","name:hi":"दुख़म","name:ml":"ദുഖ്മ്","name:zh":"杜昆","int_name":"Duqm"},"display_name":"الدقم, محافظة الوسطى, عمان","address":{"city":"الدقم","state":"محافظة الوسطى","ISO3166-2-lvl4":"OM-WU","country":"عمان","country_code":"om"},"population":2675,"osm_type":"node","osm_id":226876247,"type":"city","location":[57.6340004,19.6230411],"bbox":[57.4740004,19.4630411,57.7940004,19.7830411]}
{"name":"الرستاق","other_names":{"name:ar":"الرستاق","name:cs":"Rustak","name:de":"Al-Rustaq","name:en":"Al-Rustaq","name:fr":"Al-Rustaq","name:he":"אל רוסטאק","name:hi":"अल-रुस्ताक","name:ml":"അൽ-റുസ്താഖ്","alt_name":"الرستاق","int_name":"Al-Rustaq","name:ar1":"الرستاق"},"display_name":"الرستاق, محافظة جنوب الباطنة, عمان","address":{"city":"الرستاق","state":"محافظة جنوب الباطنة","ISO3166-2-lvl4":"OM-BJ","country":"عمان","country_code":"om"},"population":55954,"osm_type":"node","osm_id":1721860073,"type":"oasis","location":[57.4264059,23.388616],"bbox":[57.4263559,23.388566,57.4264559,23.388666]}
{"name":"السنينة","other_names":{"name:ar":"السنينة","name:en":"As Sunaynah","name:es":"As Sunaynah","name:fr":"As Sunaynah","name:ml":"സുനൈന","alt_name":"As Sunaynah, Sunainah, Sunaynah, alsnynt, السنينة"},"display_name":"السنينة, محافظة البريمي, عمان","address":{"city":"السنينة","state":"محافظة البريمي","ISO3166-2-lvl4":"OM-BU","country":"عمان","country_code":"om"},"osm_type":"node","osm_id":11954429193,"type":"city","location":[55.9539865,23.6067616],"bbox":[55.7939865,23.4467616,56.1139865,23.7667616]}
{"name":"السويق","other_names":{"name:ar":"السويق","name:en":"As Suwaiq","name:fr":"As Suwaiq","name:he":"אל סובוויק","name:hi":"अल सुवैक","name:ml":"അസ്സുവൈഖ്","alt_name:en":"As Suwayq"},"display_name":"السويق, محافظة شمال الباطنة, 207, عمان","address":{"city":"السويق","state":"محافظة شمال الباطنة","ISO3166-2-lvl4":"OM-BS","postcode":"207","country":"عمان","country_code":"om"},"population":170000,"osm_type":"node","osm_id":1721005749,"type":"city","location":[57.4238094,23.8243906],"bbox":[57.2638094,23.6643906,57.5838094,23.9843906]}
{"name":"السيب","other_names":{"ref":"010500000","name:ar":"السيب","name:cs":"Síb","name:de":"Sib","name:en":"Seeb","name:et":"As-Sīb","name:fr":"Sib","name:hi":"अल-सीब","name:ko":"시브","name:ml":"സീബ്","name:ru":"Сиб","name:ckb":"سیب"},"display_name":"السيب, ولاية السيب, محافظة مسقط, عمان","address":{"city":"السيب","province":"ولاية السيب","state":"محافظة مسقط","ISO3166-2-lvl4":"OM-MA","country":"عمان","country_code":"om"},"population":568469,"osm_type":"node","osm_id":2939217892,"type":"city","location":[58.2058419,23.65478],"bbox":[58.0458419,23.49478,58.3658419,23.81478],"border":{"name":"ولاية السيب","other_names":{"ref":"0105","name:ar":"ولاية السيب","name:en":"Seeb Province","_place_ref":"010500000","name:cs":"Síb","name:de":"Sib","name:et":"As-Sīb","name:fr":"Sib","name:hi":"अल-सीब","name:ko":"시브","name:ml":"സീബ്","name:ru":"Сиб","name:ckb":"سیب","alt":"السيب","alt:ar":"السيب","alt:en":"Seeb"},"display_name":"ولاية السيب, محافظة مسقط, عمان","address":{"province":"ولاية السيب","state":"محافظة مسقط","ISO3166-2-lvl4":"OM-MA","country":"عمان","country_code":"om"},"population":574193,"osm_type":"relation","osm_id":19163878,"type":"administrative","location":[58.2058419,23.65478],"bbox":[58.0046032,23.4529318,58.3484852,23.7155672]}}
{"name":"العامرات","other_names":{"ref":"010300000","name:ar":"العامرات","name:de":"Al Amerat","name:en":"Al Amerat","name:fr":"Al Amerat","name:ml":"അൽ-ആമറാത്ത്","alt_name":"العامرات","int_name":"Al Amarat, Al Āmrāt, العامرات, Al Amarat, Al Āmrāt, العامرات"},"display_name":"العامرات, ولاية العامرات, محافظة مسقط, عمان","address":{"city":"العامرات","province":"ولاية العامرات","state":"محافظة مسقط","ISO3166-2-lvl4":"OM-MA","country":"عمان","country_code":"om"},"population":127107,"osm_type":"node","osm_id":1720817565,"type":"city","location":[58.5050572,23.5189312],"bbox":[58.3450572,23.3589312,58.6650572,23.6789312],"border":{"name":"ولاية العامرات","other_names":{"ref":"0103","name:ar":"ولاية العامرات","name:en":"al Amerat Province","_place_ref":"010300000","name:de":"Al Amerat","name:fr":"Al Amerat","name:ml":"അൽ-ആമറാത്ത്","alt_name":"العامرات","int_name":"Al Amarat, Al Āmrāt, العامرات, Al Amarat, Al Āmrāt, العامرات","alt":"العامرات","alt:ar":"العامرات","alt:en":"Al Amerat"},"display_name":"ولاية العامرات, محافظة مسقط, عمان","address":{"province":"ولاية العامرات","state":"محافظة مسقط","ISO3166-2-lvl4":"OM-MA","country":"عمان","country_code":"om"},"population":154354,"osm_type":"relation","osm_id":19164736,"type":"administrative","location":[58.5050572,23.5189312],"bbox":[58.3123397,23.1097211,58.7837216,23.5766235]}}
{"name":"الكامل و الوافي","other_names":{"ref":"080200000","name:ar":"الكامل و الوافي","name:en":"al Kamil wal Wafi"},"display_name":"الكامل و الوافي, محافظة جنوب الشرقية, عمان","address":{"city":"الكامل و الوافي","state":"محافظة جنوب الشرقية","ISO3166-2-lvl4":"OM-SJ","country":"عمان","country_code":"om"},"population":37991,"osm_type":"node","osm_id":12886760910,"type":"city","location":[59.2244209,22.180678],"bbox":[59.0644209,22.020678,59.3844209,22.340678]}
{"name":"المصنعة","other_names":{"name:ar":"المصنعة","name:en":"Al-Musannah","name:es":"Al Musanaah","name:fr":"Al Musanah","name:ml":"അൽ-മുസന്ന"},"display_name":"المصنعة, محافظة جنوب الباطنة, عمان","address":{"city":"المصنعة","state":"محافظة جنوب الباطنة","ISO3166-2-lvl4":"OM-BJ","country":"عمان","country_code":"om"},"population":6291,"osm_type":"node","osm_id":2502423418,"type":"city","location":[57.6453866,23.7395668],"bbox":[57.4853866,23.5795668,57.8053866,23.8995668]}
{"name":"المضيبي","other_names":{"name:ar":"المضيبي","name:de":"Al Mudhaibi","name:en":"Al Mudhaibi","name:fr":"Al Mudhaibi","name:ml":"അൽ-മുദൈബി","alt_name":"المضيبي","int_name":"Al Muḑaibī, Al Muḑaybī, Al Mudhaibi, Muḑaybī, Al Mudaibi, Al Mudaybi, Mudhaibi, Mudaybi","name:ar1":"المضيبي"},"display_name":"المضيبي, محافظة شمال الشرقية, عمان","address":{"city":"المضيبي","state":"محافظة شمال الشرقية","ISO3166-2-lvl4":"OM-SS","country":"عمان","country_code":"om"},"osm_type":"node","osm_id":1716920834,"type":"city","location":[58.12,22.57],"bbox":[57.96,22.41,58.28,22.73]}
{"name":"بخا","other_names":{"ref":"03030000","name:ar":"بخا","name:de":"Bukha","name:en":"Bukha","name:es":"Bukha","name:fr":"Bukha","name:ml":"ബുഖ","alt_name":"Bukhā;Bakha;Bakhah, Bukha;Bakha;Bakhah","int_name":"Bukhā;Bakha;Bakhah, Bukha;Bakha;Bakhah","alt_name:ar":"بخاء"},"display_name":"بخا, محافظة مسندم, عمان","address":{"city":"بخا","state":"محافظة مسندم","ISO3166-2-lvl4":"OM-MU","country":"عمان","country_code":"om"},"population":4547,"osm_type":"node","osm_id":1719440345,"type":"city","location":[56.1462282,26.1445957],"bbox":[55.9862282,25.9845957,56.3062282,26.3045957]}
{"name":"بدبد","other_names":{"name:ar":"بدبد","name:de":"Bidbid","name:en":"Bidbid","name:es":"Bidbid","name:fr":"Bidbid","name:ml":"ബിദ്ബിദ്","alt_name":"بدبد","int_name":"Bidbid, Bidbid","name:ar1":"بدبد"},"display_name":"بدبد, محافظة الداخلية, عمان","address":{"city":"بدبد","state":"محافظة الداخلية","ISO3166-2-lvl4":"OM-DA","country":"عمان","country_code":"om"},"osm_type":"node","osm_id":1722027642,"type":"city","location":[58.13,23.41],"bbox":[57.97,23.25,58.29,23.57]}
{"name":"بدية","other_names":{"name:ar":"بدية","name:de":"Bidiyah","name:en":"Bidiyah","name:es":"Bidiyah","name:fr":"Bidiyah","alt_name":"بدية","name:ar1":"بدية"},"display_name":"بدية, محافظة شمال الشرقية, 421, عمان","address":{"city":"بدية","state":"محافظة شمال الشرقية","ISO3166-2-lvl4":"OM-SS","postcode":"421","country":"عمان","country_code":"om"},"osm_type":"node","osm_id":1716921972,"type":"city","location":[58.8002681,22.4500676],"bbox":[58.6402681,22.2900676,58.9602681,22.6100676]}
{"name":"بركاء","other_names":{"name:ar":"بركاء","name:de":"Barka","name:en":"Barka","name:es":"Barka","name:et":"Barqā’","name:fr":"Barka","name:he":"ברקה","name:hi":"बर्का","name:ko":"바르카","name:ml":"ബർക്ക"},"display_name":"بركاء, محافظة جنوب الباطنة, 320, عمان","address":{"city":"بركاء","state":"محافظة جنوب الباطنة","ISO3166-2-lvl4":"OM-BJ","postcode":"320","country":"عمان","country_code":"om"},"population":130000,"osm_type":"node","osm_id":2502423417,"type":"city","location":[57.8820597,23.6665754],"bbox":[57.7220597,23.5065754,58.0420597,23.8265754]}
{"name":"بهلاء","other_names":{"name:ar":"بهلاء","name:de":"Bahlā","name:en":"Bahlā","name:fa":"بهلاء","name:fr":"Bahla","name:ml":"ബഹ്ല","name:uk":"Багла","name:ur":"بہلا"},"display_name":"بهلاء, محافظة الداخلية, 617, عمان","address":{"city":"بهلاء","state":"محافظة الداخلية","ISO3166-2-lvl4":"OM-DA","postcode":"617","country":"عمان","country_code":"om"},"population":85000,"osm_type":"node","osm_id":1721768792,"type":"city","location":[57.2986957,22.970025],"bbox":[57.1386957,22.810025,57.4586957,23.130025]}
{"name":"بوشر","other_names":{"ref":"010400000","name:ar":"بوشر","name:de":"Bawshar","name:en":"Bawshar","name:es":"Baushar","name:fr":"Bawshar","name:ml":"ബൗഷർ","name:ur":"بوشر","name:azb":"بوشر","alt_name:en":"Boshar, Boushar"},"display_name":"بوشر, ولاية بوشر, محافظة مسقط, عمان","address":{"city":"بوشر","state":"محافظة مسقط","ISO3166-2-lvl4":"OM-MA","country":"عمان","country_code":"om"},"population":421248,"osm_type":"node","osm_id":1721968606,"type":"city","location":[58.4072717,23.5694283],"bbox":[58.2472717,23.4094283,58.5672717,23.7294283],"border":[{"name":"ولاية بوشر","other_names":{"ref":"0104","name:ar":"ولاية بوشر","name:en":"Bawshar Province","_place_ref":"010400000","alt_name:en":"Boshar Province, Boushar Province","name:de":"Bawshar","name:es":"Baushar","name:fr":"Bawshar","name:ml":"ബൗഷർ","name:ur":"بوشر","name:azb":"بوشر","_place_alt_name:en":"Boshar, Boushar","alt":"بوشر","alt:ar":"بوشر","alt:en":"Bawshar"},"display_name":"ولاية بوشر, محافظة مسقط, عمان","address":{"province":"ولاية بوشر","state":"محافظة مسقط","ISO3166-2-lvl4":"OM-MA","country":"عمان","country_code":"om"},"population":440764,"osm_type":"relation","osm_id":19164013,"type":"administrative","location":[58.4072717,23.5694283],"bbox":[58.204236,23.3963787,58.5364352,23.6455135]},{"name":"بوشر","other_names":{"ref":"010400000","name:ar":"بوشر","name:de":"Bawshar","name:en":"Bawshar","name:es":"Baushar","name:fr":"Bawshar","name:ml":"ബൗഷർ","name:ur":"بوشر","name:azb":"بوشر","alt_name:en":"Boshar, Boushar"},"display_name":"بوشر, ولاية بوشر, محافظة مسقط, 101, عمان","address":{"city":"بوشر","state":"محافظة مسقط","ISO3166-2-lvl4":"OM-MA","postcode":"101","country":"عمان","country_code":"om"},"population":187876,"osm_type":"relation","osm_id":19168100,"type":"administrative","location":[58.4072717,23.5694283],"bbox":[58.3764231,23.5259036,58.4324705,23.5771151]}]}
{"name":"جعلان بني بو حسن","other_names":{"ref":"080300000","name:ar":"جعلان بني بو حسن","name:en":"Ja'alan Bani Bu Hasan","name:ml":"ജഅലൻ ബനി ബു ഹസ്സൻ","alt_name":"بلاد بني بو حسن"},"display_name":"جعلان بني بو حسن, محافظة جنوب الشرقية, عمان","address":{"city":"جعلان بني بو حسن","state":"محافظة جنوب الشرقية","ISO3166-2-lvl4":"OM-SJ","country":"عمان","country_code":"om"},"population":43360,"osm_type":"node","osm_id":1716922099,"type":"city","location":[59.2926795,22.0892855],"bbox":[59.1326795,21.9292855,59.4526795,22.2492855]}
{"name":"جعلان بني بو علي","other_names":{"ref":"080400000","name:ar":"جعلان بني بو علي","name:en":"Ja'alan Bani Bu Ali","name:ml":"ജഅലൻ ബനി ബു അലി"},"display_name":"جعلان بني بو علي, محافظة جنوب الشرقية, عمان","address":{"city":"جعلان بني بو علي","state":"محافظة جنوب الشرقية","ISO3166-2-lvl4":"OM-SJ","country":"عمان","country_code":"om"},"population":80988,"osm_type":"node","osm_id":1716922081,"type":"city","location":[59.3409271,22.025547],"bbox":[59.1809271,21.865547,59.5009271,22.185547]}
{"name":"خصب","other_names":{"ref":"030100000","name:ar":"خصب","name:cs":"Chasab","name:de":"Khasab","name:en":"Khasab","name:es":"Khasab","name:fa":"خصب","name:fr":"Khasab","name:hi":"खासाब","name:hr":"Hasab","name:ml":"ഖസബ്","name:ru":"Хасаб","name:uk":"Хасаб","alt_name":"Al Khasab;Al Khasal;Al Khaşab;Al-Khasab"},"display_name":"خصب, محافظة مسندم, 811, عمان","address":{"city":"خصب","state":"محافظة مسندم","ISO3166-2-lvl4":"OM-MU","postcode":"811","country":"عمان","country_code":"om"},"population":33657,"osm_type":"node","osm_id":1718116417,"type":"city","location":[56.2469789,26.1841297],"bbox":[56.0869789,26.0241297,56.4069789,26.3441297]}
{"name":"دبا","other_names":{"ref":"030200000","name:ar":"دبا","name:de":"Dibba","name:en":"Dibba","name:es":"Dibba","name:fr":"Dibba","name:ml":"ദിബ്ബ അൽ-ബയാ","alt_name":"دبا البيعة, دبا عمان","alt_name:en":"Dibbā Al Bī'ah, Dibā Al Bī'ah, Dibba Oman, Dibba"},"display_name":"دبا, محافظة مسندم, عمان","address":{"city":"دبا","state":"محافظة مسندم","ISO3166-2-lvl4":"OM-MU","country":"عمان","country_code":"om"},"population":10714,"osm_type":"node","osm_id":2892004608,"type":"city","location":[56.2562342,25.6490341],"bbox":[56.0962342,25.4890341,56.4162342,25.8090341]}
{"name":"سمائل","other_names":{"name:ar":"سمائل","name:de":"Sumail","name:en":"Samail","name:fr":"Sumail","name:ml":"സുമൈൽ","name:ru":"Сумаил","alt_name":"سمائل","int_name":"Sumāil, Samāil, Samāil, Sumayel, Sumayil, Sumail, Samail, Samail, Sumayel, Sumayil","name:ar1":"سمائل"},"display_name":"سمائل, محافظة الداخلية, عمان","address":{"city":"سمائل","state":"محافظة الداخلية","ISO3166-2-lvl4":"OM-DA","country":"عمان","country_code":"om"},"osm_type":"node","osm_id":1722008726,"type":"city","location":[57.9980674,23.3065001],"bbox":[57.8380674,23.1465001,58.1580674,23.4665001]}
{"name":"سناو","other_names":{"name:ar":"سناو","name:de":"Sinaw","name:en":"Sinaw","name:fr":"Sinaw","name:ml":"സിനാവ്","alt_name":"سناو","int_name":"Sināw, Sinaw","name:ar1":"سناو"},"display_name":"سناو, محافظة شمال الشرقية, عمان","address":{"city":"سناو","state":"محافظة شمال الشرقية","ISO3166-2-lvl4":"OM-SS","country":"عمان","country_code":"om"},"osm_type":"node","osm_id":1716912801,"type":"city","location":[58.0300082,22.5004139],"bbox":[57.8700082,22.3404139,58.1900082,22.6604139]}
{"name":"شناص","other_names":{"name:ar":"شناص","name:de":"Shinas","name:en":"Shinas","name:es":"Shinas","name:fr":"Shinas","name:he":"שינאס","name:ml":"ഷിനാസ്","alt_name":"شناص","int_name":"Shināş, Shinas","name:ar1":"شناص"},"display_name":"شناص, محافظة شمال الباطنة, عمان","address":{"city":"شناص","state":"محافظة شمال الباطنة","ISO3166-2-lvl4":"OM-BS","country":"عمان","country_code":"om"},"population":43312,"osm_type":"node","osm_id":1719455319,"type":"city","location":[56.4598209,24.7441619],"bbox":[56.2998209,24.5841619,56.6198209,24.9041619],"border":{"name":"شناص","other_names":{"name:ar":"شناص","name:en":"Shinas","name:es":"Shinas","alt_name":"Al Shinas;Ash Shinas;Ash Shinās;Shinas;Shināş;Shināṣ;shnas;شناص","int_name":"Al Shinās","name:de":"Shinas","name:fr":"Shinas","name:he":"שינאס","name:ml":"ഷിനാസ്","_place_alt_name":"شناص","_place_int_name":"Shināş, Shinas","name:ar1":"شناص"},"display_name":"شناص, محافظة شمال الباطنة, عمان","address":{"city":"شناص","state":"محافظة شمال الباطنة","ISO3166-2-lvl4":"OM-BS","country":"عمان","country_code":"om"},"population":43312,"osm_type":"way","osm_id":335145237,"type":"city","location":[56.4598209,24.7441619],"bbox":[56.4426031,24.7286198,56.4720709,24.7540607]}}
{"name":"صحار","other_names":{"name:ar":"صحار","name:cs":"Suhár","name:de":"Suhar","name:en":"Sohar","name:fr":"Sohar","name:he":"סוהר","name:hi":"सोहार","name:ml":"സുഹാർ","name:ru":"Сухар","name:uk":"Cухар","name:zh":"蘇哈爾","alt_name":"الصحار","int_name":"As Sohār, Al Sohar, Sohār, Aş Şuḩār, Şuḩār, As Sohar, Al Sohar, Sohar, As Suhar, Suhar","name:ar1":"الصحار"},"display_name":"صحار, محافظة شمال الباطنة, عمان","address":{"city":"صحار","state":"محافظة شمال الباطنة","ISO3166-2-lvl4":"OM-BS","country":"عمان","country_code":"om"},"population":270747,"osm_type":"node","osm_id":1719474006,"type":"city","location":[56.7298385,24.3419881],"bbox":[56.5698385,24.1819881,56.8898385,24.5019881]}
{"name":"صحم","other_names":{"name:ar":"صحم","name:cs":"Saham","name:de":"Saham","name:en":"Saham","name:es":"Saham","name:fr":"Saham","name:he":"סאהאם","name:ml":"സഹം"},"display_name":"صحم, محافظة شمال الباطنة, 319, عمان","address":{"city":"صحم","state":"محافظة شمال الباطنة","ISO3166-2-lvl4":"OM-BS","postcode":"319","country":"عمان","country_code":"om"},"population":140000,"osm_type":"node","osm_id":2503692570,"type":"city","location":[56.8757899,24.142469],"bbox":[56.7157899,23.982469,57.0357899,24.302469]}
{"name":"صلالة","other_names":{"name:ar":"صلالة","name:cs":"Salála","name:de":"Salala","name:en":"Salalah","name:es":"Salala","name:et":"Şalālah","name:fa":"صلاله","name:fr":"Salalah","name:he":"סלאלה","name:hi":"सलालाह","name:ml":"സലാല","name:ru":"Салала","name:uk":"Салала","name:ur":"صلالہ","name:zh":"薩拉拉"},"display_name":"صلالة, محافظة ظفار, 999, عمان","address":{"city":"صلالة","state":"محافظة ظفار","ISO3166-2-lvl4":"OM-ZU","postcode":"999","country":"عمان","country_code":"om"},"population":376612,"osm_type":"node","osm_id":226878498,"type":"city","location":[54.1010923,17.0174945],"bbox":[53.9410923,16.8574945,54.2610923,17.1774945]}
{"name":"صور","other_names":{"name:ar":"صور","name:cs":"Súr","name:de":"Sur","name:en":"Sur","name:fr":"Sour","name:hi":"सूर","name:ml":"സൂർ","name:nl":"Sur","name:ru":"Сур","name:uk":"Сур","name:zh":"蘇爾","alt_name":"صور","int_name":"Şūr, Sur","name:ar1":"صور"},"display_name":"صور, محافظة جنوب الشرقية, 411, عمان","address":{"city":"صور","state":"محافظة جنوب الشرقية","ISO3166-2-lvl4":"OM-SJ","postcode":"411","country":"عمان","country_code":"om"},"population":96403,"osm_type":"node","osm_id":1716933902,"type":"city","location":[59.5297203,22.5694263],"bbox":[59.3697203,22.4094263,59.6897203,22.7294263]}
{"name":"عبري","other_names":{"name:ar":"عبري","name:de":"Ibri","name:en":"Ibri","name:et":"‘Ibrī","name:fa":"عبرى","name:fr":"ibri","name:he":"איברי","name:hi":"इब्री","name:ml":"ഇബ്രി","name:ru":"Ибри","name:uk":"Ібрі"},"display_name":"عبري, محافظة الظاهرة, عمان","address":{"city":"عبري","state":"محافظة الظاهرة","ISO3166-2-lvl4":"OM-ZA","country":"عمان","country_code":"om"},"population":70967,"osm_type":"node","osm_id":3072588583,"type":"city","location":[56.5153547,23.2161642],"bbox":[56.3553547,23.0561642,56.6753547,23.3761642]}
{"name":"قريات","other_names":{"ref":"010600000","name:ar":"قريات","name:de":"Qurayyat","name:en":"Qurayyat","name:ml":"ഖുറിയാത്ത്","alt_name":"قريات;قريات الكبيرة","alt_name:ar":"قريات;قريات الكبيرة","alt_name:en":"Qurayyāt;Quraiyāt;Qaryat al Kabīrah;Qurayyāt;Qurayāt;Quraiyat;Quryāt;Karyat al Kabira;Koriat;Kuryát;Al Qurayyat;Al Quraiyat;Qaryat al Kabirah;Qurayyat;Qurayat;Quraiyat;Quryat;Karyat al Kabira;Koriat;Kuryat;Quriyat"},"display_name":"قريات, ولاية قريات, محافظة مسقط, عمان","address":{"city":"قريات","state":"محافظة مسقط","ISO3166-2-lvl4":"OM-MA","country":"عمان","country_code":"om"},"population":36832,"osm_type":"node","osm_id":1720783769,"type":"city","location":[58.9186547,23.2650161],"bbox":[58.7586547,23.1050161,59.0786547,23.4250161],"border":{"name":"ولاية قريات","other_names":{"ref":"0106","name:ar":"ولاية قريات","name:en":"Qurayyat Province","_place_ref":"010600000","name:de":"Qurayyat","name:ml":"ഖുറിയാത്ത്","alt_name":"قريات;قريات الكبيرة","alt_name:ar":"قريات;قريات الكبيرة","alt_name:en":"Qurayyāt;Quraiyāt;Qaryat al Kabīrah;Qurayyāt;Qurayāt;Quraiyat;Quryāt;Karyat al Kabira;Koriat;Kuryát;Al Qurayyat;Al Quraiyat;Qaryat al Kabirah;Qurayyat;Qurayat;Quraiyat;Quryat;Karyat al Kabira;Koriat;Kuryat;Quriyat","alt":"قريات","alt:ar":"قريات","alt:en":"Qurayyat"},"display_name":"ولاية قريات, محافظة مسقط, عمان","address":{"city":"ولاية قريات","state":"محافظة مسقط","ISO3166-2-lvl4":"OM-MA","country":"عمان","country_code":"om"},"population":65203,"osm_type":"relation","osm_id":19164748,"type":"administrative","location":[58.9186547,23.2650161],"bbox":[58.6143779,22.8396582,59.238621,23.398787]}}
{"name":"لوى","other_names":{"name:ar":"لوى","name:de":"Liwa","name:en":"Liwa","name:ml":"ലിവ","name:uk":"Ліва"},"display_name":"لوى, محافظة شمال الباطنة, عمان","address":{"city":"لوى","state":"محافظة شمال الباطنة","ISO3166-2-lvl4":"OM-BS","country":"عمان","country_code":"om"},"osm_type":"node","osm_id":2503697560,"type":"city","location":[56.5610044,24.5185885],"bbox":[56.4010044,24.3585885,56.7210044,24.6785885]}
{"name":"محضة","other_names":{"name:ar":"محضة","name:de":"Mahdah","name:en":"Mahdah","name:es":"Mahdah","name:fr":"Mahdah","name:ml":"അൽ-മഹദ","alt_name":"Al Mahda;Al Mahdah;Al Mahdha;Al Maḩḑah;Mahadah;Mahadha;Mahadhah;Mahdah;Maḥaḍah;Maḩaḑah;Maḩḑah;mhdt;محضة"},"display_name":"محضة, محافظة البريمي, عمان","address":{"city":"محضة","state":"محافظة البريمي","ISO3166-2-lvl4":"OM-BU","country":"عمان","country_code":"om"},"osm_type":"node","osm_id":12157995375,"type":"city","location":[55.966944,24.4005003],"bbox":[55.806944,24.2405003,56.126944,24.5605003]}
{"name":"مدحاء","other_names":{"ref":"030400000","name:ar":"مدحاء","name:en":"Madha","name:es":"Madha","name:ml":"മദ്ഹ","alt_name":"Sha'biyyat Madḥah;Madhah"},"display_name":"مدحاء, ولاية مدحاء, محافظة مسندم, عمان","address":{"city":"مدحاء","county":"ولاية مدحاء","state":"محافظة مسندم","ISO3166-2-lvl4":"OM-MU","country":"عمان","country_code":"om"},"population":4306,"osm_type":"node","osm_id":578244925,"type":"city","location":[56.334479,25.2862774],"bbox":[56.174479,25.1262774,56.494479,25.4462774]}
{"name":"مسقط","other_names":{"ref":"010100000","name:am":"መስከት","name:ar":"مسقط","name:be":"Маскат","name:bg":"Маскат","name:bn":"মাস্কাট","name:bo":"མི་སི་ཁ་ཁྲི།","name:br":"Masqat","name:bs":"Muskat","name:ca":"Masqat","name:cs":"Maskat","name:cv":"Маскат","name:cy":"Muscat","name:da":"Muscat","name:de":"Maskat","name:el":"Μουσκάτ","name:en":"Muscat","name:eo":"Maskato","name:es":"Mascate","name:et":"Masqaţ","name:eu":"Maskat","name:fa":"مسقط","name:fi":"Masqat","name:fr":"Mascate","name:gd":"Muscat","name:gl":"Mascate","name:he":"מאסקט","name:hi":"मस्कट","name:hr":"Muskat","name:ht":"Mascat","name:hu":"Maszkat","name:hy":"Մասկատ","name:id":"Muskat","name:io":"Muscat","name:is":"Múskat","name:it":"Mascate","name:ja":"マスカット","name:ka":"მასკატი","name:kk":"Маскат","name:kl":"Masqat","name:kn":"ಮಸ್ಕಾತ್","name:ko":"무스카트","name:ku":"Mesqet","name:la":"Mascate","name:lt":"Maskatas","name:lv":"Maskata","name:mk":"Мускат","name:ml":"മസ്കത്ത്","name:mn":"Маскат","name:mr":"मस्कत","name:ms":"Muscat","name:nl":"Masqat","name:nn":"Muscat","name:no":"Muskat","name:oc":"Mascate","name:os":"Маскат","name:pl":"Maskat","name:pt":"Mascate","name:ro":"Muscat","name:ru":"Маскат","name:sk":"Maskat","name:sl":"Muškat","name:sr":"Маскат","name:sv":"Muskat","name:sw":"Muskat","name:ta":"மஸ்கத்","name:te":"మస్కట్","name:tg":"Масқат","name:th":"มัสกัต","name:tl":"Muscat","name:ug":"مۇسكات","name:uk":"Маскат","name:ur":"مسقط","name:vi":"Muscat","name:vo":"Mäskat","name:yo":"Muscat","name:zh":"马斯喀特","name:ace":"Muskat","name:ast":"Mascate","name:azb":"مسقط","name:bjn":"Masqat","name:ckb":"مەسقەت","name:frp":"Mascate","name:grc":"Μουσκάτη","name:hif":"Muscat","name:kab":"Masqaṭ","name:lmo":"Mascate","name:nan":"Muscat","name:pms":"Mascate","name:pnb":"مسقط","name:sco":"Muscat","name:war":"Muscat","name:simple":"Muscat","name:be-tarask":"Маскат"},"display_name":"مسقط, ولاية مسقط, محافظة مسقط, عمان","address":{"city":"مسقط","province":"ولاية مسقط","state":"محافظة مسقط","ISO3166-2-lvl4":"OM-MA","country":"عمان","country_code":"om"},"population":29923,"osm_type":"node","osm_id":226881400,"type":"city","location":[58.5938134,23.6123628],"bbox":[58.4338134,23.4523628,58.7538134,23.7723628],"border":{"name":"مسقط","other_names":{"ref":"010100000","name:ar":"مسقط","name:en":"Muscat","name:am":"መስከት","name:be":"Маскат","name:bg":"Маскат","name:bn":"মাস্কাট","name:bo":"མི་སི་ཁ་ཁྲི།","name:br":"Masqat","name:bs":"Muskat","name:ca":"Masqat","name:cs":"Maskat","name:cv":"Маскат","name:cy":"Muscat","name:da":"Muscat","name:de":"Maskat","name:el":"Μουσκάτ","name:eo":"Maskato","name:es":"Mascate","name:et":"Masqaţ","name:eu":"Maskat","name:fa":"مسقط","name:fi":"Masqat","name:fr":"Mascate","name:gd":"Muscat","name:gl":"Mascate","name:he":"מאסקט","name:hi":"मस्कट","name:hr":"Muskat","name:ht":"Mascat","name:hu":"Maszkat","name:hy":"Մասկատ","name:id":"Muskat","name:io":"Muscat","name:is":"Múskat","name:it":"Mascate","name:ja":"マスカット","name:ka":"მასკატი","name:kk":"Маскат","name:kl":"Masqat","name:kn":"ಮಸ್ಕಾತ್","name:ko":"무스카트","name:ku":"Mesqet","name:la":"Mascate","name:lt":"Maskatas","name:lv":"Maskata","name:mk":"Мускат","name:ml":"മസ്കത്ത്","name:mn":"Маскат","name:mr":"मस्कत","name:ms":"Muscat","name:nl":"Masqat","name:nn":"Muscat","name:no":"Muskat","name:oc":"Mascate","name:os":"Маскат","name:pl":"Maskat","name:pt":"Mascate","name:ro":"Muscat","name:ru":"Маскат","name:sk":"Maskat","name:sl":"Muškat","name:sr":"Маскат","name:sv":"Muskat","name:sw":"Muskat","name:ta":"மஸ்கத்","name:te":"మస్కట్","name:tg":"Масқат","name:th":"มัสกัต","name:tl":"Muscat","name:ug":"مۇسكات","name:uk":"Маскат","name:ur":"مسقط","name:vi":"Muscat","name:vo":"Mäskat","name:yo":"Muscat","name:zh":"马斯喀特","name:ace":"Muskat","name:ast":"Mascate","name:azb":"مسقط","name:bjn":"Masqat","name:ckb":"مەسقەت","name:frp":"Mascate","name:grc":"Μουσκάτη","name:hif":"Muscat","name:kab":"Masqaṭ","name:lmo":"Mascate","name:nan":"Muscat","name:pms":"Mascate","name:pnb":"مسقط","name:sco":"Muscat","name:war":"Muscat","name:simple":"Muscat","name:be-tarask":"Маскат"},"display_name":"مسقط, ولاية مسقط, محافظة مسقط, عمان","address":{"city":"مسقط","province":"ولاية مسقط","state":"محافظة مسقط","ISO3166-2-lvl4":"OM-MA","country":"عمان","country_code":"om"},"population":29923,"osm_type":"relation","osm_id":19168058,"type":"administrative","location":[58.5938134,23.6123628],"bbox":[58.5744131,23.6027436,58.6015258,23.626536]}}
{"name":"مطرح","other_names":{"ref":"010200000","name:ar":"مطرح","name:de":"Matrah","name:en":"Matrah","name:fr":"Matrah","name:hi":"मत्राह","name:ml":"മത്ര","name:tr":"Matrah","alt_name:en":"Al Matrah, Matruh, Mutrah, Muţraḩ, Muttrah, Al Matrah, Matruh, Mutrah, Mutrah, Muttrah"},"display_name":"مطرح, ولاية مطرح, محافظة مسقط, عمان","address":{"city":"مطرح","state":"محافظة مسقط","ISO3166-2-lvl4":"OM-MA","country":"عمان","country_code":"om"},"population":227623,"osm_type":"node","osm_id":1719830824,"type":"city","location":[58.5589057,23.6234298],"bbox":[58.3989057,23.4634298,58.7189057,23.7834298],"border":[{"name":"ولاية مطرح","other_names":{"ref":"0102","name:ar":"ولاية مطرح","name:en":"Matrah Province","_place_ref":"010200000","alt_name:en":"Mutrah Province","name:de":"Matrah","name:fr":"Matrah","name:hi":"मत्राह","name:ml":"മത്ര","name:tr":"Matrah","_place_alt_name:en":"Al Matrah, Matruh, Mutrah, Muţraḩ, Muttrah, Al Matrah, Matruh, Mutrah, Mutrah, Muttrah","alt":"مطرح","alt:ar":"مطرح","alt:en":"Matrah"},"display_name":"ولاية مطرح, محافظة مسقط, 117, عمان","address":{"province":"ولاية مطرح","state":"محافظة مسقط","ISO3166-2-lvl4":"OM-MA","postcode":"117","country":"عمان","country_code":"om"},"population":227623,"osm_type":"relation","osm_id":19164055,"type":"administrative","location":[58.5589057,23.6234298],"bbox":[58.5126257,23.5117375,58.5968256,23.6368299]},{"name":"مطرح","other_names":{"ref":"010200000","name:ar":"مطرح","name:de":"Matrah","name:en":"Matrah","name:fr":"Matrah","name:hi":"मत्राह","name:ml":"മത്ര","name:tr":"Matrah","alt_name:en":"Al Matrah, Matruh, Mutrah, Muţraḩ, Muttrah, Al Matrah, Matruh, Mutrah, Mutrah, Muttrah"},"display_name":"مطرح, ولاية مطرح, محافظة مسقط, عمان","address":{"city":"مطرح","state":"محافظة مسقط","ISO3166-2-lvl4":"OM-MA","country":"عمان","country_code":"om"},"population":223590,"osm_type":"relation","osm_id":19169124,"type":"administrative","location":[58.5589057,23.6234298],"bbox":[58.5428515,23.5975863,58.5785544,23.6368299]}]}
{"name":"نزوى","other_names":{"name:ar":"نزوى","name:de":"Nizwa","name:en":"Nizwa","name:es":"Nizwá","name:eu":"Nizwa","name:fa":"نزوی","name:fr":"Nizwa","name:he":"ניזווה","name:hi":"निज़वा","name:ks":"نزوی","name:ml":"നിസ്വ","name:ru":"Низва","name:uk":"Нізва","name:ur":"نزوی","name:zh":"尼茲瓦","name:azb":"نزوی","name:az-Arab":"نزوی"},"display_name":"نزوى, محافظة الداخلية, 611, عمان","address":{"city":"نزوى","state":"محافظة الداخلية","ISO3166-2-lvl4":"OM-DA","postcode":"611","country":"عمان","country_code":"om"},"population":77359,"osm_type":"node","osm_id":1721750572,"type":"city","location":[57.5311,22.9323884],"bbox":[57.3711,22.7723884,57.6911,23.0923884]}
{"name":"هيماء","other_names":{"name:ar":"هيماء","name:de":"Haima","name:en":"Haima","name:fr":"Haima","name:ml":"ഹൈമ","alt_name":"هيماء","int_name":"Haimā, Haima","name:ar1":"هيماء"},"display_name":"هيماء, محافظة الوسطى, عمان","address":{"city":"هيماء","state":"محافظة الوسطى","ISO3166-2-lvl4":"OM-WU","country":"عمان","country_code":"om"},"population":10232,"osm_type":"node","osm_id":1716926111,"type":"city","location":[56.2812639,19.9546947],"bbox":[56.1212639,19.7946947,56.4412639,20.1146947]}
