{"name":"Gobabis","other_names":{"name:ar":"غوبابوس","name:lt":"Gobabis","name:ru":"Гобабис"},"display_name":"Gobabis, Omaheke Region, Namibia","address":{"city":"Gobabis","state":"Omaheke Region","ISO3166-2-lvl4":"NA-OH","country":"Namibia","country_code":"na"},"population":19101,"osm_type":"node","osm_id":33364950,"type":"city","location":[18.9724666,-22.4495283],"bbox":[18.8124666,-22.6095283,19.1324666,-22.2895283],"border":[{"name":"Gobabis","other_names":{"name:ar":"غوبابوس","name:lt":"Gobabis","name:ru":"Гобабис"},"display_name":"Gobabis, Omaheke Region, 11001, Namibia","address":{"city":"Gobabis","state":"Omaheke Region","ISO3166-2-lvl4":"NA-OH","postcode":"11001","country":"Namibia","country_code":"na"},"population":19101,"osm_type":"way","osm_id":123435666,"type":"administrative","location":[18.9724666,-22.4495283],"bbox":[18.9533963,-22.4627893,19.0055588,-22.4193876]},{"name":"Gobabis","other_names":{"name:ar":"غوبابوس","name:lt":"Gobabis","name:ru":"Гобабис"},"display_name":"Gobabis, Omaheke Region, 11001, Namibia","address":{"city":"Gobabis","state":"Omaheke Region","ISO3166-2-lvl4":"NA-OH","postcode":"11001","country":"Namibia","country_code":"na"},"population":19101,"osm_type":"relation","osm_id":8650363,"type":"administrative","location":[18.9724666,-22.4495283],"bbox":[18.9533963,-22.4627893,19.0055588,-22.4193876]}]}
{"name":"Katima Mulilo","other_names":{"name:ar":"كاتيما موليلو","name:ko":"카티마물릴로","name:lt":"Katima Mulilas","name:ru":"Катима-Мулило","name:uk":"Катіма-Муліло","name:ur":"کاتیما مولیلو"},"display_name":"Katima Mulilo, Zambezi Region, 20001, Namibia","address":{"city":"Katima Mulilo","county":"Katima Mulilo","state":"Zambezi Region","ISO3166-2-lvl4":"NA-CA","postcode":"20001","country":"Namibia","country_code":"na"},"population":28362,"osm_type":"node","osm_id":331410669,"type":"city","location":[24.2793522,-17.5073143],"bbox":[24.1193522,-17.6673143,24.4393522,-17.3473143],"border":{"name":"Katima Mulilo","other_names":{"name:ar":"كاتيما موليلو","name:ur":"کاتیما مولیلو"},"display_name":"Katima Mulilo, Zambezi Region, Namibia","address":{"county":"Katima Mulilo","state":"Zambezi Region","ISO3166-2-lvl4":"NA-CA","country":"Namibia","country_code":"na"},"osm_type":"way","osm_id":123336911,"type":"administrative","location":[24.275896638027227,-17.509268849999998],"bbox":[24.2506266,-17.5336844,24.3046012,-17.4863661]}}
{"name":"Okahandja","other_names":{"name:ar":"أوكاهانديا","name:ru":"Окаханджа"},"display_name":"Okahandja, Otjozondjupa Region, Namibia","address":{"city":"Okahandja","state":"Otjozondjupa Region","ISO3166-2-lvl4":"NA-OD","country":"Namibia","country_code":"na"},"population":22639,"osm_type":"node","osm_id":243717016,"type":"city","location":[16.9128172,-21.979231],"bbox":[16.7528172,-22.139231,17.0728172,-21.819231],"border":{"name":"Okahandja","other_names":{"name:ar":"أوكاهانديا","name:ru":"Окаханджа"},"display_name":"Okahandja, Otjozondjupa Region, Namibia","address":{"city":"Okahandja","state":"Otjozondjupa Region","ISO3166-2-lvl4":"NA-OD","country":"Namibia","country_code":"na"},"population":22639,"osm_type":"relation","osm_id":6160499,"type":"administrative","location":[16.9128172,-21.979231],"bbox":[16.8794521,-22.0065415,16.923285,-21.9587345]}}
{"name":"Oshakati","other_names":{"name:ar":"أوشاكاتي","name:lt":"Ošakatis","name:ru":"Ошакати","name:ur":"اوشاکاتی"},"display_name":"Oshakati, Oshana Region, 15001, Namibia","address":{"city":"Oshakati","state":"Oshana Region","ISO3166-2-lvl4":"NA-ON","postcode":"15001","country":"Namibia","country_code":"na"},"population":43000,"osm_type":"node","osm_id":259490969,"type":"city","location":[15.6986,-17.7826518],"bbox":[15.5386,-17.9426518,15.8586,-17.6226518],"border":{"name":"Oshakati","other_names":{"name:ar":"أوشاكاتي","name:ur":"اوشاکاتی","name:lt":"Ošakatis","name:ru":"Ошакати"},"display_name":"Oshakati, Oshana Region, 15001, Namibia","address":{"city":"Oshakati","state":"Oshana Region","ISO3166-2-lvl4":"NA-ON","postcode":"15001","country":"Namibia","country_code":"na"},"population":43000,"osm_type":"way","osm_id":218897121,"type":"administrative","location":[15.6986,-17.7826518],"bbox":[15.6747949,-17.808657,15.7444526,-17.7465871]}}
{"name":"Otjiwarongo","other_names":{"name:lt":"Očivarongas","name:ru":"Очиваронго"},"display_name":"Otjiwarongo, Otjozondjupa Region, 12001, Namibia","address":{"city":"Otjiwarongo","state":"Otjozondjupa Region","ISO3166-2-lvl4":"NA-OD","postcode":"12001","country":"Namibia","country_code":"na"},"population":49022,"osm_type":"node","osm_id":245023717,"type":"city","location":[16.651205,-20.4609337],"bbox":[16.491205,-20.6209337,16.811205,-20.3009337],"border":[{"name":"Otjiwarongo","other_names":{"name:lt":"Očivarongas","name:ru":"Очиваронго"},"display_name":"Otjiwarongo, Otjozondjupa Region, 12001, Namibia","address":{"city":"Otjiwarongo","state":"Otjozondjupa Region","ISO3166-2-lvl4":"NA-OD","postcode":"12001","country":"Namibia","country_code":"na"},"population":49022,"osm_type":"way","osm_id":218896605,"type":"administrative","location":[16.651205,-20.4609337],"bbox":[16.6267779,-20.4862859,16.7064619,-20.443237]},{"name":"Otjiwarongo","other_names":{"name:lt":"Očivarongas","name:ru":"Очиваронго"},"display_name":"Otjiwarongo, Otjozondjupa Region, 12001, Namibia","address":{"city":"Otjiwarongo","state":"Otjozondjupa Region","ISO3166-2-lvl4":"NA-OD","postcode":"12001","country":"Namibia","country_code":"na"},"population":49022,"osm_type":"relation","osm_id":8650330,"type":"administrative","location":[16.651205,-20.4609337],"bbox":[16.6267779,-20.4862859,16.7064619,-20.443237]}]}
{"name":"Rundu","other_names":{"name:ar":"روندو","name:fa":"روندو","name:ko":"룬두","name:lt":"Rundu","name:ru":"Рунду","name:ur":"روندو"},"display_name":"Rundu, Kavango-East Region, Namibia","address":{"city":"Rundu","county":"Rundu","state":"Kavango-East Region","ISO3166-2-lvl4":"NA-KE","country":"Namibia","country_code":"na"},"population":63431,"osm_type":"node","osm_id":259609505,"type":"city","location":[19.7672535,-17.913716],"bbox":[19.6072535,-18.073716,19.9272535,-17.753716],"border":{"name":"Rundu","display_name":"Rundu, Kavango-East Region, Namibia","address":{"county":"Rundu","state":"Kavango-East Region","ISO3166-2-lvl4":"NA-KE","country":"Namibia","country_code":"na"},"osm_type":"way","osm_id":227735148,"type":"administrative","location":[19.755983643171792,-17.9180402],"bbox":[19.7062091,-17.9408254,19.8072867,-17.8965219]}}
{"name":"Swakopmund","other_names":{"name:ar":"سواكوبموند","name:az":"Svakopmund","name:be":"Свакапмунд","name:bg":"Свакопмунд","name:bn":"সোকপমুন্ড","name:de":"Swakopmund","name:he":"סווקופמונד","name:ja":"スワコプムント","name:ko":"스바코프문트","name:lt":"Svakopmundas","name:mk":"Свакопмунд","name:ru":"Свакопмунд","name:sq":"Svakopmund","name:uk":"Свакопмунд","name:ur":"سواکوپموند","name:zh":"斯瓦科普蒙德"},"display_name":"Swakopmund, Erongo Region, 13001, Namibia","address":{"city":"Swakopmund","state":"Erongo Region","ISO3166-2-lvl4":"NA-ER","postcode":"13001","country":"Namibia","country_code":"na"},"population":25000,"osm_type":"node","osm_id":33364835,"type":"city","location":[14.5313988,-22.6767841],"bbox":[14.3713988,-22.8367841,14.6913988,-22.5167841]}
{"name":"Walvis Bay","other_names":{"name:af":"Walvisbaai","name:ar":"ولفس بي","name:be":"Уолвіс-Бэй","name:bg":"Уолфиш Бей","name:bn":"ওয়ালভিস বে","name:de":"Walfischbucht","name:es":"Walvis Bay","name:fa":"والویس بی","name:he":"ואלוויס ביי","name:hi":"वालविस बे","name:hy":"Ուոլֆիշ Բեյ","name:ja":"ウォルビスベイ","name:ka":"უოლფიშ-ბეი","name:ko":"월비스베이","name:li":"Walvisbaai","name:lt":"Volvis Bėjus","name:ms":"Teluk Walvis","name:nl":"Walvisbaai","name:ru":"Уолфиш-Бей","name:sk":"Veľrybia zátoka","name:sl":"Zaliv kitov","name:sq":"Valvis Bej","name:sr":"Валвис Беј","name:th":"อ่าววัลฟิส","name:uk":"Волфіш-Бей","name:ur":"والوس بے","name:zh":"鲸湾港","name:bxr":"Уолфиш-Бей"},"display_name":"Walvis Bay, Erongo Region, 13013, Namibia","address":{"city":"Walvis Bay","state":"Erongo Region","ISO3166-2-lvl4":"NA-ER","postcode":"13013","country":"Namibia","country_code":"na"},"population":62096,"osm_type":"node","osm_id":33364834,"type":"city","location":[14.5071125,-22.9557607],"bbox":[14.3471125,-23.1157607,14.6671125,-22.7957607]}
{"name":"Windhoek","other_names":{"name:af":"Windhoek","name:am":"ዊንድሁክ","name:an":"Windhoek","name:ar":"ويندهوك","name:az":"Vindhuk","name:ba":"Виндхук","name:be":"Віндхук","name:bg":"Виндхук","name:bn":"উইন্ডহুক","name:bo":"ཝིན་ཌི་ཧོཡིཀ།","name:br":"Windhoek","name:bs":"Windhoek","name:ca":"Windhoek","name:ce":"Виндхук","name:cs":"Windhoek","name:cy":"Windhoek","name:da":"Windhoek","name:de":"Windhuk","name:el":"Βίντχουκ","name:en":"Windhoek","name:eo":"Vindhuko","name:es":"Windhoek","name:et":"Windhoek","name:eu":"Windhoek","name:fa":"ویندهوک","name:fi":"Windhoek","name:fo":"Windhoek","name:fr":"Windhoek","name:fy":"Wynhoeke","name:ga":"Windhoek","name:gd":"Windhoek","name:gl":"Windhoek","name:gn":"Vindúke","name:ha":"Windhoek","name:he":"וינדהוק","name:hi":"विंडहोक","name:hr":"Windhoek","name:ht":"Windoèk","name:hu":"Windhoek","name:hy":"Վինդհուկ","name:ia":"Windhoek","name:id":"Windhoek","name:ie":"Windhoek","name:io":"Windhoek","name:is":"Windhoek","name:it":"Windhoek","name:ja":"ウィントフック","name:jv":"Windhoek","name:ka":"ვინდჰუკი","name:kg":"Windhoek","name:kk":"Виндхук","name:ko":"빈트후크","name:ky":"Виндхук","name:la":"Windhoek","name:lb":"Windhoek","name:li":"Windhoek","name:ln":"Windhoek","name:lt":"Vindhukas","name:lv":"Vindhuka","name:mg":"Windhoek","name:mk":"Виндхук","name:ml":"വിൻഡ്ഹോക്ക്","name:mn":"Виндхук","name:mr":"विंडहोक","name:ms":"Windhoek","name:na":"Windhoek","name:nl":"Windhoek","name:nn":"Windhoek","name:no":"Windhoek","name:nv":"Nástłʼah Biiʼ Naayolí","name:oc":"Windhoek","name:os":"Виндхук","name:pa":"ਵਿੰਟਹੁਕ","name:pl":"Windhuk","name:ps":"ویندهوک","name:pt":"Vinduque","name:ro":"Windhoek","name:ru":"Виндхук","name:sc":"Windhoek","name:sd":"ونڊھوئڪ","name:se":"Windhoek","name:sh":"Windhoek","name:sk":"Windhoek","name:sl":"Windhoek","name:sn":"Windhoek","name:so":"Windhoek","name:sq":"Uindhuk","name:sr":"Виндхук","name:sv":"Windhoek","name:sw":"Windhoek","name:ta":"விந்தோக்","name:tg":"Виндхук","name:th":"วินด์ฮุก","name:tl":"Windhoek","name:tr":"Windhoek","name:uk":"Віндгук","name:ur":"ونڈہوک","name:uz":"Vindxuk","name:vi":"Windhoek","name:vo":"Windhoek","name:yi":"ווינטהוק","name:yo":"Windhoek","name:zh":"温得和克","name:zu":"Windhoek","name:ady":"Виндхук","name:arz":"ويندهوك","name:ast":"Windḥoek","name:avk":"Windhoek","name:azb":"ویندهوک","name:bxr":"Виндхук","name:cdo":"Windhoek","name:ceb":"Windhoek","name:ckb":"ویندھۆک","name:dsb":"Windhoek","name:frr":"Windhoek","name:hak":"Windhoek","name:hif":"Windhoek","name:kab":"Windhoek","name:kbd":"Виндхук","name:kbp":"Windɔkɩ","name:khi":"Ai-Gams","name:lfn":"Windhoek","name:lij":"Windhoek","name:lmo":"Windhoek","name:mrj":"Виндхук","name:nah":"Windhoek","name:nds":"Windhuk","name:nov":"Windhuk","name:olo":"Vindhuk","name:pap":"Windhoek","name:pdc":"Windhoek","name:pms":"Windhoek","name:pnb":"ونڈہوک","name:sco":"Windhoek","name:smn":"Windhoek","name:szl":"Windhuk","name:udm":"Виндхук","name:vec":"Windhoek","name:vep":"Vindhuk","name:vro":"Windhoek","name:war":"Windhoek","name:wuu":"溫得和克","name:xmf":"ვინდჰუკი","name:yue":"溫荷克","name:zea":"Wind'oek","name:simple":"Windhoek","name:be-tarask":"Ўіндгук","name:zh_min_nan":"Windhoek"},"display_name":"Windhoek, Khomas Region, Namibia","address":{"city":"Windhoek","state":"Khomas Region","ISO3166-2-lvl4":"NA-KH","country":"Namibia","country_code":"na"},"population":325858,"osm_type":"node","osm_id":33364833,"type":"city","location":[17.0772739,-22.5776104],"bbox":[16.9172739,-22.7376104,17.2372739,-22.4176104],"border":[{"name":"Windhoek","other_names":{"name:de":"Windhuk","name:eo":"Vindhuko","name:pt":"Vinduque","name:ru":"Виндхук","name:af":"Windhoek","name:am":"ዊንድሁክ","name:an":"Windhoek","name:ar":"ويندهوك","name:az":"Vindhuk","name:ba":"Виндхук","name:be":"Віндхук","name:bg":"Виндхук","name:bn":"উইন্ডহুক","name:bo":"ཝིན་ཌི་ཧོཡིཀ།","name:br":"Windhoek","name:bs":"Windhoek","name:ca":"Windhoek","name:ce":"Виндхук","name:cs":"Windhoek","name:cy":"Windhoek","name:da":"Windhoek","name:el":"Βίντχουκ","name:en":"Windhoek","name:es":"Windhoek","name:et":"Windhoek","name:eu":"Windhoek","name:fa":"ویندهوک","name:fi":"Windhoek","name:fo":"Windhoek","name:fr":"Windhoek","name:fy":"Wynhoeke","name:ga":"Windhoek","name:gd":"Windhoek","name:gl":"Windhoek","name:gn":"Vindúke","name:ha":"Windhoek","name:he":"וינדהוק","name:hi":"विंडहोक","name:hr":"Windhoek","name:ht":"Windoèk","name:hu":"Windhoek","name:hy":"Վինդհուկ","name:ia":"Windhoek","name:id":"Windhoek","name:ie":"Windhoek","name:io":"Windhoek","name:is":"Windhoek","name:it":"Windhoek","name:ja":"ウィントフック","name:jv":"Windhoek","name:ka":"ვინდჰუკი","name:kg":"Windhoek","name:kk":"Виндхук","name:ko":"빈트후크","name:ky":"Виндхук","name:la":"Windhoek","name:lb":"Windhoek","name:li":"Windhoek","name:ln":"Windhoek","name:lt":"Vindhukas","name:lv":"Vindhuka","name:mg":"Windhoek","name:mk":"Виндхук","name:ml":"വിൻഡ്ഹോക്ക്","name:mn":"Виндхук","name:mr":"विंडहोक","name:ms":"Windhoek","name:na":"Windhoek","name:nl":"Windhoek","name:nn":"Windhoek","name:no":"Windhoek","name:nv":"Nástłʼah Biiʼ Naayolí","name:oc":"Windhoek","name:os":"Виндхук","name:pa":"ਵਿੰਟਹੁਕ","name:pl":"Windhuk","name:ps":"ویندهوک","name:ro":"Windhoek","name:sc":"Windhoek","name:sd":"ونڊھوئڪ","name:se":"Windhoek","name:sh":"Windhoek","name:sk":"Windhoek","name:sl":"Windhoek","name:sn":"Windhoek","name:so":"Windhoek","name:sq":"Uindhuk","name:sr":"Виндхук","name:sv":"Windhoek","name:sw":"Windhoek","name:ta":"விந்தோக்","name:tg":"Виндхук","name:th":"วินด์ฮุก","name:tl":"Windhoek","name:tr":"Windhoek","name:uk":"Віндгук","name:ur":"ونڈہوک","name:uz":"Vindxuk","name:vi":"Windhoek","name:vo":"Windhoek","name:yi":"ווינטהוק","name:yo":"Windhoek","name:zh":"温得和克","name:zu":"Windhoek","name:ady":"Виндхук","name:arz":"ويندهوك","name:ast":"Windḥoek","name:avk":"Windhoek","name:azb":"ویندهوک","name:bxr":"Виндхук","name:cdo":"Windhoek","name:ceb":"Windhoek","name:ckb":"ویندھۆک","name:dsb":"Windhoek","name:frr":"Windhoek","name:hak":"Windhoek","name:hif":"Windhoek","name:kab":"Windhoek","name:kbd":"Виндхук","name:kbp":"Windɔkɩ","name:khi":"Ai-Gams","name:lfn":"Windhoek","name:lij":"Windhoek","name:lmo":"Windhoek","name:mrj":"Виндхук","name:nah":"Windhoek","name:nds":"Windhuk","name:nov":"Windhuk","name:olo":"Vindhuk","name:pap":"Windhoek","name:pdc":"Windhoek","name:pms":"Windhoek","name:pnb":"ونڈہوک","name:sco":"Windhoek","name:smn":"Windhoek","name:szl":"Windhuk","name:udm":"Виндхук","name:vec":"Windhoek","name:vep":"Vindhuk","name:vro":"Windhoek","name:war":"Windhoek","name:wuu":"溫得和克","name:xmf":"ვინდჰუკი","name:yue":"溫荷克","name:zea":"Wind'oek","name:simple":"Windhoek","name:be-tarask":"Ўіндгук","name:zh_min_nan":"Windhoek"},"display_name":"Windhoek, Khomas Region, Namibia","address":{"city":"Windhoek","state":"Khomas Region","ISO3166-2-lvl4":"NA-KH","country":"Namibia","country_code":"na"},"population":322500,"osm_type":"way","osm_id":29989621,"type":"administrative","location":[17.0772739,-22.5776104],"bbox":[16.9868681,-22.638657,17.1306205,-22.4285656]},{"name":"Windhoek","other_names":{"name:af":"Windhoek","name:am":"ዊንድሁክ","name:an":"Windhoek","name:ar":"ويندهوك","name:az":"Vindhuk","name:ba":"Виндхук","name:be":"Віндхук","name:bg":"Виндхук","name:bn":"উইন্ডহুক","name:bo":"ཝིན་ཌི་ཧོཡིཀ།","name:br":"Windhoek","name:bs":"Windhoek","name:ca":"Windhoek","name:ce":"Виндхук","name:cs":"Windhoek","name:cy":"Windhoek","name:da":"Windhoek","name:de":"Windhuk","name:el":"Βίντχουκ","name:en":"Windhoek","name:eo":"Vindhuko","name:es":"Windhoek","name:et":"Windhoek","name:eu":"Windhoek","name:fa":"ویندهوک","name:fi":"Windhoek","name:fo":"Windhoek","name:fr":"Windhoek","name:fy":"Wynhoeke","name:ga":"Windhoek","name:gd":"Windhoek","name:gl":"Windhoek","name:gn":"Vindúke","name:ha":"Windhoek","name:he":"וינדהוק","name:hi":"विंडहोक","name:hr":"Windhoek","name:ht":"Windoèk","name:hu":"Windhoek","name:hy":"Վինդհուկ","name:ia":"Windhoek","name:id":"Windhoek","name:ie":"Windhoek","name:io":"Windhoek","name:is":"Windhoek","name:it":"Windhoek","name:ja":"ウィントフック","name:jv":"Windhoek","name:ka":"ვინდჰუკი","name:kg":"Windhoek","name:kk":"Виндхук","name:ko":"빈트후크","name:ky":"Виндхук","name:la":"Windhoek","name:lb":"Windhoek","name:li":"Windhoek","name:ln":"Windhoek","name:lt":"Vindhukas","name:lv":"Vindhuka","name:mg":"Windhoek","name:mk":"Виндхук","name:ml":"വിൻഡ്ഹോക്ക്","name:mn":"Виндхук","name:mr":"विंडहोक","name:ms":"Windhoek","name:na":"Windhoek","name:nl":"Windhoek","name:nn":"Windhoek","name:no":"Windhoek","name:nv":"Nástłʼah Biiʼ Naayolí","name:oc":"Windhoek","name:os":"Виндхук","name:pa":"ਵਿੰਟਹੁਕ","name:pl":"Windhuk","name:ps":"ویندهوک","name:pt":"Vinduque","name:ro":"Windhoek","name:ru":"Виндхук","name:sc":"Windhoek","name:sd":"ونڊھوئڪ","name:se":"Windhoek","name:sh":"Windhoek","name:sk":"Windhoek","name:sl":"Windhoek","name:sn":"Windhoek","name:so":"Windhoek","name:sq":"Uindhuk","name:sr":"Виндхук","name:sv":"Windhoek","name:sw":"Windhoek","name:ta":"விந்தோக்","name:tg":"Виндхук","name:th":"วินด์ฮุก","name:tl":"Windhoek","name:tr":"Windhoek","name:uk":"Віндгук","name:ur":"ونڈہوک","name:uz":"Vindxuk","name:vi":"Windhoek","name:vo":"Windhoek","name:yi":"ווינטהוק","name:yo":"Windhoek","name:zh":"温得和克","name:zu":"Windhoek","name:ady":"Виндхук","name:arz":"ويندهوك","name:ast":"Windḥoek","name:avk":"Windhoek","name:azb":"ویندهوک","name:bxr":"Виндхук","name:cdo":"Windhoek","name:ceb":"Windhoek","name:ckb":"ویندھۆک","name:dsb":"Windhoek","name:frr":"Windhoek","name:hak":"Windhoek","name:hif":"Windhoek","name:kab":"Windhoek","name:kbd":"Виндхук","name:kbp":"Windɔkɩ","name:khi":"Ai-Gams","name:lfn":"Windhoek","name:lij":"Windhoek","name:lmo":"Windhoek","name:mrj":"Виндхук","name:nah":"Windhoek","name:nds":"Windhuk","name:nov":"Windhuk","name:olo":"Vindhuk","name:pap":"Windhoek","name:pdc":"Windhoek","name:pms":"Windhoek","name:pnb":"ونڈہوک","name:sco":"Windhoek","name:smn":"Windhoek","name:szl":"Windhuk","name:udm":"Виндхук","name:vec":"Windhoek","name:vep":"Vindhuk","name:vro":"Windhoek","name:war":"Windhoek","name:wuu":"溫得和克","name:xmf":"ვინდჰუკი","name:yue":"溫荷克","name:zea":"Wind'oek","name:simple":"Windhoek","name:be-tarask":"Ўіндгук","name:zh_min_nan":"Windhoek"},"display_name":"Windhoek, Khomas Region, Namibia","address":{"city":"Windhoek","state":"Khomas Region","ISO3166-2-lvl4":"NA-KH","country":"Namibia","country_code":"na"},"population":325858,"osm_type":"relation","osm_id":8650326,"type":"administrative","location":[17.0772739,-22.5776104],"bbox":[16.9868681,-22.638657,17.1306205,-22.4285656]}]}
