{"name":"Bo","other_names":{"name:en":"Bo","name:ko":"보","name:lt":"Bo","name:ru":"Бо","name:uk":"Бо","int_name":"Bo"},"display_name":"Bo, Bo District, Southern Province, Sierra Leone","address":{"city":"Bo","state":"Bo District","ISO3166-2-lvl4":"SL-S","country":"Sierra Leone","country_code":"sl"},"osm_type":"node","osm_id":314001434,"type":"city","location":[-11.73665,7.962065],"bbox":[-11.89665,7.802065,-11.57665,8.122065]}
{"name":"Freetown","other_names":{"name:af":"Freetown, Sierra Leone","name:am":"ፍሪታውን","name:ar":"فريتاون","name:az":"Fritaun","name:be":"Фрытаўн","name:bg":"Фрийтаун","name:bo":"ཕིརི་ཊའུན།","name:br":"Freetown","name:ca":"Freetown","name:de":"Freetown","name:el":"Φρίταουν","name:en":"Freetown","name:eo":"Fritaŭno","name:es":"Freetown","name:fa":"فری‌تاون","name:fr":"Freetown","name:he":"פריטאון","name:ht":"Fritonn","name:hu":"Freetown","name:hy":"Ֆրիթաուն","name:is":"Freetown","name:it":"Freetown","name:ja":"フリータウン","name:ka":"ფრიტაუნი","name:ko":"프리타운","name:ky":"Фритаун","name:la":"Libera Urbs","name:lt":"Fritaunas","name:lv":"Frītauna","name:mk":"Фритаун","name:mr":"फ्रीटाउन","name:nl":"Freetown","name:no":"Freetown","name:oc":"Freetown","name:pl":"Freetown","name:pt":"Freetown","name:ru":"Фритаун","name:sr":"Фритаун","name:sv":"Freetown","name:ta":"பிரீடவுன்","name:tg":"Фритаун","name:th":"ฟรีทาวน์","name:tr":"Freetown","name:uk":"Фрітаун","name:ur":"فری ٹاؤن","name:zh":"弗里敦","alt_name":"Saint George","name:mrj":"Фритаун","name:pnb":"فری ٹاؤن","name:udm":"Фритаун","alt_name:ar":"فريتون"},"display_name":"Freetown, Western Area Urban, Western Area, Sierra Leone","address":{"city":"Freetown","state":"Western Area Urban","ISO3166-2-lvl4":"SL-W","country":"Sierra Leone","country_code":"sl"},"population":951000,"osm_type":"node","osm_id":27565056,"type":"city","location":[-13.26795,8.479004],"bbox":[-13.42795,8.319004,-13.10795,8.639004]}
{"name":"Kambia","other_names":{"name:en":"Kambia","name:ru":"Камбиа"},"display_name":"Kambia, Kambia District, North Western Province, Sierra Leone","address":{"city":"Kambia","state":"Kambia District","ISO3166-2-lvl4":"SL-NW","country":"Sierra Leone","country_code":"sl"},"osm_type":"node","osm_id":320058940,"type":"city","location":[-12.919337,9.125073],"bbox":[-13.079337,8.965073,-12.759337,9.285073]}
{"name":"Kenema","other_names":{"name:ar":"كينيما","name:en":"Kenema","name:ko":"케네마","name:lt":"Kenema","name:ru":"Кенема","int_name":"Kenema"},"display_name":"Kenema, Kenema District, Eastern Province, Sierra Leone","address":{"city":"Kenema","state":"Kenema District","ISO3166-2-lvl4":"SL-E","country":"Sierra Leone","country_code":"sl"},"population":188463,"osm_type":"node","osm_id":314005602,"type":"city","location":[-11.1863832,7.8859723],"bbox":[-11.3463832,7.7259723,-11.0263832,8.0459723]}
{"name":"Koidu","other_names":{"name:en":"Koidu","name:ko":"코이두","name:lt":"Koidu Taunas","name:ru":"Сефаду","int_name":"Koidu Town","alt_name_1":"Sefadu","alt_name_2":"Koldu"},"display_name":"Koidu, Kono District, Eastern Province, Sierra Leone","address":{"city":"Koidu","state":"Kono District","ISO3166-2-lvl4":"SL-E","country":"Sierra Leone","country_code":"sl"},"population":124662,"osm_type":"node","osm_id":314007819,"type":"city","location":[-10.971631,8.642281],"bbox":[-11.131631,8.482281,-10.811631,8.802281]}
{"name":"Makeni","display_name":"Makeni, Bombali District, Northern Province, Sierra Leone","address":{"city":"Makeni","state":"Bombali District","ISO3166-2-lvl4":"SL-N","country":"Sierra Leone","country_code":"sl"},"osm_type":"node","osm_id":11541295208,"type":"city","location":[-12.0441862,8.8881938],"bbox":[-12.2041862,8.7281938,-11.8841862,9.0481938]}
{"name":"Waterloo","other_names":{"name:ar":"واترلو","name:de":"Waterloo","name:en":"Waterloo","name:ja":"ウォータールー","name:lt":"Vaterlo","name:pl":"Waterloo","name:ru":"Уотерлу"},"display_name":"Waterloo, Western Area Rural, Western Area, Sierra Leone","address":{"city":"Waterloo","state":"Western Area Rural","ISO3166-2-lvl4":"SL-W","country":"Sierra Leone","country_code":"sl"},"osm_type":"node","osm_id":2132436578,"type":"city","location":[-13.069573,8.338977],"bbox":[-13.229573,8.178977,-12.909573,8.498977]}
