{"name":"Brazzaville","other_names":{"name:am":"ብራዛቪል","name:ar":"برازافيل","name:az":"Brazzavil","name:be":"Бразавіль","name:bg":"Бразавил","name:bo":"བ་ར་ཛ་བི་ལི།","name:ca":"Brazzaville","name:de":"Brazzaville","name:el":"Μπραζαβίλ","name:en":"Brazzaville","name:eo":"Brazavilo","name:es":"Brazzaville","name:fa":"برازاویل","name:fr":"Brazzaville","name:he":"ברזוויל","name:ht":"Brazavil","name:hu":"Brazzaville","name:hy":"Բրազավիլ","name:is":"Brazzaville","name:ja":"ブラザヴィル","name:ka":"ბრაზავილი","name:kg":"Mavula","name:ko":"브라자빌","name:la":"Brazzapolis","name:lt":"Brazavilis","name:lv":"Brazavila","name:mk":"Бразавил","name:mr":"ब्राझाव्हिल","name:oc":"Brazzaville","name:os":"Браззавиль","name:pl":"Brazzaville","name:pt":"Brazzaville","name:ru":"Браззавиль","name:so":"Barasafille","name:sr":"Бразавил","name:sv":"Brazzaville","name:ta":"பிராசவில்லி","name:tg":"Браззавил","name:th":"บราซซาวิล","name:uk":"Браззавіль","name:ur":"برازاویلے","name:wo":"Brasawil","name:zh":"布拉柴维尔","name:ckb":"برازاڤیل","name:nov":"Brazavil","name:pnb":"برازاولے","name:udm":"Браззавиль","name:zh-Hans":"布拉柴维尔"},"display_name":"Brazzaville, Brazzaville (commune), Brazzaville (département), Congo","address":{"city":"Brazzaville","municipality":"Brazzaville (commune)","state":"Brazzaville (département)","ISO3166-2-lvl4":"CG-BZV","country":"Congo","country_code":"cg"},"population":1932610,"osm_type":"node","osm_id":435903633,"type":"city","location":[15.2712256,-4.2694407],"bbox":[15.1112256,-4.4294407,15.4312256,-4.1094407],"border":{"name":"Brazzaville (commune)","other_names":{"name:af":"Brazzaville","name:am":"ብራዛቪል","name:an":"Brazzaville","name:ar":"برازافيل","name:az":"Brazzavil","name:be":"Бразавіль","name:bg":"Бразавил","name:bn":"ব্রাজাভিল","name:bo":"བ་ར་ཛ་བི་ལི།","name:br":"Brazzaville","name:bs":"Brazzaville","name:ca":"Brazzaville","name:ce":"Браззавиль","name:cs":"Brazzaville","name:cy":"Brazzaville","name:da":"Brazzaville","name:de":"Brazzaville","name:el":"Μπραζαβίλ","name:en":"Brazzaville (municipality)","name:es":"Brazzaville","name:et":"Brazzaville","name:eu":"Brazzaville","name:fa":"برازاویل","name:fi":"Brazzaville","name:fr":"Brazzaville (commune)","name:fy":"Brazzaville","name:ga":"Brazzaville","name:gd":"Brazzaville","name:gl":"Brazzaville","name:gn":"Brazzaville","name:ha":"Brazzaville","name:he":"ברזוויל","name:hi":"ब्राज़िविले","name:hr":"Brazzaville","name:ht":"Brazavil","name:hu":"Brazzaville","name:hy":"Բրազավիլ","name:ia":"Brazzaville","name:id":"Brazzaville","name:io":"Brazzaville","name:is":"Brazzaville","name:it":"Brazzaville","name:ja":"ブラザヴィル","name:jv":"Brazzaville","name:ka":"ბრაზავილი","name:kg":"Balazavile","name:kk":"Браззавиль","name:ko":"브라자빌","name:ku":"Brazzaville","name:ky":"Браззавиль","name:lb":"Brazzaville","name:ln":"Brazzaville","name:lt":"Brazavilis","name:lv":"Brazavila","name:mg":"Brazzaville","name:mk":"Бразавил","name:ml":"ബ്രാസവില്ലെ","name:mr":"ब्राझाव्हिल","name:ms":"Brazzaville","name:my":"ဘရာဇာဗီးလ်မြို့","name:nl":"Brazzaville","name:nn":"Brazzaville","name:no":"Brazzaville","name:ny":"Brazzaville","name:oc":"Brazzaville","name:os":"Браззавиль","name:pa":"ਬ੍ਰਾਜ਼ਾਵਿਲ","name:pl":"Brazzaville","name:ps":"برازاویل","name:pt":"Brazavile","name:qu":"Brazzaville","name:ro":"Brazzaville","name:ru":"Браззавиль","name:sc":"Brazzaville","name:sh":"Brazzaville","name:sk":"Brazzaville","name:sl":"Brazzaville","name:sn":"Brazzaville","name:so":"Barasafille","name:sq":"Brazzaville","name:sr":"Бразавил","name:sv":"Brazzaville","name:sw":"Brazzaville","name:ta":"பிராசவில்லி","name:tg":"Браззавил","name:th":"บราซาวีล","name:tl":"Brazzaville","name:tr":"Brazzaville","name:uk":"Браззавіль","name:ur":"برازاویل","name:uz":"Brazzavil","name:vi":"Brazzaville","name:wa":"Brazaveye","name:wo":"Brasawil","name:xh":"IBrazzaville","name:yi":"בראזאוויל","name:yo":"Brazzaville","name:zh":"布拉柴维尔","name:zu":"Brazzaville","name:arz":"برازافيل","name:ast":"Brazzaville","name:avk":"Brazzaville","name:bcl":"Brazzaville","name:cdo":"Brazzaville","name:ceb":"Brazzaville","name:chy":"Brazzaville","name:ckb":"برازاڤیل","name:diq":"Brazzaville","name:frr":"Brazzaville","name:hak":"Brazzaville","name:hif":"Brazzaville","name:hsb":"Brazzaville","name:kab":"Brazzaville","name:nah":"Brazzaville","name:nds":"Brazzaville","name:pap":"Brazzaville","name:pms":"Brazzaville","name:pnb":"برازاولے","name:scn":"Brazzaville","name:sco":"Brazzaville","name:smn":"Brazzaville","name:szl":"Brazzaville","name:udm":"Браззавиль","name:vec":"Brazzaville","name:vep":"Brazzavil'","name:war":"Brazzaville","name:wuu":"布拉柴維爾","name:xmf":"ბრაზავილი","name:yue":"布拉柴維爾","name:nds-nl":"Brazzaville","name:bat-smg":"Brazavilis","name:roa-rup":"Brazzaville","name:zh-Hans":"布拉柴维尔省","name:eo":"Brazavilo","name:la":"Brazzapolis","name:be-tarask":"Бразавіль","name:nov":"Brazavil","alt":"Brazzaville","alt:en":"Brazzaville","alt:fr":"Brazzaville","alt:kg":"Mavula","alt:pt":"Brazzaville","alt:th":"บราซซาวิล","alt:ur":"برازاویلے","alt:zh-Hans":"布拉柴维尔"},"display_name":"Brazzaville (commune), Brazzaville (département), Congo","address":{"municipality":"Brazzaville (commune)","state":"Brazzaville (département)","ISO3166-2-lvl4":"CG-BZV","country":"Congo","country_code":"cg"},"population":1932610,"osm_type":"relation","osm_id":16370691,"type":"administrative","location":[15.2712256,-4.2694407],"bbox":[15.1389502,-4.3810505,15.3247981,-4.0967732]}}
{"name":"Dolisie","other_names":{"name:fr":"Dolisie","name:ko":"돌리지","name:ru":"Лубомо","old_name":"Loubomo"},"display_name":"Dolisie, Niari, Congo","address":{"city":"Dolisie","state":"Niari","ISO3166-2-lvl4":"CG-9","country":"Congo","country_code":"cg"},"population":117920,"osm_type":"node","osm_id":619897914,"type":"city","location":[12.6791573,-4.2005398],"bbox":[12.5191573,-4.3605398,12.8391573,-4.0405398]}
{"name":"Impfondo","other_names":{"name:fr":"Impfondo","name:ko":"임퐁도","name:ru":"Импофондо"},"display_name":"Impfondo, Likouala, Congo","address":{"city":"Impfondo","county":"Impfondo","state":"Likouala","ISO3166-2-lvl4":"CG-7","country":"Congo","country_code":"cg"},"population":47719,"osm_type":"node","osm_id":620439732,"type":"city","location":[18.0623499,1.6187416],"bbox":[17.9023499,1.4587416,18.2223499,1.7787416],"border":{"name":"Impfondo","other_names":{"name:fr":"Impfondo","name:ru":"Импофондо"},"display_name":"Impfondo, Likouala, Congo","address":{"county":"Impfondo","state":"Likouala","ISO3166-2-lvl4":"CG-7","country":"Congo","country_code":"cg"},"osm_type":"relation","osm_id":3221054,"type":"administrative","location":[17.769265481849494,0.67102755],"bbox":[17.5542535,-0.7245738,18.079167,2.06643]}}
{"name":"Liranga","display_name":"Liranga, Impfondo, Likouala, Congo","address":{"city":"Liranga","county":"Impfondo","state":"Likouala","ISO3166-2-lvl4":"CG-7","country":"Congo","country_code":"cg"},"osm_type":"node","osm_id":5650165756,"type":"city","location":[17.6107531,-0.6621466],"bbox":[17.4507531,-0.8221466,17.7707531,-0.5021466]}
{"name":"Madingou","display_name":"Madingou, Bouenza, Congo","address":{"city":"Madingou","state":"Bouenza","ISO3166-2-lvl4":"CG-11","country":"Congo","country_code":"cg"},"osm_type":"node","osm_id":922247912,"type":"city","location":[13.5516478,-4.1642624],"bbox":[13.3916478,-4.3242624,13.7116478,-4.0042624],"border":{"name":"Madingou","display_name":"Madingou, Bouenza, Congo","address":{"city":"Madingou","state":"Bouenza","ISO3166-2-lvl4":"CG-11","country":"Congo","country_code":"cg"},"osm_type":"relation","osm_id":3224443,"type":"administrative","location":[13.5516478,-4.1642624],"bbox":[13.400161,-4.3523121,13.8755341,-4.002531]}}
{"name":"Nkayi","other_names":{"name:fr":"Nkayi","alt_name":"Nkayi-Yokangassi","old_name":"Jacob"},"display_name":"Nkayi, Bouenza, Congo","address":{"city":"Nkayi","county":"Nkayi","state":"Bouenza","ISO3166-2-lvl4":"CG-11","country":"Congo","country_code":"cg"},"population":71620,"osm_type":"node","osm_id":921657745,"type":"city","location":[13.2883675,-4.1840962],"bbox":[13.1283675,-4.3440962,13.4483675,-4.0240962],"border":{"name":"Nkayi","display_name":"Nkayi, Bouenza, Congo","address":{"county":"Nkayi","state":"Bouenza","ISO3166-2-lvl4":"CG-11","country":"Congo","country_code":"cg"},"osm_type":"relation","osm_id":3224446,"type":"administrative","location":[13.287783423858283,-4.1841822],"bbox":[13.1345015,-4.414912,13.4832211,-3.9703]}}
{"name":"Ouésso","other_names":{"name:en":"Ouésso","name:fr":"Ouésso","name:ko":"우에소","name:ru":"Весо","name:uk":"Весо"},"display_name":"Ouésso, District de Mokeko, Sangha, Congo","address":{"city":"Ouésso","county":"District de Mokeko","state":"Sangha","ISO3166-2-lvl4":"CG-13","country":"Congo","country_code":"cg"},"population":39653,"osm_type":"node","osm_id":250884373,"type":"city","location":[16.0513456,1.6105452],"bbox":[15.8913456,1.4505452,16.2113456,1.7705452]}
{"name":"Owando","display_name":"Owando, Cuvette, Congo","address":{"city":"Owando","county":"Owando","state":"Cuvette","ISO3166-2-lvl4":"CG-8","country":"Congo","country_code":"cg"},"population":34808,"osm_type":"node","osm_id":921563456,"type":"city","location":[15.8974175,-0.4833599],"bbox":[15.7374175,-0.6433599,16.0574175,-0.3233599],"border":{"name":"Owando","display_name":"Owando, Cuvette, Congo","address":{"county":"Owando","state":"Cuvette","ISO3166-2-lvl4":"CG-8","country":"Congo","country_code":"cg"},"osm_type":"relation","osm_id":3221351,"type":"administrative","location":[15.939535087056527,-0.67197085],"bbox":[15.0891362,-1.2633362,16.5126915,-0.063411]}}
{"name":"Pointe-Noire","other_names":{"name:ar":"بوانت نوار","name:fr":"Pointe-Noire","name:ko":"푸앵트누아르","name:lt":"Puent Nuaras","name:pt":"Pointe-Noire","name:ru":"Пуэнт-Нуар","name:zh":"黑角"},"display_name":"Pointe-Noire, Lumumba (arrondissement 1), Pointe-Noire (commune), Pointe-Noire (département), Congo","address":{"city":"Pointe-Noire","county":"Lumumba (arrondissement 1)","state_district":"Pointe-Noire (commune)","state":"Pointe-Noire (département)","ISO3166-2-lvl4":"CG-16","country":"Congo","country_code":"cg"},"population":1006611,"osm_type":"node","osm_id":2448258134,"type":"city","location":[11.8503297,-4.7975373],"bbox":[11.6903297,-4.9575373,12.0103297,-4.6375373]}
