{"name":"Beira","other_names":{"name:de":"Beira","name:ko":"베이라","name:pt":"Beira","name:ru":"Бейра"},"display_name":"Beira, Cidade da Beira, Sofala, Zona Centro, 2100, Moçambique","address":{"city":"Beira","state_district":"Cidade da Beira","state":"Sofala","ISO3166-2-lvl4":"MZ-S","region":"Zona Centro","postcode":"2100","country":"Moçambique","country_code":"mz"},"population":436240,"osm_type":"node","osm_id":259593578,"type":"city","location":[34.841782,-19.828707],"bbox":[34.681782,-19.988707,35.001782,-19.668707]}
{"name":"Chimoio","other_names":{"name:de":"Chimoio","name:ko":"시모이우","name:ru":"Шимойо"},"display_name":"Chimoio, Cidade de Chimoio, Manica, Zona Centro, Moçambique","address":{"city":"Chimoio","state":"Manica","ISO3166-2-lvl4":"MZ-B","region":"Zona Centro","country":"Moçambique","country_code":"mz"},"population":238976,"osm_type":"node","osm_id":331730931,"type":"city","location":[33.4780059,-19.1437458],"bbox":[33.3180059,-19.3037458,33.6380059,-18.9837458],"border":{"name":"Cidade de Chimoio","other_names":{"name:pt":"Cidade de Chimoio","name:de":"Chimoio","name:ko":"시모이우","name:ru":"Шимойо","alt":"Chimoio"},"display_name":"Cidade de Chimoio, Manica, Zona Centro, 2200, Moçambique","address":{"city":"Cidade de Chimoio","state":"Manica","ISO3166-2-lvl4":"MZ-B","region":"Zona Centro","postcode":"2200","country":"Moçambique","country_code":"mz"},"population":238976,"osm_type":"relation","osm_id":11589176,"type":"administrative","location":[33.4780059,-19.1437458],"bbox":[33.3745749,-19.2020751,33.5262394,-19.0673996]}}
{"name":"Chiúre","display_name":"Chiúre, Chiure, Chiúre, Cabo Delgado, Zona Norte, Moçambique","address":{"city":"Chiúre","county":"Chiure","state_district":"Chiúre","state":"Cabo Delgado","ISO3166-2-lvl4":"MZ-P","region":"Zona Norte","country":"Moçambique","country_code":"mz"},"osm_type":"node","osm_id":1426073450,"type":"city","location":[39.7884693,-13.3826809],"bbox":[39.6284693,-13.5426809,39.9484693,-13.2226809]}
{"name":"Inchope","display_name":"Inchope, Gondola, Manica, Zona Centro, Moçambique","address":{"city":"Inchope","state_district":"Gondola","state":"Manica","ISO3166-2-lvl4":"MZ-B","region":"Zona Centro","country":"Moçambique","country_code":"mz"},"osm_type":"node","osm_id":663184240,"type":"city","location":[33.9329339,-19.2073338],"bbox":[33.7729339,-19.3673338,34.0929339,-19.0473338]}
{"name":"Inhambane","other_names":{"name:en":"Inhambane","name:ko":"이냠바느","name:ru":"Иньямбане"},"display_name":"Inhambane, Cidade de Inhambane, Inhambane, Zona Sul, Moçambique","address":{"city":"Inhambane","state":"Inhambane","ISO3166-2-lvl4":"MZ-I","region":"Zona Sul","country":"Moçambique","country_code":"mz"},"population":63837,"osm_type":"node","osm_id":331728890,"type":"city","location":[35.384363,-23.865961],"bbox":[35.224363,-24.025961,35.544363,-23.705961],"border":{"name":"Cidade de Inhambane","other_names":{"name:pt":"Cidade de Inhambane","name:en":"Inhambane","name:ko":"이냠바느","name:ru":"Иньямбане","alt":"Inhambane"},"display_name":"Cidade de Inhambane, Inhambane, Zona Sul, Moçambique","address":{"city":"Cidade de Inhambane","state":"Inhambane","ISO3166-2-lvl4":"MZ-I","region":"Zona Sul","country":"Moçambique","country_code":"mz"},"population":63837,"osm_type":"relation","osm_id":11623616,"type":"administrative","location":[35.384363,-23.865961],"bbox":[35.3547763,-23.9679009,35.555083,-23.73414]}}
{"name":"Jangamo","display_name":"Jangamo, Inhambane, Zona Sul, Moçambique","address":{"city":"Jangamo","state":"Inhambane","ISO3166-2-lvl4":"MZ-I","region":"Zona Sul","country":"Moçambique","country_code":"mz"},"population":93681,"osm_type":"node","osm_id":6170852475,"type":"city","location":[35.3158414,-24.1142195],"bbox":[35.1558414,-24.2742195,35.4758414,-23.9542195],"border":[{"name":"Jangamo","display_name":"Jangamo, Inhambane, Zona Sul, 0000, Moçambique","address":{"city":"Jangamo","state":"Inhambane","ISO3166-2-lvl4":"MZ-I","region":"Zona Sul","postcode":"0000","country":"Moçambique","country_code":"mz"},"population":93681,"osm_type":"relation","osm_id":11623599,"type":"administrative","location":[35.3158414,-24.1142195],"bbox":[35.0007211,-24.3721056,35.5204042,-23.9418308]},{"name":"Jangamo","display_name":"Jangamo, Inhambane, Zona Sul, 0000, Moçambique","address":{"city_district":"Jangamo","city":"Jangamo","state":"Inhambane","ISO3166-2-lvl4":"MZ-I","region":"Zona Sul","postcode":"0000","country":"Moçambique","country_code":"mz"},"osm_type":"relation","osm_id":14894770,"type":"administrative","location":[35.39679587212139,-24.11124655],"bbox":[35.2166412,-24.2804926,35.5204042,-23.9418308]}]}
{"name":"Lichinga","other_names":{"name:ko":"리싱가","name:pt":"Lichinga","name:ru":"Лишинга"},"display_name":"Lichinga, Cidade de Lichinga, Niassa, Zona Norte, 3300, Moçambique","address":{"city":"Lichinga","state_district":"Cidade de Lichinga","state":"Niassa","ISO3166-2-lvl4":"MZ-A","region":"Zona Norte","postcode":"3300","country":"Moçambique","country_code":"mz"},"population":142253,"osm_type":"node","osm_id":335126704,"type":"city","location":[35.2458642,-13.2999118],"bbox":[35.0858642,-13.4599118,35.4058642,-13.1399118]}
{"display_name":"Luabo, Zambézia, Zona Centro, Moçambique","address":{"state_district":"Luabo","state":"Zambézia","ISO3166-2-lvl4":"MZ-Q","region":"Zona Centro","country":"Moçambique","country_code":"mz"},"osm_type":"way","osm_id":398606942,"type":"city","location":[36.0965518,-18.39858585],"bbox":[36.0965011,-18.3986401,36.0966025,-18.3985316]}
{"name":"Macomia","display_name":"Macomia, Cabo Delgado, Zona Norte, Moçambique","address":{"city":"Macomia","county":"Macomia","state_district":"Macomia","state":"Cabo Delgado","ISO3166-2-lvl4":"MZ-P","region":"Zona Norte","country":"Moçambique","country_code":"mz"},"osm_type":"node","osm_id":331690580,"type":"city","location":[40.1451909,-12.2295294],"bbox":[39.9851909,-12.3895294,40.3051909,-12.0695294],"border":{"name":"Macomia","display_name":"Macomia, Cabo Delgado, Zona Norte, Moçambique","address":{"county":"Macomia","state_district":"Macomia","state":"Cabo Delgado","ISO3166-2-lvl4":"MZ-P","region":"Zona Norte","country":"Moçambique","country_code":"mz"},"osm_type":"relation","osm_id":17064260,"type":"administrative","location":[40.00221264517202,-12.1897941],"bbox":[39.7167391,-12.3673977,40.2798492,-12.0116761]}}
{"name":"Manica","display_name":"Manica, Zona Centro, Moçambique","address":{"city":"Manica","state_district":"Manica","state":"Manica","ISO3166-2-lvl4":"MZ-B","region":"Zona Centro","country":"Moçambique","country_code":"mz"},"osm_type":"node","osm_id":1419408735,"type":"city","location":[32.875955,-18.936733],"bbox":[32.715955,-19.096733,33.035955,-18.776733]}
{"name":"Maputo","other_names":{"name:am":"ማፑቶ","name:an":"Maputo","name:ar":"مابوتو","name:az":"Maputu","name:be":"Мапуту","name:bg":"Мапуто","name:bn":"মাপুতো","name:bo":"མ་པུ་ཊོ།","name:br":"Maputo","name:bs":"Maputo","name:ca":"Maputo","name:ce":"Мапуту","name:cs":"Maputo","name:cy":"Maputo","name:da":"Maputo","name:de":"Maputo","name:el":"Μαπούτο","name:en":"Maputo","name:eo":"Maputo","name:es":"Maputo","name:et":"Maputo","name:eu":"Maputo","name:fa":"ماپوتو","name:fi":"Maputo","name:fr":"Maputo","name:fy":"Maputo","name:ga":"Maputo","name:gd":"Maputo","name:gl":"Maputo","name:gu":"માપુટો","name:ha":"Maputo","name:he":"מפוטו","name:hi":"मापुटो","name:hr":"Maputo","name:ht":"Mapouto","name:hu":"Maputo","name:hy":"Մապուտու","name:ia":"Maputo","name:id":"Maputo","name:ie":"Maputo","name:io":"Maputo","name:is":"Mapútó","name:it":"Maputo","name:ja":"マプト","name:jv":"Maputo","name:ka":"მაპუტუ","name:kg":"Maputo","name:kk":"Мапуту","name:kn":"ಮಾಪುಟೊ","name:ko":"마푸투","name:ky":"Мапуту","name:la":"Maputo","name:lb":"Maputo","name:lt":"Maputu","name:lv":"Maputu","name:mg":"Maputo","name:mi":"Maputo","name:mk":"Мапуто","name:ml":"മപൂട്ടോ","name:mr":"मापुतो","name:ms":"Maputo","name:nl":"Maputo","name:no":"Maputo","name:nv":"Tó Halchíʼí","name:ny":"Maputo","name:oc":"Maputo","name:os":"Мапуту","name:pa":"ਮਾਪੂਤੋ","name:pl":"Maputo","name:pt":"Maputo","name:qu":"Maputu","name:ro":"Maputo","name:ru":"Мапуту","name:rw":"Maputo","name:sc":"Maputo","name:sd":"مپوتو","name:sh":"Maputo","name:si":"මපුටෝ නගරය","name:sk":"Maputo","name:sl":"Maputo","name:sn":"Maputo","name:so":"Mabuto","name:sq":"Maputo","name:sr":"Мапуто","name:sv":"Maputo","name:sw":"Maputo","name:ta":"மபூட்டோ","name:tg":"Мапуту","name:th":"มาปูโต","name:tl":"Maputo","name:tr":"Maputo","name:uk":"Мапуту","name:ur":"ماپوتو","name:uz":"Maputu","name:vi":"Maputo","name:vo":"Maputo","name:wo":"Maputo","name:xh":"EMaputo","name:yi":"מאפוטא","name:yo":"Maputo","name:zh":"馬普托","name:zu":"Maputo","name:ceb":"Maputo","name:ckb":"ماپوتۆ","name:frp":"Maputo","name:frr":"Maputo","name:hak":"Maputo","name:hif":"Maputo","name:kab":"Maputo","name:lfn":"Maputo","name:lij":"Maputo","name:lmo":"Maputo","name:mrj":"Мапуту","name:mwl":"Maputo","name:nah":"Maputo","name:pap":"Maputo","name:pms":"Maputo","name:pnb":"ماپوٹو","name:sco":"Maputu","name:smn":"Maputo","name:szl":"Maputo","name:tet":"Maputu","name:udm":"Мапуту","name:vec":"Maputo","name:vep":"Maputu","name:war":"Maputo","name:wuu":"马普托","name:xmf":"მაპუტუ"},"display_name":"Maputo, Cidade de Maputo, Zona Sul, Moçambique","address":{"city":"Maputo","ISO3166-2-lvl4":"MZ-MPM","region":"Zona Sul","country":"Moçambique","country_code":"mz"},"population":1244227,"osm_type":"node","osm_id":27565081,"type":"city","location":[32.56745,-25.966213],"bbox":[32.40745,-26.126213,32.72745,-25.806213],"border":{"name":"Cidade de Maputo","other_names":{"name:pt":"Cidade de Maputo","alt_name":"Maputo","ISO3166-2":"MZ-MPM","name:am":"ማፑቶ","name:an":"Maputo","name:ar":"مابوتو","name:az":"Maputu","name:be":"Мапуту","name:bg":"Мапуто","name:bn":"মাপুতো","name:bo":"མ་པུ་ཊོ།","name:br":"Maputo","name:bs":"Maputo","name:ca":"Maputo","name:ce":"Мапуту","name:cs":"Maputo","name:cy":"Maputo","name:da":"Maputo","name:de":"Maputo","name:el":"Μαπούτο","name:en":"Maputo","name:eo":"Maputo","name:es":"Maputo","name:et":"Maputo","name:eu":"Maputo","name:fa":"ماپوتو","name:fi":"Maputo","name:fr":"Maputo","name:fy":"Maputo","name:ga":"Maputo","name:gd":"Maputo","name:gl":"Maputo","name:gu":"માપુટો","name:ha":"Maputo","name:he":"מפוטו","name:hi":"मापुटो","name:hr":"Maputo","name:ht":"Mapouto","name:hu":"Maputo","name:hy":"Մապուտու","name:ia":"Maputo","name:id":"Maputo","name:ie":"Maputo","name:io":"Maputo","name:is":"Mapútó","name:it":"Maputo","name:ja":"マプト","name:jv":"Maputo","name:ka":"მაპუტუ","name:kg":"Maputo","name:kk":"Мапуту","name:kn":"ಮಾಪುಟೊ","name:ko":"마푸투","name:ky":"Мапуту","name:la":"Maputo","name:lb":"Maputo","name:lt":"Maputu","name:lv":"Maputu","name:mg":"Maputo","name:mi":"Maputo","name:mk":"Мапуто","name:ml":"മപൂട്ടോ","name:mr":"मापुतो","name:ms":"Maputo","name:nl":"Maputo","name:no":"Maputo","name:nv":"Tó Halchíʼí","name:ny":"Maputo","name:oc":"Maputo","name:os":"Мапуту","name:pa":"ਮਾਪੂਤੋ","name:pl":"Maputo","name:qu":"Maputu","name:ro":"Maputo","name:ru":"Мапуту","name:rw":"Maputo","name:sc":"Maputo","name:sd":"مپوتو","name:sh":"Maputo","name:si":"මපුටෝ නගරය","name:sk":"Maputo","name:sl":"Maputo","name:sn":"Maputo","name:so":"Mabuto","name:sq":"Maputo","name:sr":"Мапуто","name:sv":"Maputo","name:sw":"Maputo","name:ta":"மபூட்டோ","name:tg":"Мапуту","name:th":"มาปูโต","name:tl":"Maputo","name:tr":"Maputo","name:uk":"Мапуту","name:ur":"ماپوتو","name:uz":"Maputu","name:vi":"Maputo","name:vo":"Maputo","name:wo":"Maputo","name:xh":"EMaputo","name:yi":"מאפוטא","name:yo":"Maputo","name:zh":"馬普托","name:zu":"Maputo","name:ceb":"Maputo","name:ckb":"ماپوتۆ","name:frp":"Maputo","name:frr":"Maputo","name:hak":"Maputo","name:hif":"Maputo","name:kab":"Maputo","name:lfn":"Maputo","name:lij":"Maputo","name:lmo":"Maputo","name:mrj":"Мапуту","name:mwl":"Maputo","name:nah":"Maputo","name:pap":"Maputo","name:pms":"Maputo","name:pnb":"ماپوٹو","name:sco":"Maputu","name:smn":"Maputo","name:szl":"Maputo","name:tet":"Maputu","name:udm":"Мапуту","name:vec":"Maputo","name:vep":"Maputu","name:war":"Maputo","name:wuu":"马普托","name:xmf":"მაპუტუ","alt":"Maputo","alt:pt":"Maputo"},"display_name":"Cidade de Maputo, Zona Sul, Moçambique","address":{"city":"Cidade de Maputo","ISO3166-2-lvl4":"MZ-MPM","region":"Zona Sul","country":"Moçambique","country_code":"mz"},"population":1244227,"osm_type":"relation","osm_id":3348644,"type":"administrative","location":[32.56745,-25.966213],"bbox":[32.4399695,-26.0900247,32.9936741,-25.8117064]}}
{"name":"Matola","other_names":{"name:ko":"마톨라","name:ru":"Матола"},"display_name":"Matola, Maputo, Zona Sul, Moçambique","address":{"city":"Matola","state":"Maputo","ISO3166-2-lvl4":"MZ-L","region":"Zona Sul","country":"Moçambique","country_code":"mz"},"population":675422,"osm_type":"node","osm_id":27564983,"type":"city","location":[32.466956,-25.966917],"bbox":[32.306956,-26.126917,32.626956,-25.806917],"border":{"name":"Matola","other_names":{"name:pt":"Matola","name:ko":"마톨라","name:ru":"Матола"},"display_name":"Matola, Maputo, Zona Sul, Moçambique","address":{"city":"Matola","state":"Maputo","ISO3166-2-lvl4":"MZ-L","region":"Zona Sul","country":"Moçambique","country_code":"mz"},"population":675422,"osm_type":"relation","osm_id":11505035,"type":"administrative","location":[32.466956,-25.966917],"bbox":[32.4007541,-25.9940871,32.5861565,-25.6936495]}}
{"name":"Maxixe","other_names":{"name:ko":"마시스","name:pt":"Maxixe","name:ru":"Машише"},"display_name":"Maxixe, Inhambane, Zona Sul, Moçambique","address":{"city":"Maxixe","county":"Maxixe","state_district":"Maxixe","state":"Inhambane","ISO3166-2-lvl4":"MZ-I","region":"Zona Sul","country":"Moçambique","country_code":"mz"},"population":108824,"osm_type":"node","osm_id":335106276,"type":"city","location":[35.348934,-23.861561],"bbox":[35.188934,-24.021561,35.508934,-23.701561],"border":{"name":"Maxixe","display_name":"Maxixe, Inhambane, Zona Sul, Moçambique","address":{"county":"Maxixe","state_district":"Maxixe","state":"Inhambane","ISO3166-2-lvl4":"MZ-I","region":"Zona Sul","country":"Moçambique","country_code":"mz"},"osm_type":"relation","osm_id":14894781,"type":"administrative","location":[35.310326824828735,-23.86996285],"bbox":[35.2336561,-24.0543508,35.4158019,-23.6845187]}}
{"name":"Mocímboa da Praia","display_name":"Mocímboa da Praia, Mocimboa da Praia, Cabo Delgado, Zona Norte, Moçambique","address":{"city":"Mocímboa da Praia","county":"Mocimboa da Praia","state_district":"Mocimboa da Praia","state":"Cabo Delgado","ISO3166-2-lvl4":"MZ-P","region":"Zona Norte","country":"Moçambique","country_code":"mz"},"population":127705,"osm_type":"node","osm_id":2282927369,"type":"city","location":[40.3576715,-11.3438956],"bbox":[40.1976715,-11.5038956,40.5176715,-11.1838956]}
{"name":"Montepuez","display_name":"Montepuez, Cabo Delgado, Zona Norte, Moçambique","address":{"city":"Montepuez","county":"Montepuez","state_district":"Montepuez","state":"Cabo Delgado","ISO3166-2-lvl4":"MZ-P","region":"Zona Norte","country":"Moçambique","country_code":"mz"},"population":76139,"osm_type":"node","osm_id":331694684,"type":"city","location":[39.0016963,-13.1253048],"bbox":[38.8416963,-13.2853048,39.1616963,-12.9653048],"border":{"name":"Montepuez","display_name":"Montepuez, Cabo Delgado, Zona Norte, Moçambique","address":{"county":"Montepuez","state_district":"Montepuez","state":"Cabo Delgado","ISO3166-2-lvl4":"MZ-P","region":"Zona Norte","country":"Moçambique","country_code":"mz"},"osm_type":"relation","osm_id":17227547,"type":"administrative","location":[39.06236118630332,-13.1236251],"bbox":[38.8778007,-13.3384067,39.3959614,-12.9093699]}}
{"name":"Nacala","other_names":{"name:en":"Nacala","name:ko":"나칼라","name:ru":"Накала","name:uk":"Накала"},"display_name":"Nacala, Cidade de Nacala, Nampula, Zona Norte, Moçambique","address":{"city":"Nacala","state":"Nampula","ISO3166-2-lvl4":"MZ-N","region":"Zona Norte","country":"Moçambique","country_code":"mz"},"population":389000,"osm_type":"node","osm_id":899428278,"type":"city","location":[40.6863816,-14.5583059],"bbox":[40.5263816,-14.7183059,40.8463816,-14.3983059],"border":{"name":"Cidade de Nacala","other_names":{"name:pt":"Cidade de Nacala","name:en":"Nacala","name:ko":"나칼라","name:ru":"Накала","name:uk":"Накала","alt":"Nacala"},"display_name":"Cidade de Nacala, Nampula, Zona Norte, 3112, Moçambique","address":{"city":"Cidade de Nacala","state":"Nampula","ISO3166-2-lvl4":"MZ-N","region":"Zona Norte","postcode":"3112","country":"Moçambique","country_code":"mz"},"population":389000,"osm_type":"relation","osm_id":11981800,"type":"administrative","location":[40.6863816,-14.5583059],"bbox":[40.6106033,-14.6828691,40.8300735,-14.4095377]}}
{"name":"Nampula","other_names":{"name:de":"Nampula","name:en":"Nampula","name:it":"Nampula","name:ko":"남풀라","name:pt":"Nampula","name:ru":"Нампула","name:uk":"Нампула"},"display_name":"Nampula, Cidade de Nampula, Nampula, Zona Norte, Moçambique","address":{"city":"Nampula","state_district":"Cidade de Nampula","state":"Nampula","ISO3166-2-lvl4":"MZ-N","region":"Zona Norte","country":"Moçambique","country_code":"mz"},"population":477900,"osm_type":"node","osm_id":286426799,"type":"city","location":[39.2615886,-15.1194063],"bbox":[39.1015886,-15.2794063,39.4215886,-14.9594063]}
{"name":"Palma","other_names":{"name:ca":"Palma","name:pt":"Palma"},"display_name":"Palma, Cabo Delgado, Zona Norte, Moçambique","address":{"city":"Palma","county":"Palma","state_district":"Palma","state":"Cabo Delgado","ISO3166-2-lvl4":"MZ-P","region":"Zona Norte","country":"Moçambique","country_code":"mz"},"population":75000,"osm_type":"node","osm_id":2284634201,"type":"city","location":[40.4673261,-10.7758093],"bbox":[40.3073261,-10.9358093,40.6273261,-10.6158093],"border":{"name":"Palma","display_name":"Palma, Cabo Delgado, Zona Norte, Moçambique","address":{"county":"Palma","state_district":"Palma","state":"Cabo Delgado","ISO3166-2-lvl4":"MZ-P","region":"Zona Norte","country":"Moçambique","country_code":"mz"},"osm_type":"relation","osm_id":14908008,"type":"administrative","location":[40.31526510421183,-10.77732],"bbox":[40.1399093,-10.8895421,40.6601986,-10.665163]}}
{"name":"Pemba","other_names":{"name:ar":"بيمبا","name:ko":"펨바","name:pt":"Pemba","name:ru":"Пемба"},"display_name":"Pemba, Cidade de Pemba, Cabo Delgado, Zona Norte, 3203, Moçambique","address":{"city":"Pemba","state_district":"Cidade de Pemba","state":"Cabo Delgado","ISO3166-2-lvl4":"MZ-P","region":"Zona Norte","postcode":"3203","country":"Moçambique","country_code":"mz"},"population":141316,"osm_type":"node","osm_id":331691755,"type":"city","location":[40.5215098,-12.9735551],"bbox":[40.3615098,-13.1335551,40.6815098,-12.8135551]}
{"name":"Praia de Bilene","display_name":"Praia de Bilene, Bilene-Macia, Gaza, Zona Sul, Moçambique","address":{"city":"Praia de Bilene","state_district":"Bilene-Macia","state":"Gaza","ISO3166-2-lvl4":"MZ-G","region":"Zona Sul","country":"Moçambique","country_code":"mz"},"population":151911,"osm_type":"node","osm_id":2084079005,"type":"city","location":[33.2458467,-25.2795872],"bbox":[33.0858467,-25.4395872,33.4058467,-25.1195872]}
{"name":"Quelimane","other_names":{"name:ko":"켈리마느","name:pt":"Quelimane","name:ru":"Келимане","name:uk":"Келімане"},"display_name":"Quelimane, Cidade de Quelimane, Zambézia, Zona Centro, 2400, Moçambique","address":{"city":"Quelimane","state_district":"Cidade de Quelimane","state":"Zambézia","ISO3166-2-lvl4":"MZ-Q","region":"Zona Centro","postcode":"2400","country":"Moçambique","country_code":"mz"},"population":192876,"osm_type":"node","osm_id":259593870,"type":"city","location":[36.890216,-17.87751],"bbox":[36.730216,-18.03751,37.050216,-17.71751]}
{"name":"Tete","other_names":{"name:ko":"테트","name:pt":"Tete","name:ru":"Тете"},"display_name":"Tete, Cidade de Tete, Tete, Zona Centro, Moçambique","address":{"city":"Tete","state_district":"Cidade de Tete","state":"Tete","ISO3166-2-lvl4":"MZ-T","region":"Zona Centro","country":"Moçambique","country_code":"mz"},"population":152909,"osm_type":"node","osm_id":560241406,"type":"city","location":[33.5871474,-16.1603989],"bbox":[33.4271474,-16.3203989,33.7471474,-16.0003989]}
{"name":"Xai-Xai","other_names":{"name:en":"Xai-Xai","name:ko":"샤이샤이","name:pt":"Xai-Xai","name:ru":"Шаи-Шаи","alt_name":"Xai Xai"},"display_name":"Xai-Xai, Cidade de Xai-Xai, Gaza, Zona Sul, Moçambique","address":{"city":"Xai-Xai","state_district":"Cidade de Xai-Xai","state":"Gaza","ISO3166-2-lvl4":"MZ-G","region":"Zona Sul","country":"Moçambique","country_code":"mz"},"population":116343,"osm_type":"node","osm_id":335077559,"type":"city","location":[33.64073,-25.044479],"bbox":[33.48073,-25.204479,33.80073,-24.884479]}
