{"name":"Avarua","other_names":{"name:af":"Avarua","name:ar":"آواروآ","name:az":"Avarua","name:be":"Аваруа","name:bg":"Аваруа","name:bo":"ཨ་ཝ་རུ་ཨ།","name:bs":"Avarua","name:ca":"Avarua","name:cs":"Avarua","name:cy":"Avarua","name:da":"Avarua","name:de":"Avarua","name:el":"Αβαρούα","name:en":"Avarua","name:eo":"Avaruo","name:es":"Avarua","name:et":"Avarua","name:fa":"آواروآ","name:fi":"Avarua","name:fr":"Avarua","name:gl":"Avarua","name:he":"אוורואה","name:hr":"Avarua","name:hu":"Avarua","name:hy":"Ավարուա","name:id":"Avarua","name:io":"Avarua","name:is":"Avarua","name:ja":"アバルア","name:ka":"ავარუა","name:kk":"Аваруа","name:ko":"아바루아","name:lt":"Avarua","name:lv":"Avarua","name:mk":"Аваруа","name:mr":"अव्हारुआ","name:ms":"Avarua","name:nl":"Avarua","name:no":"Avarua","name:pl":"Avarua","name:ps":"اواروا","name:pt":"Avarua","name:ro":"Avarua","name:ru":"Аваруа","name:sh":"Avarua","name:sk":"Avarua","name:sl":"Avarua","name:sn":"Avarua","name:sr":"Аваруа","name:sv":"Avarua","name:ta":"அவாருவா","name:tg":"Аваруа","name:th":"อาวารัว","name:tr":"Avarua","name:uk":"Аваруа","name:ur":"آواریا","name:uz":"Avarua","name:vi":"Avarua","name:zh":"阿瓦魯阿","name:ast":"Avarua","name:ceb":"Avarua","name:hak":"Avarua","name:war":"Avarua","name:wuu":"阿瓦鲁阿","name:xmf":"ავარუა","name:be-tarask":"Аваруа"},"display_name":"Avarua, Rarotonga, Kūki ʻĀirani","address":{"town":"Avarua","state":"Rarotonga","country":"Kūki ʻĀirani","country_code":"ck"},"population":5445,"osm_type":"node","osm_id":266727954,"type":"town","location":[-159.7708145,-21.2074736],"bbox":[-159.8108145,-21.2474736,-159.7308145,-21.1674736],"border":{"name":"Avarua","other_names":{"name:af":"Avarua","name:ar":"آواروآ","name:az":"Avarua","name:be":"Аваруа","name:bg":"Аваруа","name:bo":"ཨ་ཝ་རུ་ཨ།","name:bs":"Avarua","name:ca":"Avarua","name:cs":"Avarua","name:cy":"Avarua","name:da":"Avarua","name:de":"Avarua","name:el":"Αβαρούα","name:en":"Avarua","name:eo":"Avaruo","name:es":"Avarua","name:et":"Avarua","name:fa":"آواروآ","name:fi":"Avarua","name:fr":"Avarua","name:gl":"Avarua","name:he":"אוורואה","name:hr":"Avarua","name:hu":"Avarua","name:hy":"Ավարուա","name:id":"Avarua","name:io":"Avarua","name:is":"Avarua","name:ja":"アバルア","name:ka":"ავარუა","name:kk":"Аваруа","name:ko":"아바루아","name:lt":"Avarua","name:lv":"Avarua","name:mk":"Аваруа","name:mr":"अव्हारुआ","name:ms":"Avarua","name:nl":"Avarua","name:no":"Avarua","name:pl":"Avarua","name:ps":"اواروا","name:pt":"Avarua","name:ro":"Avarua","name:ru":"Аваруа","name:sh":"Avarua","name:sk":"Avarua","name:sl":"Avarua","name:sn":"Avarua","name:sr":"Аваруа","name:sv":"Avarua","name:ta":"அவாருவா","name:tg":"Аваруа","name:th":"อาวารัว","name:tr":"Avarua","name:uk":"Аваруа","name:ur":"آواریا","name:uz":"Avarua","name:vi":"Avarua","name:zh":"阿瓦魯阿","name:ast":"Avarua","name:ceb":"Avarua","name:hak":"Avarua","name:war":"Avarua","name:wuu":"阿瓦鲁阿","name:xmf":"ავარუა","name:be-tarask":"Аваруа"},"display_name":"Avarua, Rarotonga, Kūki ʻĀirani","address":{"town":"Avarua","state":"Rarotonga","country":"Kūki ʻĀirani","country_code":"ck"},"population":5445,"osm_type":"relation","osm_id":3830341,"type":"administrative","location":[-159.7708145,-21.2074736],"bbox":[-159.9639602,-21.2408551,-159.5911393,-20.9949899]}}
{"name":"Matavera","display_name":"Matavera, Rarotonga, Kūki ʻĀirani","address":{"town":"Matavera","state":"Rarotonga","country":"Kūki ʻĀirani","country_code":"ck"},"osm_type":"node","osm_id":8641790438,"type":"town","location":[-159.7354208,-21.223531],"bbox":[-159.7754208,-21.263531,-159.6954208,-21.183531],"border":{"name":"Matavera","display_name":"Matavera, Rarotonga, Kūki ʻĀirani","address":{"town":"Matavera","state":"Rarotonga","country":"Kūki ʻĀirani","country_code":"ck"},"osm_type":"relation","osm_id":14367542,"type":"administrative","location":[-159.7354208,-21.223531],"bbox":[-159.7637679,-21.2395824,-159.5131034,-21.0655502]}}
