{"name":"Ankoro","display_name":"Ankoro, Tanganyika, République démocratique du Congo","address":{"city":"Ankoro","state":"Tanganyika","ISO3166-2-lvl4":"CD-TA","country":"République démocratique du Congo","country_code":"cd"},"osm_type":"node","osm_id":435442354,"type":"city","location":[26.9432417,-6.7550385],"bbox":[26.7832417,-6.9150385,27.1032417,-6.5950385]}
{"name":"Bambesa","display_name":"Bambesa, Bas-Uele, République démocratique du Congo","address":{"city":"Bambesa","state":"Bas-Uele","ISO3166-2-lvl4":"CD-BU","country":"République démocratique du Congo","country_code":"cd"},"osm_type":"node","osm_id":667395750,"type":"city","location":[25.6944046,3.4490912],"bbox":[25.5344046,3.2890912,25.8544046,3.6090912]}
{"name":"Bana Katanga","other_names":{"name:fr":"Bana Katanga","alt_name":"Bana Congo; Mwanashaba"},"display_name":"Bana Katanga, Katuba, Ville de Lubumbashi, Haut-Katanga, République démocratique du Congo","address":{"city":"Bana Katanga","municipality":"Katuba","county":"Ville de Lubumbashi","state":"Haut-Katanga","ISO3166-2-lvl4":"CD-HK","country":"République démocratique du Congo","country_code":"cd"},"osm_type":"relation","osm_id":5399824,"type":"administrative","location":[27.470354280223432,-11.71856355],"bbox":[27.4641286,-11.7241405,27.4760968,-11.7130181],"inferred_type":"city"}
{"name":"Bandundu","other_names":{"name:en":"Bandundu","name:fr":"Bandundu","name:hu":"Bandundu","name:ko":"반둔두","name:ru":"Бандунду","name:uk":"Бандунду","name:zh":"班顿杜","name:zh-Hans":"班顿杜"},"display_name":"Bandundu, Mampuya, Disasi, Bandundu City, Kwilu, République démocratique du Congo","address":{"city":"Bandundu","municipality":"Disasi","county":"Bandundu City","state":"Kwilu","ISO3166-2-lvl4":"CD-KL","country":"République démocratique du Congo","country_code":"cd"},"osm_type":"node","osm_id":435708712,"type":"city","location":[17.3774958,-3.3201862],"bbox":[17.2174958,-3.4801862,17.5374958,-3.1601862]}
{"name":"Baraka","display_name":"Baraka, Mutambala, Fizi, Sud-Kivu, République démocratique du Congo","address":{"city":"Baraka","municipality":"Mutambala","county":"Fizi","state":"Sud-Kivu","ISO3166-2-lvl4":"CD-SK","country":"République démocratique du Congo","country_code":"cd"},"osm_type":"node","osm_id":617136931,"type":"city","location":[29.0950688,-4.1056132],"bbox":[28.9350688,-4.2656132,29.2550688,-3.9456132]}
{"name":"Basankusu","other_names":{"name:fr":"Basankusu","name:zh":"巴桑库苏","name:zh-Hans":"巴桑库苏"},"display_name":"Basankusu, Équateur, République démocratique du Congo","address":{"city":"Basankusu","state":"Équateur","ISO3166-2-lvl4":"CD-EQ","country":"République démocratique du Congo","country_code":"cd"},"osm_type":"node","osm_id":435856567,"type":"city","location":[19.8013697,1.2191683],"bbox":[19.6413697,1.0591683,19.9613697,1.3791683]}
{"name":"Basoko","display_name":"Basoko, Tshopo, République démocratique du Congo","address":{"city":"Basoko","state":"Tshopo","ISO3166-2-lvl4":"CD-TO","country":"République démocratique du Congo","country_code":"cd"},"osm_type":"node","osm_id":435375999,"type":"city","location":[23.6056967,1.2324948],"bbox":[23.4456967,1.0724948,23.7656967,1.3924948]}
{"name":"Beni","display_name":"Beni, Nord-Kivu, République démocratique du Congo","address":{"city":"Beni","state":"Nord-Kivu","ISO3166-2-lvl4":"CD-NK","country":"République démocratique du Congo","country_code":"cd"},"osm_type":"node","osm_id":435818462,"type":"city","location":[29.4653222,0.4939335],"bbox":[29.3053222,0.3339335,29.6253222,0.6539335],"border":[{"name":"Beni","display_name":"Beni, Nord-Kivu, République démocratique du Congo","address":{"city":"Beni","state":"Nord-Kivu","ISO3166-2-lvl4":"CD-NK","country":"République démocratique du Congo","country_code":"cd"},"osm_type":"relation","osm_id":8972963,"type":"administrative","location":[29.4653222,0.4939335],"bbox":[29.3329288,0.3764087,29.5521911,0.6303495]},{"name":"Beni","display_name":"Beni, Nord-Kivu, République démocratique du Congo","address":{"county":"Beni","state":"Nord-Kivu","ISO3166-2-lvl4":"CD-NK","country":"République démocratique du Congo","country_code":"cd"},"osm_type":"relation","osm_id":5327776,"type":"administrative","location":[29.211717843210657,0.3974023],"bbox":[28.9994967,-0.1591822,29.987297,0.9541991]},{"name":"Beni","display_name":"Beni, Nord-Kivu, République démocratique du Congo","address":{"municipality":"Beni","county":"Beni","state":"Nord-Kivu","ISO3166-2-lvl4":"CD-NK","country":"République démocratique du Congo","country_code":"cd"},"osm_type":"relation","osm_id":8972962,"type":"administrative","location":[29.189300190040722,0.47606519999999997],"bbox":[28.9994967,0.2723871,29.9092859,0.9541991]}]}
{"name":"Boende","other_names":{"name:fr":"Boende","name:zh":"博恩代","name:zh-Hans":"博恩代"},"display_name":"Boende, Tshuapa, République démocratique du Congo","address":{"city":"Boende","state":"Tshuapa","ISO3166-2-lvl4":"CD-TU","country":"République démocratique du Congo","country_code":"cd"},"osm_type":"node","osm_id":435804657,"type":"city","location":[20.8826368,-0.2836634],"bbox":[20.7226368,-0.4436634,21.0426368,-0.1236634]}
{"name":"Bolobo","display_name":"Bolobo, Plateaux, Mai-Ndombe, République démocratique du Congo","address":{"city":"Bolobo","county":"Plateaux","state":"Mai-Ndombe","ISO3166-2-lvl4":"CD-MN","country":"République démocratique du Congo","country_code":"cd"},"population":31366,"osm_type":"node","osm_id":29808924,"type":"city","location":[16.23333,-2.166682],"bbox":[16.07333,-2.326682,16.39333,-2.006682]}
{"name":"Boma","other_names":{"name:en":"Boma","name:ko":"보마","name:ru":"Бома","name:uk":"Бома","name:zh":"博马","name:zh-Hans":"博马"},"display_name":"Boma, Kongo-Central, République démocratique du Congo","address":{"city":"Boma","state":"Kongo-Central","ISO3166-2-lvl4":"CD-BC","country":"République démocratique du Congo","country_code":"cd"},"population":162521,"osm_type":"node","osm_id":29806459,"type":"city","location":[13.05,-5.85],"bbox":[12.89,-6.01,13.21,-5.69],"border":{"name":"Boma","other_names":{"name:fr":"Boma","name:zh":"博马","name:zh-Hans":"博马","name:en":"Boma","name:ko":"보마","name:ru":"Бома","name:uk":"Бома"},"display_name":"Boma, Kongo-Central, République démocratique du Congo","address":{"city":"Boma","state":"Kongo-Central","ISO3166-2-lvl4":"CD-BC","country":"République démocratique du Congo","country_code":"cd"},"population":162521,"osm_type":"relation","osm_id":5327839,"type":"administrative","location":[13.05,-5.85],"bbox":[12.6170608,-6.0117002,13.4813,-5.5145645]}}
{"name":"Budikadidi","other_names":{"name:fr":"Budikadidi","official_name":"Quartier de Budikadidi"},"display_name":"Budikadidi, Mabondo, Kasaï, République démocratique du Congo","address":{"city":"Budikadidi","municipality":"Mabondo","state":"Kasaï","ISO3166-2-lvl4":"CD-KS","country":"République démocratique du Congo","country_code":"cd"},"osm_type":"relation","osm_id":14499906,"type":"administrative","location":[20.817356602150703,-6.41351145],"bbox":[20.8133666,-6.420007,20.8214894,-6.4070418],"inferred_type":"city"}
{"name":"Bukama","display_name":"Bukama, Haut-Lomami, République démocratique du Congo","address":{"city":"Bukama","county":"Bukama","state":"Haut-Lomami","ISO3166-2-lvl4":"CD-HL","country":"République démocratique du Congo","country_code":"cd"},"osm_type":"node","osm_id":77186850,"type":"city","location":[25.8525231,-9.2020365],"bbox":[25.6925231,-9.3620365,26.0125231,-9.0420365],"border":{"name":"Bukama","display_name":"Bukama, Haut-Lomami, République démocratique du Congo","address":{"county":"Bukama","state":"Haut-Lomami","ISO3166-2-lvl4":"CD-HL","country":"République démocratique du Congo","country_code":"cd"},"osm_type":"relation","osm_id":5328045,"type":"administrative","location":[26.11795568776143,-8.85350395],"bbox":[25.4946357,-9.7279336,26.8636546,-7.9794334]}}
{"name":"Bukavu","other_names":{"name:de":"Bukavu","name:fr":"Bukavu","name:ko":"부카부","name:ru":"Букаву","name:sr":"Букаву","name:uk":"Букаву","name:ur":"بوکاوو","name:azb":"بوکاوا"},"display_name":"Bukavu, Sud-Kivu, République démocratique du Congo","address":{"city":"Bukavu","state":"Sud-Kivu","ISO3166-2-lvl4":"CD-SK","country":"République démocratique du Congo","country_code":"cd"},"osm_type":"node","osm_id":436044301,"type":"city","location":[28.8594885,-2.5055839],"bbox":[28.6994885,-2.6655839,29.0194885,-2.3455839],"border":{"name":"Bukavu","other_names":{"name:fr":"Bukavu","name:de":"Bukavu","name:ko":"부카부","name:ru":"Букаву","name:sr":"Букаву","name:uk":"Букаву","name:ur":"بوکاوو","name:azb":"بوکاوا"},"display_name":"Bukavu, Sud-Kivu, République démocratique du Congo","address":{"city":"Bukavu","state":"Sud-Kivu","ISO3166-2-lvl4":"CD-SK","country":"République démocratique du Congo","country_code":"cd"},"osm_type":"relation","osm_id":5327777,"type":"administrative","location":[28.8594885,-2.5055839],"bbox":[28.7936943,-2.5611686,28.8930976,-2.4601557]}}
{"name":"Bukitu","other_names":{"name:fr":"Bukitu","official_name":"Quartier de Bukitu"},"display_name":"Bukitu, Mabondo, Kasaï, République démocratique du Congo","address":{"city":"Bukitu","municipality":"Mabondo","state":"Kasaï","ISO3166-2-lvl4":"CD-KS","country":"République démocratique du Congo","country_code":"cd"},"osm_type":"relation","osm_id":14499908,"type":"administrative","location":[20.812759956838867,-6.41582105],"bbox":[20.8086593,-6.4219834,20.8154976,-6.4096026],"inferred_type":"city"}
{"name":"Bumba","other_names":{"name:en":"Bumba","name:ru":"Бумба","name:uk":"Бумба","name:zh":"本巴","name:zh-Hans":"本巴"},"display_name":"Bumba, Territoire de Bumba, Mongala, République démocratique du Congo","address":{"city":"Bumba","state":"Mongala","ISO3166-2-lvl4":"CD-MO","country":"République démocratique du Congo","country_code":"cd"},"osm_type":"node","osm_id":435402271,"type":"city","location":[22.466526,2.1837441],"bbox":[22.306526,2.0237441,22.626526,2.3437441],"border":{"name":"Territoire de Bumba","other_names":{"name:fr":"Territoire de Bumba","name:zh":"本巴地区","name:zh-Hans":"本巴地区","name:en":"Bumba","name:ru":"Бумба","name:uk":"Бумба","alt":"Bumba","alt:zh":"本巴","alt:zh-Hans":"本巴"},"display_name":"Territoire de Bumba, Mongala, République démocratique du Congo","address":{"city":"Territoire de Bumba","state":"Mongala","ISO3166-2-lvl4":"CD-MO","country":"République démocratique du Congo","country_code":"cd"},"osm_type":"relation","osm_id":402103,"type":"administrative","location":[22.466526,2.1837441],"bbox":[21.6431741,2.0142711,23.5796067,3.3333298]}}
{"name":"Bunia","other_names":{"name:bg":"Буниа","name:de":"Bunia","name:ru":"Буниа"},"display_name":"Bunia, Ituri, République démocratique du Congo","address":{"city":"Bunia","state":"Ituri","ISO3166-2-lvl4":"CD-IT","country":"République démocratique du Congo","country_code":"cd"},"population":366126,"osm_type":"node","osm_id":83529422,"type":"city","location":[30.2478844,1.5620529],"bbox":[30.0878844,1.4020529,30.4078844,1.7220529],"border":{"name":"Bunia","other_names":{"name:fr":"Bunia","name:bg":"Буниа","name:de":"Bunia","name:ru":"Буниа"},"display_name":"Bunia, Ituri, République démocratique du Congo","address":{"city":"Bunia","state":"Ituri","ISO3166-2-lvl4":"CD-IT","country":"République démocratique du Congo","country_code":"cd"},"population":366126,"osm_type":"relation","osm_id":11701911,"type":"administrative","location":[30.2478844,1.5620529],"bbox":[30.2019808,1.5009829,30.3171688,1.6070549]}}
{"name":"Buta","other_names":{"name:en":"Buta","name:fr":"Buta","name:ru":"Бута","name:uk":"Бута","name:zh":"布塔","name:zh-Hans":"布塔"},"display_name":"Buta, Bas-Uele, République démocratique du Congo","address":{"city":"Buta","state":"Bas-Uele","ISO3166-2-lvl4":"CD-BU","country":"République démocratique du Congo","country_code":"cd"},"osm_type":"node","osm_id":435380660,"type":"city","location":[24.7287054,2.7932581],"bbox":[24.5687054,2.6332581,24.8887054,2.9532581]}
{"name":"Butembo","other_names":{"name:en":"Butembo","name:fr":"Butembo","name:ru":"Бутембо","name:uk":"Бутембо"},"display_name":"Butembo, Kimeni, Butembo, Nord-Kivu, République démocratique du Congo","address":{"city":"Butembo","municipality":"Kimeni","county":"Butembo","state":"Nord-Kivu","ISO3166-2-lvl4":"CD-NK","country":"République démocratique du Congo","country_code":"cd"},"osm_type":"node","osm_id":83540909,"type":"city","location":[29.2919545,0.1249694],"bbox":[29.1319545,-0.0350306,29.4519545,0.2849694],"border":{"name":"Butembo","display_name":"Butembo, Nord-Kivu, République démocratique du Congo","address":{"county":"Butembo","state":"Nord-Kivu","ISO3166-2-lvl4":"CD-NK","country":"République démocratique du Congo","country_code":"cd"},"osm_type":"relation","osm_id":8972965,"type":"administrative","location":[29.289273009581915,0.12460345],"bbox":[29.2051899,0.0536294,29.3736868,0.1953259]}}
{"name":"Camp Pinzi","other_names":{"name:fr":"Camp Pinzi","alt_name":"Pinzi"},"display_name":"Camp Pinzi, Kalamu, Kinshasa, République démocratique du Congo","address":{"city":"Camp Pinzi","municipality":"Kalamu","state":"Kinshasa","ISO3166-2-lvl4":"CD-KN","country":"République démocratique du Congo","country_code":"cd"},"osm_type":"relation","osm_id":9424437,"type":"administrative","location":[15.31572741217613,-4.3670113],"bbox":[15.3116824,-4.3693683,15.3208733,-4.3645799],"inferred_type":"city"}
{"name":"Dilolo","other_names":{"name:fr":"Dilolo","name:ru":"Дилоло"},"display_name":"Dilolo, Lualaba, République démocratique du Congo","address":{"city":"Dilolo","county":"Dilolo","state":"Lualaba","ISO3166-2-lvl4":"CD-LU","country":"République démocratique du Congo","country_code":"cd"},"osm_type":"node","osm_id":623058773,"type":"city","location":[22.343521,-10.6866393],"bbox":[22.183521,-10.8466393,22.503521,-10.5266393],"border":{"name":"Dilolo","display_name":"Dilolo, Lualaba, République démocratique du Congo","address":{"county":"Dilolo","state":"Lualaba","ISO3166-2-lvl4":"CD-LU","country":"République démocratique du Congo","country_code":"cd"},"osm_type":"relation","osm_id":193094,"type":"administrative","location":[23.30587935007261,-10.54603225],"bbox":[22.1668799,-11.264876,24.4044526,-9.827095]}}
{"name":"Djelo Binza","other_names":{"name:fr":"Djelo Binza","alt_name":"Ndjelo Mbinza"},"display_name":"Djelo Binza, Ngaliema, Kinshasa, République démocratique du Congo","address":{"city":"Djelo Binza","municipality":"Ngaliema","state":"Kinshasa","ISO3166-2-lvl4":"CD-KN","country":"République démocratique du Congo","country_code":"cd"},"osm_type":"relation","osm_id":10994980,"type":"administrative","location":[15.254232325008346,-4.39052845],"bbox":[15.2480364,-4.401675,15.2603101,-4.3790975],"inferred_type":"city"}
{"name":"Dugbia","other_names":{"name:fr":"Dugbia","alt_name":"MaiMoke"},"display_name":"Dugbia, Bas-Uele, République démocratique du Congo","address":{"city":"Dugbia","state":"Bas-Uele","ISO3166-2-lvl4":"CD-BU","country":"République démocratique du Congo","country_code":"cd"},"osm_type":"node","osm_id":12544871155,"type":"city","location":[24.1846579,3.9718809],"bbox":[24.0246579,3.8118809,24.3446579,4.1318809]}
{"name":"Gemena","other_names":{"name:en":"Gemena","name:fr":"Gemena","name:ru":"Гемена","name:zh":"盖梅纳","name:zh-Hans":"盖梅纳"},"display_name":"Gemena, Sud-Ubangi, République démocratique du Congo","address":{"city":"Gemena","state":"Sud-Ubangi","ISO3166-2-lvl4":"CD-SU","country":"République démocratique du Congo","country_code":"cd"},"osm_type":"node","osm_id":256605435,"type":"city","location":[19.7750831,3.2549286],"bbox":[19.6150831,3.0949286,19.9350831,3.4149286]}
{"name":"Goma","other_names":{"name:de":"Goma","name:en":"Goma","name:ko":"고마","name:ru":"Гома","name:uk":"Гома"},"display_name":"Goma, Nord-Kivu, République démocratique du Congo","address":{"city":"Goma","state":"Nord-Kivu","ISO3166-2-lvl4":"CD-NK","country":"République démocratique du Congo","country_code":"cd"},"population":2000000,"osm_type":"node","osm_id":60715164,"type":"city","location":[29.225652,-1.6665685],"bbox":[29.065652,-1.8265685,29.385652,-1.5065685],"border":[{"name":"Goma","other_names":{"name:fr":"Goma","name:de":"Goma","name:en":"Goma","name:ko":"고마","name:ru":"Гома","name:uk":"Гома"},"display_name":"Goma, Nord-Kivu, République démocratique du Congo","address":{"city":"Goma","state":"Nord-Kivu","ISO3166-2-lvl4":"CD-NK","country":"République démocratique du Congo","country_code":"cd"},"population":2000000,"osm_type":"relation","osm_id":5327779,"type":"administrative","location":[29.225652,-1.6665685],"bbox":[29.1152527,-1.7004673,29.2600789,-1.5950959]},{"name":"Goma","display_name":"Goma, Nord-Kivu, République démocratique du Congo","address":{"city_district":"Goma","city":"Goma","state":"Nord-Kivu","ISO3166-2-lvl4":"CD-NK","country":"République démocratique du Congo","country_code":"cd"},"osm_type":"relation","osm_id":9592317,"type":"administrative","location":[29.180184978268763,-1.65377185],"bbox":[29.1152527,-1.7004673,29.24508,-1.6070303]}]}
{"display_name":"Haut-Uele, République démocratique du Congo","address":{"state":"Haut-Uele","ISO3166-2-lvl4":"CD-HU","country":"République démocratique du Congo","country_code":"cd"},"osm_type":"way","osm_id":613401165,"type":"city","location":[28.556645137119993,3.5969659],"bbox":[28.5454456,3.5771659,28.5817856,3.6161859]}
{"name":"Idiofa","display_name":"Idiofa, Kwilu, République démocratique du Congo","address":{"city":"Idiofa","county":"Kwilu","state":"Kwilu","ISO3166-2-lvl4":"CD-KL","country":"République démocratique du Congo","country_code":"cd"},"osm_type":"node","osm_id":620926685,"type":"city","location":[19.5885243,-4.9699217],"bbox":[19.4285243,-5.1299217,19.7485243,-4.8099217]}
{"name":"Ilebo","other_names":{"name:fr":"Ilebo","name:ko":"일레보","name:ru":"Илебо","name:uk":"Ілебо","old_name":"Port-Francqui"},"display_name":"Ilebo, Kasaï, République démocratique du Congo","address":{"city":"Ilebo","state":"Kasaï","ISO3166-2-lvl4":"CD-KS","country":"République démocratique du Congo","country_code":"cd"},"osm_type":"node","osm_id":254492355,"type":"city","location":[20.5882508,-4.3316446],"bbox":[20.4282508,-4.4916446,20.7482508,-4.1716446]}
{"name":"Immo-Congo","other_names":{"name:fr":"Immo-Congo","alt_name":"Immo Congo"},"display_name":"Immo-Congo, Kalamu, Kinshasa, République démocratique du Congo","address":{"city":"Immo-Congo","municipality":"Kalamu","state":"Kinshasa","ISO3166-2-lvl4":"CD-KN","country":"République démocratique du Congo","country_code":"cd"},"osm_type":"relation","osm_id":9424453,"type":"administrative","location":[15.323562594258332,-4.336567349999999],"bbox":[15.3201556,-4.3414174,15.3270541,-4.3315917],"inferred_type":"city"}
{"name":"Isiro","other_names":{"name:fr":"Isiro","name:ru":"Исиро","name:uk":"Ісіро","name:zh":"伊西里奥","old_name":"Paulis","name:zh-Hans":"伊西里奥"},"display_name":"Isiro, Haut-Uele, République démocratique du Congo","address":{"city":"Isiro","state":"Haut-Uele","ISO3166-2-lvl4":"CD-HU","country":"République démocratique du Congo","country_code":"cd"},"osm_type":"node","osm_id":478528026,"type":"city","location":[27.6208169,2.7742702],"bbox":[27.4608169,2.6142702,27.7808169,2.9342702]}
{"name":"Kalemie","other_names":{"name:de":"Kalemie","name:fr":"Kalemie","name:ko":"칼레미","name:ru":"Калемие","alt_name":"Kalémié","old_name":"Albertville","alt_name:fr":"Kalémié","old_name:fr":"Albertville","old_name:nl":"Albertstad"},"display_name":"Kalemie, Tanganyika, République démocratique du Congo","address":{"city":"Kalemie","state":"Tanganyika","ISO3166-2-lvl4":"CD-TA","country":"République démocratique du Congo","country_code":"cd"},"population":355126,"osm_type":"node","osm_id":3415627480,"type":"city","location":[29.1967172,-5.9460209],"bbox":[29.0367172,-6.1060209,29.3567172,-5.7860209],"border":{"name":"Kalemie","other_names":{"name:fr":"Kalemie","name:de":"Kalemie","name:ko":"칼레미","name:ru":"Калемие","alt_name":"Kalémié","old_name":"Albertville","alt_name:fr":"Kalémié","old_name:fr":"Albertville","old_name:nl":"Albertstad"},"display_name":"Kalemie, Tanganyika, République démocratique du Congo","address":{"city":"Kalemie","state":"Tanganyika","ISO3166-2-lvl4":"CD-TA","country":"République démocratique du Congo","country_code":"cd"},"population":355126,"osm_type":"relation","osm_id":9330398,"type":"administrative","location":[29.1967172,-5.9460209],"bbox":[29.1211724,-6.0011211,29.2724252,-5.8352138]}}
{"name":"Kambove","display_name":"Kambove, Haut-Katanga, République démocratique du Congo","address":{"city":"Kambove","state":"Haut-Katanga","ISO3166-2-lvl4":"CD-HK","country":"République démocratique du Congo","country_code":"cd"},"osm_type":"node","osm_id":629648642,"type":"city","location":[26.5959708,-10.8760688],"bbox":[26.4359708,-11.0360688,26.7559708,-10.7160688]}
{"name":"Kamina","other_names":{"name:fr":"Kamina","name:ko":"카미나","name:ru":"Камина"},"display_name":"Kamina, Haut-Lomami, République démocratique du Congo","address":{"city":"Kamina","state":"Haut-Lomami","ISO3166-2-lvl4":"CD-HL","country":"République démocratique du Congo","country_code":"cd"},"osm_type":"node","osm_id":436003765,"type":"city","location":[25.0032201,-8.7351826],"bbox":[24.8432201,-8.8951826,25.1632201,-8.5751826]}
{"name":"Kananga","other_names":{"name:en":"Kananga","name:fr":"Kananga","name:ko":"카낭가","name:ru":"Кананга","name:uk":"Кананга"},"display_name":"Kananga, Lulua, Kasaï-Central, République démocratique du Congo","address":{"city":"Kananga","county":"Lulua","state":"Kasaï-Central","ISO3166-2-lvl4":"CD-KC","country":"République démocratique du Congo","country_code":"cd"},"osm_type":"node","osm_id":435579903,"type":"city","location":[22.408589,-5.8951725],"bbox":[22.248589,-6.0551725,22.568589,-5.7351725]}
{"name":"Kanyama","other_names":{"name:ru":"Каниама","alt_name":"Kaniama"},"display_name":"Kanyama, Kaniama, Haut-Lomami, République démocratique du Congo","address":{"city":"Kanyama","state":"Haut-Lomami","ISO3166-2-lvl4":"CD-HL","country":"République démocratique du Congo","country_code":"cd"},"osm_type":"node","osm_id":621169404,"type":"city","location":[24.1715794,-7.5094813],"bbox":[24.0115794,-7.6694813,24.3315794,-7.3494813],"border":{"name":"Kaniama","other_names":{"name:fr":"territoire de Kaniama","alt_name":"Kanyama","alt_name:fr":"territoire de Kanyama","name:ru":"Каниама","_place_alt_name":"Kaniama","alt":"Kanyama"},"display_name":"Kaniama, Haut-Lomami, République démocratique du Congo","address":{"city":"Kaniama","state":"Haut-Lomami","ISO3166-2-lvl4":"CD-HL","country":"République démocratique du Congo","country_code":"cd"},"osm_type":"relation","osm_id":11925117,"type":"administrative","location":[24.1715794,-7.5094813],"bbox":[23.6343252,-8.7870859,24.6734151,-6.9017223]}}
{"name":"Kapinga","other_names":{"name:fr":"Kapinga","alt_name":"Kapinga Bapu"},"display_name":"Kapinga, Barumbu, Kinshasa, République démocratique du Congo","address":{"city":"Kapinga","municipality":"Barumbu","state":"Kinshasa","ISO3166-2-lvl4":"CD-KN","country":"République démocratique du Congo","country_code":"cd"},"osm_type":"relation","osm_id":9400359,"type":"administrative","location":[15.326555842567258,-4.320511],"bbox":[15.3235557,-4.3225637,15.3302514,-4.3174085],"inferred_type":"city"}
{"name":"Kasaï 1","other_names":{"name:fr":"Kasaï 1","official_name":"Quartier de Kasaï 1"},"display_name":"Kasaï 1, Mabondo, Kasaï, République démocratique du Congo","address":{"city":"Kasaï 1","municipality":"Mabondo","state":"Kasaï","ISO3166-2-lvl4":"CD-KS","country":"République démocratique du Congo","country_code":"cd"},"osm_type":"relation","osm_id":14499909,"type":"administrative","location":[20.81024346647739,-6.4171004],"bbox":[20.8061622,-6.4230136,20.8128718,-6.4112045],"inferred_type":"city"}
{"name":"Kasaï 2","other_names":{"name:fr":"Kasaï 2","official_name":"Quartier de Kasaï 2"},"display_name":"Kasaï 2, Mabondo, Kasaï, République démocratique du Congo","address":{"city":"Kasaï 2","municipality":"Mabondo","state":"Kasaï","ISO3166-2-lvl4":"CD-KS","country":"République démocratique du Congo","country_code":"cd"},"osm_type":"relation","osm_id":14499910,"type":"administrative","location":[20.80610436366784,-6.4201696],"bbox":[20.8014885,-6.4275954,20.8117362,-6.4130104],"inferred_type":"city"}
{"name":"Kasaï","other_names":{"name:fr":"Kasaï","alt_name":"Kasai"},"display_name":"Kasaï, Barumbu, Kinshasa, République démocratique du Congo","address":{"city":"Kasaï","municipality":"Barumbu","state":"Kinshasa","ISO3166-2-lvl4":"CD-KN","country":"République démocratique du Congo","country_code":"cd"},"osm_type":"relation","osm_id":9400358,"type":"administrative","location":[15.320657281220114,-4.320772699999999],"bbox":[15.3176246,-4.3235248,15.3238322,-4.3186584],"inferred_type":"city"}
{"name":"Kenge","other_names":{"name:fr":"Kenge","name:zh":"肯盖","name:zh-Hans":"肯盖"},"display_name":"Kenge, Kwango, République démocratique du Congo","address":{"city":"Kenge","state":"Kwango","ISO3166-2-lvl4":"CD-KG","country":"République démocratique du Congo","country_code":"cd"},"osm_type":"node","osm_id":663316914,"type":"city","location":[17.038692,-4.8059503],"bbox":[16.878692,-4.9659503,17.198692,-4.6459503]}
{"name":"Khartoum","other_names":{"name:fr":"Khartoum","alt_name":"Karthoum"},"display_name":"Khartoum, Ngiri-Ngiri, Kinshasa, République démocratique du Congo","address":{"city":"Khartoum","municipality":"Ngiri-Ngiri","state":"Kinshasa","ISO3166-2-lvl4":"CD-KN","country":"République démocratique du Congo","country_code":"cd"},"osm_type":"relation","osm_id":9420667,"type":"administrative","location":[15.306724334350495,-4.3554206],"bbox":[15.3038017,-4.3585166,15.3105796,-4.3505251],"inferred_type":"city"}
{"name":"Kikwit","other_names":{"name:en":"Kikwit","name:fr":"Kikwit","name:ko":"키퀴트","name:ru":"Киквит","name:uk":"Кіквіт","name:zh":"基奎特","alt_name":"Kitwit","name:zh-Hans":"基奎特"},"display_name":"Kikwit, Lukolela, Kikwit, Kwilu, République démocratique du Congo","address":{"city":"Kikwit","municipality":"Lukolela","county":"Kikwit","state":"Kwilu","ISO3166-2-lvl4":"CD-KL","country":"République démocratique du Congo","country_code":"cd"},"osm_type":"node","osm_id":4882355591,"type":"city","location":[18.8178447,-5.0383083],"bbox":[18.6578447,-5.1983083,18.9778447,-4.8783083],"border":[{"name":"Kikwit","display_name":"Kikwit, Kwilu, République démocratique du Congo","address":{"county":"Kikwit","state":"Kwilu","ISO3166-2-lvl4":"CD-KL","country":"République démocratique du Congo","country_code":"cd"},"osm_type":"relation","osm_id":14359090,"type":"administrative","location":[18.808744282510744,-5.0610453],"bbox":[18.7427401,-5.1247045,18.8738578,-4.9974724]},{"name":"Kwilu","other_names":{"name:fr":"Kwilu","name:zh":"基奎特","name:zh-Hans":"基奎特"},"display_name":"Kwilu, République démocratique du Congo","address":{"county":"Kwilu","state":"Kwilu","ISO3166-2-lvl4":"CD-KL","country":"République démocratique du Congo","country_code":"cd"},"osm_type":"relation","osm_id":193092,"type":"administrative","location":[18.80774897937051,-4.8502495],"bbox":[16.479342,-6.4011226,20.2051345,-3.2990398]}]}
{"name":"Kindu","other_names":{"name:en":"Kindu","name:ko":"킨두","name:ru":"Кинду","name:uk":"Кінду"},"display_name":"Kindu, Kailo, Maniema, République démocratique du Congo","address":{"city":"Kindu","state":"Maniema","ISO3166-2-lvl4":"CD-MA","country":"République démocratique du Congo","country_code":"cd"},"population":170000,"osm_type":"node","osm_id":435514019,"type":"city","location":[25.9184499,-2.9493766],"bbox":[25.7584499,-3.1093766,26.0784499,-2.7893766],"border":{"name":"Kailo","other_names":{"name:fr":"Kailo","name:en":"Kindu","name:ko":"킨두","name:ru":"Кинду","name:uk":"Кінду","alt":"Kindu"},"display_name":"Kailo, Maniema, République démocratique du Congo","address":{"city":"Kailo","state":"Maniema","ISO3166-2-lvl4":"CD-MA","country":"République démocratique du Congo","country_code":"cd"},"population":170000,"osm_type":"relation","osm_id":5327788,"type":"administrative","location":[25.9184499,-2.9493766],"bbox":[24.4707881,-3.3502032,26.9405949,-1.4037492]}}
{"name":"Kinshasa","other_names":{"name:ab":"Киншаса","name:am":"ኪንሻሳ","name:ar":"كينشاسا","name:az":"Kinşasa","name:ba":"Киншаса","name:be":"Кіншаса","name:bg":"Киншаса","name:bn":"কিনশাসা","name:bo":"ཀིན་ཤ་ས།","name:br":"Kinshasa","name:ca":"Kinshasa","name:ce":"Киншаса","name:cs":"Kinshasa","name:de":"Kinshasa","name:el":"Κινσάσα","name:en":"Kinshasa","name:eo":"Kinŝaso","name:es":"Kinsasa","name:fa":"کینشاسا","name:fr":"Kinshasa","name:fy":"Kinsjasa","name:ga":"Cinseasa","name:gn":"Kĩsása","name:he":"קינשאסה","name:hi":"किन्शासा","name:ht":"Kinchasa","name:hu":"Kinshasa","name:hy":"Կինշասա","name:is":"Kinsasa","name:ja":"キンシャサ","name:ka":"კინშასა","name:kg":"Kinsasa","name:kk":"Киншаса","name:km":"គីនសាសា","name:kn":"ಕಿನ್ಶಾಸಾ","name:ko":"킨샤사","name:ku":"Kînşasa","name:ky":"Киншаса","name:ln":"Kinsásá","name:lt":"Kinšasa","name:lv":"Kinšasa","name:mk":"Киншаса","name:ml":"കിൻഷസ","name:mr":"किन्शासा","name:my":"ကင်ရှာဆာမြို့","name:nl":"Kinshasa","name:nv":"Teełtah Hahazteel","name:oc":"Kinshasa","name:os":"Киншаса","name:pa":"ਕਿਨਸ਼ਾਸਾ","name:pl":"Kinszasa","name:ps":"کینشاسا","name:pt":"Kinshasa","name:ru":"Киншаса","name:sd":"ڪنشاسا","name:sl":"Kinšasa","name:sr":"Киншаса","name:sv":"Kinshasa","name:sw":"Kinshasa","name:ta":"கின்ஷாசா","name:tg":"Киншаса","name:th":"กินชาซา","name:tk":"Kinşasa","name:tr":"Kinşasa","name:tt":"Kinşasa","name:ug":"كىنشاسا","name:uk":"Кіншаса","name:ur":"کنشاسا","name:wa":"Kinchassa","name:yi":"קינשאזע","name:zh":"金沙萨/金沙薩","name:arz":"كينشاسا","name:ckb":"کینشاسا","name:mhr":"Киншаса","name:mrj":"Киншаса","name:pnb":"کنشاسہ","name:rue":"Кіншаса","name:sah":"Киншаса","name:udm":"Киншаса","name:yue":"金沙薩","old_name":"Léopoldville","name:bat-smg":"Kinšasa","name:zh-Hans":"金沙萨","name:zh-Hant":"金沙薩"},"display_name":"Kinshasa, Aketi, Kinshasa, République démocratique du Congo","address":{"city":"Kinshasa","municipality":"Kinshasa","state":"Kinshasa","ISO3166-2-lvl4":"CD-KN","country":"République démocratique du Congo","country_code":"cd"},"population":17032322,"osm_type":"node","osm_id":27043346,"type":"city","location":[15.3122511,-4.32171],"bbox":[15.1522511,-4.48171,15.4722511,-4.16171],"border":{"name":"Kinshasa","display_name":"Kinshasa, République démocratique du Congo","address":{"municipality":"Kinshasa","state":"Kinshasa","ISO3166-2-lvl4":"CD-KN","country":"République démocratique du Congo","country_code":"cd"},"osm_type":"relation","osm_id":388103,"type":"administrative","location":[15.311847390363127,-4.32194025],"bbox":[15.3027387,-4.3339911,15.3211305,-4.3104843]}}
{"name":"Kirumba","display_name":"Kirumba, Lubero, Nord-Kivu, République démocratique du Congo","address":{"city":"Kirumba","county":"Lubero","state":"Nord-Kivu","ISO3166-2-lvl4":"CD-NK","country":"République démocratique du Congo","country_code":"cd"},"osm_type":"node","osm_id":4713759630,"type":"city","location":[29.1885684,-0.5597066],"bbox":[29.0285684,-0.7197066,29.3485684,-0.3997066]}
{"name":"Kisangani","other_names":{"name:de":"Kisangani","name:fr":"Kisangani","name:ko":"키상가니","name:lt":"Kisanganis","name:ru":"Кисангани","name:uk":"Кісангані","old_name":"Stanleyville","old_name:fr":"Stanleyville"},"display_name":"Kisangani, Tshopo, République démocratique du Congo","address":{"city":"Kisangani","state":"Tshopo","ISO3166-2-lvl4":"CD-TO","country":"République démocratique du Congo","country_code":"cd"},"osm_type":"node","osm_id":29809156,"type":"city","location":[25.2057292,0.5184021],"bbox":[25.0457292,0.3584021,25.3657292,0.6784021]}
{"name":"Kolwezi","other_names":{"name:de":"Kolwezi","name:en":"Kolwezi","name:fr":"Kolwezi","name:ko":"콜웨지","name:ru":"Колвези","name:uk":"Колвезі"},"display_name":"Kolwezi, Mutshatsha, Lualaba, République démocratique du Congo","address":{"city":"Kolwezi","county":"Mutshatsha","state":"Lualaba","ISO3166-2-lvl4":"CD-LU","country":"République démocratique du Congo","country_code":"cd"},"population":453147,"osm_type":"node","osm_id":435755862,"type":"city","location":[25.4669918,-10.7169952],"bbox":[25.3069918,-10.8769952,25.6269918,-10.5569952],"border":{"name":"Kolwezi","display_name":"Kolwezi, Lualaba, République démocratique du Congo","address":{"county":"Kolwezi","state":"Lualaba","ISO3166-2-lvl4":"CD-LU","country":"République démocratique du Congo","country_code":"cd"},"osm_type":"relation","osm_id":11250678,"type":"administrative","location":[25.49482437283848,-10.73864205],"bbox":[25.4454887,-10.7829108,25.5536009,-10.6732651]}}
{"name":"Kongolo","display_name":"Kongolo, Tanganyika, République démocratique du Congo","address":{"city":"Kongolo","state":"Tanganyika","ISO3166-2-lvl4":"CD-TA","country":"République démocratique du Congo","country_code":"cd"},"osm_type":"node","osm_id":435668339,"type":"city","location":[26.9992427,-5.3856439],"bbox":[26.8392427,-5.5456439,27.1592427,-5.2256439]}
{"display_name":"Kwango, République démocratique du Congo","address":{"state":"Kwango","ISO3166-2-lvl4":"CD-KG","country":"République démocratique du Congo","country_code":"cd"},"osm_type":"way","osm_id":381137721,"type":"city","location":[18.418307207328525,-7.5571973],"bbox":[18.4024183,-7.5619915,18.4270321,-7.5525659]}
{"display_name":"Kwango, République démocratique du Congo","address":{"state":"Kwango","ISO3166-2-lvl4":"CD-KG","country":"République démocratique du Congo","country_code":"cd"},"osm_type":"way","osm_id":381127557,"type":"city","location":[17.468732016237308,-7.913574949999999],"bbox":[17.4632542,-7.9181311,17.4709338,-7.9089544]}
{"name":"Libenge","display_name":"Libenge, Sud-Ubangi, République démocratique du Congo","address":{"city":"Libenge","county":"Libenge","state":"Sud-Ubangi","ISO3166-2-lvl4":"CD-SU","country":"République démocratique du Congo","country_code":"cd"},"osm_type":"node","osm_id":612128950,"type":"city","location":[18.6357362,3.6529378],"bbox":[18.4757362,3.4929378,18.7957362,3.8129378],"border":{"name":"Libenge","other_names":{"name:fr":"Libenge","name:sv":"Libenge","name:ceb":"Libenge"},"display_name":"Libenge, Sud-Ubangi, République démocratique du Congo","address":{"county":"Libenge","state":"Sud-Ubangi","ISO3166-2-lvl4":"CD-SU","country":"République démocratique du Congo","country_code":"cd"},"osm_type":"relation","osm_id":11719860,"type":"administrative","location":[18.96757168000161,3.76138465],"bbox":[18.4102067,2.7480954,19.5111903,4.7748413]}}
{"name":"Likasi","other_names":{"name:fr":"Likasi","name:ko":"리카시","name:ru":"Ликаси","name:uk":"Лікасі","old_name":"Jadotstad;Jadotville","old_name:fr":"Jadotville","old_name:nl":"Jadotstad"},"display_name":"Likasi, Haut-Katanga, République démocratique du Congo","address":{"city":"Likasi","state":"Haut-Katanga","ISO3166-2-lvl4":"CD-HK","country":"République démocratique du Congo","country_code":"cd"},"osm_type":"node","osm_id":435789385,"type":"city","location":[26.7397418,-10.9891601],"bbox":[26.5797418,-11.1491601,26.8997418,-10.8291601]}
{"name":"Likati","display_name":"Likati, Mobati-Boyele, Aketi, Bas-Uele, République démocratique du Congo","address":{"city":"Likati","municipality":"Mobati-Boyele","county":"Aketi","state":"Bas-Uele","ISO3166-2-lvl4":"CD-BU","country":"République démocratique du Congo","country_code":"cd"},"osm_type":"node","osm_id":4853946100,"type":"city","location":[23.8885454,3.362353],"bbox":[23.7285454,3.202353,24.0485454,3.522353]}
{"name":"Lisala","other_names":{"name:ru":"Лисала","name:zh":"利萨拉","name:zh-Hans":"利萨拉"},"display_name":"Lisala, Mongala, République démocratique du Congo","address":{"city":"Lisala","state":"Mongala","ISO3166-2-lvl4":"CD-MO","country":"République démocratique du Congo","country_code":"cd"},"osm_type":"node","osm_id":435259164,"type":"city","location":[21.5156742,2.1473937],"bbox":[21.3556742,1.9873937,21.6756742,2.3073937],"border":{"name":"Lisala","other_names":{"name:fr":"Lisala","name:zh":"利萨拉","name:zh-Hans":"利萨拉","name:ru":"Лисала"},"display_name":"Lisala, Mongala, République démocratique du Congo","address":{"city":"Lisala","state":"Mongala","ISO3166-2-lvl4":"CD-MO","country":"République démocratique du Congo","country_code":"cd"},"osm_type":"relation","osm_id":11719784,"type":"administrative","location":[21.5156742,2.1473937],"bbox":[19.7739051,1.8501499,21.8149034,3.2495455]}}
{"name":"Lodja","display_name":"Lodja, Sankuru, République démocratique du Congo","address":{"city":"Lodja","state":"Sankuru","ISO3166-2-lvl4":"CD-SA","country":"République démocratique du Congo","country_code":"cd"},"osm_type":"node","osm_id":616107947,"type":"city","location":[23.5995098,-3.5241628],"bbox":[23.4395098,-3.6841628,23.7595098,-3.3641628]}
{"name":"Lubumbashi","other_names":{"name:ar":"لوبومباشي","name:be":"Лубумбашы","name:cs":"Lubumbashi","name:de":"Lubumbashi","name:el":"Λουμπουμπάσι","name:en":"Lubumbashi","name:eo":"Lubumbaŝo","name:es":"Lubumbashi","name:fr":"Lubumbashi","name:he":"לובומבאשי","name:hr":"Lubumbashi","name:hy":"Լուբումբաշի","name:ka":"ლუბუმბაში","name:ko":"루붐바시","name:nl":"Lubumbashi","name:pt":"Lubumbashi","name:ru":"Лубумбаши","name:sl":"Lubumbaši","name:sr":"Лубумбаши","name:uk":"Лубумбаші","name:zh":"卢本巴希","old_name":"Elisabethville","old_name:fr":"Élisabethville","old_name:nl":"Elisabethstad"},"display_name":"Lubumbashi, Makutano, Ville de Lubumbashi, Haut-Katanga, République démocratique du Congo","address":{"city":"Lubumbashi","county":"Ville de Lubumbashi","state":"Haut-Katanga","ISO3166-2-lvl4":"CD-HK","country":"République démocratique du Congo","country_code":"cd"},"population":1139064,"osm_type":"node","osm_id":27564973,"type":"city","location":[27.4826264,-11.6642316],"bbox":[27.3226264,-11.8242316,27.6426264,-11.5042316]}
{"name":"Lubutu","display_name":"Lubutu, Maniema, République démocratique du Congo","address":{"city":"Lubutu","state":"Maniema","ISO3166-2-lvl4":"CD-MA","country":"République démocratique du Congo","country_code":"cd"},"population":7822,"osm_type":"node","osm_id":3679354870,"type":"city","location":[26.5815525,-0.7403356],"bbox":[26.4215525,-0.9003356,26.7415525,-0.5803356],"border":{"name":"Lubutu","display_name":"Lubutu, Maniema, République démocratique du Congo","address":{"city":"Lubutu","state":"Maniema","ISO3166-2-lvl4":"CD-MA","country":"République démocratique du Congo","country_code":"cd"},"population":7822,"osm_type":"relation","osm_id":5327790,"type":"administrative","location":[26.5815525,-0.7403356],"bbox":[26.0639004,-1.41316,27.8586888,0.0095165]}}
{"name":"Lungudi","other_names":{"name:fr":"Lungudi","official_name":"Quartier de Lungudi"},"display_name":"Lungudi, Mabondo, Kasaï, République démocratique du Congo","address":{"city":"Lungudi","municipality":"Mabondo","state":"Kasaï","ISO3166-2-lvl4":"CD-KS","country":"République démocratique du Congo","country_code":"cd"},"osm_type":"relation","osm_id":14499911,"type":"administrative","location":[20.79904024842275,-6.421780849999999],"bbox":[20.7960322,-6.4293558,20.8035658,-6.4142564],"inferred_type":"city"}
{"name":"Mabondo","other_names":{"name:fr":"Mabondo","official_name":"Quartier de Mabondo"},"display_name":"Mabondo, Kasaï, République démocratique du Congo","address":{"city":"Mabondo","municipality":"Mabondo","state":"Kasaï","ISO3166-2-lvl4":"CD-KS","country":"République démocratique du Congo","country_code":"cd"},"osm_type":"relation","osm_id":14499905,"type":"administrative","location":[20.820326704156326,-6.41074155],"bbox":[20.816128,-6.4167323,20.8243022,-6.4050127],"inferred_type":"city"}
{"name":"Mampala","other_names":{"name:fr":"Mampala","alt_name":"Gécamines"},"display_name":"Mampala, Ville de Lubumbashi, Haut-Katanga, République démocratique du Congo","address":{"city":"Mampala","county":"Ville de Lubumbashi","state":"Haut-Katanga","ISO3166-2-lvl4":"CD-HK","country":"République démocratique du Congo","country_code":"cd"},"osm_type":"relation","osm_id":5400765,"type":"administrative","location":[27.449935111142292,-11.68083135],"bbox":[27.4297434,-11.6953017,27.4697452,-11.6661407],"inferred_type":"city"}
{"name":"Manono","display_name":"Manono, Tanganyika, République démocratique du Congo","address":{"city":"Manono","state":"Tanganyika","ISO3166-2-lvl4":"CD-TA","country":"République démocratique du Congo","country_code":"cd"},"osm_type":"node","osm_id":4394020835,"type":"city","location":[27.396517,-7.2981166],"bbox":[27.236517,-7.4581166,27.556517,-7.1381166]}
{"name":"Masi Manimba","display_name":"Masi Manimba, Kwilu, République démocratique du Congo","address":{"city":"Masi Manimba","county":"Kwilu","state":"Kwilu","ISO3166-2-lvl4":"CD-KL","country":"République démocratique du Congo","country_code":"cd"},"osm_type":"node","osm_id":435602020,"type":"city","location":[17.887,-4.77488],"bbox":[17.727,-4.93488,18.047,-4.61488]}
{"display_name":"Masisi, Nord-Kivu, République démocratique du Congo","address":{"town":"Masisi","state":"Nord-Kivu","ISO3166-2-lvl4":"CD-NK","country":"République démocratique du Congo","country_code":"cd"},"osm_type":"node","osm_id":2211972770,"type":"city","location":[29.050385,-1.5688168],"bbox":[28.890385,-1.7288168,29.210385,-1.4088168]}
{"name":"Matadi","other_names":{"name:en":"Matadi","name:fr":"Matadi","name:ko":"마타디","name:ru":"Матади","name:uk":"Матаді","name:zh":"马塔迪","name:zh-Hans":"马塔迪"},"display_name":"Matadi, Kongo-Central, République démocratique du Congo","address":{"city":"Matadi","county":"Matadi","state":"Kongo-Central","ISO3166-2-lvl4":"CD-BC","country":"République démocratique du Congo","country_code":"cd"},"osm_type":"node","osm_id":4882355592,"type":"city","location":[13.4609047,-5.8256559],"bbox":[13.3009047,-5.9856559,13.6209047,-5.6656559],"border":{"name":"Matadi","other_names":{"name:fr":"Matadi","name:zh":"马塔迪","name:zh-Hans":"马塔迪"},"display_name":"Matadi, Kongo-Central, République démocratique du Congo","address":{"county":"Matadi","state":"Kongo-Central","ISO3166-2-lvl4":"CD-BC","country":"République démocratique du Congo","country_code":"cd"},"osm_type":"relation","osm_id":5327845,"type":"administrative","location":[13.494820298074796,-5.79740005],"bbox":[13.4116898,-5.8865235,13.587086,-5.70628]}}
{"name":"Mbandaka","other_names":{"name:en":"Mbandaka","name:fr":"Mbandaka","name:ko":"음반다카","name:ru":"Мбандака","name:uk":"Мбандака","name:zh":"姆班达卡","name:zh-Hans":"姆班达卡"},"display_name":"Mbandaka, Wangata, Équateur, République démocratique du Congo","address":{"city":"Mbandaka","municipality":"Wangata","state":"Équateur","ISO3166-2-lvl4":"CD-EQ","country":"République démocratique du Congo","country_code":"cd"},"osm_type":"node","osm_id":29808923,"type":"city","location":[18.2564803,0.0470732],"bbox":[18.0964803,-0.1129268,18.4164803,0.2070732],"border":{"name":"Mbandaka","other_names":{"name:fr":"Mbandaka","name:ru":"Моандака","name:en":"Mbandaka","name:ko":"음반다카","name:uk":"Мбандака","name:zh":"姆班达卡","name:zh-Hans":"姆班达卡","alt:ru":"Мбандака"},"display_name":"Mbandaka, Wangata, Équateur, République démocratique du Congo","address":{"city":"Mbandaka","municipality":"Wangata","state":"Équateur","ISO3166-2-lvl4":"CD-EQ","country":"République démocratique du Congo","country_code":"cd"},"osm_type":"way","osm_id":238294439,"type":"city","location":[18.2564803,0.0470732],"bbox":[18.2272585,0.0127495,18.3022386,0.0673408]}}
{"name":"Mbanza-Ngungu","other_names":{"name:fr":"Mbanza-Ngungu","name:ko":"음반자응궁구","name:ru":"Мбанза-Нгунгу","name:zh":"姆班加恩贡古","old_name":"Thysville","name:zh-Hans":"姆班加恩贡古"},"display_name":"Mbanza-Ngungu, Kongo-Central, République démocratique du Congo","address":{"city":"Mbanza-Ngungu","county":"Mbanza-Ngungu","state":"Kongo-Central","ISO3166-2-lvl4":"CD-BC","country":"République démocratique du Congo","country_code":"cd"},"osm_type":"node","osm_id":29806457,"type":"city","location":[14.8666614,-5.2500086],"bbox":[14.7066614,-5.4100086,15.0266614,-5.0900086],"border":{"name":"Mbanza-Ngungu","other_names":{"name:fr":"Mbanza-Ngungu","name:zh":"姆班加恩贡古","name:zh-Hans":"姆班加恩贡古"},"display_name":"Mbanza-Ngungu, Kongo-Central, République démocratique du Congo","address":{"county":"Mbanza-Ngungu","state":"Kongo-Central","ISO3166-2-lvl4":"CD-BC","country":"République démocratique du Congo","country_code":"cd"},"osm_type":"relation","osm_id":5327846,"type":"administrative","location":[14.799420575937443,-5.33069605],"bbox":[14.1723632,-5.9003582,15.2780212,-4.7617837]}}
{"name":"Mbuji-Mayi","other_names":{"name:ar":"مبوجي-مايي","name:be":"Мбужы-Маі","name:cs":"Mbuji-Mayi","name:de":"Mbuji-Mayi","name:el":"Μπούτζι-Μάγι","name:en":"Mbuji-Mayi","name:eo":"Mbuji-Mayi","name:es":"Mbuji-Mayi","name:fa":"مبوجی-مایی","name:fi":"Mbuji-Mayi","name:fr":"Mbuji-Mayi","name:he":"מבוג'י-מאיי","name:hr":"Mbuji-Mayi","name:hu":"Kelet-Kasai","name:it":"Mbuji-Mayi","name:ja":"ムブジマイ","name:ka":"მბუჟი-მაიი","name:kg":"Kasâyi ya Esete","name:ko":"음부지마이","name:no":"Mbuji-Mayi","name:pl":"Mbuji-Mayi","name:pt":"Buchimaie","name:ru":"Мбужи-Майи","name:sr":"Мбуџи Маји","name:sv":"Mbuji-Mayi","name:uk":"Мбужі-Маї","name:wa":"Cassay levantrece","name:zh":"姆布吉马伊","name:zu":"Kasaï-Oriental","alt_name":"Mbujimayi","name:bar":"Mbuji-Mayi","name:ceb":"Mbuji-Mayi","name:frr":"Mbuji-Mayi","name:war":"Mbuji-Mayi","name:xmf":"მბუჟი-მაიი","old_name":"Bakwanga","alt_name:ar":"مبوجيمايي","alt_name:fr":"Mbujimayi"},"display_name":"Mbuji-Mayi, Dibindi, Ville de Mbujimayi, Kasaï-Oriental, République démocratique du Congo","address":{"city":"Mbuji-Mayi","municipality":"Dibindi","county":"Ville de Mbujimayi","state":"Kasaï-Oriental","ISO3166-2-lvl4":"CD-KE","country":"République démocratique du Congo","country_code":"cd"},"population":1680991,"osm_type":"node","osm_id":27565034,"type":"city","location":[23.5998111,-6.1258942],"bbox":[23.4398111,-6.2858942,23.7598111,-5.9658942]}
{"name":"Monganga","other_names":{"name:fr":"Monganga","alt_name":"Munganga"},"display_name":"Monganga, Ngaliema, Kinshasa, République démocratique du Congo","address":{"city":"Monganga","municipality":"Ngaliema","state":"Kinshasa","ISO3166-2-lvl4":"CD-KN","country":"République démocratique du Congo","country_code":"cd"},"osm_type":"relation","osm_id":10994983,"type":"administrative","location":[15.22690291982481,-4.357393699999999],"bbox":[15.2189462,-4.3640822,15.2352637,-4.3507612],"inferred_type":"city"}
{"name":"Musumba","display_name":"Musumba, Kapanga, Lualaba, République démocratique du Congo","address":{"city":"Musumba","county":"Kapanga","state":"Lualaba","ISO3166-2-lvl4":"CD-LU","country":"République démocratique du Congo","country_code":"cd"},"osm_type":"node","osm_id":623134082,"type":"city","location":[22.6415211,-8.3614145],"bbox":[22.4815211,-8.5214145,22.8015211,-8.2014145]}
{"name":"Mwene-Ditu","other_names":{"name:fr":"Mwene-Ditu","name:ru":"Мвене-Диту"},"display_name":"Mwene-Ditu, Kabinda, Lomami, République démocratique du Congo","address":{"city":"Mwene-Ditu","county":"Kabinda","state":"Lomami","ISO3166-2-lvl4":"CD-LO","country":"République démocratique du Congo","country_code":"cd"},"osm_type":"node","osm_id":621787290,"type":"city","location":[23.4487976,-7.006496],"bbox":[23.2887976,-7.166496,23.6087976,-6.846496]}
{"name":"Ndjandja","other_names":{"name:fr":"Ndjandja","alt_name":"Njanja"},"display_name":"Ndjandja, Kamalondo, Ville de Lubumbashi, Haut-Katanga, République démocratique du Congo","address":{"city":"Ndjandja","municipality":"Kamalondo","county":"Ville de Lubumbashi","state":"Haut-Katanga","ISO3166-2-lvl4":"CD-HK","country":"République démocratique du Congo","country_code":"cd"},"osm_type":"relation","osm_id":5400834,"type":"administrative","location":[27.484489661540906,-11.68653155],"bbox":[27.4789088,-11.6940008,27.4884574,-11.6791979],"inferred_type":"city"}
{"name":"Ndolo","other_names":{"name:fr":"Ndolo","alt_name":"N'dolo"},"display_name":"Ndolo, Barumbu, Kinshasa, République démocratique du Congo","address":{"city":"Ndolo","municipality":"Barumbu","state":"Kinshasa","ISO3166-2-lvl4":"CD-KN","country":"République démocratique du Congo","country_code":"cd"},"osm_type":"relation","osm_id":9400362,"type":"administrative","location":[15.328782709846873,-4.31428455],"bbox":[15.3245077,-4.323376,15.3357324,-4.3053299],"inferred_type":"city"}
{"name":"Ngandajika","other_names":{"name:fr":"Ngandajika","name:ru":"Гандажика","alt_name":"Gandajika"},"display_name":"Ngandajika, Kabinda, Lomami, République démocratique du Congo","address":{"city":"Ngandajika","county":"Kabinda","state":"Lomami","ISO3166-2-lvl4":"CD-LO","country":"République démocratique du Congo","country_code":"cd"},"osm_type":"node","osm_id":629539512,"type":"city","location":[23.9514378,-6.7342539],"bbox":[23.7914378,-6.8942539,24.1114378,-6.5742539]}
{"name":"Ngbaka","other_names":{"name:fr":"Ngbaka","alt_name":"Ngwaka;Gbaka"},"display_name":"Ngbaka, Kinshasa, République démocratique du Congo","address":{"city":"Ngbaka","municipality":"Kinshasa","state":"Kinshasa","ISO3166-2-lvl4":"CD-KN","country":"République démocratique du Congo","country_code":"cd"},"osm_type":"relation","osm_id":9386883,"type":"administrative","location":[15.30676798499419,-4.315558749999999],"bbox":[15.3027387,-4.3183113,15.3103782,-4.3120261],"inferred_type":"city"}
{"name":"Nkumina","other_names":{"name:fr":"Nkumina","official_name":"Quartier de Nkumina"},"display_name":"Nkumina, Mabondo, Kasaï, République démocratique du Congo","address":{"city":"Nkumina","municipality":"Mabondo","state":"Kasaï","ISO3166-2-lvl4":"CD-KS","country":"République démocratique du Congo","country_code":"cd"},"osm_type":"relation","osm_id":14499904,"type":"administrative","location":[20.82565196441812,-6.40766545],"bbox":[20.8206314,-6.4132223,20.8307165,-6.4021153],"inferred_type":"city"}
{"name":"Petit-Petit","other_names":{"name:fr":"Petit-Petit","alt_name":"Petit Petit"},"display_name":"Petit-Petit, Ngiri-Ngiri, Kinshasa, République démocratique du Congo","address":{"city":"Petit-Petit","municipality":"Ngiri-Ngiri","state":"Kinshasa","ISO3166-2-lvl4":"CD-KN","country":"République démocratique du Congo","country_code":"cd"},"osm_type":"relation","osm_id":9420669,"type":"administrative","location":[15.298057633541186,-4.3526905],"bbox":[15.2952452,-4.3557532,15.3008514,-4.3496233],"inferred_type":"city"}
{"name":"Punda","other_names":{"name:fr":"Punda","alt_name":"Mpunda"},"display_name":"Punda, Ngaliema, Kinshasa, République démocratique du Congo","address":{"city":"Punda","municipality":"Ngaliema","state":"Kinshasa","ISO3166-2-lvl4":"CD-KN","country":"République démocratique du Congo","country_code":"cd"},"osm_type":"relation","osm_id":9463061,"type":"administrative","location":[15.264428134790538,-4.3736406],"bbox":[15.2565005,-4.3784907,15.2760172,-4.3688767],"inferred_type":"city"}
{"name":"Pweto","display_name":"Pweto, Haut-Katanga, République démocratique du Congo","address":{"city":"Pweto","state":"Haut-Katanga","ISO3166-2-lvl4":"CD-HK","country":"République démocratique du Congo","country_code":"cd"},"osm_type":"node","osm_id":435622276,"type":"city","location":[28.8987099,-8.4741061],"bbox":[28.7387099,-8.6341061,29.0587099,-8.3141061]}
{"name":"Quartier 1","other_names":{"name:fr":"Quartier 1","alt_name":"Makadi"},"display_name":"Quartier 1, N'djili, Kinshasa, République démocratique du Congo","address":{"city":"Quartier 1","municipality":"N'djili","state":"Kinshasa","ISO3166-2-lvl4":"CD-KN","country":"République démocratique du Congo","country_code":"cd"},"osm_type":"relation","osm_id":10020932,"type":"administrative","location":[15.372620915528307,-4.39335925],"bbox":[15.3690646,-4.3978983,15.3759335,-4.3889273],"inferred_type":"city"}
{"name":"Quartier 10","other_names":{"name:fr":"Quartier 10","alt_name":"Tshuapa"},"display_name":"Quartier 10, N'djili, Kinshasa, République démocratique du Congo","address":{"city":"Quartier 10","municipality":"N'djili","state":"Kinshasa","ISO3166-2-lvl4":"CD-KN","country":"République démocratique du Congo","country_code":"cd"},"osm_type":"relation","osm_id":10014589,"type":"administrative","location":[15.384944053866665,-4.41141495],"bbox":[15.3801136,-4.4159133,15.3876661,-4.4066751],"inferred_type":"city"}
{"name":"Quartier 11","other_names":{"name:fr":"Quartier 11","alt_name":"Goma"},"display_name":"Quartier 11, N'djili, Kinshasa, République démocratique du Congo","address":{"city":"Quartier 11","municipality":"N'djili","state":"Kinshasa","ISO3166-2-lvl4":"CD-KN","country":"République démocratique du Congo","country_code":"cd"},"osm_type":"relation","osm_id":10021011,"type":"administrative","location":[15.386749598893784,-4.4022159],"bbox":[15.3831145,-4.4071605,15.389983,-4.3971919],"inferred_type":"city"}
{"name":"Quartier 12","other_names":{"name:fr":"Quartier 12","alt_name":"Bandundu"},"display_name":"Quartier 12, N'djili, Kinshasa, République démocratique du Congo","address":{"city":"Quartier 12","municipality":"N'djili","state":"Kinshasa","ISO3166-2-lvl4":"CD-KN","country":"République démocratique du Congo","country_code":"cd"},"osm_type":"relation","osm_id":10021010,"type":"administrative","location":[15.381896120509872,-4.394647150000001],"bbox":[15.3755275,-4.3983223,15.3900663,-4.3908518],"inferred_type":"city"}
{"name":"Quartier 13","other_names":{"name:fr":"Quartier 13","alt_name":"Inga"},"display_name":"Quartier 13, N'djili, Kinshasa, République démocratique du Congo","address":{"city":"Quartier 13","municipality":"N'djili","state":"Kinshasa","ISO3166-2-lvl4":"CD-KN","country":"République démocratique du Congo","country_code":"cd"},"osm_type":"relation","osm_id":10013409,"type":"administrative","location":[15.371369902784801,-4.4209791],"bbox":[15.3645154,-4.426543,15.3806281,-4.4153516],"inferred_type":"city"}
{"name":"Quartier 2","other_names":{"name:fr":"Quartier 2","alt_name":"Makasi"},"display_name":"Quartier 2, N'djili, Kinshasa, République démocratique du Congo","address":{"city":"Quartier 2","municipality":"N'djili","state":"Kinshasa","ISO3166-2-lvl4":"CD-KN","country":"République démocratique du Congo","country_code":"cd"},"osm_type":"relation","osm_id":10020961,"type":"administrative","location":[15.379523463521881,-4.3974399],"bbox":[15.3756074,-4.4013276,15.383623,-4.3935356],"inferred_type":"city"}
{"name":"Quartier 3","other_names":{"name:fr":"Quartier 3","alt_name":"Echangeur"},"display_name":"Quartier 3, N'djili, Kinshasa, République démocratique du Congo","address":{"city":"Quartier 3","municipality":"N'djili","state":"Kinshasa","ISO3166-2-lvl4":"CD-KN","country":"République démocratique du Congo","country_code":"cd"},"osm_type":"relation","osm_id":10014524,"type":"administrative","location":[15.380192296066916,-4.40350795],"bbox":[15.3749711,-4.406823,15.3852301,-4.400159],"inferred_type":"city"}
{"name":"Quartier 4","other_names":{"name:fr":"Quartier 4","alt_name":"Katanga"},"display_name":"Quartier 4, N'djili, Kinshasa, République démocratique du Congo","address":{"city":"Quartier 4","municipality":"N'djili","state":"Kinshasa","ISO3166-2-lvl4":"CD-KN","country":"République démocratique du Congo","country_code":"cd"},"osm_type":"relation","osm_id":10014522,"type":"administrative","location":[15.380335808826107,-4.409740449999999],"bbox":[15.3741114,-4.4137054,15.384419,-4.4055689],"inferred_type":"city"}
{"name":"Quartier 5","other_names":{"name:fr":"Quartier 5","alt_name":"Kivu"},"display_name":"Quartier 5, N'djili, Kinshasa, République démocratique du Congo","address":{"city":"Quartier 5","municipality":"N'djili","state":"Kinshasa","ISO3166-2-lvl4":"CD-KN","country":"République démocratique du Congo","country_code":"cd"},"osm_type":"relation","osm_id":10014523,"type":"administrative","location":[15.376482121960187,-4.4125409],"bbox":[15.3721534,-4.4178736,15.3812994,-4.4072343],"inferred_type":"city"}
{"name":"Quartier 6","other_names":{"name:fr":"Quartier 6","alt_name":"Kasai"},"display_name":"Quartier 6, N'djili, Kinshasa, République démocratique du Congo","address":{"city":"Quartier 6","municipality":"N'djili","state":"Kinshasa","ISO3166-2-lvl4":"CD-KN","country":"République démocratique du Congo","country_code":"cd"},"osm_type":"relation","osm_id":10014351,"type":"administrative","location":[15.370775732283985,-4.4119317],"bbox":[15.3675409,-4.4182326,15.374614,-4.4054569],"inferred_type":"city"}
{"name":"Quartier 7","other_names":{"name:fr":"Quartier 7","alt_name":"Oriental"},"display_name":"Quartier 7, N'djili, Kinshasa, République démocratique du Congo","address":{"city":"Quartier 7","municipality":"N'djili","state":"Kinshasa","ISO3166-2-lvl4":"CD-KN","country":"République démocratique du Congo","country_code":"cd"},"osm_type":"relation","osm_id":10014350,"type":"administrative","location":[15.372090028879384,-4.40135645],"bbox":[15.3675409,-4.4064422,15.3760894,-4.3962419],"inferred_type":"city"}
{"name":"Quartier 8","other_names":{"name:fr":"Quartier 8","alt_name":"Ubangi"},"display_name":"Quartier 8, N'djili, Kinshasa, République démocratique du Congo","address":{"city":"Quartier 8","municipality":"N'djili","state":"Kinshasa","ISO3166-2-lvl4":"CD-KN","country":"République démocratique du Congo","country_code":"cd"},"osm_type":"relation","osm_id":10021038,"type":"administrative","location":[15.36664426376381,-4.39644425],"bbox":[15.3615682,-4.4056784,15.3705644,-4.3871989],"inferred_type":"city"}
{"name":"Quartier 9","other_names":{"name:fr":"Quartier 9","alt_name":"Mongala"},"display_name":"Quartier 9, N'djili, Kinshasa, République démocratique du Congo","address":{"city":"Quartier 9","municipality":"N'djili","state":"Kinshasa","ISO3166-2-lvl4":"CD-KN","country":"République démocratique du Congo","country_code":"cd"},"osm_type":"relation","osm_id":10014621,"type":"administrative","location":[15.364394211559581,-4.41389785],"bbox":[15.3598667,-4.4237243,15.3693519,-4.4045871],"inferred_type":"city"}
{"name":"Saints Martyrs","other_names":{"name:fr":"Saints Martyrs","official_name":"Quartier de Saints Martyrs"},"display_name":"Saints Martyrs, Mabondo, Kasaï, République démocratique du Congo","address":{"city":"Saints Martyrs","municipality":"Mabondo","state":"Kasaï","ISO3166-2-lvl4":"CD-KS","country":"République démocratique du Congo","country_code":"cd"},"osm_type":"relation","osm_id":14499903,"type":"administrative","location":[20.85226254666061,-6.397528],"bbox":[20.8273141,-6.4147255,20.8729083,-6.3812828],"inferred_type":"city"}
{"name":"Sakania","display_name":"Sakania, Haut-Katanga, République démocratique du Congo","address":{"city":"Sakania","county":"Sakania","state":"Haut-Katanga","ISO3166-2-lvl4":"CD-HK","country":"République démocratique du Congo","country_code":"cd"},"population":10158,"osm_type":"node","osm_id":622518227,"type":"city","location":[28.5562506,-12.7489705],"bbox":[28.3962506,-12.9089705,28.7162506,-12.5889705],"border":{"name":"Sakania","display_name":"Sakania, Haut-Katanga, République démocratique du Congo","address":{"county":"Sakania","state":"Haut-Katanga","ISO3166-2-lvl4":"CD-HK","country":"République démocratique du Congo","country_code":"cd"},"osm_type":"relation","osm_id":11912737,"type":"administrative","location":[29.160623881022417,-12.601328899999999],"bbox":[27.6706871,-13.459035,29.8147861,-11.7429167]}}
{"display_name":"Tanganyika, République démocratique du Congo","address":{"state":"Tanganyika","ISO3166-2-lvl4":"CD-TA","country":"République démocratique du Congo","country_code":"cd"},"osm_type":"way","osm_id":1122764161,"type":"city","location":[26.932280253721448,-6.14731825],"bbox":[26.9250355,-6.1612159,26.940839,-6.1336327]}
{"name":"Tshela","other_names":{"name:fr":"Tshela","name:zh":"切拉","name:zh-Hans":"切拉"},"display_name":"Tshela, Kongo-Central, République démocratique du Congo","address":{"city":"Tshela","town":"Tshela","state":"Kongo-Central","ISO3166-2-lvl4":"CD-BC","country":"République démocratique du Congo","country_code":"cd"},"osm_type":"node","osm_id":1168656433,"type":"city","location":[12.93935,-4.98985],"bbox":[12.77935,-5.14985,13.09935,-4.82985],"border":{"name":"Tshela","other_names":{"name:fr":"Tshela","name:zh":"切拉","name:zh-Hans":"切拉"},"display_name":"Tshela, Kongo-Central, République démocratique du Congo","address":{"town":"Tshela","state":"Kongo-Central","ISO3166-2-lvl4":"CD-BC","country":"République démocratique du Congo","country_code":"cd"},"osm_type":"relation","osm_id":5327850,"type":"administrative","location":[12.9602161,-5.0093031],"bbox":[12.4614834,-5.3468534,13.3836451,-4.582741]}}
{"name":"Tshiela Buadi","other_names":{"name:fr":"Tshiela Buadi","official_name":"Quartier de Tshiela Buadi"},"display_name":"Tshiela Buadi, Mabondo, Kasaï, République démocratique du Congo","address":{"city":"Tshiela Buadi","municipality":"Mabondo","state":"Kasaï","ISO3166-2-lvl4":"CD-KS","country":"République démocratique du Congo","country_code":"cd"},"osm_type":"relation","osm_id":14499907,"type":"administrative","location":[20.81508600693455,-6.4145509999999994],"bbox":[20.811359,-6.4208613,20.8177493,-6.4083658],"inferred_type":"city"}
{"name":"Tshikapa","other_names":{"name:en":"Tshikapa","name:fr":"Tshikapa","name:ru":"Чикапа","name:uk":"Чікапа"},"display_name":"Tshikapa, Kasaï, République démocratique du Congo","address":{"city":"Tshikapa","state":"Kasaï","ISO3166-2-lvl4":"CD-KS","country":"République démocratique du Congo","country_code":"cd"},"osm_type":"node","osm_id":615209242,"type":"city","location":[20.7887691,-6.4230495],"bbox":[20.6287691,-6.5830495,20.9487691,-6.2630495]}
{"display_name":"Tshopo, République démocratique du Congo","address":{"state":"Tshopo","ISO3166-2-lvl4":"CD-TO","country":"République démocratique du Congo","country_code":"cd"},"osm_type":"way","osm_id":611678741,"type":"city","location":[25.182003196454517,0.5607331],"bbox":[25.1622963,0.5423735,25.1967267,0.5784689]}
{"name":"Uvira","other_names":{"name:ru":"Увира","name:uk":"Увіра","alt_name":"Kimanga"},"display_name":"Uvira, Bavira (chefferie), Uvira, Sud-Kivu, République démocratique du Congo","address":{"city":"Uvira","municipality":"Bavira (chefferie)","county":"Uvira","state":"Sud-Kivu","ISO3166-2-lvl4":"CD-SK","country":"République démocratique du Congo","country_code":"cd"},"population":170000,"osm_type":"node","osm_id":435884993,"type":"city","location":[29.1375509,-3.4055866],"bbox":[28.9775509,-3.5655866,29.2975509,-3.2455866],"border":[{"name":"Uvira","display_name":"Uvira, Sud-Kivu, République démocratique du Congo","address":{"county":"Uvira","state":"Sud-Kivu","ISO3166-2-lvl4":"CD-SK","country":"République démocratique du Congo","country_code":"cd"},"osm_type":"relation","osm_id":5327797,"type":"administrative","location":[29.007140887372955,-3.1982504],"bbox":[28.7823194,-3.6590859,29.260937,-2.7380007]},{"name":"Uvira","other_names":{"name:fr":"Uvira","name:ru":"Увира","name:uk":"Увіра","alt_name":"Kimanga"},"display_name":"Uvira, Bavira (chefferie), Uvira, Sud-Kivu, République démocratique du Congo","address":{"city":"Uvira","municipality":"Bavira (chefferie)","county":"Uvira","state":"Sud-Kivu","ISO3166-2-lvl4":"CD-SK","country":"République démocratique du Congo","country_code":"cd"},"population":170000,"osm_type":"relation","osm_id":2650257,"type":"administrative","location":[29.1375509,-3.4055866],"bbox":[29.1257268,-3.4172279,29.1445184,-3.3971954]}]}
{"name":"Yakoma","other_names":{"name:fr":"Yakoma","name:zh-Hans":"雅各马"},"display_name":"Yakoma, Nord-Ubangi, République démocratique du Congo","address":{"city":"Yakoma","state":"Nord-Ubangi","ISO3166-2-lvl4":"CD-NU","country":"République démocratique du Congo","country_code":"cd"},"osm_type":"node","osm_id":615680928,"type":"city","location":[22.4449881,4.106114],"bbox":[22.2849881,3.946114,22.6049881,4.266114]}
