{"name":"Bambari","other_names":{"name:ko":"밤바리"},"display_name":"Bambari, Ouaka, Ködörösêse tî Bêafrîka / République centrafricaine","address":{"city":"Bambari","state":"Ouaka","ISO3166-2-lvl4":"CF-UK","country":"Ködörösêse tî Bêafrîka / République centrafricaine","country_code":"cf"},"population":41356,"osm_type":"node","osm_id":4680378478,"type":"city","location":[20.6755705,5.7680014],"bbox":[20.5155705,5.6080014,20.8355705,5.9280014]}
{"name":"Bangassou","other_names":{"name:ko":"방가수","name:ru":"Бангасу","name:uk":"Банґасу"},"display_name":"Bangassou, Banguiville, Mbomou, Ködörösêse tî Bêafrîka / République centrafricaine","address":{"city":"Bangassou","state":"Mbomou","ISO3166-2-lvl4":"CF-MB","country":"Ködörösêse tî Bêafrîka / République centrafricaine","country_code":"cf"},"population":31453,"osm_type":"node","osm_id":2707959938,"type":"city","location":[22.8232963,4.743526],"bbox":[22.6632963,4.583526,22.9832963,4.903526]}
{"name":"Bangui","other_names":{"name:ar":"بانغي","name:be":"Бангі","name:bg":"Банги","name:bo":"བང་གུའི།","name:br":"Bangui","name:ca":"Bangui","name:da":"Bangui","name:de":"Bangui","name:el":"Μπανγκί","name:en":"Bangui","name:eo":"Bangio","name:es":"Bangui","name:eu":"Bangi","name:fa":"بانگوئی","name:fr":"Bangui","name:gl":"Bangui","name:he":"בנגי","name:ht":"Bangiy","name:hu":"Bangui","name:hy":"Բանգի","name:is":"Bangví","name:it":"Bangui","name:ja":"バンギ","name:ka":"ბანგი","name:ko":"방기","name:ky":"Банги","name:ln":"Bangi","name:lt":"Bangis","name:lv":"Bangi","name:mk":"Банги","name:mr":"बांगुई","name:nl":"Bangui","name:no":"Bangui","name:oc":"Bangui","name:pa":"ਬਾਂਗੀ","name:pl":"Bangi","name:ps":"بانګویی","name:pt":"Bangui","name:ru":"Банги","name:sg":"Kötä gbätä tî Bangî","name:sr":"Банги","name:sv":"Bangui","name:ta":"பாங்கி","name:tg":"Банги","name:th":"บังกี","name:tr":"Bangui","name:uk":"Бангі","name:ur":"بانگوئی","name:wo":"Bangi","name:zh":"班基","name:azb":"بانقی","name:ckb":"بانگی","name:grc":"Βαγγυῖον","name:lij":"Bangui","name:pnb":"بنگوئی","name:udm":"Банги","name:be-tarask":"Бангі"},"display_name":"Bangui, Ködörösêse tî Bêafrîka / République centrafricaine","address":{"city":"Bangui","ISO3166-2-lvl4":"CF-BGF","country":"Ködörösêse tî Bêafrîka / République centrafricaine","country_code":"cf"},"population":734350,"osm_type":"node","osm_id":27564988,"type":"city","location":[18.5835913,4.3635118],"bbox":[18.4235913,4.2035118,18.7435913,4.5235118],"border":{"name":"Bangui","other_names":{"name:ab":"Банги","name:af":"Bangui","name:am":"ባንጊ","name:an":"Bangui","name:ar":"بانغي","name:az":"Bangi","name:be":"Бангі","name:bg":"Банги","name:bn":"বাংগি","name:bo":"བང་གུའི།","name:br":"Bangui","name:bs":"Bangui","name:ca":"Bangui","name:ce":"Банги","name:cs":"Bangui","name:cy":"Bangui","name:da":"Bangui","name:de":"Bangui","name:el":"Μπανγκί","name:en":"Bangui","name:eo":"Bango","name:es":"Bangui","name:et":"Bangui","name:eu":"Bangi","name:fa":"بانگی","name:fi":"Bangui","name:fr":"Bangui","name:fy":"Bangui","name:ga":"Bangui","name:gd":"Bangui","name:gl":"Bangui","name:gn":"Vangi","name:ha":"Bangui","name:he":"בנגי","name:hi":"बैंगुई","name:hr":"Bangui","name:ht":"Bangiy","name:hu":"Bangui","name:hy":"Բանգի","name:ia":"Bangui","name:id":"Bangui","name:ie":"Bangui","name:io":"Bangui","name:is":"Bangví","name:it":"Bangui","name:ja":"バンギ","name:jv":"Bangui","name:ka":"ბანგი","name:kg":"Bangi","name:kk":"Банги","name:ko":"방기","name:kw":"Bangui","name:ky":"Банги","name:la":"Bangui","name:lb":"Bangui","name:ln":"Bangi","name:lt":"Bangis","name:lv":"Bangi","name:mk":"Банги","name:ml":"ബാൻഗുയി","name:mr":"बांगुई","name:ms":"Bangui","name:my":"ဘန်ဂီမြို့","name:nl":"Bangui","name:nn":"Bangui","name:no":"Bangui","name:oc":"Bangui","name:os":"Банги","name:pa":"ਬਾਂਗੀ","name:pl":"Bangi","name:ps":"بانګویی","name:pt":"Bangui","name:qu":"Bankhi","name:ro":"Bangui","name:ru":"Банги","name:rw":"Bangui","name:sc":"Bangui","name:sg":"Bangî","name:sh":"Bangui","name:sk":"Bangui","name:sl":"Bangui","name:sn":"Bangui","name:so":"Bangui","name:sq":"Bangui","name:sr":"Банги","name:sv":"Bangui","name:sw":"Bangui","name:ta":"பாங்கி","name:tg":"Бангӣ","name:th":"บังกี","name:tl":"Bangui","name:tr":"Bangui","name:uk":"Бангі","name:ur":"بانگوئی","name:uz":"Bangi","name:vi":"Bangui","name:vo":"Bangî","name:wo":"Bangi","name:yo":"Bangui","name:zh":"班基","name:arz":"بانجى","name:ast":"Bangui","name:avk":"Bangui","name:azb":"بانقی","name:cdo":"Bangui","name:ceb":"Bangui","name:ckb":"بانگی","name:diq":"Bangui","name:frp":"Bangui","name:frr":"Bangui","name:grc":"Βαγγυῖον","name:hak":"Bangui","name:hif":"Bangui","name:hsb":"Bangui","name:kab":"Bangi","name:lfn":"Bangui","name:lij":"Bangui","name:lmo":"Bangui","name:nah":"Bangui","name:nds":"Bangui","name:nov":"Bangui","name:pms":"Bangui","name:pnb":"بنگوئی","name:sco":"Bangui","name:smn":"Bangui","name:szl":"Bangui","name:udm":"Банги","name:vec":"Bangui","name:vep":"Bangi","name:war":"Bangui","name:wuu":"班基","name:xmf":"ბანგი","ISO3166-2":"CF-BGF","alt_name:sg":"Kötä gbätä tî Bangî","name:be-tarask":"Бангі","alt:eo":"Bangio","alt:fa":"بانگوئی","alt:sg":"Kötä gbätä tî Bangî","alt:tg":"Банги"},"display_name":"Bangui, Ködörösêse tî Bêafrîka / République centrafricaine","address":{"city":"Bangui","ISO3166-2-lvl4":"CF-BGF","country":"Ködörösêse tî Bêafrîka / République centrafricaine","country_code":"cf"},"population":734350,"osm_type":"relation","osm_id":7322726,"type":"administrative","location":[18.5835913,4.3635118],"bbox":[18.5238866,4.3236747,18.644089,4.4329846]}}
{"name":"Bégoua","display_name":"Bégoua, Ombella M'Poko, Ködörösêse tî Bêafrîka / République centrafricaine","address":{"city":"Bégoua","state":"Ombella M'Poko","ISO3166-2-lvl4":"CF-MP","country":"Ködörösêse tî Bêafrîka / République centrafricaine","country_code":"cf"},"population":264067,"osm_type":"node","osm_id":11002088568,"type":"city","location":[18.5338068,4.4530144],"bbox":[18.3738068,4.2930144,18.6938068,4.6130144]}
{"name":"Berbérati","other_names":{"name:en":"Berbérati","name:ko":"베르베라티","name:ru":"Берберати","name:uk":"Бербераті"},"display_name":"Berbérati, Mambéré-Kadéï, Ködörösêse tî Bêafrîka / République centrafricaine","address":{"city":"Berbérati","state":"Mambéré-Kadéï","ISO3166-2-lvl4":"CF-HS","country":"Ködörösêse tî Bêafrîka / République centrafricaine","country_code":"cf"},"population":76918,"osm_type":"node","osm_id":250989208,"type":"city","location":[15.7877826,4.2593379],"bbox":[15.6277826,4.0993379,15.9477826,4.4193379]}
{"name":"Bimbo","other_names":{"name:ar":"بيمبو","name:ko":"빔보","name:ru":"Бимбо","name:uk":"Бімбо"},"display_name":"Bimbo, Ombella M'Poko, Ködörösêse tî Bêafrîka / République centrafricaine","address":{"city":"Bimbo","state":"Ombella M'Poko","ISO3166-2-lvl4":"CF-MP","country":"Ködörösêse tî Bêafrîka / République centrafricaine","country_code":"cf"},"population":124176,"osm_type":"node","osm_id":2278046170,"type":"city","location":[18.5248788,4.3228138],"bbox":[18.3648788,4.1628138,18.6848788,4.4828138]}
{"name":"Birao","other_names":{"name:ar":"بيراو","name:de":"Birao","name:en":"Birao","name:es":"Birao","name:fa":"بیرائو","name:fr":"Birao","name:ru":"Бирао","name:uk":"Бірао","name:ur":"بیراو","name:arz":"بيراو","name:xmf":"ბირაო"},"display_name":"Birao, Vakaga, Ködörösêse tî Bêafrîka / République centrafricaine","address":{"city":"Birao","state":"Vakaga","ISO3166-2-lvl4":"CF-VK","country":"Ködörösêse tî Bêafrîka / République centrafricaine","country_code":"cf"},"osm_type":"node","osm_id":321486731,"type":"city","location":[22.7809907,10.2961965],"bbox":[22.6209907,10.1361965,22.9409907,10.4561965]}
{"name":"Bocaranga","display_name":"Bocaranga, Ouham-Pendé, Ködörösêse tî Bêafrîka / République centrafricaine","address":{"city":"Bocaranga","state":"Ouham-Pendé","ISO3166-2-lvl4":"CF-OP","country":"Ködörösêse tî Bêafrîka / République centrafricaine","country_code":"cf"},"population":61000,"osm_type":"node","osm_id":2294658765,"type":"city","location":[15.638835,6.995897],"bbox":[15.478835,6.835897,15.798835,7.155897]}
{"name":"Bossangoa","other_names":{"name:ko":"보상고아","name:ru":"Босангоа","name:uk":"Босанґоа"},"display_name":"Bossangoa, Ouham, Ködörösêse tî Bêafrîka / République centrafricaine","address":{"city":"Bossangoa","state":"Ouham","ISO3166-2-lvl4":"CF-AC","country":"Ködörösêse tî Bêafrîka / République centrafricaine","country_code":"cf"},"population":36478,"osm_type":"node","osm_id":931715337,"type":"city","location":[17.4463162,6.4924441],"bbox":[17.2863162,6.3324441,17.6063162,6.6524441]}
{"name":"Bouar","other_names":{"name:ru":"Буар","name:uk":"Буар"},"display_name":"Bouar, Nana-Mambéré, Ködörösêse tî Bêafrîka / République centrafricaine","address":{"city":"Bouar","state":"Nana-Mambéré","ISO3166-2-lvl4":"CF-NM","country":"Ködörösêse tî Bêafrîka / République centrafricaine","country_code":"cf"},"population":40353,"osm_type":"node","osm_id":360149027,"type":"city","location":[15.5921894,5.9354018],"bbox":[15.4321894,5.7754018,15.7521894,6.0954018]}
{"name":"Bozoum","other_names":{"name:ru":"Бозум","name:uk":"Бозум"},"display_name":"Bozoum, Ouham-Pendé, Ködörösêse tî Bêafrîka / République centrafricaine","address":{"city":"Bozoum","state":"Ouham-Pendé","ISO3166-2-lvl4":"CF-OP","country":"Ködörösêse tî Bêafrîka / République centrafricaine","country_code":"cf"},"population":20665,"osm_type":"node","osm_id":931680358,"type":"city","location":[16.3806392,6.3147379],"bbox":[16.2206392,6.1547379,16.5406392,6.4747379]}
{"name":"Bria","other_names":{"name:en":"Bria","name:ru":"Бриа","name:uk":"Бріа"},"display_name":"Bria, Haute-Kotto, Ködörösêse tî Bêafrîka / République centrafricaine","address":{"city":"Bria","state":"Haute-Kotto","ISO3166-2-lvl4":"CF-HK","country":"Ködörösêse tî Bêafrîka / République centrafricaine","country_code":"cf"},"population":35204,"osm_type":"node","osm_id":9782699503,"type":"city","location":[21.98698,6.5392451],"bbox":[21.82698,6.3792451,22.14698,6.6992451]}
{"name":"Carnot","other_names":{"name:ru":"Карно"},"display_name":"Carnot, Mambéré-Kadéï, Ködörösêse tî Bêafrîka / République centrafricaine","address":{"town":"Carnot","state":"Mambéré-Kadéï","ISO3166-2-lvl4":"CF-HS","country":"Ködörösêse tî Bêafrîka / République centrafricaine","country_code":"cf"},"population":45421,"osm_type":"relation","osm_id":16285227,"type":"city","location":[15.8688285,4.9418234],"bbox":[15.8589179,4.9290623,15.8950328,4.9583618]}
{"name":"Kaga-Bandoro","other_names":{"name:ko":"카가방도로","name:ru":"Кага-Бандоро","name:uk":"Кага-Бандоро"},"display_name":"Kaga-Bandoro, Nana-Grébizi, Ködörösêse tî Bêafrîka / République centrafricaine","address":{"city":"Kaga-Bandoro","state":"Nana-Grébizi","ISO3166-2-lvl4":"CF-KB","country":"Ködörösêse tî Bêafrîka / République centrafricaine","country_code":"cf"},"population":24661,"osm_type":"node","osm_id":2073724254,"type":"city","location":[19.182305,6.9993145],"bbox":[19.022305,6.8393145,19.342305,7.1593145]}
{"display_name":"Mambéré-Kadéï, Ködörösêse tî Bêafrîka / République centrafricaine","address":{"state":"Mambéré-Kadéï","ISO3166-2-lvl4":"CF-HS","country":"Ködörösêse tî Bêafrîka / République centrafricaine","country_code":"cf"},"population":105155,"osm_type":"relation","osm_id":11517012,"type":"city","location":[15.793224696182769,4.2593778],"bbox":[15.7581623,4.2320513,15.8143794,4.2867356]}
{"name":"Mbaïki","other_names":{"name:ru":"Мбаики","name:uk":"Мбаїкі"},"display_name":"Mbaïki, Lobaye, Ködörösêse tî Bêafrîka / République centrafricaine","address":{"city":"Mbaïki","state":"Lobaye","ISO3166-2-lvl4":"CF-LB","country":"Ködörösêse tî Bêafrîka / République centrafricaine","country_code":"cf"},"population":22166,"osm_type":"node","osm_id":1882249894,"type":"city","location":[17.9860847,3.8728278],"bbox":[17.8260847,3.7128278,18.1460847,4.0328278]}
{"name":"Mobaye","other_names":{"name:ar":"موباي","name:de":"Mobaye","name:es":"Mobaye","name:fr":"Mobaye","name:nl":"Mobaye","name:ru":"Мобае","name:sv":"Mobaye","name:uk":"Мобає","name:ur":"موبائے","name:xmf":"მობაე"},"display_name":"Mobaye, Basse-Kotto, Ködörösêse tî Bêafrîka / République centrafricaine","address":{"city":"Mobaye","state":"Basse-Kotto","ISO3166-2-lvl4":"CF-BK","country":"Ködörösêse tî Bêafrîka / République centrafricaine","country_code":"cf"},"osm_type":"node","osm_id":621872407,"type":"city","location":[21.1778122,4.3254367],"bbox":[21.0178122,4.1654367,21.3378122,4.4854367]}
{"name":"Ndélé","other_names":{"name:de":"Ndélé","name:fr":"Ndélé","name:ru":"Нделе","name:uk":"Нделе","name:ur":"ندیلے","alt_name":"N'Délé;N'Dellé","alt_name:fr":"N'Délé;N'Dellé"},"display_name":"Ndélé, Bamingui-Bangoran, Ködörösêse tî Bêafrîka / République centrafricaine","address":{"city":"Ndélé","state":"Bamingui-Bangoran","ISO3166-2-lvl4":"CF-BB","country":"Ködörösêse tî Bêafrîka / République centrafricaine","country_code":"cf"},"osm_type":"node","osm_id":2062772404,"type":"city","location":[20.648473,8.4111477],"bbox":[20.488473,8.2511477,20.808473,8.5711477]}
{"name":"Nola","other_names":{"name:ko":"놀라","name:ru":"Нола","name:uk":"Нола"},"display_name":"Nola, Sangha-Mbaéré, Ködörösêse tî Bêafrîka / République centrafricaine","address":{"city":"Nola","state":"Sangha-Mbaéré","ISO3166-2-lvl4":"CF-SE","country":"Ködörösêse tî Bêafrîka / République centrafricaine","country_code":"cf"},"population":29181,"osm_type":"node","osm_id":2845786546,"type":"city","location":[16.0535833,3.5224201],"bbox":[15.8935833,3.3624201,16.2135833,3.6824201]}
{"name":"Obo","other_names":{"name:en":"Obo","name:ru":"Обо","name:uk":"Обо"},"display_name":"Obo, Haut-Mbomou, Ködörösêse tî Bêafrîka / République centrafricaine","address":{"city":"Obo","state":"Haut-Mbomou","ISO3166-2-lvl4":"CF-HM","country":"Ködörösêse tî Bêafrîka / République centrafricaine","country_code":"cf"},"osm_type":"node","osm_id":2865088562,"type":"city","location":[26.4927242,5.3940869],"bbox":[26.3327242,5.2340869,26.6527242,5.5540869]}
{"name":"Paoua","display_name":"Paoua, Ouham-Pendé, Ködörösêse tî Bêafrîka / République centrafricaine","address":{"city":"Paoua","state":"Ouham-Pendé","ISO3166-2-lvl4":"CF-OP","country":"Ködörösêse tî Bêafrîka / République centrafricaine","country_code":"cf"},"population":17370,"osm_type":"node","osm_id":2294681219,"type":"city","location":[16.432496,7.2407],"bbox":[16.272496,7.0807,16.592496,7.4007]}
{"name":"Sibut","other_names":{"name:ru":"Сибю","name:uk":"Сіб'ю"},"display_name":"Sibut, Kémo, Ködörösêse tî Bêafrîka / République centrafricaine","address":{"city":"Sibut","state":"Kémo","ISO3166-2-lvl4":"CF-KG","country":"Ködörösêse tî Bêafrîka / République centrafricaine","country_code":"cf"},"population":22419,"osm_type":"node","osm_id":251879395,"type":"city","location":[19.0850538,5.7350828],"bbox":[18.9250538,5.5750828,19.2450538,5.8950828]}
