{"name":"Al Hareeq","display_name":"Al Hareeq, محافظة الحريق, منطقة الرياض, السعودية","address":{"town":"Al Hareeq","province":"محافظة الحريق","state":"منطقة الرياض","ISO3166-2-lvl4":"SA-01","country":"السعودية","country_code":"sa"},"osm_type":"way","osm_id":247492936,"type":"town","location":[46.507582509374146,23.6298135],"bbox":[46.4977006,23.6123654,46.5454485,23.6472379]}
{"name":"Ash Sharaf","other_names":{"name:ar":"Ash Sharaf","name:en":"Ash Sharaf","alt":"الشرف","alt:ar":"الشرف"},"display_name":"Ash Sharaf, محافظة الدوادمى, منطقة الرياض, 17431, السعودية","address":{"village":"Ash Sharaf","province":"محافظة الدوادمى","state":"منطقة الرياض","ISO3166-2-lvl4":"SA-01","postcode":"17431","country":"السعودية","country_code":"sa"},"population":1500,"osm_type":"way","osm_id":1395697854,"type":"town","location":[44.3417984,24.6148052],"bbox":[44.3380297,24.6130101,44.3442685,24.6178513]}
{"name":"أبقيق","other_names":{"name:ar":"أبقيق","name:de":"Abqaiq","name:en":"Abqaiq","name:fr":"Abqaiq","name:he":"אבקאיק","name:hi":"अबकैक","name:ko":"아브카이크","name:ml":"അബ്ഖൈഖ്","alt_name":"Abaqaiq;Abkayk;Abqaik;Abqaiq;Abqayq;Bukayk;Madinat Abqaiq;Buqayq;Buqayq"},"display_name":"أبقيق, محافظة بقيق, المنطقة الشرقية, السعودية","address":{"town":"أبقيق","province":"محافظة بقيق","state":"المنطقة الشرقية","ISO3166-2-lvl4":"SA-04","country":"السعودية","country_code":"sa"},"population":36207,"osm_type":"node","osm_id":348286415,"type":"town","location":[49.668333,25.935556],"bbox":[49.628333,25.895556,49.708333,25.975556]}
{"name":"أبو معن","other_names":{"name:ar":"أبو معن","name:en":"Bani M`en","name:ml":"അബു മാൻ"},"display_name":"أبو معن, محافظة القطيف, المنطقة الشرقية, السعودية","address":{"town":"أبو معن","province":"محافظة القطيف","state":"المنطقة الشرقية","ISO3166-2-lvl4":"SA-04","country":"السعودية","country_code":"sa"},"population":6093,"osm_type":"node","osm_id":6779587836,"type":"town","location":[49.8070335,26.6601715],"bbox":[49.7670335,26.6201715,49.8470335,26.7001715]}
{"name":"أبوالسداد","other_names":{"name:ar":"أبوالسداد","name:en":"Abu Alsadad","name:ml":"അബു അൽസദാദ്"},"display_name":"أبوالسداد, محافظة الدرب, منطقة جازان, السعودية","address":{"town":"أبوالسداد","province":"محافظة الدرب","state":"منطقة جازان","ISO3166-2-lvl4":"SA-09","country":"السعودية","country_code":"sa"},"population":5536,"osm_type":"node","osm_id":7699743950,"type":"town","location":[42.2287845,17.7252243],"bbox":[42.1887845,17.6852243,42.2687845,17.7652243]}
{"name":"أحد المسارحة","other_names":{"name:ar":"أحد المسارحة","name:en":"Ahad al Musarihah","name:fr":"Ahad al Masarihah","name:ml":"അഹദ് അൽ-മുസാറിഹ"},"display_name":"أحد المسارحة, محافظة احد المسارحه, منطقة جازان, السعودية","address":{"town":"أحد المسارحة","province":"محافظة احد المسارحه","state":"منطقة جازان","ISO3166-2-lvl4":"SA-09","country":"السعودية","country_code":"sa"},"population":25007,"osm_type":"node","osm_id":7699743951,"type":"town","location":[42.9531097,16.7106851],"bbox":[42.9131097,16.6706851,42.9931097,16.7506851]}
{"name":"أحد رفيدة","other_names":{"name:ar":"أحد رفيدة","name:en":"Ahad Rufaidah","name:fr":"Ahad Rafidah"},"display_name":"أحد رفيدة, محافظة احد رفيدة, منطقة عسير, السعودية","address":{"town":"أحد رفيدة","province":"محافظة احد رفيدة","state":"منطقة عسير","ISO3166-2-lvl4":"SA-14","country":"السعودية","country_code":"sa"},"population":57112,"osm_type":"node","osm_id":7700248106,"type":"town","location":[42.8413581,18.1814093],"bbox":[42.8013581,18.1414093,42.8813581,18.2214093]}
{"name":"أشيقر","other_names":{"name:ar":"أشيقر","name:de":"Ushayqir","name:en":"Ushayqir","name:fr":"Ushayqir","name:ml":"ഉഷൈഗർ","alt_name":"Washaiqir;Wushaqir;Wushayqir","int_name":"Ushayqir"},"display_name":"أشيقر, محافظة شقراء, منطقة الرياض, السعودية","address":{"town":"أشيقر","city":"محافظة شقراء","state":"منطقة الرياض","ISO3166-2-lvl4":"SA-01","country":"السعودية","country_code":"sa"},"osm_type":"node","osm_id":1236707960,"type":"town","location":[45.1785527,25.339137],"bbox":[45.1385527,25.299137,45.2185527,25.379137]}
{"name":"أضم","other_names":{"name:ar":"أضم","name:en":"Adham","name:fr":"Adham"},"display_name":"أضم, محافظة أضم, منطقة مكة المكرمة, السعودية","address":{"town":"أضم","province":"محافظة أضم","state":"منطقة مكة المكرمة","ISO3166-2-lvl4":"SA-02","country":"السعودية","country_code":"sa"},"population":10484,"osm_type":"node","osm_id":6768442812,"type":"town","location":[40.8791135,20.4496878],"bbox":[40.8391135,20.4096878,40.9191135,20.4896878]}
{"name":"أم الحمام","other_names":{"name:ar":"أم الحمام","name:en":"Umm Al Hamam","name:ml":"ഉമ്മുൽ ഹമാം"},"display_name":"أم الحمام, محافظة القطيف, المنطقة الشرقية, 32647, السعودية","address":{"town":"أم الحمام","province":"محافظة القطيف","state":"المنطقة الشرقية","ISO3166-2-lvl4":"SA-04","postcode":"32647","country":"السعودية","country_code":"sa"},"population":12818,"osm_type":"node","osm_id":11086438527,"type":"town","location":[49.9996375,26.5222697],"bbox":[49.9596375,26.4822697,50.0396375,26.5622697]}
{"name":"أم الدوم","other_names":{"name:ar":"أم الدوم","name:en":"Umm al Dawm","name:ml":"ഉമ്മുൽ ദൗം"},"display_name":"أم الدوم, محافظة المويه, منطقة مكة المكرمة, السعودية","address":{"town":"أم الدوم","province":"محافظة المويه","state":"منطقة مكة المكرمة","ISO3166-2-lvl4":"SA-02","country":"السعودية","country_code":"sa"},"population":6853,"osm_type":"node","osm_id":5526302860,"type":"town","location":[41.3537857,22.6277098],"bbox":[41.3137857,22.5877098,41.3937857,22.6677098]}
{"name":"أم الساهك","other_names":{"name:ar":"أم الساهك","name:de":"Umm as Sahik","name:en":"Umm as Sahik","name:fr":"Umm as Sahik","name:ml":"ഉമ്മുൽ സാഹിക്ക്","int_name":"Umm as Sāhik"},"display_name":"أم الساهك, محافظة القطيف, المنطقة الشرقية, 32833, السعودية","address":{"town":"أم الساهك","province":"محافظة القطيف","state":"المنطقة الشرقية","ISO3166-2-lvl4":"SA-04","postcode":"32833","country":"السعودية","country_code":"sa"},"population":15378,"osm_type":"node","osm_id":1237805767,"type":"town","location":[49.914093,26.6529206],"bbox":[49.874093,26.6129206,49.954093,26.6929206]}
{"name":"أملج","other_names":{"name:ar":"أملج","name:en":"Umluj","name:fr":"Umluj","name:ml":"ഉംലുജ്","alt_name":"Umm Lej;Umm Lujj;أم لج","int_name":"Umluj"},"display_name":"أملج, محافظة املج, منطقة تبوك, السعودية","address":{"town":"أملج","province":"محافظة املج","state":"منطقة تبوك","ISO3166-2-lvl4":"SA-07","country":"السعودية","country_code":"sa"},"population":37757,"osm_type":"node","osm_id":973472834,"type":"town","location":[37.2622321,25.0302778],"bbox":[37.2222321,24.9902778,37.3022321,25.0702778],"border":{"name":"محافظة املج","other_names":{"name:ar":"محافظة املج","name:en":"Umluj"},"display_name":"محافظة املج, منطقة تبوك, السعودية","address":{"province":"محافظة املج","state":"منطقة تبوك","ISO3166-2-lvl4":"SA-07","country":"السعودية","country_code":"sa"},"population":61162,"osm_type":"relation","osm_id":12420154,"type":"administrative","location":[37.49803525449069,25.2341388],"bbox":[36.4820977,24.5618431,38.03816,25.9061099]}}
{"name":"الأجفر","other_names":{"name:ar":"الأجفر","name:de":"Al Ajfar","name:en":"Al Ajfar","name:fr":"Al Ajfar","name:ml":"അൽ അജ്ഫർ","alt_name":"Al Ajfur;الأجفر;Al Ajfar;Al Ajfar","int_name":"Al Ajfar,Al Ajfur, Al Ajfar"},"display_name":"الأجفر, محافظة بقعاء, منطقة حائل, السعودية","address":{"town":"الأجفر","province":"محافظة بقعاء","state":"منطقة حائل","ISO3166-2-lvl4":"SA-06","country":"السعودية","country_code":"sa"},"osm_type":"node","osm_id":1237553769,"type":"town","location":[42.998889,27.4725],"bbox":[42.958889,27.4325,43.038889,27.5125]}
{"name":"الأرطاوية","other_names":{"name:ar":"الأرطاوية","name:de":"Al Artawiyah","name:en":"Al Artawiyah","name:fr":"Al Artawiyah","name:ml":"അൽ-ഇർത്താവിയ","alt_name":"Al Irtawiya;Al Irtāwīya;Artawiyah;Arţāwīyah;Artawiyya;Al Arţāwīyah;Al Artawiyah"},"display_name":"الأرطاوية, محافظة المجمعة, منطقة الرياض, السعودية","address":{"town":"الأرطاوية","province":"محافظة المجمعة","state":"منطقة الرياض","ISO3166-2-lvl4":"SA-01","country":"السعودية","country_code":"sa"},"population":10596,"osm_type":"node","osm_id":1237835766,"type":"town","location":[45.353878,26.5063287],"bbox":[45.313878,26.4663287,45.393878,26.5463287]}
{"name":"الأسياح","other_names":{"name:ar":"الأسياح","name:en":"Al Asyah","name:ml":"അൽ അസ്യാഹ്"},"display_name":"الأسياح, محافظة الأسياح, منطقة القصيم, 51971, السعودية","address":{"town":"الأسياح","province":"محافظة الأسياح","state":"منطقة القصيم","ISO3166-2-lvl4":"SA-05","postcode":"51971","country":"السعودية","country_code":"sa"},"osm_type":"node","osm_id":11081595197,"type":"town","location":[44.2036285,26.7958412],"bbox":[44.1636285,26.7558412,44.2436285,26.8358412],"border":{"name":"محافظة الأسياح","other_names":{"name:ar":"محافظة الأسياح","name:en":"Al Asyah"},"display_name":"محافظة الأسياح, منطقة القصيم, السعودية","address":{"province":"محافظة الأسياح","state":"منطقة القصيم","ISO3166-2-lvl4":"SA-05","country":"السعودية","country_code":"sa"},"population":26336,"osm_type":"relation","osm_id":12406844,"type":"administrative","location":[44.366312430158914,27.40464385],"bbox":[43.5415096,26.5586299,44.9894666,28.2507999]}}
{"name":"الأطاولة","other_names":{"name:ar":"الأطاولة","name:de":"Al Tawilah","name:en":"Al Tawilah","name:fr":"Al Tawilah","name:ml":"അൽ തവീല","int_name":"Āl Ţāwilah"},"display_name":"الأطاولة, محافظة القرى, منطقة الباحة, السعودية","address":{"town":"الأطاولة","governorate":"محافظة القرى","state":"منطقة الباحة","ISO3166-2-lvl4":"SA-11","country":"السعودية","country_code":"sa"},"osm_type":"node","osm_id":9327998071,"type":"town","location":[41.3607144,20.2475218],"bbox":[41.3207144,20.2075218,41.4007144,20.2875218]}
{"name":"الأوجام","other_names":{"name:ar":"الأوجام","name:de":"Al Awjam","name:en":"Al Awjam","name:fr":"Al Awjam","name:ml":"അൽ ഔജാം","alt_name":"Ajam;Ajam al Qatif;Ajam al Qatīf;Al Ajam;Al Ājām;El Ajam;Lajam;Lājām;Al Awjām;Al Awjam","int_name":"Al Awjām,Ajam,Ajam al Qatif,Ajam al Qatīf,Al Ajam,Al Ājām,El Ajam,Lajam,Lājām, Al Awjam"},"display_name":"الأوجام, محافظة القطيف, المنطقة الشرقية, 32656, السعودية","address":{"town":"الأوجام","province":"محافظة القطيف","state":"المنطقة الشرقية","ISO3166-2-lvl4":"SA-04","postcode":"32656","country":"السعودية","country_code":"sa"},"population":16147,"osm_type":"node","osm_id":1237806522,"type":"town","location":[49.943889,26.562778],"bbox":[49.903889,26.522778,49.983889,26.602778]}
{"name":"الإثنين","other_names":{"name:ar":"الإثنين","name:en":"al Ithnayn","alt_name":"سوق الإثنين","int_name":"Sūq al Ithnayn"},"display_name":"الإثنين, محافظة أبها, منطقة عسير, السعودية","address":{"town":"الإثنين","province":"محافظة أبها","state":"منطقة عسير","ISO3166-2-lvl4":"SA-14","country":"السعودية","country_code":"sa"},"population":8046,"osm_type":"node","osm_id":1237751840,"type":"town","location":[42.745778,18.0395887],"bbox":[42.705778,17.9995887,42.785778,18.0795887]}
{"name":"البجادية","other_names":{"name:ar":"البجادية","name:de":"Albijadiyah","name:en":"Albijadiyah","name:fr":"Albijadiyah","name:ml":"അൽ ബിജാദിയ","alt_name":"البجادية","int_name":"Albijadiyah"},"display_name":"البجادية, محافظة الدوادمى, منطقة الرياض, السعودية","address":{"town":"البجادية","province":"محافظة الدوادمى","state":"منطقة الرياض","ISO3166-2-lvl4":"SA-01","country":"السعودية","country_code":"sa"},"osm_type":"node","osm_id":1236695896,"type":"town","location":[43.741367,24.2963201],"bbox":[43.701367,24.2563201,43.781367,24.3363201]}
{"name":"البدائع","other_names":{"name:ar":"البدائع","name:en":"Al Bada'i`","name:fr":"Al Badayea","name:ml":"അൽ ബദായി","alt_name":"Al Badaya`;Al Badāya‘;البدائع;البَدائع","int_name":"Al Badā’i‘"},"display_name":"البدائع, محافظة البدائع, منطقة القصيم, 51951, السعودية","address":{"town":"البدائع","province":"محافظة البدائع","state":"منطقة القصيم","ISO3166-2-lvl4":"SA-05","postcode":"51951","country":"السعودية","country_code":"sa"},"population":46620,"osm_type":"node","osm_id":6770266310,"type":"town","location":[43.7334802,25.9877958],"bbox":[43.6934802,25.9477958,43.7734802,26.0277958]}
{"name":"البدع","other_names":{"name:ar":"البدع","name:de":"Al Bad","name:en":"Al-Bad'","name:fr":"Al Bad","name:ml":"അൽ-ബദ്","alt_name":"Al-Bed`;Al-Bed‘;Al Badi';Al Badi’;Al Bid`;Al Bid‘;Al Bida`;Al Bida‘;Beda al Haura;Al Bada","int_name":"Al Bad‘"},"display_name":"البدع, محافظة البدع, منطقة تبوك, السعودية","address":{"town":"البدع","province":"محافظة البدع","state":"منطقة تبوك","ISO3166-2-lvl4":"SA-07","country":"السعودية","country_code":"sa"},"population":12946,"osm_type":"node","osm_id":1237951657,"type":"town","location":[35.0141103,28.4841608],"bbox":[34.9741103,28.4441608,35.0541103,28.5241608],"border":{"name":"محافظة البدع","other_names":{"name:ar":"محافظة البدع","name:en":"Al-Bad'"},"display_name":"محافظة البدع, منطقة تبوك, السعودية","address":{"province":"محافظة البدع","state":"منطقة تبوك","ISO3166-2-lvl4":"SA-07","country":"السعودية","country_code":"sa"},"osm_type":"relation","osm_id":12420158,"type":"administrative","location":[35.00870664482818,28.47579495],"bbox":[34.5710341,28.0206455,35.4048275,28.9286864]}}
{"name":"البديع الشمالي","other_names":{"name:ar":"البديع الشمالي","name:en":"Al Badi`","name:ml":"അൽ ബദീ"},"display_name":"البديع الشمالي, محافظة الافلاج, منطقة الرياض, السعودية","address":{"town":"البديع الشمالي","governorate":"محافظة الافلاج","state":"منطقة الرياض","ISO3166-2-lvl4":"SA-01","country":"السعودية","country_code":"sa"},"population":7194,"osm_type":"node","osm_id":2999668494,"type":"town","location":[46.5620911,22.0232932],"bbox":[46.5220911,21.9832932,46.6020911,22.0632932]}
{"name":"البديع","other_names":{"name:ar":"البديع","name:de":"Al Badi","name:en":"Al Badi","name:fr":"Al Badi","name:ml":"അൽ ബദീ","alt_name":"البديع","int_name":"Al Badī , Al Badi"},"display_name":"البديع, محافظة أبو عريش, منطقة جازان, السعودية","address":{"town":"البديع","province":"محافظة أبو عريش","state":"منطقة جازان","ISO3166-2-lvl4":"SA-09","country":"السعودية","country_code":"sa"},"osm_type":"node","osm_id":1237961063,"type":"town","location":[42.7746761,16.992779],"bbox":[42.7346761,16.952779,42.8146761,17.032779]}
{"name":"البشائر","other_names":{"name:ar":"البشائر","name:en":"Al Bashaer","name:ml":"അൽ ബഷായിർ"},"display_name":"البشائر, محافظة بلقرن, منطقة عسير, السعودية","address":{"town":"البشائر","province":"محافظة بلقرن","state":"منطقة عسير","ISO3166-2-lvl4":"SA-14","country":"السعودية","country_code":"sa"},"population":12021,"osm_type":"node","osm_id":1236690505,"type":"town","location":[41.9196752,19.7402585],"bbox":[41.8796752,19.7002585,41.9596752,19.7802585]}
{"name":"البطالية","other_names":{"name:ar":"البطالية","name:de":"Al Battaliyah","name:en":"Al Battaliyah","name:fr":"Al Battaliyah","int_name":"Al Baţţālīyah"},"display_name":"البطالية, المنطقة الشرقية, السعودية","address":{"town":"البطالية","state":"المنطقة الشرقية","ISO3166-2-lvl4":"SA-04","country":"السعودية","country_code":"sa"},"population":17930,"osm_type":"way","osm_id":958521889,"type":"town","location":[49.633990629190436,25.433523649999998],"bbox":[49.6234576,25.4061035,49.6500533,25.4620595]}
{"name":"البكيرية","other_names":{"name:ar":"البكيرية","name:en":"Albukayriyah","name:fr":"Boukayriyah","name:ml":"ബുക്കൈറിയ","alt_name":"Bukayriyah;Bukayrīyah;Keriya;البكيرية;Al Bukayrīyah;Al Bukayriyah"},"display_name":"البكيرية, محافظة البكيريه, منطقة القصيم, السعودية","address":{"town":"البكيرية","province":"محافظة البكيريه","state":"منطقة القصيم","ISO3166-2-lvl4":"SA-05","country":"السعودية","country_code":"sa"},"population":29547,"osm_type":"node","osm_id":1237555562,"type":"town","location":[43.6577035,26.1396183],"bbox":[43.6177035,26.0996183,43.6977035,26.1796183],"border":{"name":"محافظة البكيريه","other_names":{"name:ar":"محافظة البكيريه","name:en":"Al Bukayriyah","name:fr":"Boukayriyah","name:ml":"ബുക്കൈറിയ","alt_name":"Bukayriyah;Bukayrīyah;Keriya;البكيرية;Al Bukayrīyah;Al Bukayriyah","alt":"البكيرية","alt:ar":"البكيرية","alt:en":"Albukayriyah"},"display_name":"محافظة البكيريه, منطقة القصيم, السعودية","address":{"province":"محافظة البكيريه","state":"منطقة القصيم","ISO3166-2-lvl4":"SA-05","country":"السعودية","country_code":"sa"},"population":57621,"osm_type":"relation","osm_id":12406850,"type":"administrative","location":[43.6577035,26.1396183],"bbox":[42.6041213,26.0619401,43.7750803,26.7580801]}}
{"name":"التوبي","other_names":{"name:ar":"التوبي","name:de":"At Tubi","name:en":"At Tubi","name:fr":"At Tubi","int_name":"At Tūbī"},"display_name":"التوبي, محافظة القطيف, المنطقة الشرقية, 32641, السعودية","address":{"town":"التوبي","province":"محافظة القطيف","state":"المنطقة الشرقية","ISO3166-2-lvl4":"SA-04","postcode":"32641","country":"السعودية","country_code":"sa"},"population":8801,"osm_type":"node","osm_id":1237806482,"type":"town","location":[49.991667,26.557778],"bbox":[49.951667,26.517778,50.031667,26.597778]}
{"name":"التويثير","other_names":{"name:ar":"التويثير","name:de":"Tuwaythir","name:en":"Tuwaythir","name:fr":"Tuwaythir","int_name":"Tuwaythīr"},"display_name":"التويثير, محافظة الأحساء, المنطقة الشرقية, 36351, السعودية","address":{"town":"التويثير","city":"محافظة الأحساء","state":"المنطقة الشرقية","ISO3166-2-lvl4":"SA-04","postcode":"36351","country":"السعودية","country_code":"sa"},"population":9259,"osm_type":"node","osm_id":1237339349,"type":"town","location":[49.6903711,25.4196128],"bbox":[49.6503711,25.3796128,49.7303711,25.4596128]}
{"name":"الثقبة","other_names":{"name:ar":"الثقبة","name:de":"Ath Thuqbah","name:en":"Ath Thuqbah","name:fr":"Ath Thuqbah","name:ml":"അൽ-തുഖ്ബ","alt_name":"Al Thaqbah; Thuqba","int_name":"Ath Thuqbah"},"display_name":"الثقبة, محافظة الخبر, المنطقة الشرقية, 34612, السعودية","address":{"town":"الثقبة","province":"محافظة الخبر","state":"المنطقة الشرقية","ISO3166-2-lvl4":"SA-04","postcode":"34612","country":"السعودية","country_code":"sa"},"population":238066,"osm_type":"node","osm_id":1236774099,"type":"town","location":[50.20486,26.260217],"bbox":[50.16486,26.220217,50.24486,26.300217]}
{"name":"الثمد","other_names":{"name:ar":"الثمد","name:en":"Ath Thamad"},"display_name":"الثمد, محافظة خيبر, منطقة المدينة المنورة, السعودية","address":{"town":"الثمد","province":"محافظة خيبر","state":"منطقة المدينة المنورة","ISO3166-2-lvl4":"SA-03","country":"السعودية","country_code":"sa"},"population":8939,"osm_type":"node","osm_id":7653649386,"type":"town","location":[39.3394661,25.5279589],"bbox":[39.2994661,25.4879589,39.3794661,25.5679589]}
{"name":"الجارودية","other_names":{"name:ar":"الجارودية","name:de":"Jarudiyah","name:en":"Jarudiyah","name:fr":"Jarudiyah","name:ml":"ജാറൂദിയ","int_name":"Jarūdīyah"},"display_name":"الجارودية, محافظة القطيف, المنطقة الشرقية, 32467, السعودية","address":{"town":"الجارودية","province":"محافظة القطيف","state":"المنطقة الشرقية","ISO3166-2-lvl4":"SA-04","postcode":"32467","country":"السعودية","country_code":"sa"},"population":20986,"osm_type":"node","osm_id":1237806551,"type":"town","location":[49.984722,26.541389],"bbox":[49.944722,26.501389,50.024722,26.581389]}
{"name":"الجبيل","other_names":{"name:ar":"الجبيل","name:de":"Dschubail","name:en":"Al Jubayl","name:es":"Yubeil","name:fr":"Al Jubayl","name:ml":"അൽ ജുബൈൽ"},"display_name":"الجبيل, المنطقة الشرقية, 36351, السعودية","address":{"town":"الجبيل","state":"المنطقة الشرقية","ISO3166-2-lvl4":"SA-04","postcode":"36351","country":"السعودية","country_code":"sa"},"population":10241,"osm_type":"node","osm_id":1237339392,"type":"town","location":[49.6616357,25.407952],"bbox":[49.6216357,25.367952,49.7016357,25.447952],"border":{"name":"الجبيل","other_names":{"name:ar":"الجبيل","name:de":"Dschubail","name:en":"Jubail","name:es":"Yubeil","name:fr":"Al Jubayl","name:ml":"അൽ ജുബൈൽ","alt:en":"Al Jubayl"},"display_name":"الجبيل, المنطقة الشرقية, السعودية","address":{"town":"الجبيل","state":"المنطقة الشرقية","ISO3166-2-lvl4":"SA-04","country":"السعودية","country_code":"sa"},"population":10000,"osm_type":"way","osm_id":695579475,"type":"town","location":[49.6616357,25.407952],"bbox":[49.6349627,25.3920278,49.670284,25.4254525]}}
{"name":"الجبيلة","other_names":{"name:ar":"الجبيلة","name:de":"Al Jubaylah","name:en":"Al Jubaylah","name:fr":"Al Jubaylah","name:ml":"അൽ-ജുബൈല","alt_name":"Al Jubaila;Jabailah;Jubaila","int_name":"Al Jubaylah"},"display_name":"الجبيلة, محافظة الدرعية, منطقة الرياض, السعودية","address":{"town":"الجبيلة","province":"محافظة الدرعية","state":"منطقة الرياض","ISO3166-2-lvl4":"SA-01","country":"السعودية","country_code":"sa"},"osm_type":"node","osm_id":1236702040,"type":"town","location":[46.4448426,24.9138234],"bbox":[46.4048426,24.8738234,46.4848426,24.9538234]}
{"name":"الجرادية","other_names":{"name:ar":"الجرادية","name:de":"Al Jaradiyah","name:en":"Al Jaradiyah","name:fr":"Al Jaradiyah","name:ml":"അൽ ജറാദിയ","int_name":"Al Jarādīyah"},"display_name":"الجرادية, منطقة جازان, 83736, السعودية","address":{"town":"الجرادية","state":"منطقة جازان","ISO3166-2-lvl4":"SA-09","postcode":"83736","country":"السعودية","country_code":"sa"},"population":8488,"osm_type":"node","osm_id":1237961432,"type":"town","location":[42.911944,16.5802082],"bbox":[42.871944,16.5402082,42.951944,16.6202082]}
{"name":"الجرن","other_names":{"name:ar":"الجرن","name:de":"Al Jarn","name:en":"Al Jarn","name:fr":"Al Jarn","name:ml":"അൽ ജർൺ","alt_name":"Qaran;القرن;Al Qarn","int_name":"Al Jarn"},"display_name":"الجرن, محافظة الأحساء, المنطقة الشرقية, السعودية","address":{"town":"الجرن","city":"محافظة الأحساء","state":"المنطقة الشرقية","ISO3166-2-lvl4":"SA-04","country":"السعودية","country_code":"sa"},"population":8592,"osm_type":"node","osm_id":1237339379,"type":"town","location":[49.620911,25.513372],"bbox":[49.580911,25.473372,49.660911,25.553372]}
{"name":"الجش","other_names":{"name:ar":"الجش","name:de":"Al Jishsh","name:en":"Al Jishsh","name:fr":"Al Jishsh","name:ml":"ജിഷ്","alt_name":"Jish","int_name":"Al Jishsh"},"display_name":"الجش, محافظة القطيف, المنطقة الشرقية, 32647, السعودية","address":{"town":"الجش","province":"محافظة القطيف","state":"المنطقة الشرقية","ISO3166-2-lvl4":"SA-04","postcode":"32647","country":"السعودية","country_code":"sa"},"population":22343,"osm_type":"node","osm_id":1237806805,"type":"town","location":[49.999303,26.504954],"bbox":[49.959303,26.464954,50.039303,26.544954]}
{"name":"الجشة","other_names":{"name:ar":"الجشة","name:de":"Al Jishshah","name:en":"Al Jishshah","name:fr":"Al Jishshah","name:ml":"അൽ ജിഷ്ഷ","alt_name":"Al-Jishshan;Jashshah;Jishsha;Jishshah","int_name":"Al Jishshah"},"display_name":"الجشة, محافظة الأحساء, المنطقة الشرقية, السعودية","address":{"town":"الجشة","city":"محافظة الأحساء","state":"المنطقة الشرقية","ISO3166-2-lvl4":"SA-04","country":"السعودية","country_code":"sa"},"population":12024,"osm_type":"node","osm_id":1237339401,"type":"town","location":[49.752528,25.387592],"bbox":[49.712528,25.347592,49.792528,25.427592]}
{"name":"الجعرانة","other_names":{"name:ar":"الجعرانة","name:de":"Al Juranah","name:en":"Al Juranah","name:fr":"Al Juranah","name:ml":"അൽ ജുറാന","alt_name":"الجعرانة","int_name":"Al Ju rānah, Al Juranah"},"display_name":"الجعرانة, محافظة مكة المكرمة, منطقة مكة المكرمة, السعودية","address":{"town":"الجعرانة","city":"محافظة مكة المكرمة","state":"منطقة مكة المكرمة","ISO3166-2-lvl4":"SA-02","country":"السعودية","country_code":"sa"},"osm_type":"node","osm_id":1236463867,"type":"town","location":[39.9565879,21.5603995],"bbox":[39.9165879,21.5203995,39.9965879,21.6003995]}
{"name":"الجفر","other_names":{"name:ar":"الجفر","name:de":"Al Jafr","name:en":"Al Jafr","name:fr":"Al Jafr","name:ml":"അൽ ജഫർ","alt_name":"Bab-al-Jafar;Bāb-al-Jafar;Djafar;Jafar;Jafr","int_name":"Al Jafr"},"display_name":"الجفر, محافظة الأحساء, المنطقة الشرقية, السعودية","address":{"town":"الجفر","city":"محافظة الأحساء","state":"المنطقة الشرقية","ISO3166-2-lvl4":"SA-04","country":"السعودية","country_code":"sa"},"population":9707,"osm_type":"node","osm_id":1237339378,"type":"town","location":[49.72154,25.377358],"bbox":[49.68154,25.337358,49.76154,25.417358]}
{"name":"الجله","other_names":{"name:ar":"الجله","name:en":"Al Jilh","name:ml":"അൽ ജിൽഹ്","int_name":"Al Jilh"},"display_name":"الجله, محافظة القويعيه, منطقة الرياض, السعودية","address":{"town":"الجله","city":"محافظة القويعيه","state":"منطقة الرياض","ISO3166-2-lvl4":"SA-01","country":"السعودية","country_code":"sa"},"osm_type":"node","osm_id":6774461484,"type":"town","location":[45.8056297,24.3383216],"bbox":[45.7656297,24.2983216,45.8456297,24.3783216]}
{"name":"الجموم","other_names":{"name:ar":"الجموم","name:en":"Al Jumum","name:fr":"Al Jumum","name:ml":"അൽ ജുമുമ്","alt_name":"Al Jumun;Al Jumūn;Jumum","int_name":"Al Jumūm"},"display_name":"الجموم, محافظة الجموم, منطقة مكة المكرمة, السعودية","address":{"town":"الجموم","province":"محافظة الجموم","state":"منطقة مكة المكرمة","ISO3166-2-lvl4":"SA-02","country":"السعودية","country_code":"sa"},"population":25601,"osm_type":"node","osm_id":1236466181,"type":"town","location":[39.6989787,21.621168],"bbox":[39.6589787,21.581168,39.7389787,21.661168],"border":{"name":"محافظة الجموم","other_names":{"name:ar":"محافظة الجموم","name:en":"Al Jumum"},"display_name":"محافظة الجموم, منطقة مكة المكرمة, 10928, السعودية","address":{"province":"محافظة الجموم","state":"منطقة مكة المكرمة","ISO3166-2-lvl4":"SA-02","postcode":"10928","country":"السعودية","country_code":"sa"},"population":92222,"osm_type":"relation","osm_id":12429523,"type":"administrative","location":[40.213511222826085,21.999115099999997],"bbox":[39.20483,21.4622101,40.62057,22.5353701]}}
{"name":"الحائر","other_names":{"name:ar":"الحائر","name:de":"Al Hair","name:en":"Al Hair","name:fr":"Al Hair","name:ml":"അൽ ഹായിർ","alt_name":"الحائر","int_name":"Al Ḩāir,Hair,Hayyir, Al Hair"},"display_name":"الحائر, محافظة الرياض, منطقة الرياض, السعودية","address":{"town":"الحائر","province":"محافظة الرياض","state":"منطقة الرياض","ISO3166-2-lvl4":"SA-01","country":"السعودية","country_code":"sa"},"population":16845,"osm_type":"node","osm_id":1236705195,"type":"town","location":[46.836667,24.402222],"bbox":[46.796667,24.362222,46.876667,24.442222]}
{"name":"الحايط","other_names":{"name:ar":"الحايط","name:de":"Al Hayit","name:en":"Al Hayit","name:fr":"Al Hayit","name:ml":"അൽ ഹായിത്ത്","alt_name":"الحائط","int_name":"Al Ḩāyiţ"},"display_name":"الحايط, محافظة الحائط, منطقة حائل, السعودية","address":{"town":"الحايط","province":"محافظة الحائط","state":"منطقة حائل","ISO3166-2-lvl4":"SA-06","country":"السعودية","country_code":"sa"},"population":7125,"osm_type":"node","osm_id":1236337588,"type":"town","location":[40.4719727,25.9859762],"bbox":[40.4319727,25.9459762,40.5119727,26.0259762],"border":{"name":"محافظة الحائط","other_names":{"name:ar":"محافظة الحائط","name:en":"Al Hait","name:de":"Al Hayit","name:fr":"Al Hayit","name:ml":"അൽ ഹായിത്ത്","alt_name":"الحائط","int_name":"Al Ḩāyiţ","alt":"الحايط","alt:ar":"الحايط","alt:en":"Al Hayit"},"display_name":"محافظة الحائط, منطقة حائل, السعودية","address":{"province":"محافظة الحائط","state":"منطقة حائل","ISO3166-2-lvl4":"SA-06","country":"السعودية","country_code":"sa"},"population":7125,"osm_type":"relation","osm_id":12413063,"type":"administrative","location":[40.4719727,25.9859762],"bbox":[39.90627,25.2543901,41.2252704,26.7902498]}}
{"name":"الحديثة","other_names":{"name:ar":"الحديثة","name:de":"Al Hadithah","name:en":"Al Hadithah","name:fr":"Al Hadithah","alt_name":"Al-Hadita;Al-Ḥadîta;Al Hadidah;Al Ḩadīdah;Al Mushayritah;Haditha;Hadithah;Ḩadīthah","int_name":"Al Ḩadīthah"},"display_name":"الحديثة, محافظة القريات, منطقة الجوف, السعودية","address":{"town":"الحديثة","city":"محافظة القريات","state":"منطقة الجوف","ISO3166-2-lvl4":"SA-12","country":"السعودية","country_code":"sa"},"population":6979,"osm_type":"node","osm_id":1236744849,"type":"town","location":[37.158921,31.454449],"bbox":[37.118921,31.414449,37.198921,31.494449]}
{"name":"الحريضة","other_names":{"name:de":"Al Haridah","name:en":"Al Haridah","name:es":"Al Haridah","name:it":"Al Haridah","name:ml":"അൽ ഹറീദ","alt_name":"الحريضة,الحريضه,Al Haridah,Al Haridah,الحريضة,الحريضه,Al Haridah"},"display_name":"الحريضة, منطقة عسير, 63296, السعودية","address":{"town":"الحريضة","state":"منطقة عسير","ISO3166-2-lvl4":"SA-14","postcode":"63296","country":"السعودية","country_code":"sa"},"osm_type":"node","osm_id":9644402470,"type":"town","location":[41.9390129,17.7904063],"bbox":[41.8990129,17.7504063,41.9790129,17.8304063],"border":{"name":"الحريضة","other_names":{"name:ar":"الحريضة","name:de":"Al Haridah","name:en":"Al Haridah","name:es":"Al Haridah","name:it":"Al Haridah,Al Haridah,Al Haridah","alt_name":"الحريضة,الحريضه,Al Haridah,Al Haridah,الحريضة,الحريضه,Al Haridah","name:ml":"അൽ ഹറീദ","alt:it":"Al Haridah"},"display_name":"الحريضة, منطقة عسير, 63296, السعودية","address":{"town":"الحريضة","state":"منطقة عسير","ISO3166-2-lvl4":"SA-14","postcode":"63296","country":"السعودية","country_code":"sa"},"osm_type":"way","osm_id":758601140,"type":"town","location":[41.9390129,17.7904063],"bbox":[41.8741179,17.741994,41.951349,17.826387]}}
{"name":"الحريق","other_names":{"name:ar":"الحريق","name:de":"Al Hariq","name:en":"Al Hariq","name:fr":"Al Hariq","name:ml":"അൽ ഹറീഖ്","int_name":"Al Ḩarīq"},"display_name":"الحريق, محافظة الحريق, منطقة الرياض, 16566, السعودية","address":{"town":"الحريق","province":"محافظة الحريق","state":"منطقة الرياض","ISO3166-2-lvl4":"SA-01","postcode":"16566","country":"السعودية","country_code":"sa"},"osm_type":"node","osm_id":1236708740,"type":"town","location":[46.513889,23.633611],"bbox":[46.473889,23.593611,46.553889,23.673611],"border":{"name":"محافظة الحريق","other_names":{"name:ar":"محافظة الحريق","name:en":"Al Hariq"},"display_name":"محافظة الحريق, منطقة الرياض, السعودية","address":{"province":"محافظة الحريق","state":"منطقة الرياض","ISO3166-2-lvl4":"SA-01","country":"السعودية","country_code":"sa"},"population":14750,"osm_type":"relation","osm_id":12423678,"type":"administrative","location":[46.020829842342344,23.4052701],"bbox":[45.62111,22.9045001,46.768,23.9073701]}}
{"name":"الحلوة","other_names":{"name:ar":"الحلوة","name:de":"Al Hulwah","name:en":"Al Hulwah","name:fr":"Al Hulwah","int_name":"Al Ḩulwah"},"display_name":"الحلوة, محافظة حوطه بنى تميم, منطقة الرياض, السعودية","address":{"town":"الحلوة","city":"محافظة حوطه بنى تميم","state":"منطقة الرياض","ISO3166-2-lvl4":"SA-01","country":"السعودية","country_code":"sa"},"population":6374,"osm_type":"node","osm_id":1236708735,"type":"town","location":[46.8071362,23.4516584],"bbox":[46.7671362,23.4116584,46.8471362,23.4916584]}
{"name":"الحليلة","other_names":{"name:ar":"الحليلة","name:de":"Al Hulaylah","name:en":"Al Hulaylah","name:fr":"Al Hulaylah","int_name":"Al Hulaylah"},"display_name":"الحليلة, المنطقة الشرقية, السعودية","address":{"town":"الحليلة","state":"المنطقة الشرقية","ISO3166-2-lvl4":"SA-04","country":"السعودية","country_code":"sa"},"population":18583,"osm_type":"way","osm_id":958034613,"type":"town","location":[49.66087159927967,25.4330303],"bbox":[49.6426597,25.4245861,49.6788004,25.441094]}
{"name":"الحناكية","other_names":{"name:ar":"الحناكية","name:de":"Al Hanakiyah","name:en":"Al Hanakiyah","name:fr":"Al Hanakiyah","name:ml":"അൽ ഹനാക്കിയ","int_name":"Al Ḩanākīyah"},"display_name":"الحناكية, محافظة الحناكيه, منطقة المدينة المنورة, السعودية","address":{"town":"الحناكية","province":"محافظة الحناكيه","state":"منطقة المدينة المنورة","ISO3166-2-lvl4":"SA-03","country":"السعودية","country_code":"sa"},"population":16738,"osm_type":"node","osm_id":1236695024,"type":"town","location":[40.515278,24.879722],"bbox":[40.475278,24.839722,40.555278,24.919722]}
{"name":"الحوطة","other_names":{"name:ar":"الحوطة","name:en":"Al Haoutah","name:ml":"അൽ ഹൗത്ത"},"display_name":"الحوطة, محافظة الأحساء, المنطقة الشرقية, 36351, السعودية","address":{"town":"الحوطة","city":"محافظة الأحساء","state":"المنطقة الشرقية","ISO3166-2-lvl4":"SA-04","postcode":"36351","country":"السعودية","country_code":"sa"},"population":6547,"osm_type":"node","osm_id":7699092296,"type":"town","location":[49.7218895,25.4166096],"bbox":[49.6818895,25.3766096,49.7618895,25.4566096]}
{"name":"الحوية","other_names":{"name:ar":"الحوية","name:de":"Al Hawiyah","name:en":"Al Hawiyah","name:fr":"Al Hawiyah","name:ml":"അൽ ഹവീയ","alt_name":"Al Midhya';Al Midhyā’","int_name":"Al Ḩawīyah"},"display_name":"الحوية, محافظة الطائف, منطقة مكة المكرمة, 26576, السعودية","address":{"town":"الحوية","province":"محافظة الطائف","state":"منطقة مكة المكرمة","ISO3166-2-lvl4":"SA-02","postcode":"26576","country":"السعودية","country_code":"sa"},"population":148151,"osm_type":"node","osm_id":295933353,"type":"town","location":[40.5029502,21.4448658],"bbox":[40.4629502,21.4048658,40.5429502,21.4848658]}
{"name":"الخبراء","other_names":{"name:ar":"الخبراء","name:de":"Al Khabra","name:en":"Al Khabra","name:fr":"Al Khabra","name:ml":"അൽ ഖബ്ര","alt_name":"Khabrah;Khobara;الخبراء;Al Khabrā’;Al Khabra'"},"display_name":"الخبراء, محافظة بريدة, منطقة القصيم, السعودية","address":{"town":"الخبراء","province":"محافظة بريدة","state":"منطقة القصيم","ISO3166-2-lvl4":"SA-05","country":"السعودية","country_code":"sa"},"population":8639,"osm_type":"node","osm_id":1237557434,"type":"town","location":[43.6244595,26.0700478],"bbox":[43.5844595,26.0300478,43.6644595,26.1100478]}
{"name":"الخرخير","other_names":{"name:ar":"الخرخير","name:en":"Al Kharkhir"},"display_name":"الخرخير, محافظة شروره, منطقة نجران, السعودية","address":{"town":"الخرخير","city":"محافظة شروره","state":"منطقة نجران","ISO3166-2-lvl4":"SA-10","country":"السعودية","country_code":"sa"},"osm_type":"node","osm_id":2581289823,"type":"town","location":[51.1217354,18.8536268],"bbox":[51.0817354,18.8136268,51.1617354,18.8936268]}
{"name":"الخرمة","other_names":{"name:ar":"الخرمة","name:de":"Al Khurmah","name:en":"Al Khurmah","name:fr":"Al Khurmah","name:ml":"അൽ ഖുർമ","int_name":"Al Khurmah"},"display_name":"الخرمة, محافظة الخرمة, منطقة مكة المكرمة, السعودية","address":{"town":"الخرمة","province":"محافظة الخرمة","state":"منطقة مكة المكرمة","ISO3166-2-lvl4":"SA-02","country":"السعودية","country_code":"sa"},"population":27032,"osm_type":"node","osm_id":1236454949,"type":"town","location":[42.031793,21.9080694],"bbox":[41.991793,21.8680694,42.071793,21.9480694],"border":{"name":"محافظة الخرمة","other_names":{"name:ar":"محافظة الخرمة","name:en":"Al Khurmah"},"display_name":"محافظة الخرمة, منطقة مكة المكرمة, السعودية","address":{"province":"محافظة الخرمة","state":"منطقة مكة المكرمة","ISO3166-2-lvl4":"SA-02","country":"السعودية","country_code":"sa"},"population":42223,"osm_type":"relation","osm_id":12429527,"type":"administrative","location":[42.75912280984298,22.1427351],"bbox":[41.58969,21.3990401,43.37852,22.8864999]}}
{"name":"الخطة","other_names":{"name:ar":"الخطة","name:de":"Al Khuttah","name:en":"Al Khuttah","name:fr":"Al Khuttah","int_name":"Al Khuţţah"},"display_name":"الخطة, محافظة حائل, منطقة حائل, السعودية","address":{"town":"الخطة","province":"محافظة حائل","state":"منطقة حائل","ISO3166-2-lvl4":"SA-06","country":"السعودية","country_code":"sa"},"osm_type":"node","osm_id":1237539129,"type":"town","location":[41.732222,27.995278],"bbox":[41.692222,27.955278,41.772222,28.035278]}
{"name":"الخوبة","other_names":{"name:ar":"الخوبة","name:de":"Al Khawbah","name:en":"Al Khawbah","name:fr":"Al Khawbah","name:ml":"അൽ ഖൗബ","alt_name":"Al Khubah;Al Khūbah;Khauba;Kuba;Kūbā;Kubah;Kūbah","int_name":"Al Khawbah"},"display_name":"الخوبة, محافظة الحرث, منطقة جازان, السعودية","address":{"town":"الخوبة","province":"محافظة الحرث","state":"منطقة جازان","ISO3166-2-lvl4":"SA-09","country":"السعودية","country_code":"sa"},"osm_type":"node","osm_id":1237961271,"type":"town","location":[43.2231329,16.7890158],"bbox":[43.1831329,16.7490158,43.2631329,16.8290158]}
{"name":"الدائر","other_names":{"name:ar":"الدائر","name:de":"alddayir","name:en":"Alddayer","name:fr":"Alddayer","name:ml":"അൽ ദായെർ","name:ru":"альддайр"},"display_name":"الدائر, منطقة جازان, 83862, السعودية","address":{"town":"الدائر","state":"منطقة جازان","ISO3166-2-lvl4":"SA-09","postcode":"83862","country":"السعودية","country_code":"sa"},"population":58000,"osm_type":"node","osm_id":4941110005,"type":"town","location":[43.1331161,17.3381193],"bbox":[43.0931161,17.2981193,43.1731161,17.3781193]}
{"name":"الدرب","other_names":{"name:ar":"الدرب","name:de":"Ad Darb","name:en":"Ad Darb","name:fr":"Ad Darb","name:ml":"അദ്ദർബ്","alt_name":"Darb","int_name":"Ad Darb"},"display_name":"الدرب, محافظة الدرب, منطقة جازان, السعودية","address":{"town":"الدرب","province":"محافظة الدرب","state":"منطقة جازان","ISO3166-2-lvl4":"SA-09","country":"السعودية","country_code":"sa"},"population":8878,"osm_type":"node","osm_id":1237960408,"type":"town","location":[42.2500809,17.7334328],"bbox":[42.2100809,17.6934328,42.2900809,17.7734328],"border":{"name":"محافظة الدرب","other_names":{"name:ar":"محافظة الدرب","name:en":"Ad Darb"},"display_name":"محافظة الدرب, منطقة جازان, السعودية","address":{"province":"محافظة الدرب","state":"منطقة جازان","ISO3166-2-lvl4":"SA-09","country":"السعودية","country_code":"sa"},"population":69134,"osm_type":"relation","osm_id":12430370,"type":"administrative","location":[42.14582720987973,17.7519803],"bbox":[41.9281162,17.4458162,42.47729,18.0587401]}}
{"name":"الدرعية","other_names":{"name:ar":"الدرعية","name:de":"Ad Dir`iyah","name:en":"Ad Dir`iyah","name:fr":"Dariya","name:ml":"ദിറീയ","alt_name":"Ad Dir'iyah;Ad Dir’iyah;Al-Dir`iyya;Al-Dir‘iyya;Dara'iyah;Dara’īyah;Dariya;Deraya;Dhahara;Dhariyah;Dharīyah","int_name":"Ad Dir‘īyah"},"display_name":"الدرعية, محافظة الدرعية, منطقة الرياض, 12572, السعودية","address":{"town":"الدرعية","province":"محافظة الدرعية","state":"منطقة الرياض","ISO3166-2-lvl4":"SA-01","postcode":"12572","country":"السعودية","country_code":"sa"},"population":43269,"osm_type":"node","osm_id":1236703790,"type":"town","location":[46.5717678,24.7483029],"bbox":[46.5317678,24.7083029,46.6117678,24.7883029]}
{"name":"الدلم","other_names":{"name:ar":"الدلم","name:de":"Ad Dilam","name:en":"Ad Dilam","name:fr":"Ad Dilam","name:ml":"അൽ-ദിലം","alt_name":"Dilam","int_name":"Ad Dilam"},"display_name":"الدلم, محافظة الدلم, منطقة الرياض, السعودية","address":{"town":"الدلم","province":"محافظة الدلم","state":"منطقة الرياض","ISO3166-2-lvl4":"SA-01","country":"السعودية","country_code":"sa"},"population":40114,"osm_type":"node","osm_id":1236705168,"type":"town","location":[47.165,23.996944],"bbox":[47.125,23.956944,47.205,24.036944],"border":{"name":"محافظة الدلم","other_names":{"name:ar":"محافظة الدلم","name:en":"Ad Dilam","name:de":"Ad Dilam","name:fr":"Ad Dilam","name:ml":"അൽ-ദിലം","alt_name":"Dilam","int_name":"Ad Dilam","alt":"الدلم","alt:ar":"الدلم"},"display_name":"محافظة الدلم, منطقة الرياض, السعودية","address":{"province":"محافظة الدلم","state":"منطقة الرياض","ISO3166-2-lvl4":"SA-01","country":"السعودية","country_code":"sa"},"population":40114,"osm_type":"relation","osm_id":12423665,"type":"administrative","location":[47.165,23.996944],"bbox":[46.53048,23.4518601,47.2371434,24.3534399]}}
{"name":"الدليمية","other_names":{"name:ar":"الدليمية","name:de":"Ad Dilaymiyah","name:en":"Ad Dilaymiyah","name:fr":"Ad Dilaymiyah","name:ml":"അദ്ദിലൈമിയ","alt_name":"Ad Dulaymiyah;Ad Dulaymīyah","int_name":"Ad Dilaymīyah"},"display_name":"الدليمية, محافظة بريدة, منطقة القصيم, السعودية","address":{"town":"الدليمية","province":"محافظة بريدة","state":"منطقة القصيم","ISO3166-2-lvl4":"SA-05","country":"السعودية","country_code":"sa"},"population":5862,"osm_type":"node","osm_id":1237557709,"type":"town","location":[43.274167,26.028611],"bbox":[43.234167,25.988611,43.314167,26.068611]}
{"name":"الدوادمي","other_names":{"name:ar":"الدوادمي","name:fr":"Al-Duwadmi","name:bn":"দাওয়াদিমী","name:de":"Ad Dawadimi","name:en":"Ad Dawadimi","name:ku":"Dewadimî","name:ml":"ദവാദിമി","int_name":"Ad Dawādimī","name:ckb":"دەوادمی","alt:fr":"Ad Dawadimi"},"display_name":"الدوادمي, محافظة الدوادمى, منطقة الرياض, السعودية","address":{"city":"الدوادمي","province":"محافظة الدوادمى","state":"منطقة الرياض","ISO3166-2-lvl4":"SA-01","country":"السعودية","country_code":"sa"},"population":61834,"osm_type":"way","osm_id":382641861,"type":"town","location":[44.383333,24.494167],"bbox":[44.3426897,24.4635921,44.4638611,24.5717894]}
{"name":"الذيبية","other_names":{"name:ar":"الذيبية","name:en":"Adh Dhibiyah","name:ml":"അദ്ദിബിയ","name:arz":"الذيبيه","official_name":"مركز الذيبية","official_name:ar":"مركز الذيبية"},"display_name":"الذيبية, محافظة بريدة, منطقة القصيم, 51924, السعودية","address":{"town":"الذيبية","province":"محافظة بريدة","state":"منطقة القصيم","ISO3166-2-lvl4":"SA-05","postcode":"51924","country":"السعودية","country_code":"sa"},"population":5068,"osm_type":"node","osm_id":7650532028,"type":"town","location":[43.1575814,26.0301804],"bbox":[43.1175814,25.9901804,43.1975814,26.0701804]}
{"name":"الذيبية","other_names":{"name:ar":"الذيبية","name:en":"AL THIYBIA","alt_name":"AL THIYBIA","int_name":"AL THIYBIA"},"display_name":"الذيبية, محافظة حفر الباطن, المنطقة الشرقية, السعودية","address":{"town":"الذيبية","province":"محافظة حفر الباطن","state":"المنطقة الشرقية","ISO3166-2-lvl4":"SA-04","country":"السعودية","country_code":"sa"},"population":14442,"osm_type":"node","osm_id":1013645726,"type":"town","location":[45.6670708,28.1220478],"bbox":[45.6270708,28.0820478,45.7070708,28.1620478]}
{"name":"الرايس","other_names":{"name:ar":"الرايس","name:de":"Ar Rayyis","name:en":"Ar Rayyis","name:fr":"Ar Rayyis","name:ml":"അർ-റായിസ്","int_name":"Ar Rayyis"},"display_name":"الرايس, محافظة بدر, منطقة المدينة المنورة, السعودية","address":{"town":"الرايس","county":"محافظة بدر","state":"منطقة المدينة المنورة","ISO3166-2-lvl4":"SA-03","country":"السعودية","country_code":"sa"},"osm_type":"node","osm_id":1237964824,"type":"town","location":[38.6033637,23.5750573],"bbox":[38.5633637,23.5350573,38.6433637,23.6150573]}
{"name":"الرفيعة","other_names":{"name:ar":"الرفيعة","name:en":"Ar Rafiah","name:ml":"അർ-റഫീയ","alt_name":"جرارة","old_name":"جرارة"},"display_name":"الرفيعة, محافظة قرية العليا, المنطقة الشرقية, السعودية","address":{"town":"الرفيعة","state":"المنطقة الشرقية","ISO3166-2-lvl4":"SA-04","country":"السعودية","country_code":"sa"},"osm_type":"node","osm_id":1236770242,"type":"town","location":[47.066667,27.011944],"bbox":[47.026667,26.971944,47.106667,27.051944]}
{"name":"الرميلة","other_names":{"name:ar":"الرميلة","name:en":"Ar Rumailah","name:ml":"അർ-റുമൈല"},"display_name":"الرميلة, محافظة الأحساء, المنطقة الشرقية, 36351, السعودية","address":{"town":"الرميلة","city":"محافظة الأحساء","state":"المنطقة الشرقية","ISO3166-2-lvl4":"SA-04","postcode":"36351","country":"السعودية","country_code":"sa"},"population":9068,"osm_type":"node","osm_id":7699092297,"type":"town","location":[49.7283268,25.4138187],"bbox":[49.6883268,25.3738187,49.7683268,25.4538187]}
{"name":"الرويضة","other_names":{"name:ar":"الرويضة","name:de":"Ar Ruwaydah","name:en":"Ar Ruwaydah","name:fr":"Ar Ruwaydah","name:ml":"അർ-റുവൈദ","int_name":"Ar Ruwayḑah"},"display_name":"الرويضة, محافظة القويعيه, منطقة الرياض, السعودية","address":{"town":"الرويضة","city":"محافظة القويعيه","state":"منطقة الرياض","ISO3166-2-lvl4":"SA-01","country":"السعودية","country_code":"sa"},"population":6478,"osm_type":"node","osm_id":1236421438,"type":"town","location":[44.7584819,23.7618986],"bbox":[44.7184819,23.7218986,44.7984819,23.8018986]}
{"name":"الريان","other_names":{"name:ar":"الريان","name:de":"Al Rayyan","name:en":"Al Rayyan","name:fr":"AL Rayyan","name:ml":"അർ-റയ്യാൻ","alt_name":"AL Rayyan","int_name":"Ar Rayyān"},"display_name":"الريان, محافظة أبو عريش, منطقة جازان, السعودية","address":{"town":"الريان","province":"محافظة أبو عريش","state":"منطقة جازان","ISO3166-2-lvl4":"SA-09","country":"السعودية","country_code":"sa"},"osm_type":"node","osm_id":1237961075,"type":"town","location":[42.6927044,16.9761297],"bbox":[42.6527044,16.9361297,42.7327044,17.0161297]}
{"name":"الريث","other_names":{"name:ar":"الريث","name:de":"Ar Rayth","name:en":"Ar Rayth","name:fr":"Ar Rayth","int_name":"Ar Rayth"},"display_name":"الريث, محافظة الريث, منطقة جازان, السعودية","address":{"town":"الريث","village":"محافظة الريث","state":"منطقة جازان","ISO3166-2-lvl4":"SA-09","country":"السعودية","country_code":"sa"},"osm_type":"node","osm_id":1237961077,"type":"town","location":[42.8566753,17.603945],"bbox":[42.8166753,17.563945,42.8966753,17.643945]}
{"name":"الرين","other_names":{"name:ar":"الرين","name:de":"Ar Rayn","name:en":"Ar Rayn","name:fr":"Ar Rayn","name:ml":"അർ-റൈൻ","int_name":"Ar Rayn"},"display_name":"الرين, محافظة الرين, منطقة الرياض, السعودية","address":{"town":"الرين","province":"محافظة الرين","state":"منطقة الرياض","ISO3166-2-lvl4":"SA-01","country":"السعودية","country_code":"sa"},"osm_type":"node","osm_id":1236421402,"type":"town","location":[45.5108048,23.5406188],"bbox":[45.4708048,23.5006188,45.5508048,23.5806188],"border":{"name":"محافظة الرين","other_names":{"name:ar":"محافظة الرين","name:en":"Ar Rayn"},"display_name":"محافظة الرين, منطقة الرياض, السعودية","address":{"province":"محافظة الرين","state":"منطقة الرياض","ISO3166-2-lvl4":"SA-01","country":"السعودية","country_code":"sa"},"osm_type":"relation","osm_id":12423681,"type":"administrative","location":[45.287645362517054,23.086341150000003],"bbox":[44.2465821,22.2096001,45.98489,23.9575789]}}
{"name":"الزلفي","other_names":{"name:ar":"الزلفي","name:de":"Az Zulfi","name:en":"Az Zulfi","name:fr":"Az Zulfi","name:ml":"സിൽഫി","alt_name":"Az Zilfi;Az Zilfī;Zilfi;الزلفي;Az Zulfī;Az Zulfi","int_name":"Az Zulfi,Az Zilfi,Az Zilfī,Zilfi, Az Zulfi"},"display_name":"الزلفي, محافظة الزلفى, منطقة الرياض, السعودية","address":{"town":"الزلفي","province":"محافظة الزلفى","state":"منطقة الرياض","ISO3166-2-lvl4":"SA-01","country":"السعودية","country_code":"sa"},"population":60867,"osm_type":"node","osm_id":1236359819,"type":"town","location":[44.8151967,26.2995806],"bbox":[44.7751967,26.2595806,44.8551967,26.3395806],"border":{"name":"محافظة الزلفى","other_names":{"name:ar":"محافظة الزلفى","name:en":"Az Zulfi","name:de":"Az Zulfi","name:fr":"Az Zulfi","name:ml":"സിൽഫി","alt_name":"Az Zilfi;Az Zilfī;Zilfi;الزلفي;Az Zulfī;Az Zulfi","int_name":"Az Zulfi,Az Zilfi,Az Zilfī,Zilfi, Az Zulfi","alt":"الزلفي","alt:ar":"الزلفي"},"display_name":"محافظة الزلفى, منطقة الرياض, السعودية","address":{"province":"محافظة الزلفى","state":"منطقة الرياض","ISO3166-2-lvl4":"SA-01","country":"السعودية","country_code":"sa"},"population":69294,"osm_type":"relation","osm_id":12423674,"type":"administrative","location":[44.8151967,26.2995806],"bbox":[44.3839333,25.9702271,45.09648,27.0169499]}}
{"name":"السفانية","other_names":{"name:ar":"السفانية","name:de":"As Saffaniyah","name:en":"As Saffaniyah","name:fr":"As Saffaniyah","name:ml":"അൽ സഫാനിയ","int_name":"As Saffānīyah"},"display_name":"السفانية, محافظة الخفجي, المنطقة الشرقية, السعودية","address":{"town":"السفانية","province":"محافظة الخفجي","state":"المنطقة الشرقية","ISO3166-2-lvl4":"SA-04","country":"السعودية","country_code":"sa"},"population":6259,"osm_type":"node","osm_id":1237805458,"type":"town","location":[48.7300322,27.970833],"bbox":[48.6900322,27.930833,48.7700322,28.010833]}
{"name":"السليل","other_names":{"name:ar":"السليل","name:de":"As Sulayyil","name:en":"As Sulayyil","name:fr":"As Sulayyil","name:he":"אל סולאייל","name:ml":"അസ്സുലയ്യിൽ","int_name":"As Sulayyil"},"display_name":"السليل, محافظة السليل, منطقة الرياض, السعودية","address":{"town":"السليل","province":"محافظة السليل","state":"منطقة الرياض","ISO3166-2-lvl4":"SA-01","country":"السعودية","country_code":"sa"},"population":26639,"osm_type":"node","osm_id":1014939985,"type":"town","location":[45.574444,20.459722],"bbox":[45.534444,20.419722,45.614444,20.499722],"border":{"name":"محافظة السليل","other_names":{"name:ar":"محافظة السليل","name:en":"As Sulayyil","name:de":"As Sulayyil","name:fr":"As Sulayyil","name:he":"אל סולאייל","name:ml":"അസ്സുലയ്യിൽ","int_name":"As Sulayyil","alt":"السليل","alt:ar":"السليل"},"display_name":"محافظة السليل, منطقة الرياض, السعودية","address":{"province":"محافظة السليل","state":"منطقة الرياض","ISO3166-2-lvl4":"SA-01","country":"السعودية","country_code":"sa"},"population":36383,"osm_type":"relation","osm_id":12423668,"type":"administrative","location":[45.574444,20.459722],"bbox":[45.01406,19.2083336,48.1837998,21.4854601]}}
{"name":"السليمي","other_names":{"name:ar":"السليمي","name:de":"As Sulaymi","name:en":"As Sulaymi","name:fr":"As Sulaymi","name:ml":"അസ്സുലൈമി","alt_name":"السليمي","int_name":"As Sulaymī,As Sulaimi,Silaimi, As Sulaymi"},"display_name":"السليمي, محافظة السليمي, منطقة حائل, السعودية","address":{"town":"السليمي","province":"محافظة السليمي","state":"منطقة حائل","ISO3166-2-lvl4":"SA-06","country":"السعودية","country_code":"sa"},"osm_type":"node","osm_id":1236337734,"type":"town","location":[41.359613,26.2902589],"bbox":[41.319613,26.2502589,41.399613,26.3302589],"border":{"name":"محافظة السليمي","other_names":{"name:ar":"محافظة السليمي","name:en":"As Sulaymi"},"display_name":"محافظة السليمي, منطقة حائل, السعودية","address":{"province":"محافظة السليمي","state":"منطقة حائل","ISO3166-2-lvl4":"SA-06","country":"السعودية","country_code":"sa"},"osm_type":"relation","osm_id":12413062,"type":"administrative","location":[41.48962872396346,26.0767059],"bbox":[40.8081592,25.4947301,42.0116714,26.6563783]}}
{"name":"السيل الكبير","other_names":{"name:ar":"السيل الكبير","name:de":"As Sayl al Kabir","name:en":"As Sayl al Kabir","name:fr":"As Sayl al Kabir","name:ml":"സൈൽ കബീർ","alt_name":"As Sayl;El Sail;Sail;Sail Kabir","int_name":"As Sayl al Kabīr"},"display_name":"السيل الكبير, محافظة الطائف, منطقة مكة المكرمة, السعودية","address":{"town":"السيل الكبير","province":"محافظة الطائف","state":"منطقة مكة المكرمة","ISO3166-2-lvl4":"SA-02","country":"السعودية","country_code":"sa"},"osm_type":"node","osm_id":1236690845,"type":"town","location":[40.415278,21.626389],"bbox":[40.375278,21.586389,40.455278,21.666389]}
{"name":"الشرائع","other_names":{"name:ar":"الشرائع","name:de":"Ash Sharai","name:en":"Ash Sharai","name:fr":"Ash Sharāi","name:ml":"അഷ്-ഷറായി"},"display_name":"الشرائع, محافظة مكة المكرمة, منطقة مكة المكرمة, 24269, السعودية","address":{"town":"الشرائع","city":"محافظة مكة المكرمة","state":"منطقة مكة المكرمة","ISO3166-2-lvl4":"SA-02","postcode":"24269","country":"السعودية","country_code":"sa"},"osm_type":"node","osm_id":1236463853,"type":"town","location":[39.9483855,21.4645437],"bbox":[39.9083855,21.4245437,39.9883855,21.5045437]}
{"name":"الشعراء","other_names":{"name:ar":"الشعراء","name:de":"Ash Shara","name:en":"Ash Shara","name:fr":"Ash Shara","name:ml":"അഷ്-ഷാറ","alt_name":"الشعراء","int_name":"Ash Sha rā,Shaarah,Shara,Sha ara, Ash Shara"},"display_name":"الشعراء, محافظة الدوادمى, منطقة الرياض, السعودية","address":{"town":"الشعراء","province":"محافظة الدوادمى","state":"منطقة الرياض","ISO3166-2-lvl4":"SA-01","country":"السعودية","country_code":"sa"},"osm_type":"node","osm_id":1236695867,"type":"town","location":[44.1865214,24.2753421],"bbox":[44.1465214,24.2353421,44.2265214,24.3153421]}
{"name":"الشفا","other_names":{"name:ar":"الشفا","name:de":"Ash Shafa","name:en":"Ash Shafa","name:fr":"Ash Shafa","name:ml":"അഷ്-ഷഫ","alt_name":"الشفا","int_name":"Ash Shafā, Ash Shafa"},"display_name":"الشفا, محافظة الطائف, منطقة مكة المكرمة, السعودية","address":{"town":"الشفا","province":"محافظة الطائف","state":"منطقة مكة المكرمة","ISO3166-2-lvl4":"SA-02","country":"السعودية","country_code":"sa"},"osm_type":"node","osm_id":1236468317,"type":"town","location":[40.311944,21.069444],"bbox":[40.271944,21.029444,40.351944,21.109444]}
{"name":"الشقيق","other_names":{"name:ar":"الشقيق","name:de":"Ash Shuqayq","name:en":"Ash Shuqayq","name:fr":"Ash Shuqayq","int_name":"Ash Shuqayq"},"display_name":"الشقيق, محافظة الأحساء, المنطقة الشرقية, 36321, السعودية","address":{"town":"الشقيق","city":"محافظة الأحساء","state":"المنطقة الشرقية","ISO3166-2-lvl4":"SA-04","postcode":"36321","country":"السعودية","country_code":"sa"},"population":5640,"osm_type":"node","osm_id":1237339408,"type":"town","location":[49.5757957,25.4829456],"bbox":[49.5357957,25.4429456,49.6157957,25.5229456]}
{"name":"الشماسية","other_names":{"name:ar":"الشماسية","name:de":"Ash Shimasiyah","name:en":"Ash Shimasiyah","name:fr":"Ash Shimasiyah","name:ml":"അഷ്-ഷിമാസിയ","alt_name":"Ash Shamasiya;Ash Shamāsīya;Ash Shamasiyah;Ash Shamāsīyah;Shamas;Shamasiyah;Shamāsīyah;Shamasiyya;Shimas;Shimās;الشماسية;Ash Shimāsīyah;Ash Shimasiyah","int_name":"Ash Shimāsīyah,Ash Shamasiya,Ash Shamasiyah,Ash Shamāsīya,Ash Shamāsīyah,Shamasiyah,Shamasiyya,Shamāsīyah, Ash Shimasiyah"},"display_name":"الشماسية, محافظة الشماسيه, منطقة القصيم, السعودية","address":{"town":"الشماسية","province":"محافظة الشماسيه","state":"منطقة القصيم","ISO3166-2-lvl4":"SA-05","country":"السعودية","country_code":"sa"},"population":5871,"osm_type":"node","osm_id":1236365190,"type":"town","location":[44.263056,26.318333],"bbox":[44.223056,26.278333,44.303056,26.358333],"border":{"name":"محافظة الشماسيه","other_names":{"name:ar":"محافظة الشماسيه","name:en":"Ash Shimasiyah"},"display_name":"محافظة الشماسيه, منطقة القصيم, السعودية","address":{"province":"محافظة الشماسيه","state":"منطقة القصيم","ISO3166-2-lvl4":"SA-05","country":"السعودية","country_code":"sa"},"population":10605,"osm_type":"relation","osm_id":12406854,"type":"administrative","location":[44.48799717881613,26.0372849],"bbox":[44.1321,25.4843001,44.8000833,26.5909999]}}
{"name":"الشملي","other_names":{"name:ar":"الشملي","name:fr":"Ash Shamli","name:ml":"ഷംലി"},"display_name":"الشملي, محافظة الشملى, منطقة حائل, السعودية","address":{"town":"الشملي","province":"محافظة الشملى","state":"منطقة حائل","ISO3166-2-lvl4":"SA-06","country":"السعودية","country_code":"sa"},"osm_type":"node","osm_id":5809637428,"type":"town","location":[40.3239047,26.8629218],"bbox":[40.2839047,26.8229218,40.3639047,26.9029218],"border":{"name":"محافظة الشملى","other_names":{"name:ar":"محافظة الشملى","name:en":"Ash Shamli"},"display_name":"محافظة الشملى, منطقة حائل, السعودية","address":{"province":"محافظة الشملى","state":"منطقة حائل","ISO3166-2-lvl4":"SA-06","country":"السعودية","country_code":"sa"},"osm_type":"relation","osm_id":12413065,"type":"administrative","location":[40.226663546666664,26.9136999],"bbox":[39.52535,26.2129099,40.8707114,27.613754]}}
{"name":"الشنان","other_names":{"name:ar":"الشنان","name:de":"Ash Shinan","name:en":"Ash Shinan","name:fr":"Ash Shinan","name:ml":"അഷ്-ഷിനാൻ","alt_name":"Ash Shinān;Ash Shinan","int_name":"Ash Shinān, Ash Shinan"},"display_name":"الشنان, محافظة الشنان, منطقة حائل, السعودية","address":{"town":"الشنان","province":"محافظة الشنان","state":"منطقة حائل","ISO3166-2-lvl4":"SA-06","country":"السعودية","country_code":"sa"},"population":7157,"osm_type":"node","osm_id":1237555018,"type":"town","location":[42.443889,27.175],"bbox":[42.403889,27.135,42.483889,27.215],"border":{"name":"محافظة الشنان","other_names":{"name:ar":"محافظة الشنان","name:en":"Ash Shinan"},"display_name":"محافظة الشنان, منطقة حائل, السعودية","address":{"province":"محافظة الشنان","state":"منطقة حائل","ISO3166-2-lvl4":"SA-06","country":"السعودية","country_code":"sa"},"population":41641,"osm_type":"relation","osm_id":12413061,"type":"administrative","location":[42.55211954824162,27.11047425],"bbox":[41.8010223,26.6438828,43.4504168,27.5892701]}}
{"name":"الضبيعة","other_names":{"name:ar":"الضبيعة","name:de":"Ad Dubay`ah","name:en":"Ad Dubay`ah","name:fr":"Ad Dubay`ah","name:ml":"അദ്ദുബൈയ","alt_name":"Ad Dab`iyah;Aḑ Ḑab‘īyah;Ruwaidha;Ruwaidhe;Ruwaydah;Ruwayḑah","int_name":"Aḑ Ḑubay‘ah"},"display_name":"الضبيعة, محافظة الدلم, منطقة الرياض, 11942, السعودية","address":{"town":"الضبيعة","state":"منطقة الرياض","ISO3166-2-lvl4":"SA-01","postcode":"11942","country":"السعودية","country_code":"sa"},"population":5487,"osm_type":"node","osm_id":1236705174,"type":"town","location":[47.17225,24.098102],"bbox":[47.13225,24.058102,47.21225,24.138102]}
{"name":"الطرف","other_names":{"name:ar":"الطرف","name:de":"At Taraf","name:en":"At Taraf","name:fr":"At Taraf","name:ml":"അത്തറഫ്","alt_name":"Al-Taraf","int_name":"Aţ Ţaraf"},"display_name":"الطرف, محافظة الأحساء, المنطقة الشرقية, السعودية","address":{"town":"الطرف","city":"محافظة الأحساء","state":"المنطقة الشرقية","ISO3166-2-lvl4":"SA-04","country":"السعودية","country_code":"sa"},"population":23543,"osm_type":"node","osm_id":1237339363,"type":"town","location":[49.727572,25.36232],"bbox":[49.687572,25.32232,49.767572,25.40232]}
{"name":"الطوال","other_names":{"name:ar":"الطوال","name:de":"At Tuwal","name:en":"At Tuwal","name:fr":"At Tuwal","name:ml":"അത്തുവാൽ","int_name":"Aţ Ţuwāl"},"display_name":"الطوال, محافظة الطوال, منطقة جازان, 86341, السعودية","address":{"town":"الطوال","province":"محافظة الطوال","state":"منطقة جازان","ISO3166-2-lvl4":"SA-09","postcode":"86341","country":"السعودية","country_code":"sa"},"osm_type":"node","osm_id":1237961475,"type":"town","location":[42.9690073,16.5308201],"bbox":[42.9290073,16.4908201,43.0090073,16.5708201],"border":{"name":"محافظة الطوال","other_names":{"name:ar":"محافظة الطوال","name:en":"At Tuwal"},"display_name":"محافظة الطوال, منطقة جازان, 86341, السعودية","address":{"province":"محافظة الطوال","state":"منطقة جازان","ISO3166-2-lvl4":"SA-09","postcode":"86341","country":"السعودية","country_code":"sa"},"osm_type":"relation","osm_id":12430375,"type":"administrative","location":[42.90858771619736,16.49297215],"bbox":[42.6373023,16.3795278,43.1245318,16.6064724]}}
{"name":"الظبية","other_names":{"name:ar":"الظبية","name:de":"Al Zabyah","name:en":"Al Zabyah","name:fr":"Al Zabyah","name:ml":"അൽ ദബ്യ","alt_name":"Zabya';Z̧abyā’;Zabyah;Z̧abyah","int_name":"Al Z̧abyah"},"display_name":"الظبية, منطقة جازان, 85286, السعودية","address":{"town":"الظبية","state":"منطقة جازان","ISO3166-2-lvl4":"SA-09","postcode":"85286","country":"السعودية","country_code":"sa"},"population":11697,"osm_type":"node","osm_id":1237961139,"type":"town","location":[42.6672841,17.1174765],"bbox":[42.6272841,17.0774765,42.7072841,17.1574765]}
{"name":"الظهر","display_name":"الظهر, محافظة حقل, منطقة تبوك, السعودية","address":{"town":"الظهر","state":"منطقة تبوك","ISO3166-2-lvl4":"SA-07","country":"السعودية","country_code":"sa"},"osm_type":"node","osm_id":5819003907,"type":"town","location":[35.5073998,29.1496956],"bbox":[35.4673998,29.1096956,35.5473998,29.1896956]}
{"name":"العارضة","other_names":{"name:ar":"العارضة","name:de":"Al `Aridah","name:en":"Al `Aridah","name:fr":"Al Aridhah","name:ml":"അൽ ആറിദ","alt_name":"`Arda;‘Ardā;Ardha","int_name":"Al ‘Āriḑah"},"display_name":"العارضة, محافظة العارضه, منطقة جازان, السعودية","address":{"town":"العارضة","province":"محافظة العارضه","state":"منطقة جازان","ISO3166-2-lvl4":"SA-09","country":"السعودية","country_code":"sa"},"population":6947,"osm_type":"node","osm_id":1237961156,"type":"town","location":[43.0837091,17.0395187],"bbox":[43.0437091,16.9995187,43.1237091,17.0795187]}
{"name":"العالية","other_names":{"name:ar":"العالية","name:en":"Alaliya","name:ml":"അലാലിയ"},"display_name":"العالية, منطقة جازان, السعودية","address":{"town":"العالية","state":"منطقة جازان","ISO3166-2-lvl4":"SA-09","country":"السعودية","country_code":"sa"},"osm_type":"node","osm_id":10989343073,"type":"town","location":[42.5389066,17.2688761],"bbox":[42.4989066,17.2288761,42.5789066,17.3088761]}
{"name":"العرين","other_names":{"name:ar":"العرين","name:en":"Al`Arin","name:ml":"അൽ അറീൻ"},"display_name":"العرين, محافظة أبها, منطقة عسير, السعودية","address":{"town":"العرين","province":"محافظة أبها","state":"منطقة عسير","ISO3166-2-lvl4":"SA-14","country":"السعودية","country_code":"sa"},"osm_type":"node","osm_id":8581339696,"type":"town","location":[43.3891593,18.5634864],"bbox":[43.3491593,18.5234864,43.4291593,18.6034864]}
{"name":"العضيلية","other_names":{"name:ar":"العضيلية","name:en":"Udhailiyah","name:ml":"ഉദൈലിയ"},"display_name":"العضيلية, محافظة الأحساء, المنطقة الشرقية, 36527, السعودية","address":{"town":"العضيلية","city":"محافظة الأحساء","state":"المنطقة الشرقية","ISO3166-2-lvl4":"SA-04","postcode":"36527","country":"السعودية","country_code":"sa"},"osm_type":"node","osm_id":8357686563,"type":"town","location":[49.2999029,25.140477],"bbox":[49.2599029,25.100477,49.3399029,25.180477]}
{"name":"العقيق","other_names":{"name:ar":"العقيق","name:en":"Al `Aqiq","name:fr":"Al Aqiq","name:ml":"അൽ അഖീഖ്","alt_name":"`Aqiq;‘Aqiq","int_name":"Al ‘Aqīq"},"display_name":"العقيق, محافظة العقيق, منطقة الباحة, 65812, السعودية","address":{"town":"العقيق","province":"محافظة العقيق","state":"منطقة الباحة","ISO3166-2-lvl4":"SA-11","postcode":"65812","country":"السعودية","country_code":"sa"},"population":15329,"osm_type":"node","osm_id":6767957154,"type":"town","location":[41.6560108,20.2836432],"bbox":[41.6160108,20.2436432,41.6960108,20.3236432],"border":{"name":"محافظة العقيق","other_names":{"name:ar":"محافظة العقيق","name:en":"Al Aqiq"},"display_name":"محافظة العقيق, منطقة الباحة, السعودية","address":{"province":"محافظة العقيق","state":"منطقة الباحة","ISO3166-2-lvl4":"SA-11","country":"السعودية","country_code":"sa"},"population":35629,"osm_type":"relation","osm_id":12429802,"type":"administrative","location":[41.777742474248925,20.4126551],"bbox":[41.40434,20.0113071,42.13005,20.8144201]}}
{"name":"العلا","other_names":{"name:ar":"العلا","name:de":"al `Ula","name:en":"AlUla","name:fr":"Al-ʿUla","name:he":"אל אולה","name:it":"Alula","name:ml":"അലൂല","name:ru":"Аль-Ула","name:zh":"乌拉"},"display_name":"العلا, محافظة العلا, منطقة المدينة المنورة, السعودية","address":{"town":"العلا","province":"محافظة العلا","state":"منطقة المدينة المنورة","ISO3166-2-lvl4":"SA-03","country":"السعودية","country_code":"sa"},"population":32413,"osm_type":"node","osm_id":7700293159,"type":"town","location":[37.9596519,26.5588965],"bbox":[37.9196519,26.5188965,37.9996519,26.5988965]}
{"name":"العمران","other_names":{"name:ar":"العمران","name:de":"Al `Umran","name:en":"Al `Umran","name:fr":"Al `Umran","name:ml":"അൽ ഉംറാൻ","int_name":"Al ‘Umrān"},"display_name":"العمران, محافظة الأحساء, المنطقة الشرقية, 36351, السعودية","address":{"town":"العمران","city":"محافظة الأحساء","state":"المنطقة الشرقية","ISO3166-2-lvl4":"SA-04","postcode":"36351","country":"السعودية","country_code":"sa"},"population":17410,"osm_type":"node","osm_id":1237339353,"type":"town","location":[49.7161902,25.4217659],"bbox":[49.6761902,25.3817659,49.7561902,25.4617659]}
{"name":"العوامية","other_names":{"name:ar":"العوامية","name:cs":"Avamíja","name:de":"Al-Awamia","name:en":"Al `Awwamiyah","name:es":"Al-Awamia","name:fa":"عوامیه","name:fr":"Al-Awamia","name:he":"אל אוואמיה","name:ml":"അവാമിയ","alt_name":"'Awamiyah;’Awāmīyah;Al `Awamiyah;Al ‘Awāmīyah;Awamiya","int_name":"Al ‘Awwāmīyah","alt_name:de":"Awamija","alt_name:en":"Awamia;Al-Awamiyah","alt_name:fa":"عوامیة"},"display_name":"العوامية, محافظة القطيف, المنطقة الشرقية, 32641, السعودية","address":{"town":"العوامية","province":"محافظة القطيف","state":"المنطقة الشرقية","ISO3166-2-lvl4":"SA-04","postcode":"32641","country":"السعودية","country_code":"sa"},"population":26276,"osm_type":"node","osm_id":1012035239,"type":"town","location":[49.9840085,26.5883479],"bbox":[49.9440085,26.5483479,50.0240085,26.6283479]}
{"name":"العوضية","other_names":{"name:ar":"العوضية","name:en":"Al Awadiyah","name:ml":"അൽ അവദിയ"},"display_name":"العوضية, محافظة الأحساء, المنطقة الشرقية, السعودية","address":{"town":"العوضية","city":"محافظة الأحساء","state":"المنطقة الشرقية","ISO3166-2-lvl4":"SA-04","country":"السعودية","country_code":"sa"},"osm_type":"node","osm_id":10775271923,"type":"town","location":[49.5936584,25.5837304],"bbox":[49.5536584,25.5437304,49.6336584,25.6237304]}
{"name":"العويقيلة","other_names":{"name:ar":"العويقيلة","name:de":"Uwayqilah","name:en":"Uwayqilah","name:fr":"Uwayqilah","name:ml":"ഉവൈഖില","int_name":"Uwayqilah"},"display_name":"العويقيلة, محافظة العويقيله, منطقة الحدود الشمالية, السعودية","address":{"town":"العويقيلة","province":"محافظة العويقيله","state":"منطقة الحدود الشمالية","ISO3166-2-lvl4":"SA-08","country":"السعودية","country_code":"sa"},"population":14121,"osm_type":"node","osm_id":1236745582,"type":"town","location":[42.2382351,30.3632535],"bbox":[42.1982351,30.3232535,42.2782351,30.4032535]}
{"name":"العيدابي","other_names":{"name:ar":"العيدابي","name:de":"Al `Aydabi","name:en":"Al `Aydabi","name:fr":"Al Edabi","name:ml":"അൽ ഐദാബി","alt_name":"A`dabi;A`dhabi;A‘dabi;A‘dhabī","int_name":"Al ‘Aydābī"},"display_name":"العيدابي, محافظة العيدابى, منطقة جازان, 45992, السعودية","address":{"town":"العيدابي","province":"محافظة العيدابى","state":"منطقة جازان","ISO3166-2-lvl4":"SA-09","postcode":"45992","country":"السعودية","country_code":"sa"},"population":7672,"osm_type":"node","osm_id":1237961253,"type":"town","location":[42.9404299,17.2352185],"bbox":[42.9004299,17.1952185,42.9804299,17.2752185]}
{"name":"العيساوية","other_names":{"name:ar":"العيساوية","name:de":"Al `Isawiyah","name:en":"Al `Isawiyah","name:fr":"Al `Isawiyah","alt_name":"Al Mukhaydir; Al Mukhāydir","int_name":"Al ‘Īsāwīyah"},"display_name":"العيساوية, محافظة القريات, منطقة الجوف, السعودية","address":{"town":"العيساوية","city":"محافظة القريات","state":"منطقة الجوف","ISO3166-2-lvl4":"SA-12","country":"السعودية","country_code":"sa"},"population":5629,"osm_type":"node","osm_id":1236744674,"type":"town","location":[37.980278,30.716111],"bbox":[37.940278,30.676111,38.020278,30.756111]}
{"name":"العيص","other_names":{"name:ar":"العيص","name:de":"Al Eiss","name:en":"al `Aiss","name:fr":"Al Ais"},"display_name":"العيص, محافظة العيص, منطقة المدينة المنورة, السعودية","address":{"town":"العيص","province":"محافظة العيص","state":"منطقة المدينة المنورة","ISO3166-2-lvl4":"SA-03","country":"السعودية","country_code":"sa"},"population":10798,"osm_type":"node","osm_id":5813392174,"type":"town","location":[38.1085415,25.0635722],"bbox":[38.0685415,25.0235722,38.1485415,25.1035722]}
{"name":"العيينة","other_names":{"name:ar":"العيينة","name:en":"Al `Uyaynah","name:ml":"അൽ-ഉയൈന","alt_name":"Al ‘Iyainah;`Ayaina;‘Ayaina;Al 'Uyaynah;Al ’Uyaynah","int_name":"Al ‘Uyaynah"},"display_name":"العيينة, محافظة الدرعية, منطقة الرياض, السعودية","address":{"town":"العيينة","province":"محافظة الدرعية","state":"منطقة الرياض","ISO3166-2-lvl4":"SA-01","country":"السعودية","country_code":"sa"},"population":8523,"osm_type":"node","osm_id":1014940282,"type":"town","location":[46.391389,24.905278],"bbox":[46.351389,24.865278,46.431389,24.945278]}
{"name":"الغاط","other_names":{"name:ar":"الغاط","name:de":"Al Ghat","name:en":"Al Ghat","name:fr":"Al Ghat","name:ml":"ഗാത്ത്","alt_name":"Ghat","int_name":"Al Ghāţ"},"display_name":"الغاط, محافظة الغاط, منطقة الرياض, السعودية","address":{"town":"الغاط","province":"محافظة الغاط","state":"منطقة الرياض","ISO3166-2-lvl4":"SA-01","country":"السعودية","country_code":"sa"},"population":8746,"osm_type":"node","osm_id":1237933651,"type":"town","location":[44.950833,26.028611],"bbox":[44.910833,25.988611,44.990833,26.068611],"border":{"name":"محافظة الغاط","other_names":{"name:ar":"محافظة الغاط","name:en":"Al Ghat"},"display_name":"محافظة الغاط, منطقة الرياض, السعودية","address":{"province":"محافظة الغاط","state":"منطقة الرياض","ISO3166-2-lvl4":"SA-01","country":"السعودية","country_code":"sa"},"population":14405,"osm_type":"relation","osm_id":12423667,"type":"administrative","location":[44.904448048962415,25.9407099],"bbox":[44.6105979,25.6833699,45.17937,26.2001299]}}
{"name":"الغزالة","other_names":{"name:ar":"الغزالة","name:en":"Al Ghazalah","name:fr":"Al Ghazalah","name:ml":"അൽ ഗസാല"},"display_name":"الغزالة, محافظة الغزالة, منطقة حائل, السعودية","address":{"town":"الغزالة","province":"محافظة الغزالة","state":"منطقة حائل","ISO3166-2-lvl4":"SA-06","country":"السعودية","country_code":"sa"},"osm_type":"node","osm_id":8495477458,"type":"town","location":[41.315707,26.7874812],"bbox":[41.275707,26.7474812,41.355707,26.8274812],"border":{"name":"محافظة الغزالة","other_names":{"name:ar":"محافظة الغزالة","name:en":"Al Ghazalah"},"display_name":"محافظة الغزالة, منطقة حائل, السعودية","address":{"province":"محافظة الغزالة","state":"منطقة حائل","ISO3166-2-lvl4":"SA-06","country":"السعودية","country_code":"sa"},"population":102588,"osm_type":"relation","osm_id":12413066,"type":"administrative","location":[41.218541560945106,26.78372155],"bbox":[40.7829796,26.4674929,41.9500603,27.0997826]}}
{"name":"الفطيحة","other_names":{"name:ar":"الفطيحة","name:en":"Al Fatiha","name:ml":"അൽ ഫത്തീഹ"},"display_name":"الفطيحة, محافظة جازان, منطقة جازان, السعودية","address":{"town":"الفطيحة","province":"محافظة جازان","state":"منطقة جازان","ISO3166-2-lvl4":"SA-09","country":"السعودية","country_code":"sa"},"osm_type":"node","osm_id":11173384707,"type":"town","location":[42.6333475,17.5774711],"bbox":[42.5933475,17.5374711,42.6733475,17.6174711]}
{"name":"الفوارة","other_names":{"name:ar":"الفوارة","name:de":"Al Fawwarah","name:en":"Al Fawwarah","name:fr":"Al Fawwarah","name:ml":"അൽ ഫവ്വാറ","alt_name":"Fawwara;Fawwarah;Fawwārah","int_name":"Al Fawwārah"},"display_name":"الفوارة, محافظة بريدة, منطقة القصيم, 51953, السعودية","address":{"town":"الفوارة","province":"محافظة بريدة","state":"منطقة القصيم","ISO3166-2-lvl4":"SA-05","postcode":"51953","country":"السعودية","country_code":"sa"},"osm_type":"node","osm_id":4974489911,"type":"town","location":[42.6601484,26.0598216],"bbox":[42.6201484,26.0198216,42.7001484,26.0998216]}
{"name":"الفويلق","other_names":{"name:ar":"الفويلق","name:de":"Al Fuwayliq","name:en":"Al Fuwayliq","name:fr":"Al Fuwayliq","name:ml":"അൽ ഫുവൈലിഖ്","alt_name":"Al Fuwayliq"},"display_name":"الفويلق, محافظة البكيريه, منطقة القصيم, السعودية","address":{"town":"الفويلق","state":"منطقة القصيم","ISO3166-2-lvl4":"SA-05","country":"السعودية","country_code":"sa"},"population":5620,"osm_type":"node","osm_id":1236370988,"type":"town","location":[43.253492,26.4437093],"bbox":[43.213492,26.4037093,43.293492,26.4837093]}
{"name":"الفياض","other_names":{"name:ar":"الفياض","name:de":"Al Fiyad","name:en":"Al Fiyad","name:fr":"Al Fiyad","int_name":"Al Fiyāḑ"},"display_name":"الفياض, محافظة طبرجل, منطقة الجوف, السعودية","address":{"town":"الفياض","city":"محافظة طبرجل","state":"منطقة الجوف","ISO3166-2-lvl4":"SA-12","country":"السعودية","country_code":"sa"},"population":5105,"osm_type":"node","osm_id":1236744782,"type":"town","location":[38.099946,30.605348],"bbox":[38.059946,30.565348,38.139946,30.645348]}
{"name":"القارة","other_names":{"name:ar":"القارة","name:de":"Al Qarah","name:en":"Al Qarah","name:fr":"Al Qarah","name:ml":"അൽ ഖാറ","int_name":"Al Qārah"},"display_name":"القارة, المنطقة الشرقية, 36351, السعودية","address":{"town":"القارة","state":"المنطقة الشرقية","ISO3166-2-lvl4":"SA-04","postcode":"36351","country":"السعودية","country_code":"sa"},"population":9702,"osm_type":"node","osm_id":1237339348,"type":"town","location":[49.6818446,25.4196284],"bbox":[49.6418446,25.3796284,49.7218446,25.4596284],"border":{"name":"القارة","other_names":{"name:ar":"القارة","name:de":"Al Qarah","name:en":"Al Qarah","name:fr":"Al Qarah","name:ml":"അൽ ഖാറ","int_name":"Al Qārah"},"display_name":"القارة, المنطقة الشرقية, السعودية","address":{"town":"القارة","state":"المنطقة الشرقية","ISO3166-2-lvl4":"SA-04","country":"السعودية","country_code":"sa"},"population":9702,"osm_type":"way","osm_id":958521888,"type":"town","location":[49.6818446,25.4196284],"bbox":[49.661061,25.4074351,49.6837349,25.4326415]}}
{"name":"القاعد","other_names":{"name:ar":"القاعد","name:de":"Al Qa`id","name:en":"Al Qa`id","name:fr":"Al Qa`id","name:ml":"അൽ ഖായിദ്","int_name":"Al Qā‘id"},"display_name":"القاعد, محافظة حائل, منطقة حائل, السعودية","address":{"town":"القاعد","province":"محافظة حائل","state":"منطقة حائل","ISO3166-2-lvl4":"SA-06","country":"السعودية","country_code":"sa"},"population":5523,"osm_type":"node","osm_id":1237536923,"type":"town","location":[41.7249917,27.846003],"bbox":[41.6849917,27.806003,41.7649917,27.886003]}
{"name":"القديح","other_names":{"name:ar":"القديح","name:de":"Al Qudayh","name:en":"Al Qudayh","name:fr":"Al Qudayh","alt_name":"Qudaih;Qudayh;Qudayḩ","int_name":"Al Qudayḩ"},"display_name":"القديح, محافظة القطيف, المنطقة الشرقية, 32641, السعودية","address":{"town":"القديح","province":"محافظة القطيف","state":"المنطقة الشرقية","ISO3166-2-lvl4":"SA-04","postcode":"32641","country":"السعودية","country_code":"sa"},"population":22492,"osm_type":"node","osm_id":1237806655,"type":"town","location":[49.989134,26.568486],"bbox":[49.949134,26.528486,50.029134,26.608486]}
{"name":"القريع","display_name":"القريع, محافظة ميسان, منطقة مكة المكرمة, السعودية","address":{"town":"القريع","province":"محافظة ميسان","state":"منطقة مكة المكرمة","ISO3166-2-lvl4":"SA-02","country":"السعودية","country_code":"sa"},"osm_type":"node","osm_id":295921943,"type":"town","location":[41.0697867,20.4654105],"bbox":[41.0297867,20.4254105,41.1097867,20.5054105]}
{"name":"القرين","other_names":{"name:ar":"القرين","name:de":"Al Qurayn","name:en":"Al Qurayn","name:fr":"Al Qurayn","name:ml":"അൽ ഖുറൈൻ","int_name":"Al Qurayn"},"display_name":"القرين, محافظة الأحساء, المنطقة الشرقية, 36321, السعودية","address":{"town":"القرين","city":"محافظة الأحساء","state":"المنطقة الشرقية","ISO3166-2-lvl4":"SA-04","postcode":"36321","country":"السعودية","country_code":"sa"},"population":13296,"osm_type":"node","osm_id":1237339406,"type":"town","location":[49.5974359,25.4829828],"bbox":[49.5574359,25.4429828,49.6374359,25.5229828]}
{"name":"القصب","other_names":{"name:ar":"القصب","name:en":"Al Qasab","name:ml":"അൽ-ഖസബ്","alt_name":"Al-Kasab;Al-Kaṣab;Qasab;Qussab","int_name":"Al Qaşab"},"display_name":"القصب, محافظة شقراء, منطقة الرياض, السعودية","address":{"town":"القصب","city":"محافظة شقراء","state":"منطقة الرياض","ISO3166-2-lvl4":"SA-01","country":"السعودية","country_code":"sa"},"osm_type":"node","osm_id":351374056,"type":"town","location":[45.5233882,25.2956888],"bbox":[45.4833882,25.2556888,45.5633882,25.3356888]}
{"name":"القطيف","other_names":{"name:ar":"القطيف","name:de":"al-Qatif","name:en":"Qatif","name:es":"Qatif","name:fr":"Qatif","name:ko":"카티프","name:ku":"Qetîf","name:ml":"ഖത്തീഫ്","name:no":"Qatif","name:pl":"Al-Katif","name:ru":"Эль-Катиф","name:sr":"Катиф","name:tr":"Katif","name:zh":"卡提夫","int_name":"Al Qaţīf","name:ckb":"قەتیف"},"display_name":"القطيف, محافظة القطيف, المنطقة الشرقية, 32641, السعودية","address":{"town":"القطيف","province":"محافظة القطيف","state":"المنطقة الشرقية","ISO3166-2-lvl4":"SA-04","postcode":"32641","country":"السعودية","country_code":"sa"},"population":87332,"osm_type":"node","osm_id":1237806905,"type":"town","location":[50.0087399,26.5586004],"bbox":[49.9687399,26.5186004,50.0487399,26.5986004]}
{"name":"القوارة","other_names":{"name:ar":"القوارة","name:en":"Al Quwarah","name:ml":"അൽ ഖുവാറ","alt_name":"Al Quwara;Quwara;Quwarah","int_name":"Al Quwārah"},"display_name":"القوارة, محافظة بريدة, منطقة القصيم, السعودية","address":{"town":"القوارة","province":"محافظة بريدة","state":"منطقة القصيم","ISO3166-2-lvl4":"SA-05","country":"السعودية","country_code":"sa"},"population":5523,"osm_type":"node","osm_id":747671390,"type":"town","location":[43.46685,26.781858],"bbox":[43.42685,26.741858,43.50685,26.821858]}
{"name":"القوز","other_names":{"name:ar":"القوز","name:de":"Al Quoz","name:en":"Al Quoz","name:fa":"القوز","name:fr":"Al Quoz","name:ml":"അൽ ഖൂസ്","int_name":"Al Quoz"},"display_name":"القوز, محافظة القنفذة, منطقة مكة المكرمة, السعودية","address":{"town":"القوز","city":"محافظة القنفذة","state":"منطقة مكة المكرمة","ISO3166-2-lvl4":"SA-02","country":"السعودية","country_code":"sa"},"population":23391,"osm_type":"node","osm_id":1237962247,"type":"town","location":[41.311667,18.9725],"bbox":[41.271667,18.9325,41.351667,19.0125]}
{"name":"القيصومة","other_names":{"name:ar":"القيصومة","name:en":"Al Qaysumah","int_name":"Al Qayşūmah","name:de":"Al Qaysumah","name:fr":"Al Qaysumah","alt_name":"القيصومة","_place_int_name":"Al Qayşūmah,Gaisum,Gaisun,Qaisumah,Qaysumah,Qayşumah,Quasomeh, Al Qaysumah","alt:en":"Qaisumah"},"display_name":"القيصومة, محافظة حفر الباطن, المنطقة الشرقية, السعودية","address":{"village":"القيصومة","province":"محافظة حفر الباطن","state":"المنطقة الشرقية","ISO3166-2-lvl4":"SA-04","country":"السعودية","country_code":"sa"},"population":22538,"osm_type":"way","osm_id":957479209,"type":"town","location":[46.127502,28.3097161],"bbox":[46.0935372,28.2781526,46.1561979,28.3645247]}
{"name":"الكامل","other_names":{"name:ar":"الكامل","name:de":"Al Kamil","name:en":"Al Kamil","name:fr":"Al Kamil","name:ml":"അൽ കാമിൽ"},"display_name":"الكامل, محافظة الكامل, منطقة مكة المكرمة, السعودية","address":{"town":"الكامل","province":"محافظة الكامل","state":"منطقة مكة المكرمة","ISO3166-2-lvl4":"SA-02","country":"السعودية","country_code":"sa"},"osm_type":"node","osm_id":1237964645,"type":"town","location":[39.7982315,22.2640213],"bbox":[39.7582315,22.2240213,39.8382315,22.3040213],"border":{"name":"محافظة الكامل","other_names":{"name:ar":"محافظة الكامل","name:en":"Al Kamil"},"display_name":"محافظة الكامل, منطقة مكة المكرمة, السعودية","address":{"province":"محافظة الكامل","state":"منطقة مكة المكرمة","ISO3166-2-lvl4":"SA-02","country":"السعودية","country_code":"sa"},"population":21419,"osm_type":"relation","osm_id":12429516,"type":"administrative","location":[39.90194416666667,22.439930099999998],"bbox":[39.5168,22.0941501,40.23785,22.7855901]}}
{"name":"الكدرة","other_names":{"name:ar":"الكدرة","name:en":"Al Kadarah","name:ml":"അൽ കദറ"},"display_name":"الكدرة, محافظة الدرب, منطقة جازان, السعودية","address":{"town":"الكدرة","province":"محافظة الدرب","state":"منطقة جازان","ISO3166-2-lvl4":"SA-09","country":"السعودية","country_code":"sa"},"osm_type":"node","osm_id":10957756015,"type":"town","location":[42.3341395,17.7791296],"bbox":[42.2941395,17.7391296,42.3741395,17.8191296]}
{"name":"الكلابية","other_names":{"name:ar":"الكلابية","name:de":"Al Kilabiyah","name:en":"Al Kilabiyah","name:fr":"Al Kilabiyah","alt_name":"Al Kilabiyat;Al Kilābīyāt;Kalabiya;Kalābīya;Kalabiyah;Kalābiyah;Kilabiya;Kilabiyat al-Nuhud;Kilabiyatan Nuhud;Kilābiyatan Nuhūd","int_name":"Al Kilābīyah"},"display_name":"الكلابية, المنطقة الشرقية, 36348, السعودية","address":{"town":"الكلابية","state":"المنطقة الشرقية","ISO3166-2-lvl4":"SA-04","postcode":"36348","country":"السعودية","country_code":"sa"},"population":16984,"osm_type":"way","osm_id":958042909,"type":"town","location":[49.65175998620796,25.455092999999998],"bbox":[49.6366343,25.436699,49.6813823,25.4735649]}
{"name":"المجاردة","other_names":{"name:ar":"المجاردة","name:de":"Al Majaridah","name:en":"Al Majaridah","name:fr":"Al Majaridah","name:ml":"അൽ മുജാറിദ","int_name":"Al Majāridah"},"display_name":"المجاردة, محافظة المجاردة, منطقة عسير, 63931, السعودية","address":{"town":"المجاردة","province":"محافظة المجاردة","state":"منطقة عسير","ISO3166-2-lvl4":"SA-14","postcode":"63931","country":"السعودية","country_code":"sa"},"population":17241,"osm_type":"node","osm_id":1236688112,"type":"town","location":[41.9236423,19.13022],"bbox":[41.8836423,19.09022,41.9636423,19.17022]}
{"name":"المحفر","other_names":{"name:ar":"المحفر","name:en":"Al Mohaffar","name:ml":"അൽ മുഹഫർ"},"display_name":"المحفر, محافظة الحناكيه, منطقة المدينة المنورة, السعودية","address":{"town":"المحفر","province":"محافظة الحناكيه","state":"منطقة المدينة المنورة","ISO3166-2-lvl4":"SA-03","country":"السعودية","country_code":"sa"},"population":7174,"osm_type":"node","osm_id":7700293158,"type":"town","location":[40.5134582,24.9129842],"bbox":[40.4734582,24.8729842,40.5534582,24.9529842]}
{"name":"المخواة","other_names":{"name:ar":"المخواة","name:de":"Al Makhwah","name:en":"Al Makhwah","name:fr":"Al Makhwah","name:ml":"അൽ മഖ്‌വ","int_name":"Al Makhwāh"},"display_name":"المخواة, محافظة المخواة, منطقة الباحة, السعودية","address":{"town":"المخواة","province":"محافظة المخواة","state":"منطقة الباحة","ISO3166-2-lvl4":"SA-11","country":"السعودية","country_code":"sa"},"population":21999,"osm_type":"node","osm_id":1236690590,"type":"town","location":[41.435556,19.779444],"bbox":[41.395556,19.739444,41.475556,19.819444]}
{"name":"المراح","other_names":{"name:ar":"المراح","name:de":"Al Marah","name:en":"Al Marah","name:fr":"Al Marah","int_name":"Al Marāḩ"},"display_name":"المراح, محافظة الأحساء, المنطقة الشرقية, السعودية","address":{"town":"المراح","city":"محافظة الأحساء","state":"المنطقة الشرقية","ISO3166-2-lvl4":"SA-04","country":"السعودية","country_code":"sa"},"population":5633,"osm_type":"node","osm_id":1237339369,"type":"town","location":[49.5824801,25.5930579],"bbox":[49.5424801,25.5530579,49.6224801,25.6330579]}
{"name":"المركز","other_names":{"name:ar":"المركز","name:de":"Al Markaz","name:en":"Al Markaz","name:fr":"Al Markaz","name:ml":"അൽ മർക്കസ്","int_name":"Al Markaz"},"display_name":"المركز, محافظة الأحساء, المنطقة الشرقية, السعودية","address":{"town":"المركز","city":"محافظة الأحساء","state":"المنطقة الشرقية","ISO3166-2-lvl4":"SA-04","country":"السعودية","country_code":"sa"},"population":7014,"osm_type":"node","osm_id":1237339355,"type":"town","location":[49.7316314,25.3952112],"bbox":[49.6916314,25.3552112,49.7716314,25.4352112]}
{"name":"المزاحمية","other_names":{"name:ar":"المزاحمية","name:en":"Al Muzahimiyah","name:fr":"Al-Muzahmiya","name:ml":"അൽ-മുസാഹിമിയ","alt_name":"Al Muzāhimīyah","int_name":"Al Muzāḩimīyah"},"display_name":"المزاحمية, محافظة المزاحميه, منطقة الرياض, السعودية","address":{"town":"المزاحمية","province":"محافظة المزاحميه","state":"منطقة الرياض","ISO3166-2-lvl4":"SA-01","country":"السعودية","country_code":"sa"},"population":30164,"osm_type":"node","osm_id":1013646924,"type":"town","location":[46.2705605,24.4727747],"bbox":[46.2305605,24.4327747,46.3105605,24.5127747],"border":{"name":"محافظة المزاحميه","other_names":{"name:ar":"محافظة المزاحميه","name:en":"Al Muzahimiyah"},"display_name":"محافظة المزاحميه, منطقة الرياض, السعودية","address":{"province":"محافظة المزاحميه","state":"منطقة الرياض","ISO3166-2-lvl4":"SA-01","country":"السعودية","country_code":"sa"},"population":39865,"osm_type":"relation","osm_id":12423670,"type":"administrative","location":[46.25111529423539,24.099670099999997],"bbox":[45.77812,23.6413701,46.66208,24.5586899]}}
{"name":"المضايا","other_names":{"name:ar":"المضايا","name:de":"Al Madayah","name:en":"Al Madayah","name:fr":"Al Madayah","name:ml":"അൽ മദായ","alt_name":"Al Madaya;Al Maḑāyā;Madhan;Madhaya","int_name":"Al Maḑāyah"},"display_name":"المضايا, محافظة احد المسارحه, منطقة جازان, السعودية","address":{"town":"المضايا","province":"محافظة احد المسارحه","state":"منطقة جازان","ISO3166-2-lvl4":"SA-09","country":"السعودية","country_code":"sa"},"population":7752,"osm_type":"node","osm_id":1237960746,"type":"town","location":[42.7310559,16.7700821],"bbox":[42.6910559,16.7300821,42.7710559,16.8100821]}
{"name":"المطعن","other_names":{"name:ar":"المطعن","name:de":"Matan","name:en":"ALMata'an","name:fr":"Matan","name:ml":"മത്താൻ","alt_name":"مطعن","int_name":"Maţ an, Matan"},"display_name":"المطعن, محافظة بيش, منطقة جازان, 87717, السعودية","address":{"town":"المطعن","city":"محافظة بيش","state":"منطقة جازان","ISO3166-2-lvl4":"SA-09","postcode":"87717","country":"السعودية","country_code":"sa"},"population":7652,"osm_type":"node","osm_id":1237960937,"type":"town","location":[42.5472534,17.4275188],"bbox":[42.5072534,17.3875188,42.5872534,17.4675188]}
{"name":"المطيرفي","other_names":{"name:ar":"المطيرفي","name:de":"Al Mutayrifi","name:en":"Al Mutayrifi","name:fr":"Al Mutayrifi","name:ml":"അൽ മുത്തൈറിഫി","alt_name":"Al Mutairifi;Matairafi;Muteirfeh;Umm Terfi","int_name":"Al Muţayrifī"},"display_name":"المطيرفي, محافظة الأحساء, المنطقة الشرقية, 36424, السعودية","address":{"town":"المطيرفي","city":"محافظة الأحساء","state":"المنطقة الشرقية","ISO3166-2-lvl4":"SA-04","postcode":"36424","country":"السعودية","country_code":"sa"},"population":6371,"osm_type":"node","osm_id":1237339402,"type":"town","location":[49.5581553,25.4790667],"bbox":[49.5181553,25.4390667,49.5981553,25.5190667]}
{"name":"المظيلف","other_names":{"name:ar":"المظيلف","name:en":"Al Mozailef","name:ml":"അൽ മുസൈലിഫ്"},"display_name":"المظيلف, محافظة القنفذة, منطقة مكة المكرمة, السعودية","address":{"town":"المظيلف","city":"محافظة القنفذة","state":"منطقة مكة المكرمة","ISO3166-2-lvl4":"SA-02","country":"السعودية","country_code":"sa"},"population":8508,"osm_type":"node","osm_id":7699993028,"type":"town","location":[41.0505008,19.537426],"bbox":[41.0105008,19.497426,41.0905008,19.577426]}
{"name":"المليداء","other_names":{"name:ar":"المليداء","name:de":"Al Mulayda","name:en":"Al Mulayda","name:fr":"Al Mulayda","name:ml":"അൽ മുലൈദ","alt_name":"Al Mulaydā’;Al Mulayda'"},"display_name":"المليداء, محافظة بريدة, منطقة القصيم, السعودية","address":{"town":"المليداء","province":"محافظة بريدة","state":"منطقة القصيم","ISO3166-2-lvl4":"SA-05","country":"السعودية","country_code":"sa"},"population":7071,"osm_type":"node","osm_id":1237555392,"type":"town","location":[43.7807599,26.318283],"bbox":[43.7407599,26.278283,43.8207599,26.358283]}
{"name":"المندق","other_names":{"name:ar":"المندق","name:de":"Al Mindak","name:en":"Al Mindak","name:fr":"Al Mindak","name:ml":"അൽ മിന്ദഖ്","int_name":"Al Mindak"},"display_name":"المندق, محافظة المندق, منطقة الباحة, السعودية","address":{"town":"المندق","province":"محافظة المندق","state":"منطقة الباحة","ISO3166-2-lvl4":"SA-11","country":"السعودية","country_code":"sa"},"population":9964,"osm_type":"node","osm_id":1237964146,"type":"town","location":[41.2828451,20.1105064],"bbox":[41.2428451,20.0705064,41.3228451,20.1505064]}
{"name":"المنصورة","other_names":{"name:ar":"المنصورة","name:en":"Al Mansourah","name:ml":"അൽ മൻസൂറ"},"display_name":"المنصورة, محافظة الأحساء, المنطقة الشرقية, 36351, السعودية","address":{"town":"المنصورة","city":"محافظة الأحساء","state":"المنطقة الشرقية","ISO3166-2-lvl4":"SA-04","postcode":"36351","country":"السعودية","country_code":"sa"},"population":8864,"osm_type":"node","osm_id":6407458177,"type":"town","location":[49.6677321,25.3937843],"bbox":[49.6277321,25.3537843,49.7077321,25.4337843]}
{"name":"المنيزلة","other_names":{"name:ar":"المنيزلة","name:de":"Al Munayzilah","name:en":"Al Munayzilah","name:fr":"Al Munayzilah","name:ml":"അൽ മുനൈസില","int_name":"Al Munayzilah"},"display_name":"المنيزلة, محافظة الأحساء, المنطقة الشرقية, 36351, السعودية","address":{"town":"المنيزلة","city":"محافظة الأحساء","state":"المنطقة الشرقية","ISO3166-2-lvl4":"SA-04","postcode":"36351","country":"السعودية","country_code":"sa"},"population":17913,"osm_type":"node","osm_id":1237339405,"type":"town","location":[49.669424,25.3788289],"bbox":[49.629424,25.3388289,49.709424,25.4188289]}
{"name":"المويه","other_names":{"name:ar":"المويه","name:de":"Al Muwayh","name:en":"Al Muwayh","name:fr":"Al Muwayh","name:ml":"അൽ മുവൈഹ്","int_name":"Al Muwayh"},"display_name":"المويه, محافظة المويه, منطقة مكة المكرمة, السعودية","address":{"town":"المويه","province":"محافظة المويه","state":"منطقة مكة المكرمة","ISO3166-2-lvl4":"SA-02","country":"السعودية","country_code":"sa"},"population":8553,"osm_type":"node","osm_id":1236449504,"type":"town","location":[41.761935,22.4365659],"bbox":[41.721935,22.3965659,41.801935,22.4765659],"border":{"name":"محافظة المويه","other_names":{"name:ar":"محافظة المويه","name:en":"Al Muwayh"},"display_name":"محافظة المويه, منطقة مكة المكرمة, السعودية","address":{"province":"محافظة المويه","state":"منطقة مكة المكرمة","ISO3166-2-lvl4":"SA-02","country":"السعودية","country_code":"sa"},"osm_type":"relation","osm_id":12429521,"type":"administrative","location":[41.80665515987698,22.6858171],"bbox":[40.7839155,21.6780867,42.87914,23.6952001]}}
{"name":"النابية","other_names":{"name:ar":"النابية","name:en":"An Nabiah","name:ml":"അന്നാബിയ"},"display_name":"النابية, محافظة القطيف, المنطقة الشرقية, 32452, السعودية","address":{"town":"النابية","province":"محافظة القطيف","state":"المنطقة الشرقية","ISO3166-2-lvl4":"SA-04","postcode":"32452","country":"السعودية","country_code":"sa"},"population":13018,"osm_type":"node","osm_id":7699092298,"type":"town","location":[50.0066756,26.4759512],"bbox":[49.9666756,26.4359512,50.0466756,26.5159512]}
{"name":"الناصفة","other_names":{"name:ar":"الناصفة","name:de":"An Nasifah","name:en":"An Nasifah","name:fr":"An Nasifah","alt_name":"An Nasfah; An Nāşfah","int_name":"An Nāşifah"},"display_name":"الناصفة, محافظة القريات, منطقة الجوف, السعودية","address":{"town":"الناصفة","city":"محافظة القريات","state":"منطقة الجوف","ISO3166-2-lvl4":"SA-12","country":"السعودية","country_code":"sa"},"osm_type":"node","osm_id":1236744643,"type":"town","location":[37.625122,31.078996],"bbox":[37.585122,31.038996,37.665122,31.118996]}
{"name":"النبهانية","other_names":{"name:ar":"النبهانية","name:de":"An Nabhaniyah","name:en":"An Nabhaniyah","name:fr":"An Nabhaniyah","name:ml":"നബ്ഹാനിയ","alt_name":"Nabhaniya;Nabhaniyah;Nabhānīyah;النبهانية;An Nabhānīyah;An Nabhaniyah","alt_name:ar":"النبهانية;النبهانيه"},"display_name":"النبهانية, محافظة النبهانيه, منطقة القصيم, السعودية","address":{"town":"النبهانية","province":"محافظة النبهانيه","state":"منطقة القصيم","ISO3166-2-lvl4":"SA-05","country":"السعودية","country_code":"sa"},"population":46429,"osm_type":"node","osm_id":1237558163,"type":"town","location":[43.0663784,25.86088],"bbox":[43.0263784,25.82088,43.1063784,25.90088],"border":[{"name":"An Nabhaniyah","display_name":"An Nabhaniyah, محافظة النبهانيه, منطقة القصيم, السعودية","address":{"town":"An Nabhaniyah","province":"محافظة النبهانيه","state":"منطقة القصيم","ISO3166-2-lvl4":"SA-05","country":"السعودية","country_code":"sa"},"osm_type":"way","osm_id":302790288,"type":"town","location":[43.081327273311,25.855567399999998],"bbox":[43.0529451,25.8408184,43.1034409,25.8703565]},{"name":"محافظة النبهانيه","other_names":{"name:ar":"محافظة النبهانيه","name:en":"An Nabhaniyah"},"display_name":"محافظة النبهانيه, منطقة القصيم, السعودية","address":{"province":"محافظة النبهانيه","state":"منطقة القصيم","ISO3166-2-lvl4":"SA-05","country":"السعودية","country_code":"sa"},"population":47744,"osm_type":"relation","osm_id":12406848,"type":"administrative","location":[42.73602858563583,25.5336401],"bbox":[41.8125588,25.0786599,43.2499802,25.9887101]}]}
{"name":"النعيرية","other_names":{"name:ar":"النعيرية","name:de":"Nariyah","name:en":"Nuayriyah","name:es":"Nuayriyah","name:fr":"Nuayriyah","name:he":"נואיריה","name:ml":"നുവൈറിയ","alt_name":"النعيرية;Nuayriyah","int_name":"An Nu`ayriyah"},"display_name":"النعيرية, محافظة النعيريه, المنطقة الشرقية, السعودية","address":{"town":"النعيرية","province":"محافظة النعيريه","state":"المنطقة الشرقية","ISO3166-2-lvl4":"SA-04","country":"السعودية","country_code":"sa"},"population":26470,"osm_type":"node","osm_id":1236770860,"type":"town","location":[48.4789354,27.4741541],"bbox":[48.4389354,27.4341541,48.5189354,27.5141541]}
{"name":"الهدا","other_names":{"name:ar":"الهدا","name:de":"Al Hada","name:en":"Al Hada","name:ml":"അൽ ഹദ","int_name":"Al Hadā"},"display_name":"الهدا, محافظة الطائف, منطقة مكة المكرمة, السعودية","address":{"town":"الهدا","province":"محافظة الطائف","state":"منطقة مكة المكرمة","ISO3166-2-lvl4":"SA-02","country":"السعودية","country_code":"sa"},"population":8819,"osm_type":"node","osm_id":1237963621,"type":"town","location":[40.284722,21.368611],"bbox":[40.244722,21.328611,40.324722,21.408611]}
{"name":"الهياثم","other_names":{"name:ar":"الهياثم","name:de":"Al Hayathim","name:en":"Al Hayathim","name:fr":"Al Hayathim","name:ml":"അൽ ഹയാസിം","int_name":"Al Hayāthim"},"display_name":"الهياثم, محافظة الخرج, منطقة الرياض, السعودية","address":{"town":"الهياثم","province":"محافظة الخرج","state":"منطقة الرياض","ISO3166-2-lvl4":"SA-01","country":"السعودية","country_code":"sa"},"population":10495,"osm_type":"node","osm_id":1236705176,"type":"town","location":[47.237637,24.16555],"bbox":[47.197637,24.12555,47.277637,24.20555]}
{"name":"بئر ابن هرماس","other_names":{"name:ar":"بئر ابن هرماس","name:en":"Bi'r Ibn Hirmas","name:fr":"Bir Ibn Hirmas","name:ml":"ബിർ ഇബ്നു ഹിർമാസ്"},"display_name":"بئر ابن هرماس, محافظة تبوك, منطقة تبوك, السعودية","address":{"town":"بئر ابن هرماس","province":"محافظة تبوك","state":"منطقة تبوك","ISO3166-2-lvl4":"SA-07","country":"السعودية","country_code":"sa"},"population":5975,"osm_type":"node","osm_id":1237958577,"type":"town","location":[36.2577406,28.8699954],"bbox":[36.2177406,28.8299954,36.2977406,28.9099954]}
{"name":"بارق","other_names":{"name:en":"Bariq","name:ml":"ബാറിഖ്","alt_name":"Bariq","int_name":"Bariq"},"display_name":"بارق, محافظة بارق, منطقة عسير, السعودية","address":{"town":"بارق","province":"محافظة بارق","state":"منطقة عسير","ISO3166-2-lvl4":"SA-14","country":"السعودية","country_code":"sa"},"osm_type":"node","osm_id":6733316507,"type":"town","location":[41.9464041,18.9380322],"bbox":[41.9064041,18.8980322,41.9864041,18.9780322],"border":{"name":"محافظة بارق","other_names":{"name:ar":"محافظة بارق","name:en":"Bariq","name:ml":"ബാറിഖ്","alt_name":"Bariq","int_name":"Bariq","alt":"بارق"},"display_name":"محافظة بارق, منطقة عسير, السعودية","address":{"province":"محافظة بارق","state":"منطقة عسير","ISO3166-2-lvl4":"SA-14","country":"السعودية","country_code":"sa"},"osm_type":"relation","osm_id":12436480,"type":"administrative","location":[41.9464041,18.9380322],"bbox":[41.43929,18.6780289,42.16526,19.131771]}}
{"name":"بحر أبوسكينة","other_names":{"name:ar":"بحر أبوسكينة","name:de":"Bahr Abu Sakynah","name:en":"Bahr Abu Sakynah","name:fr":"Bahr Abu Sakynah","name:ml":"ബഹർ അബു സക്കീന","alt_name":"خميس البحر;Khamis al Bahr","int_name":"Khamīs al Baḩr"},"display_name":"بحر أبوسكينة, محافظة محايل, منطقة عسير, السعودية","address":{"town":"بحر أبوسكينة","province":"محافظة محايل","state":"منطقة عسير","ISO3166-2-lvl4":"SA-14","country":"السعودية","country_code":"sa"},"population":6112,"osm_type":"node","osm_id":1237961015,"type":"town","location":[41.9118076,18.3372839],"bbox":[41.8718076,18.2972839,41.9518076,18.3772839]}
{"name":"بحرة","other_names":{"name:ar":"بحرة","name:de":"Bahrah","name:en":"Bahrah","name:fr":"Bahrah","name:ml":"ബഹ്‌റ","alt_name":"Baharah;Bahr","int_name":"Baḩrah"},"display_name":"بحرة, محافظة بحرة, منطقة مكة المكرمة, السعودية","address":{"town":"بحرة","province":"محافظة بحرة","state":"منطقة مكة المكرمة","ISO3166-2-lvl4":"SA-02","country":"السعودية","country_code":"sa"},"population":75213,"osm_type":"node","osm_id":1237963667,"type":"town","location":[39.4500096,21.4012724],"bbox":[39.4100096,21.3612724,39.4900096,21.4412724],"border":{"name":"محافظة بحرة","other_names":{"name:ar":"محافظة بحرة","name:en":"Bahrah"},"display_name":"محافظة بحرة, منطقة مكة المكرمة, السعودية","address":{"province":"محافظة بحرة","state":"منطقة مكة المكرمة","ISO3166-2-lvl4":"SA-02","country":"السعودية","country_code":"sa"},"osm_type":"relation","osm_id":12429528,"type":"administrative","location":[39.78128453416149,21.1157501],"bbox":[39.31082,20.6233362,40.25318,21.6105201]}}
{"name":"بدر الجنوب","other_names":{"name:ar":"بدر الجنوب","name:en":"Badr al Janub","name:fr":"Badr Al Janub","name:ml":"ബദർ അൽ ജനൂബ്","int_name":"Badr al Janūb"},"display_name":"بدر الجنوب, محافظة بدر الجنوب, منطقة نجران, السعودية","address":{"town":"بدر الجنوب","province":"محافظة بدر الجنوب","state":"منطقة نجران","ISO3166-2-lvl4":"SA-10","country":"السعودية","country_code":"sa"},"osm_type":"node","osm_id":9327906415,"type":"town","location":[43.7163591,17.8813714],"bbox":[43.6763591,17.8413714,43.7563591,17.9213714],"border":{"name":"محافظة بدر الجنوب","other_names":{"name:ar":"محافظة بدر الجنوب","name:en":"Badr Al Janub","name:fr":"Badr Al Janub","name:ml":"ബദർ അൽ ജനൂബ്","int_name":"Badr al Janūb","alt":"بدر الجنوب","alt:ar":"بدر الجنوب","alt:en":"Badr al Janub"},"display_name":"محافظة بدر الجنوب, منطقة نجران, السعودية","address":{"province":"محافظة بدر الجنوب","state":"منطقة نجران","ISO3166-2-lvl4":"SA-10","country":"السعودية","country_code":"sa"},"population":11117,"osm_type":"relation","osm_id":12424985,"type":"administrative","location":[43.7163591,17.8813714],"bbox":[43.59569,17.5149801,43.92492,18.1789201]}}
{"name":"بدر","other_names":{"name:ar":"بدر","name:de":"Badr Hunayn","name:en":"Badr Hunayn","name:fr":"Badr Hunayn","name:ml":"ബദർ ഹുനൈൻ","alt_name":"بدر حنین","int_name":"Badr Ḩunayn"},"display_name":"بدر, محافظة بدر, منطقة المدينة المنورة, السعودية","address":{"town":"بدر","county":"محافظة بدر","state":"منطقة المدينة المنورة","ISO3166-2-lvl4":"SA-03","country":"السعودية","country_code":"sa"},"population":28999,"osm_type":"node","osm_id":1237968680,"type":"town","location":[38.7907409,23.78],"bbox":[38.7507409,23.74,38.8307409,23.82]}
{"name":"بقعاء","other_names":{"name:ar":"بقعاء","name:de":"Baqa","name:en":"Baqa","name:fr":"Baqa","name:ml":"ബഖാ","alt_name":"Baqa'a; Baqa’a; بقعاء; Baq‘ā’; Baq`a'","int_name":"Baq ā,Baqaa, Baqa"},"display_name":"بقعاء, محافظة بقعاء, منطقة حائل, 81911, السعودية","address":{"town":"بقعاء","province":"محافظة بقعاء","state":"منطقة حائل","ISO3166-2-lvl4":"SA-06","postcode":"81911","country":"السعودية","country_code":"sa"},"population":13382,"osm_type":"node","osm_id":1237538431,"type":"town","location":[42.3899399,27.9102716],"bbox":[42.3499399,27.8702716,42.4299399,27.9502716],"border":{"name":"محافظة بقعاء","other_names":{"name:ar":"محافظة بقعاء","name:en":"Baqa","name:de":"Muhafazat Baq`a'","name:fr":"Muhafazat Baq`a'","int_name":"Baq‘ā’","alt:en":"Baq`a' Governorate"},"display_name":"محافظة بقعاء, منطقة حائل, 81911, السعودية","address":{"province":"محافظة بقعاء","state":"منطقة حائل","ISO3166-2-lvl4":"SA-06","postcode":"81911","country":"السعودية","country_code":"sa"},"population":40157,"osm_type":"relation","osm_id":12413059,"type":"administrative","location":[42.833333,28],"bbox":[41.40405,27.3393001,44.3673667,29.2078762]}}
{"name":"بلجرشي","other_names":{"name:ar":"بلجرشي","name:de":"Baljurashi","name:en":"Baljurashi","name:fr":"Baljurashi","name:ml":"ബൽജുറഷി","int_name":"Baljurashi"},"display_name":"بلجرشي, محافظة بلجرشي, منطقة الباحة, السعودية","address":{"town":"بلجرشي","province":"محافظة بلجرشي","state":"منطقة الباحة","ISO3166-2-lvl4":"SA-11","country":"السعودية","country_code":"sa"},"population":43493,"osm_type":"node","osm_id":1236690533,"type":"town","location":[41.557222,19.859444],"bbox":[41.517222,19.819444,41.597222,19.899444],"border":{"name":"محافظة بلجرشي","other_names":{"name:ar":"محافظة بلجرشي","name:en":"Biljurashi","name:de":"Baljurashi","name:fr":"Baljurashi","name:ml":"ബൽജുറഷി","int_name":"Baljurashi","alt":"بلجرشي","alt:ar":"بلجرشي","alt:en":"Baljurashi"},"display_name":"محافظة بلجرشي, منطقة الباحة, السعودية","address":{"province":"محافظة بلجرشي","state":"منطقة الباحة","ISO3166-2-lvl4":"SA-11","country":"السعودية","country_code":"sa"},"population":65223,"osm_type":"relation","osm_id":12429798,"type":"administrative","location":[41.557222,19.859444],"bbox":[41.50283,19.6980925,41.97897,20.2995801]}}
{"name":"بللحمر","other_names":{"name:ar":"بللحمر","name:en":"Billahmar","name:fr":"Billahmar","name:ml":"ബില്ലഹ്മർ","alt_name":"Billahmar","int_name":"Billahmar"},"display_name":"بللحمر, محافظة أبها, منطقة عسير, السعودية","address":{"town":"بللحمر","province":"محافظة أبها","state":"منطقة عسير","ISO3166-2-lvl4":"SA-14","country":"السعودية","country_code":"sa"},"osm_type":"node","osm_id":6813857560,"type":"town","location":[42.3240657,18.6337564],"bbox":[42.2840657,18.5937564,42.3640657,18.6737564]}
{"name":"بللسمر","other_names":{"name:ar":"بللسمر","name:en":"Billasmar","name:fr":"Billasmar","name:ml":"ബില്ലസ്മർ","alt_name":"Billasmar","int_name":"Billasmar"},"display_name":"بللسمر, محافظة أبها, منطقة عسير, السعودية","address":{"town":"بللسمر","province":"محافظة أبها","state":"منطقة عسير","ISO3166-2-lvl4":"SA-14","country":"السعودية","country_code":"sa"},"osm_type":"node","osm_id":6813884643,"type":"town","location":[42.2494287,18.7784872],"bbox":[42.2094287,18.7384872,42.2894287,18.8184872]}
{"name":"بني حسن","other_names":{"name:ar":"بني حسن","name:fr":"Bani Hasan"},"display_name":"بني حسن, محافظة بني حسن, منطقة الباحة, السعودية","address":{"town":"بني حسن","province":"محافظة بني حسن","state":"منطقة الباحة","ISO3166-2-lvl4":"SA-11","country":"السعودية","country_code":"sa"},"osm_type":"node","osm_id":3734863966,"type":"town","location":[41.373665,20.053499],"bbox":[41.333665,20.013499,41.413665,20.093499],"border":{"name":"محافظة بني حسن","other_names":{"name:ar":"محافظة بني حسن","name:en":"Bani Hasan"},"display_name":"محافظة بني حسن, منطقة الباحة, السعودية","address":{"province":"محافظة بني حسن","state":"منطقة الباحة","ISO3166-2-lvl4":"SA-11","country":"السعودية","country_code":"sa"},"osm_type":"relation","osm_id":12429804,"type":"administrative","location":[41.368903975,20.091223149999998],"bbox":[41.31746,20.0029101,41.428901,20.1813913]}}
{"name":"تاروت","other_names":{"name:ar":"تاروت","name:de":"Tarout","name:en":"Tarout","name:fr":"Tarout","name:ml":"താറൂത്ത്","alt_name":"Darin Fort;Tarut fort;Tārūt fort","int_name":"Tārūt"},"display_name":"تاروت, محافظة القطيف, المنطقة الشرقية, 32617, السعودية","address":{"town":"تاروت","province":"محافظة القطيف","state":"المنطقة الشرقية","ISO3166-2-lvl4":"SA-04","postcode":"32617","country":"السعودية","country_code":"sa"},"population":117646,"osm_type":"node","osm_id":1237806675,"type":"town","location":[50.055532,26.5764104],"bbox":[50.015532,26.5364104,50.095532,26.6164104]}
{"name":"تبالة","other_names":{"name:ar":"تبالة","name:de":"Tabalah","name:en":"Tabalah","name:fr":"Tabalah","name:ml":"തബാല","int_name":"Tabālah"},"display_name":"تبالة, محافظة بيشة, منطقة عسير, السعودية","address":{"town":"تبالة","province":"محافظة بيشة","state":"منطقة عسير","ISO3166-2-lvl4":"SA-14","country":"السعودية","country_code":"sa"},"population":5670,"osm_type":"node","osm_id":1236685771,"type":"town","location":[42.2164511,20.0135631],"bbox":[42.1764511,19.9735631,42.2564511,20.0535631]}
{"name":"تثليث","other_names":{"name:ar":"تثليث","name:de":"Tathlith","name:en":"Tathlith","name:fr":"Tathlith","name:ml":"തത്‌ലീത്ത്","int_name":"Tathlīth"},"display_name":"تثليث, محافظة تثليث, منطقة عسير, السعودية","address":{"town":"تثليث","province":"محافظة تثليث","state":"منطقة عسير","ISO3166-2-lvl4":"SA-14","country":"السعودية","country_code":"sa"},"population":8099,"osm_type":"node","osm_id":1236412511,"type":"town","location":[43.5,19.533333],"bbox":[43.46,19.493333,43.54,19.573333],"border":{"name":"محافظة تثليث","other_names":{"name:ar":"محافظة تثليث","name:en":"Tathlith"},"display_name":"محافظة تثليث, منطقة عسير, السعودية","address":{"province":"محافظة تثليث","state":"منطقة عسير","ISO3166-2-lvl4":"SA-14","country":"السعودية","country_code":"sa"},"population":59188,"osm_type":"relation","osm_id":12436472,"type":"administrative","location":[43.530316142036355,19.529685100000002],"bbox":[42.91561,18.2563801,44.4873,20.8026601]}}
{"name":"تربة","other_names":{"name:ar":"تربة","name:de":"Turubah","name:en":"Turubah","name:fr":"Turubah","name:ml":"തുറുബ","int_name":"Turubah"},"display_name":"تربة, محافظة بقعاء, منطقة حائل, السعودية","address":{"town":"تربة","province":"محافظة بقعاء","state":"منطقة حائل","ISO3166-2-lvl4":"SA-06","country":"السعودية","country_code":"sa"},"population":5134,"osm_type":"node","osm_id":1237534271,"type":"town","location":[42.9203796,28.2595753],"bbox":[42.8803796,28.2195753,42.9603796,28.2995753]}
{"name":"تربة","other_names":{"name:ar":"تربة","name:de":"Turabah","name:en":"Turabah","name:fr":"Turabah","name:ml":"തുറബ","int_name":"Turabah"},"display_name":"تربة, محافظة تربه, منطقة مكة المكرمة, 29751, السعودية","address":{"town":"تربة","province":"محافظة تربه","state":"منطقة مكة المكرمة","ISO3166-2-lvl4":"SA-02","postcode":"29751","country":"السعودية","country_code":"sa"},"population":25937,"osm_type":"node","osm_id":1236453863,"type":"town","location":[41.6334961,21.2180221],"bbox":[41.5934961,21.1780221,41.6734961,21.2580221]}
{"name":"تمير","other_names":{"name:ar":"تمير","name:de":"Tumayr","name:en":"Tumayr","name:fr":"Tumayr","name:ml":"തുമൈർ","int_name":"Tumayr"},"display_name":"تمير, محافظة المجمعة, منطقة الرياض, السعودية","address":{"town":"تمير","province":"محافظة المجمعة","state":"منطقة الرياض","ISO3166-2-lvl4":"SA-01","country":"السعودية","country_code":"sa"},"population":9406,"osm_type":"node","osm_id":1237833868,"type":"town","location":[45.8677264,25.7044346],"bbox":[45.8277264,25.6644346,45.9077264,25.7444346]}
{"name":"تنومة","other_names":{"name:ar":"تنومة","name:en":"Tanumah","name:fr":"Tanomah","name:ml":"തനുമ","int_name":"Tanūmah"},"display_name":"تنومة, محافظة تنومة, منطقة عسير, السعودية","address":{"town":"تنومة","province":"محافظة تنومة","state":"منطقة عسير","ISO3166-2-lvl4":"SA-14","country":"السعودية","country_code":"sa"},"population":14684,"osm_type":"node","osm_id":5889480125,"type":"town","location":[42.17026,18.953526],"bbox":[42.13026,18.913526,42.21026,18.993526],"border":{"name":"محافظة تنومة","other_names":{"name:ar":"محافظة تنومة","name:en":"Tanumah"},"display_name":"محافظة تنومة, منطقة عسير, السعودية","address":{"province":"محافظة تنومة","state":"منطقة عسير","ISO3166-2-lvl4":"SA-14","country":"السعودية","country_code":"sa"},"osm_type":"relation","osm_id":12436485,"type":"administrative","location":[42.199901095146764,19.01477895],"bbox":[42.05276,18.8225001,42.5680499,19.2062601]}}
{"name":"تيماء","other_names":{"name:ar":"تيماء","name:de":"Tayma","name:en":"Tayma'","name:fr":"Tayma","name:ml":"തൈമ","name:tr":"Teymâ","alt_name":"Taima;Taimah;Taymah;Teima;Tejma","int_name":"Taymā’"},"display_name":"تيماء, محافظة تيماء, منطقة تبوك, السعودية","address":{"town":"تيماء","province":"محافظة تيماء","state":"منطقة تبوك","ISO3166-2-lvl4":"SA-07","country":"السعودية","country_code":"sa"},"population":30411,"osm_type":"node","osm_id":1237942492,"type":"town","location":[38.539257,27.6225952],"bbox":[38.499257,27.5825952,38.579257,27.6625952],"border":{"name":"محافظة تيماء","other_names":{"name:ar":"محافظة تيماء","name:en":"Tayma","name:de":"Tayma","name:fr":"Tayma","name:ml":"തൈമ","name:tr":"Teymâ","alt_name":"Taima;Taimah;Taymah;Teima;Tejma","int_name":"Taymā’","alt":"تيماء","alt:ar":"تيماء","alt:en":"Tayma'"},"display_name":"محافظة تيماء, منطقة تبوك, 45911, السعودية","address":{"province":"محافظة تيماء","state":"منطقة تبوك","ISO3166-2-lvl4":"SA-07","postcode":"45911","country":"السعودية","country_code":"sa"},"population":36199,"osm_type":"relation","osm_id":12420155,"type":"administrative","location":[38.539257,27.6225952],"bbox":[37.6555818,26.7477195,39.94176,28.9367499]}}
{"name":"ثادق","other_names":{"name:ar":"ثادق","name:en":"Thadig","name:fr":"Thadig","name:ml":"സാദിഗ്"},"display_name":"ثادق, محافظة ثادق, منطقة الرياض, السعودية","address":{"town":"ثادق","province":"محافظة ثادق","state":"منطقة الرياض","ISO3166-2-lvl4":"SA-01","country":"السعودية","country_code":"sa"},"population":17000,"osm_type":"node","osm_id":1014940192,"type":"town","location":[45.863,25.281],"bbox":[45.823,25.241,45.903,25.321]}
{"name":"ثار","other_names":{"name:ar":"ثار","name:en":"Thar","name:fr":"Thar","int_name":"Thār","old_name":"زور العقارب"},"display_name":"ثار, محافظة ثار, منطقة نجران, السعودية","address":{"town":"ثار","province":"محافظة ثار","state":"منطقة نجران","ISO3166-2-lvl4":"SA-10","country":"السعودية","country_code":"sa"},"osm_type":"node","osm_id":6774275597,"type":"town","location":[44.110816,17.974877],"bbox":[44.070816,17.934877,44.150816,18.014877],"border":{"name":"محافظة ثار","other_names":{"name:ar":"محافظة ثار","name:en":"Thar"},"display_name":"محافظة ثار, منطقة نجران, السعودية","address":{"province":"محافظة ثار","state":"منطقة نجران","ISO3166-2-lvl4":"SA-10","country":"السعودية","country_code":"sa"},"population":16047,"osm_type":"relation","osm_id":12424981,"type":"administrative","location":[44.826764433595415,18.2288901],"bbox":[43.73513,17.8324106,45.5306707,18.6253701]}}
{"name":"ثرب","other_names":{"name:ar":"ثرب","name:de":"Thurb","name:en":"Thurb","name:fr":"Thurb","int_name":"Thurb"},"display_name":"ثرب, محافظة المهد, منطقة المدينة المنورة, السعودية","address":{"town":"ثرب","province":"محافظة المهد","state":"منطقة المدينة المنورة","ISO3166-2-lvl4":"SA-03","country":"السعودية","country_code":"sa"},"osm_type":"node","osm_id":1236726345,"type":"town","location":[41.7372647,24.2295862],"bbox":[41.6972647,24.1895862,41.7772647,24.2695862]}
{"name":"ثريبان","other_names":{"name:ar":"ثريبان","name:en":"Thurayban","name:ml":"സുറൈബാൻ","alt_name":"Thuraybān"},"display_name":"ثريبان, محافظة العرضيات, منطقة مكة المكرمة, السعودية","address":{"town":"ثريبان","province":"محافظة العرضيات","state":"منطقة مكة المكرمة","ISO3166-2-lvl4":"SA-02","country":"السعودية","country_code":"sa"},"population":null,"osm_type":"node","osm_id":11870950660,"type":"town","location":[41.833535,19.4451525],"bbox":[41.793535,19.4051525,41.873535,19.4851525]}
{"name":"ثول","other_names":{"name:ar":"ثول","name:de":"Thuwal","name:en":"Thuwal","name:fr":"Thuwal","name:ml":"തുവൽ","int_name":"Thuwal"},"display_name":"ثول, محافظة جدة, منطقة مكة المكرمة, 23955-6900, السعودية","address":{"town":"ثول","province":"محافظة جدة","state":"منطقة مكة المكرمة","ISO3166-2-lvl4":"SA-02","postcode":"23955-6900","country":"السعودية","country_code":"sa"},"population":17792,"osm_type":"node","osm_id":443345673,"type":"town","location":[39.1128145,22.2833454],"bbox":[39.0728145,22.2433454,39.1528145,22.3233454]}
{"name":"جبة","other_names":{"name:ar":"جبة","name:de":"Jubbah","name:en":"Jubbah","name:fr":"Jubbah","name:ml":"ജുബ്ബ","alt_name":"Gubba;Jubba;جبة;Jubbah;Jubbah"},"display_name":"جبة, محافظة حائل, منطقة حائل, السعودية","address":{"town":"جبة","province":"محافظة حائل","state":"منطقة حائل","ISO3166-2-lvl4":"SA-06","country":"السعودية","country_code":"sa"},"population":5493,"osm_type":"node","osm_id":1237937470,"type":"town","location":[40.9529882,28.0168538],"bbox":[40.9129882,27.9768538,40.9929882,28.0568538]}
{"name":"جليجلة","other_names":{"name:ar":"جليجلة","name:de":"Julayjilah","name:en":"Julayjilah","name:fr":"Julayjilah","int_name":"Julayjilah"},"display_name":"جليجلة, محافظة الأحساء, المنطقة الشرقية, 36321, السعودية","address":{"town":"جليجلة","city":"محافظة الأحساء","state":"المنطقة الشرقية","ISO3166-2-lvl4":"SA-04","postcode":"36321","country":"السعودية","country_code":"sa"},"population":5906,"osm_type":"node","osm_id":1237339396,"type":"town","location":[49.6000858,25.5030213],"bbox":[49.5600858,25.4630213,49.6400858,25.5430213]}
{"name":"جودة","other_names":{"name:ar":"جودة","name:de":"Judah","name:en":"Judah","name:fr":"Judah","name:ml":"ജൂദ","int_name":"Jūdah"},"display_name":"جودة, محافظة الأحساء, المنطقة الشرقية, السعودية","address":{"town":"جودة","city":"محافظة الأحساء","state":"المنطقة الشرقية","ISO3166-2-lvl4":"SA-04","country":"السعودية","country_code":"sa"},"osm_type":"node","osm_id":1236773771,"type":"town","location":[48.832778,25.858333],"bbox":[48.792778,25.818333,48.872778,25.898333]}
{"name":"حاكمة ابوعريش","other_names":{"name:ar":"حاكمة ابوعريش","name:de":"Hakimah","name:en":"Hakimah","name:fr":"Hakimah","name:ml":"ഹാക്കിമ","alt_name":"Ḩākimah;Hakimah","int_name":"Ḩākimah, Hakimah"},"display_name":"حاكمة ابوعريش, محافظة أبو عريش, منطقة جازان, 84427, السعودية","address":{"town":"حاكمة ابوعريش","province":"محافظة أبو عريش","state":"منطقة جازان","ISO3166-2-lvl4":"SA-09","postcode":"84427","country":"السعودية","country_code":"sa"},"population":7656,"osm_type":"node","osm_id":1237961090,"type":"town","location":[42.834281,17.009972],"bbox":[42.794281,16.969972,42.874281,17.049972]}
{"name":"حالة عمار","other_names":{"name:ar":"حالة عمار","name:de":"Halat Ammar","name:en":"Halat `Ammar","name:fr":"Halat Ammar","name:ml":"ഹാലത്ത് അമ്മാർ","name:uk":"Халат-Аммар","int_name":"Ḩālat ‘Ammār"},"display_name":"حالة عمار, محافظة تبوك, منطقة تبوك, السعودية","address":{"town":"حالة عمار","province":"محافظة تبوك","state":"منطقة تبوك","ISO3166-2-lvl4":"SA-07","country":"السعودية","country_code":"sa"},"population":5293,"osm_type":"node","osm_id":1237958860,"type":"town","location":[36.075833,29.161944],"bbox":[36.035833,29.121944,36.115833,29.201944]}
{"name":"حبونا","other_names":{"name:ar":"حبونا","name:en":"Habuna","alt_name":"قابل منيف"},"display_name":"حبونا, محافظة حبونا, منطقة نجران, السعودية","address":{"town":"حبونا","province":"محافظة حبونا","state":"منطقة نجران","ISO3166-2-lvl4":"SA-10","country":"السعودية","country_code":"sa"},"osm_type":"node","osm_id":11871306300,"type":"town","location":[44.023155,17.8518464],"bbox":[43.983155,17.8118464,44.063155,17.8918464]}
{"name":"حداد بني مالك","display_name":"حداد بني مالك, محافظة ميسان, منطقة مكة المكرمة, السعودية","address":{"town":"حداد بني مالك","province":"محافظة ميسان","state":"منطقة مكة المكرمة","ISO3166-2-lvl4":"SA-02","country":"السعودية","country_code":"sa"},"osm_type":"node","osm_id":6770816535,"type":"town","location":[41.0500591,20.5973903],"bbox":[41.0100591,20.5573903,41.0900591,20.6373903]}
{"name":"حرض","other_names":{"name:ar":"حرض","name:en":"Haradh","name:ml":"ഹറദ്","alt_name":"Haradh;Haradh Camp","int_name":"Ḩaraḑ"},"display_name":"حرض, محافظة الأحساء, المنطقة الشرقية, السعودية","address":{"town":"حرض","city":"محافظة الأحساء","state":"المنطقة الشرقية","ISO3166-2-lvl4":"SA-04","country":"السعودية","country_code":"sa"},"osm_type":"node","osm_id":5816707808,"type":"town","location":[49.0529843,24.1418987],"bbox":[49.0129843,24.1018987,49.0929843,24.1818987]}
{"name":"حرمة","other_names":{"name:ar":"حرمة","name:de":"Harmah","name:en":"Harmah","name:fr":"Harmah","alt_name":"Al Harma; Harma","int_name":"Ḩarmah"},"display_name":"حرمة, محافظة المجمعة, منطقة الرياض, 11952, السعودية","address":{"town":"حرمة","province":"محافظة المجمعة","state":"منطقة الرياض","ISO3166-2-lvl4":"SA-01","postcode":"11952","country":"السعودية","country_code":"sa"},"population":8701,"osm_type":"node","osm_id":1236399809,"type":"town","location":[45.3318172,25.9246207],"bbox":[45.2918172,25.8846207,45.3718172,25.9646207],"border":{"name":"Harmah","display_name":"Harmah, محافظة المجمعة, منطقة الرياض, السعودية","address":{"administrative":"Harmah","province":"محافظة المجمعة","state":"منطقة الرياض","ISO3166-2-lvl4":"SA-01","country":"السعودية","country_code":"sa"},"osm_type":"relation","osm_id":12333428,"type":"administrative","location":[45.32265056254393,25.92992545],"bbox":[45.3198521,25.9208541,45.3393518,25.9397987]}}
{"name":"حريملاء","other_names":{"name:ar":"حريملاء","name:de":"Huraymila'","name:en":"Huraymila'","name:fr":"Huraymila'","name:ml":"ഹുറൈമില","alt_name":"Al Huraimala;Haraimalah;Haraimlah;Huraimala;Huraymala;Ḩuraymalā;Huraymalah;Ḩuraymalah;Huraymila;Ḩuraymilā;Huraymilah;Ḩuraymilah;حريملا","int_name":"Ḩuraymilā’"},"display_name":"حريملاء, محافظة حريملاء, منطقة الرياض, السعودية","address":{"town":"حريملاء","province":"محافظة حريملاء","state":"منطقة الرياض","ISO3166-2-lvl4":"SA-01","country":"السعودية","country_code":"sa"},"population":9696,"osm_type":"node","osm_id":1236702667,"type":"town","location":[46.1225,25.126667],"bbox":[46.0825,25.086667,46.1625,25.166667],"border":{"name":"محافظة حريملاء","other_names":{"name:ar":"محافظة حريملاء","name:en":"Huraymila","name:de":"Huraymila'","name:fr":"Huraymila'","name:ml":"ഹുറൈമില","alt_name":"Al Huraimala;Haraimalah;Haraimlah;Huraimala;Huraymala;Ḩuraymalā;Huraymalah;Ḩuraymalah;Huraymila;Ḩuraymilā;Huraymilah;Ḩuraymilah;حريملا","int_name":"Ḩuraymilā’","alt":"حريملاء","alt:ar":"حريملاء","alt:en":"Huraymila'"},"display_name":"محافظة حريملاء, منطقة الرياض, السعودية","address":{"province":"محافظة حريملاء","state":"منطقة الرياض","ISO3166-2-lvl4":"SA-01","country":"السعودية","country_code":"sa"},"population":15324,"osm_type":"relation","osm_id":12423671,"type":"administrative","location":[46.1225,25.126667],"bbox":[45.70428,24.7966799,46.66046,25.6615299]}}
{"name":"حقل","other_names":{"name:ar":"حقل","name:de":"Haql","name:en":"Haql","name:fr":"Haql","name:he":"חקל","name:hr":"Hakl","name:ml":"ഹഖ്ൽ","name:tr":"Hakl","alt_name":"Al Haql;El Haql;Hagl;Hagul;Haikl;Hakl;Ḥakl;Haqal;Hegl;Ḩegl","int_name":"Ḩaql"},"display_name":"حقل, محافظة حقل, منطقة تبوك, السعودية","address":{"town":"حقل","province":"محافظة حقل","state":"منطقة تبوك","ISO3166-2-lvl4":"SA-07","country":"السعودية","country_code":"sa"},"population":25649,"osm_type":"node","osm_id":1236312441,"type":"town","location":[34.9469118,29.2864157],"bbox":[34.9069118,29.2464157,34.9869118,29.3264157],"border":{"name":"محافظة حقل","other_names":{"name:ar":"محافظة حقل","name:en":"Haqil","name:de":"Haql","name:fr":"Haql","name:he":"חקל","name:hr":"Hakl","name:ml":"ഹഖ്ൽ","name:tr":"Hakl","alt_name":"Al Haql;El Haql;Hagl;Hagul;Haikl;Hakl;Ḥakl;Haqal;Hegl;Ḩegl","int_name":"Ḩaql","alt":"حقل","alt:ar":"حقل","alt:en":"Haql"},"display_name":"محافظة حقل, منطقة تبوك, السعودية","address":{"province":"محافظة حقل","state":"منطقة تبوك","ISO3166-2-lvl4":"SA-07","country":"السعودية","country_code":"sa"},"population":27856,"osm_type":"relation","osm_id":12420160,"type":"administrative","location":[34.9469118,29.2864157],"bbox":[34.8038525,28.7165287,35.97802,29.3573827]}}
{"name":"حوطة سدير","other_names":{"name:ar":"حوطة سدير","name:de":"Hawtat Sudayr","name:en":"Hawtat Sudayr","name:fr":"Hawtat Sudayr","name:ml":"ഹൗത്തത്ത് സുദൈർ","alt_name":"Al Hawtah;Al Ḩawţah;Hauta;Hautah;Hawtah;Ḩawţah","int_name":"Ḩawţat Sudayr"},"display_name":"حوطة سدير, محافظة المجمعة, منطقة الرياض, السعودية","address":{"town":"حوطة سدير","province":"محافظة المجمعة","state":"منطقة الرياض","ISO3166-2-lvl4":"SA-01","country":"السعودية","country_code":"sa"},"population":18954,"osm_type":"node","osm_id":1236702453,"type":"town","location":[45.6179264,25.5976844],"bbox":[45.5779264,25.5576844,45.6579264,25.6376844]}
{"name":"خريص","other_names":{"name:ar":"خريص","name:de":"Khurays","name:en":"Khurays","name:fr":"Khurays","name:ml":"ഖുറൈസ്","name:uk":"Хурайс","int_name":"Khurayş"},"display_name":"خريص, محافظة الأحساء, المنطقة الشرقية, السعودية","address":{"town":"خريص","city":"محافظة الأحساء","state":"المنطقة الشرقية","ISO3166-2-lvl4":"SA-04","country":"السعودية","country_code":"sa"},"osm_type":"node","osm_id":1236707921,"type":"town","location":[48.0415825,25.0867945],"bbox":[48.0015825,25.0467945,48.0815825,25.1267945]}
{"name":"خصيبة","other_names":{"name:ar":"خصيبة","name:en":"KHUSAIBAH","name:ml":"ഖുസൈബ","int_name":"KHUSAIBAH"},"display_name":"خصيبة, محافظة الأسياح, منطقة القصيم, 52466, السعودية","address":{"town":"خصيبة","province":"محافظة الأسياح","state":"منطقة القصيم","ISO3166-2-lvl4":"SA-05","postcode":"52466","country":"السعودية","country_code":"sa"},"population":10000,"osm_type":"node","osm_id":747671169,"type":"town","location":[44.1544356,26.8803911],"bbox":[44.1144356,26.8403911,44.1944356,26.9203911]}
{"name":"خليص","other_names":{"name:ar":"خليص","name:de":"Khulays","name:en":"Khulays","name:fr":"Khulays","name:ml":"ഖുലൈസ്","name:uk":"Хулайс","int_name":"Khulayş"},"display_name":"خليص, محافظة خليص, منطقة مكة المكرمة, السعودية","address":{"town":"خليص","province":"محافظة خليص","state":"منطقة مكة المكرمة","ISO3166-2-lvl4":"SA-02","country":"السعودية","country_code":"sa"},"population":19331,"osm_type":"node","osm_id":724120971,"type":"town","location":[39.3202072,22.1551359],"bbox":[39.2802072,22.1151359,39.3602072,22.1951359],"border":{"name":"محافظة خليص","other_names":{"name:ar":"محافظة خليص","name:en":"Khulays","name:uk":"Хулайс"},"display_name":"محافظة خليص, منطقة مكة المكرمة, 25551, السعودية","address":{"province":"محافظة خليص","state":"منطقة مكة المكرمة","ISO3166-2-lvl4":"SA-02","postcode":"25551","country":"السعودية","country_code":"sa"},"population":56687,"osm_type":"relation","osm_id":12429520,"type":"administrative","location":[39.45386937694704,22.3420751],"bbox":[39.22382,21.8707501,39.94103,22.8147001]}}
{"name":"خيبر","other_names":{"name:ar":"خيبر","name:de":"Chaibar","name:en":"Khaybar","name:es":"Jáibar","name:fr":"Khaybar","name:ko":"카이바르","name:uk":"Хайбар"},"display_name":"خيبر, محافظة خيبر, منطقة المدينة المنورة, السعودية","address":{"town":"خيبر","province":"محافظة خيبر","state":"منطقة المدينة المنورة","ISO3166-2-lvl4":"SA-03","country":"السعودية","country_code":"sa"},"population":16081,"osm_type":"node","osm_id":546640970,"type":"town","location":[39.2930559,25.7057657],"bbox":[39.2530559,25.6657657,39.3330559,25.7457657],"border":{"name":"محافظة خيبر","other_names":{"name:ar":"محافظة خيبر","name:en":"Khaybar","name:uk":"Хайбар"},"display_name":"محافظة خيبر, منطقة المدينة المنورة, السعودية","address":{"province":"محافظة خيبر","state":"منطقة المدينة المنورة","ISO3166-2-lvl4":"SA-03","country":"السعودية","country_code":"sa"},"population":48592,"osm_type":"relation","osm_id":12429011,"type":"administrative","location":[39.43571031610098,25.8572399],"bbox":[38.42854,24.9111255,39.98106,26.8039976]}}
{"name":"دخنة","other_names":{"name:ar":"دخنة","name:en":"Dukhnah","name:ml":"ദുഖ്ന","alt_name":"Dokhna","int_name":"Dukhnah"},"display_name":"دخنة, محافظة الرس, منطقة القصيم, السعودية","address":{"town":"دخنة","province":"محافظة الرس","state":"منطقة القصيم","ISO3166-2-lvl4":"SA-05","country":"السعودية","country_code":"sa"},"population":5727,"osm_type":"node","osm_id":747667497,"type":"town","location":[43.6140003,25.3610001],"bbox":[43.5740003,25.3210001,43.6540003,25.4010001]}
{"name":"رجال ألمع","other_names":{"name:en":"Rijal Almaa","name:ml":"റിജാൽ അൽമ","alt_name":"رجال ألمع","int_name":"Rijāl Almaa","alt_name:en":"Rijal Almaa"},"display_name":"رجال ألمع, محافظة رجال ألمع, منطقة عسير, السعودية","address":{"town":"رجال ألمع","province":"محافظة رجال ألمع","state":"منطقة عسير","ISO3166-2-lvl4":"SA-14","country":"السعودية","country_code":"sa"},"osm_type":"node","osm_id":11892567408,"type":"town","location":[42.2733367,18.2124897],"bbox":[42.2333367,18.1724897,42.3133367,18.2524897],"border":{"name":"محافظة رجال ألمع","other_names":{"name:ar":"محافظة رجال ألمع","name:en":"Rijal Almaa","name:ml":"റിജാൽ അൽമ","alt_name":"رجال ألمع","int_name":"Rijāl Almaa","alt_name:en":"Rijal Almaa","alt":"رجال ألمع"},"display_name":"محافظة رجال ألمع, منطقة عسير, 63296, السعودية","address":{"province":"محافظة رجال ألمع","state":"منطقة عسير","ISO3166-2-lvl4":"SA-14","postcode":"63296","country":"السعودية","country_code":"sa"},"population":65406,"osm_type":"relation","osm_id":12436484,"type":"administrative","location":[42.2733367,18.2124897],"bbox":[41.7288326,17.7603127,42.37095,18.4412501]}}
{"name":"رحيمة","other_names":{"name:ar":"رحيمة","name:de":"Ra's Tannurah","name:en":"Ra's Tannurah","name:fr":"Ra's Tannurah","name:he":"ראס טנורה","name:ml":"റാസ് തന്നൂറ","alt_name":"Cape Tannura;Ra's at Tannurah;Ra’s at Tannūrah;Rahaima;Rahimah;Raḩīmah;Ras at Tannura;Ras Tannura;Ras Tanura;رأس تنورة","int_name":"Ra’s Tannūrah","alt_name:ar":"رأس تنورة"},"display_name":"رحيمة, محافظة رأس تنوره, المنطقة الشرقية, 32811, السعودية","address":{"town":"رحيمة","province":"محافظة رأس تنوره","state":"المنطقة الشرقية","ISO3166-2-lvl4":"SA-04","postcode":"32811","country":"السعودية","country_code":"sa"},"population":54166,"osm_type":"node","osm_id":1237805652,"type":"town","location":[50.067352,26.707417],"bbox":[50.027352,26.667417,50.107352,26.747417]}
{"name":"رغبة","other_names":{"name:ar":"رغبة","name:de":"Raghabah","name:en":"Raghabah","name:fr":"Raghabah","name:ml":"റഗബ","alt_name":"Ar Raghba;Ar Raghbah;Ar Rughbah;Raghaba;Raghbah;Rghabah","int_name":"Raghabah"},"display_name":"رغبة, محافظة ثادق, منطقة الرياض, السعودية","address":{"town":"رغبة","province":"محافظة ثادق","state":"منطقة الرياض","ISO3166-2-lvl4":"SA-01","country":"السعودية","country_code":"sa"},"osm_type":"node","osm_id":1236702102,"type":"town","location":[45.796944,25.160833],"bbox":[45.756944,25.120833,45.836944,25.200833]}
{"name":"رماح","other_names":{"name:ar":"رماح","name:de":"Rumah","name:en":"Rumah","name:fr":"Rumah","name:ml":"റുമാഹ്","alt_name":"Ar Rimah;Ar Rimāḩ;Ar Rumah;Ar Rumāh;Rimah;Rimāh;Ruma","int_name":"Rumāḩ"},"display_name":"رماح, محافظة رماح, منطقة الرياض, 11981, السعودية","address":{"town":"رماح","province":"محافظة رماح","state":"منطقة الرياض","ISO3166-2-lvl4":"SA-01","postcode":"11981","country":"السعودية","country_code":"sa"},"population":20276,"osm_type":"node","osm_id":1236703436,"type":"town","location":[47.156667,25.569722],"bbox":[47.116667,25.529722,47.196667,25.609722],"border":{"name":"محافظة رماح","other_names":{"name:ar":"محافظة رماح","name:en":"Rumah"},"display_name":"محافظة رماح, منطقة الرياض, السعودية","address":{"province":"محافظة رماح","state":"منطقة الرياض","ISO3166-2-lvl4":"SA-01","country":"السعودية","country_code":"sa"},"population":28055,"osm_type":"relation","osm_id":12423682,"type":"administrative","location":[47.065509250000005,25.7371999],"bbox":[46.35396,24.7939199,47.77963,26.6818399]}}
{"name":"رنية","other_names":{"name:ar":"رنية","name:en":"Ranyah","name:fr":"Ranyah","name:ml":"റന്യ"},"display_name":"رنية, محافظة رنيه, منطقة مكة المكرمة, السعودية","address":{"town":"رنية","province":"محافظة رنيه","state":"منطقة مكة المكرمة","ISO3166-2-lvl4":"SA-02","country":"السعودية","country_code":"sa"},"population":21656,"osm_type":"node","osm_id":5924471509,"type":"town","location":[42.8501935,21.2571996],"bbox":[42.8101935,21.2171996,42.8901935,21.2971996],"border":{"name":"محافظة رنيه","other_names":{"name:ar":"محافظة رنيه","name:en":"Ranyah"},"display_name":"محافظة رنيه, منطقة مكة المكرمة, 18211, السعودية","address":{"province":"محافظة رنيه","state":"منطقة مكة المكرمة","ISO3166-2-lvl4":"SA-02","postcode":"18211","country":"السعودية","country_code":"sa"},"population":45942,"osm_type":"relation","osm_id":12429526,"type":"administrative","location":[42.74626530970685,21.1798301],"bbox":[41.87844,20.2532901,43.83016,22.1093801]}}
{"name":"روضة سدير","other_names":{"name:ar":"روضة سدير","name:ml":"റൗദത്ത് സുദൈർ"},"display_name":"روضة سدير, محافظة المجمعة, منطقة الرياض, السعودية","address":{"town":"روضة سدير","province":"محافظة المجمعة","state":"منطقة الرياض","ISO3166-2-lvl4":"SA-01","country":"السعودية","country_code":"sa"},"osm_type":"node","osm_id":8381773105,"type":"town","location":[45.565428,25.6174513],"bbox":[45.525428,25.5774513,45.605428,25.6574513]}
{"name":"روضة هباس","other_names":{"name:ar":"روضة هباس","name:de":"Rawdat Habbas","name:en":"Rawdat Habbas","name:fr":"Rawdat Habbas","name:ml":"റൗദത്ത് ഹബ്ബാസ്","int_name":"Rawḑat Habbās"},"display_name":"روضة هباس, محافظة رفحاء, منطقة الحدود الشمالية, 12132, السعودية","address":{"town":"روضة هباس","province":"محافظة رفحاء","state":"منطقة الحدود الشمالية","ISO3166-2-lvl4":"SA-08","postcode":"12132","country":"السعودية","country_code":"sa"},"population":5532,"osm_type":"node","osm_id":1237548502,"type":"town","location":[44.3114119,29.1503987],"bbox":[44.2714119,29.1103987,44.3514119,29.1903987]}
{"name":"رياض الخبراء","other_names":{"name:ar":"رياض الخبراء","name:en":"Riyad Al Khabra","name:fr":"Riyadh Al Khabra","name:ml":"റിയാദ് അൽ-ഖബ്ര","alt_name":"Al-Khabra;رياض الخبراء;Riyāḑ al Khabrā’;Riyad al Khabra'"},"display_name":"رياض الخبراء, محافظة رياض الخبراء, منطقة القصيم, السعودية","address":{"town":"رياض الخبراء","province":"محافظة رياض الخبراء","state":"منطقة القصيم","ISO3166-2-lvl4":"SA-05","country":"السعودية","country_code":"sa"},"population":17236,"osm_type":"node","osm_id":734945198,"type":"town","location":[43.5580679,26.0547858],"bbox":[43.5180679,26.0147858,43.5980679,26.0947858],"border":{"name":"محافظة رياض الخبراء","other_names":{"name:ar":"محافظة رياض الخبراء","name:en":"Riyadh Al Khabra"},"display_name":"محافظة رياض الخبراء, منطقة القصيم, السعودية","address":{"province":"محافظة رياض الخبراء","state":"منطقة القصيم","ISO3166-2-lvl4":"SA-05","country":"السعودية","country_code":"sa"},"population":34497,"osm_type":"relation","osm_id":12406845,"type":"administrative","location":[42.3197632559536,26.3383651],"bbox":[42.1375213,25.8730899,43.59203,26.5831901]}}
{"name":"ساجر","other_names":{"name:ar":"ساجر","name:de":"Sajir","name:en":"Sajir","name:fr":"Sajir","name:ml":"സാജിർ","alt_name":"As Sajir;As Sājir","int_name":"Sājir"},"display_name":"ساجر, محافظة الدوادمى, منطقة الرياض, السعودية","address":{"town":"ساجر","province":"محافظة الدوادمى","state":"منطقة الرياض","ISO3166-2-lvl4":"SA-01","country":"السعودية","country_code":"sa"},"population":12921,"osm_type":"node","osm_id":1236696327,"type":"town","location":[44.600278,25.180556],"bbox":[44.560278,25.140556,44.640278,25.220556]}
{"name":"سدوس","other_names":{"name:ar":"سدوس","name:de":"Sudus","name:en":"Sudus","name:fr":"Sudus","name:ml":"സുദൂസ്","alt_name":"Sadus;Sidus;Sidūs","int_name":"Sudūs"},"display_name":"سدوس, محافظة الدرعية, منطقة الرياض, السعودية","address":{"town":"سدوس","province":"محافظة الدرعية","state":"منطقة الرياض","ISO3166-2-lvl4":"SA-01","country":"السعودية","country_code":"sa"},"osm_type":"node","osm_id":1236702231,"type":"town","location":[46.2075,24.991667],"bbox":[46.1675,24.951667,46.2475,25.031667]}
{"name":"سراة عبيدة","other_names":{"name:ar":"سراة عبيدة","name:en":"Sarat `Abidah","name:fr":"Sarat `Abidah","name:ml":"സറാത്ത് അബീദ","alt_name":"Sarat `Abidah","int_name":"Sarat `Abidah"},"display_name":"سراة عبيدة, محافظة سراة عبيدة, منطقة عسير, 64511, السعودية","address":{"town":"سراة عبيدة","village":"محافظة سراة عبيدة","state":"منطقة عسير","ISO3166-2-lvl4":"SA-14","postcode":"64511","country":"السعودية","country_code":"sa"},"population":13451,"osm_type":"node","osm_id":295926005,"type":"town","location":[43.1326414,18.0873982],"bbox":[43.0926414,18.0473982,43.1726414,18.1273982]}
{"name":"سعد","other_names":{"name:ar":"سعد","name:en":"Saad","name:ml":"സാദ്"},"display_name":"سعد, محافظة رماح, منطقة الرياض, السعودية","address":{"town":"سعد","province":"محافظة رماح","state":"منطقة الرياض","ISO3166-2-lvl4":"SA-01","country":"السعودية","country_code":"sa"},"osm_type":"node","osm_id":5913557299,"type":"town","location":[47.5694127,25.1006266],"bbox":[47.5294127,25.0606266,47.6094127,25.1406266]}
{"name":"سميراء","other_names":{"name:ar":"سميراء","name:en":"Simira'","name:fr":"Simira","name:ml":"സിമീറ","int_name":"Simīrā’"},"display_name":"سميراء, محافظة سميراء, منطقة حائل, السعودية","address":{"town":"سميراء","province":"محافظة سميراء","state":"منطقة حائل","ISO3166-2-lvl4":"SA-06","country":"السعودية","country_code":"sa"},"osm_type":"node","osm_id":7684860021,"type":"town","location":[42.124944,26.494182],"bbox":[42.084944,26.454182,42.164944,26.534182],"border":{"name":"محافظة سميراء","other_names":{"name:ar":"محافظة سميراء","name:en":"Simira"},"display_name":"محافظة سميراء, منطقة حائل, السعودية","address":{"province":"محافظة سميراء","state":"منطقة حائل","ISO3166-2-lvl4":"SA-06","country":"السعودية","country_code":"sa"},"osm_type":"relation","osm_id":12413064,"type":"administrative","location":[42.16708559255038,26.5197232],"bbox":[41.7842039,26.1020691,42.6497257,26.9270905]}}
{"name":"سيهات","other_names":{"name:ar":"سيهات","name:cs":"Sajhat","name:de":"Sayhat","name:en":"Sayhat","name:es":"Saihat","name:fr":"Sayhat","name:he":"סאיהט","name:ml":"സൈഹാത്ത്","alt_name":"As Saihat;As Saihāt;As Sayhat;As Sayhāt;Saihat;Sihat;Sīhāt","int_name":"Sayhāt"},"display_name":"سيهات, محافظة القطيف, المنطقة الشرقية, 32452, السعودية","address":{"town":"سيهات","province":"محافظة القطيف","state":"المنطقة الشرقية","ISO3166-2-lvl4":"SA-04","postcode":"32452","country":"السعودية","country_code":"sa"},"population":84818,"osm_type":"node","osm_id":1013645811,"type":"town","location":[50.0416329,26.475],"bbox":[50.0016329,26.435,50.0816329,26.515]}
{"name":"شعبة نصاب","other_names":{"name:ar":"شعبة نصاب","name:ml":"അഷ്-ഷുബ","alt_name":"الشعبة","int_name":"Ash Shu‘bah"},"display_name":"شعبة نصاب, محافظة رفحاء, منطقة الحدود الشمالية, السعودية","address":{"town":"شعبة نصاب","province":"محافظة رفحاء","state":"منطقة الحدود الشمالية","ISO3166-2-lvl4":"SA-08","country":"السعودية","country_code":"sa"},"osm_type":"node","osm_id":1236406905,"type":"town","location":[44.7397731,28.8836507],"bbox":[44.6997731,28.8436507,44.7797731,28.9236507]}
{"name":"صامطة","other_names":{"name:ar":"صامطة","name:de":"Samitah","name:en":"Samitah","name:fr":"Samitah","name:ml":"സാമിത്ത","int_name":"Şāmiţah"},"display_name":"صامطة, منطقة جازان, 86735, السعودية","address":{"town":"صامطة","state":"منطقة جازان","ISO3166-2-lvl4":"SA-09","postcode":"86735","country":"السعودية","country_code":"sa"},"population":32458,"osm_type":"node","osm_id":1237961376,"type":"town","location":[42.943889,16.597222],"bbox":[42.903889,16.557222,42.983889,16.637222]}
{"name":"صبيا","other_names":{"name:ar":"صبيا","name:de":"Sabya","name:en":"Sabya","name:fr":"Sabya","name:ml":"സബ്യ","alt_name":"Al-Sabya;As Sabya;Aş Şabyā;Sabie;Sabiya","int_name":"Şabyā"},"display_name":"صبيا, منطقة جازان, 85454, السعودية","address":{"town":"صبيا","state":"منطقة جازان","ISO3166-2-lvl4":"SA-09","postcode":"85454","country":"السعودية","country_code":"sa"},"population":63143,"osm_type":"node","osm_id":1237961155,"type":"town","location":[42.621495,17.1502255],"bbox":[42.581495,17.1102255,42.661495,17.1902255],"border":{"name":"محافظة صبياء","other_names":{"name:ar":"محافظة صبياء","name:en":"Sabya","alt:ar":"الكومه","alt:en":"Alkumuh"},"display_name":"محافظة صبياء, منطقة جازان, السعودية","address":{"province":"محافظة صبياء","state":"منطقة جازان","ISO3166-2-lvl4":"SA-09","country":"السعودية","country_code":"sa"},"population":228375,"osm_type":"relation","osm_id":12430371,"type":"administrative","location":[42.5073273,17.1319384],"bbox":[42.4018296,16.9815617,42.9158,17.4597001]}}
{"name":"صعبر","other_names":{"name:ar":"صعبر","name:en":"Saabar","name:ml":"സാബർ"},"display_name":"صعبر, محافظة رابغ, منطقة مكة المكرمة, السعودية","address":{"town":"صعبر","city":"محافظة رابغ","state":"منطقة مكة المكرمة","ISO3166-2-lvl4":"SA-02","country":"السعودية","country_code":"sa"},"population":6237,"osm_type":"node","osm_id":1185773183,"type":"town","location":[39.1901461,22.4492938],"bbox":[39.1501461,22.4092938,39.2301461,22.4892938]}
{"name":"صفوى","other_names":{"name:ar":"صفوى","name:en":"Safwa","name:fr":"Safwa","name:ml":"സഫ്‌വ","name:nn":"Safwa","name:pl":"Safwa","name:tr":"Safva","int_name":"ٍSafwa","name:ceb":"Şafwá"},"display_name":"صفوى, محافظة القطيف, المنطقة الشرقية, 32833, السعودية","address":{"town":"صفوى","province":"محافظة القطيف","state":"المنطقة الشرقية","ISO3166-2-lvl4":"SA-04","postcode":"32833","country":"السعودية","country_code":"sa"},"population":45676,"osm_type":"node","osm_id":11361447139,"type":"town","location":[49.9466586,26.6484641],"bbox":[49.9066586,26.6084641,49.9866586,26.6884641]}
{"name":"صوير","other_names":{"name:ar":"صوير","name:en":"Suwayr","int_name":"Şuwayr"},"display_name":"صوير, محافظة سكاكا, منطقة الجوف, السعودية","address":{"town":"صوير","city":"محافظة سكاكا","state":"منطقة الجوف","ISO3166-2-lvl4":"SA-12","country":"السعودية","country_code":"sa"},"population":9779,"osm_type":"node","osm_id":1236739864,"type":"town","location":[40.3888113,30.117261],"bbox":[40.3488113,30.077261,40.4288113,30.157261]}
{"name":"ضرما","other_names":{"name:ar":"ضرما","name:de":"Duruma","name:en":"Duruma","name:fr":"Duruma","name:ml":"ദുർമ","alt_name":"Adh Dharma;Darma;Ḑarmā;Dhruma;Durma;Ḑurmā","int_name":"Ḑurumā"},"display_name":"ضرما, محافظة ضرما, منطقة الرياض, السعودية","address":{"town":"ضرما","province":"محافظة ضرما","state":"منطقة الرياض","ISO3166-2-lvl4":"SA-01","country":"السعودية","country_code":"sa"},"population":11461,"osm_type":"node","osm_id":1236704884,"type":"town","location":[46.133743,24.59551],"bbox":[46.093743,24.55551,46.173743,24.63551],"border":{"name":"محافظة ضرما","other_names":{"name:ar":"محافظة ضرما","name:en":"Duruma"},"display_name":"محافظة ضرما, منطقة الرياض, السعودية","address":{"province":"محافظة ضرما","state":"منطقة الرياض","ISO3166-2-lvl4":"SA-01","country":"السعودية","country_code":"sa"},"population":24429,"osm_type":"relation","osm_id":12423666,"type":"administrative","location":[46.049690475,24.6713049],"bbox":[45.7106,24.3917099,46.65924,24.9505999]}}
{"name":"ضرية","other_names":{"name:ar":"ضرية","name:de":"Dariyah","name:en":"Dariyah","name:fr":"Dariyah","name:ml":"ദറിയ","int_name":"Ḑarīyah"},"display_name":"ضرية, محافظة ضريه, منطقة القصيم, السعودية","address":{"town":"ضرية","province":"محافظة ضريه","state":"منطقة القصيم","ISO3166-2-lvl4":"SA-05","country":"السعودية","country_code":"sa"},"osm_type":"node","osm_id":1236443114,"type":"town","location":[42.9284151,24.7156647],"bbox":[42.8884151,24.6756647,42.9684151,24.7556647],"border":{"name":"محافظة ضريه","other_names":{"name:ar":"محافظة ضريه","name:en":"Dariyah"},"display_name":"محافظة ضريه, منطقة القصيم, السعودية","address":{"province":"محافظة ضريه","state":"منطقة القصيم","ISO3166-2-lvl4":"SA-05","country":"السعودية","country_code":"sa"},"osm_type":"relation","osm_id":12406851,"type":"administrative","location":[42.58330036264353,24.93088745],"bbox":[42.0345411,24.4836001,43.4517273,25.3778599]}}
{"name":"ضليع رشيد","other_names":{"name:ar":"ضليع رشيد","name:de":"Dulay` Rashid","name:en":"Dulay` Rashid","name:fr":"Dulay` Rashid","name:ku":"Zulley' Reşîd","name:ml":"ദുലൈ റഷീദ്","int_name":"Ḑulay‘ Rashīd","name:ckb":"زوڵەیع ڕەشید"},"display_name":"ضليع رشيد, محافظة النبهانيه, منطقة القصيم, السعودية","address":{"town":"ضليع رشيد","province":"محافظة النبهانيه","state":"منطقة القصيم","ISO3166-2-lvl4":"SA-05","country":"السعودية","country_code":"sa"},"osm_type":"node","osm_id":747667494,"type":"town","location":[42.8467437,25.5031224],"bbox":[42.8067437,25.4631224,42.8867437,25.5431224]}
{"name":"ضمد","other_names":{"name:ar":"ضمد","name:de":"Damad","name:en":"Damad","name:fr":"Damad","name:ml":"ദമദ്","int_name":"Ḑamad"},"display_name":"ضمد, محافظة ضمد, منطقة جازان, السعودية","address":{"town":"ضمد","province":"محافظة ضمد","state":"منطقة جازان","ISO3166-2-lvl4":"SA-09","country":"السعودية","country_code":"sa"},"population":24056,"osm_type":"node","osm_id":1237961144,"type":"town","location":[42.7795037,17.1051176],"bbox":[42.7395037,17.0651176,42.8195037,17.1451176],"border":{"name":"محافظة ضمد","other_names":{"name:ar":"محافظة ضمد","name:en":"Damad"},"display_name":"محافظة ضمد, منطقة جازان, السعودية","address":{"province":"محافظة ضمد","state":"منطقة جازان","ISO3166-2-lvl4":"SA-09","country":"السعودية","country_code":"sa"},"population":71601,"osm_type":"relation","osm_id":12430366,"type":"administrative","location":[42.81988879598663,17.123550100000003],"bbox":[42.6739,17.0087801,42.94825,17.2402301]}}
{"name":"ظلم","other_names":{"name:ar":"ظلم","name:de":"Zalim","name:en":"Zalim","name:fr":"Zalim","name:ml":"ദലിം","int_name":"Z̧alim"},"display_name":"ظلم, محافظة المويه, منطقة مكة المكرمة, السعودية","address":{"town":"ظلم","province":"محافظة المويه","state":"منطقة مكة المكرمة","ISO3166-2-lvl4":"SA-02","country":"السعودية","country_code":"sa"},"population":5090,"osm_type":"node","osm_id":1236449562,"type":"town","location":[42.1687062,22.7233712],"bbox":[42.1287062,22.6833712,42.2087062,22.7633712]}
{"name":"ظهران الجنوب","other_names":{"name:ar":"ظهران الجنوب","name:de":"Dhahran Al Janub","name:en":"Dhahran Al Janub","name:fr":"Dhahran Al Janub","name:ml":"ദഹ്‌റാൻ അൽ ജനൂബ്","alt_name":"ظهران الجنوب","int_name":"Dhahrān Al Janub"},"display_name":"ظهران الجنوب, محافظة ظهران الجنوب, منطقة عسير, السعودية","address":{"town":"ظهران الجنوب","province":"محافظة ظهران الجنوب","state":"منطقة عسير","ISO3166-2-lvl4":"SA-14","country":"السعودية","country_code":"sa"},"population":23758,"osm_type":"node","osm_id":1237961702,"type":"town","location":[43.5194305,17.6617883],"bbox":[43.4794305,17.6217883,43.5594305,17.7017883],"border":{"name":"محافظة ظهران الجنوب","other_names":{"name:ar":"محافظة ظهران الجنوب","name:en":"Dhahran Al Janub"},"display_name":"محافظة ظهران الجنوب, منطقة عسير, السعودية","address":{"province":"محافظة ظهران الجنوب","state":"منطقة عسير","ISO3166-2-lvl4":"SA-14","country":"السعودية","country_code":"sa"},"population":63119,"osm_type":"relation","osm_id":12436470,"type":"administrative","location":[43.457111484920425,17.62079225],"bbox":[43.2396179,17.3666667,43.72378,17.8811155]}}
{"name":"عرجاء","other_names":{"name:ar":"عرجاء","name:de":"Arjaa","name:en":"Arjaa","name:fr":"Arjaa","name:ml":"അർജാ","alt_name":"عرجاء","int_name":"Arjaa, Arjaa"},"display_name":"عرجاء, محافظة الدوادمى, منطقة الرياض, السعودية","address":{"town":"عرجاء","province":"محافظة الدوادمى","state":"منطقة الرياض","ISO3166-2-lvl4":"SA-01","country":"السعودية","country_code":"sa"},"population":5163,"osm_type":"node","osm_id":1236695924,"type":"town","location":[44.2909813,24.7225734],"bbox":[44.2509813,24.6825734,44.3309813,24.7625734]}
{"name":"عشيرة","other_names":{"name:ar":"عشيرة","name:de":"Ushayrah","name:en":"Ushayrah","name:fr":"Ushayrah","alt_name":"عشيرة","int_name":"Ushayrah,Ashaira, Ashayrah, Ushayrah"},"display_name":"عشيرة, محافظة الطائف, منطقة مكة المكرمة, السعودية","address":{"town":"عشيرة","province":"محافظة الطائف","state":"منطقة مكة المكرمة","ISO3166-2-lvl4":"SA-02","country":"السعودية","country_code":"sa"},"population":8425,"osm_type":"node","osm_id":1236690912,"type":"town","location":[40.6509795,21.758084],"bbox":[40.6109795,21.718084,40.6909795,21.798084]}
{"name":"عفراء","other_names":{"name:ar":"عفراء","name:fr":"Afraa","name:ml":"അഫ്രാ","alt_name":"عفراء","int_name":"Afraa","name:ang":"Afraa","alt_name:en":"Afraa"},"display_name":"عفراء, محافظة بلقرن, منطقة عسير, السعودية","address":{"town":"عفراء","province":"محافظة بلقرن","state":"منطقة عسير","ISO3166-2-lvl4":"SA-14","country":"السعودية","country_code":"sa"},"osm_type":"node","osm_id":11886589777,"type":"town","location":[42.0238787,19.6941742],"bbox":[41.9838787,19.6541742,42.0638787,19.7341742]}
{"name":"عقلة الصقور","other_names":{"name:ar":"عقلة الصقور","name:en":"Uglat Asugour","name:es":"Uglat Asugour","name:fr":"Uglat Asugour","alt_name":"`Aqlat as Suqur; `Uglat as Suqur; `Uqlat al Qusur; ‘Aqlat aş Şuqūr; ‘Uglat aş Şuqūr; ‘Uqlat al Quşur; Aqlat al Suqur; عقلة الصقور; ‘Uqlat aş Şuqūr; `Uqlat as Suqur"},"display_name":"عقلة الصقور, محافظة عقلة الصقور, منطقة القصيم, السعودية","address":{"town":"عقلة الصقور","province":"محافظة عقلة الصقور","state":"منطقة القصيم","ISO3166-2-lvl4":"SA-05","country":"السعودية","country_code":"sa"},"population":6659,"osm_type":"node","osm_id":747671382,"type":"town","location":[42.197907,25.828388],"bbox":[42.157907,25.788388,42.237907,25.868388]}
{"name":"عنك","other_names":{"name:ar":"عنك","name:de":"`Inak","name:en":"`Inak","name:fr":"`Inak","name:ml":"ഇനക്ക്","alt_name":"`Ank;‘Ank;Anek;Anik","int_name":"‘Inak"},"display_name":"عنك, محافظة القطيف, المنطقة الشرقية, 32455, السعودية","address":{"town":"عنك","province":"محافظة القطيف","state":"المنطقة الشرقية","ISO3166-2-lvl4":"SA-04","postcode":"32455","country":"السعودية","country_code":"sa"},"population":20038,"osm_type":"node","osm_id":1237806873,"type":"town","location":[50.02715,26.51959],"bbox":[49.98715,26.47959,50.06715,26.55959]}
{"name":"عنيزة","other_names":{"name:ar":"عنيزة","name:bn":"উনাইজা","name:ca":"Unayza","name:de":"Unaizah","name:en":"Unaizah","name:eo":"Unajza","name:es":"Unaizah","name:et":"‘Unayzah","name:fa":"عنیزه","name:fr":"Unaizah","name:he":"אונאיזה","name:id":"Unaizah","name:kk":"Унайза","name:ko":"우나이자","name:ku":"Uneyze","name:ml":"ഉനൈസ","name:nb":"Unaizah","name:nl":"Unayzah","name:nn":"Unaizah","name:pl":"Unajza","name:ru":"Унайза","name:tr":"Uneyze","name:uk":"Унайза","name:ur":"عنیزہ","name:uz":"Unayza","name:zh":"歐奈宰","alt_name":"'Anaizah;`Anaiza;`Unaiza;‘Anaiza;‘Unaiza;’Anaizah;Anaizeh;عنيزة;‘Unayzah;`Unayzah","name:ckb":"عونەیزە","alt_name:en":"Onaizah, Onizah, Unayzah"},"display_name":"عنيزة, محافظة عنيزه, منطقة القصيم, 51911, السعودية","address":{"city":"عنيزة","province":"محافظة عنيزه","state":"منطقة القصيم","ISO3166-2-lvl4":"SA-05","postcode":"51911","country":"السعودية","country_code":"sa"},"population":163729,"osm_type":"way","osm_id":785290146,"type":"town","location":[43.9864354,26.0908582],"bbox":[43.9062595,25.9931526,44.1033267,26.1760064]}
{"name":"عين ابن فهيد","other_names":{"name:ar":"عين ابن فهيد","name:de":"Ayn Ibn Fuhayd","name:en":"Ayn Ibn Fuhayd","name:fr":"Ayn Ibn Fuhayd","name:ml":"ഐൻ ഇബ്നു ഫുഹൈദ്","alt_name":"Ayn Ibn Fuhayd;Ayn Ibn Fuhayd;Ain ibn Fuhaid;العين;عين ابن فهيد;عَين ابن فهيد"},"display_name":"عين ابن فهيد, محافظة الأسياح, منطقة القصيم, 51971, السعودية","address":{"town":"عين ابن فهيد","province":"محافظة الأسياح","state":"منطقة القصيم","ISO3166-2-lvl4":"SA-05","postcode":"51971","country":"السعودية","country_code":"sa"},"population":6649,"osm_type":"node","osm_id":1237556909,"type":"town","location":[44.2126954,26.7737532],"bbox":[44.1726954,26.7337532,44.2526954,26.8137532]}
{"name":"عين اللَّوي","display_name":"عين اللَّوي, محافظة سراة عبيدة, منطقة عسير, السعودية","address":{"town":"عين اللَّوي","village":"محافظة سراة عبيدة","state":"منطقة عسير","ISO3166-2-lvl4":"SA-14","country":"السعودية","country_code":"sa"},"osm_type":"node","osm_id":9503984207,"type":"town","location":[43.0182989,18.0479342],"bbox":[42.9782989,18.0079342,43.0582989,18.0879342]}
{"name":"عيون الجواء","other_names":{"name:ar":"عيون الجواء","name:de":"Al Jiwa","name:en":"Al Jiwa","name:fr":"Al Jiwa","name:ml":"അൽ ജിവ","alt_name":"'Ayun;`Uyun;`Uyun al Qasim;‘Uyun;‘Uyūn al Qasīm;’Ayūn;Al `Uyun;Al ‘Uyūn;عيون الجواء;‘Uyūn al Jiwā’;`Uyun al Jiwa'"},"display_name":"عيون الجواء, محافظة عيون الجواء, منطقة القصيم, السعودية","address":{"town":"عيون الجواء","province":"محافظة عيون الجواء","state":"منطقة القصيم","ISO3166-2-lvl4":"SA-05","country":"السعودية","country_code":"sa"},"population":8338,"osm_type":"node","osm_id":1237556276,"type":"town","location":[43.6377184,26.4945913],"bbox":[43.5977184,26.4545913,43.6777184,26.5345913]}
{"name":"غامد الزناد","other_names":{"name:ar":"غامد الزناد","name:en":"Ghamid Az Zinad","alt_name":"Ghamid Az Zinad","int_name":"Ghamid Az Zinad"},"display_name":"غامد الزناد, محافظة فرعة غامد الزناد, منطقة الباحة, السعودية","address":{"town":"غامد الزناد","province":"محافظة فرعة غامد الزناد","state":"منطقة الباحة","ISO3166-2-lvl4":"SA-11","country":"السعودية","country_code":"sa"},"osm_type":"node","osm_id":6770793665,"type":"town","location":[41.5201123,19.594439],"bbox":[41.4801123,19.554439,41.5601123,19.634439]}
{"name":"غران","other_names":{"name:ar":"غران","name:en":"Ghran","name:ml":"ഗ്രാൻ","int_name":"Ghran","alt_name:ar":"غُران"},"display_name":"غران, محافظة خليص, منطقة مكة المكرمة, 25551, السعودية","address":{"town":"غران","province":"محافظة خليص","state":"منطقة مكة المكرمة","ISO3166-2-lvl4":"SA-02","postcode":"25551","country":"السعودية","country_code":"sa"},"population":6400,"osm_type":"node","osm_id":6255263461,"type":"town","location":[39.3674903,21.9679453],"bbox":[39.3274903,21.9279453,39.4074903,22.0079453]}
{"name":"فرسان","other_names":{"name:ar":"فرسان","name:en":"Farasan","name:fr":"Farasan","int_name":"Farasān"},"display_name":"فرسان, محافظة فرسان, منطقة جازان, السعودية","address":{"town":"فرسان","province":"محافظة فرسان","state":"منطقة جازان","ISO3166-2-lvl4":"SA-09","country":"السعودية","country_code":"sa"},"population":14005,"osm_type":"node","osm_id":1013176773,"type":"town","location":[42.118333,16.702222],"bbox":[42.078333,16.662222,42.158333,16.742222],"border":{"name":"محافظة فرسان","other_names":{"name:ar":"محافظة فرسان","name:en":"Farasan"},"display_name":"محافظة فرسان, منطقة جازان, السعودية","address":{"province":"محافظة فرسان","state":"منطقة جازان","ISO3166-2-lvl4":"SA-09","country":"السعودية","country_code":"sa"},"population":17999,"osm_type":"relation","osm_id":12430369,"type":"administrative","location":[41.90801020875662,16.73790625],"bbox":[41.40288,16.4085464,42.4987598,17.1093841]}}
{"name":"فرعة طريب","other_names":{"name:ar":"فرعة طريب","name:en":"Far`at Tarib","name:fr":"Tarib","name:ml":"ഫറാത്ത് തറീബ്","int_name":"Far`at Tarib"},"display_name":"فرعة طريب, محافظة طريب, منطقة عسير, السعودية","address":{"town":"فرعة طريب","province":"محافظة طريب","state":"منطقة عسير","ISO3166-2-lvl4":"SA-14","country":"السعودية","country_code":"sa"},"population":9514,"osm_type":"node","osm_id":7700248105,"type":"town","location":[43.2038211,18.5649816],"bbox":[43.1638211,18.5249816,43.2438211,18.6049816],"border":{"name":"محافظة طريب","other_names":{"name:ar":"محافظة طريب","name:en":"Tarib"},"display_name":"محافظة طريب, منطقة عسير, السعودية","address":{"province":"محافظة طريب","state":"منطقة عسير","ISO3166-2-lvl4":"SA-14","country":"السعودية","country_code":"sa"},"osm_type":"relation","osm_id":12436474,"type":"administrative","location":[43.29977961569661,18.8518296],"bbox":[42.89526,18.1098091,43.71762,19.4373414]}}
{"name":"فيفاء","other_names":{"name:ar":"فيفاء","name:de":"Fayfa","name:en":"Fayfa","name:fr":"Fayfa","name:ml":"ഫൈഫ","alt_name":"فيفاء","int_name":"Fayfā,Faifa,Suq al Ithnayn,Sūq al Ithnayn, Fayfa"},"display_name":"فيفاء, منطقة جازان, السعودية","address":{"town":"فيفاء","province":"فيفاء","state":"منطقة جازان","ISO3166-2-lvl4":"SA-09","country":"السعودية","country_code":"sa"},"osm_type":"node","osm_id":1237961319,"type":"town","location":[43.1066979,17.2632874],"bbox":[43.0666979,17.2232874,43.1466979,17.3032874],"border":{"name":"فيفاء","other_names":{"name:ar":"فيفاء","name:en":"Fayfa","name:de":"Fayfa","name:fr":"Fayfa","name:ml":"ഫൈഫ","alt_name":"فيفاء","int_name":"Fayfā,Faifa,Suq al Ithnayn,Sūq al Ithnayn, Fayfa"},"display_name":"فيفاء, منطقة جازان, السعودية","address":{"province":"فيفاء","state":"منطقة جازان","ISO3166-2-lvl4":"SA-09","country":"السعودية","country_code":"sa"},"osm_type":"relation","osm_id":12430367,"type":"administrative","location":[43.1066979,17.2632874],"bbox":[43.0366794,17.1637101,43.1572221,17.3163185]}}
{"name":"قبة","other_names":{"name:ar":"قبة","name:en":"Qibah","name:ml":"ഖിബ്ബ","alt_name":"Qiba';Qibā’;Qibbah","int_name":"Qibah"},"display_name":"قبة, محافظة الأسياح, منطقة القصيم, السعودية","address":{"town":"قبة","province":"محافظة الأسياح","state":"منطقة القصيم","ISO3166-2-lvl4":"SA-05","country":"السعودية","country_code":"sa"},"population":10439,"osm_type":"node","osm_id":747671189,"type":"town","location":[44.324129,27.4024971],"bbox":[44.284129,27.3624971,44.364129,27.4424971]}
{"name":"قرية العليا","other_names":{"name:ar":"قرية العليا","name:de":"Qaryah al `Ulya","name:en":"Qaryah al `Ulya","name:fr":"Qaryah al `Ulya","name:ml":"ഖര്യ അലുല്യ","alt_name":"Al Qaryah;Jariya al `Ilya;Jarīya al ‘Ilya;Jeriya `Ilya;Jeriya ‘Ilya;Qariya;Qariya al Ilya;Qariya el Ilya;Qariya Ulya;Qaryat al `Ulya;Qaryat al ‘Ulyā","int_name":"Qaryah al ‘Ulyā"},"display_name":"قرية العليا, محافظة قرية العليا, المنطقة الشرقية, السعودية","address":{"town":"قرية العليا","province":"محافظة قرية العليا","state":"المنطقة الشرقية","ISO3166-2-lvl4":"SA-04","country":"السعودية","country_code":"sa"},"population":8941,"osm_type":"node","osm_id":348265464,"type":"town","location":[47.702218,27.5592149],"bbox":[47.662218,27.5192149,47.742218,27.5992149]}
{"name":"قرية نيوم","other_names":{"name:ar":"قرية نيوم","name:en":"NEOM Community 1"},"display_name":"قرية نيوم, محافظة ضباء, منطقة تبوك, 49643, السعودية","address":{"town":"قرية نيوم","province":"محافظة ضباء","state":"منطقة تبوك","ISO3166-2-lvl4":"SA-07","postcode":"49643","country":"السعودية","country_code":"sa"},"osm_type":"node","osm_id":12390325533,"type":"town","location":[35.1159342,28.1093889],"bbox":[35.0759342,28.0693889,35.1559342,28.1493889]}
{"name":"قصيباء","other_names":{"name:ar":"قصيباء","name:en":"Qusayba'","name:ml":"ഖുസൈബ","alt_name":"Al-Ksejbe;Al-Kṣejbe;Al Qusaiba;Al Qusaybah;Al Quşaybah;Qusaiba;Qusaibah;Qusaybah;Quşaybah;قصيباء","int_name":"Quşaybā’"},"display_name":"قصيباء, محافظة بريدة, منطقة القصيم, السعودية","address":{"town":"قصيباء","province":"محافظة بريدة","state":"منطقة القصيم","ISO3166-2-lvl4":"SA-05","country":"السعودية","country_code":"sa"},"osm_type":"node","osm_id":747671403,"type":"town","location":[43.636258,26.887446],"bbox":[43.596258,26.847446,43.676258,26.927446]}
{"name":"قلوه","other_names":{"name:ar":"قلوه","name:en":"Qilwah","name:fr":"Qilwah","name:ml":"ഖിൽവ"},"display_name":"قلوه, محافظة قلوه, منطقة الباحة, 65565, السعودية","address":{"town":"قلوه","province":"محافظة قلوه","state":"منطقة الباحة","ISO3166-2-lvl4":"SA-11","postcode":"65565","country":"السعودية","country_code":"sa"},"osm_type":"node","osm_id":8506335688,"type":"town","location":[41.251301,19.9401107],"bbox":[41.211301,19.9001107,41.291301,19.9801107],"border":{"name":"محافظة قلوه","other_names":{"name:ar":"محافظة قلوه","name:en":"Qilwah"},"display_name":"محافظة قلوه, منطقة الباحة, 65565, السعودية","address":{"province":"محافظة قلوه","state":"منطقة الباحة","ISO3166-2-lvl4":"SA-11","postcode":"65565","country":"السعودية","country_code":"sa"},"population":58246,"osm_type":"relation","osm_id":12429801,"type":"administrative","location":[41.15421691303586,19.9278451],"bbox":[40.9503066,19.6716501,41.43864,20.1837501]}}
{"name":"لينة","other_names":{"name:ar":"لينة","name:de":"Linah","name:en":"Linah","name:fr":"Linah","name:ml":"ലീന","alt_name":"Lainah;Laynah;Lina;Līna;Line;Lîne","int_name":"Līnah"},"display_name":"لينة, محافظة رفحاء, منطقة الحدود الشمالية, السعودية","address":{"town":"لينة","province":"محافظة رفحاء","state":"منطقة الحدود الشمالية","ISO3166-2-lvl4":"SA-08","country":"السعودية","country_code":"sa"},"osm_type":"node","osm_id":1236407820,"type":"town","location":[43.738889,28.761111],"bbox":[43.698889,28.721111,43.778889,28.801111]}
{"display_name":"محافظة الدوادمى, منطقة الرياض, السعودية","address":{"province":"محافظة الدوادمى","state":"منطقة الرياض","ISO3166-2-lvl4":"SA-01","country":"السعودية","country_code":"sa"},"osm_type":"way","osm_id":31462611,"type":"town","location":[43.743830428367176,24.29841385],"bbox":[43.7086914,24.2730828,43.762996,24.3245722]}
{"display_name":"محافظة القنفذة, منطقة مكة المكرمة, السعودية","address":{"city":"محافظة القنفذة","state":"منطقة مكة المكرمة","ISO3166-2-lvl4":"SA-02","country":"السعودية","country_code":"sa"},"osm_type":"node","osm_id":8117392315,"type":"town","location":[41.5322389,19.1718072],"bbox":[41.4922389,19.1318072,41.5722389,19.2118072]}
{"name":"مدينة الملك خالد العسكرية","other_names":{"name:ar":"مدينة الملك خالد العسكرية","name:en":"King Khālid Military City","alt_name":"King Khalid Military City;King Khālid Military City","int_name":"King Khālid Military City"},"display_name":"مدينة الملك خالد العسكرية, محافظة حفر الباطن, المنطقة الشرقية, 10018, السعودية","address":{"town":"مدينة الملك خالد العسكرية","province":"محافظة حفر الباطن","state":"المنطقة الشرقية","ISO3166-2-lvl4":"SA-04","postcode":"10018","country":"السعودية","country_code":"sa"},"osm_type":"node","osm_id":348108482,"type":"town","location":[45.5450502,27.982169],"bbox":[45.5050502,27.942169,45.5850502,28.022169]}
{"name":"مدينة الملك عبد الله الاقتصادية","other_names":{"name:ar":"مدينة الملك عبد الله الاقتصادية","name:en":"King Abdullah Economic City","name:es":"Ciudad Económica Rey Abdullah","name:fa":"شهر اقتصادی ملک عبدالله","name:ml":"കിംഗ് അബ്ദുള്ള വ്യവസായ നഗരം","name:ur":"شاہ عبداللہ اقتصادی شہر","alt_name:ar":"مدينة الملك عبدالله الإقتصادي","alt_name:en":"KAEC"},"display_name":"مدينة الملك عبد الله الاقتصادية, السعودية","address":{"town":"مدينة الملك عبد الله الاقتصادية","country":"السعودية","country_code":"sa"},"osm_type":"node","osm_id":1013646123,"type":"town","location":[39.0807402,22.4025477],"bbox":[39.0407402,22.3625477,39.1207402,22.4425477]}
{"name":"مرات","other_names":{"name:ar":"مرات","name:de":"Marat","name:en":"Marat","name:fr":"Marat","name:ml":"മറാത്ത്","alt_name":"Marah;Marāh;Marrat;Marrāt","int_name":"Marāt"},"display_name":"مرات, محافظة مرات, منطقة الرياض, السعودية","address":{"town":"مرات","province":"محافظة مرات","state":"منطقة الرياض","ISO3166-2-lvl4":"SA-01","country":"السعودية","country_code":"sa"},"population":11768,"osm_type":"node","osm_id":346689171,"type":"town","location":[45.457222,25.071667],"bbox":[45.417222,25.031667,45.497222,25.111667],"border":[{"name":"مرات","other_names":{"name:ar":"مرات","name:de":"Marat","name:en":"Marat","name:fr":"Marat","name:ml":"മറാത്ത്","alt_name":"Marah;Marāh;Marrat;Marrāt","int_name":"Marāt"},"display_name":"مرات, محافظة مرات, منطقة الرياض, السعودية","address":{"town":"مرات","province":"محافظة مرات","state":"منطقة الرياض","ISO3166-2-lvl4":"SA-01","country":"السعودية","country_code":"sa"},"population":11768,"osm_type":"way","osm_id":31154343,"type":"town","location":[45.457222,25.071667],"bbox":[45.4328785,25.0547562,45.4762004,25.0844475]},{"name":"محافظة مرات","other_names":{"name:ar":"محافظة مرات","name:en":"Marat"},"display_name":"محافظة مرات, منطقة الرياض, السعودية","address":{"province":"محافظة مرات","state":"منطقة الرياض","ISO3166-2-lvl4":"SA-01","country":"السعودية","country_code":"sa"},"osm_type":"relation","osm_id":12423661,"type":"administrative","location":[45.45239641885246,24.8279299],"bbox":[45.01609,24.4269099,45.82687,25.2269899]}]}
{"name":"مستورة","other_names":{"name:ar":"مستورة","name:de":"Masturah","name:en":"Masturah","name:fr":"Masturah","name:ml":"മസ്തൂറ","int_name":"Mastūrah"},"display_name":"مستورة, محافظة رابغ, منطقة مكة المكرمة, السعودية","address":{"town":"مستورة","city":"محافظة رابغ","state":"منطقة مكة المكرمة","ISO3166-2-lvl4":"SA-02","country":"السعودية","country_code":"sa"},"population":7034,"osm_type":"node","osm_id":1013647103,"type":"town","location":[38.841644,23.115132],"bbox":[38.801644,23.075132,38.881644,23.155132]}
{"name":"مسلية","other_names":{"name:ar":"مسلية","name:de":"Misliyah","name:en":"Misliyah","name:fr":"Misliyah","name:ml":"മിസ്ലിയ","alt_name":"Masliya;Masliyah;Maslīyah","int_name":"Mislīyah"},"display_name":"مسلية, محافظة بيش, منطقة جازان, السعودية","address":{"town":"مسلية","city":"محافظة بيش","state":"منطقة جازان","ISO3166-2-lvl4":"SA-09","country":"السعودية","country_code":"sa"},"population":6776,"osm_type":"node","osm_id":1237961012,"type":"town","location":[42.557204,17.459875],"bbox":[42.517204,17.419875,42.597204,17.499875]}
{"name":"ملهم","other_names":{"name:ar":"ملهم","name:en":"mulham","name:ml":"മുൽഹം","alt_name":"ملهم الجديدة"},"display_name":"ملهم, منطقة الرياض, السعودية","address":{"town":"ملهم","state":"منطقة الرياض","ISO3166-2-lvl4":"SA-01","country":"السعودية","country_code":"sa"},"osm_type":"node","osm_id":9630649078,"type":"town","location":[46.3344955,25.1700674],"bbox":[46.2944955,25.1300674,46.3744955,25.2100674],"border":{"name":"ملهم","other_names":{"name:ar":"ملهم","name:en":"mulham","name:ml":"മുൽഹം","alt_name":"ملهم الجديدة"},"display_name":"ملهم, منطقة الرياض, السعودية","address":{"town":"ملهم","state":"منطقة الرياض","ISO3166-2-lvl4":"SA-01","country":"السعودية","country_code":"sa"},"osm_type":"way","osm_id":896470131,"type":"town","location":[46.3344955,25.1700674],"bbox":[46.2869197,25.1398187,46.3651972,25.2427863]}}
{"name":"مليجة","other_names":{"name:ar":"مليجة","name:de":"Mulayjah","name:en":"Mulayjah","name:fr":"Mulayjah","name:ml":"മുലൈജ","int_name":"Mulayjah"},"display_name":"مليجة, محافظة النعيريه, المنطقة الشرقية, السعودية","address":{"town":"مليجة","province":"محافظة النعيريه","state":"المنطقة الشرقية","ISO3166-2-lvl4":"SA-04","country":"السعودية","country_code":"sa"},"population":5925,"osm_type":"node","osm_id":1236770913,"type":"town","location":[48.425,27.272778],"bbox":[48.385,27.232778,48.465,27.312778]}
{"name":"مهد الذهب","other_names":{"name:ar":"مهد الذهب","name:de":"Mahd adh Dhahab","name:en":"Mahd adh Dhahab","name:fr":"Mahd adh Dhahab","int_name":"Mahd adh Dhahab"},"display_name":"مهد الذهب, محافظة المهد, منطقة المدينة المنورة, السعودية","address":{"town":"مهد الذهب","province":"محافظة المهد","state":"منطقة المدينة المنورة","ISO3166-2-lvl4":"SA-03","country":"السعودية","country_code":"sa"},"population":15934,"osm_type":"node","osm_id":1237964803,"type":"town","location":[40.8791554,23.4995868],"bbox":[40.8391554,23.4595868,40.9191554,23.5395868]}
{"name":"موقق","other_names":{"name:ar":"موقق","name:de":"Mawqaq","name:en":"Mawqaq","name:fr":"Mawqaq","name:ml":"മൗഖഖ്","alt_name":"Mauqaq;Mowkak","int_name":"Mawqaq"},"display_name":"موقق, محافظة موقق, منطقة حائل, السعودية","address":{"town":"موقق","province":"محافظة موقق","state":"منطقة حائل","ISO3166-2-lvl4":"SA-06","country":"السعودية","country_code":"sa"},"osm_type":"node","osm_id":1237937493,"type":"town","location":[41.175556,27.385833],"bbox":[41.135556,27.345833,41.215556,27.425833],"border":{"name":"محافظة موقق","other_names":{"name:ar":"محافظة موقق","name:en":"Mawqaq"},"display_name":"محافظة موقق, منطقة حائل, السعودية","address":{"province":"محافظة موقق","state":"منطقة حائل","ISO3166-2-lvl4":"SA-06","country":"السعودية","country_code":"sa"},"osm_type":"relation","osm_id":12413058,"type":"administrative","location":[40.91786651346716,27.4021676],"bbox":[39.7694899,26.9960633,41.4746142,27.8126371]}}
{"name":"ميسان","other_names":{"name:ar":"ميسان","name:en":"Missan","name:fr":"Maysan"},"display_name":"ميسان, محافظة ميسان, منطقة مكة المكرمة, السعودية","address":{"town":"ميسان","province":"محافظة ميسان","state":"منطقة مكة المكرمة","ISO3166-2-lvl4":"SA-02","country":"السعودية","country_code":"sa"},"population":5227,"osm_type":"node","osm_id":295919318,"type":"town","location":[40.8386833,20.7371829],"bbox":[40.7986833,20.6971829,40.8786833,20.7771829],"border":{"name":"محافظة ميسان","other_names":{"name:ar":"محافظة ميسان","name:en":"Missan"},"display_name":"محافظة ميسان, منطقة مكة المكرمة, السعودية","address":{"province":"محافظة ميسان","state":"منطقة مكة المكرمة","ISO3166-2-lvl4":"SA-02","country":"السعودية","country_code":"sa"},"osm_type":"relation","osm_id":12429529,"type":"administrative","location":[40.98600625382166,20.83998345],"bbox":[40.4882826,20.3246301,41.4522,21.3562258]}}
{"name":"نخال بلقرن","other_names":{"name:ar":"نخال بلقرن","name:en":"Nākhal Balqarn","name:fr":"Nākhal Balqarn","alt_name":"Nākhal Balqarn","int_name":"Nākhal Balqarn","alt_name:ar":"نخال بلقرن","_place_alt_name":"Nakhal Balqarn","_place_int_name":"Nakhal Balqarn","alt:en":"Nakhal Balqarn"},"display_name":"نخال بلقرن, محافظة العرضيات, منطقة مكة المكرمة, السعودية","address":{"village":"نخال بلقرن","province":"محافظة العرضيات","state":"منطقة مكة المكرمة","ISO3166-2-lvl4":"SA-02","country":"السعودية","country_code":"sa"},"osm_type":"relation","osm_id":17601445,"type":"town","location":[41.8627215,19.3886212],"bbox":[41.8173825,19.3579506,41.9221233,19.436924]}
{"name":"نعجان","other_names":{"name:ar":"نعجان","name:de":"Na`jan","name:en":"Na`jan","name:fr":"Na`jan","alt_name":"Na'ajan; Na'jan; Na’ajān; Na’jan","int_name":"Na‘jān"},"display_name":"نعجان, محافظة الدلم, منطقة الرياض, 11942, السعودية","address":{"town":"نعجان","state":"منطقة الرياض","ISO3166-2-lvl4":"SA-01","postcode":"11942","country":"السعودية","country_code":"sa"},"population":5125,"osm_type":"node","osm_id":1236705209,"type":"town","location":[47.165904,24.077461],"bbox":[47.125904,24.037461,47.205904,24.117461]}
{"name":"نمرة","other_names":{"name:ar":"نمرة","name:de":"Namerah","name:en":"Namerah","name:fr":"Namerah","name:ml":"നമെറ","alt_name":"نمرة","int_name":"Namerah","alt_name:en":"Namerah"},"display_name":"نمرة, محافظة العرضيات, منطقة مكة المكرمة, السعودية","address":{"town":"نمرة","province":"محافظة العرضيات","state":"منطقة مكة المكرمة","ISO3166-2-lvl4":"SA-02","country":"السعودية","country_code":"sa"},"osm_type":"node","osm_id":1236726412,"type":"town","location":[41.6654083,19.5814482],"bbox":[41.6254083,19.5414482,41.7054083,19.6214482]}
{"name":"وادي ابن هشبل","other_names":{"name:ar":"وادي ابن هشبل","name:fr":"Oued Ibn Hashbel","alt_name":"وادي شهران","old_name":"وادي شهران"},"display_name":"وادي ابن هشبل, محافظة خميس مشيط, منطقة عسير, السعودية","address":{"town":"وادي ابن هشبل","province":"محافظة خميس مشيط","state":"منطقة عسير","ISO3166-2-lvl4":"SA-14","country":"السعودية","country_code":"sa"},"osm_type":"node","osm_id":6769992506,"type":"town","location":[42.6924112,18.5876191],"bbox":[42.6524112,18.5476191,42.7324112,18.6276191]}
{"name":"يبرين","other_names":{"name:ar":"يبرين","name:de":"Yabrin","name:en":"Yabrin","name:ml":"യബ്രീൻ","name:uk":"Ябрін"},"display_name":"يبرين, محافظة الأحساء, المنطقة الشرقية, السعودية","address":{"town":"يبرين","city":"محافظة الأحساء","state":"المنطقة الشرقية","ISO3166-2-lvl4":"SA-04","country":"السعودية","country_code":"sa"},"osm_type":"node","osm_id":1114293184,"type":"town","location":[48.9717335,23.3014593],"bbox":[48.9317335,23.2614593,49.0117335,23.3414593]}
