{"name":"أبها","other_names":{"name:ar":"أبها","name:av":"Абгьа","name:be":"Абха","name:bg":"Абха","name:bn":"আবহা","name:ca":"Abha","name:cs":"Abhá","name:da":"Abha","name:de":"Abha","name:el":"Αμπχά","name:en":"Abha","name:eo":"Abha","name:es":"Abha","name:et":"Abhā","name:eu":"Abha","name:fa":"ابها","name:fi":"Abha","name:fr":"Abha","name:he":"אבהא","name:hi":"आभा","name:hr":"Abha","name:hy":"Աբհա","name:id":"Abha","name:it":"Abha","name:ja":"アブハー","name:ka":"აბჰა","name:kk":"Абха","name:ko":"아브하","name:ku":"Ebha","name:lt":"Abha","name:ml":"അബ്ഹ","name:ms":"Abha","name:nb":"Abha","name:ne":"अब्हा","name:nl":"Abha","name:nn":"Abha","name:pl":"Abha","name:pt":"Abha","name:ru":"Абха","name:sk":"Abhá","name:sr":"Абха","name:su":"Abha","name:sv":"Abha","name:tl":"Abha","name:tr":"Abha","name:uk":"Абха","name:ur":"ابہا","name:uz":"Abxa","name:vi":"Abha","name:vo":"Äbha","name:zh":"艾卜哈","alt_name":"Ebha","int_name":"Abhā","name:ckb":"ئەبھا","name:zh-Hans":"艾卜哈","name:zh-Hant":"艾卜哈"},"display_name":"أبها, محافظة أبها, منطقة عسير, 26442, السعودية","address":{"city":"أبها","province":"محافظة أبها","state":"منطقة عسير","ISO3166-2-lvl4":"SA-14","postcode":"26442","country":"السعودية","country_code":"sa"},"population":236157,"osm_type":"node","osm_id":295924875,"type":"city","location":[42.5043596,18.2164282],"bbox":[42.3443596,18.0564282,42.6643596,18.3764282],"border":{"name":"محافظة أبها","other_names":{"name:ar":"محافظة أبها","name:en":"Abha"},"display_name":"محافظة أبها, منطقة عسير, السعودية","address":{"province":"محافظة أبها","state":"منطقة عسير","ISO3166-2-lvl4":"SA-14","country":"السعودية","country_code":"sa"},"population":366551,"osm_type":"relation","osm_id":12436473,"type":"administrative","location":[42.472762705112046,18.4040468],"bbox":[41.0237297,17.4848701,43.5336461,19.0853427]}}
{"name":"أبو عريش","other_names":{"name:ar":"أبو عريش","name:de":"Abu `Arish","name:en":"Abu `Arish","name:fr":"Abou Arish","name:he":"אבו עריש","name:ku":"Ebû Erîş","name:ml":"അബു അറീഷ്","int_name":"Abū ‘Arīsh","name:ckb":"ئەبوو عەریش"},"display_name":"أبو عريش, محافظة أبو عريش, منطقة جازان, 84717, السعودية","address":{"city":"أبو عريش","province":"محافظة أبو عريش","state":"منطقة جازان","ISO3166-2-lvl4":"SA-09","postcode":"84717","country":"السعودية","country_code":"sa"},"osm_type":"node","osm_id":8506762133,"type":"city","location":[42.8380784,16.9661387],"bbox":[42.6780784,16.8061387,42.9980784,17.1261387],"border":{"name":"محافظة أبو عريش","other_names":{"name:ar":"محافظة أبو عريش","name:de":"Muhafazat Abu `Arish","name:en":"Abu `Arish Governorate","name:fr":"Muhafazat Abu `Arish","int_name":"Abū ‘Arīsh"},"display_name":"محافظة أبو عريش, منطقة جازان, السعودية","address":{"province":"محافظة أبو عريش","state":"منطقة جازان","ISO3166-2-lvl4":"SA-09","country":"السعودية","country_code":"sa"},"population":197112,"osm_type":"relation","osm_id":12430380,"type":"administrative","location":[42.79648234977924,16.992277100000003],"bbox":[42.6054131,16.8223801,43.05018,17.1602901]}}
{"name":"الأحساء","other_names":{"name:ar":"الأحساء","name:bn":"আহসা","name:de":"Al-Hasa","name:en":"Al Ahsa","name:eu":"Ahsa","name:fr":"Al-Hassa","name:he":"אל אחסה","name:hi":"अल-अहसा","name:hr":"Hasa","name:ku":"Ehsa","name:ml":"അൽ അഹ്സ","name:zh":"胡富夫","alt_name":"Al Ahsa;Al Hasa","int_name":"Al Ahsa","name:ckb":"ئەحسا"},"display_name":"الأحساء, محافظة الأحساء, المنطقة الشرقية, السعودية","address":{"city":"الأحساء","province":"محافظة الأحساء","state":"المنطقة الشرقية","ISO3166-2-lvl4":"SA-04","country":"السعودية","country_code":"sa"},"population":903597,"osm_type":"node","osm_id":8487320543,"type":"city","location":[49.5626628,25.3877578],"bbox":[49.4026628,25.2277578,49.7226628,25.5477578],"border":{"name":"محافظة الأحساء","other_names":{"name:ar":"محافظة الأحساء","name:en":"Al Ahsa Governorate","name:bn":"আহসা","name:de":"Al-Hasa","name:eu":"Ahsa","name:fr":"Al-Hassa","name:he":"אל אחסה","name:hi":"अल-अहसा","name:hr":"Hasa","name:ku":"Ehsa","name:ml":"അൽ അഹ്സ","name:zh":"胡富夫","alt_name":"Al Ahsa;Al Hasa","int_name":"Al Ahsa","name:ckb":"ئەحسا","alt":"الأحساء","alt:ar":"الأحساء","alt:en":"Al Ahsa"},"display_name":"محافظة الأحساء, المنطقة الشرقية, السعودية","address":{"province":"محافظة الأحساء","state":"المنطقة الشرقية","ISO3166-2-lvl4":"SA-04","country":"السعودية","country_code":"sa"},"population":1063112,"osm_type":"relation","osm_id":12400642,"type":"administrative","location":[49.5626628,25.3877578],"bbox":[47.5243998,19.3329996,51.9975393,26.6005899]}}
{"name":"الباحة","other_names":{"name:ar":"الباحة","name:cs":"Al Bahah","name:de":"Al Bahah","name:en":"Al Bahah","name:et":"Al-Bāḩah","name:fa":"الباحة","name:fr":"Al Bahah","name:he":"אל באהא","name:ko":"바하","name:ku":"Bahe","name:ml":"അൽ ബാഹ","name:ru":"Эль-Баха","name:ur":"الباحہ","int_name":"Al Bāḩah","name:ckb":"باحە"},"display_name":"الباحة, محافظة الباحة, منطقة الباحة, السعودية","address":{"city":"الباحة","province":"محافظة الباحة","state":"منطقة الباحة","ISO3166-2-lvl4":"SA-11","country":"السعودية","country_code":"sa"},"population":95089,"osm_type":"node","osm_id":295921642,"type":"city","location":[41.4656378,20.0137941],"bbox":[41.3056378,19.8537941,41.6256378,20.1737941],"border":{"name":"محافظة الباحة","other_names":{"name:ar":"محافظة الباحة","name:en":"Al Bahah"},"display_name":"محافظة الباحة, منطقة الباحة, السعودية","address":{"province":"محافظة الباحة","state":"منطقة الباحة","ISO3166-2-lvl4":"SA-11","country":"السعودية","country_code":"sa"},"population":103411,"osm_type":"relation","osm_id":12429806,"type":"administrative","location":[41.4760471720296,20.02218455],"bbox":[41.3789081,19.8905401,41.5946,20.1545401]}}
{"name":"الجبيل","other_names":{"name:ar":"الجبيل","name:bn":"জাবাইল","name:cs":"al-Džubajl","name:de":"al-Dschubail","name:en":"Al Jubayl","name:es":"Jubail","name:et":"Al-Jubayl","name:eu":"Jubail","name:fi":"Jubail","name:fr":"Al-Jubayl","name:he":"ג'ובייל","name:hi":"जुबैल","name:hr":"Džubail","name:it":"Al-Jubayl","name:ko":"주바일","name:ku":"Cubeyil","name:ml":"ജുബൈൽ","name:nl":"Jubail","name:no":"Jubail","name:pl":"Al-Dżubajl","name:ru":"Эль-Джубайль","name:sv":"Al-Jubayl","name:tr":"El-Cübeyl","name:uk":"Джубаїль","name:zh":"朱拜勒","alt_name":"`Aynayn;‘Aynayn;Ainain;Ainan;Jubail;Jubail al Bahri;Jubayl;Jubayl `Aynayw;Jubayl ‘Aynayw;Jubayl al Bahri;Jubayl al Baḩri","int_name":"Al Jubayl","name:ckb":"جوبەیل"},"display_name":"الجبيل, محافظة الجبيل, المنطقة الشرقية, 35514, السعودية","address":{"city":"الجبيل","province":"محافظة الجبيل","state":"المنطقة الشرقية","ISO3166-2-lvl4":"SA-04","postcode":"35514","country":"السعودية","country_code":"sa"},"population":337778,"osm_type":"node","osm_id":38903292,"type":"city","location":[49.6532161,27.0006968],"bbox":[49.4932161,26.8406968,49.8132161,27.1606968]}
{"name":"الحذيانة","other_names":{"name:ar":"الحذيانة"},"display_name":"الحذيانة, 5833, محافظة شقراء, محافظة المجمعة, منطقة الرياض, السعودية","address":{"historic":"الحذيانة","road":"5833","city":"محافظة شقراء","province":"محافظة المجمعة","state":"منطقة الرياض","ISO3166-2-lvl4":"SA-01","country":"السعودية","country_code":"sa"},"osm_type":"node","osm_id":10041304789,"type":"ruins","location":[45.327663,25.5332791],"bbox":[45.327613,25.5332291,45.327713,25.5333291]}
{"name":"الخبر","other_names":{"name:ar":"الخبر","name:cs":"Al-Khubar","name:de":"al-Chubar","name:en":"Al Khobar","name:es":"Al Kobhar","name:fr":"Khobar","name:he":"אל קובר","name:hi":"अल खोबर","name:hr":"Hubar","name:ku":"Xuber","name:ml":"ഖൊബർ","name:ru":"Эль-Хубар","name:uk":"Ель-Хубар","alt_name":"Al Khobar;Khobar","int_name":"Al Khubar","name:ckb":"خوبەر"},"display_name":"الخبر, محافظة الخبر, المنطقة الشرقية, 34436, السعودية","address":{"city":"الخبر","province":"محافظة الخبر","state":"المنطقة الشرقية","ISO3166-2-lvl4":"SA-04","postcode":"34436","country":"السعودية","country_code":"sa"},"population":219679,"osm_type":"node","osm_id":32441763,"type":"city","location":[50.1960237,26.3039999],"bbox":[50.0360237,26.1439999,50.3560237,26.4639999]}
{"name":"الخفجي","other_names":{"name:ar":"الخفجي","name:bn":"খাফজী","name:de":"Al Khafji","name:en":"Al Khafji","name:fr":"Al Khafji","name:ja":"カフジ","name:ko":"카프지","name:ku":"Xefcî","name:ml":"കഫ്ജി","name:zh":"卡夫奇","int_name":"Al Khafjī","name:ckb":"خەفجی","alt_name:ar":"رأس الخفجي","alt_name:en":"Ras Al Khafji"},"display_name":"الخفجي, محافظة الخفجي, المنطقة الشرقية, 31971, السعودية","address":{"city":"الخفجي","province":"محافظة الخفجي","state":"المنطقة الشرقية","ISO3166-2-lvl4":"SA-04","postcode":"31971","country":"السعودية","country_code":"sa"},"population":67012,"osm_type":"node","osm_id":983083571,"type":"city","location":[48.4927814,28.4225409],"bbox":[48.3327814,28.2625409,48.6527814,28.5825409]}
{"name":"الدمام","other_names":{"name:ar":"الدمام","name:bn":"দাম্মাম","name:cs":"Dammám","name:de":"Ad Dammam","name:en":"Dammam","name:es":"Dammam","name:et":"Ad-Dammām","name:eu":"Dammam","name:fa":"دمام","name:fi":"Dammam","name:fr":"Ad Dammam","name:he":"דמאם","name:hi":"दम्मम","name:hr":"Damam","name:ja":"ダンマーム","name:kn":"ದಮ್ಮಾಂ","name:ku":"Demam","name:ml":"ദമാം","name:no":"Dammam","name:ru":"Даммам","name:sr":"Дамам","name:tr":"Ad Dammam","name:uk":"Ед-Даммам","name:zh":"达曼","alt_name":"Dammam;Dammām;Damman","int_name":"Ad Dammām","name:ckb":"دەمام"},"display_name":"الدمام, محافظة الدمام, المنطقة الشرقية, 32242, السعودية","address":{"city":"الدمام","province":"محافظة الدمام","state":"المنطقة الشرقية","ISO3166-2-lvl4":"SA-04","postcode":"32242","country":"السعودية","country_code":"sa"},"population":903312,"osm_type":"node","osm_id":287865393,"type":"city","location":[50.1039991,26.4367824],"bbox":[49.9439991,26.2767824,50.2639991,26.5967824]}
{"name":"الدوادمي","other_names":{"name:ar":"الدوادمي","name:bn":"দাওয়াদিমী","name:de":"Ad Dawadimi","name:en":"Ad Dawadimi","name:fr":"Ad Dawadimi","name:ku":"Dewadimî","name:ml":"ദവാദിമി","int_name":"Ad Dawādimī","name:ckb":"دەوادمی"},"display_name":"الدوادمي, محافظة الدوادمى, منطقة الرياض, السعودية","address":{"city":"الدوادمي","province":"محافظة الدوادمى","state":"منطقة الرياض","ISO3166-2-lvl4":"SA-01","country":"السعودية","country_code":"sa"},"population":61834,"osm_type":"node","osm_id":1236695687,"type":"city","location":[44.383333,24.494167],"bbox":[44.223333,24.334167,44.543333,24.654167]}
{"name":"الرس","other_names":{"name:ar":"الرس","name:bn":"রাস","name:de":"Ar Rass","name:en":"Ar Rass","name:es":"Ar Rass","name:et":"Ar-Rass","name:fr":"Ar Rass","name:ku":"Res","name:ml":"റസ്","alt_name":"Al Russ;El Russ;Rass;الرس;Ar Rass;Ar Rass","name:ckb":"ڕەس"},"display_name":"الرس, محافظة الرس, منطقة القصيم, 58883, السعودية","address":{"city":"الرس","province":"محافظة الرس","state":"منطقة القصيم","ISO3166-2-lvl4":"SA-05","postcode":"58883","country":"السعودية","country_code":"sa"},"population":121359,"osm_type":"node","osm_id":346703530,"type":"city","location":[43.5038978,25.8685205],"bbox":[43.3438978,25.7085205,43.6638978,26.0285205],"border":{"name":"محافظة الرس","other_names":{"name:ar":"محافظة الرس","name:en":"Ar Rass"},"display_name":"محافظة الرس, منطقة القصيم, السعودية","address":{"province":"محافظة الرس","state":"منطقة القصيم","ISO3166-2-lvl4":"SA-05","country":"السعودية","country_code":"sa"},"population":133482,"osm_type":"relation","osm_id":12406853,"type":"administrative","location":[43.58437858678907,25.5729395],"bbox":[43.3372298,25.1670333,43.83906,25.9791401]}}
{"name":"الرياض","other_names":{"name:af":"Riaad","name:am":"ሪያድ","name:an":"Riad","name:ar":"الرياض","name:as":"ৰিয়াধ","name:av":"Ар-Рияд","name:az":"Ər-Riyad","name:ba":"Әр-Рияд","name:be":"Эр-Рыяд","name:bg":"Рияд","name:bn":"রিয়াদ","name:bo":"རིས་ཡག","name:br":"Riyadh","name:bs":"Rijad","name:ca":"Al-Riyad","name:ce":"Рияд","name:cs":"Rijád","name:cy":"Riyadh","name:da":"Riyadh","name:de":"Riad","name:el":"Ριάντ","name:en":"Riyadh","name:eo":"Riado","name:es":"Riad","name:et":"Ar-Riyāḑ","name:eu":"Riad","name:fa":"ریاض","name:fi":"Riad","name:fo":"Riyadh","name:fr":"Riyad","name:fy":"Riyad","name:ga":"Riyadh","name:gd":"Riyadh","name:gl":"Riad","name:ha":"Riyadh","name:he":"ריאד","name:hi":"रियाद","name:hr":"Rijad","name:ht":"Riyad","name:hu":"Rijád","name:hy":"Էր Ռիադ","name:id":"Riyadh","name:ie":"Riad","name:io":"Riad","name:is":"Ríad","name:it":"Riyad","name:ja":"リヤド","name:jv":"Riyadh","name:ka":"ერ-რიადი","name:kk":"Эр-Рияд","name:kl":"Riyadh","name:kn":"ರಿಯಾಧ್","name:ko":"리야드","name:ks":"ریاض","name:ku":"Riyad","name:ky":"Эр-Рияд","name:la":"Riadum","name:lb":"Riad","name:lt":"Rijadas","name:lv":"Rijāda","name:mg":"Riyadh","name:mk":"Ријад","name:ml":"റിയാദ്","name:mn":"Эр-Рияд","name:mr":"रियाध","name:ms":"Riyadh","name:mt":"Riyadh","name:my":"ရီယာ့ဒ်မြို့","name:nb":"Riyadh","name:ne":"रियाद","name:nl":"Riyad","name:nn":"Riyadh","name:no":"Riyadh","name:nv":"Séítah Tó","name:oc":"Riyad","name:os":"Эр-Рияд","name:pa":"ਰਿਆਧ","name:pl":"Rijad","name:ps":"رياض","name:pt":"Riade","name:qu":"Riyad","name:ro":"Riad","name:ru":"Эр-Рияд","name:sc":"Riyad","name:sd":"رياض","name:sh":"Rijad","name:sk":"Rijád","name:sl":"Rijad","name:sn":"Riyadh","name:sq":"Riadi","name:sr":"Ријад","name:su":"Riyadh","name:sv":"Riyadh","name:sw":"Riyad","name:ta":"ரியாத்","name:tg":"Эр-Рияд","name:th":"ริยาด","name:tl":"Riyadh","name:tr":"Riyad","name:tt":"Әр-Рияд","name:ug":"رىياد","name:uk":"Ер-Ріяд","name:ur":"ریاض","name:uz":"Ar-Riyod","name:vi":"Ri-át","name:vo":"Riyad","name:yi":"ריאד","name:yo":"Riyadh","name:zh":"利雅得/利雅德","alt_name":"Ar Riyadh;Ar Riyādh;Riad;Riyad;Riyadh","int_name":"Ar Riyāḑ","name:arz":"الرياض","name:ckb":"ڕیاز","name:diq":"Riyad","name:frp":"Riyad","name:gag":"Riyad","name:haw":"Riyadh","name:hif":"Riyadh","name:ilo":"Riyadh","name:kab":"Riyaḍ","name:lmo":"Riyad","name:mhr":"Эр-Рияд","name:mzn":"ریاض","name:nov":"Riyad","name:pms":"Riyadh","name:pnb":"ریاض","name:scn":"Rihad","name:sco":"Riyadh","name:war":"Riyadh","alt_name:vi":"Riyadh","name:simple":"Riyadh","name:zh-Hans":"利雅得","name:zh-Hant":"利雅德","name:be-tarask":"Рыяд"},"display_name":"الرياض, محافظة الرياض, منطقة الرياض, 12613, السعودية","address":{"city":"الرياض","province":"محافظة الرياض","state":"منطقة الرياض","ISO3166-2-lvl4":"SA-01","postcode":"12613","country":"السعودية","country_code":"sa"},"population":5188286,"osm_type":"node","osm_id":315358390,"type":"city","location":[46.7160104,24.638916],"bbox":[46.5560104,24.478916,46.8760104,24.798916]}
{"name":"السيح","other_names":{"name:ar":"السيح","name:en":"Al Kharj","name:fr":"Al Khardj","name:he":"אל סאיח","name:ku":"Seyih","name:ml":"സൈഹ്","name:ckb":"سەیح"},"display_name":"السيح, محافظة الخرج, منطقة الرياض, 16275, السعودية","address":{"city":"السيح","province":"محافظة الخرج","state":"منطقة الرياض","ISO3166-2-lvl4":"SA-01","postcode":"16275","country":"السعودية","country_code":"sa"},"osm_type":"node","osm_id":8274824536,"type":"city","location":[47.3101974,24.151651],"bbox":[47.1501974,23.991651,47.4701974,24.311651],"border":{"name":"محافظة الخرج","other_names":{"name:ar":"محافظة الخرج","name:ca":"Al-Kharj","name:de":"Al-Chardsch","name:en":"Al Kharj","name:eo":"Ĥarĝ","name:fa":"الخرج","name:fr":"Al Khardj","name:ml":"അൽ ഖർജ്","name:nl":"Al-Kharj","name:nn":"Al-Kharj","name:pl":"Al-Chardż","name:ru":"Эль-Хардж","name:tl":"Al Kharj","name:tr":"El-Harc","name:uk":"Ель-Хардж","name:ur":"الخرج","name:vi":"Al-Kharj","name:ceb":"Al Kharj (lungsod)","name:war":"Al-Kharj"},"display_name":"محافظة الخرج, منطقة الرياض, السعودية","address":{"province":"محافظة الخرج","state":"منطقة الرياض","ISO3166-2-lvl4":"SA-01","country":"السعودية","country_code":"sa"},"population":376325,"osm_type":"relation","osm_id":12423676,"type":"administrative","location":[47.68401336276168,23.8304401],"bbox":[46.9307054,23.0729101,48.15413,24.5840299]}}
{"name":"الطائف","other_names":{"name:ar":"الطائف","name:bn":"তায়েফ","name:cs":"Táif","name:de":"At Ta'if","name:en":"At Ta'if","name:eu":"Ta'if","name:fr":"Taëf","name:he":"טאיף","name:hi":"ताइफ़","name:hr":"Taif","name:ko":"타이프","name:ku":"Taîf","name:ml":"തായിഫ്","name:sr":"Таиф","name:tr":"Taif","name:zh":"塔伊夫","alt_name":"Al-Ta'if;Al-Ṭā’if;Taif;Tāif;Tayif","int_name":"Aţ Ţā’if","name:ckb":"تائیف"},"display_name":"الطائف, محافظة الطائف, منطقة مكة المكرمة, 26511, السعودية","address":{"city":"الطائف","province":"محافظة الطائف","state":"منطقة مكة المكرمة","ISO3166-2-lvl4":"SA-02","postcode":"26511","country":"السعودية","country_code":"sa"},"population":579970,"osm_type":"node","osm_id":1236468526,"type":"city","location":[40.4158308,21.2702801],"bbox":[40.2558308,21.1102801,40.5758308,21.4302801]}
{"name":"الظهران","other_names":{"name:ar":"الظهران","name:be":"Дахран","name:bn":"জাহরান","name:ca":"Dhahran","name:ce":"ЗахӀран","name:cs":"Dahrán","name:de":"Dhahran","name:el":"Νταχράν","name:en":"Dhahran","name:eo":"Dahran","name:es":"Dhahran","name:eu":"Dahran","name:fa":"ظهران","name:fi":"Dhahran","name:fr":"Az Zahran","name:he":"דהראן","name:hi":"डाहरान","name:hr":"Dahran","name:id":"Dhahran","name:it":"Dhahran","name:ja":"ダーラン","name:ka":"დაჰრანი","name:ko":"다란","name:ku":"Zehran","name:lt":"Dahranas","name:ml":"ദഹ്റാൻ","name:ms":"Dhahran","name:ne":"दहरान","name:nl":"Dhahraan","name:no":"Dhahran","name:pl":"Az-Zahran","name:pt":"Darã","name:ru":"Дахран","name:sk":"Dahrán","name:sq":"Dhahran","name:su":"Zhahran","name:sv":"Dhahran","name:tl":"Dhahran","name:tr":"Zahran","name:uk":"Дахран","name:ur":"ظہران","name:uz":"Dahron","name:vi":"Dhahran","name:zh":"宰赫兰","int_name":"Az̧ Z̧ahrān","name:ceb":"Dhahran","name:ckb":"زەھڕان","name:mzn":"ظهران","name:sco":"Dhahran"},"display_name":"الظهران, محافظة الدمام, المنطقة الشرقية, 34453, السعودية","address":{"city":"الظهران","province":"محافظة الدمام","state":"المنطقة الشرقية","ISO3166-2-lvl4":"SA-04","postcode":"34453","country":"السعودية","country_code":"sa"},"population":120521,"osm_type":"node","osm_id":447805356,"type":"city","location":[50.1202146,26.2966528],"bbox":[49.9602146,26.1366528,50.2802146,26.4566528]}
{"name":"العيون","other_names":{"name:ar":"العيون","name:en":"AL OYOUN","name:ml":"ഒയൂൺ"},"display_name":"العيون, محافظة الأحساء, المنطقة الشرقية, السعودية","address":{"city":"العيون","state":"المنطقة الشرقية","ISO3166-2-lvl4":"SA-04","country":"السعودية","country_code":"sa"},"osm_type":"node","osm_id":10775657799,"type":"city","location":[49.5649495,25.6076446],"bbox":[49.4049495,25.4476446,49.7249495,25.7676446]}
{"name":"القريات","other_names":{"name:ar":"القريات","name:cs":"al-Kurajját","name:de":"Al-Qurayyat","name:en":"Al Qurayyat","name:eo":"Kurejet","name:es":"Al Gurayat","name:fr":"Al Qurayyat","name:he":"אל קוריאט","name:ku":"Qureyat","name:ml":"അൽ-ഖുറയ്യാത്ത്","name:pl":"Al-Kurajjat","name:tl":"Qurayyat","name:tr":"Kureyyet","name:ur":"قریات، سعودی عرب","alt_name":"Al-`Akejla;Al-‘Akejla;Al `Aqaylah;Al `Uqaylah;Al `Uqaylah Kaf;Al ‘Aqaylah;Al ‘Uqaylah;Al ‘Uqaylah Kāf;An Nabk;An Nabk Abu Nakhlah;Nabek","int_name":"Al Qurayyāt","name:ceb":"Al Qurayyāt","name:ckb":"قورەیات","name:mzn":"القریه","alt_name:en":"Gurayat","alt_name:fr":"Gurayat"},"display_name":"القريات, محافظة القريات, منطقة الجوف, السعودية","address":{"city":"القريات","province":"محافظة القريات","state":"منطقة الجوف","ISO3166-2-lvl4":"SA-12","country":"السعودية","country_code":"sa"},"population":116162,"osm_type":"node","osm_id":1236744823,"type":"city","location":[37.341944,31.333333],"bbox":[37.181944,31.173333,37.501944,31.493333],"border":{"name":"محافظة القريات","other_names":{"name:ar":"محافظة القريات","name:en":"Al Qurayyat","name:cs":"al-Kurajját","name:de":"Al-Qurayyat","name:eo":"Kurejet","name:es":"Al Gurayat","name:fr":"Al Qurayyat","name:he":"אל קוריאט","name:ku":"Qureyat","name:ml":"അൽ-ഖുറയ്യാത്ത്","name:pl":"Al-Kurajjat","name:tl":"Qurayyat","name:tr":"Kureyyet","name:ur":"قریات، سعودی عرب","alt_name":"Al-`Akejla;Al-‘Akejla;Al `Aqaylah;Al `Uqaylah;Al `Uqaylah Kaf;Al ‘Aqaylah;Al ‘Uqaylah;Al ‘Uqaylah Kāf;An Nabk;An Nabk Abu Nakhlah;Nabek","int_name":"Al Qurayyāt","name:ceb":"Al Qurayyāt","name:ckb":"قورەیات","name:mzn":"القریه","alt_name:en":"Gurayat","alt_name:fr":"Gurayat","alt":"القريات","alt:ar":"القريات"},"display_name":"محافظة القريات, منطقة الجوف, السعودية","address":{"province":"محافظة القريات","state":"منطقة الجوف","ISO3166-2-lvl4":"SA-12","country":"السعودية","country_code":"sa"},"population":147550,"osm_type":"relation","osm_id":12413343,"type":"administrative","location":[37.341944,31.333333],"bbox":[37.0061712,29.9052124,38.4029816,31.7451032]}}
{"name":"القنفذة","other_names":{"name:ar":"القنفذة","name:en":"Al Qunfudhah","name:fr":"Al Qunfudhah","name:he":"קנפודה","name:ku":"Qunfuze","name:ml":"അൽ ഖുൻഫുദ","alt_name":"Al-Kunfudha;Al Qunfidha;Al Qunfidhah;Kunfida","int_name":"Al Qunfudhah","name:ckb":"قونفوزە"},"display_name":"القنفذة, محافظة القنفذة, منطقة مكة المكرمة, السعودية","address":{"city":"القنفذة","province":"محافظة القنفذة","state":"منطقة مكة المكرمة","ISO3166-2-lvl4":"SA-02","country":"السعودية","country_code":"sa"},"population":24512,"osm_type":"node","osm_id":1010180725,"type":"city","location":[41.0788747,19.1264288],"bbox":[40.9188747,18.9664288,41.2388747,19.2864288],"border":{"name":"محافظة القنفذة","other_names":{"name:ar":"محافظة القنفذة","name:en":"Al Qunfudhah","name:fr":"Al Qunfudhah","name:he":"קנפודה","name:ku":"Qunfuze","name:ml":"അൽ ഖുൻഫുദ","alt_name":"Al-Kunfudha;Al Qunfidha;Al Qunfidhah;Kunfida","int_name":"Al Qunfudhah","name:ckb":"قونفوزە","alt":"القنفذة","alt:ar":"القنفذة"},"display_name":"محافظة القنفذة, منطقة مكة المكرمة, السعودية","address":{"province":"محافظة القنفذة","state":"منطقة مكة المكرمة","ISO3166-2-lvl4":"SA-02","country":"السعودية","country_code":"sa"},"population":272424,"osm_type":"relation","osm_id":12429518,"type":"administrative","location":[41.0788747,19.1264288],"bbox":[40.0307768,18.5082678,41.6249,19.8371101]}}
{"name":"القويعية","other_names":{"name:ar":"القويعية","name:de":"Al Quway`iyah","name:en":"Al Quway`iyah","name:fr":"Al Quway`iyah","name:ku":"Qiwey'îye","name:ml":"അൽ-ഖുവൈയ്യിയ","alt_name":"Qa`iya;Qa‘iya;Quai`iya;Quai‘iya;Quwai'iyah;Quwai`iya;Quwai‘īya;Quwai’īyah","int_name":"Al Quway‘īyah","name:ckb":"قوەیعییە"},"display_name":"القويعية, محافظة القويعيه, منطقة الرياض, السعودية","address":{"city":"القويعية","province":"محافظة القويعيه","state":"منطقة الرياض","ISO3166-2-lvl4":"SA-01","country":"السعودية","country_code":"sa"},"population":22519,"osm_type":"node","osm_id":1236421394,"type":"city","location":[45.284381,24.065056],"bbox":[45.124381,23.905056,45.444381,24.225056],"border":{"name":"محافظة القويعيه","other_names":{"name:ar":"محافظة القويعيه","name:en":"Al Quwayiyah","name:de":"Al Quway`iyah","name:fr":"Al Quway`iyah","name:ku":"Qiwey'îye","name:ml":"അൽ-ഖുവൈയ്യിയ","alt_name":"Qa`iya;Qa‘iya;Quai`iya;Quai‘iya;Quwai'iyah;Quwai`iya;Quwai‘īya;Quwai’īyah","int_name":"Al Quway‘īyah","name:ckb":"قوەیعییە","alt":"القويعية","alt:ar":"القويعية","alt:en":"Al Quway`iyah"},"display_name":"محافظة القويعيه, منطقة الرياض, السعودية","address":{"province":"محافظة القويعيه","state":"منطقة الرياض","ISO3166-2-lvl4":"SA-01","country":"السعودية","country_code":"sa"},"population":126161,"osm_type":"relation","osm_id":12423672,"type":"administrative","location":[45.284381,24.065056],"bbox":[43.26991,21.9279501,45.97166,24.6702699]}}
{"name":"الليث","other_names":{"name:ar":"الليث","name:de":"Al Lith","name:en":"Al Lith","name:fr":"Al Lith","name:he":"אל לית","name:ku":"Lîs","name:ml":"അൽ-ലിത്ത്","int_name":"Al Līth","name:ckb":"لیس"},"display_name":"الليث, محافظة الليث, منطقة مكة المكرمة, السعودية","address":{"city":"الليث","province":"محافظة الليث","state":"منطقة مكة المكرمة","ISO3166-2-lvl4":"SA-02","country":"السعودية","country_code":"sa"},"population":18430,"osm_type":"node","osm_id":1237964367,"type":"city","location":[40.2701391,20.1451486],"bbox":[40.1101391,19.9851486,40.4301391,20.3051486],"border":{"name":"محافظة الليث","other_names":{"name:ar":"محافظة الليث","name:en":"Al Lith","name:de":"Al Lith","name:fr":"Al Lith","name:he":"אל לית","name:ku":"Lîs","name:ml":"അൽ-ലിത്ത്","int_name":"Al Līth","name:ckb":"لیس","alt":"الليث","alt:ar":"الليث"},"display_name":"محافظة الليث, منطقة مكة المكرمة, السعودية","address":{"province":"محافظة الليث","state":"منطقة مكة المكرمة","ISO3166-2-lvl4":"SA-02","country":"السعودية","country_code":"sa"},"population":128529,"osm_type":"relation","osm_id":12429525,"type":"administrative","location":[40.2701391,20.1451486],"bbox":[39.4860114,19.6739676,40.99595,20.9977801]}}
{"name":"المجمعة","other_names":{"name:ar":"المجمعة","name:bn":"মাজমা'আ","name:de":"Al Majma`ah","name:en":"Al Majma'ah","name:fa":"المجمعه","name:fr":"Al Majma`ah","name:he":"אל מג'מאה","name:ku":"Mecme'e","name:ml":"അൽ-മജ്മാ","name:nl":"Al-Madjma'ah","name:nn":"Al Majma'ah","name:pl":"Al-Madżma’a","name:ru":"Эль-Маджмаа","name:tl":"Al Majma'ah","name:tr":"El-Mecma","name:ur":"مجمعہ","name:uz":"Al-Majmaʼa","name:zh":"邁季邁阿","alt_name":"Majma';Majma`a;Majma`ah;Majma‘a;Majma‘ah;Majma’","int_name":"Al Majma‘ah","name:ckb":"مەجمەعە"},"display_name":"المجمعة, محافظة المجمعة, منطقة الرياض, 11952, السعودية","address":{"city":"المجمعة","province":"محافظة المجمعة","state":"منطقة الرياض","ISO3166-2-lvl4":"SA-01","postcode":"11952","country":"السعودية","country_code":"sa"},"population":133285,"osm_type":"node","osm_id":1236400187,"type":"city","location":[45.345556,25.903889],"bbox":[45.185556,25.743889,45.505556,26.063889]}
{"name":"المدينة المنورة","other_names":{"name:ar":"المدينة المنورة","name:bn":"মদীনা","name:cs":"Medína","name:de":"Medina","name:el":"Μεδίνα","name:en":"Medina","name:eo":"Medino","name:es":"Medina","name:et":"Mediina","name:eu":"Medina","name:fa":"مدینه","name:fi":"Medina","name:fr":"Médine","name:he":"מדינה","name:hi":"मदीना","name:hr":"Medina","name:it":"Medina","name:kn":"ಮದೀನಾ","name:ko":"메디나","name:ku":"Medîne","name:lt":"Medina","name:ml":"മദീന","name:ms":"Madinah","name:pa":"ਮਦੀਨਾ","name:pt":"Medina","name:ru":"Медина","name:sk":"Medina","name:sr":"Медина","name:tk":"Medine Münewwere","name:tr":"Medine","name:tt":"Мәдинә","name:uk":"Медина","name:ur":"مدینہ","name:zh":"麦地那","alt_name":"Al Madina;Al Madinah al Munawwarah;Al Madīnah al Munawwarah;Al Medina;El Medina;Lathrippa;Medina;Yathrib;المدينة المنورة;Al Madīnah;Al Madinah","int_name":"Medina","name:ckb":"مەدینە","name:diq":"Medina","name:kab":"Lmadina Timnewwret","official_name:ar":"المدينة المنورة","official_name:en":"al-Madinah al-Munawwarah","official_name:fr":"Al-Madina al-Mounawwara","official_name:ur":"مدینہ المنورہ"},"display_name":"المدينة المنورة, محافظة المدينة المنورة, منطقة المدينة المنورة, 41419, السعودية","address":{"city":"المدينة المنورة","province":"محافظة المدينة المنورة","state":"منطقة المدينة المنورة","ISO3166-2-lvl4":"SA-03","postcode":"41419","country":"السعودية","country_code":"sa"},"population":1100093,"osm_type":"node","osm_id":4571693347,"type":"city","location":[39.6111216,24.471153],"bbox":[39.4511216,24.311153,39.7711216,24.631153],"border":{"name":"محافظة المدينة المنورة","other_names":{"name:ar":"محافظة المدينة المنورة","name:en":"Al Madinah Al Munawwarah","name:fr":"Al-Madina al-Mounawwara","name:kab":"Lmadina Timnewwret"},"display_name":"محافظة المدينة المنورة, منطقة المدينة المنورة, السعودية","address":{"province":"محافظة المدينة المنورة","state":"منطقة المدينة المنورة","ISO3166-2-lvl4":"SA-03","country":"السعودية","country_code":"sa"},"population":1180770,"osm_type":"relation","osm_id":12429007,"type":"administrative","location":[39.70935663185379,24.5026249],"bbox":[38.66769,23.5064501,40.6932884,25.4960499]}}
{"name":"المذنب","other_names":{"name:ar":"المذنب","name:bn":"মিজনাব","name:en":"Al Mithnab","name:fr":"Al Mithnab","name:ku":"Mîzneb","name:ml":"അൽ-മിത്നബ്","alt_name":"Al Mithnab;Mithnab;Mithnab;المذنب;Al Mithnab;Al Mithnab","name:ckb":"میزنەب"},"display_name":"المذنب, محافظة المذنب, منطقة القصيم, السعودية","address":{"city":"المذنب","province":"محافظة المذنب","state":"منطقة القصيم","ISO3166-2-lvl4":"SA-05","country":"السعودية","country_code":"sa"},"population":29210,"osm_type":"node","osm_id":1236366944,"type":"city","location":[44.2209063,25.8596075],"bbox":[44.0609063,25.6996075,44.3809063,26.0196075],"border":{"name":"محافظة المذنب","other_names":{"name:ar":"محافظة المذنب","name:en":"Al Midhnab","name:bn":"মিজনাব","name:fr":"Al Mithnab","name:ku":"Mîzneb","name:ml":"അൽ-മിത്നബ്","alt_name":"Al Mithnab;Mithnab;Mithnab;المذنب;Al Mithnab;Al Mithnab","name:ckb":"میزنەب","alt":"المذنب","alt:ar":"المذنب","alt:en":"Al Mithnab"},"display_name":"محافظة المذنب, منطقة القصيم, السعودية","address":{"province":"محافظة المذنب","state":"منطقة القصيم","ISO3166-2-lvl4":"SA-05","country":"السعودية","country_code":"sa"},"population":44043,"osm_type":"relation","osm_id":12406843,"type":"administrative","location":[44.2209063,25.8596075],"bbox":[43.76876,25.3336001,44.47984,25.9527399]}}
{"name":"المرير","other_names":{"name:ar":"المرير","name:en":"Al Murayr","alt_name":"Al Murayr"},"display_name":"المرير, هذا الجزء من الدرب فيه منحدر, محافظة سكاكا, منطقة الجوف, السعودية","address":{"historic":"المرير","road":"هذا الجزء من الدرب فيه منحدر","city":"محافظة سكاكا","state":"منطقة الجوف","ISO3166-2-lvl4":"SA-12","country":"السعودية","country_code":"sa"},"osm_type":"node","osm_id":11871306827,"type":"ruins","location":[39.9154893,30.0506922],"bbox":[39.9154393,30.0506422,39.9155393,30.0507422]}
{"name":"النماص","other_names":{"name:ar":"النماص","name:en":"An Nimas","name:ml":"അൽ നിമാസ്","int_name":"An Nimas"},"display_name":"النماص, محافظة النماص, منطقة عسير, 67377, السعودية","address":{"city":"النماص","province":"محافظة النماص","state":"منطقة عسير","ISO3166-2-lvl4":"SA-14","postcode":"67377","country":"السعودية","country_code":"sa"},"population":27021,"osm_type":"node","osm_id":1236687970,"type":"city","location":[42.133333,19.116667],"bbox":[41.973333,18.956667,42.293333,19.276667],"border":{"name":"محافظة النماص","other_names":{"name:ar":"محافظة النماص","name:en":"An Nimas"},"display_name":"محافظة النماص, منطقة عسير, السعودية","address":{"province":"محافظة النماص","state":"منطقة عسير","ISO3166-2-lvl4":"SA-14","country":"السعودية","country_code":"sa"},"population":54119,"osm_type":"relation","osm_id":12436482,"type":"administrative","location":[42.27928534881465,19.2654551],"bbox":[41.95491,18.9968501,42.54168,19.5323801]}}
{"name":"الهفوف","other_names":{"name:ar":"الهفوف","name:bg":"Ал Хофуф","name:cs":"Al-Hofuf","name:de":"Al-Hofuf","name:en":"Al-Hofuf","name:eo":"Hofufo","name:es":"Hofuf","name:et":"Al-Hofuf","name:eu":"Hufuf","name:fi":"Al-Hofuf","name:fr":"Al-Hofuf","name:he":"אל חופוף","name:hi":"अल हॉफुफ","name:hr":"Hufuf","name:ko":"후푸프","name:ku":"Hufûf","name:ml":"ഹുഫൂഫ്","name:pl":"Al-Hofuf","name:pt":"Al-Hofuf","name:ru":"Эль-Хуфуф","name:sr":"Хуфуф","name:uk":"Ель-Хуфуф","alt_name":"Hofuf;Hofūf;Hufuf;Hufūf","int_name":"Al-Hofuf","name:ckb":"ھوفووف","alt_name:en":"Al-Hofuf","alt_name:eo":"Al-Hofuf"},"display_name":"الهفوف, محافظة الأحساء, المنطقة الشرقية, 36361-7365, السعودية","address":{"city":"الهفوف","state":"المنطقة الشرقية","ISO3166-2-lvl4":"SA-04","postcode":"36361-7365","country":"السعودية","country_code":"sa"},"population":660788,"osm_type":"node","osm_id":208501048,"type":"city","location":[49.5865224,25.3696585],"bbox":[49.4265224,25.2096585,49.7465224,25.5296585]}
{"name":"الوجه","other_names":{"name:ar":"الوجه","name:de":"Al Wajh","name:en":"Al Wajh","name:fr":"Al Wajh","name:ku":"Wecih","name:ml":"അൽ വജ്ഹ്","name:uk":"Ель-Ваджх","int_name":"Al Wajh","name:ckb":"وەجھ"},"display_name":"الوجه, محافظة الوجه, منطقة تبوك, السعودية","address":{"city":"الوجه","province":"محافظة الوجه","state":"منطقة تبوك","ISO3166-2-lvl4":"SA-07","country":"السعودية","country_code":"sa"},"population":30512,"osm_type":"node","osm_id":1237957986,"type":"city","location":[36.4532774,26.2444191],"bbox":[36.2932774,26.0844191,36.6132774,26.4044191],"border":{"name":"محافظة الوجه","other_names":{"name:ar":"محافظة الوجه","name:en":"Al Wajh"},"display_name":"محافظة الوجه, منطقة تبوك, السعودية","address":{"province":"محافظة الوجه","state":"منطقة تبوك","ISO3166-2-lvl4":"SA-07","country":"السعودية","country_code":"sa"},"population":44570,"osm_type":"relation","osm_id":12420156,"type":"administrative","location":[36.66529000798626,26.62706335],"bbox":[36.0410475,25.7567499,37.6951903,27.4972899]}}
{"name":"بريدة","other_names":{"name:ar":"بريدة","name:be":"Бурайда","name:bn":"বুরাইদা","name:ca":"Burayda","name:cs":"Burajda","name:da":"Buraidah","name:de":"Buraydah","name:en":"Buraydah","name:eo":"Burajda","name:es":"Buraidá","name:et":"Buraydah","name:eu":"Buraida","name:fa":"بریده","name:fi":"Buraidah","name:fr":"Buraydah","name:he":"בוריידה","name:hi":"बुरैदाह","name:hr":"Burajdah","name:hy":"Բուրեյդա","name:id":"Buraidah","name:it":"Burayda","name:ja":"ブライダ","name:ka":"ბურაიდა","name:kk":"Бурайда","name:ko":"부라이다","name:ku":"Bureyde","name:lt":"Buraida","name:ml":"ബുറൈദ","name:ms":"Buraidah","name:nb":"Buraidah","name:nl":"Buraidah","name:nn":"Buraydah","name:os":"Бурайдæ","name:pa":"ਬੁਰੈਦਾ","name:pl":"Burajda","name:pt":"Buraida","name:ru":"Бурайда","name:sl":"Burajda","name:sq":"Burejde","name:sr":"Бурајда","name:sv":"Burayda","name:tr":"Büreyde","name:uk":"Бурайда","name:ur":"بریدہ","name:uz":"Burayda","name:vi":"Buraidah","name:vo":"Buräydä","name:zh":"布賴代","alt_name":"Buraida;Buraidah;بريدة;Buraydah;Buraydah","name:ckb":"بورەیدە"},"display_name":"بريدة, محافظة بريدة, منطقة القصيم, 52354, السعودية","address":{"city":"بريدة","province":"محافظة بريدة","state":"منطقة القصيم","ISO3166-2-lvl4":"SA-05","postcode":"52354","country":"السعودية","country_code":"sa"},"population":467410,"osm_type":"node","osm_id":1236365110,"type":"city","location":[43.971667,26.331667],"bbox":[43.811667,26.171667,44.131667,26.491667],"border":{"name":"محافظة بريدة","other_names":{"name:ar":"محافظة بريدة","name:en":"Buraydah"},"display_name":"محافظة بريدة, منطقة القصيم, السعودية","address":{"province":"محافظة بريدة","state":"منطقة القصيم","ISO3166-2-lvl4":"SA-05","country":"السعودية","country_code":"sa"},"population":614093,"osm_type":"relation","osm_id":12406852,"type":"administrative","location":[43.63787153456333,26.9252275],"bbox":[42.3537603,25.0741301,44.45119,27.7082749]}}
{"name":"بيش","other_names":{"name:ar":"بيش","name:de":"Baysh","name:en":"Baysh","name:fr":"Baysh","name:ku":"Beyiş","name:ml":"ബൈഷ്","alt_name":"أم الخشب","int_name":"Baysh","name:ckb":"بەیش"},"display_name":"بيش, محافظة بيش, منطقة جازان, السعودية","address":{"city":"بيش","province":"محافظة بيش","state":"منطقة جازان","ISO3166-2-lvl4":"SA-09","country":"السعودية","country_code":"sa"},"population":30835,"osm_type":"node","osm_id":6391743774,"type":"city","location":[42.5372249,17.3756272],"bbox":[42.3772249,17.2156272,42.6972249,17.5356272],"border":{"name":"محافظة بيش","other_names":{"name:ar":"محافظة بيش","name:en":"Baysh","name:de":"Baysh","name:fr":"Baysh","name:ku":"Beyiş","name:ml":"ബൈഷ്","alt_name":"أم الخشب","int_name":"Baysh","name:ckb":"بەیش","alt":"بيش","alt:ar":"بيش"},"display_name":"محافظة بيش, منطقة جازان, السعودية","address":{"province":"محافظة بيش","state":"منطقة جازان","ISO3166-2-lvl4":"SA-09","country":"السعودية","country_code":"sa"},"population":77442,"osm_type":"relation","osm_id":12430381,"type":"administrative","location":[42.5372249,17.3756272],"bbox":[42.2031368,17.0141251,42.77774,17.5660228]}}
{"name":"بيشة","other_names":{"name:ar":"بيشة","name:de":"Bishah","name:en":"Bishah","name:fr":"Bishah","name:ku":"Bîşe","name:ml":"ബീഷ","alt_name":"Bisha","int_name":"Bisha","name:ckb":"بیشة"},"display_name":"بيشة, محافظة بيشة, منطقة عسير, السعودية","address":{"city":"بيشة","province":"محافظة بيشة","state":"منطقة عسير","ISO3166-2-lvl4":"SA-14","country":"السعودية","country_code":"sa"},"population":86201,"osm_type":"node","osm_id":983083565,"type":"city","location":[42.6,20],"bbox":[42.44,19.84,42.76,20.16],"border":{"name":"محافظة بيشة","other_names":{"name:ar":"محافظة بيشة","name:en":"Bishah","alt_name":"Bishah","int_name":"Bishah"},"display_name":"محافظة بيشة, منطقة عسير, السعودية","address":{"province":"محافظة بيشة","state":"منطقة عسير","ISO3166-2-lvl4":"SA-14","country":"السعودية","country_code":"sa"},"population":205346,"osm_type":"relation","osm_id":12436475,"type":"administrative","location":[42.55200899683544,19.7914051],"bbox":[41.87327,18.9891001,43.11121,20.5916801]}}
{"name":"تبوك","other_names":{"name:ar":"تبوك","name:bn":"তাবুক","name:de":"Tabuk","name:en":"Tabuk","name:es":"Tabuk","name:et":"Tabūk","name:eu":"Tabuk","name:fa":"تبوک","name:fi":"Tabuk","name:fr":"Tabouk","name:he":"תבוכ","name:hi":"टबुक","name:hr":"Tabuk","name:ko":"타부크","name:ks":"تبوک","name:ku":"Tebûk","name:ml":"തബൂക്ക്","name:ro":"Tabuk","name:ru":"Табук","name:sr":"Табук","name:tr":"Tebük","name:uk":"Табук","name:ur":"تبوک","name:zh":"塔布克","name:arz":"تبوك","name:azb":"تبوک","name:ckb":"تەبووک","name:mzn":"تبوک","name:pnb":"تبوک"},"display_name":"تبوك, محافظة تبوك, منطقة تبوك, 71411, السعودية","address":{"city":"تبوك","province":"محافظة تبوك","state":"منطقة تبوك","ISO3166-2-lvl4":"SA-07","postcode":"71411","country":"السعودية","country_code":"sa"},"population":512629,"osm_type":"node","osm_id":5418190413,"type":"city","location":[36.567049,28.4012536],"bbox":[36.407049,28.2412536,36.727049,28.5612536]}
{"name":"جدة","other_names":{"name:af":"Djedda","name:am":"ጀዳህ","name:an":"Chidda","name:ar":"جدة","name:av":"Жидда","name:az":"Ciddə","name:ba":"Джиддә","name:be":"Джыда","name:bg":"Джида","name:bn":"জেদ্দা","name:br":"Jeddah","name:bs":"Džida","name:ca":"Jiddah","name:ce":"Жидда","name:cs":"Džidda","name:cy":"Jeddah","name:da":"Jeddah","name:de":"Dschidda","name:dv":"ޖިއްދާ","name:el":"Τζέντα","name:en":"Jeddah","name:eo":"Ĝido","name:es":"Yeda","name:et":"Jiddah","name:eu":"Jidda","name:fa":"جده","name:fi":"Jedda","name:fr":"Djeddah","name:fy":"Jeddah","name:ga":"Jeddah","name:gd":"Jeddah","name:gl":"Jeddah","name:ha":"Jeddah","name:he":"ג'דה","name:hi":"जिद्द","name:hr":"Džeda","name:hu":"Dzsidda","name:hy":"Ջիդդա","name:ia":"Jeddah","name:id":"Jeddah","name:ie":"Jeddah","name:io":"Jeddah","name:is":"Jeddah","name:it":"Gedda","name:ja":"ジッダ","name:jv":"Jeddah","name:ka":"ჯიდა","name:kk":"Жидда","name:kn":"ಜಿದ್ದ","name:ko":"지다","name:ks":"جدہ","name:ku":"Cide","name:kw":"Jeddah","name:ky":"Жидда","name:la":"Gedda","name:lb":"Jeddah","name:li":"Jiddah","name:ln":"Cidda","name:lt":"Džida","name:lv":"Džida","name:mg":"Djeddah","name:mk":"Џеда","name:ml":"ജിദ്ദ","name:mr":"जेद्दाह","name:ms":"Jeddah","name:mt":"Jeddah","name:my":"ဂျက်ဒါးမြို့","name:nb":"Jidda","name:ne":"जेदाह","name:nl":"Djedda","name:nn":"Jidda","name:oc":"Jidda","name:os":"Джиддæ","name:pa":"ਜੱਦਾ","name:pl":"Dżudda","name:ps":"جده","name:pt":"Gidá","name:ro":"Djedda","name:ru":"Джидда","name:sd":"جده","name:sk":"Džidda","name:sl":"Džida","name:so":"Jidda","name:sq":"Xhide","name:sr":"Џеда","name:su":"Jeddah","name:sv":"Jidda","name:sw":"Jeddah","name:ta":"ஜித்தா","name:tg":"Ҷидда","name:th":"ญิดดะฮ์","name:tk":"Jidde","name:tl":"Jeddah","name:tr":"Cidde","name:tt":"Җиддә","name:uk":"Джідда","name:ur":"جدہ","name:uz":"Jidda","name:vi":"Jeddah","name:vo":"Ciddä","name:yi":"דזשעדא","name:yo":"Jeddah","name:zh":"吉达","alt_name":"Djidda;Yida;Gedda;Jiddah;Jedda;Jeddah;Jidda;Juddah","name:azb":"جده","name:ckb":"جدە","name:diq":"Cidde","name:ota":"جده","name:pnb":"جدہ","alt_name:ar":"جدّة","alt_name:en":"Jidda","alt_name:es":"Yida","alt_name:pt":"Jidá","name:az-Arab":"جده","name:kk-Arab":"جىيددا"},"display_name":"جدة, محافظة جدة, منطقة مكة المكرمة, 23124, السعودية","address":{"city":"جدة","province":"محافظة جدة","state":"منطقة مكة المكرمة","ISO3166-2-lvl4":"SA-02","postcode":"23124","country":"السعودية","country_code":"sa"},"population":3430697,"osm_type":"node","osm_id":1933393717,"type":"city","location":[39.1742363,21.5504432],"bbox":[39.0142363,21.3904432,39.3342363,21.7104432]}
{"name":"جيزان","other_names":{"name:ar":"جيزان","name:be":"Джызан","name:bn":"জাজন","name:ca":"Jizan","name:cs":"Džizán","name:da":"Jizan","name:de":"Dschāzān","name:el":"Τζιζάν","name:en":"Jizan","name:eo":"Ĝajzano","name:es":"Jizan","name:et":"Jīzān","name:fa":"جیزان","name:fi":"Jizan","name:fr":"Jizan","name:he":"ג'יזאן","name:hi":"जिज़ान","name:id":"Jizan","name:it":"Jizan","name:ja":"ジーザーン","name:ko":"지잔","name:ku":"Cêzan","name:ml":"ജീസാൻ","name:ms":"Jizan","name:nb":"Jizan","name:nl":"Jizan","name:nn":"Jizan","name:pl":"Dżizan","name:pt":"Jizã","name:ru":"Джизан","name:sr":"Џизан","name:su":"Jizan","name:tl":"Jizan","name:tr":"Cizan","name:uk":"Джизан","name:ur":"جازان","name:vi":"Jizan","name:vo":"Cisan","name:zh":"吉赞","alt_name":"Djayzan;Djayzān;Djazan;Djāzān;Gizan;Gizán;Jaizan;Jezan;Jizan;Jīzān;Qizan;Qīzān;جيزان;Jāzān;Jazan","name:ckb":"جێزان","alt_name:en":"Jazan, Gizan,Gazan"},"display_name":"جيزان, محافظة جازان, منطقة جازان, 82723, السعودية","address":{"city":"جيزان","province":"محافظة جازان","state":"منطقة جازان","ISO3166-2-lvl4":"SA-09","postcode":"82723","country":"السعودية","country_code":"sa"},"population":127743,"osm_type":"node","osm_id":288992209,"type":"city","location":[42.5579758,16.894719],"bbox":[42.3979758,16.734719,42.7179758,17.054719],"border":{"name":"محافظة جازان","other_names":{"name:ar":"محافظة جازان","name:en":"Jazan"},"display_name":"محافظة جازان, منطقة جازان, السعودية","address":{"province":"محافظة جازان","state":"منطقة جازان","ISO3166-2-lvl4":"SA-09","country":"السعودية","country_code":"sa"},"population":157536,"osm_type":"relation","osm_id":12430376,"type":"administrative","location":[42.50597862077345,17.6744901],"bbox":[42.3153325,16.7680599,42.70885,17.8312401]}}
{"name":"حائل","other_names":{"name:ar":"حائل","name:de":"Ha'il","name:en":"Ha'il","name:et":"Ḩā’il","name:eu":"Ḩā’il","name:fr":"Ha'il","name:he":"הייל","name:hi":"हैल","name:ku":"Haîl","name:ml":"ഹായിൽ","name:ru":"Хаиль","name:sr":"Хаил","name:tr":"Hail","alt_name":"Hael;Hajel;Ḥâjel;Hayil","int_name":"Ḩā’il","name:ckb":"حائیل","alt_name:en":"Hail, Ha'yel, Hayil"},"display_name":"حائل, محافظة حائل, منطقة حائل, 55421, السعودية","address":{"city":"حائل","province":"محافظة حائل","state":"منطقة حائل","ISO3166-2-lvl4":"SA-06","postcode":"55421","country":"السعودية","country_code":"sa"},"population":310897,"osm_type":"node","osm_id":346801397,"type":"city","location":[41.6985992,27.5208716],"bbox":[41.5385992,27.3608716,41.8585992,27.6808716],"border":{"name":"محافظة حائل","other_names":{"name:ar":"محافظة حائل","name:en":"Hail"},"display_name":"محافظة حائل, منطقة حائل, السعودية","address":{"province":"محافظة حائل","state":"منطقة حائل","ISO3166-2-lvl4":"SA-06","country":"السعودية","country_code":"sa"},"population":412758,"osm_type":"relation","osm_id":12413060,"type":"administrative","location":[40.81830649689581,27.828949899999998],"bbox":[39.11418,26.7350801,42.2966924,28.9231599]}}
{"name":"حفر الباطن","other_names":{"name:ar":"حفر الباطن","name:en":"Hafar Al-Batin","name:et":"Ḩafar al-Bāţin","name:eu":"Hafar Al-Batin","name:fi":"Hafar Al-Batin","name:fr":"Hafar Al-Batin","name:he":"חאפר אל באטין","name:hi":"हफर अल बतिन","name:ku":"Hefer Batîn","name:ml":"ഹഫർ അൽ ബാത്തിൻ","name:uk":"Хафар-ель-Батін","int_name":"Hafar Al-Batin","name:ckb":"حەفەر باتین"},"display_name":"حفر الباطن, محافظة حفر الباطن, المنطقة الشرقية, 39956, السعودية","address":{"city":"حفر الباطن","province":"محافظة حفر الباطن","state":"المنطقة الشرقية","ISO3166-2-lvl4":"SA-04","postcode":"39956","country":"السعودية","country_code":"sa"},"population":271642,"osm_type":"node","osm_id":983083568,"type":"city","location":[45.9627527,28.4328084],"bbox":[45.8027527,28.2728084,46.1227527,28.5928084],"border":{"name":"محافظة حفر الباطن","other_names":{"name:ar":"محافظة حفر الباطن","name:en":"Hafar Al Batin Governorate","name:uk":"Хафар-ель-Батін"},"display_name":"محافظة حفر الباطن, المنطقة الشرقية, السعودية","address":{"province":"محافظة حفر الباطن","state":"المنطقة الشرقية","ISO3166-2-lvl4":"SA-04","country":"السعودية","country_code":"sa"},"population":389993,"osm_type":"relation","osm_id":12404389,"type":"administrative","location":[46.24739338603306,28.0821099],"bbox":[44.6459902,27.0064999,47.72544,29.1592544]}}
{"name":"حوطة بني تميم","other_names":{"name:ar":"حوطة بني تميم","name:en":"Hotat Bani Tamim","name:fr":"Hotat Bani Tamim","name:ku":"Hote Benî Temîm","name:ml":"ഹോത്തത്ത് ബനി തമീം","int_name":"Hotat Bāni Tamim","name:ckb":"حۆتە بەنی تەمیم"},"display_name":"حوطة بني تميم, محافظة حوطه بنى تميم, منطقة الرياض, السعودية","address":{"city":"حوطة بني تميم","province":"محافظة حوطه بنى تميم","state":"منطقة الرياض","ISO3166-2-lvl4":"SA-01","country":"السعودية","country_code":"sa"},"population":26270,"osm_type":"node","osm_id":1013645944,"type":"city","location":[46.8787064,23.4874984],"bbox":[46.7187064,23.3274984,47.0387064,23.6474984],"border":{"name":"محافظة حوطه بنى تميم","other_names":{"name:ar":"محافظة حوطه بنى تميم","name:en":"Hawtat Bani Tamim","name:fr":"Hotat Bani Tamim","name:ku":"Hote Benî Temîm","name:ml":"ഹോത്തത്ത് ബനി തമീം","int_name":"Hotat Bāni Tamim","name:ckb":"حۆتە بەنی تەمیم","alt":"حوطة بني تميم","alt:ar":"حوطة بني تميم","alt:en":"Hotat Bani Tamim"},"display_name":"محافظة حوطه بنى تميم, منطقة الرياض, 16521, السعودية","address":{"province":"محافظة حوطه بنى تميم","state":"منطقة الرياض","ISO3166-2-lvl4":"SA-01","postcode":"16521","country":"السعودية","country_code":"sa"},"population":43300,"osm_type":"relation","osm_id":12423669,"type":"administrative","location":[46.8787064,23.4874984],"bbox":[45.92632,22.7784401,47.32785,23.7611501]}}
{"name":"خميس مشيط","other_names":{"name:ar":"خميس مشيط","name:en":"Khamis Mushayt","name:eu":"Khamis Mushait","name:fr":"Khamis Mushait","name:he":"חמיס מושאיט","name:hi":"खामिस मुशैत","name:ku":"Xemîs Muşeyt","name:ml":"ഖമീസ് മുഷൈത്","name:sr":"Хамис Мушаит","name:uk":"Хаміс-Мушайт","alt_name":"Khamis Mushait","int_name":"Khamīs Mushayţ","name:ckb":"خەمیس موشەیت","name:zh-Hans":"海米斯穆谢特","name:zh-Hant":"海米斯穆謝特"},"display_name":"خميس مشيط, محافظة خميس مشيط, منطقة عسير, 62411, السعودية","address":{"city":"خميس مشيط","province":"محافظة خميس مشيط","state":"منطقة عسير","ISO3166-2-lvl4":"SA-14","postcode":"62411","country":"السعودية","country_code":"sa"},"population":430828,"osm_type":"node","osm_id":983083570,"type":"city","location":[42.733333,18.3],"bbox":[42.573333,18.14,42.893333,18.46],"border":{"name":"محافظة خميس مشيط","other_names":{"name:ar":"محافظة خميس مشيط","name:en":"Khamis Mushayt","name:uk":"Хаміс-Мушайт"},"display_name":"محافظة خميس مشيط, منطقة عسير, السعودية","address":{"province":"محافظة خميس مشيط","state":"منطقة عسير","ISO3166-2-lvl4":"SA-14","country":"السعودية","country_code":"sa"},"population":512599,"osm_type":"relation","osm_id":12436486,"type":"administrative","location":[42.81593660194174,18.635690099999998],"bbox":[42.48769,18.1442001,43.1869806,19.1271001]}}
{"name":"دومة الجندل","other_names":{"name:ar":"دومة الجندل","name:de":"Dawmat al Jandal","name:en":"Dawmat al Jandal","name:fr":"Dawmat al Jandal","name:ml":"ദുമാത്ത് അൽ-ജന്ദൽ","name:ru":"Думат-эд-Джандай","name:uk":"Думат ад-Джандаль","alt_name":"Dawmat al Jandal","int_name":"Dawmat al Jandal","old_name":"الجوف","alt_name:uk":"Ель-Джауф"},"display_name":"دومة الجندل, محافظة دومة الجندل, منطقة الجوف, السعودية","address":{"city":"دومة الجندل","province":"محافظة دومة الجندل","state":"منطقة الجوف","ISO3166-2-lvl4":"SA-12","country":"السعودية","country_code":"sa"},"population":49646,"osm_type":"node","osm_id":1236739971,"type":"city","location":[39.866726,29.8059219],"bbox":[39.706726,29.6459219,40.026726,29.9659219],"border":{"name":"محافظة دومة الجندل","other_names":{"name:ar":"محافظة دومة الجندل","name:en":"Dawamat Al Jandal","name:de":"Dawmat al Jandal","name:fr":"Dawmat al Jandal","name:ml":"ദുമാത്ത് അൽ-ജന്ദൽ","name:ru":"Думат-эд-Джандай","name:uk":"Думат ад-Джандаль","alt_name":"Dawmat al Jandal","int_name":"Dawmat al Jandal","old_name":"الجوف","alt_name:uk":"Ель-Джауф","alt":"دومة الجندل","alt:ar":"دومة الجندل","alt:en":"Dawmat al Jandal"},"display_name":"محافظة دومة الجندل, منطقة الجوف, السعودية","address":{"province":"محافظة دومة الجندل","state":"منطقة الجوف","ISO3166-2-lvl4":"SA-12","country":"السعودية","country_code":"sa"},"population":49646,"osm_type":"relation","osm_id":12413345,"type":"administrative","location":[39.866726,29.8059219],"bbox":[38.72609,28.3679399,40.93727,30.9814899]}}
{"name":"رابغ","other_names":{"name:ar":"رابغ","name:bn":"রাবিগ","name:en":"Rabigh","name:fa":"رابغ","name:fr":"Rabigh","name:ku":"Rabîx","name:ml":"റാബിഗ്","name:ur":"رابغ","int_name":"Rābigh","name:ckb":"ڕابیغ"},"display_name":"رابغ, محافظة رابغ, منطقة مكة المكرمة, السعودية","address":{"city":"رابغ","province":"محافظة رابغ","state":"منطقة مكة المكرمة","ISO3166-2-lvl4":"SA-02","country":"السعودية","country_code":"sa"},"population":55304,"osm_type":"node","osm_id":980059853,"type":"city","location":[39.0335547,22.7989669],"bbox":[38.8735547,22.6389669,39.1935547,22.9589669],"border":{"name":"محافظة رابغ","other_names":{"name:ar":"محافظة رابغ","name:en":"Rabigh","name:uk":"Рабіг","name:bn":"রাবিগ","name:fa":"رابغ","name:fr":"Rabigh","name:ku":"Rabîx","name:ml":"റാബിഗ്","name:ur":"رابغ","int_name":"Rābigh","name:ckb":"ڕابیغ","alt":"رابغ","alt:ar":"رابغ"},"display_name":"محافظة رابغ, منطقة مكة المكرمة, 23955, السعودية","address":{"province":"محافظة رابغ","state":"منطقة مكة المكرمة","ISO3166-2-lvl4":"SA-02","postcode":"23955","country":"السعودية","country_code":"sa"},"population":92072,"osm_type":"relation","osm_id":12429524,"type":"administrative","location":[39.0335547,22.7989669],"bbox":[38.6597669,22.3024716,39.88517,23.4972801]}}
{"name":"رفحاء","other_names":{"name:ar":"رفحاء","name:en":"Rafha","name:fr":"Rafha","name:ku":"Refha","name:ml":"റഫ്ഹ","name:uk":"Рафха","alt_name":"Camp Rufhah;Rafhah;Rafḩah;Rafḩā;Rafha","name:ckb":"ڕەفحا"},"display_name":"رفحاء, محافظة رفحاء, منطقة الحدود الشمالية, 00000, السعودية","address":{"city":"رفحاء","province":"محافظة رفحاء","state":"منطقة الحدود الشمالية","ISO3166-2-lvl4":"SA-08","postcode":"00000","country":"السعودية","country_code":"sa"},"population":52712,"osm_type":"node","osm_id":1013645991,"type":"city","location":[43.5178685,29.6324189],"bbox":[43.3578685,29.4724189,43.6778685,29.7924189],"border":{"name":"محافظة رفحاء","other_names":{"name:ar":"محافظة رفحاء","name:en":"Rafha"},"display_name":"محافظة رفحاء, منطقة الحدود الشمالية, السعودية","address":{"province":"محافظة رفحاء","state":"منطقة الحدود الشمالية","ISO3166-2-lvl4":"SA-08","country":"السعودية","country_code":"sa"},"population":80544,"osm_type":"relation","osm_id":12413338,"type":"administrative","location":[43.355366635521904,29.206530649999998],"bbox":[41.8759076,27.9308018,45.1719841,30.480252]}}
{"name":"سبت العلاية","other_names":{"name:ar":"سبت العلاية","name:en":"Sabt Al 'Alayah","name:fr":"Sabt Al 'Alayah","name:ml":"സബ്ത് അൽ അലയ","int_name":"Sabt Al 'Alayah","alt_name:ar":"سبت العلاية","alt_name:en":"Al 'Alayah"},"display_name":"سبت العلاية, محافظة بلقرن, منطقة عسير, 67513, السعودية","address":{"city":"سبت العلاية","province":"محافظة بلقرن","state":"منطقة عسير","ISO3166-2-lvl4":"SA-14","postcode":"67513","country":"السعودية","country_code":"sa"},"population":200000,"osm_type":"node","osm_id":1236690508,"type":"city","location":[41.9579697,19.563336],"bbox":[41.7979697,19.403336,42.1179697,19.723336]}
{"name":"سكاكا","other_names":{"name:ar":"سكاكا","name:de":"Sakaka","name:en":"Sakaka","name:fr":"Sakaka","name:he":"סאקאקה","name:hi":"सकक्का","name:ko":"사카카","name:ku":"Sekaka","name:ml":"സക്കാക്ക","name:ru":"Сакака","name:uk":"Сакака","alt_name":"Sakakah;Sakākah;Skaka;Skâka","int_name":"Sakākā","name:ckb":"سەکاکا","name:ar_dmg":"Sakākā"},"display_name":"سكاكا, محافظة سكاكا, منطقة الجوف, السعودية","address":{"city":"سكاكا","province":"محافظة سكاكا","state":"منطقة الجوف","ISO3166-2-lvl4":"SA-12","country":"السعودية","country_code":"sa"},"population":150257,"osm_type":"node","osm_id":1236740006,"type":"city","location":[40.2047701,29.9784008],"bbox":[40.0447701,29.8184008,40.3647701,30.1384008],"border":{"name":"محافظة سكاكا","other_names":{"name:ar":"محافظة سكاكا","name:en":"Sakaka","name:de":"Sakaka","name:fr":"Sakaka","name:he":"סאקאקה","name:hi":"सकक्का","name:ko":"사카카","name:ku":"Sekaka","name:ml":"സക്കാക്ക","name:ru":"Сакака","name:uk":"Сакака","alt_name":"Sakakah;Sakākah;Skaka;Skâka","int_name":"Sakākā","name:ckb":"سەکاکا","name:ar_dmg":"Sakākā","alt":"سكاكا","alt:ar":"سكاكا"},"display_name":"محافظة سكاكا, منطقة الجوف, السعودية","address":{"province":"محافظة سكاكا","state":"منطقة الجوف","ISO3166-2-lvl4":"SA-12","country":"السعودية","country_code":"sa"},"population":242813,"osm_type":"relation","osm_id":12413342,"type":"administrative","location":[40.2047701,29.9784008],"bbox":[39.481883,28.9136299,41.99684,30.9633369]}}
{"name":"سوق الجمعة","other_names":{"name:ar":"سوق الجمعة","alt_name":"سوق الجمعة","int_name":"Sūq al Jum ah, Suq al Jumah"},"display_name":"سوق الجمعة, طريق غميقة عيار, محافظة الليث, محافظة أضم, منطقة مكة المكرمة, السعودية","address":{"historic":"سوق الجمعة","road":"طريق غميقة عيار","city":"محافظة الليث","province":"محافظة أضم","state":"منطقة مكة المكرمة","ISO3166-2-lvl4":"SA-02","country":"السعودية","country_code":"sa"},"osm_type":"node","osm_id":1237963810,"type":"ruins","location":[40.7,20.283333],"bbox":[40.69995,20.283283,40.70005,20.283383]}
{"name":"شرورة","other_names":{"name:ar":"شرورة","name:de":"Scharura","name:en":"Sharurah","name:eo":"Ŝarura","name:fa":"شروره","name:fr":"Sharurah","name:it":"Sharurah","name:ku":"Şerûre","name:ml":"ഷറൂറ","name:nn":"Sharurah","name:pl":"Szarura","name:ru":"Шарура","name:tl":"Sharurah","name:tr":"Şarure","name:ur":"شرورہ","alt_name":"Sharūrah","int_name":"Sharūrah","name:ckb":"شەروورە"},"display_name":"شرورة, محافظة شروره, منطقة نجران, السعودية","address":{"city":"شرورة","province":"محافظة شروره","state":"منطقة نجران","ISO3166-2-lvl4":"SA-10","country":"السعودية","country_code":"sa"},"population":75237,"osm_type":"node","osm_id":1013646681,"type":"city","location":[47.1126055,17.491225],"bbox":[46.9526055,17.331225,47.2726055,17.651225],"border":{"name":"محافظة شروره","other_names":{"name:ar":"محافظة شروره","name:en":"Sharurah","name:de":"Scharura","name:eo":"Ŝarura","name:fa":"شروره","name:fr":"Sharurah","name:it":"Sharurah","name:ku":"Şerûre","name:ml":"ഷറൂറ","name:nn":"Sharurah","name:pl":"Szarura","name:ru":"Шарура","name:tl":"Sharurah","name:tr":"Şarure","name:ur":"شرورہ","alt_name":"Sharūrah","int_name":"Sharūrah","name:ckb":"شەروورە","alt":"شرورة","alt:ar":"شرورة"},"display_name":"محافظة شروره, منطقة نجران, السعودية","address":{"province":"محافظة شروره","state":"منطقة نجران","ISO3166-2-lvl4":"SA-10","country":"السعودية","country_code":"sa"},"population":85977,"osm_type":"relation","osm_id":12424984,"type":"administrative","location":[47.1126055,17.491225],"bbox":[45.5413868,16.95,52.0017527,19.3332999]}}
{"name":"شقراء","other_names":{"name:ar":"شقراء","name:bn":"শাকরা","name:de":"Shaqra'","name:en":"Shaqra'","name:fr":"Shaqra'","name:he":"שאקרה","name:ku":"Şeqra","name:ml":"ഷഖ്റ","name:uk":"Шакра","alt_name":"Ash Shaqra';Ash Shaqrā’;Shagra;Shaqrah","int_name":"Shaqrā’","name:ckb":"شەقرا"},"display_name":"شقراء, محافظة شقراء, منطقة الرياض, السعودية","address":{"city":"شقراء","province":"محافظة شقراء","state":"منطقة الرياض","ISO3166-2-lvl4":"SA-01","country":"السعودية","country_code":"sa"},"population":26651,"osm_type":"node","osm_id":1236702168,"type":"city","location":[45.252778,25.248333],"bbox":[45.092778,25.088333,45.412778,25.408333],"border":{"name":"محافظة شقراء","other_names":{"name:ar":"محافظة شقراء","name:en":"Shaqra","name:bn":"শাকরা","name:de":"Shaqra'","name:fr":"Shaqra'","name:he":"שאקרה","name:ku":"Şeqra","name:ml":"ഷഖ്റ","name:uk":"Шакра","alt_name":"Ash Shaqra';Ash Shaqrā’;Shagra;Shaqrah","int_name":"Shaqrā’","name:ckb":"شەقرا","alt":"شقراء","alt:ar":"شقراء","alt:en":"Shaqra'"},"display_name":"محافظة شقراء, منطقة الرياض, السعودية","address":{"province":"محافظة شقراء","state":"منطقة الرياض","ISO3166-2-lvl4":"SA-01","country":"السعودية","country_code":"sa"},"population":40541,"osm_type":"relation","osm_id":12423677,"type":"administrative","location":[45.252778,25.248333],"bbox":[44.6222941,24.9157099,45.75437,25.8104399]}}
{"name":"ضبا","other_names":{"name:ar":"ضبا","name:de":"Duba","name:en":"Duba","name:fa":"ضبا","name:fr":"Douba","name:hr":"Duba","name:ko":"두바","name:ku":"Zuba","name:ml":"ദുബ","name:ur":"ضبا","name:azb":"ضبا","name:ckb":"زوبا","name:ar-Latn":"Ḑubā"},"display_name":"ضبا, محافظة ضباء, منطقة تبوك, 49312, السعودية","address":{"city":"ضبا","province":"محافظة ضباء","state":"منطقة تبوك","ISO3166-2-lvl4":"SA-07","postcode":"49312","country":"السعودية","country_code":"sa"},"population":25568,"osm_type":"node","osm_id":1237957881,"type":"city","location":[35.6920727,27.352083],"bbox":[35.5320727,27.192083,35.8520727,27.512083]}
{"name":"طبرجل","other_names":{"name:ar":"طبرجل","name:de":"Tubarjal","name:en":"Tubarjal","name:es":"Tabarjal","name:fr":"Tubarjal","name:ku":"Tebercel","name:ml":"തുബർജൽ","alt_name":"Tabarjal;Ţabarjal","int_name":"Ţubarjal","name:ckb":"تەبەڕجەل"},"display_name":"طبرجل, محافظة طبرجل, منطقة الجوف, السعودية","address":{"city":"طبرجل","province":"محافظة طبرجل","state":"منطقة الجوف","ISO3166-2-lvl4":"SA-12","country":"السعودية","country_code":"sa"},"population":48525,"osm_type":"node","osm_id":1236745024,"type":"city","location":[38.2165051,30.5006757],"bbox":[38.0565051,30.3406757,38.3765051,30.6606757],"border":{"name":"محافظة طبرجل","other_names":{"name:ar":"محافظة طبرجل","name:en":"Tubarjal","name:de":"Tubarjal","name:es":"Tabarjal","name:fr":"Tubarjal","name:ku":"Tebercel","name:ml":"തുബർജൽ","alt_name":"Tabarjal;Ţabarjal","int_name":"Ţubarjal","name:ckb":"تەبەڕجەل","alt":"طبرجل","alt:ar":"طبرجل"},"display_name":"محافظة طبرجل, منطقة الجوف, السعودية","address":{"province":"محافظة طبرجل","state":"منطقة الجوف","ISO3166-2-lvl4":"SA-12","country":"السعودية","country_code":"sa"},"population":48525,"osm_type":"relation","osm_id":12413344,"type":"administrative","location":[38.2165051,30.5006757],"bbox":[37.4574503,29.0044899,39.23234,30.9439899]}}
{"name":"طريف","other_names":{"name:ar":"طريف","name:de":"Turayf","name:en":"Turayf","name:es":"Turaif","name:fr":"Turayf","name:he":"טוראיף","name:ku":"Tureyif","name:ml":"തുറൈഫ്","name:zh":"图赖夫","int_name":"Ţurayf","name:ckb":"توڕەیف"},"display_name":"طريف, محافظة طريف, منطقة الحدود الشمالية, السعودية","address":{"city":"طريف","province":"محافظة طريف","state":"منطقة الحدود الشمالية","ISO3166-2-lvl4":"SA-08","country":"السعودية","country_code":"sa"},"population":48108,"osm_type":"node","osm_id":1236745370,"type":"city","location":[38.6615532,31.6725877],"bbox":[38.5015532,31.5125877,38.8215532,31.8325877],"border":{"name":"محافظة طريف","other_names":{"name:ar":"محافظة طريف","name:en":"Turayf"},"display_name":"محافظة طريف, منطقة الحدود الشمالية, السعودية","address":{"province":"محافظة طريف","state":"منطقة الحدود الشمالية","ISO3166-2-lvl4":"SA-08","country":"السعودية","country_code":"sa"},"population":48929,"osm_type":"relation","osm_id":12413340,"type":"administrative","location":[38.96641662650383,31.505093],"bbox":[37.96051,30.8581399,40.1495621,32.1542832]}}
{"name":"عرعر","other_names":{"name:ar":"عرعر","name:de":"`Ar`ar","name:en":"`Ar`ar","name:fr":"`Ar`ar","name:he":"עראר","name:hu":"Arar","name:ku":"Erer","name:ml":"അറാർ","name:ru":"Аръар","name:zh":"阿尔阿尔","alt_name":"Ara`ar;Ara‘ar","int_name":"‘Ar‘ar","name:ckb":"عەرعەر","alt_name:ru":"Арар"},"display_name":"عرعر, محافظة عرعر, منطقة الحدود الشمالية, 73241, السعودية","address":{"city":"عرعر","province":"محافظة عرعر","state":"منطقة الحدود الشمالية","ISO3166-2-lvl4":"SA-08","postcode":"73241","country":"السعودية","country_code":"sa"},"population":167057,"osm_type":"node","osm_id":1236747164,"type":"city","location":[41.0164788,30.9815531],"bbox":[40.8564788,30.8215531,41.1764788,31.1415531],"border":{"name":"محافظة عرعر","other_names":{"name:ar":"محافظة عرعر","name:en":"Arar","name:ru":"Аръар","alt_name:ru":"Арар","int_name":"‘Ar‘ar","alt":"عرعر","alt:ar":"عرعر","alt:en":"`Ar`ar"},"display_name":"محافظة عرعر, منطقة الحدود الشمالية, 73241, السعودية","address":{"province":"محافظة عرعر","state":"منطقة الحدود الشمالية","ISO3166-2-lvl4":"SA-08","postcode":"73241","country":"السعودية","country_code":"sa"},"population":191051,"osm_type":"relation","osm_id":12413339,"type":"administrative","location":[41.5,30.916667],"bbox":[39.5557,30.5462499,42.2159958,31.9940336]}}
{"name":"عفيف","other_names":{"name:ar":"عفيف","name:bn":"আফিফ","name:en":"Afif","name:fr":"Afif","name:ku":"Efîf","name:ml":"അഫീഫ്","name:ckb":"عەفیف"},"display_name":"عفيف, محافظة عفيف, منطقة الرياض, السعودية","address":{"city":"عفيف","province":"محافظة عفيف","state":"منطقة الرياض","ISO3166-2-lvl4":"SA-01","country":"السعودية","country_code":"sa"},"population":45525,"osm_type":"node","osm_id":351346248,"type":"city","location":[42.9150847,23.9023697],"bbox":[42.7550847,23.7423697,43.0750847,24.0623697],"border":{"name":"محافظة عفيف","other_names":{"name:ar":"محافظة عفيف","name:en":"Afif","name:bn":"আফিফ","name:fr":"Afif","name:ku":"Efîf","name:ml":"അഫീഫ്","name:ckb":"عەفیف","alt":"عفيف","alt:ar":"عفيف"},"display_name":"محافظة عفيف, منطقة الرياض, 00966, السعودية","address":{"province":"محافظة عفيف","state":"منطقة الرياض","ISO3166-2-lvl4":"SA-01","postcode":"00966","country":"السعودية","country_code":"sa"},"population":77978,"osm_type":"relation","osm_id":12423683,"type":"administrative","location":[42.9150847,23.9023697],"bbox":[41.68113,22.4181401,43.68309,24.7334001]}}
{"name":"عنيزة","other_names":{"name:ar":"عنيزة","name:bn":"উনাইজা","name:ca":"Unayza","name:de":"Unaizah","name:en":"Unaizah","name:eo":"Unajza","name:es":"Unaizah","name:et":"‘Unayzah","name:fa":"عنیزه","name:fr":"Unaizah","name:he":"אונאיזה","name:id":"Unaizah","name:kk":"Унайза","name:ko":"우나이자","name:ku":"Uneyze","name:ml":"ഉനൈസ","name:nb":"Unaizah","name:nl":"Unayzah","name:nn":"Unaizah","name:pl":"Unajza","name:ru":"Унайза","name:tr":"Uneyze","name:uk":"Унайза","name:ur":"عنیزہ","name:uz":"Unayza","name:zh":"歐奈宰","alt_name":"'Anaizah;`Anaiza;`Unaiza;‘Anaiza;‘Unaiza;’Anaizah;Anaizeh;عنيزة;‘Unayzah;`Unayzah","name:ckb":"عونەیزە","alt_name:en":"Onaizah, Onizah, Unayzah"},"display_name":"عنيزة, محافظة عنيزه, منطقة القصيم, السعودية","address":{"city":"عنيزة","province":"محافظة عنيزه","state":"منطقة القصيم","ISO3166-2-lvl4":"SA-05","country":"السعودية","country_code":"sa"},"population":152895,"osm_type":"node","osm_id":983083566,"type":"city","location":[43.9864354,26.0908582],"bbox":[43.8264354,25.9308582,44.1464354,26.2508582],"border":{"name":"محافظة عنيزه","other_names":{"name:ar":"محافظة عنيزه","name:en":"Unayzah"},"display_name":"محافظة عنيزه, منطقة القصيم, السعودية","address":{"province":"محافظة عنيزه","state":"منطقة القصيم","ISO3166-2-lvl4":"SA-05","country":"السعودية","country_code":"sa"},"population":163729,"osm_type":"relation","osm_id":12406846,"type":"administrative","location":[43.960914739951825,25.9174649],"bbox":[43.77751,25.6100599,44.27253,26.2183937]}}
{"name":"ليلى","other_names":{"name:ar":"ليلى","name:de":"Layla","name:en":"Layla","name:fr":"Layla","name:ku":"Leyla","name:ml":"ലൈല","int_name":"Laylá","name:ckb":"لەیلا"},"display_name":"ليلى, محافظة الافلاج, منطقة الرياض, السعودية","address":{"city":"ليلى","governorate":"محافظة الافلاج","state":"منطقة الرياض","ISO3166-2-lvl4":"SA-01","country":"السعودية","country_code":"sa"},"population":30906,"osm_type":"node","osm_id":1236714296,"type":"city","location":[46.7171558,22.2929472],"bbox":[46.5571558,22.1329472,46.8771558,22.4529472]}
{"name":"مجمع الظهران السكني","other_names":{"name:ar":"مجمع الظهران السكني","name:en":"Dhahran Compound","name:fr":"Complexe résidentiel de Dhahran"},"display_name":"مجمع الظهران السكني, محافظة الدمام, المنطقة الشرقية, السعودية","address":{"city":"مجمع الظهران السكني","province":"محافظة الدمام","state":"المنطقة الشرقية","ISO3166-2-lvl4":"SA-04","country":"السعودية","country_code":"sa"},"osm_type":"relation","osm_id":2031713,"type":"city","location":[50.113818902544814,26.2929741],"bbox":[50.085089,26.2707563,50.1423191,26.3154569]}
{"display_name":"محافظة الرس, منطقة القصيم, السعودية","address":{"province":"محافظة الرس","state":"منطقة القصيم","ISO3166-2-lvl4":"SA-05","country":"السعودية","country_code":"sa"},"osm_type":"way","osm_id":31154644,"type":"city","location":[43.52155968104492,25.85530815],"bbox":[43.415089,25.7859366,43.6281873,25.929083]}
{"name":"محايل عسير","other_names":{"name:ar":"محايل عسير","name:de":"Muhayil","name:en":"Muhayil","name:fr":"Muhayil","name:ml":"മുഹായിൽ","alt_name":"محائل","int_name":"Muḩāyil"},"display_name":"محايل عسير, محافظة محايل, منطقة عسير, 63713, السعودية","address":{"city":"محايل عسير","province":"محافظة محايل","state":"منطقة عسير","ISO3166-2-lvl4":"SA-14","postcode":"63713","country":"السعودية","country_code":"sa"},"population":56953,"osm_type":"node","osm_id":1236688965,"type":"city","location":[42.048889,18.546389],"bbox":[41.888889,18.386389,42.208889,18.706389],"border":{"name":"محافظة محايل","other_names":{"name:ar":"محافظة محايل","name:en":"Muhayil"},"display_name":"محافظة محايل, منطقة عسير, السعودية","address":{"province":"محافظة محايل","state":"منطقة عسير","ISO3166-2-lvl4":"SA-14","country":"السعودية","country_code":"sa"},"population":228979,"osm_type":"relation","osm_id":12436476,"type":"administrative","location":[41.91456710175305,18.3642051],"bbox":[40.7923875,17.8853101,42.4807637,18.8432001]}}
{"name":"مكة","other_names":{"name:af":"Mekka","name:am":"መካ","name:an":"A Meca","name:ar":"مكة","name:as":"মক্কা","name:av":"Макка","name:az":"Məkkə","name:ba":"Мәккә","name:be":"Мекка","name:bg":"Мека","name:bh":"मक्का","name:bn":"মক্কা","name:bo":"མ་ཁ།","name:br":"Mekka","name:bs":"Mekka","name:ca":"La Meca","name:ce":"Макка","name:cs":"Mekka","name:cv":"Мекка","name:cy":"Mecca","name:da":"Mekka","name:de":"Mekka","name:dv":"މައްކާ","name:el":"Μέκκα","name:en":"Mecca","name:eo":"Mekko","name:es":"La Meca","name:et":"Meka","name:eu":"Meka","name:fa":"مکه","name:fi":"Mekka","name:fo":"Mekka","name:fr":"La Mecque","name:fy":"Mekka","name:ga":"Meice","name:gd":"Mecca","name:gl":"A Meca","name:gn":"Méka","name:gu":"મક્કા","name:ha":"Makkah","name:he":"מכה","name:hi":"मक्का","name:hr":"Meka","name:hu":"Mekka","name:hy":"Մեքքա","name:ia":"Mecca","name:id":"Makkah","name:ie":"Mekka","name:io":"Meka","name:is":"Mekka","name:it":"La Mecca","name:ja":"メッカ","name:jv":"Mekah","name:ka":"მექა","name:kk":"Мекке","name:km":"ម៉ិកកា","name:kn":"ಮೆಕ್ಕಾ","name:ko":"메카","name:ks":"مکہٕ","name:ku":"Meke","name:kw":"Mekka","name:ky":"Меке","name:la":"Mecca","name:lb":"Mekka","name:li":"Mekka","name:lt":"Meka","name:lv":"Meka","name:mg":"Meka","name:mk":"Мека","name:ml":"മക്ക","name:mn":"Мекка","name:mr":"मक्का","name:ms":"Makkah","name:mt":"Mekka","name:my":"မက္ကာမြို့","name:nb":"Mekka","name:ne":"मक्का","name:nl":"Mekka","name:nn":"Mekka","name:ny":"Mecca","name:oc":"La Mèca","name:os":"Меккæ","name:pa":"ਮੱਕਾ","name:pl":"Mekka","name:ps":"مکه مکرمه","name:pt":"Meca","name:qu":"Makka","name:ro":"Mecca","name:ru":"Мекка","name:sd":"مڪو","name:si":"මක්කම","name:sk":"Mekka","name:sl":"Meka","name:so":"Makka","name:sq":"Meka","name:sr":"Мека","name:su":"Mekah","name:sv":"Mecka","name:sw":"Makka","name:ta":"மக்கா","name:te":"మక్కా","name:tg":"Макка","name:th":"มักกะฮ์","name:tk":"Mekge","name:tl":"Meka","name:tr":"Mekke","name:tt":"Мәккә","name:ug":"مەككە","name:uk":"Мекка","name:ur":"مکہ","name:uz":"Makka","name:vi":"Mecca","name:vo":"Mäkkä","name:yi":"מעקא","name:yo":"Mẹ́kkà","name:zh":"麥加","alt_name":"La Mecque;Macoraba;Makka;Makkah al Mukarramah;Makkah al Mukarraman;Mecca;Mekka;مكة المكرمة;بكة;أم القرى","int_name":"Makkah","name:alt":"Makkah","name:ckb":"مەککە","name:diq":"Meka","name:kab":"Mekka","name:yue":"麥加","name:zh-Hans":"麦加","name:zh-Hant":"麥加"},"display_name":"مكة, محافظة مكة المكرمة, منطقة مكة المكرمة, السعودية","address":{"city":"مكة","province":"محافظة مكة المكرمة","state":"منطقة مكة المكرمة","ISO3166-2-lvl4":"SA-02","country":"السعودية","country_code":"sa"},"population":1534731,"osm_type":"node","osm_id":4308338842,"type":"city","location":[39.826869,21.420847],"bbox":[39.666869,21.260847,39.986869,21.580847],"border":{"name":"محافظة مكة المكرمة","other_names":{"name:ar":"محافظة مكة المكرمة","name:en":"Makkah Al Mukarramah","name:af":"Mekka","name:am":"መካ","name:an":"A Meca","name:as":"মক্কা","name:av":"Макка","name:az":"Məkkə","name:ba":"Мәккә","name:be":"Мекка","name:bg":"Мека","name:bh":"मक्का","name:bn":"মক্কা","name:bo":"མ་ཁ།","name:br":"Mekka","name:bs":"Mekka","name:ca":"La Meca","name:ce":"Макка","name:cs":"Mekka","name:cv":"Мекка","name:cy":"Mecca","name:da":"Mekka","name:de":"Mekka","name:dv":"މައްކާ","name:el":"Μέκκα","name:eo":"Mekko","name:es":"La Meca","name:et":"Meka","name:eu":"Meka","name:fa":"مکه","name:fi":"Mekka","name:fo":"Mekka","name:fr":"La Mecque","name:fy":"Mekka","name:ga":"Meice","name:gd":"Mecca","name:gl":"A Meca","name:gn":"Méka","name:gu":"મક્કા","name:ha":"Makkah","name:he":"מכה","name:hi":"मक्का","name:hr":"Meka","name:hu":"Mekka","name:hy":"Մեքքա","name:ia":"Mecca","name:id":"Makkah","name:ie":"Mekka","name:io":"Meka","name:is":"Mekka","name:it":"La Mecca","name:ja":"メッカ","name:jv":"Mekah","name:ka":"მექა","name:kk":"Мекке","name:km":"ម៉ិកកា","name:kn":"ಮೆಕ್ಕಾ","name:ko":"메카","name:ks":"مکہٕ","name:ku":"Meke","name:kw":"Mekka","name:ky":"Меке","name:la":"Mecca","name:lb":"Mekka","name:li":"Mekka","name:lt":"Meka","name:lv":"Meka","name:mg":"Meka","name:mk":"Мека","name:ml":"മക്ക","name:mn":"Мекка","name:mr":"मक्का","name:ms":"Makkah","name:mt":"Mekka","name:my":"မက္ကာမြို့","name:nb":"Mekka","name:ne":"मक्का","name:nl":"Mekka","name:nn":"Mekka","name:ny":"Mecca","name:oc":"La Mèca","name:os":"Меккæ","name:pa":"ਮੱਕਾ","name:pl":"Mekka","name:ps":"مکه مکرمه","name:pt":"Meca","name:qu":"Makka","name:ro":"Mecca","name:ru":"Мекка","name:sd":"مڪو","name:si":"මක්කම","name:sk":"Mekka","name:sl":"Meka","name:so":"Makka","name:sq":"Meka","name:sr":"Мека","name:su":"Mekah","name:sv":"Mecka","name:sw":"Makka","name:ta":"மக்கா","name:te":"మక్కా","name:tg":"Макка","name:th":"มักกะฮ์","name:tk":"Mekge","name:tl":"Meka","name:tr":"Mekke","name:tt":"Мәккә","name:ug":"مەككە","name:uk":"Мекка","name:ur":"مکہ","name:uz":"Makka","name:vi":"Mecca","name:vo":"Mäkkä","name:yi":"מעקא","name:yo":"Mẹ́kkà","name:zh":"麥加","alt_name":"La Mecque;Macoraba;Makka;Makkah al Mukarramah;Makkah al Mukarraman;Mecca;Mekka;مكة المكرمة;بكة;أم القرى","int_name":"Makkah","name:alt":"Makkah","name:ckb":"مەککە","name:diq":"Meka","name:kab":"Mekka","name:yue":"麥加","name:zh-Hans":"麦加","name:zh-Hant":"麥加","alt":"مكة","alt:ar":"مكة","alt:en":"Mecca"},"display_name":"محافظة مكة المكرمة, منطقة مكة المكرمة, السعودية","address":{"province":"محافظة مكة المكرمة","state":"منطقة مكة المكرمة","ISO3166-2-lvl4":"SA-02","country":"السعودية","country_code":"sa"},"population":1675368,"osm_type":"relation","osm_id":12429517,"type":"administrative","location":[39.826869,21.420847],"bbox":[39.5058552,21.1198192,40.47561,21.8480401]}}
{"name":"نجران","other_names":{"name:ar":"نجران","name:bn":"নাজরান","name:ca":"Najran","name:de":"Nadschran","name:en":"Najran","name:eo":"Naĝran","name:es":"Najran","name:et":"Najrān","name:fi":"Najran","name:fr":"Najran","name:he":"נג'ראן","name:hi":"नजरान","name:hy":"Նաջրան","name:id":"Najran","name:it":"Najrān","name:ja":"ナジュラーン","name:ko":"나지란","name:ku":"Necran","name:lt":"Nadžranas","name:ml":"നജ്റാൻ","name:ms":"Najran","name:nb":"Najran","name:nl":"Najran","name:nn":"Najran","name:pl":"Nadżran","name:pt":"Najrã","name:ru":"Наджран","name:sq":"Nexhran","name:sr":"Наџран","name:sv":"Najran","name:ta":"நஜ்ரான்","name:tr":"Necran","name:uk":"Наджран","name:vi":"Najran","name:vo":"Näcran","name:zh":"奈季蘭","int_name":"Najrān","name:ckb":"نەجران","alt_name:en":"Najrān"},"display_name":"نجران, محافظة نجران, منطقة نجران, 66261, السعودية","address":{"city":"نجران","province":"محافظة نجران","state":"منطقة نجران","ISO3166-2-lvl4":"SA-10","postcode":"66261","country":"السعودية","country_code":"sa"},"population":298288,"osm_type":"node","osm_id":982548735,"type":"city","location":[44.2246817,17.5439809],"bbox":[44.0646817,17.3839809,44.3846817,17.7039809],"border":{"name":"محافظة نجران","other_names":{"name:ar":"محافظة نجران","name:en":"Najran"},"display_name":"محافظة نجران, منطقة نجران, السعودية","address":{"province":"محافظة نجران","state":"منطقة نجران","ISO3166-2-lvl4":"SA-10","country":"السعودية","country_code":"sa"},"population":329112,"osm_type":"relation","osm_id":12424982,"type":"administrative","location":[44.24985095600975,17.62345055],"bbox":[43.6338818,17.3305556,44.5948082,17.9159001]}}
{"name":"نيوم","other_names":{"name:ar":"نيوم","name:bn":"নিওম","name:de":"Neom","name:en":"Neom","name:es":"Neom","name:fa":"نئوم","name:fr":"Neom","name:he":"ניאום","name:hi":"नियोम","name:hr":"Neom","name:ml":"നിയോം","name:nl":"Neom","name:pt":"Neom","name:ru":"Неом","name:sv":"Neom","name:tr":"Neom","name:uk":"Неом","name:ur":"نیوم","name:azb":"نیوم","name:pnb":"نیوم"},"display_name":"نيوم, محافظة ضباء, منطقة تبوك, السعودية","address":{"city":"نيوم","province":"محافظة ضباء","state":"منطقة تبوك","ISO3166-2-lvl4":"SA-07","country":"السعودية","country_code":"sa"},"osm_type":"node","osm_id":8428377321,"type":"city","location":[35.2027014,28.0058861],"bbox":[35.0427014,27.8458861,35.3627014,28.1658861]}
{"name":"وادي الدواسر","other_names":{"name:ar":"وادي الدواسر","name:en":"Wadi Ad Dawasir","name:fr":"Wadi ad-Dawasir","name:ml":"വാദി അദ്ദവാസിർ","int_name":"Wādī ad Dawāsir"},"display_name":"وادي الدواسر, محافظة وادي الدواسر, منطقة الرياض, السعودية","address":{"city":"وادي الدواسر","province":"محافظة وادي الدواسر","state":"منطقة الرياض","ISO3166-2-lvl4":"SA-01","country":"السعودية","country_code":"sa"},"population":93036,"osm_type":"node","osm_id":2632133047,"type":"city","location":[44.799553,20.4602516],"bbox":[44.639553,20.3002516,44.959553,20.6202516],"border":{"name":"محافظة وادي الدواسر","other_names":{"name:ar":"محافظة وادي الدواسر","name:en":"Wadi Ad Dawasir","name:fr":"Wadi ad-Dawasir","name:ml":"വാദി അദ്ദവാസിർ","int_name":"Wādī ad Dawāsir","alt":"وادي الدواسر","alt:ar":"وادي الدواسر"},"display_name":"محافظة وادي الدواسر, منطقة الرياض, السعودية","address":{"province":"محافظة وادي الدواسر","state":"منطقة الرياض","ISO3166-2-lvl4":"SA-01","country":"السعودية","country_code":"sa"},"population":106152,"osm_type":"relation","osm_id":12423662,"type":"administrative","location":[44.799553,20.4602516],"bbox":[43.42441,19.2687035,45.81256,22.5771201]}}
{"name":"ينبع","other_names":{"name:ar":"ينبع","name:de":"Yanbu’ al-Bahr","name:en":"Yanbu`","name:es":"Yanbu","name:et":"Yanbu‘ al-Baḩr","name:fi":"Yanbu' al Bahr","name:fr":"Yanbu","name:he":"ינבוע","name:hi":"यांबू","name:ko":"얀부","name:ks":"ینبع","name:ku":"Yenbu'","name:ml":"യാമ്പു","name:ru":"Янбу-эль-Бахр","name:uk":"Янбу-ель-Бахр","name:ur":"ینبع","name:zh":"延布","int_name":"Yanbu‘","name:azb":"ینبع","name:ckb":"یەنبوع","name:pnb":"ینبع"},"display_name":"ينبع, محافظة ينبع, منطقة المدينة المنورة, 46424, السعودية","address":{"city":"ينبع","county":"محافظة ينبع","state":"منطقة المدينة المنورة","ISO3166-2-lvl4":"SA-03","postcode":"46424","country":"السعودية","country_code":"sa"},"population":233236,"osm_type":"node","osm_id":3148037089,"type":"city","location":[38.0687076,24.089019],"bbox":[37.9087076,23.929019,38.2287076,24.249019],"border":{"name":"محافظة ينبع","other_names":{"name:ar":"محافظة ينبع","name:en":"Yanbu"},"display_name":"محافظة ينبع, منطقة المدينة المنورة, السعودية","address":{"county":"محافظة ينبع","state":"منطقة المدينة المنورة","ISO3166-2-lvl4":"SA-03","country":"السعودية","country_code":"sa"},"population":298675,"osm_type":"relation","osm_id":12429009,"type":"administrative","location":[38.25366153451775,24.25261595],"bbox":[37.3668946,23.6439201,38.90032,24.8614796]}}
