{"name":"Arnos Vale","display_name":"Arnos Vale, Saint George, VC0100, Saint Vincent and the Grenadines","address":{"town":"Arnos Vale","county":"Saint George","ISO3166-2-lvl6":"VC-04","postcode":"VC0100","country":"Saint Vincent and the Grenadines","country_code":"vc"},"osm_type":"node","osm_id":5947858371,"type":"town","location":[-61.2138459,13.1416492],"bbox":[-61.2538459,13.1016492,-61.1738459,13.1816492]}
{"name":"Ashton","display_name":"Ashton, Grenadines, VC0470, Saint Vincent and the Grenadines","address":{"town":"Ashton","county":"Grenadines","ISO3166-2-lvl6":"VC-06","postcode":"VC0470","country":"Saint Vincent and the Grenadines","country_code":"vc"},"osm_type":"node","osm_id":2356449042,"type":"town","location":[-61.4351904,12.5954425],"bbox":[-61.4751904,12.5554425,-61.3951904,12.6354425]}
{"name":"Barrouallie","display_name":"Barrouallie, Saint Patrick, Saint Vincent and the Grenadines","address":{"town":"Barrouallie","county":"Saint Patrick","ISO3166-2-lvl6":"VC-05","country":"Saint Vincent and the Grenadines","country_code":"vc"},"osm_type":"node","osm_id":281172510,"type":"town","location":[-61.272345,13.2372216],"bbox":[-61.312345,13.1972216,-61.232345,13.2772216]}
{"name":"Biabou","other_names":{"name:en":"Biabou","name:lt":"Biabu"},"display_name":"Biabou, Charlotte, VC0220, Saint Vincent and the Grenadines","address":{"town":"Biabou","county":"Charlotte","ISO3166-2-lvl6":"VC-01","postcode":"VC0220","country":"Saint Vincent and the Grenadines","country_code":"vc"},"osm_type":"node","osm_id":2364580319,"type":"town","location":[-61.1387249,13.1957077],"bbox":[-61.1787249,13.1557077,-61.0987249,13.2357077]}
{"name":"Calliaqua","other_names":{"name:en":"Calliaqua","name:zh":"卡利亚夸"},"display_name":"Calliaqua, Saint George, VC0100, Saint Vincent and the Grenadines","address":{"town":"Calliaqua","county":"Saint George","ISO3166-2-lvl6":"VC-04","postcode":"VC0100","country":"Saint Vincent and the Grenadines","country_code":"vc"},"osm_type":"node","osm_id":281172759,"type":"town","location":[-61.1949601,13.1327782],"bbox":[-61.2349601,13.0927782,-61.1549601,13.1727782]}
{"name":"Charlestown","display_name":"Charlestown, Grenadines, VC0450, Saint Vincent and the Grenadines","address":{"town":"Charlestown","county":"Grenadines","ISO3166-2-lvl6":"VC-06","postcode":"VC0450","country":"Saint Vincent and the Grenadines","country_code":"vc"},"osm_type":"node","osm_id":5940148394,"type":"town","location":[-61.3319764,12.7012461],"bbox":[-61.3719764,12.6612461,-61.2919764,12.7412461]}
{"name":"Chateaubelair","display_name":"Chateaubelair, Saint David, Saint Vincent and the Grenadines","address":{"town":"Chateaubelair","county":"Saint David","ISO3166-2-lvl6":"VC-03","country":"Saint Vincent and the Grenadines","country_code":"vc"},"osm_type":"node","osm_id":281172550,"type":"town","location":[-61.2413945,13.2896437],"bbox":[-61.2813945,13.2496437,-61.2013945,13.3296437]}
{"name":"Clifton","display_name":"Clifton, Grenadines, VC0472, Saint Vincent and the Grenadines","address":{"town":"Clifton","county":"Grenadines","ISO3166-2-lvl6":"VC-06","postcode":"VC0472","country":"Saint Vincent and the Grenadines","country_code":"vc"},"osm_type":"node","osm_id":2356449047,"type":"town","location":[-61.41821,12.5961841],"bbox":[-61.45821,12.5561841,-61.37821,12.6361841]}
{"name":"Colonarie","display_name":"Colonarie, Charlotte, VC0220, Saint Vincent and the Grenadines","address":{"town":"Colonarie","county":"Charlotte","ISO3166-2-lvl6":"VC-01","postcode":"VC0220","country":"Saint Vincent and the Grenadines","country_code":"vc"},"osm_type":"node","osm_id":5940124678,"type":"town","location":[-61.1176461,13.2398747],"bbox":[-61.1576461,13.1998747,-61.0776461,13.2798747]}
{"name":"Dovers","display_name":"Dovers, Grenadines, Saint Vincent and the Grenadines","address":{"town":"Dovers","county":"Grenadines","ISO3166-2-lvl6":"VC-06","country":"Saint Vincent and the Grenadines","country_code":"vc"},"osm_type":"node","osm_id":5940145901,"type":"town","location":[-61.1839586,12.8898564],"bbox":[-61.2239586,12.8498564,-61.1439586,12.9298564]}
{"name":"Georgetown","display_name":"Georgetown, Charlotte, VC0220, Saint Vincent and the Grenadines","address":{"town":"Georgetown","county":"Charlotte","ISO3166-2-lvl6":"VC-01","postcode":"VC0220","country":"Saint Vincent and the Grenadines","country_code":"vc"},"osm_type":"node","osm_id":281172584,"type":"town","location":[-61.1172404,13.2873632],"bbox":[-61.1572404,13.2473632,-61.0772404,13.3273632]}
{"name":"Kingstown","other_names":{"name:am":"ኪንግስታውን","name:ar":"كينغستاون","name:az":"Kinqstaun","name:be":"Кінгстаўн","name:bg":"Кингстаун","name:bo":"ཁིན་སི་ཐོན།","name:br":"Kingstown","name:ca":"Kingstown","name:da":"Kingstown","name:de":"Kingstown","name:el":"Κίνγκσταουν","name:en":"Kingstown","name:eo":"Kingstaŭno","name:es":"Kingstown","name:fa":"کینگزتاون","name:fr":"Kingstown","name:he":"קינגסטאון","name:hu":"Kingstown","name:it":"Kingstown","name:ja":"キングスタウン","name:ka":"კინგსტაუნი","name:ko":"킹스타운","name:lt":"Kingstaunas","name:lv":"Kingstauna","name:mk":"Кингстаун","name:mr":"किंग्सटाउन","name:nl":"Kingstown","name:no":"Kingstown","name:pl":"Kingstown","name:pt":"Kingstown","name:ru":"Кингстаун","name:sr":"Кингстаун","name:sv":"Kingstown","name:ta":"கிங்சுடவுன்","name:tg":"Кингстаун","name:th":"คิงส์ทาวน์","name:tr":"Kingstown","name:uk":"Кінгстаун","name:ur":"کنگز ٹاؤن","name:zh":"金斯敦","name:acf":"Kinstòn","name:sah":"Киҥстаун","name:be-tarask":"Кінгстаўн"},"display_name":"Kingstown, Saint George, VC0100, Saint Vincent and the Grenadines","address":{"town":"Kingstown","county":"Saint George","ISO3166-2-lvl6":"VC-04","postcode":"VC0100","country":"Saint Vincent and the Grenadines","country_code":"vc"},"population":25720,"osm_type":"node","osm_id":246514507,"type":"town","location":[-61.2279621,13.1561864],"bbox":[-61.2679621,13.1161864,-61.1879621,13.1961864]}
{"name":"Layou","display_name":"Layou, Saint Patrick, Saint Vincent and the Grenadines","address":{"town":"Layou","county":"Saint Patrick","ISO3166-2-lvl6":"VC-05","country":"Saint Vincent and the Grenadines","country_code":"vc"},"population":886,"osm_type":"node","osm_id":281172366,"type":"town","location":[-61.2683301,13.2045859],"bbox":[-61.3083301,13.1645859,-61.2283301,13.2445859]}
{"name":"Mesopotamia","display_name":"Mesopotamia, Saint George, Saint Vincent and the Grenadines","address":{"town":"Mesopotamia","county":"Saint George","ISO3166-2-lvl6":"VC-04","country":"Saint Vincent and the Grenadines","country_code":"vc"},"osm_type":"node","osm_id":5940121463,"type":"town","location":[-61.1668083,13.1669733],"bbox":[-61.2068083,13.1269733,-61.1268083,13.2069733]}
{"name":"Port Elizabeth","display_name":"Port Elizabeth, Grenadines, VC0400, Saint Vincent and the Grenadines","address":{"town":"Port Elizabeth","county":"Grenadines","ISO3166-2-lvl6":"VC-06","postcode":"VC0400","country":"Saint Vincent and the Grenadines","country_code":"vc"},"osm_type":"node","osm_id":5476206161,"type":"town","location":[-61.235154,13.01129],"bbox":[-61.275154,12.97129,-61.195154,13.05129]}
{"name":"Vermont","display_name":"Vermont, Saint Andrew, VC0100, Saint Vincent and the Grenadines","address":{"town":"Vermont","county":"Saint Andrew","ISO3166-2-lvl6":"VC-02","postcode":"VC0100","country":"Saint Vincent and the Grenadines","country_code":"vc"},"osm_type":"node","osm_id":5947864404,"type":"town","location":[-61.2312765,13.2010874],"bbox":[-61.2712765,13.1610874,-61.1912765,13.2410874]}
