{"name":"갑산읍","other_names":{"name:el":"Γκάπσαν-ουπ","name:en":"Kapsan-up","name:fa":"گاپسان","name:fr":"Kapsan-up","name:ja":"甲山邑","name:ko":"갑산읍","name:ru":"Капсан","name:zh":"甲山邑","alt_name:en":"Kapsan-ŭp","name:ko-Hani":"甲山邑","name:zh-Hans":"甲山邑","name:zh-Hant":"甲山邑"},"display_name":"갑산읍, 갑산군, 량강도, 조선민주주의인민공화국","address":{"town":"갑산읍","county":"갑산군","state":"량강도","ISO3166-2-lvl4":"KP-10","country":"조선민주주의인민공화국","country_code":"kp"},"osm_type":"node","osm_id":5070446433,"type":"town","location":[128.2917888,41.094109],"bbox":[128.2517888,41.054109,128.3317888,41.134109]}
{"name":"강남읍","other_names":{"name:el":"Γκάνγκναμ-ουπ","name:en":"Kangnam-up","name:fr":"Kangnam-up","name:ja":"江南邑","name:ko":"강남읍","name:ru":"Каннам","name:zh":"江南邑","name:ko-Hani":"江南邑","name:ko-Latn":"Kangnam-up","name:zh-Hans":"江南邑","name:zh-Hant":"江南邑","official_name:en":"Kangnam-up"},"display_name":"강남읍, 평양시, 조선민주주의인민공화국","address":{"town":"강남읍","city":"평양시","ISO3166-2-lvl4":"KP-01","country":"조선민주주의인민공화국","country_code":"kp"},"osm_type":"node","osm_id":262411176,"type":"town","location":[125.6396795,38.8983453],"bbox":[125.5996795,38.8583453,125.6796795,38.9383453]}
{"name":"강동읍","other_names":{"name:el":"Γκάνγκντονγκ-ουπ","name:en":"Kangdong-up","name:fr":"Kangdong-up","name:ja":"江東邑","name:ko":"강동읍","name:ru":"Кандон","name:zh":"江東邑","name:ko-Hani":"江東邑","name:zh-Hans":"江东邑","name:zh-Hant":"江東邑"},"display_name":"강동읍, 평양시, 조선민주주의인민공화국","address":{"town":"강동읍","city":"평양시","ISO3166-2-lvl4":"KP-01","country":"조선민주주의인민공화국","country_code":"kp"},"osm_type":"node","osm_id":2940501100,"type":"town","location":[126.0995107,39.1416596],"bbox":[126.0595107,39.1016596,126.1395107,39.1816596]}
{"name":"강령읍","other_names":{"name:el":"Γκάνγκριονγκ-ουπ","name:en":"Kangnyong-up","name:fr":"Kangnyong-up","name:ja":"康翎邑","name:ko":"강령읍","name:ru":"Каннён","name:zh":"康翎邑","alt_name:en":"Kangryŏng-up","name:ko-Hani":"康翎邑","name:ko-Latn":"Kangryŏng-eup","name:zh-Hans":"康翎邑","name:zh-Hant":"康翎邑"},"display_name":"강령읍, 강령군, 황해남도, 조선민주주의인민공화국","address":{"town":"강령읍","county":"강령군","state":"황해남도","ISO3166-2-lvl4":"KP-05","country":"조선민주주의인민공화국","country_code":"kp"},"osm_type":"node","osm_id":2939076417,"type":"town","location":[125.5114603,37.9075595],"bbox":[125.4714603,37.8675595,125.5514603,37.9475595]}
{"name":"강서","other_names":{"name:el":"Γκάνγκσο","name:ja":"江西","name:ko":"강서","name:ru":"Кансо","name:zh":"江西","name:ko-Hani":"江西","name:zh-Hans":"江西","name:zh-Hant":"江西"},"display_name":"강서, 남포시, 조선민주주의인민공화국","address":{"town":"강서","city":"남포시","ISO3166-2-lvl4":"KP-14","country":"조선민주주의인민공화국","country_code":"kp"},"osm_type":"node","osm_id":10136749370,"type":"town","location":[125.5162237,38.9130754],"bbox":[125.4762237,38.8730754,125.5562237,38.9530754]}
{"name":"경성읍","other_names":{"name:el":"Γκιόνγκσονγκ-ουπ","name:en":"Kyongsong-up","name:fr":"Kyongsong-up","name:ja":"鏡城邑","name:ko":"경성읍","name:ru":"Кёнсон","name:zh":"鏡城邑","int_name":"Kyongsong","name:ko-Hani":"鏡城邑","name:zh-Hans":"镜城邑","name:zh-Hant":"鏡城邑"},"display_name":"경성읍, 경성군, 함경북도, 조선민주주의인민공화국","address":{"town":"경성읍","state":"함경북도","ISO3166-2-lvl4":"KP-09","country":"조선민주주의인민공화국","country_code":"kp"},"osm_type":"node","osm_id":256631749,"type":"town","location":[129.6046057,41.5856521],"bbox":[129.5646057,41.5456521,129.6446057,41.6256521],"border":{"name":"경성군","other_names":{"name:en":"Kyongsong County","name:fr":"Arrondissement de Kyongsong","name:ja":"鏡城郡","name:ko":"경성군","name:zh":"镜城郡","alt_name:en":"Kyŏngsŏng-kun","name:ko-Hani":"鏡城郡","name:zh-Hant":"鏡城郡","name:el":"Γκιόνγκσονγκ-ουπ","name:ru":"Кёнсон","int_name":"Kyongsong","name:zh-Hans":"镜城邑","alt":"경성읍","alt:en":"Kyongsong-up","alt:fr":"Kyongsong-up","alt:ja":"鏡城邑","alt:ko":"경성읍","alt:zh":"鏡城邑","alt:ko-Hani":"鏡城邑","alt:zh-Hant":"鏡城邑"},"display_name":"경성군, 함경북도, 조선민주주의인민공화국","address":{"town":"경성군","state":"함경북도","ISO3166-2-lvl4":"KP-09","country":"조선민주주의인민공화국","country_code":"kp"},"population":105909,"osm_type":"relation","osm_id":8426161,"type":"administrative","location":[129.6046057,41.5856521],"bbox":[129.1857862,41.4493531,129.8611436,41.8745525]}}
{"name":"경원읍","other_names":{"name:el":"Γκιόνγουον-ουπ","name:en":"Kyongwon-up","name:fr":"Kyongwon-up","name:ja":"慶源邑","name:ko":"경원읍","name:ru":"Кёнвон","name:zh":"慶源邑","name:ko-Hani":"慶源邑","name:zh-Hans":"庆源邑","name:zh-Hant":"慶源邑"},"display_name":"경원읍, 경원군, 함경북도, 조선민주주의인민공화국","address":{"town":"경원읍","county":"경원군","state":"함경북도","ISO3166-2-lvl4":"KP-09","country":"조선민주주의인민공화국","country_code":"kp"},"osm_type":"node","osm_id":2092754016,"type":"town","location":[130.2057925,42.8131968],"bbox":[130.1657925,42.7731968,130.2457925,42.8531968]}
{"name":"경흥읍","other_names":{"name:el":"Γκιόγχουνγκ-ουπ","name:en":"Kyonghung-up","name:fr":"Kyonghung-up","name:ja":"慶興邑","name:ko":"경흥읍","name:ru":"Ындок (Кёнхын)","name:zh":"慶興邑","alt_name:en":"Undok-up","name:ko-Hani":"慶興邑","name:zh-Hans":"庆兴邑","name:zh-Hant":"慶興邑"},"display_name":"경흥읍, 경흥군, 함경북도, 조선민주주의인민공화국","address":{"town":"경흥읍","county":"경흥군","state":"함경북도","ISO3166-2-lvl4":"KP-09","country":"조선민주주의인민공화국","country_code":"kp"},"osm_type":"node","osm_id":256632326,"type":"town","location":[130.3386084,42.5231815],"bbox":[130.2986084,42.4831815,130.3786084,42.5631815]}
{"name":"고산읍","other_names":{"name:el":"Γκόσαν-ουπ","name:en":"Kosan-up","name:fa":"گوسان","name:fr":"Kosan-up","name:ja":"高山邑","name:ko":"고산읍","name:ru":"Косан","name:zh":"高山邑","name:ko-Hani":"高山邑","name:zh-Hans":"高山邑","name:zh-Hant":"高山邑"},"display_name":"고산읍, 고산군, 강원도, 조선민주주의인민공화국","address":{"town":"고산읍","county":"고산군","state":"강원도","ISO3166-2-lvl4":"KP-07","country":"조선민주주의인민공화국","country_code":"kp"},"osm_type":"node","osm_id":2572171839,"type":"town","location":[127.42152,38.8565363],"bbox":[127.38152,38.8165363,127.46152,38.8965363]}
{"name":"고성읍","other_names":{"name:el":"Γκόσονγκ-ουπ","name:en":"Kosong-up","name:fa":"گوسونگ","name:fr":"Kosong-up","name:ja":"高城邑","name:ko":"고성읍","name:ru":"Косон","name:zh":"高城邑","name:ko-Hani":"高城邑","name:zh-Hans":"高城邑","name:zh-Hant":"高城邑"},"display_name":"고성읍, 고성군, 강원도, 조선민주주의인민공화국","address":{"town":"고성읍","county":"고성군","state":"강원도","ISO3166-2-lvl4":"KP-07","country":"조선민주주의인민공화국","country_code":"kp"},"osm_type":"node","osm_id":3731405039,"type":"town","location":[128.1863442,38.7405687],"bbox":[128.1463442,38.7005687,128.2263442,38.7805687]}
{"name":"고원읍","other_names":{"name:de":"Kowon","name:el":"Γκόουον-ουπ","name:en":"Kowon-up","name:fr":"Kowon-up","name:ja":"高原邑","name:ko":"고원읍","name:ru":"Ковон","name:vi":"Cao Nguyên","name:zh":"高原邑","name:ko-Hani":"高原邑","name:zh-Hans":"高原邑","name:zh-Hant":"高原邑"},"display_name":"고원읍, 고원군, 함경남도, 조선민주주의인민공화국","address":{"town":"고원읍","state":"함경남도","ISO3166-2-lvl4":"KP-08","country":"조선민주주의인민공화국","country_code":"kp"},"osm_type":"node","osm_id":344242149,"type":"town","location":[127.2438233,39.4403967],"bbox":[127.2038233,39.4003967,127.2838233,39.4803967],"border":{"name":"고원군","other_names":{"name:en":"Kowon County","name:fr":"Arrondissement de Kowon","name:ja":"高原郡","name:ko":"고원군","name:zh":"高原郡","name:ko-Hani":"高原郡","name:ko-Latn":"Kowŏn-gun","name:zh-Hans":"高原郡","name:zh-Hant":"高原郡","name:de":"Kowon","name:el":"Γκόουον-ουπ","name:ru":"Ковон","name:vi":"Cao Nguyên","alt":"고원읍","alt:en":"Kowon-up","alt:fr":"Kowon-up","alt:ja":"高原邑","alt:ko":"고원읍","alt:zh":"高原邑","alt:ko-Hani":"高原邑","alt:zh-Hans":"高原邑","alt:zh-Hant":"高原邑"},"display_name":"고원군, 함경남도, 조선민주주의인민공화국","address":{"town":"고원군","state":"함경남도","ISO3166-2-lvl4":"KP-08","country":"조선민주주의인민공화국","country_code":"kp"},"population":94963,"osm_type":"relation","osm_id":8407677,"type":"administrative","location":[127.2438233,39.4403967],"bbox":[126.6993209,39.2041074,127.3580228,39.5775118]}}
{"name":"고읍로동자구","other_names":{"name:el":"Γκόουπ-ρόντονγκτζαγκου","name:en":"Koǔb-rodongjagu","name:ja":"古邑労働者区","name:ko":"고읍로동자구","name:ru":"Коып","name:zh":"古邑勞動者區","name:ko-Hani":"古邑勞動者區","name:zh-Hans":"古邑劳动者区","name:zh-Hant":"古邑勞動者區"},"display_name":"고읍로동자구, 김형직군, 량강도, 조선민주주의인민공화국","address":{"town":"고읍로동자구","county":"김형직군","state":"량강도","ISO3166-2-lvl4":"KP-10","country":"조선민주주의인민공화국","country_code":"kp"},"osm_type":"node","osm_id":8401375892,"type":"town","location":[127.5001257,41.4621065],"bbox":[127.4601257,41.4221065,127.5401257,41.5021065]}
{"name":"고인로동자구","other_names":{"name:el":"Γκόιν-ρόντονγκτζαγκου","name:ja":"古仁労働者区","name:ko":"고인로동자구","name:zh":"古仁勞動者區","name:ko-Hani":"古仁勞動者區","name:zh-Hans":"古仁劳动者区","name:zh-Hant":"古仁勞動者區"},"display_name":"고인로동자구, 전천군, 자강도, 조선민주주의인민공화국","address":{"town":"고인로동자구","county":"전천군","state":"자강도","ISO3166-2-lvl4":"KP-04","country":"조선민주주의인민공화국","country_code":"kp"},"osm_type":"node","osm_id":9462569039,"type":"town","location":[126.3934834,40.5032799],"bbox":[126.3534834,40.4632799,126.4334834,40.5432799]}
{"name":"고풍읍","other_names":{"name:el":"Γκόπουνγκ-ουπ","name:en":"Kopung-up","name:fr":"Kopung-up","name:ja":"古豊邑","name:ko":"고풍읍","name:ru":"Копхун","name:zh":"古豐邑","name:ko-Hani":"古豊邑","name:zh-Hans":"古丰邑","name:zh-Hant":"古豐邑"},"display_name":"고풍읍, 고풍군, 자강도, 조선민주주의인민공화국","address":{"town":"고풍읍","county":"고풍군","state":"자강도","ISO3166-2-lvl4":"KP-04","country":"조선민주주의인민공화국","country_code":"kp"},"osm_type":"node","osm_id":3722873021,"type":"town","location":[125.9475912,40.6036259],"bbox":[125.9075912,40.5636259,125.9875912,40.6436259]}
{"name":"곡산읍","other_names":{"name:el":"Γκόκσαν-ουπ","name:en":"Koksan-up","name:fr":"Koksan-up","name:ja":"谷山邑","name:ko":"곡산읍","name:ru":"Коксан","name:zh":"谷山邑","name:ko-Hani":"谷山邑","name:zh-Hans":"谷山邑","name:zh-Hant":"谷山邑"},"display_name":"곡산읍, 곡산군, 황해북도, 조선민주주의인민공화국","address":{"town":"곡산읍","county":"곡산군","state":"황해북도","ISO3166-2-lvl4":"KP-06","country":"조선민주주의인민공화국","country_code":"kp"},"osm_type":"node","osm_id":262413404,"type":"town","location":[126.6705315,38.781447],"bbox":[126.6305315,38.741447,126.7105315,38.821447]}
{"name":"과일읍","other_names":{"name:de":"Kwail","name:el":"Γκουάιλ-ουπ","name:en":"Kwail-up","name:fr":"Kwail-up","name:ja":"クァイル邑","name:ko":"과일읍","name:ru":"Кваиль","name:zh":"瓜飴邑","name:yue":"瓜飴邑","old_name":"풍천","old_name:ko":"풍천","name:ko-Kore":"果일邑","name:ko-Latn":"Kwail","name:zh-Hant":"瓜飴邑","old_name:ko-Latn":"P’ungch’ŏn"},"display_name":"과일읍, 과일군, 황해남도, 조선민주주의인민공화국","address":{"town":"과일읍","county":"과일군","state":"황해남도","ISO3166-2-lvl4":"KP-05","country":"조선민주주의인민공화국","country_code":"kp"},"osm_type":"node","osm_id":262412455,"type":"town","location":[125.0165097,38.4437604],"bbox":[124.9765097,38.4037604,125.0565097,38.4837604]}
{"name":"곽산읍","other_names":{"name:el":"Γκουάκσαν-ουπ","name:en":"Kwaksan-up","name:fr":"Kwaksan-up","name:ja":"郭山邑","name:ko":"곽산읍","name:ru":"Кваксан","name:zh":"郭山邑","name:ko-Hani":"郭山邑","name:zh-Hans":"郭山邑","name:zh-Hant":"郭山邑"},"display_name":"곽산읍, 곽산군, 평안북도, 조선민주주의인민공화국","address":{"town":"곽산읍","county":"곽산군","state":"평안북도","ISO3166-2-lvl4":"KP-03","country":"조선민주주의인민공화국","country_code":"kp"},"osm_type":"node","osm_id":2444890697,"type":"town","location":[125.0830144,39.6862361],"bbox":[125.0430144,39.6462361,125.1230144,39.7262361]}
{"name":"광명로동자구","other_names":{"name:el":"Γκουάνγκμιονγκ-ρόντονγκτζαγκου","name:ja":"光明労働者区","name:ko":"광명로동자구","name:zh":"光明勞動者區","name:ko-Hani":"光明勞動者區","name:zh-Hans":"光明劳动者区","name:zh-Hant":"光明勞動者區"},"display_name":"광명로동자구, 은파군, 황해북도, 조선민주주의인민공화국","address":{"town":"광명로동자구","county":"은파군","state":"황해북도","ISO3166-2-lvl4":"KP-06","country":"조선민주주의인민공화국","country_code":"kp"},"osm_type":"node","osm_id":9868692903,"type":"town","location":[125.9315819,38.2975361],"bbox":[125.8915819,38.2575361,125.9715819,38.3375361]}
{"name":"구봉로동자구","other_names":{"name:el":"Γκούμπονγκ-ρόντονγκτζαγκου","name:ja":"九峰労働者区","name:ko":"구봉로동자구","name:zh":"九峯勞動者區","name:ko-Hani":"九峯勞動者區","name:zh-Hans":"九峰劳动者区","name:zh-Hant":"九峯勞動者區"},"display_name":"구봉로동자구, 은산군, 평안남도, 조선민주주의인민공화국","address":{"town":"구봉로동자구","county":"은산군","state":"평안남도","ISO3166-2-lvl4":"KP-02","country":"조선민주주의인민공화국","country_code":"kp"},"osm_type":"node","osm_id":9470350500,"type":"town","location":[126.1681815,39.4728602],"bbox":[126.1281815,39.4328602,126.2081815,39.5128602]}
{"name":"구장읍","other_names":{"name:el":"Γκούτζανγκ-ουπ","name:en":"Kujang-up","name:fr":"Kujang-up","name:ja":"球場邑","name:ko":"구장읍","name:nl":"Kujang","name:ru":"Куджан","name:zh":"球場邑","name:ko-Hani":"球場邑","name:zh-Hans":"球场邑","name:zh-Hant":"球場邑"},"display_name":"구장읍, 구장군, 평안북도, 조선민주주의인민공화국","address":{"town":"구장읍","county":"구장군","state":"평안북도","ISO3166-2-lvl4":"KP-03","country":"조선민주주의인민공화국","country_code":"kp"},"osm_type":"node","osm_id":3706999613,"type":"town","location":[126.0281041,39.8690975],"bbox":[125.9881041,39.8290975,126.0681041,39.9090975]}
{"name":"금강읍","other_names":{"name:el":"Γκούμγκανγκ-ουπ","name:en":"Kumgang-up","name:fa":"گومگانگ","name:fr":"Kumgang-up","name:ja":"金剛邑","name:ko":"금강읍","name:ru":"Кымган","name:zh":"金剛邑","name:ko-Hani":"金剛邑","name:zh-Hans":"金刚邑","name:zh-Hant":"金剛邑"},"display_name":"금강읍, 금강군, 강원도, 조선민주주의인민공화국","address":{"town":"금강읍","county":"금강군","state":"강원도","ISO3166-2-lvl4":"KP-07","country":"조선민주주의인민공화국","country_code":"kp"},"osm_type":"node","osm_id":3730773539,"type":"town","location":[127.985977,38.6227128],"bbox":[127.945977,38.5827128,128.025977,38.6627128]}
{"name":"금골1동","other_names":{"name:ko":"금골1동","name:zh":"金谷1洞","name:zh-Hans":"金谷1洞","name:zh-Hant":"金谷1洞"},"display_name":"금골1동, 단천시, 함경남도, 조선민주주의인민공화국","address":{"town":"금골1동","city":"단천시","state":"함경남도","ISO3166-2-lvl4":"KP-08","country":"조선민주주의인민공화국","country_code":"kp"},"osm_type":"node","osm_id":9358308063,"type":"town","location":[128.8164899,40.9285355],"bbox":[128.7764899,40.8885355,128.8564899,40.9685355]}
{"name":"금골2동","other_names":{"name:ko":"금골2동","name:zh":"金谷2洞","name:zh-Hans":"金谷2洞","name:zh-Hant":"金谷2洞"},"display_name":"금골2동, 단천시, 함경남도, 조선민주주의인민공화국","address":{"town":"금골2동","city":"단천시","state":"함경남도","ISO3166-2-lvl4":"KP-08","country":"조선민주주의인민공화국","country_code":"kp"},"osm_type":"node","osm_id":9358308065,"type":"town","location":[128.8242377,40.9498186],"bbox":[128.7842377,40.9098186,128.8642377,40.9898186]}
{"name":"금산동","other_names":{"name:ja":"金山洞","name:ko":"금산동","name:zh":"金山洞","name:ko-Hani":"金山洞","name:zh-Hans":"金山洞","name:zh-Hant":"金山洞"},"display_name":"금산동, 단천시, 함경남도, 조선민주주의인민공화국","address":{"town":"금산동","city":"단천시","state":"함경남도","ISO3166-2-lvl4":"KP-08","country":"조선민주주의인민공화국","country_code":"kp"},"osm_type":"node","osm_id":12312135887,"type":"town","location":[128.8337678,40.8771467],"bbox":[128.7937678,40.8371467,128.8737678,40.9171467]}
{"name":"금산포로동자구","other_names":{"name:el":"Γκούμσανπο-ρόντονγκτζαγκου","name:ja":"金山浦労働者区","name:ko":"금산포로동자구","name:zh":"金山浦勞動者區","name:ko-Hani":"金山浦勞動者區","name:zh-Hans":"金山浦劳动者区","name:zh-Hant":"金山浦勞動者區"},"display_name":"금산포로동자구, 은률군, 황해남도, 조선민주주의인민공화국","address":{"town":"금산포로동자구","county":"은률군","state":"황해남도","ISO3166-2-lvl4":"KP-05","country":"조선민주주의인민공화국","country_code":"kp"},"osm_type":"node","osm_id":10966079666,"type":"town","location":[125.1553488,38.5785004],"bbox":[125.1153488,38.5385004,125.1953488,38.6185004]}
{"name":"금야읍","other_names":{"name:el":"Γκούμια-ουπ","name:en":"Kumya-up","name:fr":"Kumya-up","name:ja":"金野邑","name:ko":"금야읍","name:ru":"Кымъя","name:zh":"金野邑","name:ko-Hani":"金野邑","name:zh-Hans":"金野邑","name:zh-Hant":"金野邑"},"display_name":"금야읍, 금야군, 함경남도, 조선민주주의인민공화국","address":{"town":"금야읍","county":"금야군","state":"함경남도","ISO3166-2-lvl4":"KP-08","country":"조선민주주의인민공화국","country_code":"kp"},"osm_type":"node","osm_id":2926175978,"type":"town","location":[127.2409686,39.5496041],"bbox":[127.2009686,39.5096041,127.2809686,39.5896041]}
{"name":"금천읍","other_names":{"name:el":"Γκούμτσον-ουπ","name:en":"Kumchon-up","name:fr":"Kumchon-up","name:ja":"金川邑","name:ko":"금천읍","name:nl":"Kŭmch'ŏn","name:ru":"Кымчхон","name:zh":"金川邑","name:ko-Hani":"金川邑","name:zh-Hans":"金川邑","name:zh-Hant":"金川邑"},"display_name":"금천읍, 금천군, 황해북도, 조선민주주의인민공화국","address":{"town":"금천읍","county":"금천군","state":"황해북도","ISO3166-2-lvl4":"KP-06","country":"조선민주주의인민공화국","country_code":"kp"},"osm_type":"node","osm_id":262413142,"type":"town","location":[126.4758675,38.1618863],"bbox":[126.4358675,38.1218863,126.5158675,38.2018863]}
{"name":"금호읍","other_names":{"name:el":"Γκούμχο-ουπ","name:en":"Kumho","name:fr":"Kumho","name:ja":"琴湖邑","name:ko":"금호읍","name:zh":"琴湖邑","alt_name:en":"Kŭmho","name:ko-Hani":"琴湖邑","name:zh-Hans":"琴湖邑","name:zh-Hant":"琴湖邑"},"display_name":"금호읍, 금호군, 함경남도, 조선민주주의인민공화국","address":{"town":"금호읍","county":"금호군","state":"함경남도","ISO3166-2-lvl4":"KP-08","country":"조선민주주의인민공화국","country_code":"kp"},"osm_type":"node","osm_id":11150312606,"type":"town","location":[128.329015,40.0699885],"bbox":[128.289015,40.0299885,128.369015,40.1099885]}
{"name":"길주읍","other_names":{"name:el":"Γκίλτσου-ουπ","name:en":"Kilju-up","name:fr":"Kilju-up","name:ja":"吉州邑","name:ko":"길주읍","name:ru":"Кильджу","name:zh":"吉州邑","name:ko-Hani":"吉州邑","name:zh-Hans":"吉州邑","name:zh-Hant":"吉州邑"},"display_name":"길주읍, 길주군, 함경북도, 조선민주주의인민공화국","address":{"town":"길주읍","county":"길주군","state":"함경북도","ISO3166-2-lvl4":"KP-09","country":"조선민주주의인민공화국","country_code":"kp"},"osm_type":"node","osm_id":9141207815,"type":"town","location":[129.3337322,40.9642445],"bbox":[129.2937322,40.9242445,129.3737322,41.0042445]}
{"name":"김정숙읍","other_names":{"name:el":"Γκίμτζονγκσουκ-ουπ","name:en":"Kimjongsuk-up","name:fa":"کیم جونگ‌سوک","name:fr":"Kimjongsuk-up","name:ja":"金正淑邑","name:ko":"김정숙읍","name:ru":"Кимченсук","name:zh":"金正淑邑","old_name":"신파읍","alt_name:en":"Kimjŏngsuk-ŭp","old_name:fa":"شینپا","name:ko-Hani":"金正淑邑","name:zh-Hans":"金正淑邑","name:zh-Hant":"金正淑邑","old_name:ko-Hani":"新坡邑"},"display_name":"김정숙읍, 김정숙군, 량강도, 조선민주주의인민공화국","address":{"town":"김정숙읍","county":"김정숙군","state":"량강도","ISO3166-2-lvl4":"KP-10","country":"조선민주주의인민공화국","country_code":"kp"},"osm_type":"node","osm_id":340275842,"type":"town","location":[127.7749879,41.4203779],"bbox":[127.7349879,41.3803779,127.8149879,41.4603779]}
{"name":"김형권읍","other_names":{"name:el":"Γκίμχιονγκουον-ουπ","name:en":"Kimhyonggwon-up","name:fa":"کیم هیونگ‌گوون","name:fr":"Kimhyonggwon-up","name:ja":"金亨権邑","name:ko":"김형권읍","name:ru":"Кимхёнгвон","name:zh":"金亨權邑","old_name":"풍산읍","alt_name:en":"Gimhyeonggwon-eup","old_name:fa":"پونگسان","name:ko-Hani":"金亨權邑","name:ko-Latn":"Gimhyeonggwon-eup","name:zh-Hans":"金亨权邑","name:zh-Hant":"金亨權邑","old_name:ko-Hani":"豊山邑"},"display_name":"김형권읍, 김형권군, 량강도, 조선민주주의인민공화국","address":{"town":"김형권읍","county":"김형권군","state":"량강도","ISO3166-2-lvl4":"KP-10","country":"조선민주주의인민공화국","country_code":"kp"},"osm_type":"node","osm_id":9141235294,"type":"town","location":[128.1559623,40.8193302],"bbox":[128.1159623,40.7793302,128.1959623,40.8593302]}
{"name":"김형직읍","other_names":{"name:el":"Γκίμχιονγκτζικ-ουπ","name:en":"Kimhyongjik-up","name:fa":"کیم هیونگ‌جیک","name:fr":"Kimhyongjik-up","name:ja":"金亨稷邑","name:ko":"김형직읍","name:ru":"Кимхёнджик","name:zh":"金亨稷邑","old_name":"후창읍","alt_name:en":"Kimhyǒngjik-up","old_name:fa":"هوچانگ","name:ko-Hani":"金亨稷邑","name:zh-Hans":"金亨稷邑","name:zh-Hant":"金亨稷邑","old_name:ko-Hani":"厚昌邑"},"display_name":"김형직읍, 김형직군, 량강도, 조선민주주의인민공화국","address":{"town":"김형직읍","county":"김형직군","state":"량강도","ISO3166-2-lvl4":"KP-10","country":"조선민주주의인민공화국","country_code":"kp"},"osm_type":"node","osm_id":9170734519,"type":"town","location":[127.2667764,41.5054229],"bbox":[127.2267764,41.4654229,127.3067764,41.5454229]}
{"name":"김화읍","other_names":{"name:el":"Γκίμχουα-ουπ","name:en":"Kimhwa-up","name:fa":"گیم‌هوا","name:fr":"Kimhwa-up","name:ja":"金化邑","name:ko":"김화읍","name:ru":"Кимхва","name:zh":"金化邑","alt_name:en":"Kimhwa-ŭp","name:ko-Hani":"金化邑","name:zh-Hans":"金化邑","name:zh-Hant":"金化邑"},"display_name":"김화읍, 김화군, 강원도, 조선민주주의인민공화국","address":{"town":"김화읍","county":"김화군","state":"강원도","ISO3166-2-lvl4":"KP-07","country":"조선민주주의인민공화국","country_code":"kp"},"osm_type":"node","osm_id":2521015414,"type":"town","location":[127.5945204,38.4205701],"bbox":[127.5545204,38.3805701,127.6345204,38.4605701]}
{"name":"남덕동","other_names":{"name:el":"Νάμντοκ-ντονγκ","name:ja":"南徳洞","name:ko":"남덕동","name:zh":"南德洞","name:ko-Hani":"南德洞","name:zh-Hant":"南德洞"},"display_name":"남덕동, 덕천시, 평안남도, 조선민주주의인민공화국","address":{"town":"남덕동","city":"덕천시","state":"평안남도","ISO3166-2-lvl4":"KP-02","country":"조선민주주의인민공화국","country_code":"kp"},"osm_type":"node","osm_id":9470474184,"type":"town","location":[126.2911623,39.6808435],"bbox":[126.2511623,39.6408435,126.3311623,39.7208435]}
{"name":"남양로동자구","other_names":{"name:el":"Νάμιανγκ-ρόντονγκτζαγκου","name:en":"Namyang-rodongjagu","name:ja":"南陽労働者区","name:ko":"남양로동자구","name:ru":"Намъян","name:zh":"南陽勞動者區","name:ko-Hani":"南陽勞動者區","name:ko-Latn":"Namyang-rodongjagu","name:zh-Hans":"南阳劳动者区","name:zh-Hant":"南陽勞動者區"},"display_name":"남양로동자구, 온성군, 함경북도, 조선민주주의인민공화국","address":{"town":"남양로동자구","county":"온성군","state":"함경북도","ISO3166-2-lvl4":"KP-09","country":"조선민주주의인민공화국","country_code":"kp"},"population":65956,"osm_type":"node","osm_id":2091511055,"type":"town","location":[129.8571099,42.9531564],"bbox":[129.8171099,42.9131564,129.8971099,42.9931564]}
{"name":"남정로동자구","other_names":{"name:el":"Νάμτζονγκ-ρόντονγκτζαγκου","name:ja":"南亭労働者区","name:ko":"남정로동자구","name:zh":"南亭勞動者區","alt_name:ko":"남정구","name:ko-Hani":"南亭勞動者區","name:zh-Hans":"南亭劳动者区","name:zh-Hant":"南亭勞動者區"},"display_name":"남정로동자구, 수안군, 황해북도, 조선민주주의인민공화국","address":{"town":"남정로동자구","county":"수안군","state":"황해북도","ISO3166-2-lvl4":"KP-06","country":"조선민주주의인민공화국","country_code":"kp"},"osm_type":"node","osm_id":9437098155,"type":"town","location":[126.3783663,38.7888226],"bbox":[126.3383663,38.7488226,126.4183663,38.8288226]}
{"display_name":"남포시, 조선민주주의인민공화국","address":{"city":"남포시","ISO3166-2-lvl4":"KP-14","country":"조선민주주의인민공화국","country_code":"kp"},"osm_type":"node","osm_id":12234274796,"type":"town","location":[125.3546034,38.8914342],"bbox":[125.3146034,38.8514342,125.3946034,38.9314342]}
{"name":"녕변읍","other_names":{"name:el":"Νιόνγκμπιον-ουπ","name:en":"Nyongbyon-up","name:fr":"Nyongbyon-up","name:ja":"寧辺邑","name:ko":"녕변읍","name:nl":"Nyongbyon","name:ru":"Йонбён","name:zh":"寧邊邑","name:ko-Hani":"寧邊邑","name:zh-Hans":"宁边邑","name:zh-Hant":"寧邊邑"},"display_name":"녕변읍, 녕변군, 평안북도, 조선민주주의인민공화국","address":{"town":"녕변읍","county":"녕변군","state":"평안북도","ISO3166-2-lvl4":"KP-03","country":"조선민주주의인민공화국","country_code":"kp"},"osm_type":"node","osm_id":2245160539,"type":"town","location":[125.8049562,39.8144698],"bbox":[125.7649562,39.7744698,125.8449562,39.8544698]}
{"name":"녕원읍","other_names":{"name:el":"Νιόνγουον-ουπ","name:en":"Nyongwon-up","name:fr":"Nyongwon-up","name:ja":"寧遠邑","name:ko":"녕원읍","name:ru":"Нёнвон","name:zh":"寧遠邑","name:ko-Hani":"寧遠邑","name:zh-Hans":"宁远邑","name:zh-Hant":"寧遠邑"},"display_name":"녕원읍, 녕원군, 평안남도, 조선민주주의인민공화국","address":{"town":"녕원읍","county":"녕원군","state":"평안남도","ISO3166-2-lvl4":"KP-02","country":"조선민주주의인민공화국","country_code":"kp"},"osm_type":"node","osm_id":3707860761,"type":"town","location":[126.5432764,39.8231713],"bbox":[126.5032764,39.7831713,126.5832764,39.8631713]}
{"display_name":"단천시, 함경남도, 조선민주주의인민공화국","address":{"city":"단천시","state":"함경남도","ISO3166-2-lvl4":"KP-08","country":"조선민주주의인민공화국","country_code":"kp"},"osm_type":"node","osm_id":12312076877,"type":"town","location":[128.9154302,40.7459756],"bbox":[128.8754302,40.7059756,128.9554302,40.7859756]}
{"name":"대관읍","other_names":{"name:el":"Ντέγκουαν-ουπ","name:en":"Taegwan-up","name:fr":"Taegwan-up","name:ja":"大館邑","name:ko":"대관읍","name:ru":"Тэгван","name:zh":"大館邑","name:ko-Hani":"大館邑","name:zh-Hans":"大馆邑","name:zh-Hant":"大館邑"},"display_name":"대관읍, 대관군, 평안북도, 조선민주주의인민공화국","address":{"town":"대관읍","county":"대관군","state":"평안북도","ISO3166-2-lvl4":"KP-03","country":"조선민주주의인민공화국","country_code":"kp"},"osm_type":"node","osm_id":3706893251,"type":"town","location":[125.2240093,40.2190861],"bbox":[125.1840093,40.1790861,125.2640093,40.2590861]}
{"name":"대동읍","other_names":{"name:el":"Ντέντονγκ-ουπ","name:en":"Taedong-up","name:fr":"Taedong-up","name:ja":"大同邑","name:ko":"대동읍","name:zh":"大同邑","name:ko-Hani":"大同邑","name:zh-Hans":"大同邑","name:zh-Hant":"大同邑"},"display_name":"대동읍, 대동군, 평안남도, 조선민주주의인민공화국","address":{"town":"대동읍","county":"대동군","state":"평안남도","ISO3166-2-lvl4":"KP-02","country":"조선민주주의인민공화국","country_code":"kp"},"osm_type":"node","osm_id":7159708217,"type":"town","location":[125.5328549,39.0781159],"bbox":[125.4928549,39.0381159,125.5728549,39.1181159]}
{"name":"대안동","other_names":{"name:el":"Ντέαν-ντονγκ","name:en":"Taean","name:ja":"大安洞","name:ko":"대안동","name:ru":"Тэан","name:zh":"大安洞","name:ko-Hani":"大安洞","name:zh-Hans":"大安洞","name:zh-Hant":"大安洞"},"display_name":"대안동, 대안구역, 남포시, 조선민주주의인민공화국","address":{"town":"대안동","city":"남포시","ISO3166-2-lvl4":"KP-14","country":"조선민주주의인민공화국","country_code":"kp"},"osm_type":"node","osm_id":262411049,"type":"town","location":[125.5071481,38.8366118],"bbox":[125.4671481,38.7966118,125.5471481,38.8766118],"border":{"name":"대안구역","other_names":{"name:en":"Taean County","name:fr":"Arrondissement de Taean","name:ko":"대안구역","name:zh":"大安区","name:ko-Hani":"大安區域","name:zh-Hans":"大安区","name:zh-Hant":"大安區","name:el":"Ντέαν-ντονγκ","name:ja":"大安洞","name:ru":"Тэан","alt":"대안동","alt:en":"Taean","alt:ko":"대안동","alt:zh":"大安洞","alt:ko-Hani":"大安洞","alt:zh-Hans":"大安洞","alt:zh-Hant":"大安洞"},"display_name":"대안구역, 남포시, 조선민주주의인민공화국","address":{"town":"대안구역","city":"남포시","ISO3166-2-lvl4":"KP-14","country":"조선민주주의인민공화국","country_code":"kp"},"population":77219,"osm_type":"relation","osm_id":5454210,"type":"administrative","location":[125.5071481,38.8366118],"bbox":[125.43859,38.7321404,125.5927087,38.8672635]}}
{"name":"대홍단읍","other_names":{"name:el":"Ντέχονγκνταν-ουπ","name:en":"Taehongdan-up","name:fa":"ده‌هونگدان","name:fr":"Taehongdan-up","name:ja":"大紅湍邑","name:ko":"대홍단읍","name:ru":"Тэхондан","name:zh":"大紅湍邑","name:ko-Hani":"大紅湍邑","name:zh-Hans":"大红湍邑","name:zh-Hant":"大紅湍邑"},"display_name":"대홍단읍, 대홍단군, 량강도, 조선민주주의인민공화국","address":{"town":"대홍단읍","county":"대홍단군","state":"량강도","ISO3166-2-lvl4":"KP-10","country":"조선민주주의인민공화국","country_code":"kp"},"osm_type":"node","osm_id":8583456714,"type":"town","location":[128.8516872,42.0005361],"bbox":[128.8116872,41.9605361,128.8916872,42.0405361]}
{"name":"대흥읍","other_names":{"name:el":"Ντέχουνγκ-ουπ","name:en":"Taehung-up","name:fr":"Taehung-up","name:ja":"大興邑","name:ko":"대흥읍","name:ru":"Тэхын","name:zh":"大興邑","alt_name:en":"Taehŭng-ŭp","name:ko-Hani":"大興邑","name:zh-Hans":"大兴邑","name:zh-Hant":"大興邑"},"display_name":"대흥읍, 대흥군, 평안남도, 조선민주주의인민공화국","address":{"town":"대흥읍","county":"대흥군","state":"평안남도","ISO3166-2-lvl4":"KP-02","country":"조선민주주의인민공화국","country_code":"kp"},"osm_type":"node","osm_id":3707865088,"type":"town","location":[126.9362672,40.0917173],"bbox":[126.8962672,40.0517173,126.9762672,40.1317173]}
{"name":"덕성읍","other_names":{"name:el":"Ντόκσονγκ-ουπ","name:en":"Toksong-up","name:fr":"Toksong-up","name:ja":"徳城邑","name:ko":"덕성읍","name:zh":"德城邑","alt_name:en":"Tŏksŏng-ŭp","name:ko-Hani":"德城邑","name:zh-Hans":"德城邑","name:zh-Hant":"德城邑"},"display_name":"덕성읍, 덕성군, 함경남도, 조선민주주의인민공화국","address":{"town":"덕성읍","county":"덕성군","state":"함경남도","ISO3166-2-lvl4":"KP-08","country":"조선민주주의인민공화국","country_code":"kp"},"osm_type":"node","osm_id":9298546632,"type":"town","location":[128.2721308,40.3133598],"bbox":[128.2321308,40.2733598,128.3121308,40.3533598]}
{"name":"동림읍","other_names":{"name:el":"Ντόνγκριμ-ουπ","name:en":"Tongrim-up","name:fr":"Tongrim-up","name:ja":"東林邑","name:ko":"동림읍","name:ru":"Тонним","name:zh":"東林邑","alt_name:en":"Tongrim-ŭp","name:ko-Hani":"東林邑","name:zh-Hans":"东林邑","name:zh-Hant":"東林邑"},"display_name":"동림읍, 동림군, 평안북도, 조선민주주의인민공화국","address":{"town":"동림읍","county":"동림군","state":"평안북도","ISO3166-2-lvl4":"KP-03","country":"조선민주주의인민공화국","country_code":"kp"},"osm_type":"node","osm_id":2298535943,"type":"town","location":[124.7104498,39.8586776],"bbox":[124.6704498,39.8186776,124.7504498,39.8986776]}
{"name":"동신읍","other_names":{"name:el":"Ντόνγκσιν-ουπ","name:en":"Tongsin-up","name:fr":"Tongsin-up","name:ja":"東新邑","name:ko":"동신읍","name:ru":"Тонсин","name:zh":"東新邑","name:ko-Hani":"東新邑","name:zh-Hans":"东新邑","name:zh-Hant":"東新邑"},"display_name":"동신읍, 동신군, 자강도, 조선민주주의인민공화국","address":{"town":"동신읍","county":"동신군","state":"자강도","ISO3166-2-lvl4":"KP-04","country":"조선민주주의인민공화국","country_code":"kp"},"osm_type":"node","osm_id":3723463567,"type":"town","location":[126.3061282,40.3083123],"bbox":[126.2661282,40.2683123,126.3461282,40.3483123]}
{"name":"동창읍","other_names":{"name:el":"Ντόνγκτσανγκ-ουπ","name:en":"Tongchang-up","name:fr":"Tongchang-up","name:ja":"東倉邑","name:ko":"동창읍","name:ru":"Тончхан","name:zh":"東倉邑","name:ko-Hani":"東倉邑","name:zh-Hans":"东仓邑","name:zh-Hant":"東倉邑"},"display_name":"동창읍, 동창군, 평안북도, 조선민주주의인민공화국","address":{"town":"동창읍","county":"동창군","state":"평안북도","ISO3166-2-lvl4":"KP-03","country":"조선민주주의인민공화국","country_code":"kp"},"osm_type":"node","osm_id":3706944126,"type":"town","location":[125.5687665,40.3041599],"bbox":[125.5287665,40.2641599,125.6087665,40.3441599]}
{"name":"득장로동자구","other_names":{"name:el":"Ντούκτσανγκ-ρόντονγκτζαγκου","name:en":"Tukchang","name:ja":"得将労働者区","name:ko":"득장로동자구","name:ru":"Тыкчан","name:zh":"得將勞動者區","name:ko-Hani":"得將勞動者區","name:zh-Hans":"得将劳动者区","name:zh-Hant":"得將勞動者區"},"display_name":"득장로동자구, 북창군, 평안남도, 조선민주주의인민공화국","address":{"town":"득장로동자구","state":"평안남도","ISO3166-2-lvl4":"KP-02","country":"조선민주주의인민공화국","country_code":"kp"},"osm_type":"node","osm_id":7318230495,"type":"town","location":[126.2074613,39.5780742],"bbox":[126.1674613,39.5380742,126.2474613,39.6180742]}
{"name":"라남","other_names":{"name:el":"Ράναμ","name:en":"Ranam","name:ja":"羅南","name:ko":"라남","name:ru":"Ранам","name:zh":"羅南","name:ko-Hani":"羅南","name:zh-Hans":"罗南","name:zh-Hant":"羅南"},"display_name":"라남, 청진시, 함경북도, 조선민주주의인민공화국","address":{"town":"라남","city":"청진시","state":"함경북도","ISO3166-2-lvl4":"KP-09","country":"조선민주주의인민공화국","country_code":"kp"},"osm_type":"node","osm_id":10136749367,"type":"town","location":[129.6912646,41.7157401],"bbox":[129.6512646,41.6757401,129.7312646,41.7557401]}
{"name":"라흥로동자구","other_names":{"name:el":"Ράχουνγκ-ρόντονγκτζαγκου","name:en":"Rahŭng Worker's District","name:ja":"羅興労働者区","name:ko":"라흥로동자구","name:zh":"羅興勞動者區","name:ko-Hani":"羅興勞動者區","name:zh-Hans":"罗兴劳动者区","name:zh-Hant":"羅興勞動者區"},"display_name":"라흥로동자구, 리원군, 함경남도, 조선민주주의인민공화국","address":{"town":"라흥로동자구","county":"리원군","state":"함경남도","ISO3166-2-lvl4":"KP-08","country":"조선민주주의인민공화국","country_code":"kp"},"osm_type":"node","osm_id":10220982242,"type":"town","location":[128.5961583,40.1928516],"bbox":[128.5561583,40.1528516,128.6361583,40.2328516]}
{"name":"락연로동자구","other_names":{"name:el":"Ράγκιον-ρόντονγκτζαγκου","name:ja":"楽淵労働者区","name:ko":"락연로동자구","name:zh":"樂淵勞動者區","name:ko-Hani":"樂淵勞動者區","name:zh-Hans":"乐渊劳动者区","name:zh-Hant":"樂淵勞動者區"},"display_name":"락연로동자구, 장연군, 황해남도, 조선민주주의인민공화국","address":{"town":"락연로동자구","county":"장연군","state":"황해남도","ISO3166-2-lvl4":"KP-05","country":"조선민주주의인민공화국","country_code":"kp"},"osm_type":"node","osm_id":10221028049,"type":"town","location":[125.1521573,38.2596061],"bbox":[125.1121573,38.2196061,125.1921573,38.2996061]}
{"name":"락원읍","other_names":{"name:el":"Ράγκουον-ουπ","name:en":"Ragwon-up","name:fr":"Ragwon-up","name:ja":"楽園邑","name:ko":"락원읍","name:zh":"樂園邑","alt_name:en":"Ragwŏn-ŭp","name:ko-Hani":"樂園邑","name:ko-Latn":"Ragwon-eup","name:zh-Hans":"乐园邑","name:zh-Hant":"樂園邑"},"display_name":"락원읍, 락원군, 함경남도, 조선민주주의인민공화국","address":{"town":"락원읍","county":"락원군","state":"함경남도","ISO3166-2-lvl4":"KP-08","country":"조선민주주의인민공화국","country_code":"kp"},"osm_type":"node","osm_id":9141063856,"type":"town","location":[127.7738412,39.904248],"bbox":[127.7338412,39.864248,127.8138412,39.944248]}
{"name":"랑림로동자구","other_names":{"name:el":"Ράνγκριμ-ρόντονγκτζαγκου","name:en":"Rangrim Workers' District","name:ja":"狼林労働者区","name:ko":"랑림로동자구","name:zh":"狼林勞動者區","name:ko-Hani":"狼林勞動者區","name:zh-Hans":"狼林劳动者区","name:zh-Hant":"狼林勞動者區"},"display_name":"랑림로동자구, 장강군, 자강도, 조선민주주의인민공화국","address":{"town":"랑림로동자구","county":"장강군","state":"자강도","ISO3166-2-lvl4":"KP-04","country":"조선민주주의인민공화국","country_code":"kp"},"osm_type":"node","osm_id":10261628428,"type":"town","location":[126.8387836,40.9657141],"bbox":[126.7987836,40.9257141,126.8787836,41.0057141]}
{"name":"랑림읍","other_names":{"name:el":"Ράνγκριμ-ουπ","name:en":"Rangnim-up","name:fr":"Rangnim-up","name:ja":"狼林邑","name:ko":"랑림읍","name:ru":"Нанним","name:vi":"Lang Lâm","name:zh":"狼林邑","name:ko-Hani":"狼林邑","name:zh-Hans":"狼林邑","name:zh-Hant":"狼林邑"},"display_name":"랑림읍, 랑림군, 자강도, 조선민주주의인민공화국","address":{"town":"랑림읍","county":"랑림군","state":"자강도","ISO3166-2-lvl4":"KP-04","country":"조선민주주의인민공화국","country_code":"kp"},"osm_type":"node","osm_id":413516573,"type":"town","location":[127.1295051,40.9683614],"bbox":[127.0895051,40.9283614,127.1695051,41.0083614]}
{"name":"래일로동자구","other_names":{"name:el":"Ρέιλ-ρόντονγκτζαγκου","name:en":"Raeil Workers' District","name:ja":"來日労働者区","name:zh":"來日勞動者區","name:ko-Hani":"來日勞動者區","name:zh-Hans":"来日劳动者区","name:zh-Hant":"來日勞動者區"},"display_name":"래일로동자구, 함흥시, 함경남도, 조선민주주의인민공화국","address":{"town":"래일로동자구","city":"함흥시","state":"함경남도","ISO3166-2-lvl4":"KP-08","country":"조선민주주의인민공화국","country_code":"kp"},"osm_type":"node","osm_id":6260039940,"type":"town","location":[127.1740471,40.0590401],"bbox":[127.1340471,40.0190401,127.2140471,40.0990401],"border":{"name":"래일로동자구","other_names":{"name:en":"Raeil Workers' District","name:ja":"来日労動者区","name:ko":"래일로동자구","name:zh":"來日勞動者區","alt_name:ko":"내일노동자구","name:ko-Hani":"來日勞動者區","name:zh-Hans":"来日劳动者区","name:zh-Hant":"來日勞動者區","name:el":"Ρέιλ-ρόντονγκτζαγκου","alt:ja":"來日労働者区"},"display_name":"래일로동자구, 함흥시, 함경남도, 조선민주주의인민공화국","address":{"town":"래일로동자구","city":"함흥시","state":"함경남도","ISO3166-2-lvl4":"KP-08","country":"조선민주주의인민공화국","country_code":"kp"},"osm_type":"relation","osm_id":13042607,"type":"administrative","location":[127.1740471,40.0590401],"bbox":[127.101045,40.0208403,127.2712684,40.1073233]}}
{"name":"량강로동자구","other_names":{"name:el":"Ριάνγκανγκ-ρόντονγκτζαγκου","name:ja":"両江労働者区","name:ko":"량강로동자구","name:zh":"兩江勞動者區","name:ko-Hani":"兩江勞動者區","name:zh-Hans":"两江劳动者区","name:zh-Hant":"兩江勞動者區"},"display_name":"량강로동자구, 위원군, 자강도, 조선민주주의인민공화국","address":{"town":"량강로동자구","county":"위원군","state":"자강도","ISO3166-2-lvl4":"KP-04","country":"조선민주주의인민공화국","country_code":"kp"},"osm_type":"node","osm_id":9141070741,"type":"town","location":[126.2167217,40.8314817],"bbox":[126.1767217,40.7914817,126.2567217,40.8714817]}
{"name":"려도동","other_names":{"name:el":"Ριόντο-ντονγκ","name:ja":"麗島洞","name:ko":"려도동","name:zh":"麗島洞","name:ko-Hani":"麗島洞","name:zh-Hans":"丽岛洞","name:zh-Hant":"麗島洞"},"display_name":"려도동, 원산시, 강원도, 조선민주주의인민공화국","address":{"town":"려도동","city":"원산시","state":"강원도","ISO3166-2-lvl4":"KP-07","country":"조선민주주의인민공화국","country_code":"kp"},"osm_type":"node","osm_id":9458509730,"type":"town","location":[127.6257838,39.2348897],"bbox":[127.5857838,39.1948897,127.6657838,39.2748897]}
{"name":"록림로동자구","other_names":{"name:el":"Ρόνγκριμ-ρόντονγκτζαγκου","name:en":"Rokrim Workers' District","name:ja":"緑林労働者区","name:ko":"록림로동자구","name:ru":"Ронним","name:zh":"綠林勞動者區","name:ko-Hani":"綠林勞動者區","name:zh-Hans":"绿林劳动者区","name:zh-Hant":"綠林勞動者區"},"display_name":"록림로동자구, 김형직군, 량강도, 조선민주주의인민공화국","address":{"town":"록림로동자구","county":"김형직군","state":"량강도","ISO3166-2-lvl4":"KP-10","country":"조선민주주의인민공화국","country_code":"kp"},"osm_type":"node","osm_id":10261654174,"type":"town","location":[127.3644815,41.3377648],"bbox":[127.3244815,41.2977648,127.4044815,41.3777648]}
{"name":"룡강읍","other_names":{"name:el":"Ριόνγκανγκ-ουπ","name:en":"Ryonggang-up","name:fr":"Ryonggang-up","name:ja":"竜岡邑","name:ko":"룡강읍","name:ru":"Йонган","name:zh":"龍岡邑","name:ko-Hani":"龍岡邑","name:zh-Hans":"龙冈邑","name:zh-Hant":"龍岡邑"},"display_name":"룡강읍, 남포시, 조선민주주의인민공화국","address":{"town":"룡강읍","city":"남포시","ISO3166-2-lvl4":"KP-14","country":"조선민주주의인민공화국","country_code":"kp"},"osm_type":"node","osm_id":3707703929,"type":"town","location":[125.4220343,38.8543975],"bbox":[125.3820343,38.8143975,125.4620343,38.8943975]}
{"name":"룡담로동자구","other_names":{"name:el":"Ριόνγκνταμ-ρόντονγκτζαγκου","name:en":"Ryongdam Labor District","name:ja":"竜潭労働者区","name:ko":"룡담로동자구","name:ru":"Рёндам","name:zh":"龍潭勞動者區","name:ko-Hani":"龍潭勞動者區","name:zh-Hans":"龙潭劳动者区","name:zh-Hant":"龍潭勞動者區"},"display_name":"룡담로동자구, 길주군, 함경북도, 조선민주주의인민공화국","address":{"town":"룡담로동자구","county":"길주군","state":"함경북도","ISO3166-2-lvl4":"KP-09","country":"조선민주주의인민공화국","country_code":"kp"},"osm_type":"node","osm_id":9812738006,"type":"town","location":[129.155928,41.009285],"bbox":[129.115928,40.969285,129.195928,41.049285]}
{"name":"룡대로동자구","other_names":{"name:el":"Ριόνγκντε-ρόντονγκτζαγκου","name:en":"Ryongdaerodongja-gu","name:ja":"竜大労働者区","name:ko":"룡대로동자구","name:zh":"龍大勞動者區","name:ko-Hani":"龍大勞動者區","name:zh-Hans":"龙大劳动者区","name:zh-Hant":"龍大勞動者區"},"display_name":"룡대로동자구, 안변군, 강원도, 조선민주주의인민공화국","address":{"town":"룡대로동자구","county":"안변군","state":"강원도","ISO3166-2-lvl4":"KP-07","country":"조선민주주의인민공화국","country_code":"kp"},"osm_type":"node","osm_id":9458391704,"type":"town","location":[127.3719585,39.0619908],"bbox":[127.3319585,39.0219908,127.4119585,39.1019908]}
{"name":"룡등로동자구","other_names":{"name:ja":"竜登労働者区","name:ko":"룡등로동자구","name:zh":"龍登勞動者區","name:ko-Hani":"龍登勞動者區","name:zh-Hans":"龙登劳动者区","name:zh-Hant":"龍登勞動者區"},"display_name":"룡등로동자구, 구장군, 평안북도, 조선민주주의인민공화국","address":{"town":"룡등로동자구","county":"구장군","state":"평안북도","ISO3166-2-lvl4":"KP-03","country":"조선민주주의인민공화국","country_code":"kp"},"osm_type":"node","osm_id":11767648546,"type":"town","location":[126.0694775,39.8362477],"bbox":[126.0294775,39.7962477,126.1094775,39.8762477]}
{"name":"룡림읍","other_names":{"name:el":"Ριόνγκριμ-ουπ","name:en":"Ryongrim-up","name:fr":"Ryongrim-up","name:ja":"竜林邑","name:ko":"룡림읍","name:ru":"Йонним","name:zh":"龍林邑","alt_name:en":"Ryongrim-ŭp","name:ko-Hani":"龍林邑","name:zh-Hans":"龙林邑","name:zh-Hant":"龍林邑"},"display_name":"룡림읍, 룡림군, 자강도, 조선민주주의인민공화국","address":{"town":"룡림읍","county":"룡림군","state":"자강도","ISO3166-2-lvl4":"KP-04","country":"조선민주주의인민공화국","country_code":"kp"},"osm_type":"node","osm_id":3723463564,"type":"town","location":[126.6499987,40.5427851],"bbox":[126.6099987,40.5027851,126.6899987,40.5827851]}
{"name":"룡문로동자구","other_names":{"name:ja":"竜門労働者区","name:ko":"룡문로동자구","name:zh":"龍門勞動者區","name:ko-Hani":"龍門勞動者區","name:zh-Hans":"龙门劳动者区","name:zh-Hant":"龍門勞動者區"},"display_name":"룡문로동자구, 구장군, 평안북도, 조선민주주의인민공화국","address":{"town":"룡문로동자구","county":"구장군","state":"평안북도","ISO3166-2-lvl4":"KP-03","country":"조선민주주의인민공화국","country_code":"kp"},"osm_type":"node","osm_id":11767648547,"type":"town","location":[126.1164183,39.8631064],"bbox":[126.0764183,39.8231064,126.1564183,39.9031064]}
{"name":"룡연로동자구","other_names":{"name:el":"Ριόνγιον-ρόντονγκτζαγκου","name:ja":"竜淵労働者区","name:ko":"룡연로동자구","name:zh":"龍淵勞動者區","name:ko-Hani":"龍淵勞動者區","name:zh-Hans":"龙渊劳动者区","name:zh-Hant":"龍淵勞動者區"},"display_name":"룡연로동자구, 위원군, 자강도, 조선민주주의인민공화국","address":{"town":"룡연로동자구","county":"위원군","state":"자강도","ISO3166-2-lvl4":"KP-04","country":"조선민주주의인민공화국","country_code":"kp"},"osm_type":"node","osm_id":9141070742,"type":"town","location":[126.1506171,40.7288256],"bbox":[126.1106171,40.6888256,126.1906171,40.7688256]}
{"name":"룡연읍","other_names":{"name:el":"Ριόνγιον-ουπ","name:en":"Ryongyon-up","name:fr":"Ryongyon-up","name:ja":"竜淵邑","name:ko":"룡연읍","name:ru":"Йонъён","name:zh":"龍淵邑","alt_name:en":"Ryongyŏn-up","name:ko-Hani":"龍淵邑","name:zh-Hans":"龙渊邑","name:zh-Hant":"龍淵邑"},"display_name":"룡연읍, 룡연군, 황해남도, 조선민주주의인민공화국","address":{"town":"룡연읍","county":"룡연군","state":"황해남도","ISO3166-2-lvl4":"KP-05","country":"조선민주주의인민공화국","country_code":"kp"},"osm_type":"node","osm_id":1210712322,"type":"town","location":[124.8824434,38.1500943],"bbox":[124.8424434,38.1100943,124.9224434,38.1900943]}
{"name":"룡천읍","other_names":{"name:el":"Ριόνγκτσον-ουπ","name:en":"Ryongchon-up","name:fr":"Ryongchon-up","name:ja":"竜川邑","name:ko":"룡천읍","name:ru":"Йончхон","name:vi":"Long Xuyên","name:zh":"龍川邑","name:ko-Hani":"龍川邑","name:zh-Hans":"龙川邑","name:zh-Hant":"龍川邑"},"display_name":"룡천읍, 룡천군, 평안북도, 조선민주주의인민공화국","address":{"town":"룡천읍","county":"룡천군","state":"평안북도","ISO3166-2-lvl4":"KP-03","country":"조선민주주의인민공화국","country_code":"kp"},"osm_type":"node","osm_id":264068434,"type":"town","location":[124.4634901,39.983773],"bbox":[124.4234901,39.943773,124.5034901,40.023773]}
{"name":"리원읍","other_names":{"name:el":"Ρίουον-ουπ","name:en":"Riwon-up","name:fr":"Riwon-up","name:ja":"利原邑","name:ko":"리원읍","name:ru":"Ивон","name:zh":"利原邑","alt_name:en":"Riwŏn-ŭp","name:ko-Hani":"利原邑","name:zh-Hans":"利原邑","name:zh-Hant":"利原邑"},"display_name":"리원읍, 리원군, 함경남도, 조선민주주의인민공화국","address":{"town":"리원읍","county":"리원군","state":"함경남도","ISO3166-2-lvl4":"KP-08","country":"조선민주주의인민공화국","country_code":"kp"},"osm_type":"node","osm_id":264052225,"type":"town","location":[128.653512,40.323273],"bbox":[128.613512,40.283273,128.693512,40.363273]}
{"name":"린산읍","other_names":{"name:el":"Ρίνσαν-ουπ","name:en":"Rinsan-up","name:fr":"Rinsan-up","name:ja":"麟山邑","name:ko":"린산읍","name:ru":"Инсан","name:zh":"麟山邑","name:ko-Hani":"麟山邑","name:zh-Hans":"麟山邑","name:zh-Hant":"麟山邑"},"display_name":"린산읍, 린산군, 황해북도, 조선민주주의인민공화국","address":{"town":"린산읍","county":"린산군","state":"황해북도","ISO3166-2-lvl4":"KP-06","country":"조선민주주의인민공화국","country_code":"kp"},"osm_type":"node","osm_id":3708960748,"type":"town","location":[126.1266102,38.3421153],"bbox":[126.0866102,38.3021153,126.1666102,38.3821153]}
{"name":"맹산읍","other_names":{"name:el":"Μένγκσαν-ουπ","name:en":"Maengsan-up","name:fr":"Maengsan-up","name:ja":"孟山邑","name:ko":"맹산읍","name:ru":"Мэнсан","name:zh":"孟山邑","name:ko-Hani":"孟山邑","name:zh-Hans":"孟山邑","name:zh-Hant":"孟山邑"},"display_name":"맹산읍, 맹산군, 평안남도, 조선민주주의인민공화국","address":{"town":"맹산읍","county":"맹산군","state":"평안남도","ISO3166-2-lvl4":"KP-02","country":"조선민주주의인민공화국","country_code":"kp"},"osm_type":"node","osm_id":3707843778,"type":"town","location":[126.5063211,39.6560756],"bbox":[126.4663211,39.6160756,126.5463211,39.6960756]}
{"name":"명간읍","other_names":{"name:el":"Μιόνγκαν-ουπ","name:en":"Myonggan-up","name:fr":"Myonggan-up","name:ja":"明澗邑","name:ko":"명간읍","name:ru":"Мёнган","name:zh":"明澗邑","name:ko-Hani":"明澗邑","name:zh-Hans":"明涧邑","name:zh-Hant":"明澗邑"},"display_name":"명간읍, 명간군, 함경북도, 조선민주주의인민공화국","address":{"town":"명간읍","county":"명간군","state":"함경북도","ISO3166-2-lvl4":"KP-09","country":"조선민주주의인민공화국","country_code":"kp"},"osm_type":"node","osm_id":256632647,"type":"town","location":[129.497489,41.2592177],"bbox":[129.457489,41.2192177,129.537489,41.2992177]}
{"name":"명천읍","other_names":{"name:el":"Μιόνγκτσον-ουπ","name:en":"Myongchon-up","name:fr":"Myongchon-up","name:ja":"明川邑","name:ko":"명천읍","name:ru":"Мёнчхон","name:zh":"明川邑","name:ko-Hani":"明川邑","name:zh-Hans":"明川邑","name:zh-Hant":"明川邑"},"display_name":"명천읍, 명천군, 함경북도, 조선민주주의인민공화국","address":{"town":"명천읍","county":"명천군","state":"함경북도","ISO3166-2-lvl4":"KP-09","country":"조선민주주의인민공화국","country_code":"kp"},"osm_type":"node","osm_id":9680491463,"type":"town","location":[129.4297867,41.0685234],"bbox":[129.3897867,41.0285234,129.4697867,41.1085234]}
{"name":"무산읍","other_names":{"name:el":"Μούσαν-ουπ","name:en":"Musan-up","name:fr":"Musan-up","name:ja":"茂山邑","name:ko":"무산읍","name:ru":"Мусан","name:zh":"茂山邑","name:ko-Hani":"茂山邑","name:zh-Hans":"茂山邑","name:zh-Hant":"茂山邑"},"display_name":"무산읍, 무산군, 함경북도, 조선민주주의인민공화국","address":{"town":"무산읍","state":"함경북도","ISO3166-2-lvl4":"KP-09","country":"조선민주주의인민공화국","country_code":"kp"},"osm_type":"node","osm_id":2097342990,"type":"town","location":[129.2143058,42.2243428],"bbox":[129.1743058,42.1843428,129.2543058,42.2643428],"border":{"name":"무산군","other_names":{"name:en":"Musan County","name:fr":"Arrondissement de Musan","name:ja":"茂山郡","name:ko":"무산군","name:zh":"茂山郡","alt_name:en":"Musan-gun","name:ko-Hani":"茂山郡","name:zh-Hans":"茂山郡","name:zh-Hant":"茂山郡","name:el":"Μούσαν-ουπ","name:ru":"Мусан","alt":"무산읍","alt:en":"Musan-up","alt:fr":"Musan-up","alt:ja":"茂山邑","alt:ko":"무산읍","alt:zh":"茂山邑","alt:ko-Hani":"茂山邑","alt:zh-Hans":"茂山邑","alt:zh-Hant":"茂山邑"},"display_name":"무산군, 함경북도, 조선민주주의인민공화국","address":{"town":"무산군","state":"함경북도","ISO3166-2-lvl4":"KP-09","country":"조선민주주의인민공화국","country_code":"kp"},"population":123721,"osm_type":"relation","osm_id":8426163,"type":"administrative","location":[129.2143058,42.2243428],"bbox":[129.0024438,41.8290098,129.5841693,42.4316153]}}
{"name":"문덕읍","other_names":{"name:el":"Μούντοκ-ουπ","name:en":"Mundok-up","name:fr":"Mundok-up","name:ja":"文徳邑","name:ko":"문덕읍","name:nl":"Mundok","name:ru":"Мундок","name:zh":"文徳邑","name:ko-Hani":"文徳邑","name:zh-Hans":"文徳邑","name:zh-Hant":"文徳邑"},"display_name":"문덕읍, 문덕군, 평안남도, 조선민주주의인민공화국","address":{"town":"문덕읍","county":"문덕군","state":"평안남도","ISO3166-2-lvl4":"KP-02","country":"조선민주주의인민공화국","country_code":"kp"},"osm_type":"node","osm_id":3517391817,"type":"town","location":[125.595315,39.5000631],"bbox":[125.555315,39.4600631,125.635315,39.5400631]}
{"name":"박천읍","other_names":{"name:el":"Μπάκτσον-ουπ","name:en":"Pakchon-up","name:fr":"Pakchon-up","name:ja":"博川邑","name:ko":"박천읍","name:ru":"Пакчхон","name:zh":"博川邑","name:ko-Hani":"博川邑","name:zh-Hans":"博川邑","name:zh-Hant":"博川邑"},"display_name":"박천읍, 박천군, 평안북도, 조선민주주의인민공화국","address":{"town":"박천읍","county":"박천군","state":"평안북도","ISO3166-2-lvl4":"KP-03","country":"조선민주주의인민공화국","country_code":"kp"},"osm_type":"node","osm_id":343729036,"type":"town","location":[125.5823814,39.7228321],"bbox":[125.5423814,39.6828321,125.6223814,39.7628321]}
{"name":"방현동","other_names":{"name:el":"Μπάγχιον-ντονγκ","name:ja":"方峴洞","name:ko":"방현동","name:zh":"方岘洞","name:ko-Hani":"方峴洞","name:zh-Hans":"方岘洞","name:zh-Hant":"方峴洞"},"display_name":"방현동, 구성시, 평안북도, 조선민주주의인민공화국","address":{"town":"방현동","city":"구성시","state":"평안북도","ISO3166-2-lvl4":"KP-03","country":"조선민주주의인민공화국","country_code":"kp"},"osm_type":"node","osm_id":8070743218,"type":"town","location":[125.2419494,39.8889685],"bbox":[125.2019494,39.8489685,125.2819494,39.9289685]}
{"name":"배천읍","other_names":{"name:el":"Μπέτσον-ουπ","name:en":"Paekchon-up","name:fr":"Paekchon-up","name:ja":"白川邑","name:ko":"배천읍","name:ru":"Пэчхон","name:zh":"白川邑","alt_name:en":"Paechon-up","name:ko-Hani":"白川邑","name:zh-Hans":"白川邑","name:zh-Hant":"白川邑"},"display_name":"배천읍, 배천군, 황해남도, 조선민주주의인민공화국","address":{"town":"배천읍","county":"배천군","state":"황해남도","ISO3166-2-lvl4":"KP-05","country":"조선민주주의인민공화국","country_code":"kp"},"osm_type":"node","osm_id":2939088928,"type":"town","location":[126.3025262,37.9920351],"bbox":[126.2625262,37.9520351,126.3425262,38.0320351]}
{"name":"백금산동","other_names":{"name:en":"Baekgeumsan-dong","name:ja":"白金山洞","name:ko":"백금산동","name:zh":"白金山洞","name:ko-Hani":"白金山洞","name:ko-Latn":"Baekgeumsan-dong","name:zh-Hans":"白金山洞","name:zh-Hant":"白金山洞"},"display_name":"백금산동, 단천시, 함경남도, 조선민주주의인민공화국","address":{"town":"백금산동","city":"단천시","state":"함경남도","ISO3166-2-lvl4":"KP-08","country":"조선민주주의인민공화국","country_code":"kp"},"osm_type":"node","osm_id":9359920975,"type":"town","location":[128.8191853,40.8841899],"bbox":[128.7791853,40.8441899,128.8591853,40.9241899]}
{"name":"백암로동자구","other_names":{"name:el":"Μπέγκαμ-ρόντονγκτζαγκου","name:en":"Paekam-rodongjagu","name:ja":"白岩労働者区","name:ko":"백암로동자구","name:ru":"Пэгам","name:zh":"白岩勞動者區","name:ko-Hani":"白岩勞動者區","name:zh-Hans":"白岩劳动者区","name:zh-Hant":"白岩勞動者區"},"display_name":"백암로동자구, 백암군, 량강도, 조선민주주의인민공화국","address":{"town":"백암로동자구","county":"백암군","state":"량강도","ISO3166-2-lvl4":"KP-10","country":"조선민주주의인민공화국","country_code":"kp"},"osm_type":"node","osm_id":2121766710,"type":"town","location":[128.8021276,41.2454524],"bbox":[128.7621276,41.2054524,128.8421276,41.2854524]}
{"name":"백암읍","other_names":{"name:el":"Μπέγκαμ-ουπ","name:en":"Paekam-up","name:fa":"بِگام","name:fr":"Paekam-up","name:ja":"白岩邑","name:ko":"백암읍","name:ru":"Пэгам","name:zh":"白岩邑","alt_name:en":"Paekam","name:ko-Hani":"白岩邑","name:zh-Hans":"白岩邑","name:zh-Hant":"白岩邑"},"display_name":"백암읍, 백암군, 량강도, 조선민주주의인민공화국","address":{"town":"백암읍","county":"백암군","state":"량강도","ISO3166-2-lvl4":"KP-10","country":"조선민주주의인민공화국","country_code":"kp"},"osm_type":"node","osm_id":2323336297,"type":"town","location":[128.8120594,41.567001],"bbox":[128.7720594,41.527001,128.8520594,41.607001]}
{"name":"법동읍","other_names":{"name:el":"Μπόπτονγκ-ουπ","name:en":"Poptong-up","name:fa":"بوپدونگ","name:fr":"Poptong-up","name:ja":"法洞邑","name:ko":"법동읍","name:ru":"Поптон","name:zh":"法洞邑","name:ko-Hani":"法洞邑","name:zh-Hans":"法洞邑","name:zh-Hant":"法洞邑"},"display_name":"법동읍, 법동군, 강원도, 조선민주주의인민공화국","address":{"town":"법동읍","county":"법동군","state":"강원도","ISO3166-2-lvl4":"KP-07","country":"조선민주주의인민공화국","country_code":"kp"},"osm_type":"node","osm_id":5668439340,"type":"town","location":[127.0820116,38.9765092],"bbox":[127.0420116,38.9365092,127.1220116,39.0165092]}
{"name":"벽동읍","other_names":{"name:el":"Μπιόκτονγκ-ουπ","name:en":"Pyokdong-up","name:fr":"Pyokdong-up","name:ja":"碧潼邑","name:ko":"벽동읍","name:ru":"Пёктон","name:uk":"Пьоктон","name:zh":"碧潼邑","name:ko-Hani":"碧潼邑","name:zh-Hans":"碧潼邑","name:zh-Hant":"碧潼邑"},"display_name":"벽동읍, 벽동군, 평안북도, 조선민주주의인민공화국","address":{"town":"벽동읍","county":"벽동군","state":"평안북도","ISO3166-2-lvl4":"KP-03","country":"조선민주주의인민공화국","country_code":"kp"},"osm_type":"node","osm_id":2937719138,"type":"town","location":[125.3302885,40.587952],"bbox":[125.2902885,40.547952,125.3702885,40.627952],"border":{"name":"벽동군","other_names":{"name:en":"Pyokdong County","name:fr":"Arrondissement de Pyokdong","name:ja":"碧潼郡","name:ko":"벽동군","name:ru":"уезд Пёктон","name:uk":"Пьоктон","name:zh":"碧潼郡","name:ko-Hani":"碧潼郡","name:zh-Hant":"碧潼郡"},"display_name":"벽동군, 평안북도, 조선민주주의인민공화국","address":{"county":"벽동군","state":"평안북도","ISO3166-2-lvl4":"KP-03","country":"조선민주주의인민공화국","country_code":"kp"},"population":35601,"osm_type":"relation","osm_id":5452898,"type":"administrative","location":[125.4206891499916,40.53076275],"bbox":[125.161733,40.3896717,125.6225657,40.6716042]}}
{"name":"벽성읍","other_names":{"name:el":"Μπιόκσονγκ-ουπ","name:en":"Pyoksong-up","name:fr":"Pyoksong-up","name:ja":"碧城邑","name:ko":"벽성읍","name:ru":"Пёксон","name:uk":"Пьоксон","name:zh":"碧城邑","name:ko-Hani":"碧城邑","name:zh-Hans":"碧城邑","name:zh-Hant":"碧城邑"},"display_name":"벽성읍, 벽성군, 황해남도, 조선민주주의인민공화국","address":{"town":"벽성읍","county":"벽성군","state":"황해남도","ISO3166-2-lvl4":"KP-05","country":"조선민주주의인민공화국","country_code":"kp"},"osm_type":"node","osm_id":3718765656,"type":"town","location":[125.5563329,38.046962],"bbox":[125.5163329,38.006962,125.5963329,38.086962],"border":{"name":"벽성군","other_names":{"name:en":"Pyoksong County","name:fr":"Arrondissement de Pyoksong","name:ja":"碧城郡","name:ko":"벽성군","name:ru":"уезд Пёксон","name:uk":"Пьоксон","name:zh":"碧城郡","name:ko-Hani":"碧城郡","name:ko-Latn":"Pyŏksŏng-gun","name:zh-Hans":"碧城郡","name:zh-Hant":"碧城郡"},"display_name":"벽성군, 황해남도, 조선민주주의인민공화국","address":{"county":"벽성군","state":"황해남도","ISO3166-2-lvl4":"KP-05","country":"조선민주주의인민공화국","country_code":"kp"},"population":90753,"osm_type":"relation","osm_id":5469410,"type":"administrative","location":[125.50918777876956,38.08035115],"bbox":[125.3686838,37.956617,125.6469661,38.2037975]}}
{"name":"보천읍","other_names":{"name:el":"Μπότσον-ουπ","name:en":"Pochon-up","name:fa":"بوچون","name:fr":"Pochon-up","name:ja":"普天邑","name:ko":"보천읍","name:zh":"普天邑","name:ko-Hani":"普天邑","name:zh-Hans":"普天邑","name:zh-Hant":"普天邑"},"display_name":"보천읍, 보천군, 량강도, 조선민주주의인민공화국","address":{"town":"보천읍","county":"보천군","state":"량강도","ISO3166-2-lvl4":"KP-10","country":"조선민주주의인민공화국","country_code":"kp"},"osm_type":"node","osm_id":9298566830,"type":"town","location":[128.3064245,41.5252922],"bbox":[128.2664245,41.4852922,128.3464245,41.5652922]}
{"name":"봉량로동자구","other_names":{"name:el":"Μπόνγκνιανγκ-ρόντονγκτζαγκου","name:ja":"鳳両労働者区","name:ko":"봉량로동자구","name:zh":"鳳兩勞動者區","name:ko-Hani":"鳳兩勞動者區","name:ko-Latn":"Pongnyang-rodongjagu","name:zh-Hans":"凤两劳动者区","name:zh-Hant":"鳳兩勞動者區"},"display_name":"봉량로동자구, 배천군, 황해남도, 조선민주주의인민공화국","address":{"town":"봉량로동자구","county":"배천군","state":"황해남도","ISO3166-2-lvl4":"KP-05","country":"조선민주주의인민공화국","country_code":"kp"},"osm_type":"node","osm_id":8424252204,"type":"town","location":[126.3336494,38.0155784],"bbox":[126.2936494,37.9755784,126.3736494,38.0555784]}
{"name":"봉산읍","other_names":{"name:el":"Μπόνγκσαν-ουπ","name:en":"Pongsan-up","name:fr":"Pongsan-up","name:ja":"鳳山邑","name:ko":"봉산읍","name:ru":"Понсан","name:zh":"鳳山邑","name:ko-Hani":"鳳山邑","name:zh-Hans":"凤山邑","name:zh-Hant":"鳳山邑"},"display_name":"봉산읍, 봉산군, 황해북도, 조선민주주의인민공화국","address":{"town":"봉산읍","county":"봉산군","state":"황해북도","ISO3166-2-lvl4":"KP-06","country":"조선민주주의인민공화국","country_code":"kp"},"osm_type":"node","osm_id":3709010249,"type":"town","location":[125.8454403,38.4868106],"bbox":[125.8054403,38.4468106,125.8854403,38.5268106]}
{"name":"봉천읍","other_names":{"name:el":"Μπόνγκτσον-ουπ","name:en":"Pongchon-up","name:fr":"Pongchon-up","name:ja":"峰泉邑","name:ko":"봉천읍","name:ru":"Пончхон","name:zh":"峰泉邑","name:ko-Hani":"峰泉邑","name:zh-Hans":"峰泉邑","name:zh-Hant":"峰泉邑"},"display_name":"봉천읍, 봉천군, 황해남도, 조선민주주의인민공화국","address":{"town":"봉천읍","county":"봉천군","state":"황해남도","ISO3166-2-lvl4":"KP-05","country":"조선민주주의인민공화국","country_code":"kp"},"osm_type":"node","osm_id":3718623271,"type":"town","location":[126.2073523,38.1276957],"bbox":[126.1673523,38.0876957,126.2473523,38.1676957]}
{"name":"부래산로동자구","other_names":{"name:el":"Μπούρεσαν-ρόντονγκτζαγκου","name:ja":"浮来山労働者区","name:ko":"부래산로동자구","name:zh":"浮來山勞動者區","name:ko-Hani":"浮來山勞動者區","name:zh-Hans":"浮来山劳动者区","name:zh-Hant":"浮來山勞動者區"},"display_name":"부래산로동자구, 고원군, 함경남도, 조선민주주의인민공화국","address":{"town":"부래산로동자구","state":"함경남도","ISO3166-2-lvl4":"KP-08","country":"조선민주주의인민공화국","country_code":"kp"},"osm_type":"node","osm_id":9812738007,"type":"town","location":[127.1779489,39.4359279],"bbox":[127.1379489,39.3959279,127.2179489,39.4759279]}
{"name":"부령읍","other_names":{"name:el":"Μπούριονγκ-ουπ","name:en":"Puryong-up","name:fr":"Puryong-up","name:ja":"富寧邑","name:ko":"부령읍","name:ru":"Пурён","name:zh":"富寧邑","name:ko-Hani":"富寧邑","name:zh-Hans":"富宁邑","name:zh-Hant":"富寧邑"},"display_name":"부령읍, 부령군, 함경북도, 조선민주주의인민공화국","address":{"town":"부령읍","county":"부령군","state":"함경북도","ISO3166-2-lvl4":"KP-09","country":"조선민주주의인민공화국","country_code":"kp"},"osm_type":"node","osm_id":9298552518,"type":"town","location":[129.7122368,42.06256],"bbox":[129.6722368,42.02256,129.7522368,42.10256]}
{"name":"부윤","other_names":{"name:el":"Μπούγιουν","name:en":"Puyun","name:ja":"富潤","name:ko":"부윤","name:ru":"Район","name:zh":"富潤","name:ko-Hani":"富潤","name:zh-Hans":"富润","name:zh-Hant":"富潤"},"display_name":"부윤, 청진시, 함경북도, 조선민주주의인민공화국","address":{"town":"부윤","city":"청진시","state":"함경북도","ISO3166-2-lvl4":"KP-09","country":"조선민주주의인민공화국","country_code":"kp"},"osm_type":"node","osm_id":10136749365,"type":"town","location":[129.5028018,41.8956969],"bbox":[129.4628018,41.8556969,129.5428018,41.9356969]}
{"name":"부전읍","other_names":{"name:el":"Μπούτζον-ουπ","name:en":"Pujon-up","name:fr":"Pujon-up","name:ja":"赴戦邑","name:ko":"부전읍","name:ru":"Пуджон","name:zh":"赴戰邑","name:ko-Hani":"赴戰邑","name:zh-Hans":"赴战邑","name:zh-Hant":"赴戰邑"},"display_name":"부전읍, 부전군, 함경남도, 조선민주주의인민공화국","address":{"town":"부전읍","county":"부전군","state":"함경남도","ISO3166-2-lvl4":"KP-08","country":"조선민주주의인민공화국","country_code":"kp"},"osm_type":"node","osm_id":1271150197,"type":"town","location":[127.6179255,40.4872014],"bbox":[127.5779255,40.4472014,127.6579255,40.5272014]}
{"name":"부포로동자구","other_names":{"name:el":"Μπούπο-ρόντονγκτζαγκου","name:ja":"釜浦労働者区","name:ko":"부포로동자구","name:zh":"釜浦勞動者區","name:ko-Hani":"釜浦勞動者區","name:ko-Latn":"Pup'o-rodongjagu","name:zh-Hans":"釜浦劳动者区","name:zh-Hant":"釜浦勞動者區"},"display_name":"부포로동자구, 강령군, 황해남도, 조선민주주의인민공화국","address":{"town":"부포로동자구","county":"강령군","state":"황해남도","ISO3166-2-lvl4":"KP-05","country":"조선민주주의인민공화국","country_code":"kp"},"osm_type":"node","osm_id":8419864853,"type":"town","location":[125.593079,37.8187715],"bbox":[125.553079,37.7787715,125.633079,37.8587715]}
{"name":"북진로동자구","other_names":{"name:ja":"北鎮労働者区","name:ko":"북진로동자구","name:zh":"北鎮勞動者區","name:ko-Hani":"北鎮勞動者區","name:zh-Hans":"北镇劳动者区","name:zh-Hant":"北鎮勞動者區"},"display_name":"북진로동자구, 운산군, 평안북도, 조선민주주의인민공화국","address":{"town":"북진로동자구","county":"운산군","state":"평안북도","ISO3166-2-lvl4":"KP-03","country":"조선민주주의인민공화국","country_code":"kp"},"osm_type":"node","osm_id":11772677550,"type":"town","location":[125.7482982,40.2022103],"bbox":[125.7082982,40.1622103,125.7882982,40.2422103]}
{"name":"북창읍","other_names":{"name:de":"Pukchang","name:el":"Μπούκτσανγκ-ουπ","name:en":"Pukchang-up","name:fr":"Pukchang-up","name:ja":"北倉邑","name:ko":"북창읍","name:ru":"Пукчхан","name:zh":"北倉邑","old_name:de":"Puktschan","name:ko-Hani":"北倉邑","name:zh-Hans":"北仓邑","name:zh-Hant":"北倉邑"},"display_name":"북창읍, 북창군, 평안남도, 조선민주주의인민공화국","address":{"town":"북창읍","state":"평안남도","ISO3166-2-lvl4":"KP-02","country":"조선민주주의인민공화국","country_code":"kp"},"osm_type":"node","osm_id":1946483224,"type":"town","location":[126.3009168,39.5718561],"bbox":[126.2609168,39.5318561,126.3409168,39.6118561],"border":{"name":"북창군","other_names":{"name:en":"Pukchang County","name:fr":"Arrondissement de Pukchang","name:ja":"北倉郡","name:ko":"북창군","name:ru":"уезд Пукчхан","name:zh":"北仓郡","name:ko-Hani":"北倉郡","name:zh-Hant":"北倉郡","name:de":"Pukchang","name:el":"Μπούκτσανγκ-ουπ","old_name:de":"Puktschan","name:zh-Hans":"北仓邑","alt":"북창읍","alt:en":"Pukchang-up","alt:fr":"Pukchang-up","alt:ja":"北倉邑","alt:ko":"북창읍","alt:ru":"Пукчхан","alt:zh":"北倉邑","alt:ko-Hani":"北倉邑","alt:zh-Hant":"北倉邑"},"display_name":"북창군, 평안남도, 조선민주주의인민공화국","address":{"town":"북창군","state":"평안남도","ISO3166-2-lvl4":"KP-02","country":"조선민주주의인민공화국","country_code":"kp"},"population":139498,"osm_type":"relation","osm_id":5454281,"type":"administrative","location":[126.3009168,39.5718561],"bbox":[126.0110003,39.3975509,126.5024557,39.6761719]}}
{"name":"북청읍","other_names":{"name:el":"Μπούκτσονγκ-ουπ","name:en":"Pukchong-up","name:fr":"Pukchong-up","name:ja":"北青邑","name:ko":"북청읍","name:zh":"北靑邑","alt_name:en":"Pukch'ŏng-ŭp","name:ko-Hani":"北靑邑","name:zh-Hans":"北青邑","name:zh-Hant":"北靑邑"},"display_name":"북청읍, 북청군, 함경남도, 조선민주주의인민공화국","address":{"town":"북청읍","county":"북청군","state":"함경남도","ISO3166-2-lvl4":"KP-08","country":"조선민주주의인민공화국","country_code":"kp"},"osm_type":"node","osm_id":9141102050,"type":"town","location":[128.3136318,40.2468735],"bbox":[128.2736318,40.2068735,128.3536318,40.2868735]}
{"name":"삭주읍","other_names":{"name:el":"Σάκτσου-ουπ","name:en":"Sakju-up","name:fr":"Sakju-up","name:ja":"朔州邑","name:ko":"삭주읍","name:ru":"Сакчу","name:zh":"朔州邑","name:ko-Hani":"朔州邑","name:zh-Hans":"朔州邑","name:zh-Hant":"朔州邑"},"display_name":"삭주읍, 삭주군, 평안북도, 조선민주주의인민공화국","address":{"town":"삭주읍","county":"삭주군","state":"평안북도","ISO3166-2-lvl4":"KP-03","country":"조선민주주의인민공화국","country_code":"kp"},"osm_type":"node","osm_id":3517229134,"type":"town","location":[125.0470938,40.3873206],"bbox":[125.0070938,40.3473206,125.0870938,40.4273206]}
{"name":"삼수읍","other_names":{"name:el":"Σάμσου-ουπ","name:en":"Samsu-up","name:fa":"سامسو","name:fr":"Samsu-up","name:ja":"三水邑","name:ko":"삼수읍","name:ru":"Самсу","name:zh":"三水邑","name:ko-Hani":"三水邑","name:zh-Hans":"三水邑","name:zh-Hant":"三水邑"},"display_name":"삼수읍, 삼수군, 량강도, 조선민주주의인민공화국","address":{"town":"삼수읍","county":"삼수군","state":"량강도","ISO3166-2-lvl4":"KP-10","country":"조선민주주의인민공화국","country_code":"kp"},"osm_type":"node","osm_id":9298635204,"type":"town","location":[128.0211574,41.2958156],"bbox":[127.9811574,41.2558156,128.0611574,41.3358156]}
{"name":"삼지연시","other_names":{"name:ca":"Samjiyon","name:cs":"Samčijon","name:el":"Σάμτζιγιον","name:en":"Samjiyon","name:es":"Samjiyon","name:fa":"سامجی‌یون","name:fr":"Samjiyon","name:ja":"三池淵市","name:ko":"삼지연시","name:ru":"Самджиён","name:sk":"Samčijon","name:ko-Hani":"三池淵市","name:zh-Hans":"三池渊市","name:zh-Hant":"三池淵市"},"display_name":"삼지연시, 량강도, 조선민주주의인민공화국","address":{"town":"삼지연시","state":"량강도","ISO3166-2-lvl4":"KP-10","country":"조선민주주의인민공화국","country_code":"kp"},"osm_type":"node","osm_id":264049134,"type":"town","location":[128.3247859,41.8058062],"bbox":[128.2847859,41.7658062,128.3647859,41.8458062],"border":{"name":"삼지연시","other_names":{"name:cs":"Samčijon","name:en":"Samjiyon-si","name:fa":"شهر سامجی‌یون","name:fr":"Samjiyon-si","name:ja":"三池淵市","name:ko":"삼지연시","name:ru":"Самджиён","name:sk":"Samčijon","name:ko-Hani":"三池淵市","name:zh-Hans":"三池渊市","name:zh-Hant":"三池淵市","name:ca":"Samjiyon","name:el":"Σάμτζιγιον","name:es":"Samjiyon","alt:en":"Samjiyon","alt:fa":"سامجی‌یون","alt:fr":"Samjiyon"},"display_name":"삼지연시, 량강도, 조선민주주의인민공화국","address":{"town":"삼지연시","state":"량강도","ISO3166-2-lvl4":"KP-10","country":"조선민주주의인민공화국","country_code":"kp"},"population":31471,"osm_type":"relation","osm_id":6125006,"type":"administrative","location":[128.3247859,41.8058062],"bbox":[128.0311409,41.5682215,128.6687719,42.0371539]}}
{"name":"삼천읍","other_names":{"name:el":"Σάμτσον-ουπ","name:en":"Samchon-up","name:fr":"Samchon-up","name:ja":"三泉邑","name:ko":"삼천읍","name:ru":"Самчхон","name:zh":"三泉邑","name:ko-Hani":"三泉邑","name:zh-Hans":"三泉邑","name:zh-Hant":"三泉邑"},"display_name":"삼천읍, 삼천군, 황해남도, 조선민주주의인민공화국","address":{"town":"삼천읍","county":"삼천군","state":"황해남도","ISO3166-2-lvl4":"KP-05","country":"조선민주주의인민공화국","country_code":"kp"},"osm_type":"node","osm_id":262412431,"type":"town","location":[125.328437,38.3570999],"bbox":[125.288437,38.3170999,125.368437,38.3970999]}
{"name":"삼탄동","other_names":{"name:el":"Σάμταν-ντονγκ","name:ja":"三灘洞","name:ko":"삼탄동","name:zh":"三灘洞","name:ko-Hani":"三灘洞","name:zh-Hans":"三滩洞","name:zh-Hant":"三灘洞"},"display_name":"삼탄동, 덕천시, 평안남도, 조선민주주의인민공화국","address":{"town":"삼탄동","city":"덕천시","state":"평안남도","ISO3166-2-lvl4":"KP-02","country":"조선민주주의인민공화국","country_code":"kp"},"osm_type":"node","osm_id":9470474202,"type":"town","location":[126.3370178,39.7683171],"bbox":[126.2970178,39.7283171,126.3770178,39.8083171]}
{"name":"삼포로동자구","other_names":{"name:el":"Σάμπο-ρόντονγκτζαγκου","name:en":"Sampho Workers' District","name:ja":"三浦労働者区","name:ko":"삼포로동자구","name:zh":"三浦勞動者區","name:ko-Hani":"三浦勞動者區","name:zh-Hans":"三浦劳动者区","name:zh-Hant":"三浦勞動者區"},"display_name":"삼포로동자구, 랑림군, 자강도, 조선민주주의인민공화국","address":{"town":"삼포로동자구","county":"랑림군","state":"자강도","ISO3166-2-lvl4":"KP-04","country":"조선민주주의인민공화국","country_code":"kp"},"osm_type":"node","osm_id":10261654171,"type":"town","location":[127.1296463,41.0532285],"bbox":[127.0896463,41.0132285,127.1696463,41.0932285]}
{"name":"상농로동자구","other_names":{"name:el":"Σάνγκνονγκ-ρόντονγκτζαγκου","name:ja":"上農労働者区","name:ko":"상농로동자구","name:zh":"上農勞動者區","name:ko-Hani":"上農勞動者區","name:zh-Hans":"上农劳动者区","name:zh-Hant":"上農勞動者區"},"display_name":"상농로동자구, 허천군, 함경남도, 조선민주주의인민공화국","address":{"town":"상농로동자구","county":"허천군","state":"함경남도","ISO3166-2-lvl4":"KP-08","country":"조선민주주의인민공화국","country_code":"kp"},"osm_type":"node","osm_id":9141299325,"type":"town","location":[128.7313153,40.6032299],"bbox":[128.6913153,40.5632299,128.7713153,40.6432299]}
{"name":"상원읍","other_names":{"name:el":"Σάνγουον-ουπ","name:en":"Sangwon-up","name:fr":"Sangwon-up","name:ja":"祥原邑","name:ko":"상원읍","name:ru":"Санвон","name:zh":"祥原邑","name:ko-Hani":"祥原邑","name:zh-Hans":"祥原邑","name:zh-Hant":"祥原邑"},"display_name":"상원읍, 상원군, 황해북도, 조선민주주의인민공화국","address":{"town":"상원읍","county":"상원군","state":"황해북도","ISO3166-2-lvl4":"KP-06","country":"조선민주주의인민공화국","country_code":"kp"},"osm_type":"node","osm_id":1891299111,"type":"town","location":[126.0939931,38.8449136],"bbox":[126.0539931,38.8049136,126.1339931,38.8849136]}
{"name":"서흥읍","other_names":{"name:el":"Σόχουνγκ-ουπ","name:en":"Sohung-up","name:fr":"Sohung-up","name:ja":"瑞興邑","name:ko":"서흥읍","name:ru":"Сохын","name:zh":"瑞興邑","old_name":"신막","name:ko-Hani":"瑞興邑","name:zh-Hans":"瑞兴邑","name:zh-Hant":"瑞興邑","old_name:ko-Hani":"新幕"},"display_name":"서흥읍, 서흥군, 황해북도, 조선민주주의인민공화국","address":{"town":"서흥읍","county":"서흥군","state":"황해북도","ISO3166-2-lvl4":"KP-06","country":"조선민주주의인민공화국","country_code":"kp"},"osm_type":"node","osm_id":262413203,"type":"town","location":[126.2310784,38.4221853],"bbox":[126.1910784,38.3821853,126.2710784,38.4621853]}
{"name":"선천읍","other_names":{"name:el":"Σόντσον-ουπ","name:en":"Sonchon-up","name:fr":"Sonchon-up","name:ja":"宣川邑","name:ko":"선천읍","name:ru":"Сончхон","name:zh":"宣川邑","name:ko-Hani":"宣川邑","name:zh-Hans":"宣川邑","name:zh-Hant":"宣川邑"},"display_name":"선천읍, 선천군, 평안북도, 조선민주주의인민공화국","address":{"town":"선천읍","county":"선천군","state":"평안북도","ISO3166-2-lvl4":"KP-03","country":"조선민주주의인민공화국","country_code":"kp"},"osm_type":"node","osm_id":3706788332,"type":"town","location":[124.9181405,39.7977909],"bbox":[124.8781405,39.7577909,124.9581405,39.8377909]}
{"name":"성간읍","other_names":{"name:el":"Σόνγκαν-ουπ","name:en":"Songgan-up","name:fr":"Songgan-up","name:ja":"城干邑","name:ko":"성간읍","name:ru":"Сонган","name:zh":"城干邑","name:ko-Hani":"城干邑","name:zh-Hans":"城干邑","name:zh-Hant":"城干邑"},"display_name":"성간읍, 성간군, 자강도, 조선민주주의인민공화국","address":{"town":"성간읍","county":"성간군","state":"자강도","ISO3166-2-lvl4":"KP-04","country":"조선민주주의인민공화국","country_code":"kp"},"osm_type":"node","osm_id":3723463566,"type":"town","location":[126.560852,40.7915035],"bbox":[126.520852,40.7515035,126.600852,40.8315035]}
{"name":"성천읍","other_names":{"name:el":"Σόνγκτσον-ουπ","name:en":"Songchon-up","name:fr":"Songchon-up","name:ja":"成川邑","name:ko":"성천읍","name:ru":"Сончхон","name:zh":"成川邑","name:ko-Hani":"成川邑","name:zh-Hans":"成川邑","name:zh-Hant":"成川邑"},"display_name":"성천읍, 성천군, 평안남도, 조선민주주의인민공화국","address":{"town":"성천읍","county":"성천군","state":"평안남도","ISO3166-2-lvl4":"KP-02","country":"조선민주주의인민공화국","country_code":"kp"},"osm_type":"node","osm_id":3707778531,"type":"town","location":[126.2179104,39.2505947],"bbox":[126.1779104,39.2105947,126.2579104,39.2905947]}
{"name":"세포읍","other_names":{"name:el":"Σέπο-ουπ","name:en":"Sepo-up","name:fa":"سه‌پو","name:fr":"Sepo-up","name:ja":"洗浦邑","name:ko":"세포읍","name:ru":"Сепхо","name:zh":"洗浦邑","alt_name:en":"Sepho-up","name:ko-Hani":"洗浦邑","name:zh-Hans":"洗浦邑","name:zh-Hant":"洗浦邑"},"display_name":"세포읍, 세포군, 강원도, 조선민주주의인민공화국","address":{"town":"세포읍","county":"세포군","state":"강원도","ISO3166-2-lvl4":"KP-07","country":"조선민주주의인민공화국","country_code":"kp"},"osm_type":"node","osm_id":2506817155,"type":"town","location":[127.3584812,38.6426271],"bbox":[127.3184812,38.6026271,127.3984812,38.6826271]}
{"name":"송가로동자구","other_names":{"name:el":"Σόνγκα-ρόντονγκτζαγκου","name:ja":"松街労働者区","name:ko":"송가로동자구","name:zh":"松街勞動者區","name:ko-Hani":"松街勞動者區","name:zh-Hans":"松街劳动者区","name:zh-Hant":"松街勞動者區"},"display_name":"송가로동자구, 평양시, 조선민주주의인민공화국","address":{"town":"송가로동자구","city":"평양시","ISO3166-2-lvl4":"KP-01","country":"조선민주주의인민공화국","country_code":"kp"},"osm_type":"node","osm_id":9382321186,"type":"town","location":[126.1226624,38.9981502],"bbox":[126.0826624,38.9581502,126.1626624,39.0381502]}
{"name":"송남로동자구","other_names":{"name:ja":"松南労働者区","name:ko":"송남로동자구","name:zh":"松南勞動者區","name:ko-Hani":"松南勞動者區","name:zh-Hans":"松南劳动者区","name:zh-Hant":"松南勞動者區"},"display_name":"송남로동자구, 북창군, 평안남도, 조선민주주의인민공화국","address":{"town":"송남로동자구","state":"평안남도","ISO3166-2-lvl4":"KP-02","country":"조선민주주의인민공화국","country_code":"kp"},"osm_type":"node","osm_id":11765534534,"type":"town","location":[126.2386635,39.5279083],"bbox":[126.1986635,39.4879083,126.2786635,39.5679083]}
{"name":"송림시","other_names":{"name:el":"Σόνγκριμ","name:en":"Songnim-up","name:fr":"Songnim-up","name:ja":"松林市","name:ko":"송림시","name:nl":"Songnim","name:ru":"Сонним","name:zh":"松林市","int_name":"Songnim","name:ko-Hani":"松林市","name:zh-Hans":"松林市","name:zh-Hant":"松林市"},"display_name":"송림시, 황해북도, 조선민주주의인민공화국","address":{"town":"송림시","state":"황해북도","ISO3166-2-lvl4":"KP-06","country":"조선민주주의인민공화국","country_code":"kp"},"osm_type":"node","osm_id":262410966,"type":"town","location":[125.6460599,38.7535598],"bbox":[125.6060599,38.7135598,125.6860599,38.7935598],"border":{"name":"송림시","other_names":{"name:en":"Songnim-si","name:fr":"Arrondissement de Songnim","name:ja":"松林市","name:ko":"송림시","name:ru":"Сонним","name:zh":"松林市","name:ko-Hani":"松林市","name:zh-Hans":"松林市","name:zh-Hant":"松林市","name:el":"Σόνγκριμ","name:nl":"Songnim","int_name":"Songnim","alt:en":"Songnim-up","alt:fr":"Songnim-up"},"display_name":"송림시, 황해북도, 조선민주주의인민공화국","address":{"town":"송림시","state":"황해북도","ISO3166-2-lvl4":"KP-06","country":"조선민주주의인민공화국","country_code":"kp"},"population":128831,"osm_type":"relation","osm_id":5455401,"type":"administrative","location":[125.6460599,38.7535598],"bbox":[125.5780148,38.7012786,125.6995384,38.8291439]}}
{"name":"송원읍","other_names":{"name:el":"Σόνγουον-ουπ","name:en":"Songwon-up","name:fr":"Songwon-up","name:ja":"松原邑","name:ko":"송원읍","name:ru":"Сонвон","name:zh":"松原邑","name:ko-Hani":"松原邑","name:zh-Hans":"松原邑","name:zh-Hant":"松原邑"},"display_name":"송원읍, 송원군, 자강도, 조선민주주의인민공화국","address":{"town":"송원읍","county":"송원군","state":"자강도","ISO3166-2-lvl4":"KP-04","country":"조선민주주의인민공화국","country_code":"kp"},"osm_type":"node","osm_id":3722896848,"type":"town","location":[126.3002496,40.3711971],"bbox":[126.2602496,40.3311971,126.3402496,40.4111971]}
{"name":"송평로동자구","other_names":{"name:ja":"松坪労働者区","name:ko":"송평로동자구","name:zh":"松坪勞動者區","name:ko-Hani":"松坪勞動者區","name:zh-Hans":"松坪劳动者区","name:zh-Hant":"松坪勞動者區"},"display_name":"송평로동자구, 대관군, 평안북도, 조선민주주의인민공화국","address":{"town":"송평로동자구","county":"대관군","state":"평안북도","ISO3166-2-lvl4":"KP-03","country":"조선민주주의인민공화국","country_code":"kp"},"osm_type":"node","osm_id":12292130109,"type":"town","location":[125.1569366,40.2735667],"bbox":[125.1169366,40.2335667,125.1969366,40.3135667]}
{"name":"송화읍","other_names":{"name:el":"Σόγχουα-ουπ","name:en":"Songhwa-up","name:fr":"Songhwa-up","name:ja":"松禾邑","name:ko":"송화읍","name:ru":"Сонхва","name:zh":"松禾邑","name:ko-Hani":"松禾邑","name:zh-Hans":"松禾邑","name:zh-Hant":"松禾邑"},"display_name":"송화읍, 송화군, 황해남도, 조선민주주의인민공화국","address":{"town":"송화읍","county":"송화군","state":"황해남도","ISO3166-2-lvl4":"KP-05","country":"조선민주주의인민공화국","country_code":"kp"},"osm_type":"node","osm_id":3718818079,"type":"town","location":[125.1369428,38.3613097],"bbox":[125.0969428,38.3213097,125.1769428,38.4013097]}
{"name":"수동로동자구","other_names":{"name:el":"Σούντονγκ-ρόντονγκτζαγκου","name:en":"Sudong","name:ja":"水洞労働者区","name:ko":"수동로동자구","name:zh":"水洞勞動者區","name:ko-Hani":"水洞勞動者區","name:zh-Hans":"水洞劳动者区","name:zh-Hant":"水洞勞動者區"},"display_name":"수동로동자구, 고원군, 함경남도, 조선민주주의인민공화국","address":{"town":"수동로동자구","state":"함경남도","ISO3166-2-lvl4":"KP-08","country":"조선민주주의인민공화국","country_code":"kp"},"osm_type":"node","osm_id":9404626430,"type":"town","location":[127.0110358,39.3897959],"bbox":[126.9710358,39.3497959,127.0510358,39.4297959]}
{"name":"수안읍","other_names":{"name:el":"Σούαν-ουπ","name:en":"Suan-up","name:fr":"Suan-up","name:ja":"遂安邑","name:ko":"수안읍","name:ru":"Суан","name:zh":"遂安邑","name:ko-Hani":"遂安邑","name:zh-Hans":"遂安邑","name:zh-Hant":"遂安邑"},"display_name":"수안읍, 수안군, 황해북도, 조선민주주의인민공화국","address":{"town":"수안읍","county":"수안군","state":"황해북도","ISO3166-2-lvl4":"KP-06","country":"조선민주주의인민공화국","country_code":"kp"},"osm_type":"node","osm_id":262413665,"type":"town","location":[126.353988,38.7731498],"bbox":[126.313988,38.7331498,126.393988,38.8131498]}
{"name":"숙천읍","other_names":{"name:el":"Σούκτσον-ουπ","name:en":"Sukchon-up","name:fr":"Sukchon-up","name:ja":"粛川邑","name:ko":"숙천읍","name:nl":"Sukchon","name:ru":"Сукчхон","name:zh":"肅川邑","name:ko-Hani":"肅川邑","name:zh-Hans":"肃川邑","name:zh-Hant":"肅川邑"},"display_name":"숙천읍, 숙천군, 평안남도, 조선민주주의인민공화국","address":{"town":"숙천읍","state":"평안남도","ISO3166-2-lvl4":"KP-02","country":"조선민주주의인민공화국","country_code":"kp"},"osm_type":"node","osm_id":343731139,"type":"town","location":[125.6209592,39.4137061],"bbox":[125.5809592,39.3737061,125.6609592,39.4537061],"border":{"name":"숙천군","other_names":{"name:en":"Sukchon County","name:fr":"Arrondissement de Sukchon","name:ja":"粛川郡","name:ko":"숙천군","name:ru":"уезд Сукчхон","name:zh":"肃川郡","name:ko-Hani":"肅川郡","name:zh-Hant":"肅川郡","name:el":"Σούκτσον-ουπ","name:nl":"Sukchon","name:zh-Hans":"肃川邑","alt":"숙천읍","alt:en":"Sukchon-up","alt:fr":"Sukchon-up","alt:ja":"粛川邑","alt:ko":"숙천읍","alt:ru":"Сукчхон","alt:zh":"肅川邑","alt:ko-Hani":"肅川邑","alt:zh-Hant":"肅川邑"},"display_name":"숙천군, 평안남도, 조선민주주의인민공화국","address":{"town":"숙천군","state":"평안남도","ISO3166-2-lvl4":"KP-02","country":"조선민주주의인민공화국","country_code":"kp"},"population":178509,"osm_type":"relation","osm_id":5454106,"type":"administrative","location":[125.6209592,39.4137061],"bbox":[125.333618,39.3030129,125.7747845,39.4897924]}}
{"name":"순안","other_names":{"name:el":"Σούναν","name:en":"Sunan","name:ja":"順安","name:ru":"Сунан","name:vi":"Thuận An","name:zh":"順安","name:ko-Hani":"順安","name:zh-Hans":"顺安","name:zh-Hant":"順安"},"display_name":"순안, 순안구역, 평양시, 조선민주주의인민공화국","address":{"town":"순안","city":"평양시","ISO3166-2-lvl4":"KP-01","country":"조선민주주의인민공화국","country_code":"kp"},"osm_type":"node","osm_id":256633098,"type":"town","location":[125.6896809,39.1979825],"bbox":[125.6496809,39.1579825,125.7296809,39.2379825],"border":{"name":"순안구역","other_names":{"name:en":"Sunan District","name:ja":"順安区域","name:ko":"순안구역","name:ru":"округ Сунан","name:zh":"顺安区","name:ko-Hani":"順安區域","name:zh-Hans":"顺安区","name:zh-Hant":"順安區","name:el":"Σούναν","name:vi":"Thuận An","alt":"순안","alt:en":"Sunan","alt:ja":"順安","alt:ru":"Сунан","alt:zh":"順安","alt:ko-Hani":"順安","alt:zh-Hans":"顺安","alt:zh-Hant":"順安"},"display_name":"순안구역, 평양시, 조선민주주의인민공화국","address":{"town":"순안구역","city":"평양시","ISO3166-2-lvl4":"KP-01","country":"조선민주주의인민공화국","country_code":"kp"},"population":91791,"osm_type":"relation","osm_id":3864568,"type":"administrative","location":[125.6896809,39.1979825],"bbox":[125.6158304,39.1137741,125.779724,39.2795319]}}
{"name":"승호읍","other_names":{"name:el":"Σούνγχο-ουπ","name:ja":"勝湖邑","name:ko":"승호읍","name:zh":"勝湖邑","name:ko-Hani":"勝湖邑","name:zh-Hans":"胜湖邑","name:zh-Hant":"勝湖邑"},"display_name":"승호읍, 승호군, 황해북도, 조선민주주의인민공화국","address":{"town":"승호읍","county":"승호군","state":"황해북도","ISO3166-2-lvl4":"KP-06","country":"조선민주주의인민공화국","country_code":"kp"},"osm_type":"node","osm_id":9337516764,"type":"town","location":[125.9629953,39.0275193],"bbox":[125.9229953,38.9875193,126.0029953,39.0675193]}
{"name":"시중읍","other_names":{"name:el":"Σίτζουνγκ-ουπ","name:en":"Sijung-up","name:fr":"Sijung-up","name:ja":"時中邑","name:ko":"시중읍","name:ru":"Сиджун","name:zh":"時中邑","name:ko-Hani":"時中邑","name:zh-Hans":"时中邑","name:zh-Hant":"時中邑"},"display_name":"시중읍, 시중군, 자강도, 조선민주주의인민공화국","address":{"town":"시중읍","county":"시중군","state":"자강도","ISO3166-2-lvl4":"KP-04","country":"조선민주주의인민공화국","country_code":"kp"},"osm_type":"node","osm_id":3723463565,"type":"town","location":[126.3700109,41.0775752],"bbox":[126.3300109,41.0375752,126.4100109,41.1175752]}
{"name":"신계읍","other_names":{"name:el":"Σίνγκιε-ουπ","name:en":"Singye-up","name:fr":"Singye-up","name:ja":"新渓邑","name:ko":"신계읍","name:ru":"Синге","name:zh":"新溪邑","name:ko-Hani":"新溪邑","name:zh-Hans":"新溪邑","name:zh-Hant":"新溪邑"},"display_name":"신계읍, 신계군, 황해북도, 조선민주주의인민공화국","address":{"town":"신계읍","county":"신계군","state":"황해북도","ISO3166-2-lvl4":"KP-06","country":"조선민주주의인민공화국","country_code":"kp"},"osm_type":"node","osm_id":2933800787,"type":"town","location":[126.5309999,38.506411],"bbox":[126.4909999,38.466411,126.5709999,38.546411]}
{"name":"신단천","other_names":{"name:en":"Sintanchon","name:ja":"新端川","name:ko":"신단천","name:ru":"Синданчхон","name:zh":"新端川","name:ko-Hani":"新端川","name:zh-Hant":"新端川"},"display_name":"신단천, 단천시, 함경남도, 조선민주주의인민공화국","address":{"town":"신단천","city":"단천시","state":"함경남도","ISO3166-2-lvl4":"KP-08","country":"조선민주주의인민공화국","country_code":"kp"},"osm_type":"node","osm_id":11590939401,"type":"town","location":[128.8556356,40.4005084],"bbox":[128.8156356,40.3605084,128.8956356,40.4405084]}
{"name":"신도읍","other_names":{"name:el":"Σίντο-ουπ","name:en":"Sindo-up","name:fr":"Sindo-up","name:ja":"薪島邑","name:ko":"신도읍","name:ru":"Синдо","name:zh":"薪島邑","name:ko-Hani":"薪島邑","name:ko-Latn":"Sindo-ŭp","name:zh-Hans":"薪岛邑","name:zh-Hant":"薪島邑"},"display_name":"신도읍, 신도군, 평안북도, 조선민주주의인민공화국","address":{"town":"신도읍","county":"신도군","state":"평안북도","ISO3166-2-lvl4":"KP-03","country":"조선민주주의인민공화국","country_code":"kp"},"osm_type":"node","osm_id":3719392463,"type":"town","location":[124.2310733,39.8045453],"bbox":[124.1910733,39.7645453,124.2710733,39.8445453]}
{"name":"신북청로동자구","other_names":{"name:el":"Σίνμπουκτσονγκ-ρόντονγκτζαγκου","name:ja":"新北青労働者区","name:ko":"신북청로동자구","name:zh":"新北靑勞動者區","name:ko-Hani":"新北靑勞動者區","name:zh-Hans":"新北青劳动者区","name:zh-Hant":"新北靑勞動者區"},"display_name":"신북청로동자구, 북청군, 함경남도, 조선민주주의인민공화국","address":{"town":"신북청로동자구","county":"북청군","state":"함경남도","ISO3166-2-lvl4":"KP-08","country":"조선민주주의인민공화국","country_code":"kp"},"osm_type":"node","osm_id":9141102049,"type":"town","location":[128.3716276,40.1787824],"bbox":[128.3316276,40.1387824,128.4116276,40.2187824]}
{"name":"신산로동자구","other_names":{"name:el":"Σίνσαν-ρόντονγκτζαγκου","name:en":"Sinsallodongja-gu","name:ja":"新山労働者区","name:ko":"신산로동자구","name:zh":"新山勞動者區","name:ko-Hani":"新山勞動者區","name:zh-Hans":"新山劳动者区","name:zh-Hant":"新山勞動者區"},"display_name":"신산로동자구, 천내군, 강원도, 조선민주주의인민공화국","address":{"town":"신산로동자구","county":"천내군","state":"강원도","ISO3166-2-lvl4":"KP-07","country":"조선민주주의인민공화국","country_code":"kp"},"osm_type":"node","osm_id":9462962973,"type":"town","location":[127.1527418,39.318226],"bbox":[127.1127418,39.278226,127.1927418,39.358226]}
{"name":"신안주","other_names":{"name:el":"Σίναντζου","name:en":"Sinanju","name:ja":"新安州","name:ko":"신안주","name:zh":"新安州","name:ko-Hani":"新安州","name:zh-Hans":"新安州","name:zh-Hant":"新安州"},"display_name":"신안주, 안주시, 평안남도, 조선민주주의인민공화국","address":{"town":"신안주","city":"안주시","state":"평안남도","ISO3166-2-lvl4":"KP-02","country":"조선민주주의인민공화국","country_code":"kp"},"osm_type":"node","osm_id":7064940787,"type":"town","location":[125.6063095,39.5962839],"bbox":[125.5663095,39.5562839,125.6463095,39.6362839]}
{"name":"신양읍","other_names":{"name:el":"Σίνιανγκ-ουπ","name:en":"Sinyang-up","name:fr":"Sinyang-up","name:ja":"新陽邑","name:ko":"신양읍","name:ru":"Синъян","name:zh":"新陽邑","name:ko-Hani":"新陽邑","name:zh-Hans":"新阳邑","name:zh-Hant":"新陽邑"},"display_name":"신양읍, 신양군, 평안남도, 조선민주주의인민공화국","address":{"town":"신양읍","county":"신양군","state":"평안남도","ISO3166-2-lvl4":"KP-02","country":"조선민주주의인민공화국","country_code":"kp"},"osm_type":"node","osm_id":3707823721,"type":"town","location":[126.4540848,39.2793403],"bbox":[126.4140848,39.2393403,126.4940848,39.3193403]}
{"name":"신원로동자구","other_names":{"name:el":"Σίνουον-ρόντονγκτζαγκου","name:en":"Sinwon Workers' District","name:ja":"新院労働者区","name:ko":"신원로동자구","name:zh":"新院勞動者區","name:ko-Hani":"新院勞動者區","name:zh-Hans":"新院劳动者区","name:zh-Hant":"新院勞動者區"},"display_name":"신원로동자구, 랑림군, 자강도, 조선민주주의인민공화국","address":{"town":"신원로동자구","county":"랑림군","state":"자강도","ISO3166-2-lvl4":"KP-04","country":"조선민주주의인민공화국","country_code":"kp"},"osm_type":"node","osm_id":10261628459,"type":"town","location":[127.0180384,40.9613546],"bbox":[126.9780384,40.9213546,127.0580384,41.0013546]}
{"name":"신원읍","other_names":{"name:el":"Σίνουον-ουπ","name:en":"Sinwon-up","name:fr":"Sinwon-up","name:ja":"新院邑","name:ko":"신원읍","name:ru":"Синвон","name:zh":"新院邑","name:ko-Hani":"新院邑","name:zh-Hans":"新院邑","name:zh-Hant":"新院邑"},"display_name":"신원읍, 신원군, 황해남도, 조선민주주의인민공화국","address":{"town":"신원읍","county":"신원군","state":"황해남도","ISO3166-2-lvl4":"KP-05","country":"조선민주주의인민공화국","country_code":"kp"},"osm_type":"node","osm_id":262411583,"type":"town","location":[125.7667344,38.2350043],"bbox":[125.7267344,38.1950043,125.8067344,38.2750043]}
{"name":"신창로동자구","other_names":{"name:el":"Σίντσανγκ-ρόντονγκτζαγκου","name:en":"Sinch'ang","name:ja":"新昌（シンブク)","name:ko":"신창로동자구","name:ru":"Синчханъ","name:zh":"新昌勞動者區","name:ko-Hani":"新昌勞動者區","name:zh-Hans":"新昌劳动者区","name:zh-Hant":"新昌勞動者區"},"display_name":"신창로동자구, 북청군, 함경남도, 조선민주주의인민공화국","address":{"town":"신창로동자구","county":"북청군","state":"함경남도","ISO3166-2-lvl4":"KP-08","country":"조선민주주의인민공화국","country_code":"kp"},"osm_type":"node","osm_id":7513661272,"type":"town","location":[128.4625661,40.1312309],"bbox":[128.4225661,40.0912309,128.5025661,40.1712309]}
{"name":"신천읍","other_names":{"name:el":"Σίντσον-ουπ","name:en":"Sinchon-up","name:fr":"Sinchon-up","name:ja":"信川邑","name:ko":"신천읍","name:nl":"Sinchon","name:ru":"Синчхон","name:zh":"信川邑","name:ko-Hani":"信川邑","name:zh-Hans":"信川邑","name:zh-Hant":"信川邑"},"display_name":"신천읍, 신천군, 황해남도, 조선민주주의인민공화국","address":{"town":"신천읍","county":"신천군","state":"황해남도","ISO3166-2-lvl4":"KP-05","country":"조선민주주의인민공화국","country_code":"kp"},"osm_type":"node","osm_id":262412274,"type":"town","location":[125.4901879,38.3534289],"bbox":[125.4501879,38.3134289,125.5301879,38.3934289]}
{"name":"신평읍","other_names":{"name:el":"Σίνπιονγκ-ουπ","name:en":"Sinphyong-up","name:fr":"Sinphyong-up","name:ja":"新坪邑","name:ko":"신평읍","name:ru":"Синпхён","name:zh":"新坪邑","alt_name:en":"Sinpyong","name:ko-Hani":"新坪邑","name:zh-Hans":"新坪邑","name:zh-Hant":"新坪邑"},"display_name":"신평읍, 신평군, 황해북도, 조선민주주의인민공화국","address":{"town":"신평읍","county":"신평군","state":"황해북도","ISO3166-2-lvl4":"KP-06","country":"조선민주주의인민공화국","country_code":"kp"},"osm_type":"node","osm_id":3708485726,"type":"town","location":[126.7426162,38.8987272],"bbox":[126.7026162,38.8587272,126.7826162,38.9387272],"border":{"name":"신평군","other_names":{"name:ar":"محافظة شنبيونغ","name:en":"Sinpyong County","name:fr":"Arrondissement de Sinphyong","name:ja":"新坪郡","name:ko":"신평군","name:no":"Sinpyong","name:pl":"Sinp'yŏng","name:ru":"уезд Синпхён","name:vi":"Sinpyong","name:zh":"新坪郡","name:ko-Hani":"新坪郡","name:zh-Hans":"新坪郡","name:zh-Hant":"新坪郡"},"display_name":"신평군, 황해북도, 조선민주주의인민공화국","address":{"county":"신평군","state":"황해북도","ISO3166-2-lvl4":"KP-06","country":"조선민주주의인민공화국","country_code":"kp"},"population":63727,"osm_type":"relation","osm_id":5455454,"type":"administrative","location":[126.75511623872042,38.95653045],"bbox":[126.4726184,38.7395436,127.0278954,39.1727474]}}
{"name":"신흥로동자구","other_names":{"name:el":"Σίνχουνγκ-ρόντονγκτζαγκου","name:en":"Sinhŭng-rodongjagu","name:ja":"新興労働者区","name:ko":"신흥로동자구","name:zh":"新興勞動者區","name:ko-Hani":"新興勞動者區","name:ko-Latn":"Sinhŭng-rodongjagu","name:zh-Hans":"新兴劳动者区","name:zh-Hant":"新興勞動者區"},"display_name":"신흥로동자구, 청단군, 황해남도, 조선민주주의인민공화국","address":{"town":"신흥로동자구","county":"청단군","state":"황해남도","ISO3166-2-lvl4":"KP-05","country":"조선민주주의인민공화국","country_code":"kp"},"osm_type":"node","osm_id":8423121501,"type":"town","location":[125.8588871,37.9825304],"bbox":[125.8188871,37.9425304,125.8988871,38.0225304]}
{"name":"신흥읍","other_names":{"name:el":"Σίνχουνγκ-ουπ","name:en":"Sinhung-up","name:fr":"Sinhung-up","name:ja":"新興邑","name:ko":"신흥읍","name:ru":"Синхын","name:zh":"新興邑","alt_name:en":"Sinhŭng-ŭp","name:ko-Hani":"新興邑","name:zh-Hans":"新兴邑","name:zh-Hant":"新興邑"},"display_name":"신흥읍, 신흥군, 함경남도, 조선민주주의인민공화국","address":{"town":"신흥읍","county":"신흥군","state":"함경남도","ISO3166-2-lvl4":"KP-08","country":"조선민주주의인민공화국","country_code":"kp"},"osm_type":"node","osm_id":1271150255,"type":"town","location":[127.5531411,40.191773],"bbox":[127.5131411,40.151773,127.5931411,40.231773]}
{"name":"안변읍","other_names":{"name:el":"Άνμπιον-ουπ","name:en":"Anbyon-up","name:fa":"آن‌بیون","name:fr":"Anbyon-up","name:ja":"安辺邑","name:ko":"안변읍","name:ru":"Анбён","name:zh":"安邊邑","name:ko-Hani":"安邊邑","name:zh-Hans":"安边邑","name:zh-Hant":"安邊邑"},"display_name":"안변읍, 안변군, 강원도, 조선민주주의인민공화국","address":{"town":"안변읍","county":"안변군","state":"강원도","ISO3166-2-lvl4":"KP-07","country":"조선민주주의인민공화국","country_code":"kp"},"osm_type":"node","osm_id":5668528422,"type":"town","location":[127.5253808,39.0432862],"bbox":[127.4853808,39.0032862,127.5653808,39.0832862]}
{"name":"안악읍","other_names":{"name:el":"Άνακ-ουπ","name:en":"Anak-up","name:fr":"Anak-up","name:ja":"安岳邑","name:ko":"안악읍","name:ru":"Анак","name:zh":"安岳邑","name:ko-Hani":"安岳邑","name:zh-Hans":"安岳邑","name:zh-Hant":"安岳邑"},"display_name":"안악읍, 안악군, 황해남도, 조선민주주의인민공화국","address":{"town":"안악읍","county":"안악군","state":"황해남도","ISO3166-2-lvl4":"KP-05","country":"조선민주주의인민공화국","country_code":"kp"},"osm_type":"node","osm_id":2939062118,"type":"town","location":[125.492778,38.5080258],"bbox":[125.452778,38.4680258,125.532778,38.5480258]}
{"name":"앞강로동자구","other_names":{"name:el":"Άπκανγκ-ρόντονγκτζαγκου","name:en":"Apgangnodongja-gu","name:ja":"前江労働者区","name:ko":"앞강로동자구","name:zh":"前江勞動者區","name:ko-Hani":"前江勞動者區","name:zh-Hans":"前江劳动者区","name:zh-Hant":"前江勞動者區"},"display_name":"앞강로동자구, 안변군, 강원도, 조선민주주의인민공화국","address":{"town":"앞강로동자구","county":"안변군","state":"강원도","ISO3166-2-lvl4":"KP-07","country":"조선민주주의인민공화국","country_code":"kp"},"osm_type":"node","osm_id":9458391705,"type":"town","location":[127.5011015,39.0426529],"bbox":[127.4611015,39.0026529,127.5411015,39.0826529]}
{"name":"양덕읍","other_names":{"name:el":"Γιάνγκντοκ-ουπ","name:en":"Yangdok-up","name:fr":"Yangdok-up","name:ja":"陽徳邑","name:ko":"양덕읍","name:ru":"Яндок","name:uk":"Яндок","name:zh":"陽德邑","name:ko-Hani":"陽德邑","name:zh-Hans":"阳德邑","name:zh-Hant":"陽德邑"},"display_name":"양덕읍, 양덕군, 평안남도, 조선민주주의인민공화국","address":{"town":"양덕읍","state":"평안남도","ISO3166-2-lvl4":"KP-02","country":"조선민주주의인민공화국","country_code":"kp"},"osm_type":"node","osm_id":1895965640,"type":"town","location":[126.6473243,39.2198812],"bbox":[126.6073243,39.1798812,126.6873243,39.2598812],"border":{"name":"양덕군","other_names":{"name:en":"Yangdok County","name:fr":"Arrondissement de Yangdok","name:ja":"陽徳郡","name:ko":"양덕군","name:ru":"уезд Яндок","name:uk":"Яндок повіт","name:zh":"阳德郡","name:ko-Hani":"陽德郡","name:zh-Hant":"陽德郡","name:el":"Γιάνγκντοκ-ουπ","name:zh-Hans":"阳德邑","alt":"양덕읍","alt:en":"Yangdok-up","alt:fr":"Yangdok-up","alt:ja":"陽徳邑","alt:ko":"양덕읍","alt:ru":"Яндок","alt:uk":"Яндок","alt:zh":"陽德邑","alt:ko-Hani":"陽德邑","alt:zh-Hant":"陽德邑"},"display_name":"양덕군, 평안남도, 조선민주주의인민공화국","address":{"town":"양덕군","state":"평안남도","ISO3166-2-lvl4":"KP-02","country":"조선민주주의인민공화국","country_code":"kp"},"population":61355,"osm_type":"relation","osm_id":5454334,"type":"administrative","location":[126.6473243,39.2198812],"bbox":[126.5595595,39.0407361,127.0763575,39.3394396]}}
{"name":"어궁로동자구","other_names":{"name:en":"Ŏgung Workers District","name:ja":"御宮労働者区","name:ko":"어궁로동자구","name:zh":"御宮勞動者區","alt_name:ko":"어궁로동자구","name:ko-Hani":"御宮勞動者區","name:zh-Hans":"御宫劳动者区","name:zh-Hant":"御宮勞動者區","alt_name:ko-Latn":"Eogungrodongjagu"},"display_name":"어궁로동자구, 천마군, 평안북도, 조선민주주의인민공화국","address":{"town":"어궁로동자구","county":"천마군","state":"평안북도","ISO3166-2-lvl4":"KP-03","country":"조선민주주의인민공화국","country_code":"kp"},"osm_type":"node","osm_id":11493071610,"type":"town","location":[124.9677669,40.1005442],"bbox":[124.9277669,40.0605442,125.0077669,40.1405442]}
{"name":"어대진로동자구","other_names":{"name:el":"Όντετζιν-ρόντονγκτζαγκου","name:ja":"漁大津労働者区","name:ko":"어대진로동자구","name:ru":"Одэджин","name:zh":"漁大津勞動者區","name:ko-Hani":"漁大津勞動者區","name:zh-Hans":"渔大津劳动者区","name:zh-Hant":"漁大津勞動者區"},"display_name":"어대진로동자구, 어랑군, 함경북도, 조선민주주의인민공화국","address":{"town":"어대진로동자구","county":"어랑군","state":"함경북도","ISO3166-2-lvl4":"KP-09","country":"조선민주주의인민공화국","country_code":"kp"},"osm_type":"node","osm_id":9141064176,"type":"town","location":[129.7709735,41.3800473],"bbox":[129.7309735,41.3400473,129.8109735,41.4200473]}
{"name":"어랑읍","other_names":{"name:el":"Όρανγκ-ουπ","name:en":"Orang-up","name:fr":"Orang-up","name:ja":"漁郞邑","name:ko":"어랑읍","name:ru":"Оран","name:zh":"漁郎邑","int_name":"Orang","alt_name:ru":"Хвемун","name:ko-Hani":"漁郞邑","name:zh-Hans":"渔郞邑","name:zh-Hant":"漁郎邑"},"display_name":"어랑읍, 어랑군, 함경북도, 조선민주주의인민공화국","address":{"town":"어랑읍","county":"어랑군","state":"함경북도","ISO3166-2-lvl4":"KP-09","country":"조선민주주의인민공화국","country_code":"kp"},"osm_type":"node","osm_id":256632539,"type":"town","location":[129.6585074,41.4494083],"bbox":[129.6185074,41.4094083,129.6985074,41.4894083]}
{"name":"연사읍","other_names":{"name:el":"Γιόνσα-ουπ","name:en":"Yonsa-up","name:fr":"Yonsa-up","name:ja":"延社邑","name:ko":"연사읍","name:ru":"Йонса","name:zh":"延社邑","name:ko-Hani":"延社邑","name:zh-Hans":"延社邑","name:zh-Hant":"延社邑"},"display_name":"연사읍, 연사군, 함경북도, 조선민주주의인민공화국","address":{"town":"연사읍","county":"연사군","state":"함경북도","ISO3166-2-lvl4":"KP-09","country":"조선민주주의인민공화국","country_code":"kp"},"osm_type":"node","osm_id":2104764129,"type":"town","location":[129.0092442,41.9069523],"bbox":[128.9692442,41.8669523,129.0492442,41.9469523]}
{"name":"연산읍","other_names":{"name:el":"Γιόνσαν-ουπ","name:en":"Yonsan-up","name:fr":"Yonsan-up","name:ja":"延山邑","name:ko":"연산읍","name:ru":"Йонсан","name:zh":"延山邑","name:ko-Hani":"延山邑","name:zh-Hans":"延山邑","name:zh-Hant":"延山邑"},"display_name":"연산읍, 연산군, 황해북도, 조선민주주의인민공화국","address":{"town":"연산읍","county":"연산군","state":"황해북도","ISO3166-2-lvl4":"KP-06","country":"조선민주주의인민공화국","country_code":"kp"},"osm_type":"node","osm_id":262413564,"type":"town","location":[126.256656,38.8717163],"bbox":[126.216656,38.8317163,126.296656,38.9117163]}
{"name":"연안읍","other_names":{"name:el":"Γιόναν-ουπ","name:en":"Yonan-up","name:fr":"Yonan-up","name:ja":"延安邑","name:ko":"연안읍","name:ru":"Йонан","name:zh":"延安邑","name:ko-Hani":"延安邑","name:ko-Latn":"Yeon-an","name:zh-Hans":"延安邑","name:zh-Hant":"延安邑"},"display_name":"연안읍, 연안군, 황해남도, 조선민주주의인민공화국","address":{"town":"연안읍","county":"연안군","state":"황해남도","ISO3166-2-lvl4":"KP-05","country":"조선민주주의인민공화국","country_code":"kp"},"population":23158,"osm_type":"node","osm_id":1248207921,"type":"town","location":[126.1602107,37.9075884],"bbox":[126.1202107,37.8675884,126.2002107,37.9475884],"border":{"name":"연안군","other_names":{"name:en":"Yonan County","name:fr":"Arrondissement de Yonan","name:ja":"延安郡","name:ko":"연안군","name:ru":"уезд Йонан","name:uk":"Йонан","name:zh":"延安郡","name:ko-Hani":"延安郡","name:zh-Hans":"延安郡","name:zh-Hant":"延安郡"},"display_name":"연안군, 황해남도, 조선민주주의인민공화국","address":{"county":"연안군","state":"황해남도","ISO3166-2-lvl4":"KP-05","country":"조선민주주의인민공화국","country_code":"kp"},"population":158845,"osm_type":"relation","osm_id":5469278,"type":"administrative","location":[126.09139838797589,37.87300875],"bbox":[125.9588149,37.6583268,126.2280251,38.0877395]}}
{"name":"연탄읍","other_names":{"name:el":"Γιόνταν-ουπ","name:en":"Yontan-up","name:fr":"Yontan-up","name:ja":"燕灘邑","name:ko":"연탄읍","name:ru":"Йонтхан","name:zh":"燕灘邑","alt_name:en":"Yonthan-up","name:ko-Hani":"燕灘邑","name:zh-Hans":"燕滩邑","name:zh-Hant":"燕灘邑"},"display_name":"연탄읍, 연탄군, 황해북도, 조선민주주의인민공화국","address":{"town":"연탄읍","county":"연탄군","state":"황해북도","ISO3166-2-lvl4":"KP-06","country":"조선민주주의인민공화국","country_code":"kp"},"osm_type":"node","osm_id":3708440872,"type":"town","location":[125.9786046,38.6247166],"bbox":[125.9386046,38.5847166,126.0186046,38.6647166]}
{"name":"염주읍","other_names":{"name:el":"Γιόμτζου-ουπ","name:en":"Yomju-up","name:fr":"Yomju-up","name:ja":"塩州邑","name:ko":"염주읍","name:ru":"Йомджу","name:zh":"鹽州邑","name:ko-Hani":"鹽州邑","name:zh-Hans":"盐州邑","name:zh-Hant":"鹽州邑"},"display_name":"염주읍, 염주군, 평안북도, 조선민주주의인민공화국","address":{"town":"염주읍","county":"염주군","state":"평안북도","ISO3166-2-lvl4":"KP-03","country":"조선민주주의인민공화국","country_code":"kp"},"osm_type":"node","osm_id":2288051472,"type":"town","location":[124.6018032,39.8957672],"bbox":[124.5618032,39.8557672,124.6418032,39.9357672]}
{"name":"영광읍","other_names":{"name:el":"Γιόνγκουανγκ-ουπ","name:en":"Yonggwang-up","name:fr":"Yonggwang-up","name:ja":"栄光邑","name:ko":"영광읍","name:zh":"榮光邑","alt_name:en":"Yŏnggwang-ŭp","name:ko-Hani":"榮光邑","name:zh-Hans":"荣光邑","name:zh-Hant":"榮光邑"},"display_name":"영광읍, 영광군, 함경남도, 조선민주주의인민공화국","address":{"town":"영광읍","county":"영광군","state":"함경남도","ISO3166-2-lvl4":"KP-08","country":"조선민주주의인민공화국","country_code":"kp"},"osm_type":"node","osm_id":9357282910,"type":"town","location":[127.4583479,40.0177176],"bbox":[127.4183479,39.9777176,127.4983479,40.0577176]}
{"name":"옥평동","other_names":{"name:el":"Όκπιονγκ-ντονγκ","name:en":"Okpyeong","name:ja":"玉坪洞","name:ko":"옥평동","name:zh":"玉坪洞","name:ko-Hani":"玉坪洞","name:zh-Hant":"玉坪洞"},"display_name":"옥평동, 문천시, 강원도, 조선민주주의인민공화국","address":{"town":"옥평동","city":"문천시","state":"강원도","ISO3166-2-lvl4":"KP-07","country":"조선민주주의인민공화국","country_code":"kp"},"osm_type":"node","osm_id":9462861747,"type":"town","location":[127.3015001,39.2862817],"bbox":[127.2615001,39.2462817,127.3415001,39.3262817]}
{"name":"온성읍","other_names":{"name:el":"Όνσονγκ-ουπ","name:en":"Onsong-up","name:fr":"Onsong-up","name:ja":"穏城邑","name:ko":"온성읍","name:ru":"Онсон","name:zh":"穩城邑","alt_name":"Onsŏng","name:ko-Hani":"穩城邑","name:ko-Latn":"Onsong","name:zh-Hans":"稳城邑","name:zh-Hant":"穩城邑"},"display_name":"온성읍, 온성군, 함경북도, 조선민주주의인민공화국","address":{"town":"온성읍","county":"온성군","state":"함경북도","ISO3166-2-lvl4":"KP-09","country":"조선민주주의인민공화국","country_code":"kp"},"osm_type":"node","osm_id":2096293438,"type":"town","location":[129.9896419,42.9575957],"bbox":[129.9496419,42.9175957,130.0296419,42.9975957]}
{"name":"온천리","other_names":{"name:en":"Oncheon-ri","name:ko":"온천리","alt_name:en":"Onp’ung","name:ko-Latn":"Oncheonri"},"display_name":"온천리, 삭주군, 평안북도, 조선민주주의인민공화국","address":{"town":"온천리","county":"삭주군","state":"평안북도","ISO3166-2-lvl4":"KP-03","country":"조선민주주의인민공화국","country_code":"kp"},"osm_type":"node","osm_id":11493150519,"type":"town","location":[125.063822,40.3216449],"bbox":[125.023822,40.2816449,125.103822,40.3616449]}
{"name":"온천읍","other_names":{"name:el":"Όντσον-ουπ","name:en":"Onchon-up","name:fr":"Onchon-up","name:ja":"温泉邑","name:ko":"온천읍","name:ru":"Ончхон","name:zh":"溫泉邑","name:ko-Hani":"溫泉邑","name:zh-Hans":"温泉邑","name:zh-Hant":"溫泉邑"},"display_name":"온천읍, 남포시, 조선민주주의인민공화국","address":{"town":"온천읍","city":"남포시","ISO3166-2-lvl4":"KP-14","country":"조선민주주의인민공화국","country_code":"kp"},"osm_type":"node","osm_id":3707703930,"type":"town","location":[125.2264601,38.8788561],"bbox":[125.1864601,38.8388561,125.2664601,38.9188561]}
{"name":"옹진로동자구","other_names":{"name:el":"Όνγκτζιν-ρόντονγκτζαγκου","name:ja":"甕津労働者区","name:ko":"옹진로동자구","name:zh":"甕津勞動者區","name:ko-Hani":"甕津勞動者區","name:zh-Hans":"瓮津劳动者区","name:zh-Hant":"甕津勞動者區"},"display_name":"옹진로동자구, 옹진군, 황해남도, 조선민주주의인민공화국","address":{"town":"옹진로동자구","state":"황해남도","ISO3166-2-lvl4":"KP-05","country":"조선민주주의인민공화국","country_code":"kp"},"osm_type":"node","osm_id":10221308857,"type":"town","location":[125.3691871,37.9557754],"bbox":[125.3291871,37.9157754,125.4091871,37.9957754]}
{"name":"옹진읍","other_names":{"name:el":"Όνγκτζιν-ουπ","name:en":"Ongjin-up","name:fr":"Ongjin-up","name:ja":"甕津邑","name:ko":"옹진읍","name:ru":"Онджин","name:zh":"甕津邑","int_name":"Ongjin","name:ko-Hani":"甕津邑","name:ko-Latn":"Ongjin","name:zh-Hans":"瓮津邑","name:zh-Hant":"甕津邑"},"display_name":"옹진읍, 옹진군, 황해남도, 조선민주주의인민공화국","address":{"town":"옹진읍","state":"황해남도","ISO3166-2-lvl4":"KP-05","country":"조선민주주의인민공화국","country_code":"kp"},"osm_type":"node","osm_id":264045740,"type":"town","location":[125.3634999,37.9345908],"bbox":[125.3234999,37.8945908,125.4034999,37.9745908],"border":{"name":"옹진군","other_names":{"name:en":"Onjin County","name:fr":"Arrondissement de Ongjin","name:ja":"甕津郡","name:ko":"옹진군","name:ru":"уезд Онджин","name:zh":"甕津郡","name:ko-Hani":"甕津郡","name:zh-Hans":"瓮津郡","name:zh-Hant":"甕津郡","name:el":"Όνγκτζιν-ουπ","int_name":"Ongjin","name:ko-Latn":"Ongjin","alt":"옹진읍","alt:en":"Ongjin-up","alt:fr":"Ongjin-up","alt:ja":"甕津邑","alt:ko":"옹진읍","alt:ru":"Онджин","alt:zh":"甕津邑","alt:ko-Hani":"甕津邑","alt:zh-Hans":"瓮津邑","alt:zh-Hant":"甕津邑"},"display_name":"옹진군, 황해남도, 조선민주주의인민공화국","address":{"town":"옹진군","state":"황해남도","ISO3166-2-lvl4":"KP-05","country":"조선민주주의인민공화국","country_code":"kp"},"population":152878,"osm_type":"relation","osm_id":5469325,"type":"administrative","location":[125.3634999,37.9345908],"bbox":[124.8499999,37.6873674,125.4611427,38.074068]}}
{"name":"요덕읍","other_names":{"name:el":"Γιόντοκ-ουπ","name:en":"Yodok-up","name:fr":"Yodok-up","name:ja":"耀徳邑","name:ko":"요덕읍","name:ru":"Йодок","name:zh":"耀德邑","alt_name:en":"Yodok","name:ko-Hani":"耀德邑","name:zh-Hans":"耀德邑","name:zh-Hant":"耀德邑"},"display_name":"요덕읍, 요덕군, 함경남도, 조선민주주의인민공화국","address":{"town":"요덕읍","county":"요덕군","state":"함경남도","ISO3166-2-lvl4":"KP-08","country":"조선민주주의인민공화국","country_code":"kp"},"osm_type":"node","osm_id":2036276746,"type":"town","location":[126.8409369,39.6103185],"bbox":[126.8009369,39.5703185,126.8809369,39.6503185]}
{"name":"우시읍","other_names":{"name:el":"Ούσι-ουπ","name:en":"Usi-up","name:fr":"Usi-up","name:ja":"雩時邑","name:ko":"우시읍","name:ru":"Уси","name:zh":"雩時邑","name:ko-Hani":"雩時邑","name:zh-Hans":"雩时邑","name:zh-Hant":"雩時邑"},"display_name":"우시읍, 우시군, 자강도, 조선민주주의인민공화국","address":{"town":"우시읍","county":"우시군","state":"자강도","ISO3166-2-lvl4":"KP-04","country":"조선민주주의인민공화국","country_code":"kp"},"osm_type":"node","osm_id":3722851085,"type":"town","location":[125.663761,40.6763632],"bbox":[125.623761,40.6363632,125.703761,40.7163632]}
{"name":"운산읍","other_names":{"name:el":"Ούνσαν-ουπ","name:en":"Unsan-up","name:fr":"Unsan-up","name:ja":"雲山邑","name:ko":"운산읍","name:ru":"Унсан","name:uk":"Инсан","name:zh":"雲山邑","name:ko-Hani":"雲山邑","name:zh-Hans":"云山邑","name:zh-Hant":"雲山邑"},"display_name":"운산읍, 운산군, 평안북도, 조선민주주의인민공화국","address":{"town":"운산읍","county":"운산군","state":"평안북도","ISO3166-2-lvl4":"KP-03","country":"조선민주주의인민공화국","country_code":"kp"},"osm_type":"node","osm_id":3706983721,"type":"town","location":[125.9007447,40.1117755],"bbox":[125.8607447,40.0717755,125.9407447,40.1517755],"border":{"name":"운산군","other_names":{"name:en":"Unsan County","name:fr":"Arrondissement de Unsan","name:ja":"雲山郡","name:ko":"운산군","name:ru":"уезд Унсан","name:uk":"Инсан","name:zh":"云山郡","name:ko-Hani":"雲山郡","name:zh-Hant":"雲山郡"},"display_name":"운산군, 평안북도, 조선민주주의인민공화국","address":{"county":"운산군","state":"평안북도","ISO3166-2-lvl4":"KP-03","country":"조선민주주의인민공화국","country_code":"kp"},"population":102928,"osm_type":"relation","osm_id":5453133,"type":"administrative","location":[125.7985688107708,40.08801215],"bbox":[125.6109066,39.8972212,126.0004538,40.2788709]}}
{"name":"운양동","other_names":{"name:ar":"حي أونيانغ","name:el":"Ούνιανγκ-ντονγκ","name:en":"Unyang-dong","name:ja":"雲陽洞","name:ko":"운양동","name:zh":"雲陽洞","name:ko-Hani":"雲陽洞","name:zh-Hans":"云阳洞","name:zh-Hant":"雲陽洞"},"display_name":"운양동, 구성시, 평안북도, 조선민주주의인민공화국","address":{"town":"운양동","city":"구성시","state":"평안북도","ISO3166-2-lvl4":"KP-03","country":"조선민주주의인민공화국","country_code":"kp"},"osm_type":"node","osm_id":8076489814,"type":"town","location":[125.211796,39.9086713],"bbox":[125.171796,39.8686713,125.251796,39.9486713]}
{"name":"운전읍","other_names":{"name:el":"Ούντζον-ουπ","name:en":"Unjon-up","name:fr":"Unjon-up","name:ja":"雲田邑","name:ko":"운전읍","name:ru":"Унджон","name:zh":"雲田邑","name:ko-Hani":"雲田邑","name:zh-Hans":"云田邑","name:zh-Hant":"雲田邑"},"display_name":"운전읍, 운전군, 평안북도, 조선민주주의인민공화국","address":{"town":"운전읍","county":"운전군","state":"평안북도","ISO3166-2-lvl4":"KP-03","country":"조선민주주의인민공화국","country_code":"kp"},"osm_type":"node","osm_id":3706928752,"type":"town","location":[125.5191904,39.6641919],"bbox":[125.4791904,39.6241919,125.5591904,39.7041919]}
{"name":"운흥읍","other_names":{"name:el":"Ούνχουνγκ-ουπ","name:en":"Unhung-up","name:fa":"اونهونگ","name:fr":"Unhung-up","name:ja":"雲興邑","name:ko":"운흥읍","name:ru":"Унхын","name:zh":"雲興邑","alt_name:en":"Unhŭng-ŭp","name:ko-Hani":"雲興邑","name:zh-Hans":"云兴邑","name:zh-Hant":"雲興邑"},"display_name":"운흥읍, 운흥군, 량강도, 조선민주주의인민공화국","address":{"town":"운흥읍","county":"운흥군","state":"량강도","ISO3166-2-lvl4":"KP-10","country":"조선민주주의인민공화국","country_code":"kp"},"osm_type":"node","osm_id":9141288817,"type":"town","location":[128.5000466,41.3048509],"bbox":[128.4600466,41.2648509,128.5400466,41.3448509]}
{"name":"원정동","other_names":{"name:el":"Ουόντζονγκ-ντονγκ","name:en":"Wŏnjŏng-dong","name:ja":"元汀洞","name:ko":"원정동","name:ru":"Вонджон","name:zh":"元汀洞","name:ko-Hani":"元汀洞","name:ko-Latn":"Wŏnjŏng-dong","name:zh-Hans":"元汀洞","name:zh-Hant":"元汀洞"},"display_name":"원정동, 라선시, 조선민주주의인민공화국","address":{"town":"원정동","city":"라선시","ISO3166-2-lvl4":"KP-13","country":"조선민주주의인민공화국","country_code":"kp"},"osm_type":"node","osm_id":2094228933,"type":"town","location":[130.5038202,42.5767206],"bbox":[130.4638202,42.5367206,130.5438202,42.6167206]}
{"name":"위원읍","other_names":{"name:el":"Ουίουον-ουπ","name:en":"Wiwon-up","name:fr":"Wiwon-up","name:ja":"渭原邑","name:ko":"위원읍","name:ru":"Вивон","name:zh":"渭原邑","name:ko-Hani":"渭原邑","name:zh-Hans":"渭原邑","name:zh-Hant":"渭原邑"},"display_name":"위원읍, 위원군, 자강도, 조선민주주의인민공화국","address":{"town":"위원읍","county":"위원군","state":"자강도","ISO3166-2-lvl4":"KP-04","country":"조선민주주의인민공화국","country_code":"kp"},"osm_type":"node","osm_id":3723463563,"type":"town","location":[125.969014,40.898435],"bbox":[125.929014,40.858435,126.009014,40.938435]}
{"name":"은률읍","other_names":{"name:el":"Ούνριουλ-ουπ","name:en":"Unryul-up","name:fr":"Unryul-up","name:ja":"殷栗邑","name:ko":"은률읍","name:ru":"Ыллюль","name:zh":"殷栗邑","alt_name:en":"Unnyun-up","name:ko-Hani":"殷栗邑","name:zh-Hans":"殷栗邑","name:zh-Hant":"殷栗邑"},"display_name":"은률읍, 은률군, 황해남도, 조선민주주의인민공화국","address":{"town":"은률읍","county":"은률군","state":"황해남도","ISO3166-2-lvl4":"KP-05","country":"조선민주주의인민공화국","country_code":"kp"},"osm_type":"node","osm_id":3718811923,"type":"town","location":[125.1895747,38.5122035],"bbox":[125.1495747,38.4722035,125.2295747,38.5522035]}
{"name":"은산읍","other_names":{"name:el":"Ούνσαν-ουπ","name:en":"Unsan-up","name:fr":"Unsan-up","name:ja":"殷山邑","name:ko":"은산읍","name:ru":"Ынсан","name:uk":"Инсан","name:zh":"殷山邑","name:ko-Hani":"殷山邑","name:zh-Hans":"殷山邑","name:zh-Hant":"殷山邑"},"display_name":"은산읍, 은산군, 평안남도, 조선민주주의인민공화국","address":{"town":"은산읍","county":"은산군","state":"평안남도","ISO3166-2-lvl4":"KP-02","country":"조선민주주의인민공화국","country_code":"kp"},"osm_type":"node","osm_id":3707771307,"type":"town","location":[126.0162778,39.3955685],"bbox":[125.9762778,39.3555685,126.0562778,39.4355685],"border":{"name":"은산군","other_names":{"name:en":"Unsan County","name:fr":"Arrondissement de Unsan","name:ja":"殷山郡","name:ko":"은산군","name:ru":"уезд Ынсан","name:uk":"Инсан","name:zh":"殷山郡","name:ko-Hani":"殷山郡","name:zh-Hans":"殷山郡","name:zh-Hant":"殷山郡"},"display_name":"은산군, 평안남도, 조선민주주의인민공화국","address":{"county":"은산군","state":"평안남도","ISO3166-2-lvl4":"KP-02","country":"조선민주주의인민공화국","country_code":"kp"},"population":206407,"osm_type":"relation","osm_id":5454295,"type":"administrative","location":[126.0897876553358,39.37138735],"bbox":[125.9237158,39.2193542,126.3638364,39.5234146]}}
{"name":"은천읍","other_names":{"name:el":"Ούντσον-ουπ","name:en":"Unchon-up","name:fr":"Unchon-up","name:ja":"銀泉邑","name:ko":"은천읍","name:ru":"Ынчхон","name:zh":"銀泉邑","name:ko-Hani":"銀泉邑","name:zh-Hans":"银泉邑","name:zh-Hant":"銀泉邑"},"display_name":"은천읍, 은천군, 황해남도, 조선민주주의인민공화국","address":{"town":"은천읍","county":"은천군","state":"황해남도","ISO3166-2-lvl4":"KP-05","country":"조선민주주의인민공화국","country_code":"kp"},"osm_type":"node","osm_id":2939056982,"type":"town","location":[125.4300093,38.5667565],"bbox":[125.3900093,38.5267565,125.4700093,38.6067565]}
{"name":"은파읍","other_names":{"name:el":"Ούνπα-ουπ","name:en":"Unpa-up","name:fr":"Unpa-up","name:ja":"銀波邑","name:ko":"은파읍","name:ru":"Ынпха","name:zh":"銀波邑","alt_name:en":"Unpha-up","name:ko-Hani":"銀波邑","name:zh-Hans":"银波邑","name:zh-Hant":"銀波邑"},"display_name":"은파읍, 은파군, 황해북도, 조선민주주의인민공화국","address":{"town":"은파읍","county":"은파군","state":"황해북도","ISO3166-2-lvl4":"KP-06","country":"조선민주주의인민공화국","country_code":"kp"},"osm_type":"node","osm_id":262411443,"type":"town","location":[125.7931647,38.408138],"bbox":[125.7531647,38.368138,125.8331647,38.448138]}
{"name":"의주읍","other_names":{"name:el":"Ούιτζου-ουπ","name:en":"Uiju-up","name:fr":"Uiju-up","name:ja":"義州邑","name:ko":"의주읍","name:ru":"Ыйджу","name:uk":"Ийджу","name:zh":"義州邑","name:ko-Hani":"義州邑","name:zh-Hans":"义州邑","name:zh-Hant":"義州邑"},"display_name":"의주읍, 의주군, 평안북도, 조선민주주의인민공화국","address":{"town":"의주읍","county":"의주군","state":"평안북도","ISO3166-2-lvl4":"KP-03","country":"조선민주주의인민공화국","country_code":"kp"},"osm_type":"node","osm_id":2446445320,"type":"town","location":[124.5311299,40.1977187],"bbox":[124.4911299,40.1577187,124.5711299,40.2377187],"border":{"name":"의주군","other_names":{"name:en":"Uiju County","name:fr":"Arrondissement de Uiju","name:ja":"義州郡","name:ko":"의주군","name:ru":"уезд Ыйджу","name:uk":"Ийджу","name:zh":"義州郡","name:ko-Hani":"義州郡","name:zh-Hans":"义州郡","name:zh-Hant":"義州郡"},"display_name":"의주군, 평안북도, 조선민주주의인민공화국","address":{"county":"의주군","state":"평안북도","ISO3166-2-lvl4":"KP-03","country":"조선민주주의인민공화국","country_code":"kp"},"population":110018,"osm_type":"relation","osm_id":5452597,"type":"administrative","location":[124.66612202146624,40.2108696],"bbox":[124.4830568,40.1072883,124.8294287,40.3148795]}}
{"name":"이천읍","other_names":{"name:el":"Ίτσον-ουπ","name:en":"Ichon-up","name:fa":"ایچون","name:fr":"Ichon-up","name:ja":"伊川邑","name:ko":"이천읍","name:ru":"Ичхон","name:zh":"伊川邑","name:ko-Hani":"伊川邑","name:ko-Latn":"Ich'ŏn","name:zh-Hans":"伊川邑","name:zh-Hant":"伊川邑"},"display_name":"이천읍, 이천군, 강원도, 조선민주주의인민공화국","address":{"town":"이천읍","county":"이천군","state":"강원도","ISO3166-2-lvl4":"KP-07","country":"조선민주주의인민공화국","country_code":"kp"},"osm_type":"node","osm_id":414078628,"type":"town","location":[126.8853896,38.4897015],"bbox":[126.8453896,38.4497015,126.9253896,38.5297015]}
{"name":"인포로동자구","other_names":{"name:ja":"仁浦労働者区","name:ko":"인포로동자구","name:zh":"仁浦勞動者區","name:ko-Hani":"仁浦勞動者區","name:zh-Hans":"仁浦劳动者区","name:zh-Hant":"仁浦勞動者區"},"display_name":"인포로동자구, 북창군, 평안남도, 조선민주주의인민공화국","address":{"town":"인포로동자구","state":"평안남도","ISO3166-2-lvl4":"KP-02","country":"조선민주주의인민공화국","country_code":"kp"},"osm_type":"node","osm_id":11765534526,"type":"town","location":[126.3633347,39.6315519],"bbox":[126.3233347,39.5915519,126.4033347,39.6715519]}
{"name":"자성읍","other_names":{"name:el":"Τζάσονγκ-ουπ","name:en":"Chasong-up","name:fr":"Chasong-up","name:ja":"慈城邑","name:ko":"자성읍","name:ru":"Часон","name:zh":"慈城邑","alt_name:en":"Jasong-up","name:ko-Hani":"慈城邑","name:zh-Hans":"慈城邑","name:zh-Hant":"慈城邑"},"display_name":"자성읍, 자성군, 자강도, 조선민주주의인민공화국","address":{"town":"자성읍","county":"자성군","state":"자강도","ISO3166-2-lvl4":"KP-04","country":"조선민주주의인민공화국","country_code":"kp"},"osm_type":"node","osm_id":3723463570,"type":"town","location":[126.6419444,41.4611528],"bbox":[126.6019444,41.4211528,126.6819444,41.5011528]}
{"name":"장강읍","other_names":{"name:el":"Τζάνγκανγκ-ουπ","name:en":"Changgang-up","name:fr":"Changgang-up","name:ja":"長江邑","name:ko":"장강읍","name:ru":"Чанган","name:zh":"長江邑","alt_name:en":"Janggang-up","name:ko-Hani":"長江邑","name:zh-Hans":"长江邑","name:zh-Hant":"長江邑"},"display_name":"장강읍, 장강군, 자강도, 조선민주주의인민공화국","address":{"town":"장강읍","county":"장강군","state":"자강도","ISO3166-2-lvl4":"KP-04","country":"조선민주주의인민공화국","country_code":"kp"},"osm_type":"node","osm_id":3723463569,"type":"town","location":[126.668993,41.0588051],"bbox":[126.628993,41.0188051,126.708993,41.0988051]}
{"name":"장상동","other_names":{"name:el":"Τζάνγκσανγκ-ντονγκ","name:ja":"長上洞","name:ko":"장상동","name:zh":"長上洞","name:ko-Hani":"長上洞","name:zh-Hans":"长上洞","name:zh-Hant":"長上洞"},"display_name":"장상동, 덕천시, 평안남도, 조선민주주의인민공화국","address":{"town":"장상동","city":"덕천시","state":"평안남도","ISO3166-2-lvl4":"KP-02","country":"조선민주주의인민공화국","country_code":"kp"},"osm_type":"node","osm_id":9470474192,"type":"town","location":[126.1756422,39.8157252],"bbox":[126.1356422,39.7757252,126.2156422,39.8557252]}
{"name":"장연읍","other_names":{"name:el":"Τζάνγιον-ουπ","name:en":"Changyon-up","name:fr":"Changyon-up","name:ja":"長淵邑","name:ko":"장연읍","name:ru":"Чанъён","name:zh":"長淵邑","alt_name:en":"Jangyon-up","name:ko-Hani":"長淵邑","name:ko-Latn":"Changyŏn-ŭp","name:zh-Hans":"长渊邑","name:zh-Hant":"長淵邑"},"display_name":"장연읍, 장연군, 황해남도, 조선민주주의인민공화국","address":{"town":"장연읍","county":"장연군","state":"황해남도","ISO3166-2-lvl4":"KP-05","country":"조선민주주의인민공화국","country_code":"kp"},"osm_type":"node","osm_id":2939066636,"type":"town","location":[125.0959314,38.2529604],"bbox":[125.0559314,38.2129604,125.1359314,38.2929604]}
{"name":"장진읍","other_names":{"name:el":"Τζάνγκτζιν-ουπ","name:en":"Changjin-up","name:fr":"Changjin-up","name:ja":"長津邑","name:ko":"장진읍","name:zh":"長津邑","name:ko-Hani":"長津邑","name:zh-Hans":"长津邑","name:zh-Hant":"長津邑"},"display_name":"장진읍, 장진군, 함경남도, 조선민주주의인민공화국","address":{"town":"장진읍","county":"장진군","state":"함경남도","ISO3166-2-lvl4":"KP-08","country":"조선민주주의인민공화국","country_code":"kp"},"osm_type":"node","osm_id":9144352008,"type":"town","location":[127.2423033,40.3831898],"bbox":[127.2023033,40.3431898,127.2823033,40.4231898]}
{"name":"장촌로동자구","other_names":{"name:el":"Τζάνγκτσον-ρόντονγκτζαγκου","name:ja":"墻村労働者区","name:ko":"장촌로동자구","name:zh":"墻村勞動者區","name:ko-Hani":"墻村勞動者區","name:zh-Hans":"墙村劳动者区","name:zh-Hant":"墻村勞動者區"},"display_name":"장촌로동자구, 세포군, 강원도, 조선민주주의인민공화국","address":{"town":"장촌로동자구","county":"세포군","state":"강원도","ISO3166-2-lvl4":"KP-07","country":"조선민주주의인민공화국","country_code":"kp"},"osm_type":"node","osm_id":8438236584,"type":"town","location":[127.0853475,38.5484616],"bbox":[127.0453475,38.5084616,127.1253475,38.5884616]}
{"name":"장풍읍","other_names":{"name:el":"Τζάνγκπουνγκ-ουπ","name:en":"Changpung-up","name:fr":"Changpung-up","name:ja":"長豊邑","name:ko":"장풍읍","name:zh":"長豐邑","alt_name:en":"Jangphung-up","name:ko-Hani":"長豊邑","name:zh-Hans":"长丰邑","name:zh-Hant":"長豐邑"},"display_name":"장풍읍, 개성시, 조선민주주의인민공화국","address":{"town":"장풍읍","city":"개성시","ISO3166-2-lvl4":"KP-15","country":"조선민주주의인민공화국","country_code":"kp"},"osm_type":"node","osm_id":8431892946,"type":"town","location":[126.6797724,38.0910052],"bbox":[126.6397724,38.0510052,126.7197724,38.1310052]}
{"name":"재령읍","other_names":{"name:el":"Τζέριονγκ-ουπ","name:en":"Chaeryong-up","name:fr":"Chaeryong-up","name:ja":"載寧邑","name:ko":"재령읍","name:ru":"Чэрён","name:zh":"載寧邑","alt_name:en":"Jaeryong-up","name:ko-Hani":"載寧邑","name:zh-Hans":"载宁邑","name:zh-Hant":"載寧邑"},"display_name":"재령읍, 재령군, 황해남도, 조선민주주의인민공화국","address":{"town":"재령읍","county":"재령군","state":"황해남도","ISO3166-2-lvl4":"KP-05","country":"조선민주주의인민공화국","country_code":"kp"},"osm_type":"node","osm_id":262411914,"type":"town","location":[125.6164868,38.3981118],"bbox":[125.5764868,38.3581118,125.6564868,38.4381118]}
{"name":"전천읍","other_names":{"name:el":"Τζόντσον-ουπ","name:en":"Chonchon-up","name:fr":"Chonchon-up","name:ja":"前川邑","name:ko":"전천읍","name:ru":"Чончхон","name:zh":"前川邑","alt_name:en":"Jonchon-up","name:ko-Hani":"前川邑","name:zh-Hans":"前川邑","name:zh-Hant":"前川邑"},"display_name":"전천읍, 전천군, 자강도, 조선민주주의인민공화국","address":{"town":"전천읍","county":"전천군","state":"자강도","ISO3166-2-lvl4":"KP-04","country":"조선민주주의인민공화국","country_code":"kp"},"osm_type":"node","osm_id":3723463571,"type":"town","location":[126.4617397,40.6155864],"bbox":[126.4217397,40.5755864,126.5017397,40.6555864]}
{"name":"정평읍","other_names":{"name:el":"Τζόνγκπιονγκ-ουπ","name:en":"Chongpyong-up","name:fr":"Chongpyong-up","name:ja":"定平邑","name:ko":"정평읍","name:ru":"Чонпхён","name:zh":"定平邑","alt_name:en":"Chŏngp'yong-ŭp","name:ko-Hani":"定平邑","name:zh-Hans":"定平邑","name:zh-Hant":"定平邑"},"display_name":"정평읍, 정평군, 함경남도, 조선민주주의인민공화국","address":{"town":"정평읍","county":"정평군","state":"함경남도","ISO3166-2-lvl4":"KP-08","country":"조선민주주의인민공화국","country_code":"kp"},"osm_type":"node","osm_id":2928081280,"type":"town","location":[127.3953879,39.7875441],"bbox":[127.3553879,39.7475441,127.4353879,39.8275441]}
{"name":"제남동","other_names":{"name:el":"Τζέναμ-ντονγκ","name:en":"Jenam-dong","name:ja":"済南洞","name:ko":"제남동","name:zh":"濟南洞","name:ko-Hani":"濟南洞","name:zh-Hans":"济南洞","name:zh-Hant":"濟南洞"},"display_name":"제남동, 덕천시, 평안남도, 조선민주주의인민공화국","address":{"town":"제남동","city":"덕천시","state":"평안남도","ISO3166-2-lvl4":"KP-02","country":"조선민주주의인민공화국","country_code":"kp"},"osm_type":"node","osm_id":9470474185,"type":"town","location":[126.2955825,39.7169339],"bbox":[126.2555825,39.6769339,126.3355825,39.7569339]}
{"name":"종성로동자구","other_names":{"name:el":"Τζόνγκσονγκ-ρόντονγκτζαγκου","name:en":"Chongsŏng","name:ja":"鍾城労働者区","name:ko":"종성로동자구","name:ru":"Чонсон","name:zh":"鍾城勞動者區","name:ko-Hani":"鍾城勞動者區","name:ko-Latn":"Jongsong-rodongjagu","name:zh-Hans":"钟城劳动者区","name:zh-Hant":"鍾城勞動者區"},"display_name":"종성로동자구, 온성군, 함경북도, 조선민주주의인민공화국","address":{"town":"종성로동자구","county":"온성군","state":"함경북도","ISO3166-2-lvl4":"KP-09","country":"조선민주주의인민공화국","country_code":"kp"},"osm_type":"node","osm_id":2092874219,"type":"town","location":[129.7945107,42.763316],"bbox":[129.7545107,42.723316,129.8345107,42.803316]}
{"name":"중강읍","other_names":{"name:en":"Chunggang-up","name:fr":"Chunggang-up","name:ja":"中江邑","name:ko":"중강읍","name:ru":"Чхунган","name:zh":"中江邑","alt_name:en":"Junggang-up","name:ko-Hani":"中江邑","name:zh-Hans":"中江邑","name:zh-Hant":"中江邑"},"display_name":"중강읍, 중강군, 자강도, 조선민주주의인민공화국","address":{"town":"중강읍","county":"중강군","state":"자강도","ISO3166-2-lvl4":"KP-04","country":"조선민주주의인민공화국","country_code":"kp"},"osm_type":"node","osm_id":3723463572,"type":"town","location":[126.872838,41.77738],"bbox":[126.832838,41.73738,126.912838,41.81738]}
{"name":"중화읍","other_names":{"name:el":"Τζούγχουα-ουπ","name:en":"Chunghwa-up","name:fr":"Chunghwa-up","name:ja":"中和邑","name:ko":"중화읍","name:ru":"Чунхва","name:zh":"中和邑","alt_name:en":"Junghwa-up","name:ko-Hani":"中和邑","name:zh-Hans":"中和邑","name:zh-Hant":"中和邑"},"display_name":"중화읍, 중화군, 황해북도, 조선민주주의인민공화국","address":{"town":"중화읍","county":"중화군","state":"황해북도","ISO3166-2-lvl4":"KP-06","country":"조선민주주의인민공화국","country_code":"kp"},"osm_type":"node","osm_id":2939859259,"type":"town","location":[125.8014874,38.8626904],"bbox":[125.7614874,38.8226904,125.8414874,38.9026904]}
{"name":"증산읍","other_names":{"name:el":"Τζούνγκσαν-ουπ","name:en":"Chungsan-up","name:fr":"Chungsan-up","name:ja":"甑山邑","name:ko":"증산읍","name:ru":"Чынсан","name:zh":"甑山邑","name:ko-Hani":"甑山邑","name:zh-Hans":"甑山邑","name:zh-Hant":"甑山邑"},"display_name":"증산읍, 증산군, 평안남도, 조선민주주의인민공화국","address":{"town":"증산읍","county":"증산군","state":"평안남도","ISO3166-2-lvl4":"KP-02","country":"조선민주주의인민공화국","country_code":"kp"},"osm_type":"node","osm_id":3707655698,"type":"town","location":[125.3716019,39.1043869],"bbox":[125.3316019,39.0643869,125.4116019,39.1443869]}
{"name":"창도읍","other_names":{"name:el":"Τσάνγκντο-ουπ","name:en":"Changdo-up","name:fa":"چانگدو","name:fr":"Changdo-up","name:ja":"昌道邑","name:ko":"창도읍","name:ru":"Чхандо","name:zh":"昌道邑","name:ko-Hani":"昌道邑","name:zh-Hans":"昌道邑","name:zh-Hant":"昌道邑"},"display_name":"창도읍, 창도군, 강원도, 조선민주주의인민공화국","address":{"town":"창도읍","county":"창도군","state":"강원도","ISO3166-2-lvl4":"KP-07","country":"조선민주주의인민공화국","country_code":"kp"},"osm_type":"node","osm_id":5668541785,"type":"town","location":[127.7128458,38.6529914],"bbox":[127.6728458,38.6129914,127.7528458,38.6929914]}
{"name":"창성읍","other_names":{"name:en":"Changsong-up","name:fr":"Changsong-up","name:ja":"昌城邑","name:ko":"창성읍","name:ru":"Чхансон","name:zh":"昌城邑","name:ko-Hani":"昌城邑","name:zh-Hans":"昌城邑","name:zh-Hant":"昌城邑"},"display_name":"창성읍, 창성군, 평안북도, 조선민주주의인민공화국","address":{"town":"창성읍","county":"창성군","state":"평안북도","ISO3166-2-lvl4":"KP-03","country":"조선민주주의인민공화국","country_code":"kp"},"osm_type":"node","osm_id":3706915185,"type":"town","location":[125.2174721,40.4507273],"bbox":[125.1774721,40.4107273,125.2574721,40.4907273]}
{"name":"창평로동자구","other_names":{"name:el":"Τζάνγκπιονγκ-ρόντονγκτζαγκου","name:en":"Changp’yŏng-rodongjagu","name:ja":"倉坪労働者区","name:ko":"창평로동자구","name:ru":"Чханпхён","name:zh":"倉坪勞動者區","name:ko-Hani":"倉坪勞動者區","name:zh-Hans":"仓坪劳动者区","name:zh-Hant":"倉坪勞動者區"},"display_name":"창평로동자구, 온성군, 함경북도, 조선민주주의인민공화국","address":{"town":"창평로동자구","county":"온성군","state":"함경북도","ISO3166-2-lvl4":"KP-09","country":"조선민주주의인민공화국","country_code":"kp"},"osm_type":"node","osm_id":5941402405,"type":"town","location":[129.9345925,42.7863393],"bbox":[129.8945925,42.7463393,129.9745925,42.8263393]}
{"name":"천내읍","other_names":{"name:el":"Τσόνε-ουπ","name:en":"Chonnae-up","name:fa":"چونّه","name:fr":"Chonnae-up","name:ja":"川内邑","name:ko":"천내읍","name:ru":"Чхоннэ","name:zh":"川內邑","name:ko-Hani":"川內邑","name:zh-Hans":"川内邑","name:zh-Hant":"川內邑"},"display_name":"천내읍, 천내군, 강원도, 조선민주주의인민공화국","address":{"town":"천내읍","county":"천내군","state":"강원도","ISO3166-2-lvl4":"KP-07","country":"조선민주주의인민공화국","country_code":"kp"},"osm_type":"node","osm_id":5668439339,"type":"town","location":[127.2267715,39.3676289],"bbox":[127.1867715,39.3276289,127.2667715,39.4076289]}
{"name":"천리마","other_names":{"name:el":"Τσόλιμα","name:ja":"千里馬","name:ko":"천리마","name:zh":"千里馬","name:ko-Hani":"千里馬","name:zh-Hans":"千里马","name:zh-Hant":"千里馬"},"display_name":"천리마, 남포시, 조선민주주의인민공화국","address":{"town":"천리마","city":"남포시","ISO3166-2-lvl4":"KP-14","country":"조선민주주의인민공화국","country_code":"kp"},"osm_type":"node","osm_id":10136749369,"type":"town","location":[125.5843627,38.9361624],"bbox":[125.5443627,38.8961624,125.6243627,38.9761624]}
{"name":"천마읍","other_names":{"name:el":"Τσόνμα-ουπ","name:en":"Chonma-up","name:fr":"Chonma-up","name:ja":"天摩邑","name:ko":"천마읍","name:ru":"Чхонма","name:zh":"天摩邑","name:ko-Hani":"天摩邑","name:zh-Hans":"天摩邑","name:zh-Hant":"天摩邑"},"display_name":"천마읍, 천마군, 평안북도, 조선민주주의인민공화국","address":{"town":"천마읍","county":"천마군","state":"평안북도","ISO3166-2-lvl4":"KP-03","country":"조선민주주의인민공화국","country_code":"kp"},"osm_type":"node","osm_id":3706796336,"type":"town","location":[125.0204122,40.0537707],"bbox":[124.9804122,40.0137707,125.0604122,40.0937707]}
{"name":"천성로동자구","other_names":{"name:el":"Τσόνσονγκ-ρόντονγκτζαγκου","name:ja":"天聖労働者区","name:ko":"천성로동자구","name:zh":"天聖勞動者區","name:ko-Hani":"天聖勞動者區","name:zh-Hans":"天圣劳动者区","name:zh-Hant":"天聖勞動者區"},"display_name":"천성로동자구, 은산군, 평안남도, 조선민주주의인민공화국","address":{"town":"천성로동자구","county":"은산군","state":"평안남도","ISO3166-2-lvl4":"KP-02","country":"조선민주주의인민공화국","country_code":"kp"},"osm_type":"node","osm_id":9470350501,"type":"town","location":[126.0942212,39.465373],"bbox":[126.0542212,39.425373,126.1342212,39.505373]}
{"name":"철산읍","other_names":{"name:el":"Τσόλσαν-ουπ","name:en":"Cholsan-up","name:fr":"Cholsan-up","name:ja":"鉄山邑","name:ko":"철산읍","name:ru":"Чхольсан","name:zh":"鐵山邑","alt_name:en":"Ch'ŏlsan-ŭp","name:ko-Hani":"鐵山邑","name:zh-Hans":"铁山邑","name:zh-Hant":"鐵山邑"},"display_name":"철산읍, 철산군, 평안북도, 조선민주주의인민공화국","address":{"town":"철산읍","county":"철산군","state":"평안북도","ISO3166-2-lvl4":"KP-03","country":"조선민주주의인민공화국","country_code":"kp"},"osm_type":"node","osm_id":2299275982,"type":"town","location":[124.6786728,39.7708227],"bbox":[124.6386728,39.7308227,124.7186728,39.8108227]}
{"name":"철원읍","other_names":{"name:el":"Τσόρουον-ουπ","name:en":"Chorwon-up","name:fa":"چوروون","name:fr":"Chorwon-up","name:ja":"鉄原邑","name:ko":"철원읍","name:ru":"Чхорвон","name:zh":"鐵原邑","alt_name:en":"Ch'ŏrwŏn","old_name:ko":"안협현","name:ko-Hani":"鐵原邑","name:zh-Hans":"铁原邑","name:zh-Hant":"鐵原邑","old_name:ko_other":"안협군"},"display_name":"철원읍, 철원군, 강원도, 조선민주주의인민공화국","address":{"town":"철원읍","county":"철원군","state":"강원도","ISO3166-2-lvl4":"KP-07","country":"조선민주주의인민공화국","country_code":"kp"},"osm_type":"node","osm_id":5668439338,"type":"town","location":[126.9047233,38.3472982],"bbox":[126.8647233,38.3072982,126.9447233,38.3872982]}
{"name":"청단읍","other_names":{"name:el":"Τσόνγκνταν-ουπ","name:en":"Chongdan-up","name:fr":"Chongdan-up","name:ja":"青丹邑","name:ko":"청단읍","name:ru":"Чхондан","name:zh":"靑丹邑","name:ko-Hani":"靑丹邑","name:zh-Hans":"青丹邑","name:zh-Hant":"靑丹邑"},"display_name":"청단읍, 청단군, 황해남도, 조선민주주의인민공화국","address":{"town":"청단읍","county":"청단군","state":"황해남도","ISO3166-2-lvl4":"KP-05","country":"조선민주주의인민공화국","country_code":"kp"},"osm_type":"node","osm_id":2939067622,"type":"town","location":[125.9400632,37.9751605],"bbox":[125.9000632,37.9351605,125.9800632,38.0151605]}
{"name":"청수로동자구","other_names":{"name:el":"Τσόνγκσου-ρόντονγκτζαγκου","name:en":"Chongsu-rodongjagu","name:ja":"青水労働者区","name:ko":"청수로동자구","name:ru":"Чхонсу","name:zh":"靑水勞動者區","name:ko-Hani":"靑水勞動者區","name:zh-Hans":"青水劳动者区","name:zh-Hant":"靑水勞動者區"},"display_name":"청수로동자구, 삭주군, 평안북도, 조선민주주의인민공화국","address":{"town":"청수로동자구","county":"삭주군","state":"평안북도","ISO3166-2-lvl4":"KP-03","country":"조선민주주의인민공화국","country_code":"kp"},"osm_type":"node","osm_id":3710946540,"type":"town","location":[124.8907623,40.4583565],"bbox":[124.8507623,40.4183565,124.9307623,40.4983565]}
{"name":"초산읍","other_names":{"name:el":"Τσόσαν-ουπ","name:en":"Chosan-up","name:fr":"Chosan-up","name:ja":"楚山邑","name:ko":"초산읍","name:ru":"Чхосан","name:zh":"楚山邑","name:ko-Hani":"楚山邑","name:zh-Hans":"楚山邑","name:zh-Hant":"楚山邑"},"display_name":"초산읍, 초산군, 자강도, 조선민주주의인민공화국","address":{"town":"초산읍","county":"초산군","state":"자강도","ISO3166-2-lvl4":"KP-04","country":"조선민주주의인민공화국","country_code":"kp"},"osm_type":"node","osm_id":3722858349,"type":"town","location":[125.805304,40.8312208],"bbox":[125.765304,40.7912208,125.845304,40.8712208]}
{"name":"태천읍","other_names":{"name:el":"Τέτσον-ουπ","name:en":"Taechon-up","name:fr":"Taechon-up","name:ja":"泰川邑","name:ko":"태천읍","name:nl":"Taechon","name:ru":"Тхэчхон","name:zh":"泰川邑","name:ko-Hani":"泰川邑","name:zh-Hans":"泰川邑","name:zh-Hant":"泰川邑"},"display_name":"태천읍, 태천군, 평안북도, 조선민주주의인민공화국","address":{"town":"태천읍","county":"태천군","state":"평안북도","ISO3166-2-lvl4":"KP-03","country":"조선민주주의인민공화국","country_code":"kp"},"osm_type":"node","osm_id":2246306887,"type":"town","location":[125.4942845,39.9215369],"bbox":[125.4542845,39.8815369,125.5342845,39.9615369]}
{"name":"태탄읍","other_names":{"name:el":"Τέταν-ουπ","name:en":"Taetan-up","name:fr":"Taetan-up","name:ja":"苔灘邑","name:ko":"태탄읍","name:ru":"Тхэтхан","name:zh":"苔灘邑","alt_name:en":"T'aet'an-up","name:ko-Hani":"苔灘邑","name:ko-Latn":"T'aet'an-eup","name:zh-Hans":"苔滩邑","name:zh-Hant":"苔灘邑"},"display_name":"태탄읍, 태탄군, 황해남도, 조선민주주의인민공화국","address":{"town":"태탄읍","county":"태탄군","state":"황해남도","ISO3166-2-lvl4":"KP-05","country":"조선민주주의인민공화국","country_code":"kp"},"osm_type":"node","osm_id":264056989,"type":"town","location":[125.3016407,38.0859867],"bbox":[125.2616407,38.0459867,125.3416407,38.1259867]}
{"name":"토산읍","other_names":{"name:el":"Τόσαν-ουπ","name:en":"Tosan-up","name:fr":"Tosan-up","name:ja":"兎山邑","name:ko":"토산읍","name:ru":"Тхосан","name:zh":"兔山邑","name:ko-Hani":"兎山邑","name:zh-Hans":"兔山邑","name:zh-Hant":"兔山邑"},"display_name":"토산읍, 토산군, 황해북도, 조선민주주의인민공화국","address":{"town":"토산읍","county":"토산군","state":"황해북도","ISO3166-2-lvl4":"KP-06","country":"조선민주주의인민공화국","country_code":"kp"},"osm_type":"node","osm_id":3709163475,"type":"town","location":[126.6925662,38.3113761],"bbox":[126.6525662,38.2713761,126.7325662,38.3513761]}
{"name":"통천읍","other_names":{"name:el":"Τόνγκτσον-ουπ","name:en":"Tongchon-up","name:fa":"تونگچون","name:fr":"Tongchon-up","name:ja":"通川邑","name:ko":"통천읍","name:ru":"Тхончхон","name:vi":"Thông Xuyên","name:zh":"通川邑","name:ko-Hani":"通川邑","name:ko-Latn":"T'ongch'ŏn","name:zh-Hans":"通川邑","name:zh-Hant":"通川邑"},"display_name":"통천읍, 통천군, 강원도, 조선민주주의인민공화국","address":{"town":"통천읍","county":"통천군","state":"강원도","ISO3166-2-lvl4":"KP-07","country":"조선민주주의인민공화국","country_code":"kp"},"osm_type":"node","osm_id":2523747656,"type":"town","location":[127.8909504,38.9540273],"bbox":[127.8509504,38.9140273,127.9309504,38.9940273]}
{"name":"판교읍","other_names":{"name:el":"Πάνγκιο-ουπ","name:en":"Pangyo-up","name:fa":"پان‌گیو","name:fr":"Pangyo-up","name:ja":"板橋邑","name:ko":"판교읍","name:ru":"Пхангё","name:zh":"板橋邑","name:ko-Hani":"板橋邑","name:zh-Hans":"板桥邑","name:zh-Hant":"板橋邑"},"display_name":"판교읍, 판교군, 강원도, 조선민주주의인민공화국","address":{"town":"판교읍","county":"판교군","state":"강원도","ISO3166-2-lvl4":"KP-07","country":"조선민주주의인민공화국","country_code":"kp"},"osm_type":"node","osm_id":3049340595,"type":"town","location":[127.0004969,38.7525441],"bbox":[126.9604969,38.7125441,127.0404969,38.7925441]}
{"name":"평강읍","other_names":{"name:de":"Pyonggang","name:el":"Πιόνγκανγκ-ουπ","name:en":"Pyonggang-up","name:fa":"پیونگ‌گانگ","name:fr":"Pyonggang-up","name:ja":"平康邑","name:ko":"평강읍","name:ru":"Пхёнган","name:uk":"Пгьонґан","name:zh":"平康邑","alt_name:en":"P'yŏnggang","name:ko-Hani":"平康邑","name:ko-Latn":"P'yŏnggang","name:zh-Hans":"平康邑","name:zh-Hant":"平康邑"},"display_name":"평강읍, 평강군, 강원도, 조선민주주의인민공화국","address":{"town":"평강읍","county":"평강군","state":"강원도","ISO3166-2-lvl4":"KP-07","country":"조선민주주의인민공화국","country_code":"kp"},"osm_type":"node","osm_id":2502068065,"type":"town","location":[127.291586,38.4143831],"bbox":[127.251586,38.3743831,127.331586,38.4543831],"border":{"name":"평강군","other_names":{"name:en":"Pyonggang County","name:fa":"شهرستان پیونگ‌گانگ","name:fr":"Arrondissement de Pyonggang","name:ja":"平康郡","name:ko":"평강군","name:ru":"уезд Пхёнган","name:uk":"Пгьонґан","name:zh":"平康郡","int_name":"Pyonggang","name:ko-Hani":"平康郡","name:ko-Latn":"pyonggang-gun","name:zh-Hant":"平康郡"},"display_name":"평강군, 강원도, 조선민주주의인민공화국","address":{"county":"평강군","state":"강원도","ISO3166-2-lvl4":"KP-07","country":"조선민주주의인민공화국","country_code":"kp"},"population":90425,"osm_type":"relation","osm_id":8323973,"type":"administrative","location":[127.22761199107143,38.44342175],"bbox":[127.029891,38.313125,127.4701594,38.5736692]}}
{"name":"평산로동자구","other_names":{"name:el":"Πιόνγκσαν-ρόντονγκτζαγκου","name:ja":"平山労働者区","name:ko":"평산로동자구","name:ru":"Пхёнсан","name:zh":"平山勞動者區","name:ko-Hani":"平山勞動者區","name:zh-Hans":"平山劳动者区","name:zh-Hant":"平山勞動者區"},"display_name":"평산로동자구, 김형권군, 량강도, 조선민주주의인민공화국","address":{"town":"평산로동자구","county":"김형권군","state":"량강도","ISO3166-2-lvl4":"KP-10","country":"조선민주주의인민공화국","country_code":"kp"},"osm_type":"node","osm_id":6960141488,"type":"town","location":[127.9180455,40.6214693],"bbox":[127.8780455,40.5814693,127.9580455,40.6614693]}
{"name":"평산읍","other_names":{"name:el":"Πιόνγκσαν-ουπ","name:en":"Pyongsan-up","name:fr":"Pyongsan-up","name:ja":"平山邑","name:ko":"평산읍","name:ru":"Пхёнсан","name:zh":"平山邑","alt_name:en":"Phyongsan-up","name:ko-Hani":"平山邑","name:zh-Hans":"平山邑","name:zh-Hant":"平山邑"},"display_name":"평산읍, 평산군, 황해북도, 조선민주주의인민공화국","address":{"town":"평산읍","state":"황해북도","ISO3166-2-lvl4":"KP-06","country":"조선민주주의인민공화국","country_code":"kp"},"osm_type":"node","osm_id":264047428,"type":"town","location":[126.3979178,38.3381457],"bbox":[126.3579178,38.2981457,126.4379178,38.3781457],"border":{"name":"평산군","other_names":{"name:en":"Pyongsan County","name:fr":"Arrondissement de Pyongsan","name:ja":"平山郡","name:ko":"평산군","name:ru":"уезд Пхёнсан","name:zh":"平山郡","name:ko-Hani":"平山郡","name:zh-Hans":"平山郡","name:zh-Hant":"平山郡","name:el":"Πιόνγκσαν-ουπ","alt_name:en":"Phyongsan-up","alt":"평산읍","alt:en":"Pyongsan-up","alt:fr":"Pyongsan-up","alt:ja":"平山邑","alt:ko":"평산읍","alt:ru":"Пхёнсан","alt:zh":"平山邑","alt:ko-Hani":"平山邑","alt:zh-Hans":"平山邑","alt:zh-Hant":"平山邑"},"display_name":"평산군, 황해북도, 조선민주주의인민공화국","address":{"town":"평산군","state":"황해북도","ISO3166-2-lvl4":"KP-06","country":"조선민주주의인민공화국","country_code":"kp"},"population":123646,"osm_type":"relation","osm_id":5456500,"type":"administrative","location":[126.3979178,38.3381457],"bbox":[126.2027999,38.164565,126.5786309,38.4715158]}}
{"name":"평원읍","other_names":{"name:el":"Πιόνγουον-ουπ","name:en":"Pyongwon-up","name:fr":"Pyongwon-up","name:ja":"平原邑","name:ko":"평원읍","name:nl":"Phyongwon","name:ru":"Пхёнвон","name:zh":"平原邑","alt_name:en":"Phyongwon","name:ko-Hani":"平原邑","name:zh-Hans":"平原邑","name:zh-Hant":"平原邑"},"display_name":"평원읍, 평원군, 평안남도, 조선민주주의인민공화국","address":{"town":"평원읍","county":"평원군","state":"평안남도","ISO3166-2-lvl4":"KP-02","country":"조선민주주의인민공화국","country_code":"kp"},"osm_type":"node","osm_id":3057367140,"type":"town","location":[125.6036094,39.3054149],"bbox":[125.5636094,39.2654149,125.6436094,39.3454149]}
{"name":"풍서읍","other_names":{"name:el":"Πούνγκσο-ουπ","name:en":"Pungso-up","name:fa":"پونگسو","name:fr":"Pungso-up","name:ja":"豊西邑","name:ko":"풍서읍","name:ru":"Пхунсо","name:zh":"豐西邑","name:ko-Hani":"豐西邑","name:zh-Hans":"丰西邑","name:zh-Hant":"豐西邑"},"display_name":"풍서읍, 풍서군, 량강도, 조선민주주의인민공화국","address":{"town":"풍서읍","county":"풍서군","state":"량강도","ISO3166-2-lvl4":"KP-10","country":"조선민주주의인민공화국","country_code":"kp"},"osm_type":"node","osm_id":9141258639,"type":"town","location":[128.0768938,40.9410894],"bbox":[128.0368938,40.9010894,128.1168938,40.9810894]}
{"name":"풍인로동자구","other_names":{"name:el":"Πούνγιν-ρόντονγκτζαγκου","name:ja":"豊仁労働者区","name:ko":"풍인로동자구","name:ru":"Пхунин","name:zh":"豐仁勞動者區","name:ko-Hani":"豊仁勞動者區","name:zh-Hans":"丰仁劳动者区","name:zh-Hant":"豐仁勞動者區"},"display_name":"풍인로동자구, 온성군, 함경북도, 조선민주주의인민공화국","address":{"town":"풍인로동자구","county":"온성군","state":"함경북도","ISO3166-2-lvl4":"KP-09","country":"조선민주주의인민공화국","country_code":"kp"},"osm_type":"node","osm_id":9367378169,"type":"town","location":[130.0377816,42.9319224],"bbox":[129.9977816,42.8919224,130.0777816,42.9719224]}
{"name":"피현읍","other_names":{"name:el":"Πίχιον-ουπ","name:en":"Pihyon-up","name:fr":"Pihyon-up","name:ja":"枇峴邑","name:ko":"피현읍","name:ru":"Пхихён","name:zh":"枇峴邑","alt_name:en":"Phihyŏn-ŭp","name:ko-Hani":"枇峴邑","name:zh-Hans":"枇岘邑","name:zh-Hant":"枇峴邑"},"display_name":"피현읍, 피현군, 평안북도, 조선민주주의인민공화국","address":{"town":"피현읍","county":"피현군","state":"평안북도","ISO3166-2-lvl4":"KP-03","country":"조선민주주의인민공화국","country_code":"kp"},"osm_type":"node","osm_id":2298504433,"type":"town","location":[124.6167602,40.0144771],"bbox":[124.5767602,39.9744771,124.6567602,40.0544771]}
{"name":"학방로동자구","other_names":{"name:el":"Χάκπανγκ-ρόντονγκτζαγκου","name:ja":"鶴芳労働者区","name:ko":"학방로동자구","name:zh":"鶴芳勞動者區","name:ko-Hani":"鶴芳勞動者區","name:zh-Hans":"鹤芳劳动者区","name:zh-Hant":"鶴芳勞動者區"},"display_name":"학방로동자구, 김화군, 강원도, 조선민주주의인민공화국","address":{"town":"학방로동자구","county":"김화군","state":"강원도","ISO3166-2-lvl4":"KP-07","country":"조선민주주의인민공화국","country_code":"kp"},"osm_type":"node","osm_id":9155306472,"type":"town","location":[127.7114239,38.496557],"bbox":[127.6714239,38.456557,127.7514239,38.536557]}
{"name":"함주읍","other_names":{"name:el":"Χάμτζου-ουπ","name:en":"Hamju-up","name:fr":"Hamju-up","name:ja":"咸州邑","name:ko":"함주읍","name:ru":"Хамджу","name:zh":"咸州邑","alt_name:en":"Hamju-ŭp","name:ko-Hani":"咸州邑","name:zh-Hans":"咸州邑","name:zh-Hant":"咸州邑"},"display_name":"함주읍, 함주군, 함경남도, 조선민주주의인민공화국","address":{"town":"함주읍","county":"함주군","state":"함경남도","ISO3166-2-lvl4":"KP-08","country":"조선민주주의인민공화국","country_code":"kp"},"osm_type":"node","osm_id":2928081278,"type":"town","location":[127.4334417,39.8526174],"bbox":[127.3934417,39.8126174,127.4734417,39.8926174]}
{"name":"향산읍","other_names":{"name:el":"Χιάνγκσαν-ουπ","name:en":"Hyangsan-up","name:fr":"Hyangsan-up","name:ja":"香山邑","name:ko":"향산읍","name:nl":"Hyangsan","name:ru":"Хянсан","name:zh":"香山邑","name:ko-Hani":"香山邑","name:zh-Hans":"香山邑","name:zh-Hant":"香山邑"},"display_name":"향산읍, 향산군, 자강도, 조선민주주의인민공화국","address":{"town":"향산읍","county":"향산군","state":"자강도","ISO3166-2-lvl4":"KP-04","country":"조선민주주의인민공화국","country_code":"kp"},"osm_type":"node","osm_id":3706999614,"type":"town","location":[126.1761598,40.0399608],"bbox":[126.1361598,39.9999608,126.2161598,40.0799608]}
{"name":"허천읍","other_names":{"name:el":"Χότσον-ουπ","name:en":"Hochon-up","name:fr":"Hochon-up","name:ja":"虚川邑","name:ko":"허천읍","name:zh":"虛川邑","alt_name:en":"Hŏch'ŏn-ŭp","name:ko-Hani":"虛川邑","name:zh-Hans":"虚川邑","name:zh-Hant":"虛川邑"},"display_name":"허천읍, 허천군, 함경남도, 조선민주주의인민공화국","address":{"town":"허천읍","county":"허천군","state":"함경남도","ISO3166-2-lvl4":"KP-08","country":"조선민주주의인민공화국","country_code":"kp"},"osm_type":"node","osm_id":9141299324,"type":"town","location":[128.6064145,40.6788183],"bbox":[128.5664145,40.6388183,128.6464145,40.7188183]}
{"name":"호하로동자구","other_names":{"name:en":"Hoha Workers' DIstrict","name:ja":"湖下労働者区","name:ko":"호하로동자구","name:zh":"湖下劳动者区","alt_name:en":"Hoha-ri","name:ko-Hani":"湖下勞動者區","name:zh-Hans":"湖下劳动者区","name:zh-Hant":"湖下勞動者區"},"display_name":"호하로동자구, 중강군, 자강도, 조선민주주의인민공화국","address":{"town":"호하로동자구","county":"중강군","state":"자강도","ISO3166-2-lvl4":"KP-04","country":"조선민주주의인민공화국","country_code":"kp"},"osm_type":"node","osm_id":9171160281,"type":"town","location":[126.8014323,41.7211729],"bbox":[126.7614323,41.6811729,126.8414323,41.7611729]}
{"name":"홀동로동자구","other_names":{"name:el":"Χόλτονγκ-ρόντονγκτζαγκου","name:ja":"笏洞労働者区","name:ko":"홀동로동자구","name:zh":"笏洞勞動者區","name:ko-Hani":"笏洞勞動者區","name:zh-Hans":"笏洞劳动者区","name:zh-Hant":"笏洞勞動者區"},"display_name":"홀동로동자구, 연산군, 황해북도, 조선민주주의인민공화국","address":{"town":"홀동로동자구","county":"연산군","state":"황해북도","ISO3166-2-lvl4":"KP-06","country":"조선민주주의인민공화국","country_code":"kp"},"osm_type":"node","osm_id":9437375429,"type":"town","location":[126.4422282,38.8735496],"bbox":[126.4022282,38.8335496,126.4822282,38.9135496]}
{"name":"홍원읍","other_names":{"name:el":"Χόνγουον-ουπ","name:en":"Hongwon-up","name:fr":"Hongwon-up","name:ja":"洪原邑","name:ko":"홍원읍","name:zh":"洪原邑","name:ko-Hani":"洪原邑","name:zh-Hans":"洪原邑","name:zh-Hant":"洪原邑"},"display_name":"홍원읍, 홍원군, 함경남도, 조선민주주의인민공화국","address":{"town":"홍원읍","county":"홍원군","state":"함경남도","ISO3166-2-lvl4":"KP-08","country":"조선민주주의인민공화국","country_code":"kp"},"osm_type":"node","osm_id":9298529394,"type":"town","location":[127.9593766,40.0297791],"bbox":[127.9193766,39.9897791,127.9993766,40.0697791]}
{"name":"화곡리","other_names":{"name:en":"Hwagok-ri","name:ja":"花谷里","name:ko":"화곡리","name:zh":"花谷里","old_name":"서흥","name:ko-Hani":"花谷里","name:zh-Hans":"花谷里","name:zh-Hant":"花谷里","old_name:ko-Hani":"瑞興"},"display_name":"화곡리, 서흥군, 황해북도, 조선민주주의인민공화국","address":{"town":"화곡리","county":"서흥군","state":"황해북도","ISO3166-2-lvl4":"KP-06","country":"조선민주주의인민공화국","country_code":"kp"},"osm_type":"node","osm_id":9873380737,"type":"town","location":[126.1619412,38.4575279],"bbox":[126.1219412,38.4175279,126.2019412,38.4975279]}
{"name":"화대읍","other_names":{"name:el":"Χουάντε-ουπ","name:en":"Hwadae-up","name:fr":"Hwadae-up","name:ja":"花台邑","name:ko":"화대읍","name:zh":"花坮邑","name:ko-Hani":"花臺邑","name:ko-Latn":"Hwadae-eup","name:zh-Hans":"花坮邑","name:zh-Hant":"花坮邑"},"display_name":"화대읍, 화대군, 함경북도, 조선민주주의인민공화국","address":{"town":"화대읍","county":"화대군","state":"함경북도","ISO3166-2-lvl4":"KP-09","country":"조선민주주의인민공화국","country_code":"kp"},"osm_type":"node","osm_id":9141282483,"type":"town","location":[129.5001494,40.8380626],"bbox":[129.4601494,40.7980626,129.5401494,40.8780626]}
{"name":"화라로동자구","other_names":{"name:el":"Χουάρα-ρόντονγκτζαγκου","name:en":"Hwararodongja-gu","name:ja":"禾羅労働者区","name:ko":"화라로동자구","name:zh":"禾羅勞動者區","name:ko-Hani":"禾羅勞動者區","name:zh-Hans":"禾罗劳动者区","name:zh-Hant":"禾羅勞動者區"},"display_name":"화라로동자구, 천내군, 강원도, 조선민주주의인민공화국","address":{"town":"화라로동자구","county":"천내군","state":"강원도","ISO3166-2-lvl4":"KP-07","country":"조선민주주의인민공화국","country_code":"kp"},"osm_type":"node","osm_id":9462962971,"type":"town","location":[127.1544156,39.3402683],"bbox":[127.1144156,39.3002683,127.1944156,39.3802683]}
{"name":"화평읍","other_names":{"name:el":"Χουάπιονγκ-ουπ","name:en":"Hwapyong-up","name:fr":"Hwapyong-up","name:ja":"和坪邑","name:ko":"화평읍","name:ru":"Хвапхён","name:zh":"和坪邑","alt_name:en":"Hwaphyong-up","name:ko-Hani":"和坪邑","name:zh-Hans":"和坪邑","name:zh-Hant":"和坪邑"},"display_name":"화평읍, 화평군, 자강도, 조선민주주의인민공화국","address":{"town":"화평읍","county":"화평군","state":"자강도","ISO3166-2-lvl4":"KP-04","country":"조선민주주의인민공화국","country_code":"kp"},"osm_type":"node","osm_id":3723463568,"type":"town","location":[126.896734,41.258677],"bbox":[126.856734,41.218677,126.936734,41.298677]}
{"name":"황주읍","other_names":{"name:el":"Χουάνγκτζου-ουπ","name:en":"Hwangju-up","name:fr":"Hwangju-up","name:ja":"黄州邑","name:ko":"황주읍","name:ru":"Хванджу","name:uk":"Хванджу","name:zh":"黃州邑","name:ko-Hani":"黃州邑","name:zh-Hans":"黄州邑","name:zh-Hant":"黃州邑"},"display_name":"황주읍, 황주군, 황해북도, 조선민주주의인민공화국","address":{"town":"황주읍","county":"황주군","state":"황해북도","ISO3166-2-lvl4":"KP-06","country":"조선민주주의인민공화국","country_code":"kp"},"osm_type":"node","osm_id":3708403250,"type":"town","location":[125.7614514,38.6936286],"bbox":[125.7214514,38.6536286,125.8014514,38.7336286],"border":{"name":"황주군","other_names":{"name:en":"Hwangju County","name:fr":"Arrondissement de Hwangju","name:ja":"黄州郡","name:ko":"황주군","name:ru":"уезд Хванджу","name:uk":"Хванджу","name:zh":"黄州郡","name:ko-Hani":"黃州郡","name:zh-Hant":"黃州郡"},"display_name":"황주군, 황해북도, 조선민주주의인민공화국","address":{"county":"황주군","state":"황해북도","ISO3166-2-lvl4":"KP-06","country":"조선민주주의인민공화국","country_code":"kp"},"population":155215,"osm_type":"relation","osm_id":5455231,"type":"administrative","location":[125.78530496294474,38.712352749999994],"bbox":[125.6095586,38.5834659,125.9408916,38.840441]}}
{"name":"회양읍","other_names":{"name:el":"Χοέγιανγκ-ουπ","name:en":"Hoeyang-up","name:fa":"هوئیانگ","name:fr":"Hoeyang-up","name:ja":"淮陽邑","name:ko":"회양읍","name:ru":"Хвеян","name:uk":"Хвеян","name:zh":"淮陽邑","name:ko-Hani":"淮陽邑","name:zh-Hans":"淮阳邑","name:zh-Hant":"淮陽邑"},"display_name":"회양읍, 회양군, 강원도, 조선민주주의인민공화국","address":{"town":"회양읍","county":"회양군","state":"강원도","ISO3166-2-lvl4":"KP-07","country":"조선민주주의인민공화국","country_code":"kp"},"osm_type":"node","osm_id":5669548377,"type":"town","location":[127.5986373,38.70906],"bbox":[127.5586373,38.66906,127.6386373,38.74906],"border":{"name":"회양군","other_names":{"name:en":"Hoeyang County","name:fa":"شهرستان هوئیانگ","name:fr":"Arrondissement de Hoeyang","name:ja":"淮陽郡","name:ko":"회양군","name:ru":"уезд Хвеян","name:uk":"Хвеян","name:zh":"淮陽郡","name:ko-Hani":"淮陽郡","name:zh-Hans":"淮阳郡","name:zh-Hant":"淮陽郡"},"display_name":"회양군, 강원도, 조선민주주의인민공화국","address":{"county":"회양군","state":"강원도","ISO3166-2-lvl4":"KP-07","country":"조선민주주의인민공화국","country_code":"kp"},"population":42485,"osm_type":"relation","osm_id":8315133,"type":"administrative","location":[127.56827164859638,38.76484215],"bbox":[127.4106317,38.606911,127.810049,38.9226738]}}
{"name":"회창읍","other_names":{"name:el":"Χοέτσανγκ-ουπ","name:en":"Hoechang-up","name:fr":"Hoechang-up","name:ja":"檜倉邑","name:ko":"회창읍","name:ru":"Хвечхан","name:zh":"檜倉邑","name:ko-Hani":"檜倉邑","name:zh-Hans":"桧仓邑","name:zh-Hant":"檜倉邑"},"display_name":"회창읍, 회창군, 평안남도, 조선민주주의인민공화국","address":{"town":"회창읍","county":"회창군","state":"평안남도","ISO3166-2-lvl4":"KP-02","country":"조선민주주의인민공화국","country_code":"kp"},"osm_type":"node","osm_id":3707815832,"type":"town","location":[126.4567099,39.1017138],"bbox":[126.4167099,39.0617138,126.4967099,39.1417138]}
