{"display_name":"Kangso, 남포시, 조선민주주의인민공화국","address":{"city":"Kangso","ISO3166-2-lvl4":"KP-14","country":"조선민주주의인민공화국","country_code":"kp"},"osm_type":"node","osm_id":9866146606,"type":"city","location":[125.5144115,38.9162524],"bbox":[125.3544115,38.7562524,125.6744115,39.0762524]}
{"name":"강계시","other_names":{"name:ca":"Kanggye","name:cs":"Kanggje","name:de":"Kanggye","name:el":"Γκάνγκιε","name:en":"Kanggye","name:es":"Kanggye","name:et":"Kanggye","name:eu":"Kanggye","name:fr":"Kanggye","name:ja":"江界市","name:ko":"강계시","name:lt":"Kangė","name:ru":"Канге","name:th":"คังกเย","name:uk":"Канге","name:vi":"Giang Giới","name:zh":"江界市","int_name":"Kanggye","name:ko-Hani":"江界市","name:zh-Hans":"江界市","name:zh-Hant":"江界市"},"display_name":"강계시, 자강도, 조선민주주의인민공화국","address":{"city":"강계시","state":"자강도","ISO3166-2-lvl4":"KP-04","country":"조선민주주의인민공화국","country_code":"kp"},"population":251971,"osm_type":"node","osm_id":264064059,"type":"city","location":[126.5975399,40.9659004],"bbox":[126.4375399,40.8059004,126.7575399,41.1259004],"border":{"name":"강계시","other_names":{"name:cs":"Kanggje","name:en":"Kanggye-si","name:fr":"Kanggye-si","name:ja":"江界市","name:ko":"강계시","name:ru":"Канге","name:th":"คังกเย","name:zh":"江界市","name:ko-Hani":"江界市","name:zh-Hans":"江界市","name:zh-Hant":"江界市","name:ca":"Kanggye","name:de":"Kanggye","name:el":"Γκάνγκιε","name:es":"Kanggye","name:et":"Kanggye","name:eu":"Kanggye","name:lt":"Kangė","name:uk":"Канге","name:vi":"Giang Giới","int_name":"Kanggye","alt:en":"Kanggye","alt:fr":"Kanggye"},"display_name":"강계시, 자강도, 조선민주주의인민공화국","address":{"city":"강계시","state":"자강도","ISO3166-2-lvl4":"KP-04","country":"조선민주주의인민공화국","country_code":"kp"},"population":251971,"osm_type":"relation","osm_id":5475704,"type":"administrative","location":[126.5975399,40.9659004],"bbox":[126.4154671,40.8554513,126.7409764,41.0957158]}}
{"name":"개성시","other_names":{"name:ca":"Kaesong","name:cs":"Kesong","name:el":"Γκέσονγκ","name:en":"Kaesong","name:eo":"Kesongo","name:es":"Kaesong","name:et":"Kaesŏng","name:eu":"Kaesong","name:fr":"Kaesŏng","name:ja":"開城市","name:ko":"개성시","name:ru":"Кэсон","name:sk":"Käsong","name:th":"แคซ็อง","name:zh":"开城市","alt_name:es":"Gaeseong-Teukgeupsi","name:ko-Hani":"開城市","name:zh-Hans":"开城市","name:zh-Hant":"開城市","official_name":"개성특별시","official_name:ko":"개성특별시","official_name:ko-Hani":"開城特別市"},"display_name":"개성시, 조선민주주의인민공화국","address":{"city":"개성시","ISO3166-2-lvl4":"KP-15","country":"조선민주주의인민공화국","country_code":"kp"},"population":308000,"osm_type":"node","osm_id":5669592976,"type":"city","location":[126.5527573,37.9716991],"bbox":[126.3927573,37.8116991,126.7127573,38.1316991],"border":{"name":"개성시","other_names":{"name:cs":"Kesong","name:cy":"Kaesong","name:el":"Γκέσονγκ","name:en":"Kaesong","name:eo":"Kesongo","name:ja":"開城市","name:ko":"개성시","name:ru":"Кэсон","name:sk":"Käsong","name:th":"แคซ็อง","name:zh":"开城市","ISO3166-2":"KP-15","name:ko-Hani":"開城市","name:ko-Latn":"Kaesŏng","name:zh-Hans":"开城市","name:zh-Hant":"開城市","official_name":"개성특별시","name:ca":"Kaesong","name:es":"Kaesong","name:et":"Kaesŏng","name:eu":"Kaesong","name:fr":"Kaesŏng","official_name:ko":"개성특별시","official_name:zh":"開城特別市","alt_name:es":"Gaeseong-Teukgeupsi","official_name:ko-Hani":"開城特別市","official_name:ko-Latn":"Kaesŏng-T'ŭkpyŏlsi"},"display_name":"개성시, 조선민주주의인민공화국","address":{"city":"개성시","ISO3166-2-lvl4":"KP-15","country":"조선민주주의인민공화국","country_code":"kp"},"population":308000,"osm_type":"relation","osm_id":5455268,"type":"administrative","location":[126.5527573,37.9716991],"bbox":[126.383055,37.7619558,126.970031,38.2312782]}}
{"name":"개천시","other_names":{"name:ca":"Gaecheon","name:el":"Γκέτσον","name:en":"Kaechon","name:es":"Kaechon","name:et":"Kaech'ŏn","name:eu":"Kaechon","name:ja":"价川市","name:ko":"개천시","name:ru":"Кэчхон","name:th":"แคช็อน","name:zh":"价川市","int_name":"Kaech'ŏn","alt_name:zh":"价川","name:ja-Hira":"けちょんし","name:ko-Hani":"价川市","name:zh-Hant":"价川市"},"display_name":"개천시, 평안남도, 조선민주주의인민공화국","address":{"city":"개천시","state":"평안남도","ISO3166-2-lvl4":"KP-02","country":"조선민주주의인민공화국","country_code":"kp"},"population":319554,"osm_type":"node","osm_id":5760486054,"type":"city","location":[125.8888149,39.7034723],"bbox":[125.7288149,39.5434723,126.0488149,39.8634723],"border":{"name":"개천시","other_names":{"name:en":"Kaechon-si","name:ja":"价川市","name:ko":"개천시","name:ru":"Кэчхон","name:th":"แคช็อน","name:zh":"价川市","name:ko-Hani":"价川市","name:zh-Hans":"价川市","name:zh-Hant":"价川市","name:ca":"Gaecheon","name:el":"Γκέτσον","name:es":"Kaechon","name:et":"Kaech'ŏn","name:eu":"Kaechon","int_name":"Kaech'ŏn","alt_name:zh":"价川","name:ja-Hira":"けちょんし","alt:en":"Kaechon"},"display_name":"개천시, 평안남도, 조선민주주의인민공화국","address":{"city":"개천시","state":"평안남도","ISO3166-2-lvl4":"KP-02","country":"조선민주주의인민공화국","country_code":"kp"},"population":319554,"osm_type":"relation","osm_id":5453657,"type":"administrative","location":[125.8888149,39.7034723],"bbox":[125.7717847,39.5037344,126.1330833,39.8426979]}}
{"name":"구성시","other_names":{"name:ca":"Guseong","name:de":"Kusong","name:el":"Γκούσονγκ","name:en":"Kusong","name:es":"Kusong","name:et":"Kusŏng","name:fr":"Kusong","name:ja":"亀城市","name:ko":"구성시","name:ru":"Кусон","name:zh":"龜城市","int_name":"Kusong","name:ko-Hani":"龜城市","name:zh-Hans":"龟城市","name:zh-Hant":"龜城市"},"display_name":"구성시, 평안북도, 조선민주주의인민공화국","address":{"city":"구성시","state":"평안북도","ISO3166-2-lvl4":"KP-03","country":"조선민주주의인민공화국","country_code":"kp"},"population":196515,"osm_type":"node","osm_id":264065858,"type":"city","location":[125.252058,39.9792248],"bbox":[125.092058,39.8192248,125.412058,40.1392248],"border":{"name":"구성시","other_names":{"name:en":"Kusong-si","name:fr":"Kusong-si","name:ja":"亀城市","name:ko":"구성시","name:ru":"Кусон","name:zh":"龟城市","name:ko-Hani":"龜城市","name:zh-Hant":"龜城市","name:ca":"Guseong","name:de":"Kusong","name:el":"Γκούσονγκ","name:es":"Kusong","name:et":"Kusŏng","int_name":"Kusong","name:zh-Hans":"龟城市","alt:en":"Kusong","alt:fr":"Kusong","alt:zh":"龜城市"},"display_name":"구성시, 평안북도, 조선민주주의인민공화국","address":{"city":"구성시","state":"평안북도","ISO3166-2-lvl4":"KP-03","country":"조선민주주의인민공화국","country_code":"kp"},"population":196515,"osm_type":"relation","osm_id":5452836,"type":"administrative","location":[125.252058,39.9792248],"bbox":[125.0822364,39.7768145,125.4233521,40.1049407]}}
{"name":"김책시","other_names":{"name:ca":"Kimchaek","name:de":"Kimch'aek","name:el":"Γκίμτσεκ","name:en":"Kimch'aek","name:eo":"Kimĉekurbo","name:es":"Kimch'aek","name:et":"Kimch'aek","name:fr":"Kimch'aek","name:ja":"金策市","name:ko":"김책시","name:ru":"Кимчхэк","name:zh":"金策市","alt_name:ko":"성진시","old_name:ru":"Сонджин","name:ja-Hira":"きむちぇくし","name:ko-Hani":"金策市"},"display_name":"김책시, 함경북도, 조선민주주의인민공화국","address":{"city":"김책시","county":"김책시","state":"함경북도","ISO3166-2-lvl4":"KP-09","country":"조선민주주의인민공화국","country_code":"kp"},"population":195217,"osm_type":"node","osm_id":5716814884,"type":"city","location":[129.1994761,40.674265],"bbox":[129.0394761,40.514265,129.3594761,40.834265],"border":{"name":"김책시","other_names":{"name:el":"Γκίμτσεκ","name:en":"Kimchaek-si","name:eo":"Kimĉekurbo","name:fr":"Kimchaek-si","name:ja":"金策市","name:ko":"김책시","name:zh":"金策市","alt_name:ko":"성진시","name:ko-Hani":"金策市","name:zh-Hans":"金策市","name:zh-Hant":"金策市"},"display_name":"김책시, 함경북도, 조선민주주의인민공화국","address":{"county":"김책시","state":"함경북도","ISO3166-2-lvl4":"KP-09","country":"조선민주주의인민공화국","country_code":"kp"},"population":207299,"osm_type":"relation","osm_id":8400244,"type":"administrative","location":[129.19085427278407,40.7514642],"bbox":[128.9309732,40.5312249,129.4793687,40.9731699]}}
{"name":"남포시","other_names":{"name:bg":"Нампо","name:ca":"Nampo","name:cs":"Nampcho","name:cy":"Nampo","name:de":"Nampo","name:el":"Νάμπο","name:en":"Nampo","name:eo":"Nampo","name:es":"Namp'o","name:et":"Namp'o","name:fr":"Nampo","name:ja":"南浦市","name:ko":"남포시","name:lt":"Nampo","name:pt":"Nampo","name:ru":"Нампхо","name:th":"นัมโพ","name:uk":"Нампхо","name:vi":"Nam Phố","name:zh":"南浦市","int_name":"Nampo","name:ko-Hani":"南浦市","name:ko-Latn":"Namp'o","name:zh-Hant":"南浦市","official_name":"남포특별시","official_name:ko":"남포특별시","official_name:zh":"南浦特别市","official_name:ko-Hani":"南浦特別市","official_name:ko-Latn":"Namp'o T'ŭkpyŏlsi"},"display_name":"남포시, 조선민주주의인민공화국","address":{"city":"남포시","ISO3166-2-lvl4":"KP-14","country":"조선민주주의인민공화국","country_code":"kp"},"population":983660,"osm_type":"node","osm_id":32539072,"type":"city","location":[125.4115285,38.7367448],"bbox":[125.2515285,38.5767448,125.5715285,38.8967448],"border":{"name":"남포시","other_names":{"name:cs":"Nampcho","name:cy":"Nampo","name:en":"Nampo","name:eo":"Nampo","name:es":"Namp'o","name:ja":"南浦市","name:ko":"남포시","name:pt":"Nampo","name:ru":"Нампхо","name:sk":"Nampcho","name:th":"นัมโพ","name:zh":"南浦市","ISO3166-2":"KP-14","name:ko-Hani":"南浦市","name:ko-Latn":"Namp'o","name:zh-Hans":"南浦市","name:zh-Hant":"南浦市","official_name":"남포시","name:bg":"Нампо","name:ca":"Nampo","name:de":"Nampo","name:el":"Νάμπο","name:et":"Namp'o","name:fr":"Nampo","name:lt":"Nampo","name:uk":"Нампхо","name:vi":"Nam Phố","int_name":"Nampo","official_name:ko":"남포시","official_name:zh":"南浦市","_place_official_name":"남포특별시","official_name:ko-Hani":"南浦市","official_name:ko-Latn":"Namp'o T'ŭkŭpsi","_place_official_name:ko":"남포특별시","_place_official_name:zh":"南浦特别市","_place_official_name:ko-Hani":"南浦特別市","_place_official_name:ko-Latn":"Namp'o T'ŭkpyŏlsi"},"display_name":"남포시, 조선민주주의인민공화국","address":{"city":"남포시","ISO3166-2-lvl4":"KP-14","country":"조선민주주의인민공화국","country_code":"kp"},"population":983660,"osm_type":"relation","osm_id":5453650,"type":"administrative","location":[125.4115285,38.7367448],"bbox":[124.5057405,38.4766519,125.6358031,39.0417102]}}
{"name":"단천시","other_names":{"name:ca":"Dancheon","name:de":"Tanch'ŏn","name:el":"Ντάντσον","name:en":"Tanchon","name:es":"Tanchon","name:et":"Tanch’ŏn","name:eu":"Tanchon","name:fr":"Tanchon","name:ja":"端川市","name:ko":"단천시","name:ru":"Танчхон","name:th":"ทันช็อน","name:zh":"端川市","int_name":"Tanchon","name:ko-Hani":"端川市","name:zh-Hans":"端川市","name:zh-Hant":"端川市"},"display_name":"단천시, 함경남도, 조선민주주의인민공화국","address":{"city":"단천시","state":"함경남도","ISO3166-2-lvl4":"KP-08","country":"조선민주주의인민공화국","country_code":"kp"},"population":345875,"osm_type":"node","osm_id":991650348,"type":"city","location":[128.9038646,40.4590505],"bbox":[128.7438646,40.2990505,129.0638646,40.6190505],"border":{"name":"단천시","other_names":{"name:en":"Tanchon-si","name:fr":"Tanchon-si","name:ja":"端川市","name:ko":"단천시","name:th":"ทันช็อน","name:zh":"端川市","name:ko-Hani":"端川市","name:ko-Latn":"Tanchŏn-si","name:zh-Hans":"端川市","name:zh-Hant":"端川市","name:ca":"Dancheon","name:de":"Tanch'ŏn","name:el":"Ντάντσον","name:es":"Tanchon","name:et":"Tanch’ŏn","name:eu":"Tanchon","name:ru":"Танчхон","int_name":"Tanchon","alt:en":"Tanchon","alt:fr":"Tanchon"},"display_name":"단천시, 함경남도, 조선민주주의인민공화국","address":{"city":"단천시","state":"함경남도","ISO3166-2-lvl4":"KP-08","country":"조선민주주의인민공화국","country_code":"kp"},"population":345875,"osm_type":"relation","osm_id":8407289,"type":"administrative","location":[128.9038646,40.4590505],"bbox":[128.4469985,40.283193,129.2690732,41.1851784]}}
{"name":"덕천시","other_names":{"name:ca":"Deokcheon","name:de":"Tokchon","name:el":"Ντόκτσον","name:en":"Tokchon","name:es":"Tokchon","name:et":"Tŏkch'ŏn","name:fr":"Tokchon","name:ja":"徳川市","name:ko":"덕천시","name:ru":"Токчхон","name:zh":"德川市","int_name":"Tokchon","old_name:de":"Toktschön","name:ko-Hani":"德川市","name:zh-Hant":"德川市"},"display_name":"덕천시, 평안남도, 조선민주주의인민공화국","address":{"city":"덕천시","state":"평안남도","ISO3166-2-lvl4":"KP-02","country":"조선민주주의인민공화국","country_code":"kp"},"population":237133,"osm_type":"node","osm_id":1946549941,"type":"city","location":[126.3132673,39.7657075],"bbox":[126.1532673,39.6057075,126.4732673,39.9257075],"border":{"name":"덕천시","other_names":{"name:en":"Tokchon-si","name:fr":"Tokchon-si","name:ja":"徳川市","name:ko":"덕천시","name:ru":"Токчхон","name:zh":"德川市","name:ko-Hani":"德川市","name:zh-Hans":"德川市","name:zh-Hant":"德川市","name:ca":"Deokcheon","name:de":"Tokchon","name:el":"Ντόκτσον","name:es":"Tokchon","name:et":"Tŏkch'ŏn","int_name":"Tokchon","old_name:de":"Toktschön","alt:en":"Tokchon","alt:fr":"Tokchon"},"display_name":"덕천시, 평안남도, 조선민주주의인민공화국","address":{"city":"덕천시","state":"평안남도","ISO3166-2-lvl4":"KP-02","country":"조선민주주의인민공화국","country_code":"kp"},"population":237133,"osm_type":"relation","osm_id":5453666,"type":"administrative","location":[126.3132673,39.7657075],"bbox":[126.0782861,39.6199763,126.4824529,39.9058255]}}
{"name":"라선시","other_names":{"name:ar":"راسون","name:ca":"Rason","name:cs":"Rason","name:cy":"Rason","name:de":"Rason","name:el":"Ράσον","name:en":"Rason","name:es":"Rasŏn","name:et":"Nasŏn","name:fr":"Rasŏn","name:hu":"Raszon","name:ja":"羅先市","name:ko":"라선시","name:lt":"Rasonas","name:ru":"Расон","name:sk":"Rason","name:th":"ราซ็อน","name:uk":"Насон","name:vi":"La Thiên","name:zh":"羅先市","int_name":"Rason","alt_name:ru":"Насон","old_name:cs":"Radžin-Sonbong","old_name:ru":"Унги","old_name:sk":"Radžin-Sonbong","name:ko-Hani":"羅先市","name:ko-Latn":"Rasŏn","name:zh-Hans":"罗先市","name:zh-Hant":"羅先市","official_name":"라선특별시","official_name:ja":"羅先特別市","official_name:ko":"라선특별시","official_name:zh":"罗先特别市","official_name:ko-Hani":"羅先特別市","official_name:ko-Latn":"Rasŏn T'ŭkpyŏlsi","official_name:zh-Hant":"羅先特別市"},"display_name":"라선시, 조선민주주의인민공화국","address":{"city":"라선시","ISO3166-2-lvl4":"KP-13","country":"조선민주주의인민공화국","country_code":"kp"},"population":196954,"osm_type":"node","osm_id":530848646,"type":"city","location":[130.3113296,42.2497316],"bbox":[130.1513296,42.0897316,130.4713296,42.4097316],"border":[{"name":"라선시","other_names":{"name:ar":"راسون","name:cs":"Rason","name:cy":"Rason","name:de":"Rason","name:el":"Ράσον","name:en":"Rason","name:es":"Rasŏn","name:fr":"Rasŏn","name:ja":"羅先市","name:ko":"라선시","name:lt":"Rasonas","name:ru":"Насон","name:sk":"Rason","name:th":"ราซ็อน","name:uk":"Насон","name:vi":"La Thiên","name:zh":"罗先市","alt_name":"나선특별시","int_name":"Rason","ISO3166-2":"KP-13","short_name":"나선","alt_name:ko":"나선시","alt_name:ru":"Расон","old_name:cs":"Radžin-Sonbong","old_name:ru":"Унги","old_name:sk":"Radžin-Sonbong","name:ko-Hani":"羅先市","name:ko-Latn":"Rasŏn","name:zh-Hant":"羅先市","official_name":"라선특별시","short_name:ko":"라선","name:ca":"Rason","name:et":"Nasŏn","name:hu":"Raszon","official_name:ja":"羅先特別市","official_name:ko":"라선특별시","official_name:zh":"罗先特别市","_place_alt_name:ru":"Насон","name:zh-Hans":"罗先市","official_name:ko-Hani":"羅先特別市","official_name:ko-Latn":"Rasŏn T'ŭkpyŏlsi","official_name:zh-Hant":"羅先特別市","alt:ru":"Расон","alt:zh":"羅先市"},"display_name":"라선시, 조선민주주의인민공화국","address":{"city":"라선시","ISO3166-2-lvl4":"KP-13","country":"조선민주주의인민공화국","country_code":"kp"},"population":196954,"osm_type":"relation","osm_id":6648083,"type":"administrative","location":[130.3113296,42.2497316],"bbox":[130.04222,41.9840592,130.8861177,42.6174085]},{"name":"선봉구역","other_names":{"name:de":"Sŏnbong","name:en":"Sonbong District","name:ja":"先鋒区域","name:ko":"선봉구역","name:zh":"先锋区","old_name":"웅기군","old_name:ko":"웅기군","old_name:zh":"雄基郡","name:ko-Hani":"先鋒區域","name:ko-Latn":"Sŏnbong-guyŏk","name:zh-Hans":"先锋区","name:zh-Hant":"先鋒區","name:ru":"Сонбон","int_name":"Sonbong","_place_old_name":"웅기","old_name:ko-Hani":"雄基郡","old_name:en":"Unggi","old_name:ru":"Унги","alt:de":"Sonbong","alt:en":"Sonbong","alt:zh":"先鋒區域","alt:zh-Hans":"先锋区域","alt:zh-Hant":"先鋒區域"},"display_name":"선봉구역, 라선시, 조선민주주의인민공화국","address":{"suburb":"선봉구역","city":"라선시","ISO3166-2-lvl4":"KP-13","country":"조선민주주의인민공화국","country_code":"kp"},"osm_type":"relation","osm_id":13284720,"type":"administrative","location":[130.3965785,42.33957],"bbox":[130.2870521,42.2106849,130.7112362,42.6174085]}]}
{"name":"만포시","other_names":{"name:ca":"Manpo","name:de":"Manpo","name:el":"Μάνπο","name:en":"Manpo","name:eo":"Manpo","name:es":"Manpo","name:et":"Manp'o","name:fr":"Manpho","name:ja":"満浦市","name:ko":"만포시","name:pt":"Manpo","name:ru":"Манпхо","name:zh":"滿浦市","int_name":"Manpo","name:ja_kana":"まんぽ","name:ko-Hani":"滿浦市","name:zh-Hans":"满浦市","name:zh-Hant":"滿浦市"},"display_name":"만포시, 자강도, 조선민주주의인민공화국","address":{"city":"만포시","state":"자강도","ISO3166-2-lvl4":"KP-04","country":"조선민주주의인민공화국","country_code":"kp"},"population":116760,"osm_type":"node","osm_id":264063426,"type":"city","location":[126.2876899,41.1547179],"bbox":[126.1276899,40.9947179,126.4476899,41.3147179],"border":{"name":"만포시","other_names":{"name:en":"Manpo-si","name:eo":"Manpo","name:fr":"Manpo-si","name:ja":"満浦市","name:ko":"만포시","name:pt":"Manpo","name:ru":"Манпхо","name:zh":"满浦市","name:ko-Hani":"滿浦市","name:zh-Hant":"滿浦市","name:ca":"Manpo","name:de":"Manpo","name:el":"Μάνπο","name:es":"Manpo","name:et":"Manp'o","int_name":"Manpo","name:ja_kana":"まんぽ","name:zh-Hans":"满浦市","alt:en":"Manpo","alt:fr":"Manpho","alt:zh":"滿浦市"},"display_name":"만포시, 자강도, 조선민주주의인민공화국","address":{"city":"만포시","state":"자강도","ISO3166-2-lvl4":"KP-04","country":"조선민주주의인민공화국","country_code":"kp"},"population":116760,"osm_type":"relation","osm_id":5475705,"type":"administrative","location":[126.2876899,41.1547179],"bbox":[126.062622,40.9538548,126.6639407,41.3718592]}}
{"name":"문천시","other_names":{"name:ca":"Munchon","name:de":"Munchon","name:el":"Μούντσον","name:en":"Munchon","name:es":"Munchŏn","name:et":"Munch'ŏn","name:fa":"مونچون","name:fr":"Munchŏn","name:ja":"文川市","name:ko":"문천시","name:ru":"Мунчхон","name:uk":"Мунчхон","name:zh":"文川市","int_name":"Munchyong","name:ko-Hani":"文川市","name:zh-Hant":"文川市"},"display_name":"문천시, 강원도, 조선민주주의인민공화국","address":{"city":"문천시","state":"강원도","ISO3166-2-lvl4":"KP-07","country":"조선민주주의인민공화국","country_code":"kp"},"population":122934,"osm_type":"node","osm_id":256630332,"type":"city","location":[127.3598714,39.2370094],"bbox":[127.1998714,39.0770094,127.5198714,39.3970094],"border":{"name":"문천시","other_names":{"name:en":"Munchon-si","name:fa":"شهر مونچون","name:fr":"Munchon-si","name:ja":"文川市","name:ko":"문천시","name:ru":"Мунчхон","name:zh":"文川市","name:ko-Hani":"文川市","name:zh-Hans":"文川市","name:zh-Hant":"文川市","name:ca":"Munchon","name:de":"Munchon","name:el":"Μούντσον","name:es":"Munchŏn","name:et":"Munch'ŏn","name:uk":"Мунчхон","int_name":"Munchyong","alt:en":"Munchon","alt:fa":"مونچون","alt:fr":"Munchŏn"},"display_name":"문천시, 강원도, 조선민주주의인민공화국","address":{"city":"문천시","state":"강원도","ISO3166-2-lvl4":"KP-07","country":"조선민주주의인민공화국","country_code":"kp"},"population":122934,"osm_type":"relation","osm_id":8319793,"type":"administrative","location":[127.3598714,39.2370094],"bbox":[127.1379089,39.1524443,127.493528,39.3829072]}}
{"name":"사리원시","other_names":{"name:ca":"Sariwon","name:cs":"Sariwon","name:cy":"Sariwon","name:de":"Sariwŏn","name:el":"Σάριουον","name:en":"Sariwon","name:es":"Sariwon","name:eu":"Sariwon","name:fr":"Sariwon","name:ja":"沙里院市","name:ko":"사리원시","name:lt":"Sarivonas","name:ru":"Саривон","name:th":"ซารีว็อน","name:zh":"沙里院市","alt_name":"Sariwŏn","int_name":"Sariwon","name:pnb":"ساریون","name:ko-Hani":"沙里院市","name:zh-Hant":"沙里院市"},"display_name":"사리원시, 황해북도, 조선민주주의인민공화국","address":{"city":"사리원시","state":"황해북도","ISO3166-2-lvl4":"KP-06","country":"조선민주주의인민공화국","country_code":"kp"},"population":307764,"osm_type":"node","osm_id":256594216,"type":"city","location":[125.7555447,38.50935],"bbox":[125.5955447,38.34935,125.9155447,38.66935],"border":{"name":"사리원시","other_names":{"name:cs":"Sariwon","name:cy":"Sariwon-si","name:el":"Σάριουον","name:en":"Sariwon-si","name:fr":"Sariwon-si","name:ja":"沙里院市","name:ko":"사리원시","name:ru":"Саривон","name:th":"ซารีว็อน","name:zh":"沙里院市","name:ko-Hani":"沙里院市","name:ko-Latn":"Sariwŏn-si","name:zh-Hans":"沙里院市","name:zh-Hant":"沙里院市","name:ca":"Sariwon","name:de":"Sariwŏn","name:es":"Sariwon","name:eu":"Sariwon","name:lt":"Sarivonas","alt_name":"Sariwŏn","int_name":"Sariwon","name:pnb":"ساریون","alt:cy":"Sariwon","alt:en":"Sariwon","alt:fr":"Sariwon"},"display_name":"사리원시, 황해북도, 조선민주주의인민공화국","address":{"city":"사리원시","state":"황해북도","ISO3166-2-lvl4":"KP-06","country":"조선민주주의인민공화국","country_code":"kp"},"population":307764,"osm_type":"relation","osm_id":5455246,"type":"administrative","location":[125.7555447,38.50935],"bbox":[125.648821,38.4600411,125.8951922,38.6048988]}}
{"name":"순천시","other_names":{"name:el":"Σούντσον","name:en":"Sunchon","name:es":"Sunchon","name:fr":"Sunchon","name:ja":"順川市","name:ko":"순천시","name:ru":"Сунчхон","name:zh":"順川市","name:ko-Hani":"順川市","name:zh-Hans":"顺川市","name:zh-Hant":"順川市"},"display_name":"순천시, 평안남도, 조선민주주의인민공화국","address":{"city":"순천시","state":"평안남도","ISO3166-2-lvl4":"KP-02","country":"조선민주주의인민공화국","country_code":"kp"},"osm_type":"node","osm_id":9310138938,"type":"city","location":[125.9476531,39.4196379],"bbox":[125.7876531,39.2596379,126.1076531,39.5796379],"border":{"name":"순천시","other_names":{"name:en":"Sunchon-si","name:fr":"Sunchon-si","name:ja":"順川市","name:ko":"순천시","name:ru":"Сунчхон","name:vi":"Thuận Xuyên","name:zh":"顺川市","name:ko-Hani":"順川市","name:zh-Hant":"順川市","name:el":"Σούντσον","name:es":"Sunchon","name:zh-Hans":"顺川市","alt:en":"Sunchon","alt:fr":"Sunchon","alt:zh":"順川市"},"display_name":"순천시, 평안남도, 조선민주주의인민공화국","address":{"city":"순천시","state":"평안남도","ISO3166-2-lvl4":"KP-02","country":"조선민주주의인민공화국","country_code":"kp"},"population":297317,"osm_type":"relation","osm_id":5453660,"type":"administrative","location":[125.9476531,39.4196379],"bbox":[125.7662977,39.3541994,126.0778012,39.5780411]}}
{"name":"신의주시","other_names":{"name:ca":"Sinuiju","name:cs":"Sinuidžu","name:cy":"Sinuiju","name:de":"Sinŭiju","name:el":"Σινούιτζου","name:en":"Sinuiju","name:eo":"Sinviĵuo","name:es":"Sinuiju","name:et":"Sinŭiju","name:fr":"Sinuiju","name:ja":"新義州市","name:ko":"신의주시","name:lt":"Sineidžu","name:ru":"Синыйджу","name:th":"ชินอึยจู","name:uk":"Сінийджу","name:vi":"Tân Nghĩa Châu","name:zh":"新義州市","name:ko-Hani":"新義州市","name:zh-Hans":"新义州市","name:zh-Hant":"新義州市"},"display_name":"신의주시, 평안북도, 조선민주주의인민공화국","address":{"city":"신의주시","state":"평안북도","ISO3166-2-lvl4":"KP-03","country":"조선민주주의인민공화국","country_code":"kp"},"population":288112,"osm_type":"node","osm_id":256633232,"type":"city","location":[124.3977559,40.0940758],"bbox":[124.2377559,39.9340758,124.5577559,40.2540758],"border":{"name":"신의주시","other_names":{"name:cs":"Sinuidžu","name:cy":"Sinuiju","name:en":"Sinuiju-si","name:eo":"Sinviĵuo","name:fr":"Sinuiju-si","name:ja":"新義州市","name:ko":"신의주시","name:ru":"Синыйджу","name:th":"ชินอึยจู","name:zh":"新義州市","name:yue":"新義州市","name:ko-Hani":"新義州市","name:zh-Hans":"新义州市","name:zh-Hant":"新義州市","name:ca":"Sinuiju","name:de":"Sinŭiju","name:el":"Σινούιτζου","name:es":"Sinuiju","name:et":"Sinŭiju","name:lt":"Sineidžu","name:uk":"Сінийджу","name:vi":"Tân Nghĩa Châu","alt:en":"Sinuiju","alt:fr":"Sinuiju"},"display_name":"신의주시, 평안북도, 조선민주주의인민공화국","address":{"city":"신의주시","state":"평안북도","ISO3166-2-lvl4":"KP-03","country":"조선민주주의인민공화국","country_code":"kp"},"population":359341,"osm_type":"relation","osm_id":356539,"type":"administrative","location":[124.3977559,40.0940758],"bbox":[124.3344252,40.0180428,124.5461444,40.1751531]}}
{"name":"신포시","other_names":{"name:ca":"Sinpo","name:de":"Sinpo","name:el":"Σίνπο","name:en":"Sinpho","name:es":"Sinpo","name:et":"Sinp'o","name:fr":"Sinpo","name:ja":"新浦市","name:ko":"신포시","name:ru":"Синпхо","name:zh":"新浦市","int_name":"Sinpo","name:ja-Hira":"しんぽし","name:ko-Hani":"新浦市","name:zh-Hant":"新浦市"},"display_name":"신포시, 함경남도, 조선민주주의인민공화국","address":{"city":"신포시","state":"함경남도","ISO3166-2-lvl4":"KP-08","country":"조선민주주의인민공화국","country_code":"kp"},"population":152759,"osm_type":"node","osm_id":256630703,"type":"city","location":[128.1914944,40.0316049],"bbox":[128.0314944,39.8716049,128.3514944,40.1916049],"border":{"name":"신포시","other_names":{"name:de":"Sinpo","name:en":"Sinpo-si","name:es":"Sinpo","name:et":"Sinp'o","name:fr":"Sinpo","name:ja":"新浦市","name:ko":"신포시","name:ru":"Синпхо","name:zh":"新浦市","name:ko-Hani":"新浦市","name:zh-Hans":"新浦市","name:zh-Hant":"新浦市","name:ca":"Sinpo","name:el":"Σίνπο","int_name":"Sinpo","name:ja-Hira":"しんぽし","alt:en":"Sinpho"},"display_name":"신포시, 함경남도, 조선민주주의인민공화국","address":{"city":"신포시","state":"함경남도","ISO3166-2-lvl4":"KP-08","country":"조선민주주의인민공화국","country_code":"kp"},"population":152759,"osm_type":"relation","osm_id":8412736,"type":"administrative","location":[128.1914944,40.0316049],"bbox":[128.0952215,39.9352767,128.289789,40.1342003]}}
{"name":"안주시","other_names":{"name:ca":"Anju","name:de":"Anju","name:el":"Άντζου","name:en":"Anju","name:es":"Anju","name:et":"Anju","name:fr":"Anju","name:ja":"安州市","name:ko":"안주시","name:nl":"Anju","name:ru":"Анджу","name:zh":"安州市","int_name":"Anju","alt_name:zh":"安州","name:ko-Hani":"安州市","name:zh-Hant":"安州市"},"display_name":"안주시, 평안남도, 조선민주주의인민공화국","address":{"city":"안주시","state":"평안남도","ISO3166-2-lvl4":"KP-02","country":"조선민주주의인민공화국","country_code":"kp"},"population":240117,"osm_type":"node","osm_id":343234697,"type":"city","location":[125.6611381,39.6173686],"bbox":[125.5011381,39.4573686,125.8211381,39.7773686],"border":{"name":"안주시","other_names":{"name:en":"Anju-si","name:fr":"Anju-si","name:ja":"安州市","name:ko":"안주시","name:ru":"Анджу","name:zh":"安州市","name:ko-Hani":"安州市","name:zh-Hans":"安州市","name:zh-Hant":"安州市","name:ca":"Anju","name:de":"Anju","name:el":"Άντζου","name:es":"Anju","name:et":"Anju","name:nl":"Anju","int_name":"Anju","alt_name:zh":"安州","alt:en":"Anju","alt:fr":"Anju"},"display_name":"안주시, 평안남도, 조선민주주의인민공화국","address":{"city":"안주시","state":"평안남도","ISO3166-2-lvl4":"KP-02","country":"조선민주주의인민공화국","country_code":"kp"},"population":240117,"osm_type":"relation","osm_id":5453654,"type":"administrative","location":[125.6611381,39.6173686],"bbox":[125.5188365,39.5286737,125.8463263,39.718773]}}
{"name":"원산시","other_names":{"name:ca":"Wonsan","name:cs":"Wonsan","name:cy":"Wonsan","name:de":"Wŏnsan","name:el":"Ουόνσαν","name:en":"Wonsan","name:eo":"Vonsano","name:es":"Wŏnsan","name:et":"Wŏnsan","name:eu":"Wonsan","name:fa":"وون‌سان","name:fi":"Wonsan","name:fr":"Wonsan","name:ja":"元山市","name:ko":"원산시","name:lt":"Vonsanas","name:nl":"Wŏnsan","name:ru":"Вонсан","name:th":"ว็อนซัน","name:uk":"Вонсан","name:vi":"Nguyên San","name:zh":"元山市","int_name":"Wonsan","alt_name:de":"Wönsan","name:ja-Hira":"うぉんさんし","name:ko-Hani":"元山市","name:zh-Hant":"元山市"},"display_name":"원산시, 강원도, 조선민주주의인민공화국","address":{"city":"원산시","state":"강원도","ISO3166-2-lvl4":"KP-07","country":"조선민주주의인민공화국","country_code":"kp"},"population":329207,"osm_type":"node","osm_id":33259203,"type":"city","location":[127.4284243,39.1725946],"bbox":[127.2684243,39.0125946,127.5884243,39.3325946],"border":{"name":"원산시","other_names":{"name:cs":"Wonsan","name:cy":"Wonsan","name:en":"Wonsan-si","name:eo":"Vonsano","name:fa":"شهر وون‌سان","name:fr":"Wonsan-si","name:ja":"元山市","name:ko":"원산시","name:ru":"Вонсан","name:th":"ว็อนซัน","name:zh":"元山市","name:ko-Hani":"元山市","name:zh-Hans":"元山市","name:zh-Hant":"元山市","name:ca":"Wonsan","name:de":"Wŏnsan","name:el":"Ουόνσαν","name:es":"Wŏnsan","name:et":"Wŏnsan","name:eu":"Wonsan","name:fi":"Wonsan","name:lt":"Vonsanas","name:nl":"Wŏnsan","name:uk":"Вонсан","name:vi":"Nguyên San","int_name":"Wonsan","alt_name:de":"Wönsan","name:ja-Hira":"うぉんさんし","alt:en":"Wonsan","alt:fa":"وون‌سان","alt:fr":"Wonsan"},"display_name":"원산시, 강원도, 조선민주주의인민공화국","address":{"city":"원산시","state":"강원도","ISO3166-2-lvl4":"KP-07","country":"조선민주주의인민공화국","country_code":"kp"},"population":363127,"osm_type":"relation","osm_id":8318609,"type":"administrative","location":[127.4284243,39.1725946],"bbox":[127.2206092,39.0155903,127.6787292,39.2933918]}}
{"name":"정주시","other_names":{"name:ca":"Jeongju","name:de":"Chongju","name:el":"Τζόνγκτζου","name:en":"Jongju","name:es":"Chongju","name:et":"Chŏngju","name:fr":"Chongju","name:ja":"定州市","name:ko":"정주시","name:ru":"Чонджу","name:zh":"定州市","int_name":"Chongju","name:ko-Hani":"定州市","name:zh-Hant":"定州市"},"display_name":"정주시, 평안북도, 조선민주주의인민공화국","address":{"city":"정주시","state":"평안북도","ISO3166-2-lvl4":"KP-03","country":"조선민주주의인민공화국","country_code":"kp"},"population":189742,"osm_type":"node","osm_id":264065251,"type":"city","location":[125.2101297,39.6929225],"bbox":[125.0501297,39.5329225,125.3701297,39.8529225],"border":{"name":"정주시","other_names":{"name:en":"Chongju-si","name:fr":"Chongju-si","name:ja":"定州市","name:ko":"정주시","name:ru":"Чонджу","name:vi":"Định Châu","name:zh":"定州市","name:ko-Hani":"定州市","name:zh-Hans":"定州市","name:zh-Hant":"定州市","name:ca":"Jeongju","name:de":"Chongju","name:el":"Τζόνγκτζου","name:es":"Chongju","name:et":"Chŏngju","int_name":"Chongju","alt:en":"Jongju","alt:fr":"Chongju"},"display_name":"정주시, 평안북도, 조선민주주의인민공화국","address":{"city":"정주시","state":"평안북도","ISO3166-2-lvl4":"KP-03","country":"조선민주주의인민공화국","country_code":"kp"},"population":189742,"osm_type":"relation","osm_id":5452811,"type":"administrative","location":[125.2101297,39.6929225],"bbox":[125.0934756,39.3518746,125.378068,39.8498985]}}
{"name":"차일로동자구","other_names":{"name:en":"Ch’ail-li","name:ko":"차일로동자구","alt_name:en":"Ch’ail-lodongjagu"},"display_name":"차일로동자구, 부전군, 함경남도, 조선민주주의인민공화국","address":{"city":"차일로동자구","county":"부전군","state":"함경남도","ISO3166-2-lvl4":"KP-08","country":"조선민주주의인민공화국","country_code":"kp"},"osm_type":"node","osm_id":12992277440,"type":"city","location":[127.6511979,40.5951688],"bbox":[127.4911979,40.4351688,127.8111979,40.7551688]}
{"name":"청진시","other_names":{"name:ca":"Chongjin","name:cs":"Čchongdžin","name:cy":"Chongjin","name:el":"Τσόνγκτζιν","name:en":"Chŏngjin","name:es":"Chongjin","name:et":"Ch'ŏngjin","name:eu":"Chongjin","name:fi":"Cheongjin","name:fr":"Chŏngjin","name:ja":"清津市","name:ko":"청진시","name:ru":"Чхонджин","name:th":"ช็องจิน","name:zh":"清津市","alt_name:es":"Ch'ŏngjin","name:ko-Hani":"淸津市","name:zh-Hans":"清津市","name:zh-Hant":"淸津市"},"display_name":"청진시, 함경북도, 조선민주주의인민공화국","address":{"city":"청진시","state":"함경북도","ISO3166-2-lvl4":"KP-09","country":"조선민주주의인민공화국","country_code":"kp"},"population":667929,"osm_type":"node","osm_id":5716818224,"type":"city","location":[129.8206615,41.783248],"bbox":[129.6606615,41.623248,129.9806615,41.943248],"border":{"name":"청진시","other_names":{"name:cs":"Čchongdžin","name:cy":"Chongjin-si","name:el":"Τσόνγκτζιν","name:en":"Chongjin-si","name:eo":"Ĉongĵino","name:ja":"清津市","name:ko":"청진시","name:ru":"Чхонджин","name:th":"ช็องจิน","name:zh":"清津市","name:ko-Hani":"淸津市","name:zh-Hans":"清津市","name:zh-Hant":"淸津市","name:ca":"Chongjin","name:es":"Chongjin","name:et":"Ch'ŏngjin","name:eu":"Chongjin","name:fi":"Cheongjin","name:fr":"Chŏngjin","alt_name:es":"Ch'ŏngjin","alt:cy":"Chongjin","alt:en":"Chŏngjin"},"display_name":"청진시, 함경북도, 조선민주주의인민공화국","address":{"city":"청진시","state":"함경북도","ISO3166-2-lvl4":"KP-09","country":"조선민주주의인민공화국","country_code":"kp"},"population":667929,"osm_type":"relation","osm_id":8400380,"type":"administrative","location":[129.8206615,41.783248],"bbox":[129.3465899,41.6267682,130.3227016,42.2949133]}}
{"name":"평성시","other_names":{"name:ca":"Pyongsong","name:cy":"Pyongsong","name:el":"Πιόνγκσονγκ","name:en":"Pyongsong","name:es":"Pyongsong","name:fr":"Pyongsong","name:ja":"平城市","name:ko":"평성시","name:ru":"Пхёнсон","name:zh":"平城市","alt_name:en":"Pyŏngsŏng","name:ko-Hani":"平城市","name:zh-Hant":"平城市"},"display_name":"평성시, 평안남도, 조선민주주의인민공화국","address":{"city":"평성시","state":"평안남도","ISO3166-2-lvl4":"KP-02","country":"조선민주주의인민공화국","country_code":"kp"},"osm_type":"node","osm_id":7778226608,"type":"city","location":[125.8721799,39.2482905],"bbox":[125.7121799,39.0882905,126.0321799,39.4082905],"border":{"name":"평성시","other_names":{"name:cy":"Pyongsong-si","name:en":"Pyongsong-si","name:fr":"Pyongsong-si","name:ja":"平城市","name:ko":"평성시","name:ru":"Пхёнсон","name:zh":"平城市","name:ko-Hani":"平城市","name:zh-Hans":"平城市","name:zh-Hant":"平城市","name:ca":"Pyongsong","name:el":"Πιόνγκσονγκ","name:es":"Pyongsong","alt_name:en":"Pyŏngsŏng","alt:cy":"Pyongsong","alt:en":"Pyongsong","alt:fr":"Pyongsong"},"display_name":"평성시, 평안남도, 조선민주주의인민공화국","address":{"city":"평성시","state":"평안남도","ISO3166-2-lvl4":"KP-02","country":"조선민주주의인민공화국","country_code":"kp"},"population":284386,"osm_type":"relation","osm_id":5453397,"type":"administrative","location":[125.8721799,39.2482905],"bbox":[125.7237107,39.2160127,125.9938621,39.4145891]}}
{"name":"평양시","other_names":{"name:af":"Pjongjang","name:am":"ፕዮንግያንግ","name:an":"Pyongyang","name:ar":"بيونغيانغ","name:as":"পিয়ং ইয়াং","name:az":"Pxenyan","name:ba":"Пхеньян","name:be":"Пхеньян","name:bg":"Пхенян","name:bn":"পিয়ং ইয়াং","name:bo":"ཕོང་ཡང་།","name:br":"Pyongyang","name:bs":"Pjongjang","name:ca":"Pyongyang","name:ce":"Пхеньян","name:cs":"Pchjongjang","name:cy":"Pyongyang","name:da":"Pyongyang","name:de":"Pjöngjang","name:el":"Πιονγιάνγκ","name:en":"Pyongyang","name:eo":"Pjongjango","name:es":"Pionyang","name:et":"Pyongyang","name:eu":"Piongiang","name:fa":"پیونگ‌یانگ","name:fi":"Pjongjang","name:fo":"Pyongyang","name:fr":"Pyongyang","name:fy":"Pyongyang","name:ga":"Pyongyang","name:gd":"Pyongyang","name:gl":"Pyongyang","name:ha":"Pyongyang","name:he":"פיונגיאנג","name:hi":"प्योंगयांग","name:hr":"Pjongjang","name:ht":"Pyongyang","name:hu":"Phenjan","name:hy":"Պխենյան","name:ia":"Pyongyang","name:id":"Pyongyang","name:ie":"Pyongyang","name:ik":"Piauñaŋaaq","name:io":"Pyongyang","name:is":"Pjongjang","name:it":"Pyongyang","name:ja":"平壌市","name:jv":"Pyongyang","name:ka":"ფხენიანი","name:kg":"Pyongyang","name:kk":"Пхеньян","name:kl":"Pyongyang","name:km":"ព្យុងយ៉ាង","name:kn":"ಪ್ಯೊನ್ಗ್ಯಾಂಗ್","name:ko":"평양직할시","name:ku":"Pyongyang","name:ky":"Пхеньян","name:la":"Pyeongyangum","name:lb":"Pjöngjang","name:lo":"ພຽງຢາງ","name:lt":"Pchenjanas","name:lv":"Phenjana","name:mg":"Pyongyang","name:mi":"Pyongyang","name:mk":"Пјонгјанг","name:ml":"പ്യോങ്യാങ്","name:mn":"Пхеньян","name:mr":"प्याँगयांग","name:ms":"Pyongyang","name:mt":"Pyongyang","name:my":"ပြုံယမ်းမြို့","name:nb":"Pyongyang","name:ne":"प्योङयाङ","name:nl":"Pyongyang","name:nn":"Pyongyang","name:no":"Pyongyang","name:oc":"Pyeongyang","name:os":"Пхеньян","name:pa":"ਪਿਓਂਗਯਾਂਗ","name:pl":"Pjongjang","name:ps":"پيونګيانګ","name:pt":"Pyongyang","name:qu":"Pyongyang","name:ro":"Phenian","name:ru":"Пхеньян","name:sc":"Pyongyang","name:sd":"پيانگ يانگ","name:sh":"Pjongjang","name:sk":"Pchjongjang","name:sl":"Pjongjang","name:sn":"Pyongyang","name:sq":"Pjongian","name:sr":"Пјонгјанг","name:sv":"Pyongyang","name:sw":"Pyongyang","name:ta":"பியொங்யாங்","name:tg":"Пхенян","name:th":"เปียงยาง","name:tk":"Phenýan","name:tl":"Pyongyang","name:tr":"Pyongyang","name:tt":"Пхеньян","name:ug":"Pyongyang","name:uk":"Пхеньян","name:ur":"پیانگ یانگ","name:uz":"Pxenyan","name:vi":"Bình Nhưỡng","name:vo":"Pyöngyang","name:yi":"פיאנגיאנג","name:yo":"Pyongyang","name:zh":"平壤市","name:ace":"Pyeongyang","name:ast":"Pyongyang","name:ckb":"پیۆنگیانگ","name:cnr":"Pjongjang","name:csb":"P'yŏngyang","name:diq":"Pyongyang","name:dsb":"Pchjongjang","name:hif":"Pyongyang","name:ilo":"Pyongyang","name:kab":"Pyongyang","name:lez":"Пхеньян","name:lmo":"Pyongyang","name:lzh":"平壤市","name:mzn":"پيونگ يانگ","name:nah":"Pionyang","name:nan":"Pyongyang","name:nap":"Pyongyang","name:nov":"Pyongyang","name:pms":"Pyongyang","name:pnb":"پیانگ یانگ","name:scn":"Pyongyang","name:sco":"Pyongyang","name:tpi":"Pyongyang","name:war":"Pyongyang","name:wuu":"平壤市","name:yue":"平壤市","alt_name:es":"Pyongyang","old_name:pl":"Phenian","old_name:zh":"柳京","name:bat-smg":"Pchenjans","name:ko-Hani":"平壤市","name:ko-Latn":"P'yŏngyang","name:zh-Hant":"平壤市","official_name":"평양직할시","name:be-tarask":"Пхеньян","official_name:ko":"평양직할시","official_name:zh":"平壤直轄市","official_name:ko-Hani":"平壤直轄市","official_name:ko-Latn":"P'yŏngyang Chikhalsi"},"display_name":"평양시, 조선민주주의인민공화국","address":{"city":"평양시","ISO3166-2-lvl4":"KP-01","country":"조선민주주의인민공화국","country_code":"kp"},"population":3871335,"osm_type":"node","osm_id":32013127,"type":"city","location":[125.7473609,39.0167979],"bbox":[125.5873609,38.8567979,125.9073609,39.1767979],"border":{"name":"평양시","other_names":{"name:af":"Pjongjang","name:am":"ፕዮንግያንግ","name:an":"Pyongyang","name:ar":"بيونغيانغ","name:az":"Pxenyan","name:be":"Пхеньян","name:bg":"Пхенян","name:bn":"পিয়ং ইয়াং","name:bo":"ཕོང་ཡང་།","name:br":"Pyongyang","name:bs":"Pjongjang","name:ca":"Pyongyang","name:cs":"Pchjongjang","name:cy":"Pyongyang","name:da":"Pyongyang","name:de":"Pjöngjang","name:el":"Πιονγιάνγκ","name:en":"P'yŏngyang","name:eo":"Pjongjango","name:es":"Pyongyang","name:et":"P'yŏngyang","name:eu":"Piongiang","name:fa":"پیونگیانگ","name:fi":"Pjongjang","name:fo":"Pyongyang","name:fr":"Pyongyang","name:fy":"Pyongyang","name:ga":"Pyongyang","name:gd":"Pyongyang","name:gl":"Pyongyang","name:he":"פיונגיאנג","name:hi":"प्योंगयांग","name:hr":"Pjongjang","name:ht":"Pyongyang","name:hu":"Phenjan","name:hy":"Պխենյան","name:id":"Pyongyang","name:io":"Pyongyang","name:is":"Pjongjang","name:it":"Pyongyang","name:ja":"平壌市","name:jv":"Pyongyang","name:ka":"ფხენიანი","name:kk":"Пхеньян","name:kl":"Pyongyang","name:kn":"ಪ್ಯೊನ್ಗ್ಯಾಂಗ್","name:ko":"평양시","name:ku":"Pyongyang","name:la":"Pyeongyangum","name:lt":"Pchenjanas","name:lv":"Phenjana","name:mi":"Pyongyang","name:mk":"Пјонгјанг","name:mn":"Пхеньян","name:mr":"प्याँगयांग","name:ms":"Pyongyang","name:nl":"Pyongyang","name:nn":"Pyongyang","name:no":"Pyongyang","name:oc":"Pyeongyang","name:os":"Пхеньян","name:pl":"Pjongjang","name:ps":"پيونګيانګ","name:pt":"Pyongyang","name:ro":"Phenian","name:ru":"Пхеньян","name:sh":"Pjongjang","name:sk":"Pchjongjang","name:sl":"Pjongjang","name:sq":"Pjongian","name:sr":"Пјонгјанг","name:sv":"Pyongyang","name:sw":"Pyongyang","name:ta":"பியொங்யாங்","name:th":"เปียงยาง","name:tl":"Pyongyang","name:tr":"Pyongyang","name:tt":"Пхеньян","name:ug":"Pyongyang","name:uk":"Пхеньян","name:ur":"پیانگ یانگ","name:vi":"Bình Nhưỡng","name:vo":"Pyöngyang","name:yi":"פיאנגיאנג","name:yo":"Pyongyang","name:zh":"平壤市","name:ace":"Pyeongyang","name:ast":"Pyongyang","name:ckb":"پیۆنگیانگ","name:cnr":"Pjongjang","name:csb":"P'yŏngyang","name:diq":"Pyongyang","name:dsb":"Pchjongjang","name:hif":"Pyongyang","name:ilo":"Pyongyang","name:lez":"Пхеньян","name:lmo":"Pyongyang","name:lzh":"平壤市","name:mzn":"پيونگ يانگ","name:nah":"Pionyang","name:nan":"Pyongyang","name:nap":"Pyongyang","name:nov":"Pyongyang","name:pms":"Pyongyang","name:pnb":"پیانگ یانگ","name:scn":"Pyongyang","name:sco":"Pyongyang","name:tpi":"Pyongyang","name:war":"Pyongyang","name:wuu":"平壤市","name:yue":"平壤市","ISO3166-2":"KP-01","name:bat-smg":"Pchenjans","name:ko-Hani":"平壤市","name:ko-Latn":"P'yŏngyang","name:zh-Hans":"平壤市","name:zh-Hant":"平壤市","official_name":"평양직할시","name:as":"পিয়ং ইয়াং","name:ba":"Пхеньян","name:ce":"Пхеньян","name:ha":"Pyongyang","name:ia":"Pyongyang","name:ie":"Pyongyang","name:ik":"Piauñaŋaaq","name:kg":"Pyongyang","name:km":"ព្យុងយ៉ាង","name:ky":"Пхеньян","name:lb":"Pjöngjang","name:lo":"ພຽງຢາງ","name:mg":"Pyongyang","name:ml":"പ്യോങ്യാങ്","name:mt":"Pyongyang","name:my":"ပြုံယမ်းမြို့","name:nb":"Pyongyang","name:ne":"प्योङयाङ","name:pa":"ਪਿਓਂਗਯਾਂਗ","name:qu":"Pyongyang","name:sc":"Pyongyang","name:sd":"پيانگ يانگ","name:sn":"Pyongyang","name:tg":"Пхенян","name:tk":"Phenýan","name:uz":"Pxenyan","name:be-tarask":"Пхеньян","name:kab":"Pyongyang","official_name:ko":"평양직할시","alt_name:es":"Pyongyang","old_name:pl":"Phenian","old_name:zh":"柳京","official_name:ko-Hani":"平壤直轄市","official_name:ko-Latn":"P'yŏngyang Chikhalsi","official_name:zh":"平壤直轄市","alt:en":"Pyongyang","alt:es":"Pionyang","alt:et":"Pyongyang","alt:fa":"پیونگ‌یانگ","alt:ko":"평양직할시"},"display_name":"평양시, 조선민주주의인민공화국","address":{"city":"평양시","ISO3166-2-lvl4":"KP-01","country":"조선민주주의인민공화국","country_code":"kp"},"population":3255288,"osm_type":"relation","osm_id":356443,"type":"administrative","location":[125.7473609,39.0167979],"bbox":[125.5223086,38.7916735,126.4033269,39.3055856]}}
{"name":"함흥시","other_names":{"name:ca":"Hamheung","name:cs":"Hamhung","name:cy":"Hamhung","name:da":"Syd-Hamgyong","name:el":"Χάμχουνγκ","name:en":"Hamhung","name:es":"Hamhung","name:et":"Hamhŭng","name:eu":"Hamhung","name:fi":"Hamhung","name:fr":"Hamhung","name:ja":"咸興市","name:ko":"함흥시","name:lt":"Hamhungas","name:nl":"Hamhŭng","name:no":"Hamhung","name:ru":"Хамхын","name:sr":"Хамхунг","name:th":"ฮัมฮึง","name:uk":"Хамхин","name:vi":"Hàm Hưng","name:zh":"咸興市","int_name":"Hamhung","name:ja-Hira":"はむんし","name:ko-Hani":"咸興市","name:zh-Hans":"咸兴市","name:zh-Hant":"咸興市"},"display_name":"함흥시, 함경남도, 조선민주주의인민공화국","address":{"city":"함흥시","state":"함경남도","ISO3166-2-lvl4":"KP-08","country":"조선민주주의인민공화국","country_code":"kp"},"population":768551,"osm_type":"node","osm_id":256629919,"type":"city","location":[127.5384272,39.9165451],"bbox":[127.3784272,39.7565451,127.6984272,40.0765451],"border":{"name":"함흥시","other_names":{"name:cy":"Hamhung-si","name:en":"Hamhung-si","name:fr":"Hamhung-si","name:ja":"咸興市","name:ko":"함흥시","name:ru":"Хамхын","name:th":"ฮัมฮึง","name:zh":"咸興市","name:ko-Hani":"咸興市","name:zh-Hans":"咸兴市","name:zh-Hant":"咸興市","name:ca":"Hamheung","name:cs":"Hamhung","name:da":"Syd-Hamgyong","name:el":"Χάμχουνγκ","name:es":"Hamhung","name:et":"Hamhŭng","name:eu":"Hamhung","name:fi":"Hamhung","name:lt":"Hamhungas","name:nl":"Hamhŭng","name:no":"Hamhung","name:sr":"Хамхунг","name:uk":"Хамхин","name:vi":"Hàm Hưng","int_name":"Hamhung","name:ja-Hira":"はむんし","alt:cy":"Hamhung","alt:en":"Hamhung","alt:fr":"Hamhung"},"display_name":"함흥시, 함경남도, 조선민주주의인민공화국","address":{"city":"함흥시","state":"함경남도","ISO3166-2-lvl4":"KP-08","country":"조선민주주의인민공화국","country_code":"kp"},"population":768551,"osm_type":"relation","osm_id":8400379,"type":"administrative","location":[127.5384272,39.9165451],"bbox":[127.101045,39.7050742,127.7897929,40.2214199]}}
{"name":"해주시","other_names":{"name:ca":"Haeju","name:cs":"Hedžu","name:cy":"Haeju","name:de":"Haeju","name:el":"Χέτζου","name:en":"Haeju","name:es":"Haeju","name:et":"Haeju","name:fr":"Haeju","name:ja":"海州市","name:ko":"해주시","name:lt":"Hedžu","name:ru":"Хэджу","name:th":"แฮจู","name:uk":"Хеджу","name:vi":"Hải Châu","name:zh":"海州市","int_name":"Haeju","name:ja_kana":"へじゅ","name:ko-Hani":"海州市","name:ko-Latn":"Haeju","name:zh-Hant":"海州市"},"display_name":"해주시, 황해남도, 조선민주주의인민공화국","address":{"city":"해주시","state":"황해남도","ISO3166-2-lvl4":"KP-05","country":"조선민주주의인민공화국","country_code":"kp"},"population":273300,"osm_type":"node","osm_id":256594759,"type":"city","location":[125.7140086,38.0401144],"bbox":[125.5540086,37.8801144,125.8740086,38.2001144],"border":{"name":"해주시","other_names":{"name:cs":"Hedžu","name:cy":"Haeju-si","name:el":"Χέτζου","name:en":"Haeju-si","name:fr":"Haeju-si","name:ja":"海州市","name:ko":"해주시","name:ru":"Хэджу","name:th":"แฮจู","name:uk":"Хеджу","name:zh":"海州市","name:ko-Hani":"海州市","name:zh-Hans":"海州市","name:zh-Hant":"海州市","name:ca":"Haeju","name:de":"Haeju","name:es":"Haeju","name:et":"Haeju","name:lt":"Hedžu","name:vi":"Hải Châu","int_name":"Haeju","name:ja_kana":"へじゅ","name:ko-Latn":"Haeju","alt:cy":"Haeju","alt:en":"Haeju","alt:fr":"Haeju"},"display_name":"해주시, 황해남도, 조선민주주의인민공화국","address":{"city":"해주시","state":"황해남도","ISO3166-2-lvl4":"KP-05","country":"조선민주주의인민공화국","country_code":"kp"},"population":273300,"osm_type":"relation","osm_id":5469296,"type":"administrative","location":[125.7140086,38.0401144],"bbox":[125.6047026,37.9618996,125.872507,38.1200101]}}
{"name":"혜산시","other_names":{"name:ca":"Hyesan","name:cs":"Hjesan","name:de":"Hyesan","name:el":"Χιέσαν","name:en":"Hyesan","name:es":"Hyesan","name:et":"Hyesan","name:fa":"gهیه‌سان","name:fr":"Hyesan","name:ja":"恵山市","name:ko":"혜산시","name:lt":"Hesanas","name:ru":"Хесан","name:uk":"Хєсан","name:zh":"惠山市","int_name":"Hyesan","name:ja_kana":"へさん","name:ko-Hani":"惠山市","name:zh-Hans":"惠山市","name:zh-Hant":"惠山市"},"display_name":"혜산시, 량강도, 조선민주주의인민공화국","address":{"city":"혜산시","state":"량강도","ISO3166-2-lvl4":"KP-10","country":"조선민주주의인민공화국","country_code":"kp"},"population":192680,"osm_type":"node","osm_id":264048594,"type":"city","location":[128.1778371,41.4029448],"bbox":[128.0178371,41.2429448,128.3378371,41.5629448],"border":{"name":"혜산시","other_names":{"name:cs":"Hjesan","name:en":"Hyesan-si","name:fa":"شهر هیه‌سان","name:fr":"Hyesan-si","name:ja":"恵山市","name:ko":"혜산시","name:ru":"Хесан","name:uk":"Хєсан","name:zh":"惠山市","name:ko-Hani":"惠山市","name:zh-Hans":"惠山市","name:zh-Hant":"惠山市","name:ca":"Hyesan","name:de":"Hyesan","name:el":"Χιέσαν","name:es":"Hyesan","name:et":"Hyesan","name:lt":"Hesanas","int_name":"Hyesan","name:ja_kana":"へさん","alt:en":"Hyesan","alt:fa":"gهیه‌سان","alt:fr":"Hyesan"},"display_name":"혜산시, 량강도, 조선민주주의인민공화국","address":{"city":"혜산시","state":"량강도","ISO3166-2-lvl4":"KP-10","country":"조선민주주의인민공화국","country_code":"kp"},"population":192680,"osm_type":"relation","osm_id":6332276,"type":"administrative","location":[128.1778371,41.4029448],"bbox":[128.0484615,41.2321702,128.3520438,41.4679671]}}
{"name":"회령시","other_names":{"name:ar":"هويريونغ","name:ca":"Hoeryong","name:de":"Hoeryong","name:el":"Χοέριονγκ","name:en":"Hoeryong","name:es":"Hoeryong","name:et":"Hoeryŏng","name:fr":"Hoeryong","name:hu":"Hörjong","name:ja":"会寧市","name:ko":"회령시","name:ru":"Хверён","name:uk":"Хверьон","name:zh":"會寧市","int_name":"Hoeryong","name:ja_kana":"ふぇりょん","name:ko-Hani":"會寧市","name:zh-Hans":"会宁市","name:zh-Hant":"會寧市"},"display_name":"회령시, 함경북도, 조선민주주의인민공화국","address":{"city":"회령시","state":"함경북도","ISO3166-2-lvl4":"KP-09","country":"조선민주주의인민공화국","country_code":"kp"},"population":153532,"osm_type":"node","osm_id":256632365,"type":"city","location":[129.7542469,42.4342802],"bbox":[129.5942469,42.2742802,129.9142469,42.5942802],"border":{"name":"회령시","other_names":{"name:en":"Hoeryong-si","name:fr":"Hoeryong-si","name:ja":"会寧市","name:ko":"회령시","name:ru":"Хверён","name:uk":"Хверьон","name:zh":"会宁市","alt_name:en":"Hoiryŏng-si","name:ko-Hani":"會寧市","name:zh-Hant":"會寧市","name:ar":"هويريونغ","name:ca":"Hoeryong","name:de":"Hoeryong","name:el":"Χοέριονγκ","name:es":"Hoeryong","name:et":"Hoeryŏng","name:hu":"Hörjong","int_name":"Hoeryong","name:ja_kana":"ふぇりょん","name:zh-Hans":"会宁市","alt:en":"Hoeryong","alt:fr":"Hoeryong","alt:zh":"會寧市"},"display_name":"회령시, 함경북도, 조선민주주의인민공화국","address":{"city":"회령시","state":"함경북도","ISO3166-2-lvl4":"KP-09","country":"조선민주주의인민공화국","country_code":"kp"},"population":153532,"osm_type":"relation","osm_id":8420622,"type":"administrative","location":[129.7542469,42.4342802],"bbox":[129.3037604,42.1281478,130.0289654,42.6797007]}}
{"name":"희천시","other_names":{"name:ca":"Huichon","name:de":"Huichon","name:el":"Χούιτσον","name:en":"Huichon","name:es":"Huichon","name:et":"Hŭich'ŏn","name:fr":"Huichon","name:ja":"熙川市","name:ko":"희천시","name:ru":"Хичхон","name:vi":"Hy Xuyên","name:zh":"熙川市","int_name":"Huichon","alt_name:vi":"Hi Xuyên;Huichon","old_name:de":"Hitschon","name:ko-Hani":"熙川市","name:zh-Hans":"熙川市","name:zh-Hant":"熙川市"},"display_name":"희천시, 자강도, 조선민주주의인민공화국","address":{"city":"희천시","state":"자강도","ISO3166-2-lvl4":"KP-04","country":"조선민주주의인민공화국","country_code":"kp"},"population":168180,"osm_type":"node","osm_id":1967131653,"type":"city","location":[126.2760271,40.171279],"bbox":[126.1160271,40.011279,126.4360271,40.331279],"border":{"name":"희천시","other_names":{"name:en":"Huichon-si","name:fr":"Huichon-si","name:ja":"熙川市","name:ko":"희천시","name:ru":"Хичхон","name:zh":"煕川市","name:ko-Hani":"熙川市","name:zh-Hans":"熙川市","name:zh-Hant":"熙川市","name:ca":"Huichon","name:de":"Huichon","name:el":"Χούιτσον","name:es":"Huichon","name:et":"Hŭich'ŏn","name:vi":"Hy Xuyên","int_name":"Huichon","alt_name:vi":"Hi Xuyên;Huichon","old_name:de":"Hitschon","alt:en":"Huichon","alt:fr":"Huichon","alt:zh":"熙川市"},"display_name":"희천시, 자강도, 조선민주주의인민공화국","address":{"city":"희천시","state":"자강도","ISO3166-2-lvl4":"KP-04","country":"조선민주주의인민공화국","country_code":"kp"},"population":168180,"osm_type":"relation","osm_id":5475706,"type":"administrative","location":[126.2760271,40.171279],"bbox":[125.9778845,39.9903817,126.5704185,40.3521096]}}
