{"name":"Honiara","other_names":{"name:am":"ሆኒያራ","name:ar":"هونيارا","name:be":"Ханіяра","name:bg":"Хониара","name:bn":"হনিয়ারা","name:bo":"ཧོ་ཉི་ཡ་ར།","name:ca":"Honiara","name:de":"Honiara","name:el":"Ονιάρα","name:en":"Honiara","name:eo":"Honiaro","name:es":"Honiara","name:fa":"هونیارا","name:fr":"Honiara","name:he":"הוניארה","name:hr":"Honiara","name:ht":"Onyara","name:hu":"Honiara","name:id":"Honiara","name:is":"Honíara","name:ja":"ホニアラ","name:ka":"ჰონიარა","name:ko":"호니아라","name:lt":"Honiara","name:mk":"Хонијара","name:mr":"होनियारा","name:nl":"Honiara","name:no":"Honiara","name:oc":"Honiara","name:pl":"Honiara","name:ru":"Хониара","name:sr":"Хонијара","name:sv":"Honiara","name:ta":"ஓனியாரா","name:th":"โฮนีอารา","name:tr":"Honiara","name:uk":"Хоніара","name:ur":"ہونیارا","name:zh":"霍尼亞拉","name:sah":"Хониара","name:zh-Hans":"霍尼亚拉","name:zh-Hant":"荷尼阿拉","name:be-tarask":"Ханіяра"},"display_name":"Honiara, Solomon Islands","address":{"city":"Honiara","state":"Honiara","ISO3166-2-lvl4":"SB-CT","country":"Solomon Islands","country_code":"sb"},"population":54600,"osm_type":"node","osm_id":790807049,"type":"city","location":[159.9552552,-9.4310769],"bbox":[159.7952552,-9.5910769,160.1152552,-9.2710769]}
{"name":"Marakuru","other_names":{"name:en":"Marakuru","name:ja":"マラクル"},"display_name":"Marakuru, Guadalcanal, Solomon Islands","address":{"city":"Marakuru","state":"Guadalcanal","ISO3166-2-lvl4":"SB-GU","country":"Solomon Islands","country_code":"sb"},"osm_type":"node","osm_id":2685981697,"type":"city","location":[160.5758025,-9.9168951],"bbox":[160.4158025,-10.0768951,160.7358025,-9.7568951]}
