{"name":"Ansongo","other_names":{"name:ar":"أنسنكو","name:el":"Ανσονγκό","name:fr":"Ansongo","alt_name":"Afoud"},"display_name":"Ansongo, Cercle d'Ansongo, Gao, Mali","address":{"city":"Ansongo","county":"Cercle d'Ansongo","state":"Gao","ISO3166-2-lvl4":"ML-7","country":"Mali","country_code":"ml"},"population":32700,"osm_type":"node","osm_id":1703668339,"type":"city","location":[0.5067841,15.6639257],"bbox":[0.3467841,15.5039257,0.6667841,15.8239257]}
{"name":"Bamako","other_names":{"name:am":"ባማኮ","name:ar":"باماكو","name:az":"Bamako","name:be":"Бамако","name:bg":"Бамако","name:bm":"Bamakɔ","name:bo":"བ་མ་ཀོ།","name:br":"Bamako","name:ca":"Bamako","name:cv":"Бамако","name:de":"Bamako","name:el":"Μπαμακό","name:en":"Bamako","name:eo":"Bamako","name:es":"Bamako","name:fa":"باماکو","name:fr":"Bamako","name:gl":"Bamaco","name:he":"במקו","name:hi":"बमाको","name:hr":"Bamako","name:hu":"Bamako","name:hy":"Բամակո","name:is":"Bamakó","name:it":"Bamako","name:ja":"バマコ","name:ka":"ბამაკო","name:ko":"바마코","name:ku":"Bamako","name:ky":"Бамако","name:lt":"Bamakas","name:mk":"Бамако","name:mr":"बमाको","name:nl":"Bamako","name:no":"Bamako","name:oc":"Bamako","name:os":"Бамако","name:pl":"Bamako","name:ru":"Бамако","name:sl":"Bamako","name:sr":"Бамако","name:sv":"Bamako","name:ta":"பமாக்கோ","name:tg":"Бамако","name:th":"บามาโก","name:tr":"Bamako","name:uk":"Бамако","name:ur":"بماکو","name:zh":"巴马科","name:arc":"ܒܡܩܘ","name:azb":"باماکو","name:ckb":"باماکۆ","name:grc":"Βαμάκον","name:kab":"Bamaku","name:mrj":"Бамако","name:nqo":"ߓߡߊ߬ߞߐ߫","name:pnb":"بماکو","name:syc":"ܒܡܩܘ","name:udm":"Бамако","alt_name:el":"Μπαμακό","alt_name:es":"Bámako","name:be-tarask":"Бамако"},"display_name":"Bamako, Mali","address":{"city":"Bamako","ISO3166-2-lvl4":"ML-BKO","country":"Mali","country_code":"ml"},"population":1809106,"osm_type":"node","osm_id":27564954,"type":"city","location":[-8.000337,12.649319],"bbox":[-8.160337,12.489319,-7.840337,12.809319],"border":[{"name":"Bamako","other_names":{"name:af":"Bamako","name:am":"ባማኮ","name:an":"Bamako","name:ar":"باماكو","name:az":"Bamako","name:be":"Бамако","name:bg":"Бамако","name:bm":"Bamakɔ","name:bn":"বামাকো","name:bo":"བ་མ་ཀོ།","name:br":"Bamako","name:bs":"Bamako","name:ca":"Bamako","name:ce":"Бамако","name:cs":"Bamako","name:cv":"Бамако","name:cy":"Bamako","name:da":"Bamako","name:de":"Bamako","name:el":"Μπαμάκο","name:en":"Bamako","name:eo":"Bamako","name:es":"Bamako","name:et":"Bamako","name:eu":"Bamako","name:fa":"باماکو","name:ff":"Bamako","name:fi":"Bamako","name:fr":"Bamako","name:fy":"Bamako","name:ga":"Bamako","name:gd":"Bamako","name:gl":"Bamaco","name:gn":"Vámako","name:ha":"Bamako","name:he":"במקו","name:hi":"बमाको","name:hr":"Bamako","name:ht":"Bamako","name:hu":"Bamako","name:hy":"Բամակո","name:id":"Bamako","name:is":"Bamakó","name:it":"Bamako","name:ja":"バマコ","name:jv":"Bamako","name:ka":"ბამაკო","name:kg":"Bamako","name:kk":"Бамако","name:ko":"바마코","name:ku":"Bamako","name:ky":"Бамако","name:lb":"Bamako","name:lt":"Bamakas","name:lv":"Bamako","name:mg":"Bamako","name:mk":"Бамако","name:ml":"ബാമാകോ","name:mr":"बमाको","name:ms":"Bamako","name:nl":"Bamako","name:nn":"Bamako","name:no":"Bamako","name:ny":"Bamako","name:oc":"Bamako","name:os":"Бамако","name:pa":"ਬਮਾਕੋ","name:pl":"Bamako","name:ps":"باماکو","name:pt":"Bamaco","name:ro":"Bamako","name:ru":"Бамако","name:rw":"Bamako","name:sc":"Bamako","name:se":"Bamako","name:sh":"Bamako","name:sk":"Bamako","name:sl":"Bamako","name:sn":"Bamako","name:so":"Bamako","name:sq":"Bamako","name:sr":"Бамако","name:ss":"Bamako","name:sv":"Bamako","name:sw":"Bamako","name:ta":"பமாக்கோ","name:te":"బ్యామెకొ","name:tg":"Бамако","name:th":"บามาโก","name:tl":"Bamako","name:tr":"Bamako","name:uk":"Бамако","name:ur":"بماکو","name:uz":"Bamako","name:vi":"Bamako","name:yi":"באמאקא","name:yo":"Bamako","name:zh":"巴馬科","name:arc":"ܒܡܩܘ","name:arz":"باماكو","name:ast":"Bamaku","name:avk":"Bamako","name:azb":"باماکو","name:cdo":"Bamako","name:ceb":"Bamako Region","name:ckb":"باماکۆ","name:diq":"Bamako","name:ext":"Bamako","name:frr":"Bamako","name:grc":"Βαμάκον","name:hak":"Bamako","name:hif":"Bamako","name:hsb":"Bamako","name:ilo":"Bamako","name:kab":"Bamaku","name:lij":"Bamako","name:lmo":"Bamako","name:mrj":"Бамако","name:mzn":"باماکو","name:nah":"Bamako","name:nan":"Bamako","name:nap":"Bamako","name:nds":"Bamako","name:nqo":"ߓߡߊ߬ߞߐ߫","name:pap":"Bamako","name:pih":"Bamaakoe","name:pms":"Bamako","name:pnb":"بماکو","name:rue":"Бамако","name:scn":"Bamako","name:sco":"Bamako","name:smn":"Bamako","name:syc":"ܒܡܩܘ","name:szl":"Bamako","name:udm":"Бамако","name:vec":"Bamako","name:vep":"Bamako","name:war":"Bamako","name:wuu":"巴马科","name:xmf":"ბამაკო","name:yue":"巴馬科","name:zea":"Bamako","ISO3166-2":"ML-BKO","alt_name:el":"Μπαμακό","alt_name:es":"Bámako","official_name":"District de Bamako","name:be-tarask":"Бамако","official_name:de":"Distrikt Bamako","official_name:es":"Distrito de Bamako","alt:el":"Μπαμακό","alt:zh":"巴马科"},"display_name":"Bamako, Mali","address":{"city":"Bamako","ISO3166-2-lvl4":"ML-BKO","country":"Mali","country_code":"ml"},"population":1809106,"osm_type":"relation","osm_id":2105525,"type":"administrative","location":[-8.000337,12.649319],"bbox":[-8.07382,12.5113254,-7.9005664,12.7136871]},{"name":"Bamako","other_names":{"name:am":"ባማኮ","name:ar":"باماكو","name:be":"Бамако","name:bg":"Бамако","name:bm":"Bamakɔ","name:bo":"བ་མ་ཀོ།","name:cv":"Бамако","name:de":"Bamako","name:el":"Μπαμακό","name:en":"Bamako","name:eo":"Bamako","name:es":"Bamako","name:fa":"باماکو","name:fr":"Bamako","name:gl":"Bamaco","name:he":"במקו","name:hi":"बमाको","name:hu":"Bamako","name:hy":"Բամակո","name:is":"Bamakó","name:ja":"バマコ","name:ka":"ბამაკო","name:ko":"바마코","name:ky":"Бамако","name:lt":"Bamakas","name:mk":"Бамако","name:mr":"बमाको","name:os":"Бамако","name:pl":"Bamako","name:ru":"Бамако","name:sr":"Бамако","name:sv":"Bamako","name:ta":"பமாக்கோ","name:tg":"Бамако","name:th":"บามาโก","name:uk":"Бамако","name:ur":"بماکو","name:zh":"巴馬科","name:arc":"ܒܡܩܘ","name:azb":"باماکو","name:ckb":"باماکۆ","name:grc":"Βαμάκον","name:kab":"Bamaku","name:mrj":"Бамако","name:pnb":"بماکو","name:syc":"ܒܡܩܘ","name:udm":"Бамако","alt_name:el":"Μπαμακό","alt_name:es":"Bámako","official_name":"District de Bamako","name:be-tarask":"Бамако","official_name:de":"Distrikt Bamako","official_name:es":"Distrito de Bamako"},"display_name":"Bamako, Koulikoro, Mali","address":{"administrative":"Bamako","city":"Bamako","ISO3166-2-lvl4":"ML-2","state":"Koulikoro","country":"Mali","country_code":"ml"},"osm_type":"relation","osm_id":3544925,"type":"administrative","location":[-7.984739136241295,12.61326555],"bbox":[-8.07382,12.5113254,-7.9005664,12.7136871]}]}
{"name":"Banamba","display_name":"Banamba, Cercle de Banamba, Koulikoro, Mali","address":{"city":"Banamba","county":"Cercle de Banamba","state":"Koulikoro","ISO3166-2-lvl4":"ML-2","country":"Mali","country_code":"ml"},"osm_type":"node","osm_id":1703668439,"type":"city","location":[-7.446532,13.5485166],"bbox":[-7.606532,13.3885166,-7.286532,13.7085166]}
{"name":"Bandiagara","other_names":{"name:ar":"باندياغارا","name:bm":"Bánjagara","name:fa":"باندیاگارا","name:fr":"Bandiagara"},"display_name":"Bandiagara, Cercle de Bandiagara, Mopti, Mali","address":{"city":"Bandiagara","county":"Cercle de Bandiagara","state":"Mopti","ISO3166-2-lvl4":"ML-5","country":"Mali","country_code":"ml"},"osm_type":"node","osm_id":2172209697,"type":"city","location":[-3.6112766,14.3505],"bbox":[-3.7712766,14.1905,-3.4512766,14.5105]}
{"name":"Bankass","other_names":{"name:fr":"Bankass","alt_name":"Bankas"},"display_name":"Bankass, Cercle de Bankass, Mopti, Mali","address":{"city":"Bankass","county":"Cercle de Bankass","state":"Mopti","ISO3166-2-lvl4":"ML-5","country":"Mali","country_code":"ml"},"population":8675,"osm_type":"node","osm_id":1703668486,"type":"city","location":[-3.5187494,14.0786136],"bbox":[-3.6787494,13.9186136,-3.3587494,14.2386136]}
{"name":"Bougouni","other_names":{"name:ar":"بوغوني","name:fr":"Bougouni"},"display_name":"Bougouni, Cercle de Bougouni, Région de Sikasso, Mali","address":{"city":"Bougouni","county":"Cercle de Bougouni","state":"Région de Sikasso","ISO3166-2-lvl4":"ML-3","country":"Mali","country_code":"ml"},"population":59679,"osm_type":"node","osm_id":1703668713,"type":"city","location":[-7.4833878,11.4194313],"bbox":[-7.6433878,11.2594313,-7.3233878,11.5794313]}
{"name":"Bourem","other_names":{"name:ar":"بوريم","name:fr":"Bourem","name:uk":"Бурем","alt_name":"Imboraghane.."},"display_name":"Bourem, Cercle de Bourem, Gao, Mali","address":{"city":"Bourem","county":"Cercle de Bourem","state":"Gao","ISO3166-2-lvl4":"ML-7","country":"Mali","country_code":"ml"},"osm_type":"node","osm_id":1703668759,"type":"city","location":[-0.3468008,16.9575282],"bbox":[-0.5068008,16.7975282,-0.1868008,17.1175282]}
{"name":"Dioïla","other_names":{"name:ar":"ديويلا","name:en":"Dioïla","name:fr":"Dioïla"},"display_name":"Dioïla, Cercle de Dioïla, Koulikoro, Mali","address":{"city":"Dioïla","county":"Cercle de Dioïla","state":"Koulikoro","ISO3166-2-lvl4":"ML-2","country":"Mali","country_code":"ml"},"osm_type":"node","osm_id":1703669111,"type":"city","location":[-6.7948799,12.4863792],"bbox":[-6.9548799,12.3263792,-6.6348799,12.6463792]}
{"name":"Diré","other_names":{"name:ar":"ديري","name:fr":"Diré"},"display_name":"Diré, Cercle de Diré, Tombouctou, Mali","address":{"city":"Diré","county":"Cercle de Diré","state":"Tombouctou","ISO3166-2-lvl4":"ML-6","country":"Mali","country_code":"ml"},"population":22400,"osm_type":"node","osm_id":1707621787,"type":"city","location":[-3.3971368,16.2678091],"bbox":[-3.5571368,16.1078091,-3.2371368,16.4278091]}
{"name":"Djenné","other_names":{"name:ar":"جيني","name:en":"Djenné","name:fr":"Djenné","name:ja":"ジェンネ","name:ru":"Дженне","name:uk":"Дженне","alt_name":"Djénné"},"display_name":"Djenné, Cercle de Djenné, Mopti, Mali","address":{"city":"Djenné","county":"Cercle de Djenné","state":"Mopti","ISO3166-2-lvl4":"ML-5","country":"Mali","country_code":"ml"},"osm_type":"node","osm_id":2464146322,"type":"city","location":[-4.5548581,13.9051631],"bbox":[-4.7148581,13.7451631,-4.3948581,14.0651631]}
{"name":"Douentza","other_names":{"name:ar":"دوينتزا","name:fr":"Douentza","alt_name":"Douenza"},"display_name":"Douentza, Cercle de Douentza, Mopti, Mali","address":{"city":"Douentza","county":"Cercle de Douentza","state":"Mopti","ISO3166-2-lvl4":"ML-5","country":"Mali","country_code":"ml"},"population":27775,"osm_type":"node","osm_id":495454624,"type":"city","location":[-2.9529649,15.0068749],"bbox":[-3.1129649,14.8468749,-2.7929649,15.1668749]}
{"name":"Gao","other_names":{"name:ar":"غاو","name:bm":"Gàwó","name:en":"Gao","name:fr":"Gao","name:ko":"가오","name:ru":"Гао","name:uk":"Гао"},"display_name":"Gao, Cercle de Gao, Gao, Mali","address":{"city":"Gao","county":"Cercle de Gao","state":"Gao","ISO3166-2-lvl4":"ML-7","country":"Mali","country_code":"ml"},"population":58000,"osm_type":"node","osm_id":89918976,"type":"city","location":[-0.0412392,16.2788129],"bbox":[-0.2012392,16.1188129,0.1187608,16.4388129],"border":{"name":"Gao","other_names":{"name:ar":"غاو","name:fr":"Gao"},"display_name":"Gao, Cercle de Gao, Gao, Mali","address":{"administrative":"Gao","county":"Cercle de Gao","state":"Gao","ISO3166-2-lvl4":"ML-7","country":"Mali","country_code":"ml"},"osm_type":"way","osm_id":203021416,"type":"administrative","location":[-0.03258421580998263,16.27971245],"bbox":[-0.0853829,16.2316922,0.0202144,16.3277302]}}
{"name":"Goundam","other_names":{"name:ar":"غوندام","name:fr":"Goundam"},"display_name":"Goundam, Cercle de Goundam, Tombouctou, Mali","address":{"city":"Goundam","county":"Cercle de Goundam","state":"Tombouctou","ISO3166-2-lvl4":"ML-6","country":"Mali","country_code":"ml"},"population":16253,"osm_type":"node","osm_id":1703670035,"type":"city","location":[-3.6636275,16.4168533],"bbox":[-3.8236275,16.2568533,-3.5036275,16.5768533]}
{"name":"Gourma-Rharous","other_names":{"name:ar":"قرما غاروس","name:fr":"Gourma-Rharous","alt_name":"Gourma-Rarous"},"display_name":"Gourma-Rharous, Cercle Gourma-Rharous, Tombouctou, Mali","address":{"city":"Gourma-Rharous","county":"Cercle Gourma-Rharous","state":"Tombouctou","ISO3166-2-lvl4":"ML-6","country":"Mali","country_code":"ml"},"osm_type":"node","osm_id":1703670061,"type":"city","location":[-1.925352,16.8776652],"bbox":[-2.085352,16.7176652,-1.765352,17.0376652]}
{"name":"Kadiolo","other_names":{"name:ar":"كاديولو","name:fr":"Kadiolo"},"display_name":"Kadiolo, Cercle de Kadiolo, Région de Sikasso, Mali","address":{"city":"Kadiolo","county":"Cercle de Kadiolo","state":"Région de Sikasso","ISO3166-2-lvl4":"ML-3","country":"Mali","country_code":"ml"},"osm_type":"node","osm_id":2147473031,"type":"city","location":[-5.7592858,10.5540365],"bbox":[-5.9192858,10.3940365,-5.5992858,10.7140365]}
{"name":"Kangaba","other_names":{"name:ar":"كانكابا","name:fr":"Kangaba"},"display_name":"Kangaba, Cercle de Kangaba, Koulikoro, Mali","address":{"city":"Kangaba","county":"Cercle de Kangaba","state":"Koulikoro","ISO3166-2-lvl4":"ML-2","country":"Mali","country_code":"ml"},"osm_type":"node","osm_id":538454688,"type":"city","location":[-8.4138589,11.9415411],"bbox":[-8.5738589,11.7815411,-8.2538589,12.1015411]}
{"name":"Kati","other_names":{"name:ar":"كاتي","name:fr":"Kati"},"display_name":"Kati, Cercle de Kati, Koulikoro, Mali","address":{"city":"Kati","county":"Cercle de Kati","state":"Koulikoro","ISO3166-2-lvl4":"ML-2","country":"Mali","country_code":"ml"},"population":114983,"osm_type":"node","osm_id":1703670426,"type":"city","location":[-8.0684052,12.7389091],"bbox":[-8.2284052,12.5789091,-7.9084052,12.8989091]}
{"name":"Kayes","other_names":{"name:ar":"كايس","name:bm":"Káyì","name:en":"Kayes","name:fr":"Kayes","name:ko":"케스","name:ru":"Каес","name:snk":"Xaayi"},"display_name":"Kayes, Mali","address":{"city":"Kayes","county":"Kayes","state":"Kayes","ISO3166-2-lvl4":"ML-1","country":"Mali","country_code":"ml"},"population":127368,"osm_type":"node","osm_id":277932033,"type":"city","location":[-11.437914,14.443406],"bbox":[-11.597914,14.283406,-11.277914,14.603406],"border":{"name":"Kayes","other_names":{"name:ar":"الدائرة كايس","name:en":"Kayes Cercle","name:fr":"Cercle de Kayes"},"display_name":"Kayes, Mali","address":{"county":"Kayes","state":"Kayes","ISO3166-2-lvl4":"ML-1","country":"Mali","country_code":"ml"},"osm_type":"relation","osm_id":3083706,"type":"administrative","location":[-11.468678305870574,14.58641635],"bbox":[-12.2402835,13.529,-10.764,15.643786]}}
{"name":"Kéniéba","other_names":{"name:ar":"كينييبا","name:fr":"Kéniéba"},"display_name":"Kéniéba, Kayes, Mali","address":{"city":"Kéniéba","county":"Kéniéba","state":"Kayes","ISO3166-2-lvl4":"ML-1","country":"Mali","country_code":"ml"},"osm_type":"node","osm_id":1986253719,"type":"city","location":[-11.232153,12.8407105],"bbox":[-11.392153,12.6807105,-11.072153,13.0007105],"border":{"name":"Kéniéba","other_names":{"name:ar":"دائرة كينييبا","name:fr":"Kéniéba Cercle"},"display_name":"Kéniéba, Kayes, Mali","address":{"county":"Kéniéba","state":"Kayes","ISO3166-2-lvl4":"ML-1","country":"Mali","country_code":"ml"},"osm_type":"relation","osm_id":3083708,"type":"administrative","location":[-11.044997099718604,12.795450500000001],"bbox":[-11.972265,11.8977505,-10.1835656,13.694]}}
{"name":"Kidal","other_names":{"name:ar":"كيدال","name:bm":"Kidali","name:fa":"کیدال","name:fr":"Kidal","name:ko":"키달","name:ru":"Кидаль","name:ur":"کڈال","name:azb":"کیدال","name:tmh":"ⴾⴸⵍ"},"display_name":"Kidal, Cercle de Kidal, Kidal, Mali","address":{"city":"Kidal","county":"Cercle de Kidal","state":"Kidal","ISO3166-2-lvl4":"ML-8","country":"Mali","country_code":"ml"},"population":25000,"osm_type":"node","osm_id":2032098356,"type":"city","location":[1.4075395,18.4408358],"bbox":[1.2475395,18.2808358,1.5675395,18.6008358]}
{"name":"Kita","other_names":{"name:ar":"كيتا","name:fr":"Kita","name:ru":"Кита"},"display_name":"Kita, Kayes, Mali","address":{"city":"Kita","county":"Kita","state":"Kayes","ISO3166-2-lvl4":"ML-1","country":"Mali","country_code":"ml"},"population":54548,"osm_type":"node","osm_id":1703670519,"type":"city","location":[-9.4889798,13.0408383],"bbox":[-9.6489798,12.8808383,-9.3289798,13.2008383],"border":{"name":"Kita","other_names":{"name:ar":"الدائرة كيتا","name:en":"Kita Cercle","name:fr":"Cercle de Kita"},"display_name":"Kita, Kayes, Mali","address":{"county":"Kita","state":"Kayes","ISO3166-2-lvl4":"ML-1","country":"Mali","country_code":"ml"},"osm_type":"relation","osm_id":3083707,"type":"administrative","location":[-9.388645713571428,13.20698005],"bbox":[-10.3813702,12.027891,-8.4343825,14.3864252]}}
{"name":"Kolokani","other_names":{"name:ar":"كولوكاني","name:fr":"Kolokani"},"display_name":"Kolokani, Cercle de Kolokani, Koulikoro, Mali","address":{"city":"Kolokani","county":"Cercle de Kolokani","state":"Koulikoro","ISO3166-2-lvl4":"ML-2","country":"Mali","country_code":"ml"},"osm_type":"node","osm_id":277944562,"type":"city","location":[-8.031273,13.577326],"bbox":[-8.191273,13.417326,-7.871273,13.737326]}
{"name":"Kolondièba","other_names":{"name:ar":"كولونديبا","name:fr":"Kolondièba"},"display_name":"Kolondièba, Cercle de Kolondiéba, Région de Sikasso, Mali","address":{"city":"Kolondièba","county":"Cercle de Kolondiéba","state":"Région de Sikasso","ISO3166-2-lvl4":"ML-3","country":"Mali","country_code":"ml"},"osm_type":"node","osm_id":2242614132,"type":"city","location":[-6.8930677,11.0884592],"bbox":[-7.0530677,10.9284592,-6.7330677,11.2484592]}
{"name":"Koro","other_names":{"name:ar":"كورو","name:fr":"Koro"},"display_name":"Koro, Cercle de Koro, Mopti, Mali","address":{"city":"Koro","county":"Cercle de Koro","state":"Mopti","ISO3166-2-lvl4":"ML-5","country":"Mali","country_code":"ml"},"osm_type":"node","osm_id":1703670641,"type":"city","location":[-3.080698,14.069845],"bbox":[-3.240698,13.909845,-2.920698,14.229845]}
{"name":"Koulikoro","other_names":{"name:ar":"كوليكورو","name:bm":"Kulukɔrɔ","name:en":"Koulikoro","name:fr":"Koulikoro","name:ko":"쿨리코로","name:ru":"Куликоро","name:uk":"Кулікоро"},"display_name":"Koulikoro, Cercle de Koulikoro, Koulikoro, Mali","address":{"city":"Koulikoro","county":"Cercle de Koulikoro","state":"Koulikoro","ISO3166-2-lvl4":"ML-2","country":"Mali","country_code":"ml"},"osm_type":"node","osm_id":277945591,"type":"city","location":[-7.5561287,12.8646318],"bbox":[-7.7161287,12.7046318,-7.3961287,13.0246318]}
{"name":"Koutiala","other_names":{"name:ar":"كوتيالا","name:fr":"Koutiala","name:ru":"Кутиала"},"display_name":"Koutiala, Cercle de Koutiala, Région de Sikasso, Mali","address":{"city":"Koutiala","county":"Cercle de Koutiala","state":"Région de Sikasso","ISO3166-2-lvl4":"ML-3","country":"Mali","country_code":"ml"},"population":99000,"osm_type":"node","osm_id":277943923,"type":"city","location":[-5.4600937,12.3869501],"bbox":[-5.6200937,12.2269501,-5.3000937,12.5469501]}
{"name":"Ménaka","other_names":{"name:ar":"ميناكا","name:fr":"Ménaka","name:ru":"Менака","name:uk":"Менака"},"display_name":"Ménaka, Mali","address":{"city":"Ménaka","state":"Ménaka","ISO3166-2-lvl4":"ML-9","country":"Mali","country_code":"ml"},"population":20700,"osm_type":"node","osm_id":1707621796,"type":"city","location":[2.4,15.9167],"bbox":[2.24,15.7567,2.56,16.0767]}
{"name":"Mopti","other_names":{"name:ar":"موبتي","name:en":"Mopti","name:fr":"Mopti","name:ko":"몹티","name:ru":"Мопти"},"display_name":"Mopti, Cercle de Mopti, Mopti, Mali","address":{"city":"Mopti","county":"Cercle de Mopti","state":"Mopti","ISO3166-2-lvl4":"ML-5","country":"Mali","country_code":"ml"},"population":114296,"osm_type":"node","osm_id":1717464540,"type":"city","location":[-4.1892469,14.4877275],"bbox":[-4.3492469,14.3277275,-4.0292469,14.6477275]}
{"name":"Nara","other_names":{"name:ar":"نارا","name:fr":"Nara"},"display_name":"Nara, Cercle de Nara, Koulikoro, Mali","address":{"city":"Nara","county":"Cercle de Nara","state":"Koulikoro","ISO3166-2-lvl4":"ML-2","country":"Mali","country_code":"ml"},"osm_type":"node","osm_id":1703671092,"type":"city","location":[-7.2888666,15.1712509],"bbox":[-7.4488666,15.0112509,-7.1288666,15.3312509]}
{"name":"Niafunké","other_names":{"name:ar":"نيافونكي","name:fr":"Niafunké","alt_name":"Niafounké"},"display_name":"Niafunké, Cercle de Niafounké, Tombouctou, Mali","address":{"city":"Niafunké","county":"Cercle de Niafounké","state":"Tombouctou","ISO3166-2-lvl4":"ML-6","country":"Mali","country_code":"ml"},"osm_type":"node","osm_id":1707219327,"type":"city","location":[-3.99,15.931],"bbox":[-4.15,15.771,-3.83,16.091]}
{"name":"Nioro du Sahel","other_names":{"name:ar":"نيورو","name:fr":"Nioro du Sahel","alt_name":"Nioro"},"display_name":"Nioro du Sahel, Nioro, Kayes, Mali","address":{"city":"Nioro du Sahel","county":"Nioro","state":"Kayes","ISO3166-2-lvl4":"ML-1","country":"Mali","country_code":"ml"},"osm_type":"node","osm_id":2165275023,"type":"city","location":[-9.5899063,15.2304528],"bbox":[-9.7499063,15.0704528,-9.4299063,15.3904528],"border":{"name":"Nioro","other_names":{"name:ar":"الدائرة نيورو","name:en":"Nioro Cercle","name:fr":"Cercle de Nioro"},"display_name":"Nioro, Kayes, Mali","address":{"county":"Nioro","state":"Kayes","ISO3166-2-lvl4":"ML-1","country":"Mali","country_code":"ml"},"osm_type":"relation","osm_id":3083709,"type":"administrative","location":[-9.784270570917803,15.155707],"bbox":[-10.65528,14.609,-8.6845102,15.702785]}}
{"name":"San","other_names":{"name:ar":"سان","name:fr":"San"},"display_name":"San, Cercle de San, Ségou, Mali","address":{"city":"San","county":"Cercle de San","state":"Ségou","ISO3166-2-lvl4":"ML-4","country":"Mali","country_code":"ml"},"population":26744,"osm_type":"node","osm_id":358313999,"type":"city","location":[-4.8957273,13.3043073],"bbox":[-5.0557273,13.1443073,-4.7357273,13.4643073]}
{"name":"Ségou","other_names":{"name:ar":"سيغو","name:bm":"Ségu","name:fa":"سگو","name:fr":"Ségou","name:ko":"세구","name:ru":"Сегу","name:ur":"سیگو","name:azb":"سقو"},"display_name":"Ségou, Cercle de Ségou, Ségou, Mali","address":{"city":"Ségou","county":"Cercle de Ségou","state":"Ségou","ISO3166-2-lvl4":"ML-4","country":"Mali","country_code":"ml"},"population":165000,"osm_type":"node","osm_id":1717506745,"type":"city","location":[-6.268147,13.441518],"bbox":[-6.428147,13.281518,-6.108147,13.601518]}
{"name":"Sikasso","other_names":{"name:ar":"سيكاسو","name:fr":"Sikasso","name:ko":"시카소","name:ru":"Сикасо"},"display_name":"Sikasso, Cercle de Sikasso, Région de Sikasso, Mali","address":{"city":"Sikasso","county":"Cercle de Sikasso","state":"Région de Sikasso","ISO3166-2-lvl4":"ML-3","country":"Mali","country_code":"ml"},"population":226000,"osm_type":"node","osm_id":89942783,"type":"city","location":[-5.6777526,11.3165531],"bbox":[-5.8377526,11.1565531,-5.5177526,11.4765531]}
{"name":"Ténenkou","other_names":{"name:ar":"تينيكو","name:en":"Tenenkou","name:fr":"Ténenkou","alt_name":"Tenenkoun"},"display_name":"Ténenkou, Cercle de Tenenkou, Mopti, Mali","address":{"city":"Ténenkou","county":"Cercle de Tenenkou","state":"Mopti","ISO3166-2-lvl4":"ML-5","country":"Mali","country_code":"ml"},"osm_type":"node","osm_id":1717466865,"type":"city","location":[-4.9164995,14.4547633],"bbox":[-5.0764995,14.2947633,-4.7564995,14.6147633]}
{"name":"Tombouctou","other_names":{"name:ar":"تمبكتو","name:br":"Timbuktu","name:ca":"Timbuctú","name:cs":"Timbuktu","name:de":"Timbuktu","name:en":"Timbuktu","name:es":"Tombuctú","name:et":"Timbuktu","name:fa":"تیمبوکتو","name:fr":"Tombouctou","name:hi":"टिम्बकटू","name:ja":"トゥンブクトゥ","name:kn":"ಟಿಂಬಕ್ಟೂ","name:ko":"팀북투","name:lt":"Timbuktu","name:nl":"Timboektoe","name:ru":"Тимбукту","name:sk":"Timbuktu","name:tr":"Tinbüktü","name:uk":"Тімбукту","name:zh":"廷巴克图","name:ssa":"Tumbutu","name:tmh":"Tin-Buktu","alt_name:tr":"Timbüktü"},"display_name":"Tombouctou, Cercle de Tombouctou, Tombouctou, Mali","address":{"city":"Tombouctou","county":"Cercle de Tombouctou","state":"Tombouctou","ISO3166-2-lvl4":"ML-6","country":"Mali","country_code":"ml"},"population":36000,"osm_type":"node","osm_id":89381749,"type":"city","location":[-3.0087272,16.7719091],"bbox":[-3.1687272,16.6119091,-2.8487272,16.9319091]}
{"name":"Tominian","display_name":"Tominian, Cercle de Tominian, Ségou, Mali","address":{"city":"Tominian","county":"Cercle de Tominian","state":"Ségou","ISO3166-2-lvl4":"ML-4","country":"Mali","country_code":"ml"},"osm_type":"node","osm_id":379907222,"type":"city","location":[-4.5902405,13.2868042],"bbox":[-4.7502405,13.1268042,-4.4302405,13.4468042]}
{"name":"Yanfolila","display_name":"Yanfolila, Cercle de Yanfolila, Région de Sikasso, Mali","address":{"city":"Yanfolila","county":"Cercle de Yanfolila","state":"Région de Sikasso","ISO3166-2-lvl4":"ML-3","country":"Mali","country_code":"ml"},"osm_type":"node","osm_id":1703672493,"type":"city","location":[-8.152292,11.174901],"bbox":[-8.312292,11.014901,-7.992292,11.334901]}
{"name":"Yélimané","other_names":{"name:ar":"يليماني","name:fr":"Yélimané"},"display_name":"Yélimané, Kayes, Mali","address":{"city":"Yélimané","county":"Yélimané","state":"Kayes","ISO3166-2-lvl4":"ML-1","country":"Mali","country_code":"ml"},"osm_type":"node","osm_id":1996806372,"type":"city","location":[-10.572839,15.1189],"bbox":[-10.732839,14.9589,-10.412839,15.2789],"border":{"name":"Yélimané","other_names":{"name:ar":"الدائرة يليماني","name:en":"Yélimané Cercle","name:fr":"Cercle de Yélimané"},"display_name":"Yélimané, Kayes, Mali","address":{"county":"Yélimané","state":"Kayes","ISO3166-2-lvl4":"ML-1","country":"Mali","country_code":"ml"},"osm_type":"relation","osm_id":3083710,"type":"administrative","location":[-10.641903453136011,15.033999999999999],"bbox":[-11.018,14.6217,-9.988,15.451214]}}
{"name":"Youwarou","other_names":{"name:fr":"Youwarou","alt_name":"Youvarou"},"display_name":"Youwarou, Cercle de Youwarou, Mopti, Mali","address":{"city":"Youwarou","county":"Cercle de Youwarou","state":"Mopti","ISO3166-2-lvl4":"ML-5","country":"Mali","country_code":"ml"},"osm_type":"node","osm_id":1703672543,"type":"city","location":[-4.2615466,15.3706088],"bbox":[-4.4215466,15.2106088,-4.1015466,15.5306088]}
