{"name":"Beau Bassin-Rose Hill","other_names":{"name:en":"Beau Bassin-Rose Hill","name:fr":"Beau Bassin-Rose Hill","name:zh":"博巴森-罗斯希尔","alt_name":"Beau Bassin - Rose Hill","alt_name:fr":"Beau-Bassin - Rose-Hill","loc_name:en":"The Sister Cities","loc_name:fr":"Les Villes-Sœurs"},"display_name":"Beau Bassin-Rose Hill, Beau Bassin / Rose Hill, Plaines Wilhems, 71510, Mauritius / Maurice","address":{"city":"Beau Bassin-Rose Hill","state":"Plaines Wilhems","ISO3166-2-lvl4":"MU-PW","postcode":"71510","country":"Mauritius / Maurice","country_code":"mu"},"population":96000,"osm_type":"node","osm_id":2166853543,"type":"city","location":[57.4693447,-20.234269],"bbox":[57.3093447,-20.394269,57.6293447,-20.074269]}
{"name":"Curepipe","other_names":{"name:en":"Curepipe","name:fr":"Curepipe","loc_name:en":"The City of Light","loc_name:fr":"La Ville-Lumière"},"display_name":"Curepipe, Plaines Wilhems, Mauritius / Maurice","address":{"city":"Curepipe","state":"Plaines Wilhems","ISO3166-2-lvl4":"MU-PW","country":"Mauritius / Maurice","country_code":"mu"},"population":81600,"osm_type":"node","osm_id":2642246014,"type":"city","location":[57.5211497,-20.3150516],"bbox":[57.3611497,-20.4750516,57.6811497,-20.1550516],"border":{"name":"Curepipe","other_names":{"official_name":"Municipal Town Council of Curepipe","name:en":"Curepipe","name:fr":"Curepipe","loc_name:en":"The City of Light","loc_name:fr":"La Ville-Lumière"},"display_name":"Curepipe, Plaines Wilhems, Mauritius / Maurice","address":{"city":"Curepipe","state":"Plaines Wilhems","ISO3166-2-lvl4":"MU-PW","country":"Mauritius / Maurice","country_code":"mu"},"population":81600,"osm_type":"relation","osm_id":13476403,"type":"administrative","location":[57.5211497,-20.3150516],"bbox":[57.4875256,-20.3465125,57.5498416,-20.2933049]}}
{"name":"Grand Baie VCA, East","display_name":"Grand Baie VCA, East, Riviere du Rempart, Mauritius / Maurice","address":{"city":"Grand Baie VCA, East","state":"Riviere du Rempart","ISO3166-2-lvl4":"MU-RR","country":"Mauritius / Maurice","country_code":"mu"},"population":11239,"osm_type":"relation","osm_id":18475108,"type":"administrative","location":[57.58859739025142,-20.0070295],"bbox":[57.5677869,-20.0292109,57.6096246,-19.9848382],"inferred_type":"city"}
{"name":"Grand Baie VCA, West","display_name":"Grand Baie VCA, West, Pamplemousses, Mauritius / Maurice","address":{"city":"Grand Baie VCA, West","state":"Pamplemousses","ISO3166-2-lvl4":"MU-PA","country":"Mauritius / Maurice","country_code":"mu"},"population":11239,"osm_type":"relation","osm_id":18505070,"type":"administrative","location":[57.5638124811913,-20.01832165],"bbox":[57.5494046,-20.0366059,57.5785196,-19.999949],"inferred_type":"city"}
{"name":"L’Avenir VCA","other_names":{"alt_name":"L'Avenir VCA"},"display_name":"L’Avenir VCA, Moka, Mauritius / Maurice","address":{"city":"L’Avenir VCA","state":"Moka","ISO3166-2-lvl4":"MU-MO","country":"Mauritius / Maurice","country_code":"mu"},"osm_type":"relation","osm_id":15355403,"type":"administrative","location":[57.564406279519474,-20.2146141],"bbox":[57.5444787,-20.2306651,57.5889798,-20.1975456],"inferred_type":"city"}
{"name":"L’Escalier VCA, East","other_names":{"alt_name":"L'Escalier VCA, East"},"display_name":"L’Escalier VCA, East, Grand Port, Mauritius / Maurice","address":{"city":"L’Escalier VCA, East","state":"Grand Port","ISO3166-2-lvl4":"MU-GP","country":"Mauritius / Maurice","country_code":"mu"},"osm_type":"relation","osm_id":15437184,"type":"administrative","location":[57.617350599999995,-20.4724945],"bbox":[57.5936167,-20.4948233,57.6291299,-20.4501483],"inferred_type":"city"}
{"name":"L’Escalier VCA, West","other_names":{"alt_name":"L'Escalier VCA, West"},"display_name":"L’Escalier VCA, West, Savanne, Mauritius / Maurice","address":{"city":"L’Escalier VCA, West","state":"Savanne","ISO3166-2-lvl4":"MU-SA","country":"Mauritius / Maurice","country_code":"mu"},"osm_type":"relation","osm_id":18587795,"type":"administrative","location":[57.608816440292344,-20.48885955],"bbox":[57.5847104,-20.5026122,57.6232132,-20.475184],"inferred_type":"city"}
{"name":"Mare d’Albert VCA","other_names":{"alt_name":"Mare d'Albert VCA"},"display_name":"Mare d’Albert VCA, Grand Port, Mauritius / Maurice","address":{"city":"Mare d’Albert VCA","state":"Grand Port","ISO3166-2-lvl4":"MU-GP","country":"Mauritius / Maurice","country_code":"mu"},"osm_type":"relation","osm_id":15570864,"type":"administrative","location":[57.635196219193276,-20.423474249999998],"bbox":[57.6167355,-20.4337477,57.651365,-20.4132181],"inferred_type":"city"}
{"name":"Petit Raffray VCA","display_name":"Petit Raffray VCA, Riviere du Rempart, Mauritius / Maurice","address":{"city":"Petit Raffray VCA","state":"Riviere du Rempart","ISO3166-2-lvl4":"MU-RR","country":"Mauritius / Maurice","country_code":"mu"},"population":9973,"osm_type":"relation","osm_id":18474455,"type":"administrative","location":[57.627131317840494,-20.022794249999997],"bbox":[57.6002232,-20.0443121,57.6449657,-20.0018041],"inferred_type":"city"}
{"name":"Port Louis","other_names":{"name:af":"Port Louis","name:am":"ፖርት ሉዊስ","name:an":"Port-Louis","name:ar":"بورت لويس","name:az":"Port Luiz","name:be":"Порт-Луі","name:bg":"Порт Луи","name:bn":"পোর্ট লুইস","name:bo":"ལོ་ཡི་སི་གྲུ་ཁ།","name:br":"Port Louis","name:bs":"Port Louis","name:ca":"Port Louis","name:ce":"Порт-Луи","name:cs":"Port Louis","name:cv":"Порт Луи","name:cy":"Port Louis","name:da":"Port Louis","name:de":"Port Louis","name:el":"Πορ Λουί","name:en":"Port Louis","name:eo":"Port-Luiso","name:es":"Port Louis","name:et":"Port Louis","name:eu":"Port Louis","name:fa":"پورت‌لوئیس","name:fi":"Port Louis","name:fr":"Port-Louis","name:fy":"Port Louis","name:ga":"Port Louis","name:gd":"Port Louis","name:gl":"Port Louis","name:gn":"Port Louis","name:ha":"Port Louis","name:he":"פור לואי","name:hi":"पोर्ट लुई","name:hr":"Port Louis","name:ht":"Pò-Loui","name:hu":"Port Louis","name:hy":"Պորտ Լուի","name:ia":"Port Louis","name:id":"Port Louis","name:ie":"Port Louis","name:io":"Port Louis","name:is":"Port Louis","name:it":"Port Louis","name:ja":"ポートルイス","name:jv":"Port Louis","name:ka":"პორტ-ლუი","name:kk":"Порт-Луи","name:ko":"포트루이스","name:ky":"Порт-Луи","name:la":"Portus Ludovici","name:lb":"Port Louis","name:lt":"Port Luisas","name:lv":"Portluī","name:mg":"Port Louis","name:mk":"Порт Луј","name:ml":"പോർട്ട് ലൂയിസ്","name:mn":"Порт-Луи","name:mr":"पोर्ट लुईस","name:ms":"Port Louis","name:nl":"Port Louis","name:nn":"Port Louis","name:no":"Port Louis","name:oc":"Port Louis","name:or":"ପୋର୍ଟ ଲୁଇସ","name:os":"Порт-Луи","name:pa":"ਪੋਰਟ ਲੂਈ","name:pl":"Port Louis","name:ps":"پورت لویس","name:pt":"Porto Luís","name:ro":"Port Louis","name:ru":"Порт-Луи","name:sc":"Port Louis","name:sh":"Port Louis","name:sk":"Port Louis","name:sl":"Port Louis","name:sn":"Port Louis","name:so":"Bort Lois","name:sq":"Port Louis","name:sr":"Порт Луис","name:sv":"Port Louis","name:sw":"Port Louis","name:ta":"போர்ட் லூயிஸ்","name:tg":"Порт-Луи","name:th":"พอร์ตหลุยส์","name:tl":"Port Louis","name:tr":"Port Louis","name:tt":"Порт-Луи","name:uk":"Порт-Луї","name:ur":"پورٹ لوئس","name:uz":"Port-lui","name:vi":"Port Louis","name:vo":"Port Louis","name:yo":"Port Louis","name:zh":"路易港","alt_name":"Port-Louis","loc_name":"Port Lewis","name:arz":"بورت لويس","name:ast":"Puertu Lluis","name:avk":"Port-Louis","name:cdo":"Port Louis","name:ceb":"Port Louis","name:ckb":"پۆرت لویس","name:crh":"Port Lui","name:diq":"Port Louis","name:hak":"Port Louis","name:hif":"Port Louis","name:lfn":"Port Louis","name:lij":"Port Louis","name:lmo":"Port Louis","name:mfe":"Porlwi","name:mhr":"Порт-Луи","name:nah":"Port Louis","name:nan":"Port Louis","name:nov":"Port Louis","name:olo":"Port Lui","name:pms":"Port Luis","name:pnb":"پورٹ لوئی","name:sco":"Port Louis","name:smn":"Port Louis","name:udm":"Порт-Луи","name:vec":"Port Louis","name:vep":"Port Lui","name:war":"Port Louis","name:wuu":"路易港","name:xmf":"პორტ-ლუი","name:yue":"路易士港","name:simple":"Port Louis","name:be-tarask":"Порт Луі"},"display_name":"Port Louis, 11317, Mauritius / Maurice","address":{"city":"Port Louis","state":"Port Louis","ISO3166-2-lvl4":"MU-PL","postcode":"11317","country":"Mauritius / Maurice","country_code":"mu"},"population":147688,"osm_type":"node","osm_id":243819778,"type":"city","location":[57.5028044,-20.1624522],"bbox":[57.3428044,-20.3224522,57.6628044,-20.0024522]}
{"name":"Quatre Bornes","other_names":{"alt_name":"Quatre-Bornes","loc_name:en":"The City of Flowers","loc_name:fr":"La Ville des Fleurs"},"display_name":"Quatre Bornes, Plaines Wilhems, Mauritius / Maurice","address":{"city":"Quatre Bornes","state":"Plaines Wilhems","ISO3166-2-lvl4":"MU-PW","country":"Mauritius / Maurice","country_code":"mu"},"population":81773,"osm_type":"node","osm_id":245557798,"type":"city","location":[57.4800061,-20.2643015],"bbox":[57.3200061,-20.4243015,57.6400061,-20.1043015],"border":{"name":"Quatre Bornes","other_names":{"alt_name":"Quatre-Bornes","loc_name:en":"The City of Flowers","loc_name:fr":"La Ville des Fleurs"},"display_name":"Quatre Bornes, Plaines Wilhems, Mauritius / Maurice","address":{"city":"Quatre Bornes","state":"Plaines Wilhems","ISO3166-2-lvl4":"MU-PW","country":"Mauritius / Maurice","country_code":"mu"},"population":81773,"osm_type":"relation","osm_id":13476401,"type":"administrative","location":[57.4800061,-20.2643015],"bbox":[57.4409367,-20.3059884,57.5188886,-20.2400231]}}
{"name":"Quatre Soeurs VCA","other_names":{"name:fr":"Quatre Sœurs VCA"},"display_name":"Quatre Soeurs VCA, Grand Port, Mauritius / Maurice","address":{"city":"Quatre Soeurs VCA","state":"Grand Port","ISO3166-2-lvl4":"MU-GP","country":"Mauritius / Maurice","country_code":"mu"},"osm_type":"relation","osm_id":15512577,"type":"administrative","location":[57.76671695058806,-20.29890285],"bbox":[57.7558857,-20.3136823,57.781139,-20.2841757],"inferred_type":"city"}
{"name":"Richelieu VCA, East","other_names":{"alt_name:en":"Richelieu"},"display_name":"Richelieu VCA, East, Plaines Wilhems, Mauritius / Maurice","address":{"city":"Richelieu VCA, East","state":"Plaines Wilhems","ISO3166-2-lvl4":"MU-PW","country":"Mauritius / Maurice","country_code":"mu"},"osm_type":"relation","osm_id":18504784,"type":"administrative","location":[57.464241344484456,-20.19060965],"bbox":[57.4628652,-20.1923019,57.465663,-20.1887781],"inferred_type":"city"}
{"name":"St. Julien d’Hotman VCA, East","other_names":{"alt_name":"St. Julien d'Hotman VCA, East"},"display_name":"St. Julien d’Hotman VCA, East, Flacq, Mauritius / Maurice","address":{"city":"St. Julien d’Hotman VCA, East","state":"Flacq","ISO3166-2-lvl4":"MU-FL","country":"Mauritius / Maurice","country_code":"mu"},"osm_type":"relation","osm_id":18589270,"type":"administrative","location":[57.63583268439005,-20.233626700000002],"bbox":[57.6093124,-20.2437227,57.662877,-20.2234399],"inferred_type":"city"}
{"name":"St. Julien VCA, East","other_names":{"alt_name":"Saint-Julien VCA, East"},"display_name":"St. Julien VCA, East, Flacq, Mauritius / Maurice","address":{"city":"St. Julien VCA, East","state":"Flacq","ISO3166-2-lvl4":"MU-FL","country":"Mauritius / Maurice","country_code":"mu"},"osm_type":"relation","osm_id":18451718,"type":"administrative","location":[57.670702355413596,-20.2192276],"bbox":[57.6416148,-20.2423925,57.701952,-20.1960843],"inferred_type":"city"}
{"name":"St. Julien VCA, West","other_names":{"alt_name":"Saint-Julien VCA, West"},"display_name":"St. Julien VCA, West, Moka, Mauritius / Maurice","address":{"city":"St. Julien VCA, West","state":"Moka","ISO3166-2-lvl4":"MU-MO","country":"Mauritius / Maurice","country_code":"mu"},"osm_type":"relation","osm_id":18589274,"type":"administrative","location":[57.65243532443492,-20.21207295],"bbox":[57.6411879,-20.2235093,57.6650137,-20.2003197],"inferred_type":"city"}
{"display_name":"Town of Curepipe, Ward 1, Vacoas-Phoenix, Plaines Wilhems, Mauritius / Maurice","address":{"city_district":"Town of Curepipe, Ward 1","village":"Vacoas-Phoenix","state":"Plaines Wilhems","ISO3166-2-lvl4":"MU-PW","country":"Mauritius / Maurice","country_code":"mu"},"osm_type":"way","osm_id":1225415941,"type":"city","location":[57.50471098601845,-20.309328999999998],"bbox":[57.5040583,-20.3098024,57.5053544,-20.3089127]}
{"display_name":"Town of Vacoas-Phoenix, Ward 3, Vacoas-Phoenix, Plaines Wilhems, Mauritius / Maurice","address":{"city_district":"Town of Vacoas-Phoenix, Ward 3","village":"Vacoas-Phoenix","state":"Plaines Wilhems","ISO3166-2-lvl4":"MU-PW","country":"Mauritius / Maurice","country_code":"mu"},"osm_type":"way","osm_id":1223297069,"type":"city","location":[57.48421485771349,-20.301266],"bbox":[57.4829799,-20.30163,57.4848103,-20.3008585]}
{"name":"Trou d’Eau Douce VCA","other_names":{"alt_name":"Trou d'Eau Douce VCA"},"display_name":"Trou d’Eau Douce VCA, Flacq, Mauritius / Maurice","address":{"city":"Trou d’Eau Douce VCA","state":"Flacq","ISO3166-2-lvl4":"MU-FL","country":"Mauritius / Maurice","country_code":"mu"},"osm_type":"relation","osm_id":18408429,"type":"administrative","location":[57.78929619612394,-20.23229015],"bbox":[57.770624,-20.2621481,57.808517,-20.2023437],"inferred_type":"city"}
{"name":"Vacoas-Phoenix","other_names":{"name:en":"Vacoas-Phoenix","name:fr":"Vacoas-Phœnix","name:lt":"Vakoasas-Finiksas","alt_name":"Vacoas-Phœnix","loc_name:en":"The Twin Cities","loc_name:fr":"Les Villes Jumelles"},"display_name":"Vacoas-Phoenix, Plaines Wilhems, Mauritius / Maurice","address":{"city":"Vacoas-Phoenix","state":"Plaines Wilhems","ISO3166-2-lvl4":"MU-PW","country":"Mauritius / Maurice","country_code":"mu"},"population":107678,"osm_type":"node","osm_id":365764030,"type":"city","location":[57.4978036,-20.2933761],"bbox":[57.3378036,-20.4533761,57.6578036,-20.1333761]}
