{"name":"Arquitecto Tomás Romero Pereira","other_names":{"alt_name":"Tomás Romero Pereira"},"display_name":"Arquitecto Tomás Romero Pereira, Itapúa, Región Oriental, Paraguay / Paraguái","address":{"city":"Arquitecto Tomás Romero Pereira","state":"Itapúa","ISO3166-2-lvl4":"PY-7","region":"Región Oriental","country":"Paraguay / Paraguái","country_code":"py"},"osm_type":"relation","osm_id":10077584,"type":"administrative","location":[-55.2758653046726,-26.46400835],"bbox":[-55.5131373,-26.6249553,-55.0836989,-26.3071007],"inferred_type":"city"}
{"name":"Asunción","other_names":{"name:am":"አሱንሲዮን","name:ar":"أسونسيون","name:az":"Asunson","name:be":"Асунсьён","name:bg":"Асунсион","name:bo":"ཨ་སུན་སི་འན།","name:br":"Asunción","name:ca":"Asunción","name:de":"Asunción","name:el":"Ασουνσιόν","name:en":"Asuncion","name:eo":"Asunciono","name:eu":"Asuncion","name:fa":"آسونسیون","name:fr":"Asuncion","name:gl":"Asunción","name:gn":"Paraguaŷ","name:he":"אסונסיון","name:ht":"Asounsyòn","name:hu":"Asunción","name:hy":"Ասունսյոն","name:io":"Asuncion","name:is":"Asúnsjón","name:it":"Asunción","name:ja":"アスンシオン","name:ka":"ასუნსიონი","name:kk":"Асунсьон","name:kn":"ಅಸೂನ್‌ಸಿಯಾನ್","name:ko":"아순시온","name:la":"Assumptio","name:lt":"Asunsjonas","name:lv":"Asunsjona","name:mk":"Асунсион","name:mr":"आसुन्सियोन","name:ms":"Gunung Berapi Asuncion","name:nl":"Asuncion","name:no":"Asunción","name:oc":"Asunción","name:os":"Асунсьон","name:pl":"Asunción","name:pt":"Assunção","name:ru":"Асунсьон","name:sr":"Асунсион","name:sv":"Asunción","name:sw":"Asuncion","name:ta":"அசுன்சியோன்","name:th":"อะซุนซิออง","name:tl":"Asuncion","name:tr":"Asunción","name:ug":"ئاسۇنسىئون","name:uk":"Асунсьйон","name:ur":"اسونسیون","name:yi":"אסונסיאן","name:zh":"亞松森","alt_name":"Nuestra Señora Santa María de la Asunción","name:kab":"Asuncion","name:mzn":"آسونسیون","name:nov":"Asunsion","name:pap":"Assuncion","name:pnb":"اسنشن","name:tet":"Asunsaun","name:yue":"亞松森","name:bat-smg":"Asunsjuons","official_name":"La Muy Noble y Leal Ciudad de Nuestra Señora Santa María de la Asunción","name:be-tarask":"Асунсьён"},"display_name":"Asunción, Distrito Capital, Región Oriental, Paraguay / Paraguái","address":{"city":"Asunción","ISO3166-2-lvl8":"PY-ASU","region":"Distrito Capital","ISO3166-2-lvl4":"PY-ASU","country":"Paraguay / Paraguái","country_code":"py"},"population":742023,"osm_type":"node","osm_id":249854726,"type":"city","location":[-57.6343814,-25.2800459],"bbox":[-57.7943814,-25.4400459,-57.4743814,-25.1200459],"border":{"name":"Asunción","other_names":{"ref":"ASU","name:gl":"Asunción","ISO3166-2":"PY-ASU","alt_name:es":"La Muy Noble y Leal Ciudad de Nuestra Señora Santa María de la Asunción","name:am":"አሱንሲዮን","name:ar":"أسونسيون","name:az":"Asunson","name:be":"Асунсьён","name:bg":"Асунсион","name:bo":"ཨ་སུན་སི་འན།","name:br":"Asunción","name:ca":"Asunción","name:de":"Asunción","name:el":"Ασουνσιόν","name:en":"Asuncion","name:eo":"Asunciono","name:eu":"Asuncion","name:fa":"آسونسیون","name:fr":"Asuncion","name:gn":"Paraguaŷ","name:he":"אסונסיון","name:ht":"Asounsyòn","name:hu":"Asunción","name:hy":"Ասունսյոն","name:io":"Asuncion","name:is":"Asúnsjón","name:it":"Asunción","name:ja":"アスンシオン","name:ka":"ასუნსიონი","name:kk":"Асунсьон","name:kn":"ಅಸೂನ್‌ಸಿಯಾನ್","name:ko":"아순시온","name:la":"Assumptio","name:lt":"Asunsjonas","name:lv":"Asunsjona","name:mk":"Асунсион","name:mr":"आसुन्सियोन","name:ms":"Gunung Berapi Asuncion","name:nl":"Asuncion","name:no":"Asunción","name:oc":"Asunción","name:os":"Асунсьон","name:pl":"Asunción","name:pt":"Assunção","name:ru":"Асунсьон","name:sr":"Асунсион","name:sv":"Asunción","name:sw":"Asuncion","name:ta":"அசுன்சியோன்","name:th":"อะซุนซิออง","name:tl":"Asuncion","name:tr":"Asunción","name:ug":"ئاسۇنسىئون","name:uk":"Асунсьйон","name:ur":"اسونسیون","name:yi":"אסונסיאן","name:zh":"亞松森","alt_name":"Nuestra Señora Santa María de la Asunción","name:kab":"Asuncion","name:mzn":"آسونسیون","name:nov":"Asunsion","name:pap":"Assuncion","name:pnb":"اسنشن","name:tet":"Asunsaun","name:yue":"亞松森","name:bat-smg":"Asunsjuons","official_name":"La Muy Noble y Leal Ciudad de Nuestra Señora Santa María de la Asunción","name:be-tarask":"Асунсьён"},"display_name":"Asunción, Distrito Capital, Región Oriental, Paraguay / Paraguái","address":{"city":"Asunción","ISO3166-2-lvl8":"PY-ASU","region":"Distrito Capital","ISO3166-2-lvl4":"PY-ASU","country":"Paraguay / Paraguái","country_code":"py"},"population":742023,"osm_type":"relation","osm_id":3654543,"type":"administrative","location":[-57.6343814,-25.2800459],"bbox":[-57.6736249,-25.3811854,-57.5249286,-25.2188299]}}
{"name":"Barrio de Arroyo Pora (Sapucái) - Ciudad de Arroyo Pora-Sub Urbano","other_names":{"name:de":"Nachbarschaft von Arroyo Pora (Sapucái) - Stadt von Arroyo Pora-Sub Urbano","name:en":"Neighborhood of Arroyo Pora (Sapucái) - City of Arroyo Pora-Sub Urbano","name:es":"Barrio de Arroyo Pora (Sapucái) - Ciudad de Arroyo Pora-Sub Urbano","name:fr":"Quartier de Arroyo Pora (Sapucái) - Ville de Arroyo Pora-Sub Urbano","name:it":"Quartiere di Arroyo Pora (Sapucái) - Città di Arroyo Pora-Sub Urbano","name:ja":"近所 Arroyo Pora (Sapucái) - の都市 Arroyo Pora-Sub Urbano","name:ko":"이웃 Arroyo Pora (Sapucái) - 도시 Arroyo Pora-Sub Urbano","name:la":"Vicinia Arroyo Pora (Sapucái) - City of * Arroyo Pora-Sub Urbano","name:zh-Hant":"鄰里 Arroyo Pora (Sapucái) - 的城市 Arroyo Pora-Sub Urbano"},"display_name":"Barrio de Arroyo Pora (Sapucái) - Ciudad de Arroyo Pora-Sub Urbano, Paraguarí, Región Oriental, Paraguay / Paraguái","address":{"city":"Barrio de Arroyo Pora (Sapucái) - Ciudad de Arroyo Pora-Sub Urbano","state":"Paraguarí","ISO3166-2-lvl4":"PY-9","region":"Región Oriental","country":"Paraguay / Paraguái","country_code":"py"},"osm_type":"way","osm_id":1110132727,"type":"administrative","location":[-56.98747731898945,-25.646335],"bbox":[-56.9957437,-25.6530034,-56.9803889,-25.6401745],"inferred_type":"city"}
{"name":"Caaguazú","display_name":"Caaguazú, Región Oriental, Paraguay / Paraguái","address":{"city":"Caaguazú","state":"Caaguazú","ISO3166-2-lvl4":"PY-5","region":"Región Oriental","country":"Paraguay / Paraguái","country_code":"py"},"population":146513,"osm_type":"node","osm_id":2625331790,"type":"city","location":[-56.0181685,-25.4661756],"bbox":[-56.1781685,-25.6261756,-55.8581685,-25.3061756],"border":{"name":"Caaguazú","display_name":"Caaguazú, Región Oriental, Paraguay / Paraguái","address":{"city":"Caaguazú","state":"Caaguazú","ISO3166-2-lvl4":"PY-5","region":"Región Oriental","country":"Paraguay / Paraguái","country_code":"py"},"population":146513,"osm_type":"relation","osm_id":5166667,"type":"administrative","location":[-56.0181685,-25.4661756],"bbox":[-56.0655691,-25.5008018,-55.9791429,-25.4452091]}}
{"name":"Capiatá","display_name":"Capiatá, Central, Región Oriental, Paraguay / Paraguái","address":{"city":"Capiatá","town":"Capiatá","state":"Central","ISO3166-2-lvl4":"PY-11","region":"Región Oriental","country":"Paraguay / Paraguái","country_code":"py"},"population":232257,"osm_type":"node","osm_id":2645687271,"type":"city","location":[-57.4427315,-25.3548171],"bbox":[-57.6027315,-25.5148171,-57.2827315,-25.1948171],"border":{"name":"Capiatá","other_names":{"official_name:es":"Nuestra Señora Santa María de la Candelaria de Capiatá"},"display_name":"Capiatá, Central, Región Oriental, Paraguay / Paraguái","address":{"town":"Capiatá","state":"Central","ISO3166-2-lvl4":"PY-11","region":"Región Oriental","country":"Paraguay / Paraguái","country_code":"py"},"population":232257,"osm_type":"relation","osm_id":3710869,"type":"administrative","location":[-57.4427315,-25.3548171],"bbox":[-57.5166968,-25.4391348,-57.3983451,-25.3078263]}}
{"name":"Ciudad del Este","other_names":{"name:be":"Сьюдад-дэль-Эстэ","name:bg":"Сиудад дел Есте","name:de":"Ciudad del Este","name:es":"Ciudad del Este","name:fa":"سیوداد دل استه","name:fr":"Ciudad del Este","name:gn":"Táva Kuarahyresẽme","name:ka":"სიუდად-დელ-ესტე","name:mk":"Сиудад дел Есте","name:os":"Сьюдад-дель-Эсте","name:pt":"Cidade do Leste","name:ru":"Сьюдад-дель-Эсте","name:sr":"Сијудад дел Есте","name:tt":"Сьюдад-дел-Эсте","name:uk":"Сьюдад-дель-Есте","name:ur":"سیوداد دیل استے","name:yi":"סיודאד דעל עסטע","name:azb":"سیوداد دل استه","old_name":"Puerto Flor de Lis;Puerto Presidente Stroessner","name:zh-Hans":"东方市","name:zh-Hant":"東方市","loc_name:zh-Hant":"橋頭市"},"display_name":"Ciudad del Este, Alto Paraná, Región Oriental, Paraguay / Paraguái","address":{"city":"Ciudad del Este","state":"Alto Paraná","ISO3166-2-lvl4":"PY-10","region":"Región Oriental","country":"Paraguay / Paraguái","country_code":"py"},"population":320782,"osm_type":"node","osm_id":319466986,"type":"city","location":[-54.6168645,-25.5169015],"bbox":[-54.7768645,-25.6769015,-54.4568645,-25.3569015],"border":{"name":"Ciudad del Este","other_names":{"name:be":"Сьюдад-дэль-Эстэ","name:bg":"Сиудад дел Есте","name:de":"Ciudad del Este","name:es":"Ciudad del Este","name:fa":"سیوداد دل استه","name:fr":"Ciudad del Este","name:gn":"Táva Kuarahyresẽme","name:ka":"სიუდად-დელ-ესტე","name:mk":"Сиудад дел Есте","name:os":"Сьюдад-дель-Эсте","name:pt":"Cidade do Leste","name:ru":"Сьюдад-дель-Эсте","name:sr":"Сијудад дел Есте","name:tt":"Сьюдад-дел-Эсте","name:uk":"Сьюдад-дель-Есте","name:ur":"سیوداد دیل استے","name:yi":"סיודאד דעל עסטע","name:azb":"سیوداد دل استه","old_name":"Puerto Flor de Lis;Puerto Presidente Stroessner","name:zh-Hans":"东方市","name:zh-Hant":"東方市","loc_name:zh-Hant":"橋頭市"},"display_name":"Ciudad del Este, Alto Paraná, Región Oriental, Paraguay / Paraguái","address":{"city":"Ciudad del Este","state":"Alto Paraná","ISO3166-2-lvl4":"PY-10","region":"Región Oriental","country":"Paraguay / Paraguái","country_code":"py"},"population":320782,"osm_type":"relation","osm_id":6552045,"type":"administrative","location":[-54.6168645,-25.5169015],"bbox":[-54.7402209,-25.6002611,-54.5938773,-25.386714]}}
{"name":"Concepción","display_name":"Concepción, Región Oriental, Paraguay / Paraguái","address":{"city":"Concepción","state":"Concepción","ISO3166-2-lvl4":"PY-1","region":"Región Oriental","country":"Paraguay / Paraguái","country_code":"py"},"population":85876,"osm_type":"node","osm_id":6489770653,"type":"city","location":[-57.4427802,-23.4068281],"bbox":[-57.6027802,-23.5668281,-57.2827802,-23.2468281]}
{"name":"Coronel Oviedo","other_names":{"name:lt":"Koronel Ovjedas","name:ru":"Коронель-Овьедо","name:uk":"Коронель-Овьєдо"},"display_name":"Coronel Oviedo, Caaguazú, Región Oriental, 050132, Paraguay / Paraguái","address":{"city":"Coronel Oviedo","state":"Caaguazú","ISO3166-2-lvl4":"PY-5","region":"Región Oriental","postcode":"050132","country":"Paraguay / Paraguái","country_code":"py"},"population":120632,"osm_type":"node","osm_id":313903710,"type":"city","location":[-56.4406994,-25.450055],"bbox":[-56.6006994,-25.610055,-56.2806994,-25.290055]}
{"name":"Encarnación","other_names":{"name:en":"Encarnacion","name:fr":"Encarnacion","name:lt":"Enkarnasjonas","name:ru":"Энкарнасьон","name:uk":"Енкарнасьйон"},"display_name":"Encarnación, Itapúa, Región Oriental, 6000, Paraguay / Paraguái","address":{"city":"Encarnación","state":"Itapúa","ISO3166-2-lvl4":"PY-7","region":"Región Oriental","postcode":"6000","country":"Paraguay / Paraguái","country_code":"py"},"population":127600,"osm_type":"node","osm_id":243191014,"type":"city","location":[-55.8669492,-27.3376114],"bbox":[-56.0269492,-27.4976114,-55.7069492,-27.1776114],"border":[{"name":"Encarnación","other_names":{"name:en":"Encarnacion","name:fr":"Encarnacion","name:lt":"Enkarnasjonas","name:ru":"Энкарнасьон","name:uk":"Енкарнасьйон"},"display_name":"Encarnación, Itapúa, Región Oriental, 070101, Paraguay / Paraguái","address":{"city":"Encarnación","state":"Itapúa","ISO3166-2-lvl4":"PY-7","region":"Región Oriental","postcode":"070101","country":"Paraguay / Paraguái","country_code":"py"},"population":127600,"osm_type":"relation","osm_id":9884784,"type":"administrative","location":[-55.8669492,-27.3376114],"bbox":[-56.0204452,-27.4167463,-55.7956997,-27.1347372]},{"name":"Encarnación","other_names":{"name:en":"Encarnacion","name:fr":"Encarnacion","name:lt":"Enkarnasjonas","name:ru":"Энкарнасьон","name:uk":"Енкарнасьйон"},"display_name":"Encarnación, Itapúa, Región Oriental, 070101, Paraguay / Paraguái","address":{"city":"Encarnación","state":"Itapúa","ISO3166-2-lvl4":"PY-7","region":"Región Oriental","postcode":"070101","country":"Paraguay / Paraguái","country_code":"py"},"population":127600,"osm_type":"relation","osm_id":9396782,"type":"administrative","location":[-55.8669492,-27.3376114],"bbox":[-55.9097759,-27.4129239,-55.7956997,-27.282997]}]}
{"name":"Fernando de la Mora","display_name":"Fernando de la Mora, Central, Región Oriental, Paraguay / Paraguái","address":{"city":"Fernando de la Mora","state":"Central","ISO3166-2-lvl4":"PY-11","region":"Región Oriental","country":"Paraguay / Paraguái","country_code":"py"},"population":315652,"osm_type":"node","osm_id":2646010817,"type":"city","location":[-57.5521492,-25.3281673],"bbox":[-57.7121492,-25.4881673,-57.3921492,-25.1681673],"border":{"name":"Fernando de la Mora","other_names":{"old_name:gn":"Zavala Cué","official_name:es":"Fernando de la Mora"},"display_name":"Fernando de la Mora, Central, Región Oriental, Paraguay / Paraguái","address":{"city":"Fernando de la Mora","state":"Central","ISO3166-2-lvl4":"PY-11","region":"Región Oriental","country":"Paraguay / Paraguái","country_code":"py"},"population":315652,"osm_type":"relation","osm_id":3681127,"type":"administrative","location":[-57.5521492,-25.3281673],"bbox":[-57.584953,-25.3569481,-57.516485,-25.2917291]}}
{"name":"Lambaré","display_name":"Lambaré, Central, Región Oriental, 2420, Paraguay / Paraguái","address":{"city":"Lambaré","state":"Central","ISO3166-2-lvl4":"PY-11","region":"Región Oriental","postcode":"2420","country":"Paraguay / Paraguái","country_code":"py"},"population":300000,"osm_type":"node","osm_id":2647252986,"type":"city","location":[-57.6261456,-25.3455354],"bbox":[-57.7861456,-25.5055354,-57.4661456,-25.1855354],"border":{"name":"Lambaré","other_names":{"official_name:es":"Lambaré"},"display_name":"Lambaré, Central, Región Oriental, Paraguay / Paraguái","address":{"city":"Lambaré","state":"Central","ISO3166-2-lvl4":"PY-11","region":"Región Oriental","country":"Paraguay / Paraguái","country_code":"py"},"population":300000,"osm_type":"relation","osm_id":3678799,"type":"administrative","location":[-57.6261456,-25.3455354],"bbox":[-57.6429976,-25.3901007,-57.5861729,-25.3125378]}}
{"name":"Limpio","other_names":{"name:en":"Limpio"},"display_name":"Limpio, Central, Región Oriental, Paraguay / Paraguái","address":{"city":"Limpio","state":"Central","ISO3166-2-lvl4":"PY-11","region":"Región Oriental","country":"Paraguay / Paraguái","country_code":"py"},"osm_type":"node","osm_id":1466688614,"type":"city","location":[-57.4778284,-25.1728768],"bbox":[-57.6378284,-25.3328768,-57.3178284,-25.0128768],"border":{"name":"Limpio","other_names":{"name:eo":"Limpio","name:en":"Limpio","official_name:es":"San José de los Campos Limpios de Tapúa"},"display_name":"Limpio, Central, Región Oriental, Paraguay / Paraguái","address":{"city":"Limpio","state":"Central","ISO3166-2-lvl4":"PY-11","region":"Región Oriental","country":"Paraguay / Paraguái","country_code":"py"},"osm_type":"relation","osm_id":3698016,"type":"administrative","location":[-57.4778284,-25.1728768],"bbox":[-57.546804,-25.2209296,-57.3964611,-25.0957872]}}
{"name":"Luque","other_names":{"name:gn":"Lúke","name:lt":"Lukė","official_name:es":"Nuestra Señora del Rosario de Luque"},"display_name":"Luque, Central, Región Oriental, Paraguay / Paraguái","address":{"city":"Luque","state":"Central","ISO3166-2-lvl4":"PY-11","region":"Región Oriental","country":"Paraguay / Paraguái","country_code":"py"},"population":224000,"osm_type":"node","osm_id":1438326327,"type":"city","location":[-57.4926928,-25.2665417],"bbox":[-57.6526928,-25.4265417,-57.3326928,-25.1065417],"border":{"name":"Luque","other_names":{"name:gn":"Lúke","name:lt":"Lukė","official_name:es":"Nuestra Señora del Rosario de Luque"},"display_name":"Luque, Central, Región Oriental, Paraguay / Paraguái","address":{"city":"Luque","state":"Central","ISO3166-2-lvl4":"PY-11","region":"Región Oriental","country":"Paraguay / Paraguái","country_code":"py"},"population":224000,"osm_type":"relation","osm_id":6002474,"type":"administrative","location":[-57.4926928,-25.2665417],"bbox":[-57.5428118,-25.324689,-57.349664,-25.1799972]}}
{"name":"Mariano Roque Alonso","display_name":"Mariano Roque Alonso, Central, Región Oriental, Paraguay / Paraguái","address":{"city":"Mariano Roque Alonso","state":"Central","ISO3166-2-lvl4":"PY-11","region":"Región Oriental","country":"Paraguay / Paraguái","country_code":"py"},"osm_type":"node","osm_id":1466688615,"type":"city","location":[-57.5346458,-25.2118123],"bbox":[-57.6946458,-25.3718123,-57.3746458,-25.0518123],"border":{"name":"Mariano Roque Alonso","other_names":{"official_name:es":"Mariano Roque Alonso"},"display_name":"Mariano Roque Alonso, Central, Región Oriental, Paraguay / Paraguái","address":{"city":"Mariano Roque Alonso","state":"Central","ISO3166-2-lvl4":"PY-11","region":"Región Oriental","country":"Paraguay / Paraguái","country_code":"py"},"osm_type":"relation","osm_id":3691623,"type":"administrative","location":[-57.5346458,-25.2118123],"bbox":[-57.5772552,-25.2426453,-57.4995227,-25.1536781]}}
{"name":"Ñemby","other_names":{"alt_name:es":"San Lorenzo de la Frontera"},"display_name":"Ñemby, Central, Región Oriental, 2540, Paraguay / Paraguái","address":{"city":"Ñemby","state":"Central","ISO3166-2-lvl4":"PY-11","region":"Región Oriental","postcode":"2540","country":"Paraguay / Paraguái","country_code":"py"},"population":192224,"osm_type":"node","osm_id":2785492028,"type":"city","location":[-57.5471112,-25.3924542],"bbox":[-57.7071112,-25.5524542,-57.3871112,-25.2324542],"border":{"name":"Ñemby","other_names":{"official_name:es":"San Lorenzo de la Frontera","alt_name:es":"San Lorenzo de la Frontera"},"display_name":"Ñemby, Central, Región Oriental, Paraguay / Paraguái","address":{"city":"Ñemby","state":"Central","ISO3166-2-lvl4":"PY-11","region":"Región Oriental","country":"Paraguay / Paraguái","country_code":"py"},"population":192224,"osm_type":"relation","osm_id":6601487,"type":"administrative","location":[-57.5471112,-25.3924542],"bbox":[-57.5720391,-25.4436987,-57.5061574,-25.3609791]}}
{"name":"Pedro Juan Caballero","other_names":{"old_name":"Punta Porã"},"display_name":"Pedro Juan Caballero, Amambay, Región Oriental, 8500, Paraguay / Paraguái","address":{"city":"Pedro Juan Caballero","state":"Amambay","ISO3166-2-lvl4":"PY-13","region":"Región Oriental","postcode":"8500","country":"Paraguay / Paraguái","country_code":"py"},"population":120576,"osm_type":"node","osm_id":2129274144,"type":"city","location":[-55.7384312,-22.5497781],"bbox":[-55.8984312,-22.7097781,-55.5784312,-22.3897781],"border":{"name":"Pedro Juan Caballero","other_names":{"old_name":"Punta Porã"},"display_name":"Pedro Juan Caballero, Amambay, Región Oriental, Paraguay / Paraguái","address":{"city":"Pedro Juan Caballero","state":"Amambay","ISO3166-2-lvl4":"PY-13","region":"Región Oriental","country":"Paraguay / Paraguái","country_code":"py"},"population":120576,"osm_type":"relation","osm_id":6614169,"type":"administrative","location":[-55.7384312,-22.5497781],"bbox":[-56.3146699,-23.3470131,-55.655618,-22.2703227]}}
{"name":"Piribebuy","other_names":{"official_name:es":"Piribebuy"},"display_name":"Piribebuy, Cordillera, Región Oriental, Paraguay / Paraguái","address":{"town":"Piribebuy","state":"Cordillera","ISO3166-2-lvl4":"PY-3","region":"Región Oriental","country":"Paraguay / Paraguái","country_code":"py"},"population":28000,"osm_type":"way","osm_id":267195925,"type":"city","location":[-57.0422264,-25.4644144],"bbox":[-57.0551777,-25.4792219,-57.0276448,-25.4499492]}
{"name":"Salto del Guaira","display_name":"Salto del Guaira, Canindeyú, Región Oriental, Paraguay / Paraguái","address":{"city":"Salto del Guaira","state":"Canindeyú","ISO3166-2-lvl4":"PY-14","region":"Región Oriental","country":"Paraguay / Paraguái","country_code":"py"},"population":35493,"osm_type":"way","osm_id":754923903,"type":"city","location":[-54.33420666103485,-24.056639],"bbox":[-54.3950601,-24.1121141,-54.2946032,-24.0016113],"border":{"name":"Salto del Guairá","other_names":{"name:en":"Salto del Guaira","name:lt":"Salto del Gvaira","name:pt":"Salto do Guairá","name:ru":"Сальто-дель-Гуайра"},"display_name":"Salto del Guairá, Canindeyú, Región Oriental, Paraguay / Paraguái","address":{"town":"Salto del Guairá","state":"Canindeyú","ISO3166-2-lvl4":"PY-14","region":"Región Oriental","country":"Paraguay / Paraguái","country_code":"py"},"population":11298,"osm_type":"relation","osm_id":5158168,"type":"administrative","location":[-54.305644,-24.0616604],"bbox":[-54.7324395,-24.5373133,-54.258,-23.8126147]}}
{"name":"San Lorenzo","display_name":"San Lorenzo, Central, Región Oriental, Paraguay / Paraguái","address":{"city":"San Lorenzo","state":"Central","ISO3166-2-lvl4":"PY-11","region":"Región Oriental","country":"Paraguay / Paraguái","country_code":"py"},"population":489000,"osm_type":"node","osm_id":1437475089,"type":"city","location":[-57.509397,-25.3425224],"bbox":[-57.669397,-25.5025224,-57.349397,-25.1825224],"border":{"name":"San Lorenzo","other_names":{"official_name:es":"San Lorenzo del Campo Grande"},"display_name":"San Lorenzo, Central, Región Oriental, Paraguay / Paraguái","address":{"city":"San Lorenzo","state":"Central","ISO3166-2-lvl4":"PY-11","region":"Región Oriental","country":"Paraguay / Paraguái","country_code":"py"},"population":489000,"osm_type":"relation","osm_id":3720096,"type":"administrative","location":[-57.509397,-25.3425224],"bbox":[-57.5701709,-25.4026715,-57.4638671,-25.2957905]}}
{"name":"Villa Elisa","other_names":{"alt_name:es":"Colonia Belga del Mbocayaty"},"display_name":"Villa Elisa, Central, Región Oriental, 2610, Paraguay / Paraguái","address":{"city":"Villa Elisa","state":"Central","ISO3166-2-lvl4":"PY-11","region":"Región Oriental","postcode":"2610","country":"Paraguay / Paraguái","country_code":"py"},"population":106943,"osm_type":"node","osm_id":2646069724,"type":"city","location":[-57.5898279,-25.3715212],"bbox":[-57.7498279,-25.5315212,-57.4298279,-25.2115212],"border":{"name":"Villa Elisa","other_names":{"alt_name:es":"Colonia Belga del Mbocayaty"},"display_name":"Villa Elisa, Central, Región Oriental, Paraguay / Paraguái","address":{"city":"Villa Elisa","state":"Central","ISO3166-2-lvl4":"PY-11","region":"Región Oriental","country":"Paraguay / Paraguái","country_code":"py"},"population":106943,"osm_type":"relation","osm_id":3680237,"type":"administrative","location":[-57.5898279,-25.3715212],"bbox":[-57.614608,-25.4006852,-57.5667966,-25.3394098]}}
{"name":"Villarrica","other_names":{"name:lt":"Viljarika","name:ru":"Вильяррика","name:uk":"Вільярріка","official_name":"Villarrica del Espíritu Santo"},"display_name":"Villarrica, Guairá, Región Oriental, 5000, Paraguay / Paraguái","address":{"city":"Villarrica","state":"Guairá","ISO3166-2-lvl4":"PY-4","region":"Región Oriental","postcode":"5000","country":"Paraguay / Paraguái","country_code":"py"},"population":73400,"osm_type":"node","osm_id":313912581,"type":"city","location":[-56.4478765,-25.7809839],"bbox":[-56.6078765,-25.9409839,-56.2878765,-25.6209839],"border":{"name":"Villarrica","other_names":{"name:lt":"Viljarika","name:ru":"Вильяррика","name:uk":"Вільярріка","official_name":"Villarrica del Espíritu Santo"},"display_name":"Villarrica, Guairá, Región Oriental, 040103, Paraguay / Paraguái","address":{"city":"Villarrica","state":"Guairá","ISO3166-2-lvl4":"PY-4","region":"Región Oriental","postcode":"040103","country":"Paraguay / Paraguái","country_code":"py"},"population":73400,"osm_type":"relation","osm_id":3731173,"type":"administrative","location":[-56.4478765,-25.7809839],"bbox":[-56.4707414,-25.8030232,-56.4241352,-25.7621993]}}
