{"name":"Akanda","display_name":"Akanda, Libreville, Estuaire, Gabon","address":{"city":"Akanda","county":"Libreville","state":"Estuaire","ISO3166-2-lvl4":"GA-1","country":"Gabon","country_code":"ga"},"osm_type":"node","osm_id":12265423644,"type":"city","location":[9.3935938,0.4948951],"bbox":[9.2335938,0.3348951,9.5535938,0.6548951]}
{"name":"Bitam","other_names":{"name:en":"Bitam","name:fr":"Bitam"},"display_name":"Bitam, Département de Ntem, Woleu-Ntem, Gabon","address":{"city":"Bitam","county":"Département de Ntem","state":"Woleu-Ntem","ISO3166-2-lvl4":"GA-9","country":"Gabon","country_code":"ga"},"osm_type":"node","osm_id":331139689,"type":"city","location":[11.4944412,2.0786422],"bbox":[11.3344412,1.9186422,11.6544412,2.2386422]}
{"name":"Booué","other_names":{"name:fr":"Booué"},"display_name":"Booué, Ogooué-Ivindo, Gabon","address":{"city":"Booué","state":"Ogooué-Ivindo","ISO3166-2-lvl4":"GA-6","country":"Gabon","country_code":"ga"},"osm_type":"node","osm_id":2178082108,"type":"city","location":[11.9481458,-0.1015728],"bbox":[11.7881458,-0.2615728,12.1081458,0.0584272]}
{"name":"Franceville","other_names":{"name:ar":"فرانسفيل","name:fr":"Franceville","name:ja":"フランスヴィル","name:ko":"프랑스빌","name:lt":"Fransvilis","name:ru":"Франсвиль","name:uk":"Франсвіль","name:zh":"弗朗斯维尔"},"display_name":"Franceville, Haut-Ogooué, Gabon","address":{"city":"Franceville","state":"Haut-Ogooué","ISO3166-2-lvl4":"GA-2","country":"Gabon","country_code":"ga"},"population":56000,"osm_type":"node","osm_id":254528943,"type":"city","location":[13.5894808,-1.6343979],"bbox":[13.4294808,-1.7943979,13.7494808,-1.4743979]}
{"name":"Gamba","display_name":"Gamba, Ogooué-Maritime, Gabon","address":{"city":"Gamba","state":"Ogooué-Maritime","ISO3166-2-lvl4":"GA-8","country":"Gabon","country_code":"ga"},"osm_type":"node","osm_id":2178082113,"type":"city","location":[10.0189421,-2.7201331],"bbox":[9.8589421,-2.8801331,10.1789421,-2.5601331]}
{"name":"Koulamoutou","other_names":{"name:fr":"Koulamoutou","name:ru":"Куламуту","alt_name":"Koula-Moutou"},"display_name":"Koulamoutou, Ogooué-Lolo, Gabon","address":{"city":"Koulamoutou","state":"Ogooué-Lolo","ISO3166-2-lvl4":"GA-7","country":"Gabon","country_code":"ga"},"osm_type":"node","osm_id":2178082115,"type":"city","location":[12.4672747,-1.1340007],"bbox":[12.3072747,-1.2940007,12.6272747,-0.9740007]}
{"name":"Lambaréné","other_names":{"name:en":"Lambarene","name:fr":"Lambaréné","alt_name":"Lémbaréni","loc_name":"Nous voulons l'essayer, essayons"},"display_name":"Lambaréné, Moyen-Ogooué, Gabon","address":{"city":"Lambaréné","state":"Moyen-Ogooué","ISO3166-2-lvl4":"GA-3","country":"Gabon","country_code":"ga"},"osm_type":"node","osm_id":331144234,"type":"city","location":[10.2236482,-0.6942603],"bbox":[10.0636482,-0.8542603,10.3836482,-0.5342603]}
{"name":"Lastoursville","other_names":{"name:fr":"Lastoursville","alt_name":"Mandji","old_name":"Madiville"},"display_name":"Lastoursville, Ogooué-Lolo, Gabon","address":{"city":"Lastoursville","state":"Ogooué-Lolo","ISO3166-2-lvl4":"GA-7","country":"Gabon","country_code":"ga"},"population":11990,"osm_type":"node","osm_id":2178082117,"type":"city","location":[12.7310246,-0.810295],"bbox":[12.5710246,-0.970295,12.8910246,-0.650295]}
{"name":"Lékoni","other_names":{"name:fr":"Lékoni","alt_name":"Léconi"},"display_name":"Lékoni, Haut-Ogooué, Gabon","address":{"city":"Lékoni","state":"Haut-Ogooué","ISO3166-2-lvl4":"GA-2","country":"Gabon","country_code":"ga"},"population":5075,"osm_type":"node","osm_id":2178082119,"type":"city","location":[14.2650802,-1.584647],"bbox":[14.1050802,-1.744647,14.4250802,-1.424647]}
{"name":"Libreville","other_names":{"name:am":"ሊብረቪል","name:ar":"ليبرفيل","name:az":"Librevil","name:ba":"Либревиль","name:be":"Лібрэвіль","name:bg":"Либревил","name:bn":"লিব্রভিল","name:bo":"ལིབ་རེ་ཝིལ།","name:br":"Libreville","name:ca":"Libreville","name:ce":"Либревиль","name:cs":"Libreville","name:cv":"Либревиль","name:de":"Libreville","name:el":"Λιμπρβίλ","name:en":"Libreville","name:eo":"Librevilo","name:es":"Libreville","name:fa":"لیبرویل","name:fr":"Libreville","name:he":"ליברוויל","name:hi":"लिबरेविले","name:ht":"Libvil","name:hu":"Libreville","name:hy":"Լիբրևիլ","name:is":"Libreville","name:it":"Libreville","name:ja":"リーブルヴィル","name:ka":"ლიბრევილი","name:kk":"Либревиль","name:ko":"리브르빌","name:ky":"Либревил","name:la":"Liberopolis","name:lt":"Librevilis","name:lv":"Librevila","name:mk":"Либрвил","name:ml":"ലിബ്രവില്ലെ","name:mr":"लिब्रेव्हिल","name:my":"လစ်ဗရီဗေးလ်မြို့","name:nl":"Libreville","name:no":"Libreville","name:oc":"Liuravila","name:os":"Либревиль","name:pa":"ਲਿਬਰਵਿਲ","name:pl":"Libreville","name:ps":"لیبرویل","name:pt":"Libreville","name:ru":"Либревиль","name:sd":"لبرويل","name:so":"Librefille","name:sr":"Либрвил","name:sv":"Libreville","name:ta":"லிப்ரவில்","name:tg":"Либревил","name:th":"ลีเบรอวิล","name:tr":"Libreville","name:ug":"لىبرېۋىل","name:uk":"Лібревіль","name:ur":"لبریویل","name:uz":"Librevil","name:wo":"Libarwil","name:yi":"ליברעוויל","name:zh":"利伯维尔","name:azb":"لیبرویل","name:ckb":"لیبرێڤیل","name:grc":"Ἐλευθερόπολις","name:mrj":"Либревиль","name:nov":"Librevil","name:pnb":"لبرول","name:udm":"Либревиль","name:zh-Hans":"利伯维尔","name:zh-Hant":"利伯維爾"},"display_name":"Libreville, Estuaire, Gabon","address":{"city":"Libreville","county":"Libreville","state":"Estuaire","ISO3166-2-lvl4":"GA-1","country":"Gabon","country_code":"ga"},"population":850000,"osm_type":"node","osm_id":27565068,"type":"city","location":[9.4418849,0.4086518],"bbox":[9.2818849,0.2486518,9.6018849,0.5686518],"border":{"name":"Libreville","other_names":{"name:ar":"ليبرفيل","name:de":"Libreville","name:fr":"Libreville","name:sr":"Либрвил","name:ur":"لبریویل","name:azb":"لیبرویل","name:grc":"Ἐλευθερόπολις","official_name":"Département de Libreville","official_name:ar":"إقليم ليبرفيل","official_name:de":"Département Libreville","official_name:en":"Libreville Department","official_name:fr":"Département de Libreville"},"display_name":"Libreville, Estuaire, Gabon","address":{"county":"Libreville","state":"Estuaire","ISO3166-2-lvl4":"GA-1","country":"Gabon","country_code":"ga"},"osm_type":"relation","osm_id":2804109,"type":"administrative","location":[9.516160556041063,0.450202],"bbox":[9.1031493,0.1547136,9.9730525,0.7534473]}}
{"name":"Makokou","other_names":{"name:fr":"Makokou","name:ru":"Макоку","loc_name":"Cailloux"},"display_name":"Makokou, Ogooué-Ivindo, Gabon","address":{"city":"Makokou","state":"Ogooué-Ivindo","ISO3166-2-lvl4":"GA-6","country":"Gabon","country_code":"ga"},"osm_type":"node","osm_id":926860006,"type":"city","location":[12.8525045,0.5619085],"bbox":[12.6925045,0.4019085,13.0125045,0.7219085]}
{"name":"Mayumba","display_name":"Mayumba, Nyanga, Gabon","address":{"city":"Mayumba","state":"Nyanga","ISO3166-2-lvl4":"GA-5","country":"Gabon","country_code":"ga"},"osm_type":"node","osm_id":2178082121,"type":"city","location":[10.6545157,-3.4316464],"bbox":[10.4945157,-3.5916464,10.8145157,-3.2716464]}
{"name":"Moanda","display_name":"Moanda, Haut-Ogooué, Gabon","address":{"city":"Moanda","state":"Haut-Ogooué","ISO3166-2-lvl4":"GA-2","country":"Gabon","country_code":"ga"},"population":39300,"osm_type":"node","osm_id":2178090546,"type":"city","location":[13.2218993,-1.554764],"bbox":[13.0618993,-1.714764,13.3818993,-1.394764]}
{"name":"Mouila","other_names":{"name:fr":"Mouila","name:ru":"Муила"},"display_name":"Mouila, Ngounié, Gabon","address":{"city":"Mouila","state":"Ngounié","ISO3166-2-lvl4":"GA-4","country":"Gabon","country_code":"ga"},"population":22469,"osm_type":"node","osm_id":331155527,"type":"city","location":[11.058713,-1.8627018],"bbox":[10.898713,-2.0227018,11.218713,-1.7027018]}
{"name":"Ndjolé","display_name":"Ndjolé, Moyen-Ogooué, Gabon","address":{"city":"Ndjolé","state":"Moyen-Ogooué","ISO3166-2-lvl4":"GA-3","country":"Gabon","country_code":"ga"},"osm_type":"node","osm_id":925723766,"type":"city","location":[10.7658311,-0.1838081],"bbox":[10.6058311,-0.3438081,10.9258311,-0.0238081]}
{"name":"Okondja","display_name":"Okondja, Haut-Ogooué, Gabon","address":{"city":"Okondja","state":"Haut-Ogooué","ISO3166-2-lvl4":"GA-2","country":"Gabon","country_code":"ga"},"osm_type":"node","osm_id":2178082134,"type":"city","location":[13.682713,-0.655465],"bbox":[13.522713,-0.815465,13.842713,-0.495465]}
{"name":"Owendo","display_name":"Owendo, Libreville, Estuaire, Gabon","address":{"city":"Owendo","county":"Libreville","state":"Estuaire","ISO3166-2-lvl4":"GA-1","country":"Gabon","country_code":"ga"},"osm_type":"node","osm_id":1253870271,"type":"city","location":[9.4952738,0.3208235],"bbox":[9.3352738,0.1608235,9.6552738,0.4808235]}
{"name":"Oyem","other_names":{"name:en":"Oyem","name:fr":"Oyem","name:ru":"Оем","name:uk":"Оєм","loc_name":"Nkoum Ekiegn"},"display_name":"Oyem, Woleu, Woleu-Ntem, Gabon","address":{"city":"Oyem","county":"Woleu","state":"Woleu-Ntem","ISO3166-2-lvl4":"GA-9","country":"Gabon","country_code":"ga"},"population":35000,"osm_type":"node","osm_id":331139740,"type":"city","location":[11.5751003,1.5997904],"bbox":[11.4151003,1.4397904,11.7351003,1.7597904]}
{"name":"Port-Gentil","other_names":{"name:ar":"بورت جنتيل","name:en":"Port-Gentil","name:fr":"Port-Gentil","name:ko":"포르장티","name:ru":"Порт-Жантиль","name:uk":"Порт-Жантіль","alt_name":"Île Mandji","loc_name":"Ville des plages","alt_name:ar":"بورت جينتل"},"display_name":"Port-Gentil, Ogooué-Maritime, Gabon","address":{"city":"Port-Gentil","state":"Ogooué-Maritime","ISO3166-2-lvl4":"GA-8","country":"Gabon","country_code":"ga"},"population":136462,"osm_type":"node","osm_id":339582598,"type":"city","location":[8.7787919,-0.7151966],"bbox":[8.6187919,-0.8751966,8.9387919,-0.5551966]}
{"name":"Tchibanga","other_names":{"name:fr":"Tchibanga","name:ru":"Чибанга"},"display_name":"Tchibanga, Nyanga, Gabon","address":{"city":"Tchibanga","state":"Nyanga","ISO3166-2-lvl4":"GA-5","country":"Gabon","country_code":"ga"},"osm_type":"node","osm_id":2035490237,"type":"city","location":[10.9955955,-2.9170995],"bbox":[10.8355955,-3.0770995,11.1555955,-2.7570995]}
