{"name":"Ajdovščina","other_names":{"name:de":"Haidenschaft","name:it":"Aidussina","name:lt":"Aidovščina","name:ru":"Айдовшчина","name:sl":"Ajdovščina","name:sr":"Ајдовшчина"},"display_name":"Ajdovščina, Slovenija","address":{"town":"Ajdovščina","municipality":"Ajdovščina","ISO3166-2-lvl8":"SI-001","country":"Slovenija","country_code":"si"},"population":6600,"osm_type":"node","osm_id":30761275,"type":"town","location":[13.9048561,45.8885557],"bbox":[13.8648561,45.8485557,13.9448561,45.9285557],"border":{"name":"Ajdovščina","other_names":{"ref":"1","name:de":"Haidenschaft","name:it":"Aidussina","name:sl":"Ajdovščina","ISO3166-2":"SI-001","name:lt":"Aidovščina","name:ru":"Айдовшчина","name:sr":"Ајдовшчина"},"display_name":"Ajdovščina, Slovenija","address":{"municipality":"Ajdovščina","ISO3166-2-lvl8":"SI-001","country":"Slovenija","country_code":"si"},"population":6600,"osm_type":"relation","osm_id":1675824,"type":"administrative","location":[13.9048561,45.8885557],"bbox":[13.7331432,45.8239833,14.129576,46.0005907]}}
{"name":"Bled","other_names":{"name:ar":"بليد","name:ba":"Блед","name:bg":"Блед","name:fa":"بلد","name:he":"בלד","name:hy":"Բլեդ","name:it":"Bled","name:ja":"ブレッド","name:ko":"블레트","name:lt":"Bledas","name:mk":"Блед","name:ru":"Блед","name:sl":"Bled","name:sr":"Блед","name:uk":"Блед","name:ur":"بلیت","old_name":"Ueldes","alt_name:de":"Feldes;Veldes","alt_name:it":"Bleda","alt_name:ko":"펠데스","name:zh-Hans":"布莱德","name:zh-Hant":"布萊德"},"display_name":"Bled, Slovenija","address":{"town":"Bled","municipality":"Bled","ISO3166-2-lvl8":"SI-003","country":"Slovenija","country_code":"si"},"population":5200,"osm_type":"node","osm_id":862116228,"type":"town","location":[14.1100595,46.3684202],"bbox":[14.0700595,46.3284202,14.1500595,46.4084202],"border":{"name":"Bled","other_names":{"ref":"3","name:de":"Veldes","name:ko":"블레드","name:sl":"Bled","ISO3166-2":"SI-003","name:ar":"بليد","name:ba":"Блед","name:bg":"Блед","name:fa":"بلد","name:he":"בלד","name:hy":"Բլեդ","name:it":"Bled","name:ja":"ブレッド","name:lt":"Bledas","name:mk":"Блед","name:ru":"Блед","name:sr":"Блед","name:uk":"Блед","name:ur":"بلیت","old_name":"Ueldes","alt_name:de":"Feldes;Veldes","alt_name:it":"Bleda","alt_name:ko":"펠데스","name:zh-Hans":"布莱德","name:zh-Hant":"布萊德","alt:ko":"블레트"},"display_name":"Bled, Slovenija","address":{"municipality":"Bled","ISO3166-2-lvl8":"SI-003","country":"Slovenija","country_code":"si"},"population":5200,"osm_type":"relation","osm_id":1675660,"type":"administrative","location":[14.1100595,46.3684202],"bbox":[13.9840608,46.291251,14.1552776,46.4057736]}}
{"name":"Bovec","other_names":{"name:de":"Flitsch","name:it":"Plezzo","name:ru":"Бовец","name:sl":"Bovec","name:sr":"Бовец","name:fur":"Pleç","alt_name:de":"Pletz"},"display_name":"Bovec, Slovenija","address":{"town":"Bovec","municipality":"Bovec","ISO3166-2-lvl8":"SI-006","country":"Slovenija","country_code":"si"},"population":1600,"osm_type":"node","osm_id":44826837,"type":"town","location":[13.552419,46.3385847],"bbox":[13.512419,46.2985847,13.592419,46.3785847],"border":{"name":"Bovec","other_names":{"ref":"6","name:de":"Flitsch","name:it":"Plezzo","name:sl":"Bovec","name:fur":"Pleç","ISO3166-2":"SI-006","name:ru":"Бовец","name:sr":"Бовец","alt_name:de":"Pletz"},"display_name":"Bovec, Slovenija","address":{"municipality":"Bovec","ISO3166-2-lvl8":"SI-006","country":"Slovenija","country_code":"si"},"population":1600,"osm_type":"relation","osm_id":1675776,"type":"administrative","location":[13.552419,46.3385847],"bbox":[13.3996666,46.2659927,13.8365548,46.4467062]}}
{"name":"Brežice","other_names":{"name:de":"Rann","name:hr":"Brežice","name:lt":"Brežicės","name:ru":"Брежице","name:sl":"Brežice","name:sr":"Брежице"},"display_name":"Brežice, Slovenija","address":{"town":"Brežice","municipality":"Brežice","ISO3166-2-lvl8":"SI-009","country":"Slovenija","country_code":"si"},"population":6600,"osm_type":"node","osm_id":53385278,"type":"town","location":[15.5930859,45.9038696],"bbox":[15.5530859,45.8638696,15.6330859,45.9438696],"border":{"name":"Brežice","other_names":{"ref":"9","name:de":"Rann","name:sl":"Brežice","ISO3166-2":"SI-009","name:hr":"Brežice","name:lt":"Brežicės","name:ru":"Брежице","name:sr":"Брежице"},"display_name":"Brežice, Slovenija","address":{"municipality":"Brežice","ISO3166-2-lvl8":"SI-009","country":"Slovenija","country_code":"si"},"population":6600,"osm_type":"relation","osm_id":1685719,"type":"administrative","location":[15.5930859,45.9038696],"bbox":[15.4907324,45.8204166,15.7324872,46.0548687]}}
{"name":"Cerknica","other_names":{"name:de":"Zirknitz","name:it":"Circonio","name:ru":"Церкница","name:sl":"Cerknica","name:sr":"Церкница"},"display_name":"Cerknica, Slovenija","address":{"town":"Cerknica","municipality":"Cerknica","ISO3166-2-lvl8":"SI-013","country":"Slovenija","country_code":"si"},"population":3900,"osm_type":"node","osm_id":87279980,"type":"town","location":[14.361883,45.7936578],"bbox":[14.321883,45.7536578,14.401883,45.8336578],"border":{"name":"Cerknica","other_names":{"ref":"13","name:sl":"Cerknica","ISO3166-2":"SI-013","name:de":"Zirknitz","name:it":"Circonio","name:ru":"Церкница","name:sr":"Церкница"},"display_name":"Cerknica, Slovenija","address":{"municipality":"Cerknica","ISO3166-2-lvl8":"SI-013","country":"Slovenija","country_code":"si"},"population":3900,"osm_type":"relation","osm_id":1681541,"type":"administrative","location":[14.361883,45.7936578],"bbox":[14.251895,45.702519,14.5085423,45.8942313]}}
{"name":"Črnomelj","other_names":{"name:ar":"تشرنملي","name:ce":"Чрномель","name:de":"Tschernembl","name:fa":"چرنملی","name:it":"Cernomegli","name:ja":"チュルノメリ","name:ko":"치르노멜","name:lt":"Črnomelis","name:mk":"Чрномељ","name:ru":"Чрномель","name:sl":"Črnomelj","name:sr":"Чрномељ","name:tt":"Чрномель","name:uk":"Чрномель","name:ur":"چرنومیل","old_name:sl":"Černomelj","name:zh-Hans":"奇尔诺梅利","name:zh-Hant":"奇爾諾梅利"},"display_name":"Črnomelj, Slovenija","address":{"town":"Črnomelj","municipality":"Črnomelj","ISO3166-2-lvl8":"SI-017","country":"Slovenija","country_code":"si"},"population":5800,"osm_type":"node","osm_id":57096731,"type":"town","location":[15.1923324,45.5700965],"bbox":[15.1523324,45.5300965,15.2323324,45.6100965],"border":{"name":"Črnomelj","other_names":{"ref":"17","name:de":"Tschernembl","name:sl":"Črnomelj","ISO3166-2":"SI-017","name:ar":"تشرنملي","name:ce":"Чрномель","name:fa":"چرنملی","name:it":"Cernomegli","name:ja":"チュルノメリ","name:ko":"치르노멜","name:lt":"Črnomelis","name:mk":"Чрномељ","name:ru":"Чрномель","name:sr":"Чрномељ","name:tt":"Чрномель","name:uk":"Чрномель","name:ur":"چرنومیل","old_name:sl":"Černomelj","name:zh-Hans":"奇尔诺梅利","name:zh-Hant":"奇爾諾梅利"},"display_name":"Črnomelj, Slovenija","address":{"municipality":"Črnomelj","ISO3166-2-lvl8":"SI-017","country":"Slovenija","country_code":"si"},"population":5800,"osm_type":"relation","osm_id":1685747,"type":"administrative","location":[15.1923324,45.5700965],"bbox":[15.0532765,45.4214681,15.3858944,45.6288388]}}
{"name":"Domžale","other_names":{"name:de":"Domschale","name:lt":"Domžalės","name:ru":"Домжале","name:sl":"Domžale","name:sr":"Домжале"},"display_name":"Domžale, Upravna Enota Domžale, Slovenija","address":{"town":"Domžale","municipality":"Domžale","ISO3166-2-lvl8":"SI-023","country":"Slovenija","country_code":"si"},"population":12400,"osm_type":"node","osm_id":56699213,"type":"town","location":[14.5944553,46.1394296],"bbox":[14.5544553,46.0994296,14.6344553,46.1794296],"border":{"name":"Domžale","other_names":{"ref":"23","name:sl":"Domžale","ISO3166-2":"SI-023","name:de":"Domschale","name:lt":"Domžalės","name:ru":"Домжале","name:sr":"Домжале"},"display_name":"Domžale, Upravna Enota Domžale, Slovenija","address":{"municipality":"Domžale","ISO3166-2-lvl8":"SI-023","country":"Slovenija","country_code":"si"},"population":12400,"osm_type":"relation","osm_id":1675866,"type":"administrative","location":[14.5944553,46.1394296],"bbox":[14.5666648,46.0935447,14.6922373,46.2074526]}}
{"name":"Dravograd","other_names":{"name:ru":"Дравоград","name:sl":"Dravograd","name:sr":"Дравоград","old_name:de":"Unterdrauburg"},"display_name":"Dravograd, Slovenija","address":{"town":"Dravograd","municipality":"Dravograd","ISO3166-2-lvl8":"SI-025","country":"Slovenija","country_code":"si"},"population":3088,"osm_type":"node","osm_id":64002482,"type":"town","location":[15.0235456,46.5896276],"bbox":[14.9835456,46.5496276,15.0635456,46.6296276],"border":{"name":"Dravograd","other_names":{"ref":"25","name:sl":"Dravograd","ISO3166-2":"SI-025","old_name:de":"Unterdrauburg","name:ru":"Дравоград","name:sr":"Дравоград"},"display_name":"Dravograd, Slovenija","address":{"municipality":"Dravograd","ISO3166-2-lvl8":"SI-025","country":"Slovenija","country_code":"si"},"population":3088,"osm_type":"relation","osm_id":1676290,"type":"administrative","location":[15.0235456,46.5896276],"bbox":[14.920418,46.5305174,15.1277999,46.6521565]}}
{"name":"Gornja Radgona","other_names":{"name:de":"Oberradkersburg","name:hu":"Felsőregede","name:ru":"Горня-Радгона","name:sl":"Gornja Radgona","name:sr":"Горња Радгона"},"display_name":"Gornja Radgona, Slovenija","address":{"town":"Gornja Radgona","municipality":"Gornja Radgona","ISO3166-2-lvl8":"SI-029","country":"Slovenija","country_code":"si"},"population":3200,"osm_type":"node","osm_id":95920483,"type":"town","location":[15.9913176,46.6769963],"bbox":[15.9513176,46.6369963,16.0313176,46.7169963],"border":{"name":"Gornja Radgona","other_names":{"ref":"29","name:sl":"Gornja Radgona","ISO3166-2":"SI-029","name:de":"Oberradkersburg","name:hu":"Felsőregede","name:ru":"Горня-Радгона","name:sr":"Горња Радгона"},"display_name":"Gornja Radgona, Slovenija","address":{"municipality":"Gornja Radgona","ISO3166-2-lvl8":"SI-029","country":"Slovenija","country_code":"si"},"population":3200,"osm_type":"relation","osm_id":1676334,"type":"administrative","location":[15.9913176,46.6769963],"bbox":[15.8856514,46.5854349,16.0334416,46.687001]}}
{"name":"Grosuplje","other_names":{"name:de":"Großlupp","name:lt":"Grosuplės","name:ru":"Гросупле","name:sl":"Grosuplje","name:sr":"Гросупље"},"display_name":"Grosuplje, Upravna Enota Grosuplje, Slovenija","address":{"town":"Grosuplje","municipality":"Grosuplje","ISO3166-2-lvl8":"SI-032","country":"Slovenija","country_code":"si"},"population":7000,"osm_type":"node","osm_id":56756941,"type":"town","location":[14.6554806,45.9571788],"bbox":[14.6154806,45.9171788,14.6954806,45.9971788],"border":{"name":"Grosuplje","other_names":{"ref":"32","name:de":"Großlupp","name:sl":"Grosuplje","ISO3166-2":"SI-032","name:lt":"Grosuplės","name:ru":"Гросупле","name:sr":"Гросупље"},"display_name":"Grosuplje, Upravna Enota Grosuplje, Slovenija","address":{"municipality":"Grosuplje","ISO3166-2-lvl8":"SI-032","country":"Slovenija","country_code":"si"},"population":7000,"osm_type":"relation","osm_id":1681533,"type":"administrative","location":[14.6554806,45.9571788],"bbox":[14.5846933,45.8732381,14.7540584,46.0153238]}}
{"name":"Hrastnik","other_names":{"name:de":"Eichthal","name:lt":"Chrastnikas","name:ru":"Храстник","name:sl":"Hrastnik","name:sr":"Храстник"},"display_name":"Hrastnik, 1430, Slovenija","address":{"town":"Hrastnik","municipality":"Hrastnik","ISO3166-2-lvl8":"SI-034","postcode":"1430","country":"Slovenija","country_code":"si"},"population":5700,"osm_type":"node","osm_id":57091407,"type":"town","location":[15.0817358,46.1456196],"bbox":[15.0417358,46.1056196,15.1217358,46.1856196],"border":{"name":"Hrastnik","other_names":{"ref":"34","name:de":"Eichthal","name:sl":"Hrastnik","ISO3166-2":"SI-034","name:lt":"Chrastnikas","name:ru":"Храстник","name:sr":"Храстник"},"display_name":"Hrastnik, Slovenija","address":{"municipality":"Hrastnik","ISO3166-2-lvl8":"SI-034","country":"Slovenija","country_code":"si"},"population":5700,"osm_type":"relation","osm_id":1681509,"type":"administrative","location":[15.0817358,46.1456196],"bbox":[15.0577751,46.0860701,15.1889292,46.1839515]}}
{"name":"Idrija","other_names":{"name:ar":"إيدرييا","name:az":"İdriya","name:ce":"Идрия","name:de":"Idria","name:fa":"ایدرییا","name:he":"אידריה","name:hy":"Իդրիա","name:it":"Idria","name:ja":"イドリヤ","name:ka":"იდრია","name:ko":"이드리야","name:la":"Hydria","name:mk":"Идрија","name:ru":"Идрия","name:sl":"Idrija","name:sr":"Идрија","name:tt":"Идрия","name:uk":"Ідрія","name:xmf":"იიდრიია","old_name":"Zgornja Idrija","alt_name:la":"Idria;Hydria Superior;Idria Superior","name:sr-Latn":"Idrija","name:zh-Hans":"伊德里亚","name:zh-Hant":"伊德里亞"},"display_name":"Idrija, Slovenija","address":{"town":"Idrija","municipality":"Idrija","ISO3166-2-lvl8":"SI-036","country":"Slovenija","country_code":"si"},"population":6000,"osm_type":"node","osm_id":290381247,"type":"town","location":[14.0273014,46.0023983],"bbox":[13.9873014,45.9623983,14.0673014,46.0423983],"border":{"name":"Idrija","other_names":{"ref":"36","name:it":"Idria","name:sl":"Idrija","ISO3166-2":"SI-036","name:ar":"إيدرييا","name:az":"İdriya","name:ce":"Идрия","name:de":"Idria","name:fa":"ایدرییا","name:he":"אידריה","name:hy":"Իդրիա","name:ja":"イドリヤ","name:ka":"იდრია","name:ko":"이드리야","name:la":"Hydria","name:mk":"Идрија","name:ru":"Идрия","name:sr":"Идрија","name:tt":"Идрия","name:uk":"Ідрія","name:xmf":"იიდრიია","old_name":"Zgornja Idrija","alt_name:la":"Idria;Hydria Superior;Idria Superior","name:sr-Latn":"Idrija","name:zh-Hans":"伊德里亚","name:zh-Hant":"伊德里亞"},"display_name":"Idrija, Slovenija","address":{"municipality":"Idrija","ISO3166-2-lvl8":"SI-036","country":"Slovenija","country_code":"si"},"population":6000,"osm_type":"relation","osm_id":1675830,"type":"administrative","location":[14.0273014,46.0023983],"bbox":[13.8551004,45.8785493,14.1459529,46.0890611]}}
{"name":"Ilirska Bistrica","other_names":{"name:ar":"إيليرسكا بيتريسا","name:ce":"Илирська Бистриця","name:de":"Illyrisch Feistritz","name:fa":"ایلیرسکا بیتریتسا","name:it":"Bisterza","name:ja":"イリルスカ・ビストリツァ","name:ko":"일리르스카비스트리차","name:la":"Bistertia Illyrica","name:mk":"Илирска Бистрица","name:ru":"Илирска-Бистрица","name:sl":"Ilirska Bistrica","name:sr":"Илирска Бистрица","name:tt":"Илирська Бистриця","name:uk":"Ілірська Бистриця","name:vec":"Bisterza","alt_name:it":"Villa del Nevoso","alt_name:ko":"일뤼리슈파이스트리츠;빌라델네보소","alt_name:la":"Villa Montis Albii","alt_name:sq":"Bistrica ilire;Lumbardhi ilir","name:zh-Hans":"伊利尔斯卡比斯特里察","name:zh-Hant":"伊利爾斯卡比斯特里察"},"display_name":"Ilirska Bistrica, Slovenija","address":{"town":"Ilirska Bistrica","municipality":"Ilirska Bistrica","ISO3166-2-lvl8":"SI-038","country":"Slovenija","country_code":"si"},"population":4600,"osm_type":"node","osm_id":1603396944,"type":"town","location":[14.2453318,45.5636618],"bbox":[14.2053318,45.5236618,14.2853318,45.6036618],"border":{"name":"Ilirska Bistrica","other_names":{"name:sl":"Ilirska Bistrica","ISO3166-2":"SI-038","name:ar":"إيليرسكا بيتريسا","name:ce":"Илирська Бистриця","name:de":"Illyrisch Feistritz","name:fa":"ایلیرسکا بیتریتسا","name:it":"Bisterza","name:ja":"イリルスカ・ビストリツァ","name:ko":"일리르스카비스트리차","name:la":"Bistertia Illyrica","name:mk":"Илирска Бистрица","name:ru":"Илирска-Бистрица","name:sr":"Илирска Бистрица","name:tt":"Илирська Бистриця","name:uk":"Ілірська Бистриця","name:vec":"Bisterza","alt_name:it":"Villa del Nevoso","alt_name:ko":"일뤼리슈파이스트리츠;빌라델네보소","alt_name:la":"Villa Montis Albii","alt_name:sq":"Bistrica ilire;Lumbardhi ilir","name:zh-Hans":"伊利尔斯卡比斯特里察","name:zh-Hant":"伊利爾斯卡比斯特里察"},"display_name":"Ilirska Bistrica, Slovenija","address":{"municipality":"Ilirska Bistrica","ISO3166-2-lvl8":"SI-038","country":"Slovenija","country_code":"si"},"population":4600,"osm_type":"relation","osm_id":541589,"type":"administrative","location":[14.2453318,45.5636618],"bbox":[14.0905407,45.4692315,14.5025759,45.685261]}}
{"name":"Izola / Isola","other_names":{"name:ar":"إيزولا","name:bg":"Изола","name:ce":"Изола","name:fa":"ایزولا","name:he":"איזולה","name:hr":"Izola","name:hy":"Իզոլա","name:it":"Isola","name:ja":"イゾラ","name:ka":"იზოლა","name:ko":"이졸라","name:la":"Insulae","name:lt":"Izola","name:mk":"Изола","name:ru":"Изола","name:sl":"Izola","name:sr":"Изола","name:tt":"Изола","name:uk":"Ізола","name:zh":"伊佐拉","int_name":"Izola","name:mdf":"Изола","name:vec":"Isola","alt_name:it":"Isola d'Istria","alt_name:la":"Insula;Insula Histriae;Haliaetum;Alietum","old_name:de":"Insel im Küstenländchen","name:sr-Latn":"Izola"},"display_name":"Izola / Isola, Upravna enota Izola / Unità amministrativa Isola, Slovenija","address":{"town":"Izola / Isola","municipality":"Izola / Isola","ISO3166-2-lvl8":"SI-040","country":"Slovenija","country_code":"si"},"population":11300,"osm_type":"node","osm_id":29098904,"type":"town","location":[13.65939,45.5398936],"bbox":[13.61939,45.4998936,13.69939,45.5798936],"border":{"name":"Izola / Isola","other_names":{"name:it":"Isola","name:sl":"Izola","ISO3166-2":"SI-040","name:ar":"إيزولا","name:bg":"Изола","name:ce":"Изола","name:fa":"ایزولا","name:he":"איזולה","name:hr":"Izola","name:hy":"Իզոլա","name:ja":"イゾラ","name:ka":"იზოლა","name:ko":"이졸라","name:la":"Insulae","name:lt":"Izola","name:mk":"Изола","name:ru":"Изола","name:sr":"Изола","name:tt":"Изола","name:uk":"Ізола","name:zh":"伊佐拉","int_name":"Izola","name:mdf":"Изола","name:vec":"Isola","alt_name:it":"Isola d'Istria","alt_name:la":"Insula;Insula Histriae;Haliaetum;Alietum","old_name:de":"Insel im Küstenländchen","name:sr-Latn":"Izola"},"display_name":"Izola / Isola, Upravna enota Izola / Unità amministrativa Isola, Slovenija","address":{"municipality":"Izola / Isola","ISO3166-2-lvl8":"SI-040","country":"Slovenija","country_code":"si"},"population":11300,"osm_type":"relation","osm_id":541990,"type":"administrative","location":[13.65939,45.5398936],"bbox":[13.5388958,45.4727147,13.6940798,45.6220073]}}
{"name":"Jesenice","other_names":{"name:ar":"جيسينتسي","name:be":"Есеніцы","name:bg":"Йесенице","name:ce":"Есенице","name:de":"Aßling","name:fa":"یسنیتسه","name:hy":"Եսենիցե","name:ja":"イェセニツェ","name:ka":"ესენიცე","name:ko":"예세니체","name:lt":"Jesenicės","name:mk":"Јесенице","name:ru":"Есенице","name:sl":"Jesenice","name:sr":"Јесенице","name:tt":"Есенице","name:uk":"Єсениці","name:ur":"یسینیتسے","name:zh":"耶塞尼采","alt_name:bg":"Аслинг","alt_name:ko":"아슬링"},"display_name":"Jesenice, Slovenija","address":{"town":"Jesenice","municipality":"Jesenice","ISO3166-2-lvl8":"SI-041","country":"Slovenija","country_code":"si"},"population":13400,"osm_type":"node","osm_id":88222100,"type":"town","location":[14.0623942,46.4323705],"bbox":[14.0223942,46.3923705,14.1023942,46.4723705],"border":{"name":"Jesenice","other_names":{"ref":"41","name:de":"Aßling","name:sl":"Jesenice","ISO3166-2":"SI-041","name:ar":"جيسينتسي","name:be":"Есеніцы","name:bg":"Йесенице","name:ce":"Есенице","name:fa":"یسنیتسه","name:hy":"Եսենիցե","name:ja":"イェセニツェ","name:ka":"ესენიცე","name:ko":"예세니체","name:lt":"Jesenicės","name:mk":"Јесенице","name:ru":"Есенице","name:sr":"Јесенице","name:tt":"Есенице","name:uk":"Єсениці","name:ur":"یسینیتسے","name:zh":"耶塞尼采","alt_name:bg":"Аслинг","alt_name:ko":"아슬링"},"display_name":"Jesenice, Slovenija","address":{"municipality":"Jesenice","ISO3166-2-lvl8":"SI-041","country":"Slovenija","country_code":"si"},"population":13400,"osm_type":"relation","osm_id":1675607,"type":"administrative","location":[14.0623942,46.4323705],"bbox":[13.9870754,46.3986451,14.1534003,46.4931917]}}
{"name":"Kamnik","other_names":{"name:ar":"كامنيك","name:be":"Камнік","name:bg":"Камник","name:ce":"Камник","name:fa":"کامنیک","name:hy":"Կամնիկ","name:ja":"カムニーク","name:ka":"კამნიკი","name:ko":"캄니크","name:la":"Lithopolis","name:lt":"Kamnikas","name:mk":"Камник","name:ru":"Камник","name:sl":"Kamnik","name:sr":"Камник","name:th":"คามนิก","name:tt":"Камник","name:uk":"Камник","name:zh":"卡姆尼克","alt_name:de":"Stein in Oberkrain","alt_name:la":"Civitas Stain"},"display_name":"Kamnik, Upravna Enota Kamnik, Slovenija","address":{"town":"Kamnik","municipality":"Kamnik","ISO3166-2-lvl8":"SI-043","country":"Slovenija","country_code":"si"},"population":13700,"osm_type":"node","osm_id":30839841,"type":"town","location":[14.6118936,46.2257358],"bbox":[14.5718936,46.1857358,14.6518936,46.2657358],"border":{"name":"Kamnik","other_names":{"ref":"43","name:sl":"Kamnik","ISO3166-2":"SI-043","name:ar":"كامنيك","name:be":"Камнік","name:bg":"Камник","name:ce":"Камник","name:fa":"کامنیک","name:hy":"Կամնիկ","name:ja":"カムニーク","name:ka":"კამნიკი","name:ko":"캄니크","name:la":"Lithopolis","name:lt":"Kamnikas","name:mk":"Камник","name:ru":"Камник","name:sr":"Камник","name:th":"คามนิก","name:tt":"Камник","name:uk":"Камник","name:zh":"卡姆尼克","alt_name:de":"Stein in Oberkrain","alt_name:la":"Civitas Stain"},"display_name":"Kamnik, Upravna Enota Kamnik, Slovenija","address":{"municipality":"Kamnik","ISO3166-2-lvl8":"SI-043","country":"Slovenija","country_code":"si"},"population":13700,"osm_type":"relation","osm_id":1675668,"type":"administrative","location":[14.6118936,46.2257358],"bbox":[14.5353419,46.1822956,14.9282181,46.3676972]}}
{"name":"Kočevje","other_names":{"name:be":"Кочаўе","name:bg":"Кочеве","name:ce":"Кочевье","name:de":"Gottschee","name:el":"Κοτσέβιε","name:ja":"コチェーヴィエ","name:ko":"코체베","name:lt":"Kočevė","name:mk":"Кочевје","name:ru":"Кочевье","name:sl":"Kočevje","name:sr":"Кочевје","name:th":"คอเชวิแย","name:tt":"Кочевье","name:uk":"Кочев'є","alt_name:bg":"Готшее","alt_name:de":"Gottschee","alt_name:it":"Cocevie","alt_name:ko":"고체;코체비에","alt_name:mk":"Готче","alt_name:ru":"Готшее","old_name:de":"Göttscheab;Gətscheab","name:zh-Hans":"科切维","name:zh-Hant":"科切維"},"display_name":"Kočevje, Slovenija","address":{"town":"Kočevje","municipality":"Kočevje","ISO3166-2-lvl8":"SI-048","country":"Slovenija","country_code":"si"},"population":8800,"osm_type":"node","osm_id":57099014,"type":"town","location":[14.8552701,45.6430266],"bbox":[14.8152701,45.6030266,14.8952701,45.6830266],"border":{"name":"Kočevje","other_names":{"ref":"48","name:de":"Gottschee","name:sl":"Kočevje","ISO3166-2":"SI-048","name:be":"Кочаўе","name:bg":"Кочеве","name:ce":"Кочевье","name:el":"Κοτσέβιε","name:ja":"コチェーヴィエ","name:ko":"코체베","name:lt":"Kočevė","name:mk":"Кочевје","name:ru":"Кочевье","name:sr":"Кочевје","name:th":"คอเชวิแย","name:tt":"Кочевье","name:uk":"Кочев'є","alt_name:bg":"Готшее","alt_name:de":"Gottschee","alt_name:it":"Cocevie","alt_name:ko":"고체;코체비에","alt_name:mk":"Готче","alt_name:ru":"Готшее","old_name:de":"Göttscheab;Gətscheab","name:zh-Hans":"科切维","name:zh-Hant":"科切維"},"display_name":"Kočevje, Slovenija","address":{"municipality":"Kočevje","ISO3166-2-lvl8":"SI-048","country":"Slovenija","country_code":"si"},"population":8800,"osm_type":"relation","osm_id":1685728,"type":"administrative","location":[14.8552701,45.6430266],"bbox":[14.6966516,45.4856776,15.1124492,45.7761356]}}
{"name":"Koper / Capodistria","other_names":{"name:ar":"كوبر","name:ba":"Копер","name:be":"Копер","name:bg":"Копер","name:da":"Koper","name:el":"Κόπερ","name:fa":"کوپر","name:he":"קופר","name:hr":"Kopar","name:hy":"Կոպեր","name:it":"Capodistria","name:ja":"コペル","name:ka":"კოპერი","name:ko":"코페르","name:la":"Iustinopolis","name:lt":"Koperis","name:lv":"Kopera","name:mk":"Копер","name:ml":"കോപ്പർ","name:ps":"کپر","name:ru":"Копер","name:sl":"Koper","name:sr":"Копар","name:th":"โคเปอร์","name:uk":"Копер","name:ur":"کوپر","int_name":"Koper","name:fur":"Cjaudistrie","name:pnb":"کوپر","name:vec":"Capodistria","name:wuu":"科佩尔","old_name":"Capodistria","alt_name:hy":"Կապոդիստրիա","alt_name:la":"Caput Histriae;Capris;Capraria;Caprea","alt_name:sr":"Копер","alt_name:th":"กาโปดิสเตรีย","old_name:de":"Gafers","name:zh-Hans":"科佩尔","name:zh-Hant":"科佩爾"},"display_name":"Koper / Capodistria, Upravna enota Koper / Unità amministrativa Capodistria, 6000, Slovenija","address":{"town":"Koper / Capodistria","municipality":"Koper / Capodistria","ISO3166-2-lvl8":"SI-050","postcode":"6000","country":"Slovenija","country_code":"si"},"population":24900,"osm_type":"node","osm_id":1640456909,"type":"town","location":[13.7304781,45.5479864],"bbox":[13.6904781,45.5079864,13.7704781,45.5879864],"border":[{"name":"Upravna enota Koper / Unità amministrativa Capodistria","other_names":{"name:it":"Unità amministrativa Capodistria","name:ru":"Копер","name:sl":"Upravna enota Koper","alt_name:ru":"Каподистрия"},"display_name":"Upravna enota Koper / Unità amministrativa Capodistria, Slovenija","address":{"municipality":"Upravna enota Koper / Unità amministrativa Capodistria","country":"Slovenija","country_code":"si"},"osm_type":"relation","osm_id":4185355,"type":"administrative","location":[13.837242595944453,45.528229249999995],"bbox":[13.5931973,45.4250858,14.0019178,45.6315433]},{"name":"Koper / Capodistria","other_names":{"name:it":"Capodistria","name:sl":"Koper","ISO3166-2":"SI-050","official_name":"Mestna občina Koper / Comune città di Capodistria","name:ar":"كوبر","name:ba":"Копер","name:be":"Копер","name:bg":"Копер","name:da":"Koper","name:el":"Κόπερ","name:fa":"کوپر","name:he":"קופר","name:hr":"Kopar","name:hy":"Կոպեր","name:ja":"コペル","name:ka":"კოპერი","name:ko":"코페르","name:la":"Iustinopolis","name:lt":"Koperis","name:lv":"Kopera","name:mk":"Копер","name:ml":"കോപ്പർ","name:ps":"کپر","name:ru":"Копер","name:sr":"Копар","name:th":"โคเปอร์","name:uk":"Копер","name:ur":"کوپر","int_name":"Koper","name:fur":"Cjaudistrie","name:pnb":"کوپر","name:vec":"Capodistria","name:wuu":"科佩尔","old_name":"Capodistria","official_name:it":"Comune città di Capodistria","official_name:sl":"Mestna občina Koper","alt_name:hy":"Կապոդիստրիա","alt_name:la":"Caput Histriae;Capris;Capraria;Caprea","alt_name:sr":"Копер","alt_name:th":"กาโปดิสเตรีย","old_name:de":"Gafers","name:zh-Hans":"科佩尔","name:zh-Hant":"科佩爾"},"display_name":"Koper / Capodistria, Upravna enota Koper / Unità amministrativa Capodistria, Slovenija","address":{"municipality":"Koper / Capodistria","ISO3166-2-lvl8":"SI-050","country":"Slovenija","country_code":"si"},"population":24900,"osm_type":"relation","osm_id":541958,"type":"administrative","location":[13.7304781,45.5479864],"bbox":[13.5931973,45.4250858,14.0019178,45.6281268]}]}
{"name":"Kostanjevica na Krki","other_names":{"name:ru":"Костаневица-на-Крки","name:sl":"Kostanjevica na Krki","name:sr":"Костањевица на Крки","alt_name":"Kostanjevica ob Krki","alt_name:sl":"Dolenjske Benetke","old_name:de":"Landstraß an der Gurk"},"display_name":"Kostanjevica na Krki, Slovenija","address":{"town":"Kostanjevica na Krki","municipality":"Kostanjevica na Krki","ISO3166-2-lvl8":"SI-197","country":"Slovenija","country_code":"si"},"population":729,"osm_type":"node","osm_id":387482821,"type":"town","location":[15.4202287,45.8456674],"bbox":[15.3802287,45.8056674,15.4602287,45.8856674],"border":{"name":"Kostanjevica na Krki","other_names":{"ref":"197","name:de":"Landstraß an der Gurk","name:sl":"Kostanjevica na Krki","ISO3166-2":"SI-197","name:ru":"Костаневица-на-Крки","name:sr":"Костањевица на Крки","alt_name":"Kostanjevica ob Krki","alt_name:sl":"Dolenjske Benetke","old_name:de":"Landstraß an der Gurk"},"display_name":"Kostanjevica na Krki, 8311, Slovenija","address":{"municipality":"Kostanjevica na Krki","ISO3166-2-lvl8":"SI-197","postcode":"8311","country":"Slovenija","country_code":"si"},"population":729,"osm_type":"relation","osm_id":1685726,"type":"administrative","location":[15.4202287,45.8456674],"bbox":[15.3664286,45.7911916,15.4789019,45.8918585]}}
{"name":"Krško","other_names":{"name:ar":"كرشكو","name:be":"Кршко","name:bg":"Кръшко","name:ca":"Krsko","name:ce":"Кршко","name:de":"Gurkfeld","name:fa":"کرشکو","name:he":"קרשקו","name:ja":"クルシュコ","name:ko":"크르슈코","name:la":"Gurkfeldum","name:lt":"Krškas","name:mk":"Кршко","name:ru":"Кршко","name:sl":"Krško","name:sr":"Кршко","name:tt":"Кршко","name:uk":"Кршко","name:ur":"کرشکو","name:pnb":"کرسکو","alt_name:sq":"Kërshko","name:zh-Hans":"克尔什科","name:zh-Hant":"克爾什科"},"display_name":"Krško, Slovenija","address":{"town":"Krško","municipality":"Krško","ISO3166-2-lvl8":"SI-054","country":"Slovenija","country_code":"si"},"population":7097,"osm_type":"node","osm_id":57082764,"type":"town","location":[15.4946767,45.9576446],"bbox":[15.4546767,45.9176446,15.5346767,45.9976446],"border":{"name":"Krško","other_names":{"ref":"54","name:de":"Gurkfeld","name:sl":"Krško","ISO3166-2":"SI-054","name:ar":"كرشكو","name:be":"Кршко","name:bg":"Кръшко","name:ca":"Krsko","name:ce":"Кршко","name:fa":"کرشکو","name:he":"קרשקו","name:ja":"クルシュコ","name:ko":"크르슈코","name:la":"Gurkfeldum","name:lt":"Krškas","name:mk":"Кршко","name:ru":"Кршко","name:sr":"Кршко","name:tt":"Кршко","name:uk":"Кршко","name:ur":"کرشکو","name:pnb":"کرسکو","alt_name:sq":"Kërshko","name:zh-Hans":"克尔什科","name:zh-Hant":"克爾什科"},"display_name":"Krško, Slovenija","address":{"municipality":"Krško","ISO3166-2-lvl8":"SI-054","country":"Slovenija","country_code":"si"},"population":7097,"osm_type":"relation","osm_id":1685729,"type":"administrative","location":[15.4946767,45.9576446],"bbox":[15.3342331,45.8208225,15.5703462,46.0717249]}}
{"name":"Laško","other_names":{"name:ru":"Лашко","name:sl":"Laško","name:sr":"Лашко","alt_name:de":"Markt Tüffer","old_name:de":"Tüffer"},"display_name":"Laško, Slovenija","address":{"town":"Laško","municipality":"Laško","ISO3166-2-lvl8":"SI-057","country":"Slovenija","country_code":"si"},"population":3500,"osm_type":"node","osm_id":264999178,"type":"town","location":[15.2354706,46.1537984],"bbox":[15.1954706,46.1137984,15.2754706,46.1937984],"border":{"name":"Laško","other_names":{"ref":"57","name:de":"Tüffer","name:sl":"Laško","ISO3166-2":"SI-057","alt_name:de":"Markt Tüffer","name:ru":"Лашко","name:sr":"Лашко","old_name:de":"Tüffer"},"display_name":"Laško, Slovenija","address":{"municipality":"Laško","ISO3166-2-lvl8":"SI-057","country":"Slovenija","country_code":"si"},"population":3500,"osm_type":"relation","osm_id":1681496,"type":"administrative","location":[15.2354706,46.1537984],"bbox":[15.1117584,46.0550772,15.3755011,46.2009511]}}
{"name":"Lenart","other_names":{"name:de":"Sankt Leonhard in Windischbüheln","name:ru":"Ленарт","name:sl":"Lenart v Slovenskih goricah","name:sr":"Ленарт в Словенских Горицах"},"display_name":"Lenart, Slovenija","address":{"town":"Lenart","municipality":"Lenart","ISO3166-2-lvl8":"SI-058","country":"Slovenija","country_code":"si"},"population":3184,"osm_type":"node","osm_id":160235617,"type":"town","location":[15.830971,46.5763667],"bbox":[15.790971,46.5363667,15.870971,46.6163667],"border":{"name":"Lenart","other_names":{"ref":"58","name:de":"Sankt Leonhard","name:sl":"Lenart","ISO3166-2":"SI-058","name:ru":"Ленарт","name:sr":"Ленарт в Словенских Горицах","alt:de":"Sankt Leonhard in Windischbüheln","alt:sl":"Lenart v Slovenskih goricah"},"display_name":"Lenart, Slovenija","address":{"municipality":"Lenart","ISO3166-2-lvl8":"SI-058","country":"Slovenija","country_code":"si"},"population":3184,"osm_type":"relation","osm_id":1681544,"type":"administrative","location":[15.830971,46.5763667],"bbox":[15.7503133,46.4944762,15.8697027,46.6138456]}}
{"name":"Lendava / Lendva","other_names":{"name:de":"Unter-Limbach","name:hu":"Lendva","name:ru":"Лендава","name:sl":"Lendava","name:sr":"Лендава","old_name:hu":"Alsólendva"},"display_name":"Lendava / Lendva, Slovenija","address":{"town":"Lendava / Lendva","municipality":"Lendava / Lendva","ISO3166-2-lvl8":"SI-059","country":"Slovenija","country_code":"si"},"population":2954,"osm_type":"node","osm_id":203397917,"type":"town","location":[16.4526468,46.5639639],"bbox":[16.4126468,46.5239639,16.4926468,46.6039639],"border":{"name":"Lendava / Lendva","other_names":{"ref":"59","name:de":"Unter-Limbach","name:hu":"Lendva","name:sl":"Lendava","ISO3166-2":"SI-059","name:ru":"Лендава","name:sr":"Лендава","old_name:hu":"Alsólendva"},"display_name":"Lendava / Lendva, 9220, Slovenija","address":{"municipality":"Lendava / Lendva","ISO3166-2-lvl8":"SI-059","postcode":"9220","country":"Slovenija","country_code":"si"},"population":2954,"osm_type":"relation","osm_id":1676403,"type":"administrative","location":[16.4526468,46.5639639],"bbox":[16.3124723,46.4713949,16.5967003,46.6382449]}}
{"name":"Litija","other_names":{"name:de":"Littai","name:lt":"Litija","name:ru":"Лития","name:sl":"Litija","name:sr":"Литија"},"display_name":"Litija, Upravna Enota Litija, Slovenija","address":{"town":"Litija","municipality":"Litija","ISO3166-2-lvl8":"SI-060","country":"Slovenija","country_code":"si"},"population":6500,"osm_type":"node","osm_id":56756021,"type":"town","location":[14.8314192,46.0575677],"bbox":[14.7914192,46.0175677,14.8714192,46.0975677],"border":{"name":"Litija","other_names":{"ref":"60","name:de":"Littai","name:sl":"Litija","ISO3166-2":"SI-060","name:lt":"Litija","name:ru":"Лития","name:sr":"Литија"},"display_name":"Litija, Upravna Enota Litija, Slovenija","address":{"municipality":"Litija","ISO3166-2-lvl8":"SI-060","country":"Slovenija","country_code":"si"},"population":6500,"osm_type":"relation","osm_id":1681516,"type":"administrative","location":[14.8314192,46.0575677],"bbox":[14.7116337,45.9630322,15.0995699,46.1363037]}}
{"name":"Ljutomer","other_names":{"name:de":"Luttenberg in der Steiermark","name:ru":"Лютомер","name:sl":"Ljutomer","name:sr":"Љутомер"},"display_name":"Ljutomer, Slovenija","address":{"town":"Ljutomer","municipality":"Ljutomer","ISO3166-2-lvl8":"SI-063","country":"Slovenija","country_code":"si"},"population":3400,"osm_type":"node","osm_id":268436671,"type":"town","location":[16.1967404,46.5187046],"bbox":[16.1567404,46.4787046,16.2367404,46.5587046],"border":{"name":"Ljutomer","other_names":{"ref":"63","name:de":"Luttenberg in der Steiermark","name:sl":"Ljutomer","ISO3166-2":"SI-063","name:ru":"Лютомер","name:sr":"Љутомер"},"display_name":"Ljutomer, Slovenija","address":{"municipality":"Ljutomer","ISO3166-2-lvl8":"SI-063","country":"Slovenija","country_code":"si"},"population":3400,"osm_type":"relation","osm_id":1685730,"type":"administrative","location":[16.1967404,46.5187046],"bbox":[16.0116125,46.4662456,16.2682629,46.5780699]}}
{"name":"Logatec","other_names":{"name:de":"Loitsch","name:it":"Longatico","name:la":"Longaticum","name:ru":"Логатец","name:sl":"Logatec","name:sr":"Логатец"},"display_name":"Logatec, Upravna Enota Logatec, Slovenija","address":{"town":"Logatec","municipality":"Logatec","ISO3166-2-lvl8":"SI-064","country":"Slovenija","country_code":"si"},"population":8800,"osm_type":"node","osm_id":57103061,"type":"town","location":[14.2233802,45.9178067],"bbox":[14.1833802,45.8778067,14.2633802,45.9578067],"border":{"name":"Logatec","other_names":{"ref":"64","name:it":"Longatico","name:sl":"Logatec","ISO3166-2":"SI-064","name:de":"Loitsch","name:la":"Longaticum","name:ru":"Логатец","name:sr":"Логатец"},"display_name":"Logatec, Upravna Enota Logatec, Slovenija","address":{"municipality":"Logatec","ISO3166-2-lvl8":"SI-064","country":"Slovenija","country_code":"si"},"population":8800,"osm_type":"relation","osm_id":1675846,"type":"administrative","location":[14.2233802,45.9178067],"bbox":[14.0979413,45.846998,14.3020609,46.0377404]}}
{"name":"Medvode","other_names":{"name:de":"Zwischenwassern","name:lt":"Medvodės","name:ru":"Медводе","name:sl":"Medvode","name:sr":"Медводе"},"display_name":"Medvode, Upravna Enota Ljubljana, Slovenija","address":{"town":"Medvode","municipality":"Medvode","ISO3166-2-lvl8":"SI-071","country":"Slovenija","country_code":"si"},"population":5100,"osm_type":"node","osm_id":56754609,"type":"town","location":[14.4130728,46.1402285],"bbox":[14.3730728,46.1002285,14.4530728,46.1802285],"border":[{"name":"Medvode","other_names":{"ref":"71","name:sl":"Medvode","ISO3166-2":"SI-071","name:de":"Zwischenwassern","name:lt":"Medvodės","name:ru":"Медводе","name:sr":"Медводе"},"display_name":"Medvode, Upravna Enota Ljubljana, Slovenija","address":{"municipality":"Medvode","ISO3166-2-lvl8":"SI-071","country":"Slovenija","country_code":"si"},"population":5100,"osm_type":"relation","osm_id":1675857,"type":"administrative","location":[14.4130728,46.1402285],"bbox":[14.3264272,46.0773609,14.4697365,46.1918406]},{"name":"Medvode","other_names":{"name:sl":"Medvode","alt_name:de":"Zwischenwassern"},"display_name":"Medvode, Upravna Enota Ljubljana, Slovenija","address":{"city_district":"Medvode","town":"Medvode","ISO3166-2-lvl8":"SI-071","municipality":"Upravna Enota Ljubljana","country":"Slovenija","country_code":"si"},"population":5100,"osm_type":"relation","osm_id":18219954,"type":"administrative","location":[14.41156568649663,46.13955555],"bbox":[14.3930082,46.1227469,14.4320384,46.1552724]}]}
{"name":"Mengeš","other_names":{"name:de":"Mannsburg","name:lt":"Mengešas","name:ru":"Менгеш","name:sl":"Mengeš","name:sr":"Менгеш"},"display_name":"Mengeš, Upravna Enota Domžale, Slovenija","address":{"town":"Mengeš","municipality":"Mengeš","ISO3166-2-lvl8":"SI-072","country":"Slovenija","country_code":"si"},"population":6100,"osm_type":"node","osm_id":56749775,"type":"town","location":[14.5722166,46.1629579],"bbox":[14.5322166,46.1229579,14.6122166,46.2029579],"border":{"name":"Mengeš","other_names":{"ref":"72","name:sl":"Mengeš","ISO3166-2":"SI-072","name:de":"Mannsburg","name:lt":"Mengešas","name:ru":"Менгеш","name:sr":"Менгеш"},"display_name":"Mengeš, Upravna Enota Domžale, 1234, Slovenija","address":{"municipality":"Mengeš","ISO3166-2-lvl8":"SI-072","postcode":"1234","country":"Slovenija","country_code":"si"},"population":6100,"osm_type":"relation","osm_id":1675867,"type":"administrative","location":[14.5722166,46.1629579],"bbox":[14.5131112,46.1309316,14.5928132,46.1959076]}}
{"name":"Metlika","other_names":{"name:de":"Möttling","name:ru":"Метлика","name:sl":"Metlika","name:sr":"Метлика","old_name:de":"Merling"},"display_name":"Metlika, Slovenija","address":{"town":"Metlika","municipality":"Metlika","ISO3166-2-lvl8":"SI-073","country":"Slovenija","country_code":"si"},"population":3206,"osm_type":"node","osm_id":2548559572,"type":"town","location":[15.3174483,45.6501029],"bbox":[15.2774483,45.6101029,15.3574483,45.6901029],"border":{"name":"Metlika","other_names":{"ref":"73","name:de":"Möttling","name:sl":"Metlika","ISO3166-2":"SI-073","old_name:de":"Merling","name:ru":"Метлика","name:sr":"Метлика"},"display_name":"Metlika, Slovenija","address":{"municipality":"Metlika","ISO3166-2-lvl8":"SI-073","country":"Slovenija","country_code":"si"},"population":3206,"osm_type":"relation","osm_id":1685733,"type":"administrative","location":[15.3174483,45.6501029],"bbox":[15.2055803,45.5713591,15.406551,45.727171]}}
{"name":"Mežica","other_names":{"name:ru":"Межица","name:sl":"Mežica","name:sr":"Межица","old_name:de":"Mießdorf"},"display_name":"Mežica, Slovenija","address":{"town":"Mežica","municipality":"Mežica","ISO3166-2-lvl8":"SI-074","country":"Slovenija","country_code":"si"},"population":3400,"osm_type":"node","osm_id":287385515,"type":"town","location":[14.8521528,46.5195022],"bbox":[14.8121528,46.4795022,14.8921528,46.5595022],"border":{"name":"Mežica","other_names":{"ref":"74","name:sl":"Mežica","ISO3166-2":"SI-074","name:ru":"Межица","name:sr":"Межица","old_name:de":"Mießdorf"},"display_name":"Mežica, 2392, Slovenija","address":{"municipality":"Mežica","ISO3166-2-lvl8":"SI-074","postcode":"2392","country":"Slovenija","country_code":"si"},"population":3400,"osm_type":"relation","osm_id":1675622,"type":"administrative","location":[14.8521528,46.5195022],"bbox":[14.8175462,46.4901126,14.9029856,46.5504031]}}
{"name":"Murska Sobota","other_names":{"name:ar":"موسكا سوبوتا","name:be":"Мурска-Собата","name:bg":"Мурска Собота","name:ce":"Мурська Собота","name:de":"Olsnitz","name:fa":"مورسکا سبتا","name:he":"מורסקה סובוטה","name:hu":"Muraszombat","name:hy":"Մուրսկա Սոբոտա","name:ja":"ムルスカ・ソボタ","name:ka":"მურსკა-სობოტა","name:ko":"무르스카소보타","name:la":"Belmura","name:lt":"Murska Sobota","name:mk":"Мурска Собота","name:ru":"Мурска-Собота","name:sl":"Murska Sobota","name:sr":"Мурска Собота","name:th":"มูร์สกาโซบอตา","name:tt":"Мурска Собота","name:uk":"Мурська Собота","name:ur":"مورسکا سوبوتا","alt_name:la":"Muraszombota;Murazombatya;Murazombatha;Murazumbota;Sobota","name:zh-Hans":"穆尔斯卡索博塔","name:zh-Hant":"穆爾斯卡索博塔"},"display_name":"Murska Sobota, Slovenija","address":{"town":"Murska Sobota","municipality":"Murska Sobota","ISO3166-2-lvl8":"SI-080","country":"Slovenija","country_code":"si"},"population":11700,"osm_type":"node","osm_id":29524465,"type":"town","location":[16.1655256,46.6624644],"bbox":[16.1255256,46.6224644,16.2055256,46.7024644],"border":{"name":"Murska Sobota","other_names":{"ref":"80","name:de":"Olsnitz","name:hu":"Muraszombat városi község","name:sl":"Murska Sobota","ISO3166-2":"SI-080","name:ar":"موسكا سوبوتا","name:be":"Мурска-Собата","name:bg":"Мурска Собота","name:ce":"Мурська Собота","name:fa":"مورسکا سبتا","name:he":"מורסקה סובוטה","name:hy":"Մուրսկա Սոբոտա","name:ja":"ムルスカ・ソボタ","name:ka":"მურსკა-სობოტა","name:ko":"무르스카소보타","name:la":"Belmura","name:lt":"Murska Sobota","name:mk":"Мурска Собота","name:ru":"Мурска-Собота","name:sr":"Мурска Собота","name:th":"มูร์สกาโซบอตา","name:tt":"Мурска Собота","name:uk":"Мурська Собота","name:ur":"مورسکا سوبوتا","alt_name:la":"Muraszombota;Murazombatya;Murazombatha;Murazumbota;Sobota","name:zh-Hans":"穆尔斯卡索博塔","name:zh-Hant":"穆爾斯卡索博塔","alt:hu":"Muraszombat"},"display_name":"Murska Sobota, Slovenija","address":{"municipality":"Murska Sobota","ISO3166-2-lvl8":"SI-080","country":"Slovenija","country_code":"si"},"population":11700,"osm_type":"relation","osm_id":1676363,"type":"administrative","location":[16.1655256,46.6624644],"bbox":[16.0982301,46.5997166,16.2376203,46.6991703]}}
{"name":"Nova Gorica","other_names":{"name:ar":"نوفا جوريتسا","name:be":"Нова-Горыца","name:bg":"Нова Горица","name:ce":"Нова Гориця","name:el":"Νόβα Γκορίτσα","name:fa":"نووا گوریتسا","name:he":"נובה גוריצה","name:hy":"Նովա Գորիցա","name:it":"Nova Gorica","name:ja":"ノヴァ・ゴリツァ","name:ka":"ნოვა-გორიცა","name:ko":"노바고리차","name:la":"Goritia Nova","name:lt":"Nova Gorica","name:mk":"Нова Горица","name:ru":"Нова-Горица","name:sl":"Nova Gorica","name:sr":"Нова Горица","name:th":"นอวากอรีตซา","name:tt":"Нова Гориця","name:uk":"Нова Гориця","name:ur":"نووا گوریتسا","name:fur":"Gnove Gurize","name:pnb":"نووا گوریکا","name:wuu":"新戈里察","alt_name:de":"Neu-Görz","alt_name:it":"Nuova Gorizia","name:zh-Hans":"新戈里察","name:zh-Hant":"新哥里察"},"display_name":"Nova Gorica, 5000, Slovenija","address":{"town":"Nova Gorica","municipality":"Nova Gorica","ISO3166-2-lvl8":"SI-084","postcode":"5000","country":"Slovenija","country_code":"si"},"population":13500,"osm_type":"node","osm_id":44870243,"type":"town","location":[13.6474706,45.9580549],"bbox":[13.6074706,45.9180549,13.6874706,45.9980549],"border":{"name":"Nova Gorica","other_names":{"ref":"84","name:de":"Neu-Görz","name:it":"Nuova Gorizia","name:sl":"Nova Gorica","name:fur":"Gnove Gurize","ISO3166-2":"SI-084","name:ar":"نوفا جوريتسا","name:be":"Нова-Горыца","name:bg":"Нова Горица","name:ce":"Нова Гориця","name:el":"Νόβα Γκορίτσα","name:fa":"نووا گوریتسا","name:he":"נובה גוריצה","name:hy":"Նովա Գորիցա","name:ja":"ノヴァ・ゴリツァ","name:ka":"ნოვა-გორიცა","name:ko":"노바고리차","name:la":"Goritia Nova","name:lt":"Nova Gorica","name:mk":"Нова Горица","name:ru":"Нова-Горица","name:sr":"Нова Горица","name:th":"นอวากอรีตซา","name:tt":"Нова Гориця","name:uk":"Нова Гориця","name:ur":"نووا گوریتسا","name:pnb":"نووا گوریکا","name:wuu":"新戈里察","alt_name:de":"Neu-Görz","alt_name:it":"Nuova Gorizia","name:zh-Hans":"新戈里察","name:zh-Hant":"新哥里察","alt:it":"Nova Gorica"},"display_name":"Nova Gorica, Slovenija","address":{"municipality":"Nova Gorica","ISO3166-2-lvl8":"SI-084","country":"Slovenija","country_code":"si"},"population":13500,"osm_type":"relation","osm_id":1675786,"type":"administrative","location":[13.6474706,45.9580549],"bbox":[13.6085938,45.8338724,13.8683609,46.1080607]}}
{"name":"Novo mesto","other_names":{"name:ar":"نوفو ميتسو","name:ba":"Ново-Место","name:be":"Нова-Места","name:bg":"Ново место","name:el":"Νόβο Μέστο","name:en":"Novo Mesto","name:fa":"نوو مستو","name:he":"נובו מסטו","name:hr":"Novo Mesto","name:hy":"Նովո Մեստո","name:ja":"ノヴォ・メスト","name:ka":"ნოვო-მესტო","name:ko":"노보메스토","name:lt":"Novo Mestas","name:mk":"Ново Место","name:ru":"Ново-Место","name:si":"Novo mesto","name:sl":"Novo mesto","name:sr":"Ново Место","name:th":"นอวอเมสตอ","name:uk":"Ново Место","name:ur":"نوو میستو","name:zh":"新梅斯托","name:mdf":"Ново-Место","name:pnb":"نوو مسٹو","name:wuu":"新梅斯托","name:xmf":"ნოვო-მესტო","alt_name:de":"Rudolfswerth;Neustadtl;Neustädtl","alt_name:he":"העיר החדשה","alt_name:hu":"Újhely;Újváros","alt_name:it":"Nuova Città","alt_name:ja":"ルドルフスヴェルト","alt_name:ko":"루돌프스베르트","alt_name:sr":"Нови Град","alt_name:uk":"Нове Место","old_name:de":"Růdolfswerde;Rudolfswerd;Ruodolphswert","name:sr-Latn":"Novo Mesto","alt_name:sr-Latn":"Novi Grad"},"display_name":"Novo mesto, 8000, Slovenija","address":{"town":"Novo mesto","municipality":"Novo mesto","ISO3166-2-lvl8":"SI-085","postcode":"8000","country":"Slovenija","country_code":"si"},"population":23200,"osm_type":"node","osm_id":57074435,"type":"town","location":[15.1696684,45.8040475],"bbox":[15.1296684,45.7640475,15.2096684,45.8440475],"border":{"name":"Novo mesto","other_names":{"ref":"85","name:de":"Neustadtl","name:sl":"Novo mesto","ISO3166-2":"SI-085","alt_name:de":"Neustädtel;Rudolfswerth","name:ar":"نوفو ميتسو","name:ba":"Ново-Место","name:be":"Нова-Места","name:bg":"Ново место","name:el":"Νόβο Μέστο","name:en":"Novo Mesto","name:fa":"نوو مستو","name:he":"נובו מסטו","name:hr":"Novo Mesto","name:hy":"Նովո Մեստո","name:ja":"ノヴォ・メスト","name:ka":"ნოვო-მესტო","name:ko":"노보메스토","name:lt":"Novo Mestas","name:mk":"Ново Место","name:ru":"Ново-Место","name:si":"Novo mesto","name:sr":"Ново Место","name:th":"นอวอเมสตอ","name:uk":"Ново Место","name:ur":"نوو میستو","name:zh":"新梅斯托","name:mdf":"Ново-Место","name:pnb":"نوو مسٹو","name:wuu":"新梅斯托","name:xmf":"ნოვო-მესტო","_place_alt_name:de":"Rudolfswerth;Neustadtl;Neustädtl","alt_name:he":"העיר החדשה","alt_name:hu":"Újhely;Újváros","alt_name:it":"Nuova Città","alt_name:ja":"ルドルフスヴェルト","alt_name:ko":"루돌프스베르트","alt_name:sr":"Нови Град","alt_name:uk":"Нове Место","old_name:de":"Růdolfswerde;Rudolfswerd;Ruodolphswert","name:sr-Latn":"Novo Mesto","alt_name:sr-Latn":"Novi Grad"},"display_name":"Novo mesto, Slovenija","address":{"municipality":"Novo mesto","ISO3166-2-lvl8":"SI-085","country":"Slovenija","country_code":"si"},"population":23200,"osm_type":"relation","osm_id":1685734,"type":"administrative","location":[15.1696684,45.8040475],"bbox":[15.0928463,45.684516,15.316417,45.8768854]}}
{"name":"Ormož","other_names":{"name:de":"Friedau","name:hu":"Ormosd","name:ru":"Ормож","name:sl":"Ormož","name:sr":"Ормож"},"display_name":"Ormož, Slovenija","address":{"town":"Ormož","municipality":"Ormož","ISO3166-2-lvl8":"SI-087","country":"Slovenija","country_code":"si"},"population":1914,"osm_type":"node","osm_id":96591043,"type":"town","location":[16.1489255,46.4072383],"bbox":[16.1089255,46.3672383,16.1889255,46.4472383],"border":{"name":"Ormož","other_names":{"ref":"87","name:de":"Friedau","name:sl":"Ormož","ISO3166-2":"SI-087","name:hu":"Ormosd","name:ru":"Ормож","name:sr":"Ормож"},"display_name":"Ormož, Slovenija","address":{"municipality":"Ormož","ISO3166-2-lvl8":"SI-087","country":"Slovenija","country_code":"si"},"population":1914,"osm_type":"relation","osm_id":1685735,"type":"administrative","location":[16.1489255,46.4072383],"bbox":[16.0166723,46.3778547,16.2707398,46.5006597]}}
{"name":"Piran / Pirano","other_names":{"name:ar":"بيران","name:bg":"Пиран","name:ce":"Пиран","name:el":"Πιράν","name:fa":"پیران","name:he":"פיראן","name:hr":"Piran","name:it":"Pirano","name:ja":"ピラン","name:ka":"პირანი","name:ko":"피란","name:la":"Pyrrhanum","name:lt":"Piranas","name:mk":"Пиран","name:ml":"പിരാൻ","name:ru":"Пиран","name:sl":"Piran","name:sr":"Пиран","name:tt":"Пиран","name:uk":"Пиран","name:ur":"پیران","name:vec":"Piràn","alt_name:it":"Pirano d'Istria","alt_name:la":"Piranum;Pyrhanum;Castrum Pyrhani","old_name:de":"Pirian","name:zh-Hans":"皮兰","name:zh-Hant":"皮蘭"},"display_name":"Piran / Pirano, Upravna enota Piran / Unità amministrativa Pirano, Slovenija","address":{"town":"Piran / Pirano","municipality":"Piran / Pirano","ISO3166-2-lvl8":"SI-090","country":"Slovenija","country_code":"si"},"population":3787,"osm_type":"node","osm_id":29098903,"type":"town","location":[13.5684485,45.5284919],"bbox":[13.5284485,45.4884919,13.6084485,45.5684919],"border":[{"name":"Upravna enota Piran / Unità amministrativa Pirano","other_names":{"name:it":"Unità amministrativa Pirano","name:sl":"Upravna enota Piran","alt_name:ru":"Пиран"},"display_name":"Upravna enota Piran / Unità amministrativa Pirano, Slovenija","address":{"municipality":"Upravna enota Piran / Unità amministrativa Pirano","country":"Slovenija","country_code":"si"},"osm_type":"relation","osm_id":4185356,"type":"administrative","location":[13.553334861303124,45.52609405],"bbox":[13.3844445,45.4455848,13.71236,45.6074294]},{"name":"Piran / Pirano","other_names":{"name:de":"Pirian","name:it":"Pirano","name:sl":"Piran","name:zh":"皮兰","ISO3166-2":"SI-090","name:ar":"بيران","name:bg":"Пиран","name:ce":"Пиран","name:el":"Πιράν","name:fa":"پیران","name:he":"פיראן","name:hr":"Piran","name:ja":"ピラン","name:ka":"პირანი","name:ko":"피란","name:la":"Pyrrhanum","name:lt":"Piranas","name:mk":"Пиран","name:ml":"പിരാൻ","name:ru":"Пиран","name:sr":"Пиран","name:tt":"Пиран","name:uk":"Пиран","name:ur":"پیران","name:vec":"Piràn","official_name:it":"Comune di Pirano","official_name:sl":"Občina Piran","alt_name:it":"Pirano d'Istria","alt_name:la":"Piranum;Pyrhanum;Castrum Pyrhani","old_name:de":"Pirian","name:zh-Hans":"皮兰","name:zh-Hant":"皮蘭"},"display_name":"Piran / Pirano, Upravna enota Piran / Unità amministrativa Pirano, Slovenija","address":{"municipality":"Piran / Pirano","ISO3166-2-lvl8":"SI-090","country":"Slovenija","country_code":"si"},"population":3787,"osm_type":"relation","osm_id":541989,"type":"administrative","location":[13.5684485,45.5284919],"bbox":[13.3844445,45.4455848,13.71236,45.6074294]}]}
{"name":"Portorož / Portorose","other_names":{"name:ar":"بورتوروز","name:it":"Portorose","name:mk":"Порторож","name:ru":"Порторож","name:sl":"Portorož","int_name":"Portorož"},"display_name":"Portorož / Portorose, Piran / Pirano, Upravna enota Piran / Unità amministrativa Pirano, 6320, Slovenija","address":{"town":"Portorož / Portorose","ISO3166-2-lvl8":"SI-090","municipality":"Upravna enota Piran / Unità amministrativa Pirano","postcode":"6320","country":"Slovenija","country_code":"si"},"population":3127,"osm_type":"node","osm_id":59708796,"type":"town","location":[13.5910112,45.5146489],"bbox":[13.5510112,45.4746489,13.6310112,45.5546489]}
{"name":"Postojna","other_names":{"name:de":"Adelsberg","name:it":"Postumia","name:lt":"Postoina","name:ml":"പോസ്റ്റോയ്ന","name:ru":"Постойна","name:sl":"Postojna","name:sr":"Постојна","old_name:it":"Postumia Grotte"},"display_name":"Postojna, Slovenija","address":{"town":"Postojna","municipality":"Postojna","ISO3166-2-lvl8":"SI-094","country":"Slovenija","country_code":"si"},"population":9100,"osm_type":"node","osm_id":28844011,"type":"town","location":[14.2139937,45.7752847],"bbox":[14.1739937,45.7352847,14.2539937,45.8152847],"border":{"name":"Postojna","other_names":{"ref":"94","name:it":"Postumia","name:sl":"Postojna","ISO3166-2":"SI-094","old_name:it":"Postumia Grotte","name:de":"Adelsberg","name:lt":"Postoina","name:ml":"പോസ്റ്റോയ്ന","name:ru":"Постойна","name:sr":"Постојна"},"display_name":"Postojna, Slovenija","address":{"municipality":"Postojna","ISO3166-2-lvl8":"SI-094","country":"Slovenija","country_code":"si"},"population":9100,"osm_type":"relation","osm_id":1675848,"type":"administrative","location":[14.2139937,45.7752847],"bbox":[14.04237,45.7014423,14.3260129,45.879101]}}
{"name":"Prevalje","other_names":{"name:ru":"Превале","name:sl":"Prevalje","name:sr":"Преваље","old_name:de":"Prävali"},"display_name":"Prevalje, Slovenija","address":{"town":"Prevalje","municipality":"Prevalje","ISO3166-2-lvl8":"SI-175","country":"Slovenija","country_code":"si"},"population":4700,"osm_type":"node","osm_id":290421432,"type":"town","location":[14.9169796,46.5460617],"bbox":[14.8769796,46.5060617,14.9569796,46.5860617],"border":{"name":"Prevalje","other_names":{"ref":"175","name:sl":"Prevalje","ISO3166-2":"SI-175","name:ru":"Превале","name:sr":"Преваље","old_name:de":"Prävali"},"display_name":"Prevalje, 2391, Slovenija","address":{"municipality":"Prevalje","ISO3166-2-lvl8":"SI-175","postcode":"2391","country":"Slovenija","country_code":"si"},"population":4700,"osm_type":"relation","osm_id":1676291,"type":"administrative","location":[14.9169796,46.5460617],"bbox":[14.8276738,46.4980984,14.9533657,46.611785]}}
{"name":"Ptuj","other_names":{"name:ar":"بيتوج","name:ba":"Птуй","name:be":"Птуй","name:bg":"Птуй","name:de":"Ptuj","name:el":"Πτούι","name:fa":"پتوی","name:he":"פטוי","name:hy":"Պտույ","name:ja":"プトゥイ","name:ka":"პტუი","name:ko":"프투이","name:la":"Poetovium","name:lt":"Ptujus","name:mk":"Птуј","name:ml":"ടൂയ്","name:ru":"Птуй","name:sl":"Ptuj","name:sr":"Птуј","name:th":"ปตูย","name:uk":"Птуй","name:mdf":"Птуй","name:pnb":"پتوئی","alt_name:de":"Pettau","alt_name:it":"Poetovio","alt_name:la":"Poetovio;Colonia Ulpia Traiana Poetovio","old_name:hu":"Potoly","name:zh-Hans":"普图伊","name:zh-Hant":"普圖伊"},"display_name":"Ptuj, 2250, Slovenija","address":{"town":"Ptuj","municipality":"Ptuj","ISO3166-2-lvl8":"SI-096","postcode":"2250","country":"Slovenija","country_code":"si"},"population":18339,"osm_type":"node","osm_id":35526498,"type":"town","location":[15.8717378,46.4198096],"bbox":[15.8317378,46.3798096,15.9117378,46.4598096],"border":{"name":"Ptuj","other_names":{"ref":"96","name:de":"Ptuj","name:la":"Poetovium","name:sl":"Ptuj","ISO3166-2":"SI-096","old_name:de":"Pettau","name:ar":"بيتوج","name:ba":"Птуй","name:be":"Птуй","name:bg":"Птуй","name:el":"Πτούι","name:fa":"پتوی","name:he":"פטוי","name:hy":"Պտույ","name:ja":"プトゥイ","name:ka":"პტუი","name:ko":"프투이","name:lt":"Ptujus","name:mk":"Птуј","name:ml":"ടൂയ്","name:ru":"Птуй","name:sr":"Птуј","name:th":"ปตูย","name:uk":"Птуй","name:mdf":"Птуй","name:pnb":"پتوئی","alt_name:de":"Pettau","alt_name:it":"Poetovio","alt_name:la":"Poetovio;Colonia Ulpia Traiana Poetovio","old_name:hu":"Potoly","name:zh-Hans":"普图伊","name:zh-Hant":"普圖伊"},"display_name":"Ptuj, Slovenija","address":{"municipality":"Ptuj","ISO3166-2-lvl8":"SI-096","country":"Slovenija","country_code":"si"},"population":18339,"osm_type":"relation","osm_id":1676350,"type":"administrative","location":[15.8717378,46.4198096],"bbox":[15.7751467,46.3856256,15.9461061,46.4974511]}}
{"name":"Radeče","other_names":{"name:de":"Ratschach","name:ru":"Радече","name:sl":"Radeče","name:sr":"Радече"},"display_name":"Radeče, Slovenija","address":{"town":"Radeče","municipality":"Radeče","ISO3166-2-lvl8":"SI-099","country":"Slovenija","country_code":"si"},"population":2296,"osm_type":"node","osm_id":57091959,"type":"town","location":[15.1818757,46.0661317],"bbox":[15.1418757,46.0261317,15.2218757,46.1061317],"border":{"name":"Radeče","other_names":{"ref":"99","name:de":"Ratschach","name:sl":"Radeče","ISO3166-2":"SI-099","name:ru":"Радече","name:sr":"Радече"},"display_name":"Radeče, Slovenija","address":{"municipality":"Radeče","ISO3166-2-lvl8":"SI-099","country":"Slovenija","country_code":"si"},"population":2296,"osm_type":"relation","osm_id":1681517,"type":"administrative","location":[15.1818757,46.0661317],"bbox":[15.0661373,46.0253287,15.2364581,46.0936894]}}
{"name":"Radovljica","other_names":{"name:de":"Radmannsdorf","name:ru":"Радовлица","name:sl":"Radovljica","name:sr":"Радовљица"},"display_name":"Radovljica, Slovenija","address":{"town":"Radovljica","municipality":"Radovljica","ISO3166-2-lvl8":"SI-102","country":"Slovenija","country_code":"si"},"population":6000,"osm_type":"node","osm_id":280339374,"type":"town","location":[14.1720227,46.343509],"bbox":[14.1320227,46.303509,14.2120227,46.383509],"border":{"name":"Radovljica","other_names":{"ref":"102","name:sl":"Radovljica","ISO3166-2":"SI-102","name:de":"Radmannsdorf","name:ru":"Радовлица","name:sr":"Радовљица"},"display_name":"Radovljica, Slovenija","address":{"municipality":"Radovljica","ISO3166-2-lvl8":"SI-102","country":"Slovenija","country_code":"si"},"population":6000,"osm_type":"relation","osm_id":1675662,"type":"administrative","location":[14.1720227,46.343509],"bbox":[14.1089439,46.2679774,14.2729636,46.4220931]}}
{"name":"Ravne na Koroškem","other_names":{"name:ru":"Равне-на-Корошкем","name:sl":"Ravne na Koroškem","name:sr":"Равне на Корошкем","old_name":"Guštanj","old_name:de":"Gutenstein"},"display_name":"Ravne na Koroškem, Slovenija","address":{"town":"Ravne na Koroškem","municipality":"Ravne na Koroškem","ISO3166-2-lvl8":"SI-103","country":"Slovenija","country_code":"si"},"population":7000,"osm_type":"node","osm_id":287387287,"type":"town","location":[14.9622863,46.5446516],"bbox":[14.9222863,46.5046516,15.0022863,46.5846516],"border":{"name":"Ravne na Koroškem","other_names":{"ref":"103","name:sl":"Ravne na Koroškem","ISO3166-2":"SI-103","name:ru":"Равне-на-Корошкем","name:sr":"Равне на Корошкем","old_name":"Guštanj","old_name:de":"Gutenstein"},"display_name":"Ravne na Koroškem, Slovenija","address":{"municipality":"Ravne na Koroškem","ISO3166-2-lvl8":"SI-103","country":"Slovenija","country_code":"si"},"population":7000,"osm_type":"relation","osm_id":1676292,"type":"administrative","location":[14.9622863,46.5446516],"bbox":[14.8836043,46.4839804,15.0149687,46.6127706]}}
{"name":"Ribnica","other_names":{"name:de":"Reifnitz","name:ru":"Рибница","name:sl":"Ribnica","name:sr":"Рибница"},"display_name":"Ribnica, Slovenija","address":{"town":"Ribnica","municipality":"Ribnica","ISO3166-2-lvl8":"SI-104","country":"Slovenija","country_code":"si"},"population":3600,"osm_type":"node","osm_id":57099335,"type":"town","location":[14.7260128,45.7399848],"bbox":[14.6860128,45.6999848,14.7660128,45.7799848],"border":{"name":"Ribnica","other_names":{"ref":"104","name:de":"Ribnica","name:sl":"Ribnica","ISO3166-2":"SI-104","old_name:de":"Reifnitz","name:ru":"Рибница","name:sr":"Рибница","alt:de":"Reifnitz"},"display_name":"Ribnica, Slovenija","address":{"municipality":"Ribnica","ISO3166-2-lvl8":"SI-104","country":"Slovenija","country_code":"si"},"population":3600,"osm_type":"relation","osm_id":1681536,"type":"administrative","location":[14.7260128,45.7399848],"bbox":[14.5831979,45.6363337,14.8192173,45.8210329]}}
{"name":"Rogaška Slatina","other_names":{"name:ru":"Рогашка-Слатина","name:sl":"Rogaška Slatina","name:sr":"Рогашка Слатина","old_name:de":"Rohitsch-Sauerbrunn"},"display_name":"Rogaška Slatina, Slovenija","address":{"town":"Rogaška Slatina","municipality":"Rogaška Slatina","ISO3166-2-lvl8":"SI-106","country":"Slovenija","country_code":"si"},"population":5200,"osm_type":"node","osm_id":206182471,"type":"town","location":[15.6384369,46.2329898],"bbox":[15.5984369,46.1929898,15.6784369,46.2729898],"border":{"name":"Rogaška Slatina","other_names":{"ref":"106","name:sl":"Rogaška Slatina","ISO3166-2":"SI-106","name:ru":"Рогашка-Слатина","name:sr":"Рогашка Слатина","old_name:de":"Rohitsch-Sauerbrunn"},"display_name":"Rogaška Slatina, 3250, Slovenija","address":{"municipality":"Rogaška Slatina","ISO3166-2-lvl8":"SI-106","postcode":"3250","country":"Slovenija","country_code":"si"},"population":5200,"osm_type":"relation","osm_id":1685742,"type":"administrative","location":[15.6384369,46.2329898],"bbox":[15.5575002,46.1856842,15.7319545,46.2898731]}}
{"name":"Ruše","other_names":{"name:de":"Maria Rast","name:en":"Ruše","name:ru":"Руше","name:sl":"Ruše","name:sr":"Руше","old_name:de":"Maria Rast"},"display_name":"Ruše, Slovenija","address":{"town":"Ruše","municipality":"Ruše","ISO3166-2-lvl8":"SI-108","country":"Slovenija","country_code":"si"},"population":4500,"osm_type":"node","osm_id":96028058,"type":"town","location":[15.5139415,46.5386688],"bbox":[15.4739415,46.4986688,15.5539415,46.5786688],"border":{"name":"Ruše","other_names":{"ref":"108","name:sl":"Ruše","ISO3166-2":"SI-108","name:de":"Maria Rast","name:en":"Ruše","name:ru":"Руше","name:sr":"Руше","old_name:de":"Maria Rast"},"display_name":"Ruše, Slovenija","address":{"municipality":"Ruše","ISO3166-2-lvl8":"SI-108","country":"Slovenija","country_code":"si"},"population":4500,"osm_type":"relation","osm_id":1676300,"type":"administrative","location":[15.5139415,46.5386688],"bbox":[15.3975995,46.4764986,15.5615077,46.5622274]}}
{"name":"Šempeter pri Gorici","other_names":{"name:de":"Sankt Peter","name:it":"San Pietro di Gorizia","name:sl":"Šempeter pri Gorici","name:sr":"Шемпетер при Горици"},"display_name":"Šempeter pri Gorici, Šempeter-Vrtojba, 5290, Slovenija","address":{"town":"Šempeter pri Gorici","municipality":"Šempeter-Vrtojba","ISO3166-2-lvl8":"SI-183","postcode":"5290","country":"Slovenija","country_code":"si"},"population":3694,"osm_type":"node","osm_id":1147409484,"type":"town","location":[13.6398587,45.9303401],"bbox":[13.5998587,45.8903401,13.6798587,45.9703401]}
{"name":"Šentjur","other_names":{"name:de":"Sankt Georgen bei Cilli","name:sl":"Šentjur","name:sr":"Шентјур"},"display_name":"Šentjur, Slovenija","address":{"town":"Šentjur","municipality":"Šentjur","ISO3166-2-lvl8":"SI-120","country":"Slovenija","country_code":"si"},"population":4700,"osm_type":"node","osm_id":83450062,"type":"town","location":[15.3937905,46.2168375],"bbox":[15.3537905,46.1768375,15.4337905,46.2568375],"border":{"name":"Šentjur","other_names":{"ref":"120","name:sl":"Šentjur","ISO3166-2":"SI-120","name:de":"Sankt Georgen bei Cilli","name:sr":"Шентјур"},"display_name":"Šentjur, Slovenija","address":{"municipality":"Šentjur","ISO3166-2-lvl8":"SI-120","country":"Slovenija","country_code":"si"},"population":4700,"osm_type":"relation","osm_id":1681490,"type":"administrative","location":[15.3937905,46.2168375],"bbox":[15.3301526,46.0655549,15.5358711,46.3118567]}}
{"name":"Sevnica","other_names":{"name:de":"Lichtenwald","name:lt":"Sevnica","name:ru":"Севница","name:sl":"Sevnica","name:sr":"Севница"},"display_name":"Sevnica, Slovenija","address":{"town":"Sevnica","municipality":"Sevnica","ISO3166-2-lvl8":"SI-110","country":"Slovenija","country_code":"si"},"population":4700,"osm_type":"node","osm_id":57092168,"type":"town","location":[15.3037138,46.0097431],"bbox":[15.2637138,45.9697431,15.3437138,46.0497431],"border":{"name":"Sevnica","other_names":{"ref":"110","name:de":"Lichtenwald","name:sl":"Sevnica","ISO3166-2":"SI-110","name:lt":"Sevnica","name:ru":"Севница","name:sr":"Севница"},"display_name":"Sevnica, Slovenija","address":{"municipality":"Sevnica","ISO3166-2-lvl8":"SI-110","country":"Slovenija","country_code":"si"},"population":4700,"osm_type":"relation","osm_id":1681504,"type":"administrative","location":[15.3037138,46.0097431],"bbox":[15.0878057,45.9282175,15.4243244,46.0889772]}}
{"name":"Sežana","other_names":{"name:de":"Zizan","name:it":"Sesana","name:ru":"Сежана","name:sl":"Sežana","name:sr":"Сежана","old_name:it":"Sesana"},"display_name":"Sežana, Upravna enota Sežana, Slovenija","address":{"town":"Sežana","municipality":"Sežana","ISO3166-2-lvl8":"SI-111","country":"Slovenija","country_code":"si"},"population":5500,"osm_type":"node","osm_id":475065211,"type":"town","location":[13.8730989,45.7091799],"bbox":[13.8330989,45.6691799,13.9130989,45.7491799],"border":[{"name":"Upravna enota Sežana","other_names":{"name:it":"Unità amministrativa Sesana","name:sl":"Upravna enota Sežana","alt_name:ru":"Сежана"},"display_name":"Upravna enota Sežana, Slovenija","address":{"municipality":"Upravna enota Sežana","country":"Slovenija","country_code":"si"},"osm_type":"relation","osm_id":4185357,"type":"administrative","location":[13.965585890612363,45.672420849999995],"bbox":[13.5958728,45.4811308,14.1316001,45.8635138]},{"name":"Sežana","other_names":{"ref":"111","name:de":"Zizan","name:it":"Sesana","name:sl":"Sežana","ISO3166-2":"SI-111","name:ru":"Сежана","name:sr":"Сежана","old_name:it":"Sesana"},"display_name":"Sežana, Upravna enota Sežana, Slovenija","address":{"municipality":"Sežana","ISO3166-2-lvl8":"SI-111","country":"Slovenija","country_code":"si"},"population":5500,"osm_type":"relation","osm_id":1675828,"type":"administrative","location":[13.8730989,45.7091799],"bbox":[13.7082777,45.6414954,14.0002556,45.8114217]}]}
{"name":"Škofja Loka","other_names":{"name:de":"Bischoflack","name:en":"Skofja Loka","name:lt":"Škofja Loka","name:ru":"Шкофья-Лока","name:sl":"Škofja Loka","name:sr":"Шкофја Лока"},"display_name":"Škofja Loka, Slovenija","address":{"town":"Škofja Loka","municipality":"Škofja Loka","ISO3166-2-lvl8":"SI-122","country":"Slovenija","country_code":"si"},"population":12100,"osm_type":"node","osm_id":56742189,"type":"town","location":[14.3067474,46.165274],"bbox":[14.2667474,46.125274,14.3467474,46.205274],"border":{"name":"Škofja Loka","other_names":{"ref":"122","name:de":"Bischoflack","name:sl":"Škofja Loka","ISO3166-2":"SI-122","name:en":"Skofja Loka","name:lt":"Škofja Loka","name:ru":"Шкофья-Лока","name:sr":"Шкофја Лока"},"display_name":"Škofja Loka, Slovenija","address":{"municipality":"Škofja Loka","ISO3166-2-lvl8":"SI-122","country":"Slovenija","country_code":"si"},"population":12100,"osm_type":"relation","osm_id":1675858,"type":"administrative","location":[14.3067474,46.165274],"bbox":[14.1613776,46.0961699,14.3954781,46.2415039]}}
{"name":"Slovenj Gradec","other_names":{"name:ar":"سلوفينج غرادتس","name:ba":"Словень-Градец","name:be":"Словень-Градэц","name:bg":"Словен градец","name:ce":"Словень Градець","name:el":"Σλοβένι Γκράντετς","name:fa":"سلونی گرادتس","name:hy":"Սլովեն Գրադեց","name:ja":"スロヴェニ・グラデツ","name:ko":"슬로벤그라데츠","name:la":"Colatio","name:lt":"Sloven Gradecas","name:mk":"Словењ Градец","name:ru":"Словень-Градец","name:sl":"Slovenj Gradec","name:sr":"Словењ Градец","name:th":"สลอเวงกราเดิตส์","name:tt":"Словень Градець","name:uk":"Словень Градець","alt_name:bg":"Виндишгрец","alt_name:cs":"Slovinský Hradec","alt_name:de":"Windischgraz","alt_name:la":"Graecium Slovenum","old_name:de":"Windischgrätz","name:zh-Hans":"斯洛文尼亚格拉代茨","name:zh-Hant":"斯洛維尼亞格拉代茨"},"display_name":"Slovenj Gradec, Slovenija","address":{"town":"Slovenj Gradec","municipality":"Slovenj Gradec","ISO3166-2-lvl8":"SI-112","country":"Slovenija","country_code":"si"},"population":7500,"osm_type":"node","osm_id":64001817,"type":"town","location":[15.0790677,46.509144],"bbox":[15.0390677,46.469144,15.1190677,46.549144],"border":{"name":"Slovenj Gradec","other_names":{"ref":"112","name:cs":"Slovinský Hradec","name:sl":"Slovenj Gradec","ISO3166-2":"SI-112","old_name:de":"Windischgraz","name:ar":"سلوفينج غرادتس","name:ba":"Словень-Градец","name:be":"Словень-Градэц","name:bg":"Словен градец","name:ce":"Словень Градець","name:el":"Σλοβένι Γκράντετς","name:fa":"سلونی گرادتس","name:hy":"Սլովեն Գրադեց","name:ja":"スロヴェニ・グラデツ","name:ko":"슬로벤그라데츠","name:la":"Colatio","name:lt":"Sloven Gradecas","name:mk":"Словењ Градец","name:ru":"Словень-Градец","name:sr":"Словењ Градец","name:th":"สลอเวงกราเดิตส์","name:tt":"Словень Градець","name:uk":"Словень Градець","alt_name:bg":"Виндишгрец","alt_name:cs":"Slovinský Hradec","alt_name:de":"Windischgraz","alt_name:la":"Graecium Slovenum","_place_old_name:de":"Windischgrätz","name:zh-Hans":"斯洛文尼亚格拉代茨","name:zh-Hant":"斯洛維尼亞格拉代茨"},"display_name":"Slovenj Gradec, Slovenija","address":{"municipality":"Slovenj Gradec","ISO3166-2-lvl8":"SI-112","country":"Slovenija","country_code":"si"},"population":7500,"osm_type":"relation","osm_id":1675900,"type":"administrative","location":[15.0790677,46.509144],"bbox":[14.9533625,46.4188573,15.1954199,46.5661534]}}
{"name":"Slovenska Bistrica","other_names":{"name:lt":"Slovenska Bistrica","name:ru":"Словенска-Бистрица","name:sl":"Slovenska Bistrica","name:sr":"Словенска Бистрица","old_name:de":"Windisch-Feistritz"},"display_name":"Slovenska Bistrica, Slovenija","address":{"town":"Slovenska Bistrica","municipality":"Slovenska Bistrica","ISO3166-2-lvl8":"SI-113","country":"Slovenija","country_code":"si"},"population":7400,"osm_type":"node","osm_id":39284817,"type":"town","location":[15.5727757,46.391944],"bbox":[15.5327757,46.351944,15.6127757,46.431944],"border":{"name":"Slovenska Bistrica","other_names":{"ref":"113","name:sl":"Slovenska Bistrica","ISO3166-2":"SI-113","name:lt":"Slovenska Bistrica","name:ru":"Словенска-Бистрица","name:sr":"Словенска Бистрица","old_name:de":"Windisch-Feistritz"},"display_name":"Slovenska Bistrica, Slovenija","address":{"municipality":"Slovenska Bistrica","ISO3166-2-lvl8":"SI-113","country":"Slovenija","country_code":"si"},"population":7400,"osm_type":"relation","osm_id":1676313,"type":"administrative","location":[15.5727757,46.391944],"bbox":[15.3336329,46.316986,15.6867115,46.4977836]}}
{"name":"Slovenske Konjice","other_names":{"name:de":"Slovenske Konjice","name:lt":"Slovenske Konicės","name:ru":"Словенске-Конице","name:sl":"Slovenske Konjice","name:sr":"Словенске Коњице","alt_name:de":"Gonobitz"},"display_name":"Slovenske Konjice, Slovenija","address":{"town":"Slovenske Konjice","municipality":"Slovenske Konjice","ISO3166-2-lvl8":"SI-114","country":"Slovenija","country_code":"si"},"population":5000,"osm_type":"node","osm_id":30894276,"type":"town","location":[15.4230172,46.3381954],"bbox":[15.3830172,46.2981954,15.4630172,46.3781954],"border":{"name":"Slovenske Konjice","other_names":{"ref":"114","name:lt":"Slovenske Konicės","name:ru":"Словенске-Конице","name:sl":"Slovenske Konjice","ISO3166-2":"SI-114","old_name:de":"Gonobitz","name:de":"Slovenske Konjice","name:sr":"Словенске Коњице","alt_name:de":"Gonobitz"},"display_name":"Slovenske Konjice, Slovenija","address":{"municipality":"Slovenske Konjice","ISO3166-2-lvl8":"SI-114","country":"Slovenija","country_code":"si"},"population":5000,"osm_type":"relation","osm_id":1676314,"type":"administrative","location":[15.4230172,46.3381954],"bbox":[15.3560676,46.278095,15.5537236,46.371414]}}
{"name":"Šoštanj","other_names":{"name:de":"Schönstein","name:ru":"Шоштань","name:sl":"Šoštanj","name:sr":"Шоштањ"},"display_name":"Šoštanj, Slovenija","address":{"town":"Šoštanj","municipality":"Šoštanj","ISO3166-2-lvl8":"SI-126","country":"Slovenija","country_code":"si"},"population":2900,"osm_type":"node","osm_id":96959453,"type":"town","location":[15.0459505,46.3773929],"bbox":[15.0059505,46.3373929,15.0859505,46.4173929],"border":{"name":"Šoštanj","other_names":{"ref":"126","name:de":"Schönstein","name:sl":"Šoštanj","ISO3166-2":"SI-126","name:ru":"Шоштань","name:sr":"Шоштањ"},"display_name":"Šoštanj, Slovenija","address":{"municipality":"Šoštanj","ISO3166-2-lvl8":"SI-126","country":"Slovenija","country_code":"si"},"population":2900,"osm_type":"relation","osm_id":1675890,"type":"administrative","location":[15.0459505,46.3773929],"bbox":[14.8816052,46.3486594,15.0906721,46.4560518]}}
{"name":"Tolmin","other_names":{"name:de":"Tolmein","name:it":"Tolmino","name:ru":"Толмин","name:sl":"Tolmin","name:sr":"Толмин","name:fur":"Tulmin","old_name:it":"Tulmino"},"display_name":"Tolmin, Slovenija","address":{"town":"Tolmin","municipality":"Tolmin","ISO3166-2-lvl8":"SI-128","country":"Slovenija","country_code":"si"},"population":3600,"osm_type":"node","osm_id":288997618,"type":"town","location":[13.7333382,46.1829212],"bbox":[13.6933382,46.1429212,13.7733382,46.2229212],"border":{"name":"Tolmin","other_names":{"ref":"128","name:it":"Tolmino","name:sl":"Tolmin","name:fur":"Tulmin","ISO3166-2":"SI-128","old_name:it":"Tulmino","name:de":"Tolmein","name:ru":"Толмин","name:sr":"Толмин"},"display_name":"Tolmin, Slovenija","address":{"municipality":"Tolmin","ISO3166-2-lvl8":"SI-128","country":"Slovenija","country_code":"si"},"population":3600,"osm_type":"relation","osm_id":1675778,"type":"administrative","location":[13.7333382,46.1829212],"bbox":[13.6188013,46.0050295,14.0086358,46.2828119]}}
{"name":"Trbovlje","other_names":{"name:ar":"تربوفلجه","name:be":"Трбоўле","name:bg":"Тръбволе","name:ce":"Трбовле","name:el":"Τρμπόβλιε","name:fa":"تربولیه","name:hy":"Տրբովլե","name:ja":"トルボヴリェ","name:ka":"ტრბოვლიე","name:ko":"트르보블레","name:la":"Castrum Tiuelis","name:lt":"Trbovlės","name:mk":"Трбовље","name:mn":"Трбовле","name:ru":"Трбовле","name:sl":"Trbovlje","name:sr":"Трбовље","name:tt":"Трбовле","name:uk":"Трбовлє","name:ur":"تربوولیے","alt_name:de":"Trifail","alt_name:la":"Triuella","alt_name:uk":"Трбовле","name:zh-Hans":"特尔伯夫列","name:zh-Hant":"特爾伯夫列"},"display_name":"Trbovlje, 1420, Slovenija","address":{"town":"Trbovlje","municipality":"Trbovlje","ISO3166-2-lvl8":"SI-129","postcode":"1420","country":"Slovenija","country_code":"si"},"population":15500,"osm_type":"node","osm_id":57091263,"type":"town","location":[15.0540204,46.1558964],"bbox":[15.0140204,46.1158964,15.0940204,46.1958964],"border":{"name":"Trbovlje","other_names":{"ref":"129","name:de":"Trifail","name:sl":"Trbovlje","ISO3166-2":"SI-129","name:ar":"تربوفلجه","name:be":"Трбоўле","name:bg":"Тръбволе","name:ce":"Трбовле","name:el":"Τρμπόβλιε","name:fa":"تربولیه","name:hy":"Տրբովլե","name:ja":"トルボヴリェ","name:ka":"ტრბოვლიე","name:ko":"트르보블레","name:la":"Castrum Tiuelis","name:lt":"Trbovlės","name:mk":"Трбовље","name:mn":"Трбовле","name:ru":"Трбовле","name:sr":"Трбовље","name:tt":"Трбовле","name:uk":"Трбовлє","name:ur":"تربوولیے","alt_name:de":"Trifail","alt_name:la":"Triuella","alt_name:uk":"Трбовле","name:zh-Hans":"特尔伯夫列","name:zh-Hant":"特爾伯夫列"},"display_name":"Trbovlje, Slovenija","address":{"municipality":"Trbovlje","ISO3166-2-lvl8":"SI-129","country":"Slovenija","country_code":"si"},"population":15500,"osm_type":"relation","osm_id":1681510,"type":"administrative","location":[15.0540204,46.1558964],"bbox":[14.9804946,46.0768851,15.1093702,46.1974405]}}
{"name":"Trebnje","other_names":{"name:de":"Treffen","name:lt":"Trebnė","name:ru":"Требне","name:sl":"Trebnje","name:sr":"Требње"},"display_name":"Trebnje, Slovenija","address":{"town":"Trebnje","municipality":"Trebnje","ISO3166-2-lvl8":"SI-130","country":"Slovenija","country_code":"si"},"population":3927,"osm_type":"node","osm_id":57076536,"type":"town","location":[15.0071462,45.9079394],"bbox":[14.9671462,45.8679394,15.0471462,45.9479394],"border":{"name":"Trebnje","other_names":{"ref":"130","name:de":"Treffen","name:sl":"Trebnje","ISO3166-2":"SI-130","name:lt":"Trebnė","name:ru":"Требне","name:sr":"Требње"},"display_name":"Trebnje, Slovenija","address":{"municipality":"Trebnje","ISO3166-2-lvl8":"SI-130","country":"Slovenija","country_code":"si"},"population":3927,"osm_type":"relation","osm_id":1681522,"type":"administrative","location":[15.0071462,45.9079394],"bbox":[14.8604365,45.8380016,15.1078526,45.9786105]}}
{"name":"Tržič","other_names":{"name:de":"Neumarktl","name:lt":"Tržičius","name:ru":"Тржич","name:sl":"Tržič","name:sr":"Тржич"},"display_name":"Tržič, Slovenija","address":{"town":"Tržič","municipality":"Tržič","ISO3166-2-lvl8":"SI-131","country":"Slovenija","country_code":"si"},"population":3900,"osm_type":"node","osm_id":44729636,"type":"town","location":[14.3095397,46.3636679],"bbox":[14.2695397,46.3236679,14.3495397,46.4036679],"border":{"name":"Tržič","other_names":{"ref":"131","name:de":"Neumarktl","name:sl":"Tržič","ISO3166-2":"SI-131","name:lt":"Tržičius","name:ru":"Тржич","name:sr":"Тржич"},"display_name":"Tržič, Slovenija","address":{"municipality":"Tržič","ISO3166-2-lvl8":"SI-131","country":"Slovenija","country_code":"si"},"population":3900,"osm_type":"relation","osm_id":1675608,"type":"administrative","location":[14.3095397,46.3636679],"bbox":[14.2332991,46.3138282,14.4422648,46.4470427]}}
{"name":"Velenje","other_names":{"name:ar":"فيلينيه","name:az":"Velenye","name:be":"Вяленье","name:bg":"Велене","name:ce":"Велене","name:el":"Βελένιε","name:fa":"ولنیه","name:hy":"Վելենիե","name:ja":"ヴェレニエ","name:ka":"ველენიე","name:ko":"벨레네","name:lt":"Velenė","name:mk":"Велење","name:os":"Веленье","name:ru":"Веленье","name:sl":"Velenje","name:sr":"Велење","name:th":"แวแลนิแย","name:tt":"Велене","name:uk":"Веленє","name:pnb":"ویلینیو","old_name":"Titovo Velenje","alt_name:de":"Wöllan","old_name:be":"Цітава Вяленье","old_name:el":"Τίτοβο Βελένιε;Βελένιε του Τίτο","old_name:en":"Tito's Velenje","old_name:hy":"Տիտովո Վելենիե","old_name:it":"Velenje di Tito","old_name:ko":"티토보벨레네","old_name:mk":"Титово Велење","old_name:sr":"Титово Велење","old_name:uk":"Тітово Веленє","name:zh-Hans":"韦莱涅","name:zh-Hant":"韋萊涅"},"display_name":"Velenje, 3320, Slovenija","address":{"town":"Velenje","municipality":"Velenje","ISO3166-2-lvl8":"SI-133","postcode":"3320","country":"Slovenija","country_code":"si"},"population":25800,"osm_type":"node","osm_id":56758589,"type":"town","location":[15.1150301,46.3592869],"bbox":[15.0750301,46.3192869,15.1550301,46.3992869],"border":{"name":"Velenje","other_names":{"ref":"133","name:de":"Wöllan","name:sl":"Velenje","ISO3166-2":"SI-133","name:ar":"فيلينيه","name:az":"Velenye","name:be":"Вяленье","name:bg":"Велене","name:ce":"Велене","name:el":"Βελένιε","name:fa":"ولنیه","name:hy":"Վելենիե","name:ja":"ヴェレニエ","name:ka":"ველენიე","name:ko":"벨레네","name:lt":"Velenė","name:mk":"Велење","name:os":"Веленье","name:ru":"Веленье","name:sr":"Велење","name:th":"แวแลนิแย","name:tt":"Велене","name:uk":"Веленє","name:pnb":"ویلینیو","old_name":"Titovo Velenje","alt_name:de":"Wöllan","old_name:be":"Цітава Вяленье","old_name:el":"Τίτοβο Βελένιε;Βελένιε του Τίτο","old_name:en":"Tito's Velenje","old_name:hy":"Տիտովո Վելենիե","old_name:it":"Velenje di Tito","old_name:ko":"티토보벨레네","old_name:mk":"Титово Велење","old_name:sr":"Титово Велење","old_name:uk":"Тітово Веленє","name:zh-Hans":"韦莱涅","name:zh-Hant":"韋萊涅"},"display_name":"Velenje, 3320, Slovenija","address":{"municipality":"Velenje","ISO3166-2-lvl8":"SI-133","postcode":"3320","country":"Slovenija","country_code":"si"},"population":25800,"osm_type":"relation","osm_id":1675901,"type":"administrative","location":[15.1150301,46.3592869],"bbox":[15.063432,46.3146223,15.205832,46.4345905]}}
{"name":"Višnja Gora","other_names":{"name:de":"Weixelburg","name:ru":"Вишня-Гора","name:sl":"Višnja Gora","name:sr":"Вишња Гора"},"display_name":"Višnja Gora, Ivančna Gorica, 1294, Slovenija","address":{"town":"Višnja Gora","village":"Ivančna Gorica","ISO3166-2-lvl8":"SI-039","postcode":"1294","country":"Slovenija","country_code":"si"},"population":1090,"osm_type":"node","osm_id":307824253,"type":"town","location":[14.7440991,45.9554365],"bbox":[14.7040991,45.9154365,14.7840991,45.9954365]}
{"name":"Vrhnika","other_names":{"name:de":"Oberlaibach","name:it":"Nauporto","name:la":"Nauportus","name:ru":"Врхника","name:sl":"Vrhnika","name:sr":"Врхника"},"display_name":"Vrhnika, Upravna Enota Vrhnika, 1360, Slovenija","address":{"town":"Vrhnika","municipality":"Vrhnika","ISO3166-2-lvl8":"SI-140","postcode":"1360","country":"Slovenija","country_code":"si"},"population":8200,"osm_type":"node","osm_id":57102712,"type":"town","location":[14.2980772,45.9663607],"bbox":[14.2580772,45.9263607,14.3380772,46.0063607],"border":{"name":"Vrhnika","other_names":{"ref":"140","name:sl":"Vrhnika","ISO3166-2":"SI-140","name:de":"Oberlaibach","name:it":"Nauporto","name:la":"Nauportus","name:ru":"Врхника","name:sr":"Врхника"},"display_name":"Vrhnika, Upravna Enota Vrhnika, 1360, Slovenija","address":{"municipality":"Vrhnika","ISO3166-2-lvl8":"SI-140","postcode":"1360","country":"Slovenija","country_code":"si"},"population":8200,"osm_type":"relation","osm_id":1675849,"type":"administrative","location":[14.2980772,45.9663607],"bbox":[14.1887896,45.869513,14.3831465,46.0257518]}}
{"name":"Zagorje ob Savi","other_names":{"name:de":"Seger an der Sau","name:lt":"Zagorė prie Savos","name:ru":"Загорье-об-Сави","name:sl":"Zagorje ob Savi","name:sr":"Загорје об Сави"},"display_name":"Zagorje ob Savi, 1410, Slovenija","address":{"town":"Zagorje ob Savi","municipality":"Zagorje ob Savi","ISO3166-2-lvl8":"SI-142","postcode":"1410","country":"Slovenija","country_code":"si"},"population":6500,"osm_type":"node","osm_id":57091710,"type":"town","location":[14.9952714,46.1342168],"bbox":[14.9552714,46.0942168,15.0352714,46.1742168],"border":{"name":"Zagorje ob Savi","other_names":{"ref":"142","name:de":"Seger an der Sau","name:sl":"Zagorje ob Savi","ISO3166-2":"SI-142","name:lt":"Zagorė prie Savos","name:ru":"Загорье-об-Сави","name:sr":"Загорје об Сави"},"display_name":"Zagorje ob Savi, Slovenija","address":{"municipality":"Zagorje ob Savi","ISO3166-2-lvl8":"SI-142","country":"Slovenija","country_code":"si"},"population":6500,"osm_type":"relation","osm_id":1681511,"type":"administrative","location":[14.9952714,46.1342168],"bbox":[14.8118117,46.0497018,15.0858015,46.2076253]}}
{"name":"Žalec","other_names":{"name:de":"Sachsenfeld","name:ru":"Жалец","name:sl":"Žalec","name:sr":"Жалец"},"display_name":"Žalec, Slovenija","address":{"town":"Žalec","municipality":"Žalec","ISO3166-2-lvl8":"SI-190","country":"Slovenija","country_code":"si"},"population":5000,"osm_type":"node","osm_id":279372024,"type":"town","location":[15.1632057,46.2517774],"bbox":[15.1232057,46.2117774,15.2032057,46.2917774],"border":{"name":"Žalec","other_names":{"ref":"190","name:sl":"Žalec","ISO3166-2":"SI-190","name:de":"Sachsenfeld","name:ru":"Жалец","name:sr":"Жалец"},"display_name":"Žalec, Slovenija","address":{"municipality":"Žalec","ISO3166-2-lvl8":"SI-190","country":"Slovenija","country_code":"si"},"population":5000,"osm_type":"relation","osm_id":1676311,"type":"administrative","location":[15.1632057,46.2517774],"bbox":[15.0972711,46.1816662,15.2252427,46.3406462]}}
{"name":"Železniki","other_names":{"name:de":"Eisnern","name:lt":"Železnikai","name:ru":"Железники","name:sl":"Železniki","name:sr":"Железники"},"display_name":"Železniki, Slovenija","address":{"town":"Železniki","municipality":"Železniki","ISO3166-2-lvl8":"SI-146","country":"Slovenija","country_code":"si"},"population":3100,"osm_type":"node","osm_id":56745686,"type":"town","location":[14.1693085,46.2257913],"bbox":[14.1293085,46.1857913,14.2093085,46.2657913],"border":{"name":"Železniki","other_names":{"ref":"146","name:de":"Eisnern","name:sl":"Železniki","ISO3166-2":"SI-146","name:lt":"Železnikai","name:ru":"Железники","name:sr":"Железники"},"display_name":"Železniki, Slovenija","address":{"municipality":"Železniki","ISO3166-2-lvl8":"SI-146","country":"Slovenija","country_code":"si"},"population":3100,"osm_type":"relation","osm_id":1675838,"type":"administrative","location":[14.1693085,46.2257913],"bbox":[13.985558,46.1535853,14.2477252,46.2829934]}}
{"name":"Žiri","other_names":{"name:de":"Sairach","name:ru":"Жири","name:sl":"Žiri","name:sr":"Жири"},"display_name":"Žiri, Slovenija","address":{"town":"Žiri","municipality":"Žiri","ISO3166-2-lvl8":"SI-147","country":"Slovenija","country_code":"si"},"population":3600,"osm_type":"node","osm_id":3426274016,"type":"town","location":[14.1106226,46.0510703],"bbox":[14.0706226,46.0110703,14.1506226,46.0910703],"border":{"name":"Žiri","other_names":{"ref":"147","name:sl":"Žiri","ISO3166-2":"SI-147","name:de":"Sairach","name:ru":"Жири","name:sr":"Жири"},"display_name":"Žiri, 4226, Slovenija","address":{"municipality":"Žiri","ISO3166-2-lvl8":"SI-147","postcode":"4226","country":"Slovenija","country_code":"si"},"population":3600,"osm_type":"relation","osm_id":1681531,"type":"administrative","location":[14.1106226,46.0510703],"bbox":[14.0280369,46.0034237,14.1863761,46.0849943]}}
{"name":"Zreče","other_names":{"name:de":"Rötschach bei Gobonitz","name:ru":"Зрече","name:sr":"Зрече"},"display_name":"Zreče, Slovenija","address":{"town":"Zreče","municipality":"Zreče","ISO3166-2-lvl8":"SI-144","country":"Slovenija","country_code":"si"},"population":2935,"osm_type":"node","osm_id":1698217078,"type":"town","location":[15.3900185,46.3716354],"bbox":[15.3500185,46.3316354,15.4300185,46.4116354],"border":{"name":"Zreče","other_names":{"ref":"144","name:de":"Rötschach bei Gobonitz","name:sl":"Zreče","ISO3166-2":"SI-144","name:ru":"Зрече","name:sr":"Зрече"},"display_name":"Zreče, Slovenija","address":{"municipality":"Zreče","ISO3166-2-lvl8":"SI-144","country":"Slovenija","country_code":"si"},"population":2935,"osm_type":"relation","osm_id":1676315,"type":"administrative","location":[15.3900185,46.3716354],"bbox":[15.3101225,46.3333182,15.4227462,46.4802393]}}
