{"name":"Celje","other_names":{"name:ar":"تسليه","name:az":"Sele","name:ba":"Целе","name:be":"Цэле","name:bg":"Целе","name:de":"Cilli","name:el":"Τσέλιε","name:fa":"تسلیه","name:he":"צליה","name:hu":"Cille","name:hy":"Ցելե","name:ja":"ツェリェ","name:ka":"ცელიე","name:ko":"첼레","name:ky":"Целле","name:la":"Celeia","name:lt":"Celė","name:lv":"Ceļe","name:mk":"Цеље","name:ml":"സെൽയെ","name:os":"Целе","name:ru":"Целе","name:sl":"Celje","name:sr":"Цеље","name:th":"แซลิแย","name:tt":"Целе","name:uk":"Целє","name:ur":"تسیلیے","name:zh":"采列","name:mdf":"Цэле","name:pnb":"سیلیے","name:wuu":"采列","alt_name:it":"Cilli","alt_name:os":"Целье","alt_name:uk":"Целе"},"display_name":"Celje, 3000, Slovenija","address":{"city":"Celje","municipality":"Celje","ISO3166-2-lvl8":"SI-011","postcode":"3000","country":"Slovenija","country_code":"si"},"population":37872,"osm_type":"node","osm_id":30483320,"type":"city","location":[15.2616828,46.2293889],"bbox":[15.1016828,46.0693889,15.4216828,46.3893889],"border":{"name":"Celje","other_names":{"ref":"11","name:sl":"Celje","ISO3166-2":"SI-011","name:ar":"تسليه","name:az":"Sele","name:ba":"Целе","name:be":"Цэле","name:bg":"Целе","name:de":"Cilli","name:el":"Τσέλιε","name:fa":"تسلیه","name:he":"צליה","name:hu":"Cille","name:hy":"Ցելե","name:ja":"ツェリェ","name:ka":"ცელიე","name:ko":"첼레","name:ky":"Целле","name:la":"Celeia","name:lt":"Celė","name:lv":"Ceļe","name:mk":"Цеље","name:ml":"സെൽയെ","name:os":"Целе","name:ru":"Целе","name:sr":"Цеље","name:th":"แซลิแย","name:tt":"Целе","name:uk":"Целє","name:ur":"تسیلیے","name:zh":"采列","name:mdf":"Цэле","name:pnb":"سیلیے","name:wuu":"采列","alt_name:it":"Cilli","alt_name:os":"Целье","alt_name:uk":"Целе"},"display_name":"Celje, Slovenija","address":{"municipality":"Celje","ISO3166-2-lvl8":"SI-011","country":"Slovenija","country_code":"si"},"population":37872,"osm_type":"relation","osm_id":1676306,"type":"administrative","location":[15.2616828,46.2293889],"bbox":[15.2093146,46.1885089,15.3529809,46.321041]}}
{"name":"Kranj","other_names":{"name:ar":"كراني","name:be":"Крань","name:bg":"Кран","name:ce":"Крань","name:de":"Krainburg","name:el":"Κραν","name:fa":"کرانی","name:he":"קראן","name:hy":"Կրան","name:it":"Craimburgo","name:ja":"クラーニ","name:ka":"კრანი","name:ko":"크란","name:la":"Carnioburgum","name:lt":"Kranis","name:lv":"Kraņa","name:mk":"Крањ","name:ml":"ക്രാൻ","name:os":"Крань","name:ps":"کراني","name:ru":"Крань","name:sl":"Kranj","name:sr":"Крањ","name:th":"คราน","name:tt":"Крань","name:uk":"Крань","name:ur":"کران","name:zh":"克拉尼","name:mdf":"Крань","name:pnb":"کرانج","name:wuu":"克拉尼","alt_name:it":"Carnio","alt_name:ja":"クラン","alt_name:la":"Carnium","alt_name:os":"Крайнбург"},"display_name":"Kranj, 4000, Slovenija","address":{"city":"Kranj","municipality":"Kranj","ISO3166-2-lvl8":"SI-052","postcode":"4000","country":"Slovenija","country_code":"si"},"population":36800,"osm_type":"node","osm_id":29098951,"type":"city","location":[14.3549353,46.2432913],"bbox":[14.1949353,46.0832913,14.5149353,46.4032913],"border":{"name":"Kranj","other_names":{"ref":"52","name:de":"Krainburg","name:it":"Craimburgo","name:sl":"Kranj","ISO3166-2":"SI-052","alt_name:it":"Carnio","name:ar":"كراني","name:be":"Крань","name:bg":"Кран","name:ce":"Крань","name:el":"Κραν","name:fa":"کرانی","name:he":"קראן","name:hy":"Կրան","name:ja":"クラーニ","name:ka":"კრანი","name:ko":"크란","name:la":"Carnioburgum","name:lt":"Kranis","name:lv":"Kraņa","name:mk":"Крањ","name:ml":"ക്രാൻ","name:os":"Крань","name:ps":"کراني","name:ru":"Крань","name:sr":"Крањ","name:th":"คราน","name:tt":"Крань","name:uk":"Крань","name:ur":"کران","name:zh":"克拉尼","name:mdf":"Крань","name:pnb":"کرانج","name:wuu":"克拉尼","alt_name:ja":"クラン","alt_name:la":"Carnium","alt_name:os":"Крайнбург"},"display_name":"Kranj, Slovenija","address":{"municipality":"Kranj","ISO3166-2-lvl8":"SI-052","country":"Slovenija","country_code":"si"},"population":57065,"osm_type":"relation","osm_id":1675676,"type":"administrative","location":[14.3549353,46.2432913],"bbox":[14.1638435,46.1577346,14.4224828,46.3504352]}}
{"name":"Ljubljana","other_names":{"name:am":"ልዩብልያና","name:ar":"ليوبليانا","name:av":"Любляна","name:az":"Lyublyana","name:ba":"Любляна","name:be":"Любляна","name:bg":"Любляна","name:bn":"লিউব্লিয়ানা","name:bo":"ལི་པོ་ཡ་ན།","name:br":"Ljubljana","name:ca":"Ljubljana","name:ce":"Любляна","name:cs":"Lublaň","name:cu":"Люблꙗна","name:cv":"Любляна","name:da":"Ljubljana","name:de":"Laibach","name:el":"Λιουμπλιάνα","name:en":"Ljubljana","name:eo":"Ljubljano","name:es":"Liubliana","name:et":"Ljubljana","name:fa":"لیوبلیانا","name:fi":"Ljubljana","name:fr":"Ljubljana","name:ga":"Liúibleána","name:gl":"Liubliana","name:he":"ליובליאנה","name:hi":"लुब्लियाना","name:ht":"Lyoubyana","name:hu":"Ljubljana","name:hy":"Լյուբլյանա","name:is":"Ljubljana","name:it":"Lubiana","name:ja":"リュブリャナ","name:ka":"ლიუბლიანა","name:kk":"Любляна","name:ko":"류블랴나","name:ku":"Ljubljana","name:ky":"Любляна","name:la":"Labacum","name:ln":"Lyublyana","name:lt":"Liubliana","name:lv":"Ļubļana","name:mk":"Љубљана","name:ml":"ലുബ്ലിയാന","name:mn":"Любляна","name:mr":"लियुब्लियाना","name:nl":"Ljubljana","name:no":"Ljubljana","name:oc":"Ljubljana","name:os":"Люблянæ","name:pa":"ਲਿਊਬਲਿਆਨਾ","name:pl":"Lublana","name:ps":"لیوبلیانا","name:pt":"Liubliana","name:ro":"Ljubljana","name:ru":"Любляна","name:sc":"Lubiana","name:sk":"Ľubľana","name:sl":"Ljubljana","name:sq":"Lubjana","name:sr":"Љубљана","name:sv":"Ljubljana","name:sw":"Lyublyana","name:ta":"லியுப்லியானா","name:tg":"Любляна","name:th":"ลูบลิยานา","name:tl":"Liubliana","name:tr":"Lübliyana","name:tt":"Любляна","name:ug":"ليۇبليانا","name:uk":"Любляна","name:ur":"لیوبلیانا","name:uz":"Lyublyana","name:vi":"Ljubljana","name:wo":"Jubaljana","name:yi":"ליובליאנא","name:zh":"盧布爾雅那","name:arz":"ليوبليانا","name:ast":"Liubliana","name:bar":"Laiboch","name:ckb":"لیوبلیانا","name:crh":"Lüblâna","name:ext":"Liubliana","name:fur":"Lubiane","name:gag":"L'yublyana","name:gsw":"Laibach","name:kaa":"Lyublyana","name:kab":"Lyubyana","name:lij":"Lubiann-a","name:lmo":"Lübiana","name:myv":"Любляна","name:nah":"Liubliana","name:nrm":"Liublianne","name:pms":"Lubian-a","name:pnb":"لیوبلیانا","name:rue":"Любляна","name:sah":"Любляна","name:sgs":"Liublijana","name:udm":"Любляна","name:vec":"Łubiana","name:vep":"Lüblän","name:wuu":"卢布尔雅那","name:xmf":"ლიუბლიანა","name:yue":"盧布爾雅那","alt_name:gl":"Ljubljana","alt_name:la":"Aemona","old_name:el":"Λάιμπαχ","name:bat-smg":"Liublijana","name:sr-Latn":"Ljubljana","name:zh-Hans":"卢布尔雅那","name:be-tarask":"Любляна"},"display_name":"Ljubljana, Upravna Enota Ljubljana, 1000, Slovenija","address":{"city":"Ljubljana","municipality":"Ljubljana","ISO3166-2-lvl8":"SI-061","postcode":"1000","country":"Slovenija","country_code":"si"},"population":285604,"osm_type":"node","osm_id":6968827,"type":"city","location":[14.5069289,46.0500268],"bbox":[14.3469289,45.8900268,14.6669289,46.2100268],"border":{"name":"Ljubljana","other_names":{"ref":"61","name:de":"Laibach","name:es":"Liubliana","name:gl":"Liubliana","name:ko":"류블랴나","name:ru":"Любляна","name:sk":"Ľubľana","name:sl":"Ljubljana","ISO3166-2":"SI-061","alt_name:de":"Laibach","name:am":"ልዩብልያና","name:ar":"ليوبليانا","name:av":"Любляна","name:az":"Lyublyana","name:ba":"Любляна","name:be":"Любляна","name:bg":"Любляна","name:bn":"লিউব্লিয়ানা","name:bo":"ལི་པོ་ཡ་ན།","name:br":"Ljubljana","name:ca":"Ljubljana","name:ce":"Любляна","name:cs":"Lublaň","name:cu":"Люблꙗна","name:cv":"Любляна","name:da":"Ljubljana","name:el":"Λιουμπλιάνα","name:en":"Ljubljana","name:eo":"Ljubljano","name:et":"Ljubljana","name:fa":"لیوبلیانا","name:fi":"Ljubljana","name:fr":"Ljubljana","name:ga":"Liúibleána","name:he":"ליובליאנה","name:hi":"लुब्लियाना","name:ht":"Lyoubyana","name:hu":"Ljubljana","name:hy":"Լյուբլյանա","name:is":"Ljubljana","name:it":"Lubiana","name:ja":"リュブリャナ","name:ka":"ლიუბლიანა","name:kk":"Любляна","name:ku":"Ljubljana","name:ky":"Любляна","name:la":"Labacum","name:ln":"Lyublyana","name:lt":"Liubliana","name:lv":"Ļubļana","name:mk":"Љубљана","name:ml":"ലുബ്ലിയാന","name:mn":"Любляна","name:mr":"लियुब्लियाना","name:nl":"Ljubljana","name:no":"Ljubljana","name:oc":"Ljubljana","name:os":"Люблянæ","name:pa":"ਲਿਊਬਲਿਆਨਾ","name:pl":"Lublana","name:ps":"لیوبلیانا","name:pt":"Liubliana","name:ro":"Ljubljana","name:sc":"Lubiana","name:sq":"Lubjana","name:sr":"Љубљана","name:sv":"Ljubljana","name:sw":"Lyublyana","name:ta":"லியுப்லியானா","name:tg":"Любляна","name:th":"ลูบลิยานา","name:tl":"Liubliana","name:tr":"Lübliyana","name:tt":"Любляна","name:ug":"ليۇبليانا","name:uk":"Любляна","name:ur":"لیوبلیانا","name:uz":"Lyublyana","name:vi":"Ljubljana","name:wo":"Jubaljana","name:yi":"ליובליאנא","name:zh":"盧布爾雅那","name:arz":"ليوبليانا","name:ast":"Liubliana","name:bar":"Laiboch","name:ckb":"لیوبلیانا","name:crh":"Lüblâna","name:ext":"Liubliana","name:fur":"Lubiane","name:gag":"L'yublyana","name:gsw":"Laibach","name:kaa":"Lyublyana","name:kab":"Lyubyana","name:lij":"Lubiann-a","name:lmo":"Lübiana","name:myv":"Любляна","name:nah":"Liubliana","name:nrm":"Liublianne","name:pms":"Lubian-a","name:pnb":"لیوبلیانا","name:rue":"Любляна","name:sah":"Любляна","name:sgs":"Liublijana","name:udm":"Любляна","name:vec":"Łubiana","name:vep":"Lüblän","name:wuu":"卢布尔雅那","name:xmf":"ლიუბლიანა","name:yue":"盧布爾雅那","alt_name:gl":"Ljubljana","alt_name:la":"Aemona","old_name:el":"Λάιμπαχ","name:bat-smg":"Liublijana","name:sr-Latn":"Ljubljana","name:zh-Hans":"卢布尔雅那","name:be-tarask":"Любляна"},"display_name":"Ljubljana, Upravna Enota Ljubljana, Slovenija","address":{"municipality":"Ljubljana","ISO3166-2-lvl8":"SI-061","country":"Slovenija","country_code":"si"},"population":285604,"osm_type":"relation","osm_id":1675898,"type":"administrative","location":[14.5069289,46.0500268],"bbox":[14.408617,45.9740637,14.755332,46.1459968]}}
{"name":"Maribor","other_names":{"name:ar":"ماريبور","name:ba":"Марибор","name:be":"Марыбар","name:bg":"Марибор","name:ce":"Марибор","name:de":"Marburg","name:el":"Μάριμπορ","name:fa":"ماریبور","name:he":"מריבור","name:hr":"Maribor","name:hy":"Մարիբոր","name:it":"Maribor","name:ja":"マリボル","name:ka":"მარიბორი","name:ko":"마리보르","name:la":"Marburgum","name:lt":"Mariboras","name:lv":"Maribora","name:mk":"Марибор","name:ml":"മാരിബോർ","name:mr":"मारिबोर","name:os":"Марибор","name:ps":"ماریبور","name:ru":"Марибор","name:sl":"Maribor","name:sq":"Maribori","name:sr":"Марибор","name:th":"มาริบอร์","name:tt":"Марибор","name:uk":"Марибор","name:ur":"ماریبور","name:bar":"Marburg an da Drau","name:fur":"Marburc","name:mdf":"Марибор","name:pnb":"ماریبور","name:vec":"Marburgo","name:wuu":"马里博尔","name:xmf":"მარიბორი","old_name":"Marburg an der Drau","alt_name:de":"Marburg an der Drau","alt_name:it":"Marburgo sulla Drava","alt_name:ko":"마르부르크안데어드라우","alt_name:la":"Marburgum super Dravum","old_name:it":"Marburgo","name:ja-Latn":"mariboru","name:zh-Hans":"马里博尔","name:zh-Hant":"馬里波爾"},"display_name":"Maribor, 2000, Slovenija","address":{"city":"Maribor","municipality":"Maribor","ISO3166-2-lvl8":"SI-070","postcode":"2000","country":"Slovenija","country_code":"si"},"population":96000,"osm_type":"node","osm_id":36667529,"type":"city","location":[15.6455854,46.5576439],"bbox":[15.4855854,46.3976439,15.8055854,46.7176439],"border":{"name":"Maribor","other_names":{"ref":"70","name:ar":"ماريبور","name:de":"Maribor","name:it":"Maribor","name:sl":"Maribor","ISO3166-2":"SI-070","alt_name:de":"Marburg an der Drau","name:ba":"Марибор","name:be":"Марыбар","name:bg":"Марибор","name:ce":"Марибор","name:el":"Μάριμπορ","name:fa":"ماریبور","name:he":"מריבור","name:hr":"Maribor","name:hy":"Մարիբոր","name:ja":"マリボル","name:ka":"მარიბორი","name:ko":"마리보르","name:la":"Marburgum","name:lt":"Mariboras","name:lv":"Maribora","name:mk":"Марибор","name:ml":"മാരിബോർ","name:mr":"मारिबोर","name:os":"Марибор","name:ps":"ماریبور","name:ru":"Марибор","name:sq":"Maribori","name:sr":"Марибор","name:th":"มาริบอร์","name:tt":"Марибор","name:uk":"Марибор","name:ur":"ماریبور","name:bar":"Marburg an da Drau","name:fur":"Marburc","name:mdf":"Марибор","name:pnb":"ماریبور","name:vec":"Marburgo","name:wuu":"马里博尔","name:xmf":"მარიბორი","old_name":"Marburg an der Drau","alt_name:it":"Marburgo sulla Drava","alt_name:ko":"마르부르크안데어드라우","alt_name:la":"Marburgum super Dravum","old_name:it":"Marburgo","name:ja-Latn":"mariboru","name:zh-Hans":"马里博尔","name:zh-Hant":"馬里波爾","alt:de":"Marburg"},"display_name":"Maribor, Slovenija","address":{"municipality":"Maribor","ISO3166-2-lvl8":"SI-070","country":"Slovenija","country_code":"si"},"population":96000,"osm_type":"relation","osm_id":1676328,"type":"administrative","location":[15.6455854,46.5576439],"bbox":[15.5169925,46.4994068,15.7722677,46.6342916]}}
